{
"type": "FeatureCollection",
"name": "A29-19_24214",
"features": [
{ "type": "Feature", "properties": { "A29_001": "24214", "A29_002": "三重県", "A29_003": "いなべ市", "A29_004": 7, "A29_005": "準住居地域", "A29_006": 60, "A29_007": 200, "A29_008": null }, "geometry": { "type": "Polygon", "coordinates": [ [ [ 136.566525016000014, 35.110171934 ], [ 136.559980649000011, 35.115172262 ], [ 136.560028241, 35.115249386 ], [ 136.560139192, 35.115415279 ], [ 136.560211256, 35.115541599 ], [ 136.560030015, 35.115668999 ], [ 136.560097941, 35.115767753 ], [ 136.56024639, 35.115994411 ], [ 136.560322985, 35.116109351 ], [ 136.562178417000013, 35.114760137 ], [ 136.56218094499999, 35.114728845 ], [ 136.562188674, 35.114528509 ], [ 136.562588932000011, 35.114536117 ], [ 136.562607681, 35.114534587 ], [ 136.56262014699999, 35.11452867 ], [ 136.562691515000012, 35.114409709 ], [ 136.562714002, 35.114377423 ], [ 136.562729933000014, 35.114364909 ], [ 136.562856126000014, 35.11430573 ], [ 136.56286943399999, 35.11429467 ], [ 136.562887095, 35.114278543 ], [ 136.562960296999989, 35.114155156 ], [ 136.562960086, 35.114124418 ], [ 136.56292019899999, 35.11403536 ], [ 136.562914401, 35.11400582 ], [ 136.562956860000014, 35.114006254 ], [ 136.562996696999988, 35.114008322 ], [ 136.56304585800001, 35.114010258 ], [ 136.563097792, 35.114016687 ], [ 136.56314250299999, 35.114025494 ], [ 136.56318390199999, 35.11399952 ], [ 136.565628170999986, 35.112101422 ], [ 136.565537146999986, 35.111946889 ], [ 136.565443316999989, 35.111846545 ], [ 136.565314289000014, 35.111716708 ], [ 136.566647391, 35.110719439 ], [ 136.566621059, 35.110655469 ], [ 136.566564048, 35.110454173 ], [ 136.566554251000014, 35.110401755 ], [ 136.566544162000014, 35.110259735 ], [ 136.566542461000012, 35.110219899 ], [ 136.566525016000014, 35.110171934 ] ] ] } },
{ "type": "Feature", "properties": { "A29_001": "24214", "A29_002": "三重県", "A29_003": "いなべ市", "A29_004": 5, "A29_005": "第一種住居地域", "A29_006": 60, "A29_007": 200, "A29_008": null }, "geometry": { "type": "Polygon", "coordinates": [ [ [ 136.564206555999988, 35.106310149 ], [ 136.563936855, 35.106634211 ], [ 136.563619735, 35.107065494 ], [ 136.563511849, 35.107248718 ], [ 136.563490107, 35.10729335 ], [ 136.563455048, 35.107363375 ], [ 136.56337078199999, 35.107519896 ], [ 136.563257818000011, 35.107746413 ], [ 136.563149965, 35.107966595 ], [ 136.563024766000012, 35.108216696 ], [ 136.562903150000011, 35.108461552 ], [ 136.562790229, 35.108678693 ], [ 136.562641686, 35.108980104 ], [ 136.56252666099999, 35.109210686 ], [ 136.56247667, 35.109295112 ], [ 136.56240170699999, 35.109401199 ], [ 136.56235418599999, 35.109461997 ], [ 136.56232153799999, 35.109500009 ], [ 136.56229517, 35.109526093 ], [ 136.562265623, 35.109552462 ], [ 136.562212738, 35.109598861 ], [ 136.56200225, 35.109762187 ], [ 136.561931503000011, 35.109811373 ], [ 136.56149446, 35.110115111 ], [ 136.561213595, 35.110318154 ], [ 136.56092645199999, 35.11051771 ], [ 136.560693253000011, 35.110681229 ], [ 136.560485973, 35.110785132 ], [ 136.560119418999989, 35.111002992 ], [ 136.559812548999986, 35.111190107 ], [ 136.559482460999988, 35.111383097 ], [ 136.559474157000011, 35.111387913 ], [ 136.559259903, 35.11153133 ], [ 136.559155487, 35.111614564 ], [ 136.55905127, 35.111710778 ], [ 136.55857234199999, 35.11219742 ], [ 136.55844562199999, 35.112324116 ], [ 136.55828780600001, 35.11249161 ], [ 136.55815726899999, 35.112589567 ], [ 136.558089343, 35.112634861 ], [ 136.558038602000011, 35.112658442 ], [ 136.557946093, 35.112702498 ], [ 136.557821843, 35.112741111 ], [ 136.55742757199999, 35.112837936 ], [ 136.557373555, 35.11284774 ], [ 136.557242003999988, 35.112877461 ], [ 136.556877692, 35.112959995 ], [ 136.55672735499999, 35.113002062 ], [ 136.556660361000013, 35.113023193 ], [ 136.556523649000013, 35.113068532 ], [ 136.55643505, 35.113106889 ], [ 136.556366249, 35.113136592 ], [ 136.556193193000013, 35.113209592 ], [ 136.55599304399999, 35.113299122 ], [ 136.55576997, 35.113389297 ], [ 136.55554116, 35.113491037 ], [ 136.555359986000013, 35.113564163 ], [ 136.555145900000014, 35.113653395 ], [ 136.55508228299999, 35.113671174 ], [ 136.554978334999987, 35.113695088 ], [ 136.554922997, 35.113704265 ], [ 136.55486115799999, 35.113709326 ], [ 136.55476937200001, 35.113714704 ], [ 136.554649375, 35.113717687 ], [ 136.554518059, 35.113717747 ], [ 136.55437758799999, 35.113726593 ], [ 136.554264983, 35.113735671 ], [ 136.554176218, 35.113749779 ], [ 136.554031321999986, 35.113769462 ], [ 136.553838224, 35.11379928 ], [ 136.55367569399999, 35.11382319 ], [ 136.553404242, 35.113865535 ], [ 136.55324028699999, 35.113889541 ], [ 136.553077718, 35.113907861 ], [ 136.553131164, 35.113943224 ], [ 136.553151976, 35.113987119 ], [ 136.553157653, 35.114015579 ], [ 136.553180386, 35.114116437 ], [ 136.553182263, 35.114166909 ], [ 136.553134147, 35.114384556 ], [ 136.553089306, 35.114745969 ], [ 136.55303512399999, 35.115007634 ], [ 136.55307537499999, 35.115005918 ], [ 136.553193633, 35.114988972 ], [ 136.553264774000013, 35.114964038 ], [ 136.553466660999987, 35.114968165 ], [ 136.55348404599999, 35.114975838 ], [ 136.553489004999989, 35.114995286 ], [ 136.553490098999987, 35.115157 ], [ 136.553501547, 35.115243937 ], [ 136.553521655999987, 35.115281165 ], [ 136.553796709000011, 35.115527174 ], [ 136.55386299, 35.115643338 ], [ 136.553897868, 35.11570682 ], [ 136.553931153, 35.115778152 ], [ 136.553948256000012, 35.115857401 ], [ 136.553965607, 35.115892478 ], [ 136.553997748, 35.115924332 ], [ 136.554045884, 35.115953049 ], [ 136.554141140000013, 35.116038521 ], [ 136.554181382, 35.11608404 ], [ 136.55421948, 35.116104599 ], [ 136.55462201, 35.115944555 ], [ 136.55487630499999, 35.115862622 ], [ 136.555374448, 35.115743874 ], [ 136.555492004, 35.115768936 ], [ 136.555707869, 35.115730898 ], [ 136.55621983099999, 35.115708628 ], [ 136.556280601, 35.115723673 ], [ 136.556423231999986, 35.115725362 ], [ 136.556457419, 35.115719346 ], [ 136.55674335, 35.115611393 ], [ 136.556834318999989, 35.115566263 ], [ 136.55694965399999, 35.11553896 ], [ 136.55710647399999, 35.115530037 ], [ 136.557196226, 35.115515562 ], [ 136.55726012400001, 35.115490568 ], [ 136.557434484, 35.115399172 ], [ 136.55754012700001, 35.115511276 ], [ 136.557722304, 35.115906892 ], [ 136.557801804, 35.116062386 ], [ 136.557855426, 35.116187529 ], [ 136.557937831, 35.116286128 ], [ 136.558007773000014, 35.116359094 ], [ 136.55818933099999, 35.11653476 ], [ 136.558224083, 35.116498723 ], [ 136.558272179999989, 35.116441079 ], [ 136.55846043599999, 35.116231619 ], [ 136.55854249699999, 35.116135147 ], [ 136.55865843399999, 35.115986956 ], [ 136.558837659, 35.115708396 ], [ 136.559184832, 35.115171248 ], [ 136.55939934599999, 35.11483979 ], [ 136.559618667, 35.114649926 ], [ 136.559771430000012, 35.114818151 ], [ 136.55985643, 35.114943149 ], [ 136.559980649000011, 35.115172262 ], [ 136.566525016000014, 35.110171934 ], [ 136.566461296999989, 35.109999966 ], [ 136.566397271, 35.110021359 ], [ 136.566201412999987, 35.110094209 ], [ 136.56596127200001, 35.110188179 ], [ 136.565757851, 35.110277921 ], [ 136.565688787, 35.110316464 ], [ 136.56562460699999, 35.110363278 ], [ 136.565507571000012, 35.110412952 ], [ 136.565463222, 35.110424427 ], [ 136.56543695799999, 35.110417789 ], [ 136.565406317999987, 35.110365198 ], [ 136.56538055199999, 35.110287794 ], [ 136.56535836099999, 35.110187927 ], [ 136.565266106, 35.109997612 ], [ 136.56518628500001, 35.10987629 ], [ 136.565158715, 35.109855234 ], [ 136.565094824, 35.109737443 ], [ 136.565018635, 35.109585905 ], [ 136.564884481, 35.109221447 ], [ 136.564868193, 35.109166084 ], [ 136.56480756, 35.109043319 ], [ 136.56470745199999, 35.108843215 ], [ 136.56456719799999, 35.108548195 ], [ 136.56450315699999, 35.108408319 ], [ 136.56446404, 35.108303483 ], [ 136.564407687999989, 35.108164923 ], [ 136.564390814, 35.108135975 ], [ 136.56435120099999, 35.10808631 ], [ 136.564332943000011, 35.108063408 ], [ 136.564364403000013, 35.10801233 ], [ 136.56453403099999, 35.107715416 ], [ 136.564630881, 35.107522958 ], [ 136.56469654899999, 35.107358139 ], [ 136.564740188, 35.107243903 ], [ 136.56481270899999, 35.107086714 ], [ 136.564884669, 35.1069435 ], [ 136.564999398999987, 35.106719408 ], [ 136.565107653000013, 35.10651067 ], [ 136.565143288, 35.106428923 ], [ 136.56517120699999, 35.106341804 ], [ 136.565182838, 35.106278649 ], [ 136.565221624, 35.106097278 ], [ 136.565247034, 35.106043974 ], [ 136.565323021000012, 35.105928235 ], [ 136.565396854, 35.105818366 ], [ 136.565448213, 35.105710404 ], [ 136.565464311, 35.105658946 ], [ 136.565535141, 35.105431903 ], [ 136.56555814699999, 35.105348232 ], [ 136.565625786, 35.105135807 ], [ 136.56569653299999, 35.104976372 ], [ 136.565733924, 35.104910843 ], [ 136.565813717, 35.104790579 ], [ 136.565858896, 35.104740788 ], [ 136.565223029, 35.104807216 ], [ 136.565219391999989, 35.10483653 ], [ 136.5651327, 35.105053912 ], [ 136.56510717099999, 35.105105864 ], [ 136.565070319, 35.105170128 ], [ 136.565033847, 35.105225827 ], [ 136.56484555, 35.105470995 ], [ 136.564640142, 35.105732379 ], [ 136.564441538000011, 35.105994362 ], [ 136.564206555999988, 35.106310149 ] ] ] } },
{ "type": "Feature", "properties": { "A29_001": "24214", "A29_002": "三重県", "A29_003": "いなべ市", "A29_004": 6, "A29_005": "第二種住居地域", "A29_006": 60, "A29_007": 200, "A29_008": null }, "geometry": { "type": "Polygon", "coordinates": [ [ [ 136.565628170999986, 35.112101422 ], [ 136.56318390199999, 35.11399952 ], [ 136.56314250299999, 35.114025494 ], [ 136.563177607, 35.114041286 ], [ 136.563213531, 35.114064557 ], [ 136.563256091, 35.114111504 ], [ 136.56337221199999, 35.114294588 ], [ 136.563400167999987, 35.1143078 ], [ 136.563520108, 35.114264694 ], [ 136.563627247, 35.11435398 ], [ 136.563860092999988, 35.11467994 ], [ 136.563900709, 35.114731404 ], [ 136.56397943799999, 35.114980376 ], [ 136.563991743, 35.115014754 ], [ 136.564093434, 35.11501383 ], [ 136.564104570000012, 35.114671681 ], [ 136.564180467999989, 35.114621388 ], [ 136.564225248000014, 35.114624335 ], [ 136.56431634399999, 35.114646086 ], [ 136.564466049, 35.114671531 ], [ 136.5646877, 35.114709982 ], [ 136.564793917, 35.114745004 ], [ 136.564850302, 35.114776201 ], [ 136.56493924, 35.114834921 ], [ 136.565072269000012, 35.114955635 ], [ 136.565324637, 35.115200372 ], [ 136.56535077800001, 35.115220713 ], [ 136.565582557, 35.115438501 ], [ 136.565839866, 35.115683304 ], [ 136.565868907, 35.115710482 ], [ 136.56588546899999, 35.115725819 ], [ 136.565942912999986, 35.115465846 ], [ 136.565964317, 35.115356401 ], [ 136.5659771, 35.115253667 ], [ 136.566121036, 35.114873128 ], [ 136.56623232699999, 35.114531412 ], [ 136.566278552999989, 35.114426268 ], [ 136.566404049, 35.114092239 ], [ 136.566433995000011, 35.114060098 ], [ 136.566527621, 35.113987815 ], [ 136.56654617699999, 35.113942476 ], [ 136.566552647, 35.113910445 ], [ 136.56654298399999, 35.113877407 ], [ 136.566460709000012, 35.113735274 ], [ 136.566351782999988, 35.113435512 ], [ 136.566282895, 35.113309632 ], [ 136.566215924, 35.113143539 ], [ 136.566021806, 35.112771159 ], [ 136.565789755999987, 35.112370379 ], [ 136.565691109, 35.112208039 ], [ 136.565628170999986, 35.112101422 ] ] ] } },
{ "type": "Feature", "properties": { "A29_001": "24214", "A29_002": "三重県", "A29_003": "いなべ市", "A29_004": 6, "A29_005": "第二種住居地域", "A29_006": 60, "A29_007": 200, "A29_008": null }, "geometry": { "type": "Polygon", "coordinates": [ [ [ 136.538625395999986, 35.094175956 ], [ 136.538601822, 35.094176872 ], [ 136.538758725, 35.094736784 ], [ 136.538758742, 35.094739398 ], [ 136.53875667599999, 35.094742021 ], [ 136.538752418, 35.094745015 ], [ 136.538727830999989, 35.094758826 ], [ 136.538712787, 35.094772775 ], [ 136.538693093, 35.094996872 ], [ 136.538684913, 35.095020526 ], [ 136.538654814000012, 35.095063479 ], [ 136.538569153, 35.095130026 ], [ 136.53850306699999, 35.095171155 ], [ 136.538481381999986, 35.095175848 ], [ 136.538607633, 35.09569443 ], [ 136.538932566999989, 35.09567027 ], [ 136.5391779, 35.095650249 ], [ 136.539440238999987, 35.095631143 ], [ 136.53952224, 35.095625189 ], [ 136.53979477499999, 35.095605406 ], [ 136.54052228399999, 35.095555561 ], [ 136.54063086, 35.095554446 ], [ 136.54069888399999, 35.095557748 ], [ 136.540746866, 35.095565647 ], [ 136.54087356299999, 35.095584733 ], [ 136.540940016, 35.095599311 ], [ 136.54101517, 35.095619348 ], [ 136.541225067, 35.095697648 ], [ 136.541337137, 35.095743933 ], [ 136.54158943199999, 35.095848095 ], [ 136.541615301, 35.095862313 ], [ 136.541639914, 35.095868964 ], [ 136.541677305, 35.095767925 ], [ 136.541701753000012, 35.095749697 ], [ 136.541787868, 35.095603007 ], [ 136.541807182000014, 35.095587867 ], [ 136.541831438, 35.095573786 ], [ 136.541844402, 35.095560567 ], [ 136.541969775000013, 35.095313191 ], [ 136.54205123, 35.095158499 ], [ 136.542003746, 35.095143026 ], [ 136.54158462, 35.095004274 ], [ 136.541350693999988, 35.094924278 ], [ 136.541309581, 35.094910219 ], [ 136.540957166, 35.094791629 ], [ 136.540843547, 35.094759774 ], [ 136.54057151, 35.094671654 ], [ 136.540436852, 35.09462601 ], [ 136.540299226, 35.094579388 ], [ 136.540277460999988, 35.094572003 ], [ 136.539965712, 35.094465849 ], [ 136.539545600999986, 35.094326282 ], [ 136.539345295, 35.094271374 ], [ 136.539146045, 35.094226827 ], [ 136.539024156000011, 35.094204562 ], [ 136.53886510800001, 35.094185798 ], [ 136.53883197, 35.094183512 ], [ 136.538759879, 35.094178603 ], [ 136.538625395999986, 35.094175956 ] ] ] } },
{ "type": "Feature", "properties": { "A29_001": "24214", "A29_002": "三重県", "A29_003": "いなべ市", "A29_004": 6, "A29_005": "第二種住居地域", "A29_006": 60, "A29_007": 200, "A29_008": null }, "geometry": { "type": "Polygon", "coordinates": [ [ [ 136.562178417000013, 35.114760137 ], [ 136.560322985, 35.116109351 ], [ 136.560405024, 35.116250318 ], [ 136.560593395000012, 35.116570991 ], [ 136.560641078, 35.116565092 ], [ 136.561038864000011, 35.116466797 ], [ 136.561442991, 35.116365407 ], [ 136.561633855, 35.116313321 ], [ 136.561669, 35.116302972 ], [ 136.562332034, 35.116137548 ], [ 136.562436850000012, 35.116112182 ], [ 136.562355513, 35.115930198 ], [ 136.56228163599999, 35.115732133 ], [ 136.562227997, 35.115573638 ], [ 136.56218388, 35.115363807 ], [ 136.562169954000012, 35.115205127 ], [ 136.562171492, 35.115013654 ], [ 136.562178417000013, 35.114760137 ] ] ] } },
{ "type": "Feature", "properties": { "A29_001": "24214", "A29_002": "三重県", "A29_003": "いなべ市", "A29_004": 4, "A29_005": "第二種中高層住居専用地域", "A29_006": 60, "A29_007": 200, "A29_008": null }, "geometry": { "type": "Polygon", "coordinates": [ [ [ 136.556089845, 35.106523164 ], [ 136.55604137899999, 35.106558272 ], [ 136.555955831, 35.106657282 ], [ 136.555929791000011, 35.106699409 ], [ 136.555912600999989, 35.106736447 ], [ 136.555850838, 35.106897367 ], [ 136.555824465, 35.106971406 ], [ 136.555796248, 35.107016157 ], [ 136.555767855999989, 35.107051173 ], [ 136.555702622000013, 35.107104838 ], [ 136.555420365, 35.107313463 ], [ 136.555357730999987, 35.107378474 ], [ 136.555324439, 35.107451463 ], [ 136.55523986599999, 35.107775198 ], [ 136.555233864, 35.107812184 ], [ 136.555239016, 35.107843982 ], [ 136.555247986000012, 35.107872606 ], [ 136.555261871, 35.107898234 ], [ 136.555293301, 35.107922699 ], [ 136.555421461, 35.108024787 ], [ 136.555464938999989, 35.108078945 ], [ 136.55548149399999, 35.108126104 ], [ 136.555414952, 35.108261896 ], [ 136.555401394, 35.108284584 ], [ 136.555236565, 35.108517822 ], [ 136.555210128999988, 35.108550214 ], [ 136.555160338, 35.108584337 ], [ 136.55507279, 35.108663794 ], [ 136.55502998599999, 35.108709152 ], [ 136.555018022000013, 35.108724351 ], [ 136.554943936, 35.108880189 ], [ 136.554835364000013, 35.109030236 ], [ 136.554758506000013, 35.109133262 ], [ 136.55469078199999, 35.109192075 ], [ 136.55462258599999, 35.109262159 ], [ 136.554547965000012, 35.109323077 ], [ 136.55444208599999, 35.109368724 ], [ 136.554304230000014, 35.109406314 ], [ 136.554205698, 35.10943543 ], [ 136.55414356599999, 35.109477811 ], [ 136.55394219499999, 35.109742494 ], [ 136.55393228299999, 35.109752816 ], [ 136.553840094, 35.109795334 ], [ 136.55369994899999, 35.109851413 ], [ 136.55357257899999, 35.109866328 ], [ 136.553467919000013, 35.109914041 ], [ 136.553367184, 35.109990493 ], [ 136.553260908, 35.110075083 ], [ 136.552977311, 35.110363847 ], [ 136.55291781299999, 35.110439028 ], [ 136.553187157999986, 35.110654686 ], [ 136.553340737000013, 35.110849238 ], [ 136.553355016000012, 35.110868103 ], [ 136.55346072099999, 35.110828768 ], [ 136.553601695, 35.111008593 ], [ 136.553670678, 35.111086794 ], [ 136.553983948, 35.111438097 ], [ 136.554087315, 35.111539578 ], [ 136.554235909999989, 35.111677991 ], [ 136.554269672, 35.111722729 ], [ 136.554389426, 35.111927259 ], [ 136.554416413000013, 35.112121667 ], [ 136.55445940199999, 35.112151939 ], [ 136.554545569999988, 35.112240608 ], [ 136.554792263, 35.112446901 ], [ 136.555105774, 35.112832184 ], [ 136.555208147, 35.11299695 ], [ 136.555257374, 35.113105709 ], [ 136.55533996599999, 35.113297518 ], [ 136.55538794200001, 35.113432064 ], [ 136.555418409999987, 35.113540818 ], [ 136.55554116, 35.113491037 ], [ 136.55576997, 35.113389297 ], [ 136.55599304399999, 35.113299122 ], [ 136.556193193000013, 35.113209592 ], [ 136.556366249, 35.113136592 ], [ 136.55643505, 35.113106889 ], [ 136.556523649000013, 35.113068532 ], [ 136.556660361000013, 35.113023193 ], [ 136.55672735499999, 35.113002062 ], [ 136.556877692, 35.112959995 ], [ 136.557242003999988, 35.112877461 ], [ 136.55742757199999, 35.112837936 ], [ 136.557821843, 35.112741111 ], [ 136.557946093, 35.112702498 ], [ 136.558038602000011, 35.112658442 ], [ 136.558089343, 35.112634861 ], [ 136.55815726899999, 35.112589567 ], [ 136.55828780600001, 35.11249161 ], [ 136.55844562199999, 35.112324116 ], [ 136.55857234199999, 35.11219742 ], [ 136.55905127, 35.111710778 ], [ 136.559155487, 35.111614564 ], [ 136.559259903, 35.11153133 ], [ 136.559474157000011, 35.111387913 ], [ 136.559482460999988, 35.111383097 ], [ 136.559812548999986, 35.111190107 ], [ 136.559915894999989, 35.11112716 ], [ 136.559843983, 35.111038429 ], [ 136.559402729999988, 35.111289895 ], [ 136.559086524, 35.111427562 ], [ 136.558752102, 35.111548455 ], [ 136.55868222699999, 35.111565183 ], [ 136.558577127, 35.11154827 ], [ 136.558613036, 35.111425057 ], [ 136.55857978899999, 35.111359586 ], [ 136.55855814200001, 35.111322185 ], [ 136.558544963, 35.111271855 ], [ 136.55852731499999, 35.111193421 ], [ 136.558504234, 35.111154856 ], [ 136.558376689999989, 35.111064037 ], [ 136.558153393, 35.110975372 ], [ 136.55799246699999, 35.110927885 ], [ 136.557857192, 35.110893622 ], [ 136.557876515, 35.110606153 ], [ 136.557861108999987, 35.110550785 ], [ 136.55779802, 35.110452548 ], [ 136.557657111, 35.110219182 ], [ 136.557640235, 35.110141285 ], [ 136.557648570999987, 35.110076613 ], [ 136.557786905, 35.109932196 ], [ 136.557809155, 35.109897208 ], [ 136.557810233, 35.109862317 ], [ 136.557797532, 35.10983362 ], [ 136.557713345, 35.109762162 ], [ 136.557678044, 35.109717162 ], [ 136.55766831, 35.109673127 ], [ 136.557689325000013, 35.109633997 ], [ 136.557842274, 35.109525571 ], [ 136.55799923, 35.109441646 ], [ 136.558060012999988, 35.109378806 ], [ 136.55807590500001, 35.109328432 ], [ 136.558067951999988, 35.109272038 ], [ 136.558042505, 35.109192107 ], [ 136.558001703, 35.109080336 ], [ 136.55798391499999, 35.108949078 ], [ 136.557989039, 35.108863868 ], [ 136.557981162, 35.108818742 ], [ 136.55795397899999, 35.108773705 ], [ 136.557887001000012, 35.108651867 ], [ 136.557735947, 35.108410345 ], [ 136.55762974000001, 35.108230184 ], [ 136.557574616000011, 35.108109284 ], [ 136.55752746600001, 35.107983299 ], [ 136.557494948999988, 35.107879782 ], [ 136.557471735, 35.107773158 ], [ 136.557435484, 35.107685074 ], [ 136.55736933, 35.107506712 ], [ 136.557343796, 35.107429936 ], [ 136.557290208000012, 35.107324894 ], [ 136.557238321, 35.107244273 ], [ 136.557183478000013, 35.107196568 ], [ 136.556482533, 35.106746182 ], [ 136.556089845, 35.106523164 ] ] ] } },
{ "type": "Feature", "properties": { "A29_001": "24214", "A29_002": "三重県", "A29_003": "いなべ市", "A29_004": 4, "A29_005": "第二種中高層住居専用地域", "A29_006": 60, "A29_007": 200, "A29_008": null }, "geometry": { "type": "Polygon", "coordinates": [ [ [ 136.564206555999988, 35.106310149 ], [ 136.564441538000011, 35.105994362 ], [ 136.564640142, 35.105732379 ], [ 136.56484555, 35.105470995 ], [ 136.565033847, 35.105225827 ], [ 136.565070319, 35.105170128 ], [ 136.56510717099999, 35.105105864 ], [ 136.5651327, 35.105053912 ], [ 136.565219391999989, 35.10483653 ], [ 136.565223029, 35.104807216 ], [ 136.565004225, 35.104827798 ], [ 136.564903802, 35.104835748 ], [ 136.56447130699999, 35.10485498 ], [ 136.56402269, 35.1048586 ], [ 136.563928205, 35.10485282 ], [ 136.56365412400001, 35.104858782 ], [ 136.563539428000013, 35.104880769 ], [ 136.563435639, 35.104925783 ], [ 136.563339101999986, 35.104988341 ], [ 136.563211644, 35.105084847 ], [ 136.562936087, 35.105274979 ], [ 136.562758728, 35.105404709 ], [ 136.562709653000013, 35.105446583 ], [ 136.56229963199999, 35.105799778 ], [ 136.562235453999989, 35.105862546 ], [ 136.562052439000013, 35.106063695 ], [ 136.561831308, 35.10632118 ], [ 136.561743486000012, 35.10642345 ], [ 136.561698592999988, 35.106467288 ], [ 136.561378714999989, 35.10670603 ], [ 136.561225003, 35.106781832 ], [ 136.56114359, 35.10682701 ], [ 136.560911718, 35.107022524 ], [ 136.560551704, 35.107343841 ], [ 136.56049798399999, 35.107380418 ], [ 136.56042665699999, 35.107408873 ], [ 136.560305607, 35.10743287 ], [ 136.560227321000013, 35.107454325 ], [ 136.560154772, 35.107480442 ], [ 136.56008243799999, 35.107538198 ], [ 136.560028683000013, 35.107601728 ], [ 136.559992814, 35.107682122 ], [ 136.560107312000014, 35.10785485 ], [ 136.560141541, 35.107919506 ], [ 136.560162187, 35.108003064 ], [ 136.560185213000011, 35.108113745 ], [ 136.56025348099999, 35.108231338 ], [ 136.560322877, 35.108305206 ], [ 136.560369027, 35.108348623 ], [ 136.560435361, 35.108391946 ], [ 136.560554884999988, 35.108449176 ], [ 136.560641925999988, 35.108488797 ], [ 136.560705359999986, 35.108525012 ], [ 136.56097881, 35.108745322 ], [ 136.561133184999989, 35.108877841 ], [ 136.561179511, 35.108930631 ], [ 136.56124333299999, 35.109023455 ], [ 136.561287635000014, 35.109101044 ], [ 136.561309507, 35.10915521 ], [ 136.561343325, 35.109383659 ], [ 136.561418092999986, 35.109920753 ], [ 136.561422564999987, 35.109949037 ], [ 136.561455841999987, 35.109986563 ], [ 136.561552979999988, 35.110074455 ], [ 136.561931503000011, 35.109811373 ], [ 136.56200225, 35.109762187 ], [ 136.562212738, 35.109598861 ], [ 136.562265623, 35.109552462 ], [ 136.56229517, 35.109526093 ], [ 136.56232153799999, 35.109500009 ], [ 136.56235418599999, 35.109461997 ], [ 136.56240170699999, 35.109401199 ], [ 136.56247667, 35.109295112 ], [ 136.56252666099999, 35.109210686 ], [ 136.562641686, 35.108980104 ], [ 136.562790229, 35.108678693 ], [ 136.562903150000011, 35.108461552 ], [ 136.563024766000012, 35.108216696 ], [ 136.563149965, 35.107966595 ], [ 136.563257818000011, 35.107746413 ], [ 136.56337078199999, 35.107519896 ], [ 136.563455048, 35.107363375 ], [ 136.563490107, 35.10729335 ], [ 136.563511849, 35.107248718 ], [ 136.563619735, 35.107065494 ], [ 136.563936855, 35.106634211 ], [ 136.564206555999988, 35.106310149 ] ] ] } },
{ "type": "Feature", "properties": { "A29_001": "24214", "A29_002": "三重県", "A29_003": "いなべ市", "A29_004": 8, "A29_005": "近隣商業地域", "A29_006": 80, "A29_007": 200, "A29_008": null }, "geometry": { "type": "Polygon", "coordinates": [ [ [ 136.530815409000013, 35.099504951 ], [ 136.53068903499999, 35.099959382 ], [ 136.53376947699999, 35.100584534 ], [ 136.533905057999988, 35.100131591 ], [ 136.530815409000013, 35.099504951 ] ] ] } },
{ "type": "Feature", "properties": { "A29_001": "24214", "A29_002": "三重県", "A29_003": "いなべ市", "A29_004": 12, "A29_005": "工業専用地域", "A29_006": 60, "A29_007": 200, "A29_008": null }, "geometry": { "type": "Polygon", "coordinates": [ [ [ 136.54861621, 35.126878786 ], [ 136.548600744, 35.126879487 ], [ 136.54818778, 35.126883879 ], [ 136.54762559299999, 35.12690463 ], [ 136.547267999000013, 35.126919676 ], [ 136.547253739000013, 35.126920282 ], [ 136.547159641, 35.126959649 ], [ 136.547079794000012, 35.126996968 ], [ 136.546968547, 35.127015048 ], [ 136.54688263700001, 35.127015436 ], [ 136.546796640999986, 35.127003024 ], [ 136.546738616999988, 35.126989403 ], [ 136.546823276999987, 35.127113871 ], [ 136.547115092000013, 35.12777962 ], [ 136.547113169, 35.1278366 ], [ 136.547068008999986, 35.128631063 ], [ 136.54707482, 35.128730731 ], [ 136.547091432, 35.128802862 ], [ 136.54710524399999, 35.128850035 ], [ 136.547161722, 35.128960296 ], [ 136.547214316, 35.129064085 ], [ 136.547280266, 35.129163306 ], [ 136.547342969, 35.129269123 ], [ 136.54739955, 35.12934549 ], [ 136.54743711, 35.129399767 ], [ 136.547464827, 35.129458867 ], [ 136.547488140000013, 35.129532138 ], [ 136.547504053000011, 35.129598052 ], [ 136.547511793000012, 35.12965607 ], [ 136.547510119, 35.129701059 ], [ 136.547504995999986, 35.129738943 ], [ 136.547498260999987, 35.129781882 ], [ 136.547490987, 35.129809859 ], [ 136.547484215, 35.129830984 ], [ 136.547477437999987, 35.129867613 ], [ 136.547471023000014, 35.129909198 ], [ 136.547466848999989, 35.129957714 ], [ 136.54746905499999, 35.12999223 ], [ 136.54747313199999, 35.130011232 ], [ 136.547484027, 35.130048772 ], [ 136.54748666899999, 35.130066429 ], [ 136.547485698, 35.130085363 ], [ 136.547482336, 35.13012396 ], [ 136.547477042, 35.130169056 ], [ 136.547476144, 35.13023162 ], [ 136.547478481000013, 35.130335005 ], [ 136.547480709000013, 35.130389171 ], [ 136.547486308, 35.130438815 ], [ 136.547490567000011, 35.130501266 ], [ 136.547512501999989, 35.130548943 ], [ 136.547566667000012, 35.130641186 ], [ 136.547697739, 35.130846573 ], [ 136.54770851, 35.130865545 ], [ 136.548409749, 35.131908585 ], [ 136.548647278, 35.131510966 ], [ 136.548742983000011, 35.131350708 ], [ 136.551093685000012, 35.130829015 ], [ 136.551975981, 35.130939663 ], [ 136.55228679699999, 35.130917153 ], [ 136.552451741999988, 35.130904593 ], [ 136.552468956000013, 35.130902621 ], [ 136.552605801, 35.13087234 ], [ 136.55261390199999, 35.130869509 ], [ 136.55262232699999, 35.130865955 ], [ 136.553130318, 35.129998976 ], [ 136.55353030399999, 35.129987865 ], [ 136.55357034799999, 35.129905922 ], [ 136.553578198, 35.129865952 ], [ 136.55357779799999, 35.129855587 ], [ 136.55357346400001, 35.129831178 ], [ 136.553569648, 35.129818575 ], [ 136.553556818, 35.129787444 ], [ 136.55355534899999, 35.129781141 ], [ 136.553555765999988, 35.129777894 ], [ 136.553559783, 35.129771565 ], [ 136.553565670000012, 35.129765949 ], [ 136.553574391000012, 35.129757436 ], [ 136.553577982, 35.129753093 ], [ 136.553581013000013, 35.129746859 ], [ 136.553581753, 35.129742799 ], [ 136.553581263000012, 35.129735229 ], [ 136.55357812599999, 35.129725688 ], [ 136.553575359, 35.129722185 ], [ 136.553571392, 35.129719679 ], [ 136.55355952, 35.129716488 ], [ 136.553544112999987, 35.129709708 ], [ 136.55353299399999, 35.12970435 ], [ 136.553505374999986, 35.129692757 ], [ 136.553480941, 35.129681691 ], [ 136.553448382999989, 35.129670121 ], [ 136.553379447, 35.129649613 ], [ 136.553323483000014, 35.129632831 ], [ 136.553286431, 35.129621822 ], [ 136.553260709, 35.129614998 ], [ 136.55325024199999, 35.129608646 ], [ 136.553251837, 35.129601157 ], [ 136.553283211, 35.12956766 ], [ 136.55328474, 35.129566481 ], [ 136.553292707999987, 35.129560315 ], [ 136.55329358099999, 35.12955968 ], [ 136.553296187, 35.129555522 ], [ 136.553305923000011, 35.129534924 ], [ 136.553330042, 35.129483252 ], [ 136.553354834, 35.12943374 ], [ 136.55337073199999, 35.129399503 ], [ 136.553400111, 35.129330589 ], [ 136.553443765, 35.129295684 ], [ 136.553461782999989, 35.129282801 ], [ 136.55347862, 35.1292738 ], [ 136.553484098000013, 35.129272603 ], [ 136.553567562000012, 35.1292834 ], [ 136.553599842000011, 35.129286498 ], [ 136.553614001999989, 35.129287244 ], [ 136.553632212999986, 35.12928671 ], [ 136.553646898000011, 35.129284119 ], [ 136.55365511, 35.129281558 ], [ 136.553669764, 35.129274279 ], [ 136.55370536, 35.129248516 ], [ 136.553737248, 35.129226104 ], [ 136.553752306, 35.129213596 ], [ 136.553764505, 35.129200289 ], [ 136.553771246999986, 35.129191244 ], [ 136.553782318, 35.129173435 ], [ 136.553795317, 35.129148676 ], [ 136.553799731, 35.129136126 ], [ 136.553802463000011, 35.129118265 ], [ 136.553802399, 35.1291088 ], [ 136.553800214, 35.129094026 ], [ 136.553795732, 35.129080255 ], [ 136.553792499999986, 35.129072878 ], [ 136.55378583699999, 35.129061099 ], [ 136.553771326, 35.129040883 ], [ 136.553829310999987, 35.128983557 ], [ 136.553852009, 35.1289812 ], [ 136.553960737000011, 35.128963665 ], [ 136.554204473999988, 35.128920724 ], [ 136.55426991600001, 35.128895185 ], [ 136.554318964, 35.128862959 ], [ 136.55435747300001, 35.128797429 ], [ 136.554379649999987, 35.128734587 ], [ 136.554494181, 35.128666726 ], [ 136.554578822, 35.12859215 ], [ 136.554600494, 35.128551937 ], [ 136.55461778, 35.128495968 ], [ 136.55462603, 35.128450408 ], [ 136.55465624499999, 35.128359314 ], [ 136.554680536, 35.128317016 ], [ 136.55472324499999, 35.128256153 ], [ 136.55477348299999, 35.128205262 ], [ 136.554866113, 35.128111629 ], [ 136.554892258, 35.128051474 ], [ 136.554890449999988, 35.127979006 ], [ 136.554856435, 35.127930394 ], [ 136.554787373000011, 35.127875091 ], [ 136.554691561999988, 35.127823336 ], [ 136.554494181, 35.127760147 ], [ 136.554415325, 35.127635839 ], [ 136.554360557, 35.127568662 ], [ 136.554328829000013, 35.127517425 ], [ 136.554303976999989, 35.127460748 ], [ 136.554277144999986, 35.127387223 ], [ 136.554258659, 35.127314741 ], [ 136.554256444, 35.127279325 ], [ 136.554263021999986, 35.127246031 ], [ 136.554276477, 35.127207659 ], [ 136.554343934, 35.1271072 ], [ 136.553891518, 35.127199953 ], [ 136.553566991, 35.127269495 ], [ 136.553178542000012, 35.127346088 ], [ 136.552936894, 35.127372792 ], [ 136.55281831799999, 35.126923243 ], [ 136.552713598999986, 35.126949232 ], [ 136.552513370000014, 35.126983768 ], [ 136.552259308, 35.127024409 ], [ 136.552192211, 35.127032287 ], [ 136.551966763, 35.127069462 ], [ 136.55189540500001, 35.127079883 ], [ 136.55185249499999, 35.126639544 ], [ 136.55181413, 35.126645038 ], [ 136.551198187000011, 35.126764216 ], [ 136.55106057099999, 35.126190534 ], [ 136.549638128999987, 35.126596241 ], [ 136.549394191, 35.126690286 ], [ 136.549325864999986, 35.126743871 ], [ 136.549296706, 35.126780692 ], [ 136.54927203599999, 35.126799553 ], [ 136.549246743, 35.12680751 ], [ 136.549216226, 35.126805305 ], [ 136.54919587099999, 35.126796924 ], [ 136.548856779, 35.12685471 ], [ 136.54873599199999, 35.126873556 ], [ 136.54861621, 35.126878786 ] ] ] } },
{ "type": "Feature", "properties": { "A29_001": "24214", "A29_002": "三重県", "A29_003": "いなべ市", "A29_004": 11, "A29_005": "工業地域", "A29_006": 60, "A29_007": 200, "A29_008": null }, "geometry": { "type": "Polygon", "coordinates": [ [ [ 136.550480789, 35.123024694 ], [ 136.548599811, 35.124433251 ], [ 136.546219619999988, 35.126215513 ], [ 136.546738616999988, 35.126989403 ], [ 136.546796640999986, 35.127003024 ], [ 136.54688263700001, 35.127015436 ], [ 136.546968547, 35.127015048 ], [ 136.547079794000012, 35.126996968 ], [ 136.547159641, 35.126959649 ], [ 136.547253739000013, 35.126920282 ], [ 136.547267999000013, 35.126919676 ], [ 136.54762559299999, 35.12690463 ], [ 136.54818778, 35.126883879 ], [ 136.548600744, 35.126879487 ], [ 136.54861621, 35.126878786 ], [ 136.54873599199999, 35.126873556 ], [ 136.548856779, 35.12685471 ], [ 136.54919587099999, 35.126796924 ], [ 136.549216226, 35.126805305 ], [ 136.549246743, 35.12680751 ], [ 136.54927203599999, 35.126799553 ], [ 136.549296706, 35.126780692 ], [ 136.549325864999986, 35.126743871 ], [ 136.549394191, 35.126690286 ], [ 136.549638128999987, 35.126596241 ], [ 136.55106057099999, 35.126190534 ], [ 136.551198187000011, 35.126764216 ], [ 136.55181413, 35.126645038 ], [ 136.55185249499999, 35.126639544 ], [ 136.55189540500001, 35.127079883 ], [ 136.551966763, 35.127069462 ], [ 136.552192211, 35.127032287 ], [ 136.552259308, 35.127024409 ], [ 136.552406944000012, 35.12700075 ], [ 136.552513370000014, 35.126983768 ], [ 136.552713598999986, 35.126949232 ], [ 136.55281831799999, 35.126923243 ], [ 136.552936894, 35.127372792 ], [ 136.553178542000012, 35.127346088 ], [ 136.553566991, 35.127269495 ], [ 136.553891518, 35.127199953 ], [ 136.554343934, 35.1271072 ], [ 136.5544258, 35.127044356 ], [ 136.55449067399999, 35.126999979 ], [ 136.554501216, 35.126985057 ], [ 136.554562577000013, 35.126924199 ], [ 136.55463811199999, 35.126850116 ], [ 136.554733215999988, 35.12674926 ], [ 136.554790284, 35.126686529 ], [ 136.55479669499999, 35.126677305 ], [ 136.554801978, 35.126663399 ], [ 136.554806023999987, 35.126645261 ], [ 136.55480822199999, 35.126629566 ], [ 136.554808236000014, 35.126615503 ], [ 136.55480760099999, 35.126602706 ], [ 136.554805108000011, 35.126591089 ], [ 136.55480118, 35.126578126 ], [ 136.55478847099999, 35.126548617 ], [ 136.55477506299999, 35.126512981 ], [ 136.554764209000012, 35.126481841 ], [ 136.554759593, 35.126448329 ], [ 136.554757927999987, 35.126429316 ], [ 136.554759337, 35.126410559 ], [ 136.554765202, 35.126337065 ], [ 136.55476308499999, 35.126299845 ], [ 136.554755449999988, 35.126258144 ], [ 136.554740417, 35.12622558 ], [ 136.554696748, 35.126193148 ], [ 136.55465598699999, 35.126168906 ], [ 136.55459783, 35.12616827 ], [ 136.554466534999989, 35.12617428 ], [ 136.554435579999989, 35.126172258 ], [ 136.554324116, 35.126157984 ], [ 136.554306752, 35.126153917 ], [ 136.55422751899999, 35.126119303 ], [ 136.55420019799999, 35.126103022 ], [ 136.554073754, 35.125982897 ], [ 136.554048956, 35.125966604 ], [ 136.554001954, 35.125944283 ], [ 136.55392261099999, 35.12590967 ], [ 136.553764814, 35.125874514 ], [ 136.553642623, 35.125847758 ], [ 136.55361037899999, 35.125833482 ], [ 136.553570728000011, 35.125811128 ], [ 136.55353597300001, 35.12578262 ], [ 136.553500778, 35.125753935 ], [ 136.553465625, 35.125715153 ], [ 136.55345998199999, 35.125708238 ], [ 136.55340611299999, 35.125643851 ], [ 136.553406153999987, 35.125633664 ], [ 136.553592681, 35.12537464 ], [ 136.553607548, 35.125366549 ], [ 136.553618973, 35.125287531 ], [ 136.553591882, 35.125240419 ], [ 136.553564211, 35.125204758 ], [ 136.553490821, 35.12510927 ], [ 136.553451351, 35.125064919 ], [ 136.55342425399999, 35.125033042 ], [ 136.553395153999986, 35.124997027 ], [ 136.553376764, 35.124970969 ], [ 136.553364561, 35.124951103 ], [ 136.553357734, 35.124931303 ], [ 136.553355067000012, 35.124910041 ], [ 136.55335168900001, 35.124897346 ], [ 136.553346022, 35.124886735 ], [ 136.553337043999989, 35.124873344 ], [ 136.553307475999986, 35.124832914 ], [ 136.553039506, 35.124941409 ], [ 136.552589251, 35.125125103 ], [ 136.552561383000011, 35.12512514 ], [ 136.552073196, 35.125216156 ], [ 136.551582739999986, 35.125442848 ], [ 136.551487525999988, 35.125478798 ], [ 136.551459951999988, 35.125408611 ], [ 136.55144043199999, 35.125328652 ], [ 136.551418428, 35.125173254 ], [ 136.551403541000013, 35.125080743 ], [ 136.55137697399999, 35.124948443 ], [ 136.551364664, 35.124814905 ], [ 136.55131556500001, 35.124595177 ], [ 136.551255215999987, 35.124236498 ], [ 136.551185607, 35.123854783 ], [ 136.55115456499999, 35.123693206 ], [ 136.551116263000011, 35.123512371 ], [ 136.550563183, 35.1235623 ], [ 136.55059094399999, 35.123448502 ], [ 136.550644204, 35.123308808 ], [ 136.550568567, 35.1231395 ], [ 136.550480789, 35.123024694 ] ] ] } },
{ "type": "Feature", "properties": { "A29_001": "24214", "A29_002": "三重県", "A29_003": "いなべ市", "A29_004": 11, "A29_005": "工業地域", "A29_006": 60, "A29_007": 200, "A29_008": null }, "geometry": { "type": "Polygon", "coordinates": [ [ [ 136.531253979000013, 35.093255829 ], [ 136.531688581, 35.093079404 ], [ 136.532270848, 35.092858789 ], [ 136.532339116, 35.092832708 ], [ 136.532666202, 35.092702365 ], [ 136.532757213999986, 35.092665637 ], [ 136.532768565999987, 35.092657384 ], [ 136.53276037, 35.092493357 ], [ 136.53305015, 35.092478922 ], [ 136.53330053799999, 35.092461685 ], [ 136.533564469, 35.092435734 ], [ 136.53375845299999, 35.092413877 ], [ 136.53397444399999, 35.092386063 ], [ 136.534571379999988, 35.092314291 ], [ 136.534574178000014, 35.092306076 ], [ 136.535071388, 35.092246461 ], [ 136.53500695299999, 35.092070061 ], [ 136.534987462, 35.092024444 ], [ 136.534973178, 35.091986917 ], [ 136.534942994, 35.091899339 ], [ 136.534927436, 35.091851361 ], [ 136.53489765399999, 35.091758283 ], [ 136.534878531, 35.091701846 ], [ 136.534862702999988, 35.091662883 ], [ 136.534851925, 35.091641567 ], [ 136.534821977, 35.091590046 ], [ 136.534717359000012, 35.091407153 ], [ 136.53467219699999, 35.091326673 ], [ 136.53463978100001, 35.091266779 ], [ 136.534633444, 35.091253646 ], [ 136.534627742, 35.091237085 ], [ 136.53462643899999, 35.091222307 ], [ 136.534627050000012, 35.091215092 ], [ 136.53462876, 35.091208144 ], [ 136.534840906999989, 35.091129774 ], [ 136.535277286, 35.091010029 ], [ 136.53569039199999, 35.090903907 ], [ 136.536056925, 35.09085406 ], [ 136.53642313200001, 35.090804664 ], [ 136.536697643999986, 35.090737463 ], [ 136.536891642, 35.090701719 ], [ 136.537178544, 35.090667635 ], [ 136.537243176, 35.090639314 ], [ 136.53727479599999, 35.090611139 ], [ 136.53740523799999, 35.090516991 ], [ 136.537583928, 35.090388103 ], [ 136.537667749, 35.090292448 ], [ 136.537739210000012, 35.090168633 ], [ 136.537775856, 35.090104108 ], [ 136.537888003, 35.089963075 ], [ 136.538046005000012, 35.089874032 ], [ 136.538216806, 35.089830185 ], [ 136.538336673, 35.089812705 ], [ 136.53842596699999, 35.089815915 ], [ 136.538577048, 35.08987537 ], [ 136.538679884, 35.089953159 ], [ 136.53877066199999, 35.089998369 ], [ 136.538921609, 35.090004098 ], [ 136.53931340299999, 35.089960619 ], [ 136.539313273, 35.089924292 ], [ 136.539330645, 35.089864178 ], [ 136.539347099999986, 35.089814886 ], [ 136.539349256, 35.089809197 ], [ 136.539349864, 35.089801622 ], [ 136.539345239999989, 35.089765675 ], [ 136.539359932, 35.089665099 ], [ 136.539359552, 35.089573964 ], [ 136.53935795000001, 35.089497258 ], [ 136.539360476000013, 35.089464434 ], [ 136.539362554, 35.089446937 ], [ 136.539362764, 35.089445584 ], [ 136.539364823999989, 35.089441969 ], [ 136.539367109000011, 35.089439164 ], [ 136.539369722, 35.089436268 ], [ 136.539371467, 35.089434728 ], [ 136.53937430799999, 35.089433183 ], [ 136.539378031000012, 35.089432265 ], [ 136.539381101, 35.089432161 ], [ 136.539384283, 35.089432417 ], [ 136.539387468, 35.089433034 ], [ 136.53939274199999, 35.089434543 ], [ 136.539401872000013, 35.089438739 ], [ 136.539411672999989, 35.089444825 ], [ 136.539419834, 35.08945173 ], [ 136.539433417999987, 35.089466003 ], [ 136.53946509, 35.089512467 ], [ 136.539529867, 35.089589793 ], [ 136.539587323, 35.089654441 ], [ 136.53961589299999, 35.089679465 ], [ 136.53964521099999, 35.0897016 ], [ 136.539760261999987, 35.089768877 ], [ 136.539939253, 35.089869492 ], [ 136.54040189, 35.090174644 ], [ 136.540763074000012, 35.090345481 ], [ 136.541185143, 35.090535065 ], [ 136.54140690599999, 35.090601954 ], [ 136.54147499199999, 35.090615352 ], [ 136.54152983899999, 35.09061682 ], [ 136.541709422999986, 35.090607634 ], [ 136.54211461700001, 35.090600144 ], [ 136.54233514399999, 35.090596093 ], [ 136.542354232, 35.090596909 ], [ 136.542364658999986, 35.090598035 ], [ 136.542449913000013, 35.090603693 ], [ 136.542562365, 35.090609229 ], [ 136.542633814, 35.090600526 ], [ 136.542668655999989, 35.090578736 ], [ 136.542678106000011, 35.090531908 ], [ 136.54272035599999, 35.090337097 ], [ 136.542806941, 35.090278836 ], [ 136.542891035999986, 35.090208958 ], [ 136.542869061, 35.090087001 ], [ 136.542846352999987, 35.089920696 ], [ 136.542870701999988, 35.089821698 ], [ 136.54290329299999, 35.089774767 ], [ 136.5429149, 35.089755514 ], [ 136.542927701999986, 35.089734453 ], [ 136.542932041, 35.089727132 ], [ 136.542952246, 35.089648255 ], [ 136.542952455, 35.089646722 ], [ 136.54295128199999, 35.089535939 ], [ 136.54295171199999, 35.089485006 ], [ 136.542951245000012, 35.089480771 ], [ 136.54295101, 35.089478338 ], [ 136.542950313, 35.089472392 ], [ 136.542944161, 35.089437804 ], [ 136.542938862, 35.089416012 ], [ 136.542933817, 35.089399448 ], [ 136.54293012299999, 35.089388197 ], [ 136.542923554, 35.089373262 ], [ 136.542917681, 35.089364184 ], [ 136.5428991, 35.089340649 ], [ 136.542862858, 35.089299886 ], [ 136.542833019, 35.089265584 ], [ 136.542831253, 35.089263969 ], [ 136.54282882699999, 35.089261907 ], [ 136.54281748299999, 35.089254656 ], [ 136.542808783999988, 35.089249376 ], [ 136.542800527999987, 35.089244816 ], [ 136.542798655000013, 35.089243472 ], [ 136.54279733199999, 35.089242396 ], [ 136.542796669000012, 35.089241678 ], [ 136.54279534299999, 35.089240242 ], [ 136.54276745300001, 35.089202055 ], [ 136.54275912899999, 35.089187219 ], [ 136.542750794999989, 35.089170759 ], [ 136.542749563, 35.089166979 ], [ 136.54274889199999, 35.089164999 ], [ 136.542748444000011, 35.089163558 ], [ 136.542747768999988, 35.089160947 ], [ 136.542746848, 35.089154461 ], [ 136.54274613199999, 35.08914563 ], [ 136.542745806, 35.089129586 ], [ 136.542746391, 35.089118495 ], [ 136.54274764499999, 35.089109115 ], [ 136.542749539999988, 35.089097297 ], [ 136.54275271, 35.089079164 ], [ 136.54276020399999, 35.089034869 ], [ 136.542767215, 35.089000583 ], [ 136.542768598, 35.088994086 ], [ 136.54277042199999, 35.088988129 ], [ 136.542772254999988, 35.088983253 ], [ 136.54277377, 35.088980271 ], [ 136.54277940099999, 35.088969338 ], [ 136.542790884999988, 35.088948103 ], [ 136.542827949000014, 35.08888114 ], [ 136.54284362300001, 35.088846725 ], [ 136.542844696, 35.088843114 ], [ 136.542847349, 35.088829761 ], [ 136.542848126, 35.088814613 ], [ 136.542848112, 35.088812449 ], [ 136.54284775799999, 35.088808665 ], [ 136.542846954999987, 35.08880335 ], [ 136.54284410599999, 35.088787137 ], [ 136.542841855, 35.088778493 ], [ 136.542839625999989, 35.088773094 ], [ 136.542838179, 35.088769946 ], [ 136.542837071, 35.088768238 ], [ 136.54283530399999, 35.088766353 ], [ 136.542829898, 35.088761419 ], [ 136.54282207599999, 35.088756226 ], [ 136.542809642, 35.088749971 ], [ 136.542792808, 35.088741753 ], [ 136.54277741300001, 35.088735512 ], [ 136.542771147, 35.088733286 ], [ 136.542700387999986, 35.088713501 ], [ 136.542593719, 35.088686574 ], [ 136.542588883, 35.088684973 ], [ 136.542583932000014, 35.088682652 ], [ 136.54257820699999, 35.088679342 ], [ 136.542525876000013, 35.088643428 ], [ 136.542465555, 35.088610074 ], [ 136.54241925299999, 35.088590269 ], [ 136.54241419600001, 35.088588489 ], [ 136.542407932, 35.088586534 ], [ 136.542400792, 35.088584853 ], [ 136.542352138000012, 35.088574253 ], [ 136.542326437000014, 35.088568599 ], [ 136.54232435099999, 35.088568157 ], [ 136.542323032000013, 35.088567803 ], [ 136.54232160399999, 35.088567358 ], [ 136.542318196999986, 35.088566292 ], [ 136.542313908000011, 35.088564508 ], [ 136.542189083000011, 35.088511791 ], [ 136.542177498, 35.088501296 ], [ 136.542227096, 35.088389475 ], [ 136.542366773999987, 35.088217395 ], [ 136.542494643999987, 35.088117123 ], [ 136.542784692999987, 35.087980428 ], [ 136.542709742999989, 35.087890799 ], [ 136.542668881999987, 35.0878149 ], [ 136.54265522, 35.087788819 ], [ 136.542649536, 35.087775142 ], [ 136.54264729499999, 35.087767941 ], [ 136.542645712, 35.087760826 ], [ 136.542642894000011, 35.087732714 ], [ 136.54264036, 35.087681253 ], [ 136.542640433, 35.087675663 ], [ 136.54264075099999, 35.087674039 ], [ 136.542585992999989, 35.087619386 ], [ 136.542540769999988, 35.087563789 ], [ 136.542480961, 35.087508257 ], [ 136.542406645999989, 35.087464779 ], [ 136.542342151000014, 35.087430182 ], [ 136.542207127000012, 35.087360743 ], [ 136.541924783000013, 35.08720308 ], [ 136.541939665, 35.087181559 ], [ 136.541959162000012, 35.086829637 ], [ 136.541992560000011, 35.086225158 ], [ 136.542016267, 35.085896475 ], [ 136.54200722600001, 35.085408381 ], [ 136.542002333, 35.085132921 ], [ 136.542003537999989, 35.084966959 ], [ 136.542000113, 35.084830495 ], [ 136.54248920500001, 35.084629089 ], [ 136.5425433, 35.084617128 ], [ 136.54255152799999, 35.084468532 ], [ 136.54253232799999, 35.084467176 ], [ 136.542516623000012, 35.084463731 ], [ 136.542455953, 35.084443449 ], [ 136.542326637, 35.084407158 ], [ 136.542208157, 35.08438425 ], [ 136.542115407000011, 35.084371774 ], [ 136.542070088, 35.08436756 ], [ 136.542028399, 35.084365132 ], [ 136.54200699899999, 35.084362884 ], [ 136.54197793, 35.084361662 ], [ 136.541891942, 35.084360153 ], [ 136.54176608, 35.084365132 ], [ 136.54165484399999, 35.084376357 ], [ 136.541550537, 35.084390705 ], [ 136.541273393000012, 35.084454052 ], [ 136.539797254, 35.084796962 ], [ 136.53971469199999, 35.084816079 ], [ 136.539361665, 35.084897338 ], [ 136.539244880000012, 35.084915436 ], [ 136.539212122, 35.084920269 ], [ 136.539029782, 35.084942173 ], [ 136.538913043, 35.084967302 ], [ 136.538793491, 35.084998302 ], [ 136.538631356, 35.085057616 ], [ 136.538590152000012, 35.085078893 ], [ 136.53809619399999, 35.085192415 ], [ 136.53799162199999, 35.085216677 ], [ 136.5379153, 35.085234323 ], [ 136.537082008, 35.085427862 ], [ 136.536975778, 35.085450237 ], [ 136.536956935, 35.085453295 ], [ 136.536872253000013, 35.085467102 ], [ 136.536766293, 35.085480462 ], [ 136.536659418, 35.085488056 ], [ 136.53655371799999, 35.085490958 ], [ 136.536444698, 35.085489277 ], [ 136.536342663, 35.085482426 ], [ 136.536230722999989, 35.085470211 ], [ 136.536094260999988, 35.085447827 ], [ 136.535914451999986, 35.085404271 ], [ 136.535737767, 35.085352137 ], [ 136.53563613099999, 35.085322297 ], [ 136.535443316, 35.085268701 ], [ 136.53537323099999, 35.085250801 ], [ 136.535201142, 35.08521379 ], [ 136.535027348999989, 35.085184449 ], [ 136.53489586399999, 35.085168352 ], [ 136.534765713000013, 35.085155044 ], [ 136.534623864999986, 35.085147466 ], [ 136.534494206, 35.085142359 ], [ 136.53422402699999, 35.085148327 ], [ 136.533808564, 35.085174676 ], [ 136.532805325, 35.085240386 ], [ 136.53269180800001, 35.085238541 ], [ 136.532480869000011, 35.085247671 ], [ 136.532436566, 35.085248046 ], [ 136.532150349, 35.0852667 ], [ 136.531800981, 35.085288245 ], [ 136.531455023, 35.085311216 ], [ 136.531132746999987, 35.085333271 ], [ 136.530672882, 35.085362058 ], [ 136.530489816999989, 35.085374127 ], [ 136.53034872399999, 35.085381505 ], [ 136.530181399000014, 35.085385572 ], [ 136.53000656399999, 35.085381468 ], [ 136.529849565, 35.085371247 ], [ 136.529738941, 35.08535893 ], [ 136.529719951, 35.085339181 ], [ 136.529655663999989, 35.085335766 ], [ 136.529567121000014, 35.085329301 ], [ 136.529391655000012, 35.085312309 ], [ 136.529230223000013, 35.08526091 ], [ 136.529069685, 35.085229158 ], [ 136.528822280000014, 35.085212479 ], [ 136.528679387000011, 35.085195794 ], [ 136.528530851, 35.085188419 ], [ 136.52840529299999, 35.085189958 ], [ 136.52823879499999, 35.085203303 ], [ 136.528102940999986, 35.085223817 ], [ 136.527973927, 35.085250611 ], [ 136.52784913799999, 35.085286401 ], [ 136.52773818899999, 35.085325736 ], [ 136.527596303, 35.085329238 ], [ 136.527422444, 35.085459623 ], [ 136.527429769, 35.085473112 ], [ 136.527319799, 35.085545346 ], [ 136.52716185, 35.085660156 ], [ 136.52683670799999, 35.085902165 ], [ 136.52664963399999, 35.08604144 ], [ 136.526410164999987, 35.086202036 ], [ 136.526337437, 35.086250399 ], [ 136.525978829, 35.086473351 ], [ 136.525693404, 35.086633604 ], [ 136.52540654, 35.086774932 ], [ 136.525143799, 35.086898487 ], [ 136.525073587, 35.086928899 ], [ 136.524835274999987, 35.087031434 ], [ 136.52448284499999, 35.087175658 ], [ 136.524298429999988, 35.087251726 ], [ 136.524158605999986, 35.087303804 ], [ 136.523978691999986, 35.087363536 ], [ 136.523820504000014, 35.087407939 ], [ 136.523692934, 35.087438509 ], [ 136.523194460000013, 35.087537296 ], [ 136.52300191099999, 35.087576528 ], [ 136.523015708, 35.090854222 ], [ 136.522810427, 35.090858623 ], [ 136.520426294, 35.091042317 ], [ 136.520152644, 35.091057554 ], [ 136.519753626000011, 35.091088562 ], [ 136.51983378700001, 35.091138609 ], [ 136.51988058500001, 35.091323566 ], [ 136.51983283199999, 35.091437443 ], [ 136.51996716799999, 35.091936089 ], [ 136.520267394, 35.09318637 ], [ 136.520304509, 35.093193242 ], [ 136.52115557, 35.093170837 ], [ 136.521163152000014, 35.093466118 ], [ 136.52140709299999, 35.093486164 ], [ 136.521977781, 35.093543474 ], [ 136.522861049999989, 35.093652169 ], [ 136.522881152999986, 35.093674348 ], [ 136.523019549999987, 35.093688986 ], [ 136.52325625099999, 35.09369148 ], [ 136.523356048000011, 35.093689877 ], [ 136.523527013, 35.093669217 ], [ 136.523858775, 35.093598643 ], [ 136.524438171000014, 35.093456685 ], [ 136.524301524, 35.09282446 ], [ 136.52516417199999, 35.092608617 ], [ 136.525234915, 35.092968078 ], [ 136.525868438, 35.092818847 ], [ 136.525955683, 35.093083313 ], [ 136.526310171, 35.092999743 ], [ 136.526619169000014, 35.092937464 ], [ 136.526603327, 35.092912923 ], [ 136.526314183000011, 35.091848939 ], [ 136.526885, 35.091705834 ], [ 136.52716261099999, 35.091641346 ], [ 136.52761110599999, 35.091544473 ], [ 136.52939354099999, 35.091137093 ], [ 136.52949436099999, 35.091175415 ], [ 136.529536226, 35.091255551 ], [ 136.529589296000012, 35.091372417 ], [ 136.52961163399999, 35.091434699 ], [ 136.52962808, 35.091484838 ], [ 136.529811306, 35.092156787 ], [ 136.529815259, 35.092310196 ], [ 136.529868396000012, 35.092504947 ], [ 136.529892302, 35.092623203 ], [ 136.529912395, 35.092643578 ], [ 136.529943887, 35.092662821 ], [ 136.530107009, 35.09265093 ], [ 136.53013074399999, 35.092674895 ], [ 136.530290398, 35.092669509 ], [ 136.530461656, 35.092660827 ], [ 136.530496303, 35.092659053 ], [ 136.53076935199999, 35.092652179 ], [ 136.530898654, 35.092938904 ], [ 136.531067675, 35.093329302 ], [ 136.531253979000013, 35.093255829 ] ] ] } },
{ "type": "Feature", "properties": { "A29_001": "24214", "A29_002": "三重県", "A29_003": "いなべ市", "A29_004": 10, "A29_005": "準工業地域", "A29_006": 60, "A29_007": 200, "A29_008": null }, "geometry": { "type": "Polygon", "coordinates": [ [ [ 136.548599811, 35.124433251 ], [ 136.550480789, 35.123024694 ], [ 136.550480601, 35.123013067 ], [ 136.550310271, 35.122810024 ], [ 136.550106077, 35.122596228 ], [ 136.549799764999989, 35.122843441 ], [ 136.549816784, 35.122878069 ], [ 136.549813648, 35.12290116 ], [ 136.549471641, 35.123143216 ], [ 136.549103527999989, 35.123452095 ], [ 136.549060666, 35.12349042 ], [ 136.548943707, 35.123555764 ], [ 136.548744709, 35.12369107 ], [ 136.548595573999989, 35.12380136 ], [ 136.54851915, 35.123857866 ], [ 136.548376323000014, 35.123959924 ], [ 136.548244001, 35.124057878 ], [ 136.548124812999987, 35.124151085 ], [ 136.548114575, 35.12416231 ], [ 136.548061687, 35.12419455 ], [ 136.548028949000013, 35.12422102 ], [ 136.548004169, 35.124239882 ], [ 136.547944457999989, 35.124285404 ], [ 136.547852723, 35.124349461 ], [ 136.547786695000013, 35.124402043 ], [ 136.547456778999987, 35.124649266 ], [ 136.54738691899999, 35.124703037 ], [ 136.546654276, 35.125254149 ], [ 136.546562924, 35.125326587 ], [ 136.54646426, 35.125404916 ], [ 136.54640885399999, 35.125454565 ], [ 136.54624755099999, 35.125583837 ], [ 136.54609938499999, 35.125708904 ], [ 136.545997081, 35.125800861 ], [ 136.545978539, 35.125817441 ], [ 136.546004226, 35.125835624 ], [ 136.546219619999988, 35.126215513 ], [ 136.548599811, 35.124433251 ] ] ] } }
]
}
