{
"type": "FeatureCollection",
"name": "A29-19_20386",
"features": [
{ "type": "Feature", "properties": { "A29_001": "20386", "A29_002": "長野県", "A29_003": "中川村", "A29_004": 5, "A29_005": "第一種住居地域", "A29_006": 60, "A29_007": 200, "A29_008": null }, "geometry": { "type": "Polygon", "coordinates": [ [ [ 137.920695974000012, 35.626477197 ], [ 137.920647234, 35.626415858 ], [ 137.92033268099999, 35.626096853 ], [ 137.920310102, 35.626073693 ], [ 137.920495111, 35.625963417 ], [ 137.920422083, 35.625910167 ], [ 137.92033391699999, 35.625831778 ], [ 137.920297885, 35.625779537 ], [ 137.920285444, 35.6257615 ], [ 137.92020388899999, 35.625621861 ], [ 137.920190667000014, 35.625606556 ], [ 137.920096070999989, 35.625490866 ], [ 137.920088889, 35.625482083 ], [ 137.920054943999986, 35.625441139 ], [ 137.91993025, 35.625338639 ], [ 137.919909917000012, 35.625321694 ], [ 137.91972970899999, 35.625173187 ], [ 137.919606417000011, 35.625071583 ], [ 137.919557618, 35.625032902 ], [ 137.919516111, 35.625 ], [ 137.919472998, 35.624965831 ], [ 137.919278972, 35.624812056 ], [ 137.919204917, 35.624743694 ], [ 137.919161393, 35.62470961 ], [ 137.918994360999989, 35.624578806 ], [ 137.918864500000012, 35.624477722 ], [ 137.918683111, 35.624343694 ], [ 137.918500110999986, 35.624191 ], [ 137.918454110999988, 35.624152917 ], [ 137.918428597, 35.624134155 ], [ 137.918379694, 35.624098194 ], [ 137.918145556000013, 35.624178306 ], [ 137.917871666999986, 35.624286139 ], [ 137.917744139, 35.624324056 ], [ 137.917555722, 35.624380917 ], [ 137.917297896, 35.624473301 ], [ 137.917311485999988, 35.624495227 ], [ 137.917447513000013, 35.624744059 ], [ 137.917511795, 35.624816661 ], [ 137.91787036, 35.624965212 ], [ 137.918070731, 35.625152498 ], [ 137.918290563, 35.625299632 ], [ 137.91839825400001, 35.625428339 ], [ 137.918467238, 35.625478019 ], [ 137.918532649000014, 35.625525127 ], [ 137.918499172999987, 35.62555088 ], [ 137.918453707999987, 35.625585858 ], [ 137.91875951099999, 35.625836254 ], [ 137.918971828999986, 35.625681215 ], [ 137.919119576000014, 35.625778369 ], [ 137.919268409000011, 35.62589833 ], [ 137.919716521, 35.626288029 ], [ 137.919882601000012, 35.626421487 ], [ 137.919976579, 35.626490504 ], [ 137.920014341000012, 35.626507082 ], [ 137.920112025, 35.626505316 ], [ 137.920149060999989, 35.626496178 ], [ 137.92025039699999, 35.626431083 ], [ 137.920434160000013, 35.626517673 ], [ 137.920556041, 35.626578253 ], [ 137.920695974000012, 35.626477197 ] ] ] } },
{ "type": "Feature", "properties": { "A29_001": "20386", "A29_002": "長野県", "A29_003": "中川村", "A29_004": 3, "A29_005": "第一種中高層住居専用地域", "A29_006": 60, "A29_007": 200, "A29_008": null }, "geometry": { "type": "Polygon", "coordinates": [ [ [ 137.92593100799999, 35.625578495 ], [ 137.925780277, 35.625148129 ], [ 137.925757819000012, 35.625148541 ], [ 137.925667532, 35.6251502 ], [ 137.925664250000011, 35.625086679 ], [ 137.925654353999988, 35.624849282 ], [ 137.92408118099999, 35.624818434 ], [ 137.92375921499999, 35.624783358 ], [ 137.923454600000014, 35.624747245 ], [ 137.92324715, 35.624717932 ], [ 137.922548194, 35.624810723 ], [ 137.921828659, 35.624909002 ], [ 137.92192977799999, 35.6254225 ], [ 137.92197609499999, 35.625667276 ], [ 137.922026337, 35.625915691 ], [ 137.922073950999987, 35.626101107 ], [ 137.922122502, 35.62623048 ], [ 137.922305853000012, 35.626619221 ], [ 137.92272080399999, 35.627337642 ], [ 137.922717780999989, 35.627338765 ], [ 137.922723295999987, 35.627337279 ], [ 137.922755056, 35.627328722 ], [ 137.922944113999989, 35.627286399 ], [ 137.923001860999989, 35.627273472 ], [ 137.92317082299999, 35.62723759 ], [ 137.923181056, 35.627235417 ], [ 137.92329536599999, 35.627213678 ], [ 137.923656639, 35.627144972 ], [ 137.923697350999987, 35.627137661 ], [ 137.923866389000011, 35.627107306 ], [ 137.92399658299999, 35.627076111 ], [ 137.924169928999987, 35.627025465 ], [ 137.924276389, 35.626994361 ], [ 137.924466611000014, 35.626934583 ], [ 137.924642833, 35.626872389 ], [ 137.924699917, 35.626844556 ], [ 137.92497828099999, 35.626722263 ], [ 137.925289061, 35.626505531 ], [ 137.925463812, 35.626321537 ], [ 137.92563102599999, 35.6261703 ], [ 137.925783432, 35.626047311 ], [ 137.925915597, 35.625946585 ], [ 137.925961854, 35.625860354 ], [ 137.925978955, 35.625766531 ], [ 137.92593100799999, 35.625578495 ] ] ] } },
{ "type": "Feature", "properties": { "A29_001": "20386", "A29_002": "長野県", "A29_003": "中川村", "A29_004": 8, "A29_005": "近隣商業地域", "A29_006": 80, "A29_007": 200, "A29_008": null }, "geometry": { "type": "Polygon", "coordinates": [ [ [ 137.92192977799999, 35.6254225 ], [ 137.921828659, 35.624909002 ], [ 137.921589683, 35.624947727 ], [ 137.921514949, 35.624931717 ], [ 137.921423710999989, 35.624919036 ], [ 137.921308333000013, 35.624932361 ], [ 137.921089881, 35.624956735 ], [ 137.920952806, 35.624972028 ], [ 137.920706360999986, 35.624999806 ], [ 137.920704639, 35.625 ], [ 137.920560993, 35.625016095 ], [ 137.920507945, 35.625024066 ], [ 137.92048233, 35.625027915 ], [ 137.920423276, 35.625036844 ], [ 137.920365111, 35.625045639 ], [ 137.92033152799999, 35.625060917 ], [ 137.919959893, 35.625318123 ], [ 137.919948943, 35.62532477 ], [ 137.91994953, 35.625325295 ], [ 137.91993025, 35.625338639 ], [ 137.920054943999986, 35.625441139 ], [ 137.920088889, 35.625482083 ], [ 137.920096070999989, 35.625490866 ], [ 137.920190667000014, 35.625606556 ], [ 137.92020388899999, 35.625621861 ], [ 137.920285444, 35.6257615 ], [ 137.920297885, 35.625779537 ], [ 137.92033391699999, 35.625831778 ], [ 137.920422083, 35.625910167 ], [ 137.920495111, 35.625963417 ], [ 137.920310102, 35.626073693 ], [ 137.92033268099999, 35.626096853 ], [ 137.920647234, 35.626415858 ], [ 137.920695974000012, 35.626477197 ], [ 137.920556041, 35.626578253 ], [ 137.921007086, 35.626810635 ], [ 137.921053957999987, 35.626834784 ], [ 137.921056937, 35.627181348 ], [ 137.921066122000013, 35.627553282 ], [ 137.921079598, 35.627950527 ], [ 137.921082684999988, 35.628041513 ], [ 137.92141317299999, 35.627908952 ], [ 137.921795006999986, 35.62774459 ], [ 137.922161397, 35.627569719 ], [ 137.922429747, 35.627445801 ], [ 137.922717780999989, 35.627338765 ], [ 137.92272080399999, 35.627337642 ], [ 137.922305853000012, 35.626619221 ], [ 137.922122502, 35.62623048 ], [ 137.922073950999987, 35.626101107 ], [ 137.922026337, 35.625915691 ], [ 137.92197609499999, 35.625667276 ], [ 137.92192977799999, 35.6254225 ] ] ] } },
{ "type": "Feature", "properties": { "A29_001": "20386", "A29_002": "長野県", "A29_003": "中川村", "A29_004": 1, "A29_005": "第一種低層住居専用地域", "A29_006": 50, "A29_007": 80, "A29_008": null }, "geometry": { "type": "Polygon", "coordinates": [ [ [ 137.934833274999988, 35.628662333 ], [ 137.93504407899999, 35.628653957 ], [ 137.935251244999989, 35.628655763 ], [ 137.935346024000012, 35.628671985 ], [ 137.93546171700001, 35.628708929 ], [ 137.93556860699999, 35.628764762 ], [ 137.935668117, 35.628825409 ], [ 137.935756443, 35.628893076 ], [ 137.93613383600001, 35.629213786 ], [ 137.93630589899999, 35.628805876 ], [ 137.936435053999986, 35.628429976 ], [ 137.936451887, 35.628370371 ], [ 137.93661191699999, 35.627905803 ], [ 137.93661171799999, 35.627860195 ], [ 137.936611459, 35.62780053 ], [ 137.936610961000014, 35.627686324 ], [ 137.93661083399999, 35.627657164 ], [ 137.93658259099999, 35.627442236 ], [ 137.936579298, 35.627417179 ], [ 137.93655912299999, 35.627263647 ], [ 137.93655022199999, 35.627195914 ], [ 137.936538111, 35.627157164 ], [ 137.936493445, 35.627093414 ], [ 137.936402805, 35.627004358 ], [ 137.93639013, 35.626994412 ], [ 137.93628375, 35.626910942 ], [ 137.93623561199999, 35.626892303 ], [ 137.936195209, 35.62686931 ], [ 137.936175916, 35.626858331 ], [ 137.935528253, 35.626587888 ], [ 137.935288834, 35.626619274 ], [ 137.934928066, 35.626650808 ], [ 137.934670235, 35.626709965 ], [ 137.934573336999989, 35.626729633 ], [ 137.934386939, 35.626755588 ], [ 137.934220659, 35.62677642 ], [ 137.934111854, 35.626801993 ], [ 137.93400032, 35.626826063 ], [ 137.933920581, 35.626871895 ], [ 137.933828334999987, 35.626990077 ], [ 137.933823426, 35.62718706 ], [ 137.933633957000012, 35.627259951 ], [ 137.933525822, 35.62731981 ], [ 137.93346435399999, 35.627363492 ], [ 137.93343564700001, 35.627421488 ], [ 137.9333638, 35.627513191 ], [ 137.93332934899999, 35.62754433 ], [ 137.93328535, 35.627570207 ], [ 137.933158921, 35.627635196 ], [ 137.933109425, 35.627664029 ], [ 137.933089107, 35.62769747 ], [ 137.933082156000012, 35.627735164 ], [ 137.933121148999987, 35.627901096 ], [ 137.933124854999988, 35.62793474 ], [ 137.933108006999987, 35.627994177 ], [ 137.933062575, 35.628067523 ], [ 137.932999102, 35.62816284 ], [ 137.932872105, 35.628437247 ], [ 137.932719993, 35.628777864 ], [ 137.932609789, 35.629000926 ], [ 137.932511648, 35.629243657 ], [ 137.932851247, 35.628968818 ], [ 137.93305175099999, 35.628877456 ], [ 137.933258639, 35.628783185 ], [ 137.933283219, 35.628771985 ], [ 137.93332960699999, 35.628762096 ], [ 137.933409606999987, 35.628745039 ], [ 137.933490357000011, 35.628727845 ], [ 137.93358940499999, 35.628715753 ], [ 137.933638024, 35.628709817 ], [ 137.933825258000013, 35.62870238 ], [ 137.93456681399999, 35.62867292 ], [ 137.934833274999988, 35.628662333 ] ] ] } },
{ "type": "Feature", "properties": { "A29_001": "20386", "A29_002": "長野県", "A29_003": "中川村", "A29_004": 8, "A29_005": "近隣商業地域", "A29_006": 80, "A29_007": 200, "A29_008": null }, "geometry": { "type": "Polygon", "coordinates": [ [ [ 137.92269625, 35.627978639 ], [ 137.922527833, 35.627682028 ], [ 137.922482564, 35.627694767 ], [ 137.922444222, 35.627705556 ], [ 137.922420399, 35.627712831 ], [ 137.9221695, 35.627789444 ], [ 137.92205694399999, 35.627834528 ], [ 137.921937523999986, 35.627887033 ], [ 137.921906654, 35.627900606 ], [ 137.921866083, 35.627918444 ], [ 137.921757944, 35.627977972 ], [ 137.92159022199999, 35.628085306 ], [ 137.92153397199999, 35.628131222 ], [ 137.921357222000012, 35.628208972 ], [ 137.920832472, 35.6285015 ], [ 137.92057897399999, 35.62862839 ], [ 137.920567545000011, 35.628746615 ], [ 137.92058368799999, 35.62875569 ], [ 137.92066094399999, 35.628802268 ], [ 137.92076302800001, 35.628823627 ], [ 137.9209682, 35.628980374 ], [ 137.92116630699999, 35.629104296 ], [ 137.921269317999986, 35.62919158 ], [ 137.92149616, 35.629645407 ], [ 137.92159566699999, 35.629587972 ], [ 137.921961, 35.629333028 ], [ 137.922128722, 35.6292035 ], [ 137.92221683299999, 35.629147833 ], [ 137.922403417, 35.629052861 ], [ 137.922497306, 35.629020222 ], [ 137.922540636, 35.629011006 ], [ 137.922582971999987, 35.629002 ], [ 137.92282061099999, 35.628981861 ], [ 137.922997444, 35.628957833 ], [ 137.923031396999988, 35.628951307 ], [ 137.923205861000014, 35.628917778 ], [ 137.92333392, 35.628893176 ], [ 137.923391083000013, 35.628882194 ], [ 137.923372707, 35.628867172 ], [ 137.923254832999987, 35.628770806 ], [ 137.923205163, 35.628722924 ], [ 137.923163655, 35.628682909 ], [ 137.923129778, 35.62865025 ], [ 137.923038778, 35.628546917 ], [ 137.922933777999987, 35.628396944 ], [ 137.922788042, 35.628140293 ], [ 137.92277297199999, 35.628113753 ], [ 137.92269625, 35.627978639 ] ] ] } },
{ "type": "Feature", "properties": { "A29_001": "20386", "A29_002": "長野県", "A29_003": "中川村", "A29_004": 10, "A29_005": "準工業地域", "A29_006": 60, "A29_007": 200, "A29_008": null }, "geometry": { "type": "Polygon", "coordinates": [ [ [ 137.930462823999989, 35.629494848 ], [ 137.930479948999988, 35.629445026 ], [ 137.930492313, 35.629375029 ], [ 137.93049102099999, 35.629299751 ], [ 137.930292278, 35.628407972 ], [ 137.929956024, 35.628530775 ], [ 137.92986847200001, 35.62856275 ], [ 137.929599028000013, 35.628662833 ], [ 137.929554378, 35.628680262 ], [ 137.929395, 35.628742472 ], [ 137.929139889, 35.628834417 ], [ 137.92893808299999, 35.628897222 ], [ 137.928783333000013, 35.628940194 ], [ 137.92865922199999, 35.628964638 ], [ 137.92860322199999, 35.628975667 ], [ 137.928536664, 35.628985022 ], [ 137.92847713899999, 35.628993389 ], [ 137.92839761, 35.628999166 ], [ 137.928378783, 35.629000534 ], [ 137.92837845599999, 35.629010547 ], [ 137.928377264, 35.629408929 ], [ 137.927781290000013, 35.629427563 ], [ 137.927457827000012, 35.629398187 ], [ 137.927207237, 35.629335883 ], [ 137.927021491, 35.629269416 ], [ 137.926840441, 35.62918434 ], [ 137.926698643, 35.62909945 ], [ 137.92656335800001, 35.628997449 ], [ 137.926398766, 35.628846452 ], [ 137.926195646, 35.628643632 ], [ 137.926093576, 35.628439986 ], [ 137.92601141899999, 35.628184713 ], [ 137.925947807, 35.627889283 ], [ 137.925933883999988, 35.627793822 ], [ 137.92577737, 35.627739488 ], [ 137.92584288899999, 35.627498262 ], [ 137.925831702000011, 35.627403187 ], [ 137.925751163, 35.627049545 ], [ 137.925714758, 35.627058288 ], [ 137.925565541, 35.627094122 ], [ 137.925510742, 35.627098332 ], [ 137.92541077199999, 35.627036743 ], [ 137.924962571, 35.627165027 ], [ 137.924958455, 35.627229845 ], [ 137.924677742, 35.627296325 ], [ 137.924479194000014, 35.627327222 ], [ 137.92430841699999, 35.627352417 ], [ 137.92393233300001, 35.627395139 ], [ 137.92356125, 35.627448694 ], [ 137.923504, 35.627456944 ], [ 137.923274416999988, 35.627498139 ], [ 137.922954306, 35.627564528 ], [ 137.92275275, 35.627616389 ], [ 137.922527833, 35.627682028 ], [ 137.92269625, 35.627978639 ], [ 137.92277297199999, 35.628113753 ], [ 137.922788042, 35.628140293 ], [ 137.922933777999987, 35.628396944 ], [ 137.923038778, 35.628546917 ], [ 137.923129778, 35.62865025 ], [ 137.923163655, 35.628682909 ], [ 137.923205163, 35.628722924 ], [ 137.923254832999987, 35.628770806 ], [ 137.923372707, 35.628867172 ], [ 137.923391083000013, 35.628882194 ], [ 137.923489499999988, 35.628872472 ], [ 137.92352433799999, 35.628851471 ], [ 137.923793794, 35.628996531 ], [ 137.924070402000012, 35.629121568 ], [ 137.92430161499999, 35.629212106 ], [ 137.924513869, 35.629273487 ], [ 137.92484468699999, 35.629349593 ], [ 137.925136388999988, 35.629406881 ], [ 137.92548727499999, 35.629485318 ], [ 137.926062379, 35.629611774 ], [ 137.926626585, 35.629730722 ], [ 137.92690448499999, 35.629803591 ], [ 137.92712475, 35.629894071 ], [ 137.927307675, 35.629972448 ], [ 137.92753421899999, 35.630078608 ], [ 137.927816584, 35.630271936 ], [ 137.927911265, 35.630316547 ], [ 137.927933798999987, 35.630331262 ], [ 137.927960684, 35.630347142 ], [ 137.92801325100001, 35.630378235 ], [ 137.928059028, 35.630373975 ], [ 137.928067806, 35.630372539 ], [ 137.928074186, 35.630371495 ], [ 137.92813446400001, 35.630351273 ], [ 137.928259368999989, 35.63030937 ], [ 137.928276167, 35.630303734 ], [ 137.92846218599999, 35.630241328 ], [ 137.929040923, 35.629986865 ], [ 137.929501635, 35.629813494 ], [ 137.92968283499999, 35.629749514 ], [ 137.92986564200001, 35.629716097 ], [ 137.930053077999986, 35.629673758 ], [ 137.930280586, 35.629623226 ], [ 137.930418987, 35.629544137 ], [ 137.930462823999989, 35.629494848 ] ] ] } },
{ "type": "Feature", "properties": { "A29_001": "20386", "A29_002": "長野県", "A29_003": "中川村", "A29_004": 5, "A29_005": "第一種住居地域", "A29_006": 60, "A29_007": 200, "A29_008": null }, "geometry": { "type": "Polygon", "coordinates": [ [ [ 137.932293050999988, 35.629718885 ], [ 137.932181472, 35.629713744 ], [ 137.932091273999987, 35.629721002 ], [ 137.93196017599999, 35.629746871 ], [ 137.933089631, 35.630823319 ], [ 137.93349946399999, 35.630570738 ], [ 137.93352980200001, 35.630553723 ], [ 137.933472222, 35.630489806 ], [ 137.933446831, 35.630468119 ], [ 137.933415860999986, 35.630441667 ], [ 137.933333333, 35.6303575 ], [ 137.93328775, 35.630311028 ], [ 137.933224515, 35.630242831 ], [ 137.933198291, 35.630214549 ], [ 137.93318564099999, 35.630200906 ], [ 137.93286960899999, 35.629953859 ], [ 137.932649942000012, 35.62982724 ], [ 137.93252033499999, 35.62977297 ], [ 137.93238553, 35.629733215 ], [ 137.932293050999988, 35.629718885 ] ] ] } },
{ "type": "Feature", "properties": { "A29_001": "20386", "A29_002": "長野県", "A29_003": "中川村", "A29_004": 6, "A29_005": "第二種住居地域", "A29_006": 60, "A29_007": 200, "A29_008": null }, "geometry": { "type": "Polygon", "coordinates": [ [ [ 137.926095217000011, 35.630921891 ], [ 137.926215328000012, 35.630918308 ], [ 137.926488605, 35.630930918 ], [ 137.926529241, 35.630920777 ], [ 137.926593782999987, 35.630904671 ], [ 137.92687858299999, 35.630860833 ], [ 137.927009722, 35.630848222 ], [ 137.927038361, 35.630842833 ], [ 137.927062611, 35.630829306 ], [ 137.92714591699999, 35.630661583 ], [ 137.927195944, 35.630617583 ], [ 137.927230177000013, 35.630602828 ], [ 137.927282993, 35.630580063 ], [ 137.927367306, 35.630543722 ], [ 137.927621778, 35.630374667 ], [ 137.92769125, 35.630338306 ], [ 137.927816584, 35.630271936 ], [ 137.92753421899999, 35.630078608 ], [ 137.927307675, 35.629972448 ], [ 137.92712475, 35.629894071 ], [ 137.92690448499999, 35.629803591 ], [ 137.926626585, 35.629730722 ], [ 137.926062379, 35.629611774 ], [ 137.92548727499999, 35.629485318 ], [ 137.925136388999988, 35.629406881 ], [ 137.92484468699999, 35.629349593 ], [ 137.924513869, 35.629273487 ], [ 137.92430161499999, 35.629212106 ], [ 137.924070402000012, 35.629121568 ], [ 137.923793794, 35.628996531 ], [ 137.92352433799999, 35.628851471 ], [ 137.923489499999988, 35.628872472 ], [ 137.923391083000013, 35.628882194 ], [ 137.92333392, 35.628893176 ], [ 137.923205861000014, 35.628917778 ], [ 137.923031396999988, 35.628951307 ], [ 137.922997444, 35.628957833 ], [ 137.92282061099999, 35.628981861 ], [ 137.922582971999987, 35.629002 ], [ 137.922540636, 35.629011006 ], [ 137.922497306, 35.629020222 ], [ 137.922403417, 35.629052861 ], [ 137.92221683299999, 35.629147833 ], [ 137.922128722, 35.6292035 ], [ 137.921961, 35.629333028 ], [ 137.92159566699999, 35.629587972 ], [ 137.92149616, 35.629645407 ], [ 137.921427083, 35.629685278 ], [ 137.921366279000011, 35.629713862 ], [ 137.921780052, 35.630201671 ], [ 137.92178361500001, 35.630204721 ], [ 137.921825431, 35.630193114 ], [ 137.92188538900001, 35.630176472 ], [ 137.92215741699999, 35.630094611 ], [ 137.922240104999986, 35.630108502 ], [ 137.922316568000014, 35.63013868 ], [ 137.922407076000013, 35.630159504 ], [ 137.92252248599999, 35.630162752 ], [ 137.92265405099999, 35.630146986 ], [ 137.922783951000014, 35.630108855 ], [ 137.922926737000012, 35.630055879 ], [ 137.923035147, 35.630013937 ], [ 137.923110723, 35.629984726 ], [ 137.923200900000012, 35.629956063 ], [ 137.923246995, 35.629962558 ], [ 137.923484884, 35.630030891 ], [ 137.923560288, 35.630052546 ], [ 137.923573189, 35.630056252 ], [ 137.92367013399999, 35.63007428 ], [ 137.92379577299999, 35.63009228 ], [ 137.923893829, 35.630118419 ], [ 137.923978690000013, 35.630147252 ], [ 137.924120829, 35.630206697 ], [ 137.924184494, 35.630241002 ], [ 137.92441645299999, 35.63036594 ], [ 137.924654162, 35.630493975 ], [ 137.924915328, 35.63063464 ], [ 137.924996107999988, 35.630678801 ], [ 137.925014411, 35.630688807 ], [ 137.92502937399999, 35.630696987 ], [ 137.925214161000014, 35.630798001 ], [ 137.925284468, 35.630836419 ], [ 137.925415329, 35.630907475 ], [ 137.925524411, 35.630918308 ], [ 137.925525367, 35.630918345 ], [ 137.92568391099999, 35.630924447 ], [ 137.92594424399999, 35.630934501 ], [ 137.92595476599999, 35.630933622 ], [ 137.926095217000011, 35.630921891 ] ] ] } },
{ "type": "Feature", "properties": { "A29_001": "20386", "A29_002": "長野県", "A29_003": "中川村", "A29_004": 10, "A29_005": "準工業地域", "A29_006": 60, "A29_007": 200, "A29_008": null }, "geometry": { "type": "Polygon", "coordinates": [ [ [ 137.93204009499999, 35.632206067 ], [ 137.93205674699999, 35.632193234 ], [ 137.932112894999989, 35.632196199 ], [ 137.93221119399999, 35.632201389 ], [ 137.932253228, 35.632204945 ], [ 137.932297008, 35.63220865 ], [ 137.932347111000013, 35.632212889 ], [ 137.93248927799999, 35.632223722 ], [ 137.93270775, 35.6322145 ], [ 137.93275853599999, 35.632212352 ], [ 137.932821428000011, 35.632209692 ], [ 137.932979639, 35.632203 ], [ 137.933064472000012, 35.632209306 ], [ 137.933835366000011, 35.632394253 ], [ 137.933694726999988, 35.632298259 ], [ 137.933607222, 35.632233417 ], [ 137.93358597, 35.632174349 ], [ 137.933573255999988, 35.632139009 ], [ 137.933562942, 35.632110342 ], [ 137.933541472, 35.632050667 ], [ 137.933542109, 35.632047999 ], [ 137.933550931000013, 35.632011059 ], [ 137.93355911099999, 35.631976806 ], [ 137.933574528, 35.6318795 ], [ 137.933634589, 35.631702606 ], [ 137.933672820999988, 35.631590004 ], [ 137.933700832999989, 35.6315075 ], [ 137.93371334599999, 35.631444101 ], [ 137.933738721999987, 35.631315528 ], [ 137.93375705299999, 35.631255564 ], [ 137.933783242, 35.631169901 ], [ 137.93378719399999, 35.631156972 ], [ 137.933771425, 35.631072851 ], [ 137.933744104, 35.630927107 ], [ 137.933741629, 35.630913901 ], [ 137.933736528, 35.630886694 ], [ 137.933687549000012, 35.63077728 ], [ 137.933670389000014, 35.630738944 ], [ 137.933597666999987, 35.630629056 ], [ 137.933583184000014, 35.630612979 ], [ 137.93352980200001, 35.630553723 ], [ 137.93349946399999, 35.630570738 ], [ 137.933089631, 35.630823319 ], [ 137.932749752, 35.631123181 ], [ 137.93254973399999, 35.631275826 ], [ 137.932383423, 35.631299952 ], [ 137.932257257, 35.631311701 ], [ 137.93211234, 35.631333284 ], [ 137.93202309, 35.631345895 ], [ 137.931844278999989, 35.631359557 ], [ 137.931684795, 35.631375262 ], [ 137.931520396, 35.631407398 ], [ 137.931340530999989, 35.631474639 ], [ 137.931170895, 35.631581157 ], [ 137.930913006999987, 35.631774454 ], [ 137.93073761799999, 35.631919698 ], [ 137.930341454, 35.632280947 ], [ 137.930335163, 35.632288194 ], [ 137.93064118699999, 35.632516203 ], [ 137.930714200000011, 35.632518783 ], [ 137.93089057, 35.632621719 ], [ 137.931556263, 35.632464629 ], [ 137.93204009499999, 35.632206067 ] ] ] } },
{ "type": "Feature", "properties": { "A29_001": "20386", "A29_002": "長野県", "A29_003": "中川村", "A29_004": 1, "A29_005": "第一種低層住居専用地域", "A29_006": 50, "A29_007": 80, "A29_008": null }, "geometry": { "type": "Polygon", "coordinates": [ [ [ 137.948844528, 35.632780889 ], [ 137.94890761100001, 35.632700694 ], [ 137.94892925, 35.632666833 ], [ 137.948937556, 35.6326335 ], [ 137.948953472, 35.632553306 ], [ 137.948958556, 35.632530917 ], [ 137.948994922, 35.632224725 ], [ 137.948977041, 35.632036835 ], [ 137.948954788, 35.631954008 ], [ 137.94892274899999, 35.631833873 ], [ 137.949075416999989, 35.631669122 ], [ 137.949051166, 35.631478222 ], [ 137.94901983599999, 35.631387901 ], [ 137.948952996, 35.631284003 ], [ 137.948843974, 35.631074828 ], [ 137.948806229000013, 35.630988204 ], [ 137.94879936800001, 35.63088498 ], [ 137.948797832999986, 35.630872481 ], [ 137.948858777999988, 35.630864917 ], [ 137.948911806000012, 35.63085375 ], [ 137.94894007100001, 35.630845248 ], [ 137.948863022000012, 35.630560679 ], [ 137.94880452000001, 35.630552651 ], [ 137.948761151000014, 35.6305467 ], [ 137.94877404799999, 35.630356813 ], [ 137.948830007999987, 35.630316825 ], [ 137.948796292, 35.630175069 ], [ 137.948750923, 35.629999567 ], [ 137.948746889, 35.629988447 ], [ 137.948772084000012, 35.62998149 ], [ 137.948802027999989, 35.629973222 ], [ 137.948941667000014, 35.629970917 ], [ 137.948960562, 35.629970605 ], [ 137.948915298, 35.629860365 ], [ 137.948896338, 35.629829722 ], [ 137.948794012, 35.629709265 ], [ 137.948702349, 35.629631338 ], [ 137.948576435, 35.62954503 ], [ 137.949037333, 35.629370162 ], [ 137.948981643, 35.629237995 ], [ 137.948853772, 35.628982527 ], [ 137.948877153000012, 35.628767997 ], [ 137.94887148699999, 35.628662515 ], [ 137.948858986, 35.628621841 ], [ 137.94881675100001, 35.62852439 ], [ 137.94872748899999, 35.628429332 ], [ 137.948702188999988, 35.62839158 ], [ 137.948710663000014, 35.628353983 ], [ 137.948748762, 35.628322483 ], [ 137.94892983299999, 35.628274496 ], [ 137.948905044000014, 35.62816222 ], [ 137.948864651, 35.628062541 ], [ 137.948841706, 35.628013994 ], [ 137.948842664000011, 35.627940962 ], [ 137.948893817999988, 35.627869277 ], [ 137.949053343, 35.627701948 ], [ 137.949104115000011, 35.627619455 ], [ 137.94910521599999, 35.627458855 ], [ 137.949085704, 35.627442369 ], [ 137.949055781, 35.627443344 ], [ 137.948461525, 35.627546832 ], [ 137.948044821, 35.627612743 ], [ 137.94776793, 35.627656936 ], [ 137.947713721000014, 35.627708111 ], [ 137.947721722000011, 35.627806944 ], [ 137.94772239, 35.627836812 ], [ 137.947722778000013, 35.627854139 ], [ 137.947756930999986, 35.628015696 ], [ 137.94766213, 35.628042221 ], [ 137.947573732, 35.628719476 ], [ 137.947502985, 35.6291842 ], [ 137.947460441, 35.629529811 ], [ 137.947377066, 35.630237435 ], [ 137.947374193, 35.630654773 ], [ 137.947396489999988, 35.631394183 ], [ 137.947405311000011, 35.631704255 ], [ 137.947405054, 35.63227215 ], [ 137.94740838300001, 35.632751692 ], [ 137.947433528, 35.632741722 ], [ 137.947510306, 35.632712 ], [ 137.947529847999988, 35.632736964 ], [ 137.947548555999987, 35.632760861 ], [ 137.947634611000012, 35.632726528 ], [ 137.947740611, 35.632710222 ], [ 137.947866556, 35.632723972 ], [ 137.948000194, 35.632742972 ], [ 137.94802110099999, 35.63274594 ], [ 137.948138333, 35.632762583 ], [ 137.948219139, 35.632770306 ], [ 137.948301, 35.632769444 ], [ 137.94849530799999, 35.632745749 ], [ 137.948589610999989, 35.63273425 ], [ 137.948686167, 35.632731694 ], [ 137.948752278, 35.632744556 ], [ 137.948844528, 35.632780889 ] ] ] } },
{ "type": "Feature", "properties": { "A29_001": "20386", "A29_002": "長野県", "A29_003": "中川村", "A29_004": 3, "A29_005": "第一種中高層住居専用地域", "A29_006": 60, "A29_007": 200, "A29_008": null }, "geometry": { "type": "Polygon", "coordinates": [ [ [ 137.936001425, 35.629916393 ], [ 137.936132965000013, 35.629513818 ], [ 137.93613383600001, 35.629213786 ], [ 137.935756443, 35.628893076 ], [ 137.935668117, 35.628825409 ], [ 137.93556860699999, 35.628764762 ], [ 137.93546171700001, 35.628708929 ], [ 137.935346024000012, 35.628671985 ], [ 137.935251244999989, 35.628655763 ], [ 137.93504407899999, 35.628653957 ], [ 137.934833274999988, 35.628662333 ], [ 137.93456681399999, 35.62867292 ], [ 137.933825258000013, 35.62870238 ], [ 137.933638024, 35.628709817 ], [ 137.93358940499999, 35.628715753 ], [ 137.933490357000011, 35.628727845 ], [ 137.933409606999987, 35.628745039 ], [ 137.93332960699999, 35.628762096 ], [ 137.933283219, 35.628771985 ], [ 137.933258639, 35.628783185 ], [ 137.93305175099999, 35.628877456 ], [ 137.932851247, 35.628968818 ], [ 137.932511648, 35.629243657 ], [ 137.932319629, 35.629370703 ], [ 137.932150119, 35.629460082 ], [ 137.93199607, 35.629557731 ], [ 137.931864409000013, 35.629657734 ], [ 137.93196017599999, 35.629746871 ], [ 137.932091273999987, 35.629721002 ], [ 137.932181472, 35.629713744 ], [ 137.932293050999988, 35.629718885 ], [ 137.93238553, 35.629733215 ], [ 137.93252033499999, 35.62977297 ], [ 137.932649942000012, 35.62982724 ], [ 137.93286960899999, 35.629953859 ], [ 137.93318564099999, 35.630200906 ], [ 137.933198291, 35.630214549 ], [ 137.933224515, 35.630242831 ], [ 137.93328775, 35.630311028 ], [ 137.933333333, 35.6303575 ], [ 137.933415860999986, 35.630441667 ], [ 137.933446831, 35.630468119 ], [ 137.933472222, 35.630489806 ], [ 137.93352980200001, 35.630553723 ], [ 137.933583184000014, 35.630612979 ], [ 137.933597666999987, 35.630629056 ], [ 137.933670389000014, 35.630738944 ], [ 137.933687549000012, 35.63077728 ], [ 137.933736528, 35.630886694 ], [ 137.933741629, 35.630913901 ], [ 137.933744104, 35.630927107 ], [ 137.933771425, 35.631072851 ], [ 137.93378719399999, 35.631156972 ], [ 137.933783242, 35.631169901 ], [ 137.93375705299999, 35.631255564 ], [ 137.933738721999987, 35.631315528 ], [ 137.93371334599999, 35.631444101 ], [ 137.933700832999989, 35.6315075 ], [ 137.933672820999988, 35.631590004 ], [ 137.933634589, 35.631702606 ], [ 137.933574528, 35.6318795 ], [ 137.93355911099999, 35.631976806 ], [ 137.933550931000013, 35.632011059 ], [ 137.933542109, 35.632047999 ], [ 137.933541472, 35.632050667 ], [ 137.933562942, 35.632110342 ], [ 137.933573255999988, 35.632139009 ], [ 137.93358597, 35.632174349 ], [ 137.933607222, 35.632233417 ], [ 137.933694726999988, 35.632298259 ], [ 137.933835366000011, 35.632394253 ], [ 137.934239412000011, 35.632500608 ], [ 137.935332206, 35.632980414 ], [ 137.935690539, 35.632912038 ], [ 137.935793297, 35.632319285 ], [ 137.935802083, 35.631951556 ], [ 137.93587902499999, 35.631759684 ], [ 137.935933221999989, 35.631624528 ], [ 137.93595194400001, 35.631550667 ], [ 137.935975082999988, 35.631408333 ], [ 137.935999333000012, 35.630903833 ], [ 137.935998775, 35.630890319 ], [ 137.935978389000013, 35.630396611 ], [ 137.935968527, 35.630000072 ], [ 137.936001425, 35.629916393 ] ] ] } },
{ "type": "Feature", "properties": { "A29_001": "20386", "A29_002": "長野県", "A29_003": "中川村", "A29_004": 5, "A29_005": "第一種住居地域", "A29_006": 60, "A29_007": 200, "A29_008": null }, "geometry": { "type": "Polygon", "coordinates": [ [ [ 137.94559429, 35.634197804 ], [ 137.945804939, 35.633936057 ], [ 137.94606954299999, 35.633986844 ], [ 137.94626122599999, 35.633990706 ], [ 137.94642150300001, 35.633915425 ], [ 137.946541911, 35.633796735 ], [ 137.946663023000013, 35.633575947 ], [ 137.946745182, 35.633443666 ], [ 137.946782453, 35.633383245 ], [ 137.94692088799999, 35.633383416 ], [ 137.946922769, 35.633355396 ], [ 137.94692425, 35.633333333 ], [ 137.946932639000011, 35.633208361 ], [ 137.94693258800001, 35.633192582 ], [ 137.946931944, 35.632993417 ], [ 137.947090659, 35.632969588 ], [ 137.94709716700001, 35.632968611 ], [ 137.947143111, 35.632926556 ], [ 137.947224917, 35.632849167 ], [ 137.94729475, 35.632807833 ], [ 137.947349393, 35.632780581 ], [ 137.947403194, 35.63275375 ], [ 137.94740838300001, 35.632751692 ], [ 137.947405054, 35.63227215 ], [ 137.947405311000011, 35.631704255 ], [ 137.947396489999988, 35.631394183 ], [ 137.947374193, 35.630654773 ], [ 137.947377066, 35.630237435 ], [ 137.947460441, 35.629529811 ], [ 137.947502985, 35.6291842 ], [ 137.947573732, 35.628719476 ], [ 137.94766213, 35.628042221 ], [ 137.947474053, 35.628053001 ], [ 137.947262483, 35.628060531 ], [ 137.947079272, 35.628033937 ], [ 137.946671103, 35.627996963 ], [ 137.946623622, 35.627998981 ], [ 137.94658336099999, 35.628012956 ], [ 137.946541166, 35.628042573 ], [ 137.946520792, 35.62808496 ], [ 137.946520886, 35.628336116 ], [ 137.946545566999987, 35.628463671 ], [ 137.94665324799999, 35.628932195 ], [ 137.946685362000011, 35.629107109 ], [ 137.94674693799999, 35.62917931 ], [ 137.946913575, 35.629371982 ], [ 137.946923872000013, 35.629401095 ], [ 137.94686052, 35.62952042 ], [ 137.946861146, 35.629694443 ], [ 137.94658855, 35.62969285 ], [ 137.94657379899999, 35.629731505 ], [ 137.946529104, 35.629724284 ], [ 137.946363725999987, 35.629697564 ], [ 137.94631526, 35.629628215 ], [ 137.946308689, 35.629588313 ], [ 137.94642559, 35.629513951 ], [ 137.94631206299999, 35.629429959 ], [ 137.946301111999986, 35.629435061 ], [ 137.946043833, 35.629540889 ], [ 137.945578407, 35.629560474 ], [ 137.94563622199999, 35.629742472 ], [ 137.945722071, 35.630087012 ], [ 137.94572415799999, 35.63009539 ], [ 137.945935413, 35.630081895 ], [ 137.94598535099999, 35.630078705 ], [ 137.94603389400001, 35.630199871 ], [ 137.946039195, 35.630213101 ], [ 137.946130686, 35.630211582 ], [ 137.94617979099999, 35.630210766 ], [ 137.94617934199999, 35.630408261 ], [ 137.946079787, 35.630416001 ], [ 137.946013924, 35.63043582 ], [ 137.945895014, 35.630470301 ], [ 137.945799827, 35.630506381 ], [ 137.94568163400001, 35.630569186 ], [ 137.945579790000011, 35.630643989 ], [ 137.945533742, 35.630702654 ], [ 137.945503097, 35.630768243 ], [ 137.94549829799999, 35.630777502 ], [ 137.945570358999987, 35.630798765 ], [ 137.945678378999986, 35.630832219 ], [ 137.945740639, 35.6308515 ], [ 137.945803582999986, 35.630878972 ], [ 137.945836839, 35.630898457 ], [ 137.945859194, 35.630911556 ], [ 137.945947361, 35.630979333 ], [ 137.945991028, 35.631009778 ], [ 137.946014444000014, 35.631026111 ], [ 137.946150917000011, 35.631137194 ], [ 137.94619173800001, 35.631177561 ], [ 137.946235917, 35.63122125 ], [ 137.94590463899999, 35.631306778 ], [ 137.945680603999989, 35.631364631 ], [ 137.945032, 35.631532119 ], [ 137.94512925699999, 35.631771744 ], [ 137.944766746, 35.631918009 ], [ 137.94474919699999, 35.632079652 ], [ 137.94465815, 35.632266412 ], [ 137.944655669000014, 35.632271501 ], [ 137.945427187, 35.632505794 ], [ 137.94544728599999, 35.632514379 ], [ 137.94538667899999, 35.632698181 ], [ 137.945051594, 35.632627315 ], [ 137.94500271699999, 35.632777647 ], [ 137.94440286, 35.632805749 ], [ 137.944370224000011, 35.633021416 ], [ 137.944199889, 35.632990419 ], [ 137.944092915999988, 35.63332048 ], [ 137.94378319399999, 35.633303111 ], [ 137.94384041699999, 35.633492222 ], [ 137.943935, 35.633685194 ], [ 137.944036638999989, 35.633848167 ], [ 137.94406833299999, 35.633887028 ], [ 137.944395155, 35.633964684 ], [ 137.94441484699999, 35.633993453 ], [ 137.944512648999989, 35.63410793 ], [ 137.94462503599999, 35.634225456 ], [ 137.944898959999989, 35.634448902 ], [ 137.945398653000012, 35.634369806 ], [ 137.94529435699999, 35.634217293 ], [ 137.94559429, 35.634197804 ] ] ] } },
{ "type": "Feature", "properties": { "A29_001": "20386", "A29_002": "長野県", "A29_003": "中川村", "A29_004": 3, "A29_005": "第一種中高層住居専用地域", "A29_006": 60, "A29_007": 200, "A29_008": null }, "geometry": { "type": "Polygon", "coordinates": [ [ [ 137.948616417000011, 35.637116472 ], [ 137.948752805999987, 35.637099222 ], [ 137.94886441700001, 35.637102278 ], [ 137.94900999699999, 35.637113319 ], [ 137.949061878, 35.637117409 ], [ 137.94913044, 35.637122813 ], [ 137.949174215999989, 35.637139592 ], [ 137.949252453000014, 35.637169578 ], [ 137.949603126, 35.63701792 ], [ 137.949927196, 35.637024353 ], [ 137.95005138799999, 35.637019703 ], [ 137.950327585999986, 35.636947927 ], [ 137.950483193999986, 35.63688827 ], [ 137.950653581000012, 35.636803341 ], [ 137.95088370900001, 35.636659809 ], [ 137.951159773, 35.636474004 ], [ 137.951432361, 35.636262099 ], [ 137.95151858599999, 35.636202125 ], [ 137.95146970499999, 35.635927528 ], [ 137.951650835, 35.635819658 ], [ 137.95161176, 35.63565862 ], [ 137.95186702399999, 35.635577684 ], [ 137.951801948999986, 35.635361704 ], [ 137.95210484899999, 35.635241904 ], [ 137.952208176, 35.635083632 ], [ 137.952204961, 35.635019524 ], [ 137.952129202, 35.63501646 ], [ 137.95177192599999, 35.634984883 ], [ 137.951501868, 35.634874351 ], [ 137.951285982, 35.634771638 ], [ 137.95108901399999, 35.634639201 ], [ 137.95081926899999, 35.634436003 ], [ 137.95053748, 35.634258835 ], [ 137.950403048, 35.634159846 ], [ 137.95015369699999, 35.633912024 ], [ 137.949987013999987, 35.633723455 ], [ 137.949897192, 35.633642555 ], [ 137.94984119099999, 35.633621805 ], [ 137.949810093999986, 35.633622379 ], [ 137.949630215000013, 35.633625702 ], [ 137.94956497199999, 35.633617167 ], [ 137.949562651, 35.633568562 ], [ 137.949559639, 35.6335055 ], [ 137.949553194, 35.63346225 ], [ 137.949519306000013, 35.633424194 ], [ 137.949448972, 35.633354722 ], [ 137.949425639, 35.633333333 ], [ 137.949390778, 35.633301361 ], [ 137.949303250000014, 35.633237889 ], [ 137.949135332999987, 35.6331375 ], [ 137.949044028, 35.633066306 ], [ 137.948977520999989, 35.632961274 ], [ 137.948951666999989, 35.632920444 ], [ 137.9489055, 35.632837222 ], [ 137.948844528, 35.632780889 ], [ 137.948752278, 35.632744556 ], [ 137.948686167, 35.632731694 ], [ 137.948589610999989, 35.63273425 ], [ 137.94849530799999, 35.632745749 ], [ 137.948301, 35.632769444 ], [ 137.948219139, 35.632770306 ], [ 137.948138333, 35.632762583 ], [ 137.94802110099999, 35.63274594 ], [ 137.948000194, 35.632742972 ], [ 137.947866556, 35.632723972 ], [ 137.947740611, 35.632710222 ], [ 137.947634611000012, 35.632726528 ], [ 137.947548555999987, 35.632760861 ], [ 137.94763259199999, 35.632873174 ], [ 137.94766925, 35.632922167 ], [ 137.947752167, 35.633090333 ], [ 137.94777627799999, 35.633190722 ], [ 137.947784278, 35.633280472 ], [ 137.947771778, 35.633333333 ], [ 137.94776575, 35.633358833 ], [ 137.947693472, 35.63353275 ], [ 137.94759407699999, 35.633786679 ], [ 137.94758055599999, 35.633821222 ], [ 137.94756899699999, 35.633852729 ], [ 137.947478944000011, 35.634098194 ], [ 137.947454943999986, 35.634148972 ], [ 137.947432361000011, 35.6342805 ], [ 137.947439417, 35.634380917 ], [ 137.947461917, 35.634632944 ], [ 137.947471814000011, 35.634743702 ], [ 137.947480332999987, 35.634839028 ], [ 137.947473777999988, 35.634994806 ], [ 137.947477, 35.6351975 ], [ 137.947530274, 35.635383379 ], [ 137.947568778, 35.635517722 ], [ 137.94767554399999, 35.636044389 ], [ 137.947693332999989, 35.636132139 ], [ 137.94773145799999, 35.636319319 ], [ 137.947814083, 35.636724972 ], [ 137.947940023, 35.636994709 ], [ 137.94794613900001, 35.637007806 ], [ 137.948015125000012, 35.637116154 ], [ 137.948031318, 35.637141586 ], [ 137.948057917, 35.637183361 ], [ 137.948081788, 35.637218845 ], [ 137.94809985099999, 35.637245698 ], [ 137.948110444, 35.637261444 ], [ 137.948114301, 35.637259671 ], [ 137.948249333, 35.637197583 ], [ 137.948413028, 35.637161083 ], [ 137.948616417000011, 35.637116472 ] ] ] } },
{ "type": "Feature", "properties": { "A29_001": "20386", "A29_002": "長野県", "A29_003": "中川村", "A29_004": 8, "A29_005": "近隣商業地域", "A29_006": 80, "A29_007": 200, "A29_008": null }, "geometry": { "type": "Polygon", "coordinates": [ [ [ 137.947473777999988, 35.634994806 ], [ 137.947480332999987, 35.634839028 ], [ 137.947471814000011, 35.634743702 ], [ 137.947461917, 35.634632944 ], [ 137.947439417, 35.634380917 ], [ 137.947432361000011, 35.6342805 ], [ 137.947454943999986, 35.634148972 ], [ 137.947478944000011, 35.634098194 ], [ 137.94756899699999, 35.633852729 ], [ 137.94758055599999, 35.633821222 ], [ 137.94759407699999, 35.633786679 ], [ 137.947693472, 35.63353275 ], [ 137.94776575, 35.633358833 ], [ 137.947771778, 35.633333333 ], [ 137.947784278, 35.633280472 ], [ 137.94777627799999, 35.633190722 ], [ 137.947752167, 35.633090333 ], [ 137.94766925, 35.632922167 ], [ 137.94763259199999, 35.632873174 ], [ 137.947548555999987, 35.632760861 ], [ 137.947529847999988, 35.632736964 ], [ 137.947510306, 35.632712 ], [ 137.947433528, 35.632741722 ], [ 137.94740838300001, 35.632751692 ], [ 137.947403194, 35.63275375 ], [ 137.947349393, 35.632780581 ], [ 137.94729475, 35.632807833 ], [ 137.947224917, 35.632849167 ], [ 137.947143111, 35.632926556 ], [ 137.94709716700001, 35.632968611 ], [ 137.947090659, 35.632969588 ], [ 137.946931944, 35.632993417 ], [ 137.94693258800001, 35.633192582 ], [ 137.946932639000011, 35.633208361 ], [ 137.94692425, 35.633333333 ], [ 137.946922769, 35.633355396 ], [ 137.94692088799999, 35.633383416 ], [ 137.946782453, 35.633383245 ], [ 137.946745182, 35.633443666 ], [ 137.946663023000013, 35.633575947 ], [ 137.946541911, 35.633796735 ], [ 137.94642150300001, 35.633915425 ], [ 137.94626122599999, 35.633990706 ], [ 137.94606954299999, 35.633986844 ], [ 137.945804939, 35.633936057 ], [ 137.94559429, 35.634197804 ], [ 137.94529435699999, 35.634217293 ], [ 137.945398653000012, 35.634369806 ], [ 137.944898959999989, 35.634448902 ], [ 137.945071059000014, 35.634677654 ], [ 137.945170652, 35.634797356 ], [ 137.945478091000012, 35.635191622 ], [ 137.945970620999987, 35.634960456 ], [ 137.946475115, 35.634988449 ], [ 137.946585688999988, 35.634994584 ], [ 137.946594639000011, 35.635198528 ], [ 137.946648694, 35.635386917 ], [ 137.946666528, 35.635449083 ], [ 137.94672675000001, 35.635768417 ], [ 137.946792222, 35.636115611 ], [ 137.946834306, 35.636322472 ], [ 137.946860157, 35.636418584 ], [ 137.946887389000011, 35.636519833 ], [ 137.94692116600001, 35.636595581 ], [ 137.946948918, 35.636657819 ], [ 137.947021694, 35.636821028 ], [ 137.947050104, 35.636865186 ], [ 137.947145721999988, 35.637013806 ], [ 137.947286278, 35.637174861 ], [ 137.947459167, 35.637321833 ], [ 137.947516307, 35.637371008 ], [ 137.947692284, 35.637522452 ], [ 137.947719389000014, 35.637545778 ], [ 137.947776784000013, 35.637568013 ], [ 137.94789097200001, 35.63761225 ], [ 137.947917389, 35.637571278 ], [ 137.948000083000011, 35.637442944 ], [ 137.948056971999989, 35.637324278 ], [ 137.948110444, 35.637261444 ], [ 137.94809985099999, 35.637245698 ], [ 137.948081788, 35.637218845 ], [ 137.948057917, 35.637183361 ], [ 137.948031318, 35.637141586 ], [ 137.948015125000012, 35.637116154 ], [ 137.94794613900001, 35.637007806 ], [ 137.947940023, 35.636994709 ], [ 137.947814083, 35.636724972 ], [ 137.94773145799999, 35.636319319 ], [ 137.947693332999989, 35.636132139 ], [ 137.94767554399999, 35.636044389 ], [ 137.947568778, 35.635517722 ], [ 137.947530274, 35.635383379 ], [ 137.947477, 35.6351975 ], [ 137.947473777999988, 35.634994806 ] ] ] } },
{ "type": "Feature", "properties": { "A29_001": "20386", "A29_002": "長野県", "A29_003": "中川村", "A29_004": 10, "A29_005": "準工業地域", "A29_006": 60, "A29_007": 200, "A29_008": null }, "geometry": { "type": "Polygon", "coordinates": [ [ [ 137.946800943999989, 35.638158111 ], [ 137.946962667, 35.638146944 ], [ 137.947024167, 35.638153139 ], [ 137.947189279000014, 35.638080925 ], [ 137.94733925, 35.638015333 ], [ 137.947648278, 35.637910444 ], [ 137.947716531999987, 35.637896846 ], [ 137.947755777999987, 35.637889028 ], [ 137.947842611, 35.637801833 ], [ 137.947862444, 35.637707556 ], [ 137.947876846000014, 35.637659442 ], [ 137.947877817, 35.637656197 ], [ 137.94789097200001, 35.63761225 ], [ 137.947776784000013, 35.637568013 ], [ 137.947719389000014, 35.637545778 ], [ 137.947692284, 35.637522452 ], [ 137.947516307, 35.637371008 ], [ 137.947459167, 35.637321833 ], [ 137.947286278, 35.637174861 ], [ 137.947145721999988, 35.637013806 ], [ 137.947050104, 35.636865186 ], [ 137.947021694, 35.636821028 ], [ 137.946948918, 35.636657819 ], [ 137.94692116600001, 35.636595581 ], [ 137.946887389000011, 35.636519833 ], [ 137.946860157, 35.636418584 ], [ 137.946834306, 35.636322472 ], [ 137.946792222, 35.636115611 ], [ 137.94672675000001, 35.635768417 ], [ 137.946666528, 35.635449083 ], [ 137.946648694, 35.635386917 ], [ 137.946594639000011, 35.635198528 ], [ 137.946585688999988, 35.634994584 ], [ 137.946475115, 35.634988449 ], [ 137.945970620999987, 35.634960456 ], [ 137.945478091000012, 35.635191622 ], [ 137.945446315, 35.635210873 ], [ 137.945676451, 35.635451795 ], [ 137.94546106199999, 35.635575264 ], [ 137.94531679, 35.635663022 ], [ 137.94547013799999, 35.635847329 ], [ 137.945496953, 35.635930177 ], [ 137.94552181899999, 35.636030903 ], [ 137.945548666, 35.63610928 ], [ 137.945585338, 35.636219003 ], [ 137.94567653199999, 35.636365496 ], [ 137.945819505, 35.63654949 ], [ 137.946077077000012, 35.636795868 ], [ 137.946113131, 35.636863108 ], [ 137.946105447, 35.636918223 ], [ 137.94603944, 35.636958164 ], [ 137.945990665000011, 35.63701458 ], [ 137.945969276999989, 35.637071122 ], [ 137.945969784, 35.63713 ], [ 137.946022215, 35.637179197 ], [ 137.946036902, 35.637193657 ], [ 137.946385600000013, 35.637269958 ], [ 137.94639988899999, 35.637266361 ], [ 137.946403049999986, 35.637273776 ], [ 137.946456452, 35.637399081 ], [ 137.946460316000014, 35.637408147 ], [ 137.946485918, 35.637468221 ], [ 137.946522249999987, 35.637553472 ], [ 137.946548903, 35.637625688 ], [ 137.946576142, 35.637699491 ], [ 137.94660166599999, 35.63776865 ], [ 137.946624387000014, 35.637830211 ], [ 137.946638611, 35.63786875 ], [ 137.946640395, 35.637874659 ], [ 137.94672880600001, 35.638167417 ], [ 137.946788644, 35.638159698 ], [ 137.946800943999989, 35.638158111 ] ] ] } }
]
}
