{
"type": "FeatureCollection",
"name": "A29-19_20388",
"features": [
{ "type": "Feature", "properties": { "A29_001": "20388", "A29_002": "長野県", "A29_003": "宮田村", "A29_004": 1, "A29_005": "第一種低層住居専用地域", "A29_006": 50, "A29_007": 80, "A29_008": null }, "geometry": { "type": "Polygon", "coordinates": [ [ [ 137.950901934, 35.760705324 ], [ 137.951033528000011, 35.760715941 ], [ 137.951171246, 35.760729448 ], [ 137.951274496, 35.760777138 ], [ 137.95143642299999, 35.760844413 ], [ 137.951498527000012, 35.760876176 ], [ 137.951548484999989, 35.760887136 ], [ 137.95161267899999, 35.760870258 ], [ 137.951651614000014, 35.760824647 ], [ 137.951673867000011, 35.760779675 ], [ 137.951682096000013, 35.760731778 ], [ 137.951626401, 35.76066141 ], [ 137.95156875399999, 35.760619651 ], [ 137.951499791, 35.760564248 ], [ 137.95142044100001, 35.760487333 ], [ 137.951387367, 35.760446402 ], [ 137.951366329, 35.760399564 ], [ 137.951207243, 35.760131738 ], [ 137.951053513, 35.75982106 ], [ 137.95082151, 35.75952011 ], [ 137.950653972999987, 35.759247834 ], [ 137.950579917, 35.759167365 ], [ 137.950348451999986, 35.759129105 ], [ 137.950116084, 35.759094417 ], [ 137.95000583, 35.759044547 ], [ 137.949770527999988, 35.758926138 ], [ 137.94955555199999, 35.758830477 ], [ 137.949647856000013, 35.758789226 ], [ 137.949784228999988, 35.758763556 ], [ 137.949904677, 35.758692562 ], [ 137.950032604, 35.758597754 ], [ 137.950112174, 35.75851465 ], [ 137.95014333099999, 35.758439733 ], [ 137.95015159, 35.758399166 ], [ 137.95015432400001, 35.758341943 ], [ 137.950139990999986, 35.758298951 ], [ 137.95009368699999, 35.75822481 ], [ 137.95002564699999, 35.758120759 ], [ 137.949963539, 35.758004811 ], [ 137.949918773, 35.757919945 ], [ 137.94984449099999, 35.757836423 ], [ 137.94977112699999, 35.757783145 ], [ 137.949731551000013, 35.757667061 ], [ 137.948753462000013, 35.757453673 ], [ 137.94784371099999, 35.757259192 ], [ 137.947556523, 35.758172213 ], [ 137.947421808, 35.758613739 ], [ 137.947158026000011, 35.759441013 ], [ 137.946939517, 35.760173101 ], [ 137.94690151099999, 35.760274281 ], [ 137.9469286, 35.760278744 ], [ 137.947288624, 35.760356548 ], [ 137.947610292, 35.760425278 ], [ 137.948161677, 35.760531548 ], [ 137.948557865, 35.760613495 ], [ 137.94901538799999, 35.760711462 ], [ 137.949504510999986, 35.760809571 ], [ 137.94999534199999, 35.76091484 ], [ 137.95043715700001, 35.760999851 ], [ 137.950586684, 35.761029915 ], [ 137.950591995, 35.761031051 ], [ 137.950611333000012, 35.761006833 ], [ 137.950614718, 35.761003357 ], [ 137.950661427999989, 35.760955405 ], [ 137.95070525, 35.760910417 ], [ 137.950717343, 35.760896223 ], [ 137.95073216099999, 35.76087883 ], [ 137.95074441700001, 35.760864444 ], [ 137.950772527999987, 35.760816056 ], [ 137.950774505, 35.760809295 ], [ 137.950781433, 35.760785596 ], [ 137.95079525, 35.760738333 ], [ 137.95079494399999, 35.760718028 ], [ 137.95079527499999, 35.76069034 ], [ 137.950901934, 35.760705324 ] ] ] } },
{ "type": "Feature", "properties": { "A29_001": "20388", "A29_002": "長野県", "A29_003": "宮田村", "A29_004": 5, "A29_005": "第一種住居地域", "A29_006": 60, "A29_007": 200, "A29_008": null }, "geometry": { "type": "Polygon", "coordinates": [ [ [ 137.94690151099999, 35.760274281 ], [ 137.94689022099999, 35.760324387 ], [ 137.946853033, 35.760455381 ], [ 137.946826651, 35.760546837 ], [ 137.946799593, 35.760651644 ], [ 137.94677777699999, 35.760759815 ], [ 137.946785107000011, 35.760799913 ], [ 137.946795458, 35.760826194 ], [ 137.94680957700001, 35.76084498 ], [ 137.946885294, 35.76091249 ], [ 137.947025833999987, 35.761004356 ], [ 137.947071365999989, 35.761295513 ], [ 137.94711029699999, 35.761483496 ], [ 137.947195666, 35.761725947 ], [ 137.947266197, 35.762007556 ], [ 137.947285490000013, 35.762098837 ], [ 137.94728711499999, 35.762107461 ], [ 137.947480485, 35.762176317 ], [ 137.947678243000013, 35.762245192 ], [ 137.947877519, 35.762306324 ], [ 137.948175697000011, 35.762388061 ], [ 137.948259854000014, 35.762379197 ], [ 137.948307824000011, 35.762371447 ], [ 137.94833842700001, 35.762402065 ], [ 137.948354364000011, 35.762418009 ], [ 137.94846862599999, 35.762520295 ], [ 137.948792171, 35.762551477 ], [ 137.949029149000012, 35.762555424 ], [ 137.949223974, 35.76256204 ], [ 137.949308062, 35.762588181 ], [ 137.949439442, 35.762630279 ], [ 137.949595389, 35.762673919 ], [ 137.94981097499999, 35.762724987 ], [ 137.94999322699999, 35.762773039 ], [ 137.950175537, 35.762812507 ], [ 137.950330025, 35.762813213 ], [ 137.95047214499999, 35.76282531 ], [ 137.950732894999987, 35.762946695 ], [ 137.950832666, 35.762990078 ], [ 137.95102390299999, 35.763008121 ], [ 137.95119581899999, 35.763027507 ], [ 137.951364194, 35.76305117 ], [ 137.951579587, 35.763130851 ], [ 137.951840604000012, 35.763213602 ], [ 137.952052579, 35.763262432 ], [ 137.95234889, 35.763336112 ], [ 137.95236284399999, 35.763262712 ], [ 137.952374114, 35.763172688 ], [ 137.952405249, 35.762899052 ], [ 137.952421765, 35.762709296 ], [ 137.95244187, 35.762508109 ], [ 137.952468299, 35.76223803 ], [ 137.952491586, 35.762042104 ], [ 137.952509553, 35.761854023 ], [ 137.952388436, 35.761851326 ], [ 137.9522182, 35.761843396 ], [ 137.952011950000013, 35.761838879 ], [ 137.951753685, 35.761824777 ], [ 137.95159242599999, 35.761787792 ], [ 137.951463448999988, 35.761736646 ], [ 137.951373131, 35.76168043 ], [ 137.951314943999989, 35.761631991 ], [ 137.951243116, 35.761524823 ], [ 137.95115519399999, 35.761434861 ], [ 137.951095474999988, 35.76137963 ], [ 137.95103996, 35.761368406 ], [ 137.950998926000011, 35.761378712 ], [ 137.950939100999989, 35.761398471 ], [ 137.95077821000001, 35.761478344 ], [ 137.950579099, 35.761584751 ], [ 137.95046437900001, 35.761588043 ], [ 137.950407111, 35.761576334 ], [ 137.95037809499999, 35.761540906 ], [ 137.950378277999988, 35.7615055 ], [ 137.950441778, 35.761426278 ], [ 137.950458806, 35.761373861 ], [ 137.95047367699999, 35.761299999 ], [ 137.950477194, 35.761282528 ], [ 137.950492333, 35.76119725 ], [ 137.950540778, 35.761095194 ], [ 137.950591995, 35.761031051 ], [ 137.950586684, 35.761029915 ], [ 137.95043715700001, 35.760999851 ], [ 137.94999534199999, 35.76091484 ], [ 137.949504510999986, 35.760809571 ], [ 137.94901538799999, 35.760711462 ], [ 137.948557865, 35.760613495 ], [ 137.948161677, 35.760531548 ], [ 137.947610292, 35.760425278 ], [ 137.947288624, 35.760356548 ], [ 137.9469286, 35.760278744 ], [ 137.94690151099999, 35.760274281 ] ] ] } },
{ "type": "Feature", "properties": { "A29_001": "20388", "A29_002": "長野県", "A29_003": "宮田村", "A29_004": 3, "A29_005": "第一種中高層住居専用地域", "A29_006": 60, "A29_007": 200, "A29_008": null }, "geometry": { "type": "Polygon", "coordinates": [ [ [ 137.938211138000014, 35.761124668 ], [ 137.93806349499999, 35.761065876 ], [ 137.93785149199999, 35.761006219 ], [ 137.93774110699999, 35.760975654 ], [ 137.937549125, 35.760964883 ], [ 137.937551127, 35.760929836 ], [ 137.937215392000013, 35.760915244 ], [ 137.93689568100001, 35.760881399 ], [ 137.936523687, 35.760855332 ], [ 137.935879784, 35.760800802 ], [ 137.935878358999986, 35.76100255 ], [ 137.935871537, 35.761222875 ], [ 137.935854616, 35.761568147 ], [ 137.935850507, 35.761901525 ], [ 137.93585001, 35.762220611 ], [ 137.935842783, 35.76249817 ], [ 137.935803262, 35.762625333 ], [ 137.935766202, 35.762901321 ], [ 137.935686933, 35.762970098 ], [ 137.935759361, 35.763043944 ], [ 137.935792459, 35.763076609 ], [ 137.935807667, 35.763091619 ], [ 137.93592516699999, 35.763207583 ], [ 137.936079833, 35.763290778 ], [ 137.936678556, 35.763569167 ], [ 137.936908324, 35.763674315 ], [ 137.936914556, 35.763677167 ], [ 137.937494861, 35.763942778 ], [ 137.937801971999988, 35.764078056 ], [ 137.93811133299999, 35.764214306 ], [ 137.938386568, 35.764324448 ], [ 137.93838482699999, 35.764267159 ], [ 137.938253562, 35.761819659 ], [ 137.938211138000014, 35.761124668 ] ] ] } },
{ "type": "Feature", "properties": { "A29_001": "20388", "A29_002": "長野県", "A29_003": "宮田村", "A29_004": 11, "A29_005": "工業地域", "A29_006": 60, "A29_007": 200, "A29_008": null }, "geometry": { "type": "Polygon", "coordinates": [ [ [ 137.95236284399999, 35.763262712 ], [ 137.95234889, 35.763336112 ], [ 137.952052579, 35.763262432 ], [ 137.952013384, 35.763253403 ], [ 137.951931556, 35.763514302 ], [ 137.951867838, 35.763760125 ], [ 137.951848254999987, 35.763885 ], [ 137.95240594399999, 35.76397244 ], [ 137.952455191000013, 35.763788556 ], [ 137.952476905, 35.763694216 ], [ 137.952505484, 35.763622802 ], [ 137.952643548999987, 35.763673863 ], [ 137.952745928000013, 35.763719288 ], [ 137.95287202099999, 35.763764697 ], [ 137.953020548000012, 35.763781589 ], [ 137.95320994, 35.763812976 ], [ 137.953378312000012, 35.763837589 ], [ 137.953495225000012, 35.763856245 ], [ 137.953574733000011, 35.763868053 ], [ 137.953613964999988, 35.763950269 ], [ 137.953657493, 35.764088786 ], [ 137.95374743, 35.764115905 ], [ 137.953791559, 35.764166663 ], [ 137.953818581, 35.764248009 ], [ 137.95401432700001, 35.764291824 ], [ 137.954265569, 35.7643502 ], [ 137.95468659, 35.764398614 ], [ 137.955034633, 35.764421655 ], [ 137.955461922000012, 35.764409281 ], [ 137.95554936, 35.764459758 ], [ 137.955821, 35.763886246 ], [ 137.955613884, 35.763793494 ], [ 137.955514808, 35.763733425 ], [ 137.955268842, 35.763545103 ], [ 137.95502326799999, 35.763299547 ], [ 137.954841977, 35.763110628 ], [ 137.95462621499999, 35.762955526 ], [ 137.954347743, 35.762814751 ], [ 137.954252822, 35.76278928 ], [ 137.954121729, 35.762747666 ], [ 137.954000936999989, 35.76261166 ], [ 137.95382168, 35.762467757 ], [ 137.953520954, 35.762287053 ], [ 137.95331364899999, 35.762137298 ], [ 137.953173794, 35.762050809 ], [ 137.953008192, 35.761964203 ], [ 137.952755853000014, 35.76189628 ], [ 137.95254100599999, 35.761858079 ], [ 137.952509553, 35.761854023 ], [ 137.952491586, 35.762042104 ], [ 137.952468299, 35.76223803 ], [ 137.95244187, 35.762508109 ], [ 137.952421765, 35.762709296 ], [ 137.952405249, 35.762899052 ], [ 137.952374114, 35.763172688 ], [ 137.95236284399999, 35.763262712 ] ] ] } },
{ "type": "Feature", "properties": { "A29_001": "20388", "A29_002": "長野県", "A29_003": "宮田村", "A29_004": 2, "A29_005": "第二種低層住居専用地域", "A29_006": 50, "A29_007": 80, "A29_008": null }, "geometry": { "type": "Polygon", "coordinates": [ [ [ 137.935854424000013, 35.763137764 ], [ 137.93584686299999, 35.763285921 ], [ 137.93583985, 35.763346701 ], [ 137.93581311299999, 35.763403812 ], [ 137.935726741, 35.763618636 ], [ 137.935629793, 35.763777367 ], [ 137.935535791, 35.763933132 ], [ 137.935398643000013, 35.764086905 ], [ 137.935282217, 35.764206791 ], [ 137.935180895, 35.764363117 ], [ 137.935348505, 35.764453335 ], [ 137.935497333, 35.764510076 ], [ 137.935665492999988, 35.76455717 ], [ 137.935663901, 35.764782528 ], [ 137.935654701, 35.76507532 ], [ 137.935644996, 35.765206439 ], [ 137.935640092, 35.765382893 ], [ 137.93564570699999, 35.765520046 ], [ 137.93565970099999, 35.765610138 ], [ 137.93568217399999, 35.765742601 ], [ 137.935700961, 35.765879219 ], [ 137.935713596, 35.76605814 ], [ 137.93570484599999, 35.766157665 ], [ 137.935685027, 35.76627085 ], [ 137.93564621499999, 35.766420548 ], [ 137.935637772, 35.766454865 ], [ 137.935928972, 35.766489142 ], [ 137.936206067, 35.766531937 ], [ 137.936443666, 35.766573831 ], [ 137.93667245200001, 35.766620691 ], [ 137.936901283, 35.766661112 ], [ 137.93715961800001, 35.766750321 ], [ 137.93739234, 35.766861588 ], [ 137.937542881000013, 35.766925251 ], [ 137.937643648, 35.766951478 ], [ 137.937793543, 35.766982228 ], [ 137.937920665, 35.767005716 ], [ 137.938074218, 35.767015734 ], [ 137.938238339, 35.767020794 ], [ 137.938474461999988, 35.767023327 ], [ 137.93851308, 35.767024223 ], [ 137.938511323, 35.76698037 ], [ 137.93849948, 35.766700743 ], [ 137.93849261, 35.766554045 ], [ 137.938474396, 35.766199994 ], [ 137.938458931000014, 35.765757104 ], [ 137.93839472799999, 35.764592939 ], [ 137.938386568, 35.764324448 ], [ 137.93811133299999, 35.764214306 ], [ 137.937801971999988, 35.764078056 ], [ 137.937494861, 35.763942778 ], [ 137.936914556, 35.763677167 ], [ 137.936908324, 35.763674315 ], [ 137.936678556, 35.763569167 ], [ 137.936079833, 35.763290778 ], [ 137.93592516699999, 35.763207583 ], [ 137.935854424000013, 35.763137764 ] ] ] } },
{ "type": "Feature", "properties": { "A29_001": "20388", "A29_002": "長野県", "A29_003": "宮田村", "A29_004": 10, "A29_005": "準工業地域", "A29_006": 60, "A29_007": 200, "A29_008": null }, "geometry": { "type": "Polygon", "coordinates": [ [ [ 137.942761596999986, 35.768679182 ], [ 137.942807471, 35.76847907 ], [ 137.943510925999988, 35.76851355 ], [ 137.94351072, 35.768508727 ], [ 137.94349364199999, 35.768057602 ], [ 137.943957374, 35.768056983 ], [ 137.943957272, 35.768031369 ], [ 137.943958551, 35.76786279 ], [ 137.943962605, 35.767616696 ], [ 137.943974786000013, 35.767380178 ], [ 137.944004482999986, 35.767149466 ], [ 137.944029863, 35.766866267 ], [ 137.94406199299999, 35.766622211 ], [ 137.94409989, 35.766300658 ], [ 137.94413482499999, 35.76598984 ], [ 137.944155876999986, 35.765823891 ], [ 137.944175453000014, 35.765701878 ], [ 137.944044574, 35.765671702 ], [ 137.943913720000012, 35.765643465 ], [ 137.943952552000013, 35.765367069 ], [ 137.94456800899999, 35.765394715 ], [ 137.944645353999988, 35.764538924 ], [ 137.944561176, 35.764525657 ], [ 137.944608351, 35.764151482 ], [ 137.944737632999988, 35.764144424 ], [ 137.944943085, 35.764138218 ], [ 137.94524669899999, 35.764153928 ], [ 137.94555794199999, 35.76418255 ], [ 137.945652891, 35.763712809 ], [ 137.945807631, 35.76278542 ], [ 137.946693737, 35.76267533 ], [ 137.947437032000011, 35.762577153 ], [ 137.947790182, 35.762537279 ], [ 137.94812245, 35.762504463 ], [ 137.948410168, 35.762467964 ], [ 137.948409450000014, 35.762467322 ], [ 137.948354364000011, 35.762418009 ], [ 137.94833842700001, 35.762402065 ], [ 137.948307824000011, 35.762371447 ], [ 137.948259854000014, 35.762379197 ], [ 137.948175697000011, 35.762388061 ], [ 137.947877519, 35.762306324 ], [ 137.947678243000013, 35.762245192 ], [ 137.947480485, 35.762176317 ], [ 137.94728711499999, 35.762107461 ], [ 137.947247503999989, 35.762101372 ], [ 137.946938698999986, 35.762066897 ], [ 137.946335604000012, 35.761947743 ], [ 137.945706804, 35.761822745 ], [ 137.94538967599999, 35.761703663 ], [ 137.94494505, 35.761630355 ], [ 137.944434895, 35.761499259 ], [ 137.944512925, 35.760779807 ], [ 137.943892834, 35.760805094 ], [ 137.943860774, 35.760964132 ], [ 137.943829795, 35.76112711 ], [ 137.943784717, 35.761297893 ], [ 137.943748695000011, 35.761428653 ], [ 137.943705591999986, 35.761567965 ], [ 137.943663651, 35.761792421 ], [ 137.94362934, 35.761929628 ], [ 137.943558716000013, 35.76222679 ], [ 137.943453067, 35.76281309 ], [ 137.943373638, 35.76303517 ], [ 137.943317858, 35.763179899 ], [ 137.94327279800001, 35.763358439 ], [ 137.943210669, 35.763542859 ], [ 137.94318887, 35.764047229 ], [ 137.943186027, 35.764117644 ], [ 137.943549588, 35.764235212 ], [ 137.943662174999986, 35.764268869 ], [ 137.94364866, 35.764444806 ], [ 137.943599038, 35.764763664 ], [ 137.943530683, 35.765251281 ], [ 137.943475473, 35.765615903 ], [ 137.943406758, 35.76615503 ], [ 137.943385742, 35.766399615 ], [ 137.94333058, 35.766757081 ], [ 137.94329926899999, 35.766967277 ], [ 137.943261973, 35.767280469 ], [ 137.94324064599999, 35.76756941 ], [ 137.943209375, 35.768025718 ], [ 137.942972430999987, 35.768014605 ], [ 137.94271795099999, 35.768000548 ], [ 137.942456548, 35.76797215 ], [ 137.941981534, 35.767918307 ], [ 137.941964388, 35.768286017 ], [ 137.94193819899999, 35.768550067 ], [ 137.942761596999986, 35.768679182 ] ] ] } },
{ "type": "Feature", "properties": { "A29_001": "20388", "A29_002": "長野県", "A29_003": "宮田村", "A29_004": 11, "A29_005": "工業地域", "A29_006": 60, "A29_007": 200, "A29_008": null }, "geometry": { "type": "Polygon", "coordinates": [ [ [ 137.936742707, 35.769769005 ], [ 137.937969809, 35.769468106 ], [ 137.93815855, 35.769414714 ], [ 137.938472246, 35.769414272 ], [ 137.938870054, 35.769437115 ], [ 137.93918819000001, 35.769471032 ], [ 137.939319041, 35.769480129 ], [ 137.939401120000014, 35.76948538 ], [ 137.93934067699999, 35.769391804 ], [ 137.939274925, 35.769254132 ], [ 137.939209186999989, 35.769114553 ], [ 137.939158596999988, 35.768984583 ], [ 137.939108189, 35.768828858 ], [ 137.93906004199999, 35.768684591 ], [ 137.93900867799999, 35.768498336 ], [ 137.938980388, 35.768359885 ], [ 137.938956711, 35.76827104 ], [ 137.93892606599999, 35.767961187 ], [ 137.93891905699999, 35.76789031 ], [ 137.938749343000012, 35.767881892 ], [ 137.93859152600001, 35.767853968 ], [ 137.938360171999989, 35.767797084 ], [ 137.938174374999988, 35.767753289 ], [ 137.937993916000011, 35.767699503 ], [ 137.93775227099999, 35.767608228 ], [ 137.937528214, 35.767512742 ], [ 137.93723415299999, 35.767385448 ], [ 137.937165017000012, 35.767479563 ], [ 137.937050104, 35.767592065 ], [ 137.93684642, 35.767844379 ], [ 137.93666588100001, 35.768051012 ], [ 137.93644812799999, 35.768306121 ], [ 137.93626760699999, 35.768509892 ], [ 137.93613127, 35.768672374 ], [ 137.936077903000012, 35.768770855 ], [ 137.93597484099999, 35.76894494 ], [ 137.935956577000013, 35.769045017 ], [ 137.935964477, 35.769169541 ], [ 137.935972184, 35.769321251 ], [ 137.936012401, 35.769593308 ], [ 137.936526979, 35.769572826 ], [ 137.936742707, 35.769769005 ] ] ] } },
{ "type": "Feature", "properties": { "A29_001": "20388", "A29_002": "長野県", "A29_003": "宮田村", "A29_004": 8, "A29_005": "近隣商業地域", "A29_006": 80, "A29_007": 200, "A29_008": null }, "geometry": { "type": "Polygon", "coordinates": [ [ [ 137.942247578, 35.766507859 ], [ 137.941971923000011, 35.766517324 ], [ 137.941968253999988, 35.76637231 ], [ 137.941972354, 35.766120493 ], [ 137.941944997, 35.766015434 ], [ 137.941908197, 35.765921778 ], [ 137.941834304, 35.765776439 ], [ 137.941778951, 35.765657895 ], [ 137.94175845699999, 35.765575762 ], [ 137.941735596, 35.765497434 ], [ 137.941710753, 35.765367585 ], [ 137.941692034999988, 35.765198892 ], [ 137.94168991699999, 35.765083218 ], [ 137.941687253, 35.764836378 ], [ 137.941710273000012, 35.764682664 ], [ 137.941728503, 35.764586164 ], [ 137.941782345, 35.764418284 ], [ 137.94183637, 35.764224172 ], [ 137.941872256000011, 35.764113445 ], [ 137.941951485, 35.763871754 ], [ 137.941962308, 35.763788335 ], [ 137.941989699, 35.763637027 ], [ 137.942022012, 35.763409427 ], [ 137.94204064199999, 35.763255693 ], [ 137.942083212, 35.763025755 ], [ 137.941894682, 35.762997455 ], [ 137.94170022599999, 35.762979859 ], [ 137.94140499299999, 35.762937947 ], [ 137.941378622, 35.763152457 ], [ 137.941343682, 35.763337118 ], [ 137.941308916, 35.76349674 ], [ 137.941276985, 35.76366949 ], [ 137.941222884000013, 35.763874333 ], [ 137.941171717, 35.764077997 ], [ 137.94110557799999, 35.76433048 ], [ 137.941017485, 35.764584054 ], [ 137.941008122999989, 35.764667479 ], [ 137.940994859, 35.764890397 ], [ 137.940999043, 35.765128898 ], [ 137.941010975000012, 35.76530543 ], [ 137.941054759999986, 35.765529806 ], [ 137.941109103, 35.76570892 ], [ 137.941152963, 35.765922564 ], [ 137.941165211999987, 35.766053786 ], [ 137.941154915999988, 35.766270756 ], [ 137.941122116, 35.766567513 ], [ 137.94067266, 35.766609543 ], [ 137.940220278, 35.766651557 ], [ 137.939807464000012, 35.766684215 ], [ 137.939309694, 35.766730784 ], [ 137.938853935, 35.766783524 ], [ 137.93886130300001, 35.766929738 ], [ 137.938891305, 35.767609737 ], [ 137.938914684999986, 35.767846107 ], [ 137.93892606599999, 35.767961187 ], [ 137.938931921, 35.768020392 ], [ 137.94006505499999, 35.768089509 ], [ 137.94047219399999, 35.768116206 ], [ 137.94082480599999, 35.768134226 ], [ 137.940864973, 35.768135983 ], [ 137.940850334, 35.768304283 ], [ 137.940823545, 35.768547409 ], [ 137.94080725399999, 35.768700915 ], [ 137.940778945, 35.7688992 ], [ 137.940750522, 35.769113701 ], [ 137.94071961099999, 35.769349177 ], [ 137.940692379000012, 35.769560822 ], [ 137.940662503999988, 35.769815381 ], [ 137.94063034199999, 35.770062298 ], [ 137.94092874399999, 35.770073225 ], [ 137.941241192, 35.770084216 ], [ 137.94125683199999, 35.7698563 ], [ 137.941280492, 35.769653224 ], [ 137.941541398, 35.769669699 ], [ 137.941688734, 35.769686622 ], [ 137.941794441000013, 35.769443166 ], [ 137.941825531, 35.769345986 ], [ 137.94193819899999, 35.768550067 ], [ 137.941964388, 35.768286017 ], [ 137.941984117, 35.767862907 ], [ 137.942018045, 35.767011028 ], [ 137.942040915, 35.766874098 ], [ 137.94210026499999, 35.766741298 ], [ 137.942247578, 35.766507859 ] ] ] } },
{ "type": "Feature", "properties": { "A29_001": "20388", "A29_002": "長野県", "A29_003": "宮田村", "A29_004": 11, "A29_005": "工業地域", "A29_006": 60, "A29_007": 200, "A29_008": null }, "geometry": { "type": "Polygon", "coordinates": [ [ [ 137.943559913, 35.769660976 ], [ 137.943523615, 35.768810773 ], [ 137.943510925999988, 35.76851355 ], [ 137.942807471, 35.76847907 ], [ 137.942761596999986, 35.768679182 ], [ 137.94193819899999, 35.768550067 ], [ 137.941926539, 35.768632434 ], [ 137.941825531, 35.769345986 ], [ 137.941794441000013, 35.769443166 ], [ 137.941688734, 35.769686622 ], [ 137.941894751, 35.769718682 ], [ 137.94212280799999, 35.769745973 ], [ 137.942374591, 35.769728062 ], [ 137.942561981000011, 35.769712237 ], [ 137.942843025, 35.769694461 ], [ 137.942925444999986, 35.769694843 ], [ 137.942920025, 35.769842676 ], [ 137.942894977, 35.770077464 ], [ 137.943153985, 35.770072702 ], [ 137.94329267, 35.770117463 ], [ 137.943408029000011, 35.770150192 ], [ 137.943478083, 35.770175556 ], [ 137.943612687000012, 35.770176179 ], [ 137.943660935999986, 35.770181172 ], [ 137.943723756999987, 35.770194579 ], [ 137.943910733, 35.77023837 ], [ 137.944182411000014, 35.770305208 ], [ 137.944233553, 35.770314984 ], [ 137.944422241000012, 35.77032301 ], [ 137.944648937000011, 35.770335981 ], [ 137.944825912999988, 35.770345145 ], [ 137.944829564, 35.770030367 ], [ 137.944831013999988, 35.769821702 ], [ 137.944827851000014, 35.769645211 ], [ 137.94417235200001, 35.769648146 ], [ 137.94390024399999, 35.769643311 ], [ 137.943764245000011, 35.769633143 ], [ 137.943559913, 35.769660976 ] ] ] } },
{ "type": "Feature", "properties": { "A29_001": "20388", "A29_002": "長野県", "A29_003": "宮田村", "A29_004": 5, "A29_005": "第一種住居地域", "A29_006": 60, "A29_007": 200, "A29_008": null }, "geometry": { "type": "Polygon", "coordinates": [ [ [ 137.943769745999987, 35.761352238 ], [ 137.943428368000014, 35.761333785 ], [ 137.943121845, 35.761317103 ], [ 137.942855087999988, 35.761304421 ], [ 137.942698409, 35.761282709 ], [ 137.942413046000013, 35.761252768 ], [ 137.94218133199999, 35.761249786 ], [ 137.942085178000013, 35.76127605 ], [ 137.94189327, 35.761271344 ], [ 137.941605366, 35.761270008 ], [ 137.941333915, 35.761259208 ], [ 137.94114450699999, 35.761231618 ], [ 137.940959834000012, 35.761196419 ], [ 137.940660642000012, 35.761135884 ], [ 137.94039652, 35.761081236 ], [ 137.940041433, 35.760980375 ], [ 137.939793804, 35.760910539 ], [ 137.939560218999986, 35.760840768 ], [ 137.939258997, 35.76073634 ], [ 137.93896701700001, 35.760649126 ], [ 137.938635502000011, 35.760525476 ], [ 137.93863722099999, 35.76094712 ], [ 137.938629685, 35.761353457 ], [ 137.938211138000014, 35.761124668 ], [ 137.938253562, 35.761819659 ], [ 137.93838482699999, 35.764267159 ], [ 137.93839472799999, 35.764592939 ], [ 137.938458931000014, 35.765757104 ], [ 137.938474396, 35.766199994 ], [ 137.93849261, 35.766554045 ], [ 137.93849948, 35.766700743 ], [ 137.938511323, 35.76698037 ], [ 137.93851308, 35.767024223 ], [ 137.938474461999988, 35.767023327 ], [ 137.938238339, 35.767020794 ], [ 137.938074218, 35.767015734 ], [ 137.937920665, 35.767005716 ], [ 137.937793543, 35.766982228 ], [ 137.937643648, 35.766951478 ], [ 137.937542881000013, 35.766925251 ], [ 137.93739234, 35.766861588 ], [ 137.93715961800001, 35.766750321 ], [ 137.936901283, 35.766661112 ], [ 137.93667245200001, 35.766620691 ], [ 137.936443666, 35.766573831 ], [ 137.936206067, 35.766531937 ], [ 137.935928972, 35.766489142 ], [ 137.935637772, 35.766454865 ], [ 137.935545423, 35.766446151 ], [ 137.935314852, 35.766445069 ], [ 137.935127552000012, 35.766448959 ], [ 137.934952857000013, 35.766491065 ], [ 137.934955566000014, 35.766604595 ], [ 137.934966744, 35.766679054 ], [ 137.934984883, 35.76676213 ], [ 137.935007805999987, 35.766830921 ], [ 137.935045425, 35.766940099 ], [ 137.93505636, 35.767048898 ], [ 137.935053331, 35.767146184 ], [ 137.935078433, 35.767237879 ], [ 137.935117322999986, 35.767365888 ], [ 137.935121169000013, 35.767484192 ], [ 137.935120656, 35.767556688 ], [ 137.935106098, 35.767629118 ], [ 137.935072598, 35.767731985 ], [ 137.935053129000011, 35.767836825 ], [ 137.935062047, 35.767899826 ], [ 137.935089234, 35.76802778 ], [ 137.935114201, 35.768138552 ], [ 137.935154745, 35.768363869 ], [ 137.93517231199999, 35.768528027 ], [ 137.935191436999986, 35.768802847 ], [ 137.935211116, 35.768999448 ], [ 137.935232758000012, 35.769249478 ], [ 137.935222626000012, 35.769358178 ], [ 137.935165877, 35.769438041 ], [ 137.935078549, 35.769538747 ], [ 137.934899261999988, 35.769732505 ], [ 137.93477008, 35.769792949 ], [ 137.934643292, 35.769845773 ], [ 137.93457502699999, 35.769898872 ], [ 137.934350362, 35.7700762 ], [ 137.93407129900001, 35.770309552 ], [ 137.934095057, 35.770411736 ], [ 137.93459715899999, 35.770289495 ], [ 137.93663214899999, 35.769795939 ], [ 137.936698049, 35.769779956 ], [ 137.936742707, 35.769769005 ], [ 137.936526979, 35.769572826 ], [ 137.936012401, 35.769593308 ], [ 137.935972184, 35.769321251 ], [ 137.935964477, 35.769169541 ], [ 137.935956577000013, 35.769045017 ], [ 137.93597484099999, 35.76894494 ], [ 137.936077903000012, 35.768770855 ], [ 137.93613127, 35.768672374 ], [ 137.93626760699999, 35.768509892 ], [ 137.93644812799999, 35.768306121 ], [ 137.93666588100001, 35.768051012 ], [ 137.93684642, 35.767844379 ], [ 137.937050104, 35.767592065 ], [ 137.937165017000012, 35.767479563 ], [ 137.93723415299999, 35.767385448 ], [ 137.937528214, 35.767512742 ], [ 137.93775227099999, 35.767608228 ], [ 137.937993916000011, 35.767699503 ], [ 137.938174374999988, 35.767753289 ], [ 137.938360171999989, 35.767797084 ], [ 137.93859152600001, 35.767853968 ], [ 137.938749343000012, 35.767881892 ], [ 137.93891905699999, 35.76789031 ], [ 137.938914684999986, 35.767846107 ], [ 137.938905850999987, 35.767756797 ], [ 137.938891305, 35.767609737 ], [ 137.93886130300001, 35.766929738 ], [ 137.938853935, 35.766783524 ], [ 137.939309694, 35.766730784 ], [ 137.939807464000012, 35.766684215 ], [ 137.940220278, 35.766651557 ], [ 137.94067266, 35.766609543 ], [ 137.941122116, 35.766567513 ], [ 137.941154915999988, 35.766270756 ], [ 137.941165211999987, 35.766053786 ], [ 137.941152963, 35.765922564 ], [ 137.941109103, 35.76570892 ], [ 137.941054759999986, 35.765529806 ], [ 137.941010975000012, 35.76530543 ], [ 137.940999043, 35.765128898 ], [ 137.940994859, 35.764890397 ], [ 137.941008122999989, 35.764667479 ], [ 137.941017485, 35.764584054 ], [ 137.94110557799999, 35.76433048 ], [ 137.941171717, 35.764077997 ], [ 137.941222884000013, 35.763874333 ], [ 137.941276985, 35.76366949 ], [ 137.941308916, 35.76349674 ], [ 137.941343682, 35.763337118 ], [ 137.941378622, 35.763152457 ], [ 137.94140499299999, 35.762937947 ], [ 137.94170022599999, 35.762979859 ], [ 137.941894682, 35.762997455 ], [ 137.942083212, 35.763025755 ], [ 137.94204064199999, 35.763255693 ], [ 137.942022012, 35.763409427 ], [ 137.941989699, 35.763637027 ], [ 137.941962308, 35.763788335 ], [ 137.941951485, 35.763871754 ], [ 137.941872256000011, 35.764113445 ], [ 137.94183637, 35.764224172 ], [ 137.941782345, 35.764418284 ], [ 137.941728503, 35.764586164 ], [ 137.941710273000012, 35.764682664 ], [ 137.941687253, 35.764836378 ], [ 137.94168991699999, 35.765083218 ], [ 137.941692034999988, 35.765198892 ], [ 137.941710753, 35.765367585 ], [ 137.941735596, 35.765497434 ], [ 137.94175845699999, 35.765575762 ], [ 137.941778951, 35.765657895 ], [ 137.941834304, 35.765776439 ], [ 137.941908197, 35.765921778 ], [ 137.941944997, 35.766015434 ], [ 137.941972354, 35.766120493 ], [ 137.941968253999988, 35.76637231 ], [ 137.941971923000011, 35.766517324 ], [ 137.942247578, 35.766507859 ], [ 137.94210026499999, 35.766741298 ], [ 137.942040915, 35.766874098 ], [ 137.942018045, 35.767011028 ], [ 137.941984117, 35.767862907 ], [ 137.941981534, 35.767918307 ], [ 137.942456548, 35.76797215 ], [ 137.94271795099999, 35.768000548 ], [ 137.942972430999987, 35.768014605 ], [ 137.943209375, 35.768025718 ], [ 137.94324064599999, 35.76756941 ], [ 137.943261973, 35.767280469 ], [ 137.94329926899999, 35.766967277 ], [ 137.94333058, 35.766757081 ], [ 137.943385742, 35.766399615 ], [ 137.943406758, 35.76615503 ], [ 137.943475473, 35.765615903 ], [ 137.943530683, 35.765251281 ], [ 137.943599038, 35.764763664 ], [ 137.94364866, 35.764444806 ], [ 137.943662174999986, 35.764268869 ], [ 137.943549588, 35.764235212 ], [ 137.943186027, 35.764117644 ], [ 137.94318887, 35.764047229 ], [ 137.943210669, 35.763542859 ], [ 137.94327279800001, 35.763358439 ], [ 137.943317858, 35.763179899 ], [ 137.943373638, 35.76303517 ], [ 137.943453067, 35.76281309 ], [ 137.943558716000013, 35.76222679 ], [ 137.94362934, 35.761929628 ], [ 137.943663651, 35.761792421 ], [ 137.943705591999986, 35.761567965 ], [ 137.943748695000011, 35.761428653 ], [ 137.943769745999987, 35.761352238 ] ] ] } },
{ "type": "Feature", "properties": { "A29_001": "20388", "A29_002": "長野県", "A29_003": "宮田村", "A29_004": 1, "A29_005": "第一種低層住居専用地域", "A29_006": 50, "A29_007": 80, "A29_008": null }, "geometry": { "type": "Polygon", "coordinates": [ [ [ 137.95137809, 35.771023865 ], [ 137.951376237, 35.771003315 ], [ 137.951339361, 35.770748448 ], [ 137.95127678, 35.770644977 ], [ 137.95120677, 35.770557257 ], [ 137.95114730899999, 35.770354387 ], [ 137.951082848999988, 35.770169367 ], [ 137.951066829000013, 35.770020317 ], [ 137.950725417, 35.76989856 ], [ 137.950723888999988, 35.769758982 ], [ 137.950822203, 35.769760146 ], [ 137.950806156, 35.769540432 ], [ 137.950784948, 35.769433018 ], [ 137.950710042, 35.769219474 ], [ 137.95067233, 35.769036803 ], [ 137.950641983, 35.768981814 ], [ 137.950553386, 35.768921547 ], [ 137.950313427, 35.768799663 ], [ 137.950116404999989, 35.768742767 ], [ 137.949778764, 35.768631977 ], [ 137.949472584, 35.768551127 ], [ 137.949177593, 35.76849877 ], [ 137.948948331, 35.768476733 ], [ 137.948841893, 35.768465752 ], [ 137.948711178, 35.768410779 ], [ 137.948545429, 35.768344199 ], [ 137.948357343999987, 35.768291824 ], [ 137.948118857, 35.768249711 ], [ 137.947873262, 35.768219966 ], [ 137.94768726800001, 35.768203849 ], [ 137.947449742, 35.768185519 ], [ 137.94742724599999, 35.768317345 ], [ 137.947404634, 35.76854046 ], [ 137.947377485, 35.768742567 ], [ 137.94735728, 35.768956154 ], [ 137.94733931, 35.769185013 ], [ 137.947333168, 35.769734446 ], [ 137.947323901, 35.770058738 ], [ 137.947313498999989, 35.7705471 ], [ 137.947306665000013, 35.770858048 ], [ 137.947306598000011, 35.771090083 ], [ 137.947470589, 35.77110088 ], [ 137.947617861999987, 35.771131605 ], [ 137.94776182199999, 35.771133697 ], [ 137.9479638, 35.771124608 ], [ 137.948211535000013, 35.771099989 ], [ 137.948445066, 35.771098198 ], [ 137.94866980899999, 35.771097798 ], [ 137.94888749899999, 35.771101658 ], [ 137.949083734999988, 35.771161223 ], [ 137.94927679599999, 35.771172123 ], [ 137.94948046, 35.771173056 ], [ 137.949650913999989, 35.771152373 ], [ 137.949761623, 35.77113857 ], [ 137.949886545999988, 35.771100508 ], [ 137.949969153000012, 35.771088008 ], [ 137.950206285, 35.771073352 ], [ 137.95040988, 35.771084299 ], [ 137.950522177000011, 35.771094828 ], [ 137.95062399, 35.771098155 ], [ 137.950743448, 35.771088684 ], [ 137.950887575, 35.771066448 ], [ 137.951021118, 35.771051318 ], [ 137.951129993, 35.771048953 ], [ 137.95125647399999, 35.771039514 ], [ 137.95137809, 35.771023865 ] ] ] } },
{ "type": "Feature", "properties": { "A29_001": "20388", "A29_002": "長野県", "A29_003": "宮田村", "A29_004": 5, "A29_005": "第一種住居地域", "A29_006": 60, "A29_007": 200, "A29_008": null }, "geometry": { "type": "Polygon", "coordinates": [ [ [ 137.947449742, 35.768185519 ], [ 137.947299289999989, 35.768062744 ], [ 137.947312842, 35.767795707 ], [ 137.947232391999989, 35.767750503 ], [ 137.946913087000013, 35.767547757 ], [ 137.946705767999987, 35.767399899 ], [ 137.946368756999988, 35.76721901 ], [ 137.94620784599999, 35.767130508 ], [ 137.94601885899999, 35.767039969 ], [ 137.945801888, 35.766934037 ], [ 137.945656109, 35.766858005 ], [ 137.945464749, 35.766772224 ], [ 137.94526632099999, 35.766693087 ], [ 137.945108559, 35.766657064 ], [ 137.944971732999988, 35.766640216 ], [ 137.94476939, 35.766619249 ], [ 137.944780149, 35.76625013 ], [ 137.944741592000014, 35.766240412 ], [ 137.944615413, 35.766207396 ], [ 137.94448586199999, 35.766154332 ], [ 137.944415956, 35.766108221 ], [ 137.944385989000011, 35.766041308 ], [ 137.94437715, 35.765965907 ], [ 137.94436439899999, 35.765779832 ], [ 137.944220986, 35.765717816 ], [ 137.944175453000014, 35.765701878 ], [ 137.944155876999986, 35.765823891 ], [ 137.94413482499999, 35.76598984 ], [ 137.94409989, 35.766300658 ], [ 137.94406199299999, 35.766622211 ], [ 137.944029863, 35.766866267 ], [ 137.944004482999986, 35.767149466 ], [ 137.943974786000013, 35.767380178 ], [ 137.943962605, 35.767616696 ], [ 137.943958551, 35.76786279 ], [ 137.943957272, 35.768031369 ], [ 137.943957374, 35.768056983 ], [ 137.94349364199999, 35.768057602 ], [ 137.94351072, 35.768508727 ], [ 137.943559913, 35.769660976 ], [ 137.943764245000011, 35.769633143 ], [ 137.94390024399999, 35.769643311 ], [ 137.94417235200001, 35.769648146 ], [ 137.944827851000014, 35.769645211 ], [ 137.944831013999988, 35.769821702 ], [ 137.944829564, 35.770030367 ], [ 137.944825912999988, 35.770345145 ], [ 137.944648937000011, 35.770335981 ], [ 137.944422241000012, 35.77032301 ], [ 137.944233553, 35.770314984 ], [ 137.944182411000014, 35.770305208 ], [ 137.943910733, 35.77023837 ], [ 137.943723756999987, 35.770194579 ], [ 137.943660935999986, 35.770181172 ], [ 137.943612687000012, 35.770176179 ], [ 137.943478083, 35.770175556 ], [ 137.943408029000011, 35.770150192 ], [ 137.94329267, 35.770117463 ], [ 137.943153985, 35.770072702 ], [ 137.942894977, 35.770077464 ], [ 137.942920025, 35.769842676 ], [ 137.942925444999986, 35.769694843 ], [ 137.942843025, 35.769694461 ], [ 137.942561981000011, 35.769712237 ], [ 137.942374591, 35.769728062 ], [ 137.94212280799999, 35.769745973 ], [ 137.941894751, 35.769718682 ], [ 137.941688734, 35.769686622 ], [ 137.941541398, 35.769669699 ], [ 137.941280492, 35.769653224 ], [ 137.94125683199999, 35.7698563 ], [ 137.941241192, 35.770084216 ], [ 137.94092874399999, 35.770073225 ], [ 137.94063034199999, 35.770062298 ], [ 137.940662503999988, 35.769815381 ], [ 137.940692379000012, 35.769560822 ], [ 137.94071961099999, 35.769349177 ], [ 137.940750522, 35.769113701 ], [ 137.940778945, 35.7688992 ], [ 137.94080725399999, 35.768700915 ], [ 137.940823545, 35.768547409 ], [ 137.940850334, 35.768304283 ], [ 137.940864973, 35.768135983 ], [ 137.94082480599999, 35.768134226 ], [ 137.94047219399999, 35.768116206 ], [ 137.94006505499999, 35.768089509 ], [ 137.938931921, 35.768020392 ], [ 137.938956711, 35.76827104 ], [ 137.938980388, 35.768359885 ], [ 137.93900867799999, 35.768498336 ], [ 137.93906004199999, 35.768684591 ], [ 137.939108189, 35.768828858 ], [ 137.939158596999988, 35.768984583 ], [ 137.939209186999989, 35.769114553 ], [ 137.939274925, 35.769254132 ], [ 137.93934067699999, 35.769391804 ], [ 137.939401120000014, 35.76948538 ], [ 137.93969500599999, 35.770026689 ], [ 137.93994322899999, 35.770516731 ], [ 137.94002686799999, 35.770691212 ], [ 137.940397976000014, 35.770766869 ], [ 137.9406399, 35.770819983 ], [ 137.940841427, 35.770875294 ], [ 137.941060375, 35.771201123 ], [ 137.941274177, 35.771509757 ], [ 137.941421853, 35.771733662 ], [ 137.941611388000013, 35.771997825 ], [ 137.942021006, 35.771923889 ], [ 137.942529084, 35.771830376 ], [ 137.942341551999988, 35.771530451 ], [ 137.94217680599999, 35.771236355 ], [ 137.94205176299999, 35.771039743 ], [ 137.941959336999986, 35.770886686 ], [ 137.94203957, 35.770921042 ], [ 137.942149261, 35.770927513 ], [ 137.942218106000013, 35.770916505 ], [ 137.942619685000011, 35.770924328 ], [ 137.942643097, 35.771238636 ], [ 137.943070842999987, 35.771271024 ], [ 137.943064754, 35.771619774 ], [ 137.943379647, 35.77167966 ], [ 137.943596265, 35.771354539 ], [ 137.943366719000011, 35.771225294 ], [ 137.943178671999988, 35.771124857 ], [ 137.943082468999989, 35.77096761 ], [ 137.943084863, 35.770834072 ], [ 137.943147630999988, 35.770750298 ], [ 137.943241298, 35.770746558 ], [ 137.943596308, 35.770928254 ], [ 137.943883567, 35.771069094 ], [ 137.943983798, 35.771068365 ], [ 137.944076618999986, 35.771039292 ], [ 137.94397327499999, 35.770693716 ], [ 137.94425401, 35.770725903 ], [ 137.944678369, 35.770803223 ], [ 137.945068719, 35.770889925 ], [ 137.945080205000011, 35.770921457 ], [ 137.945337367, 35.770972247 ], [ 137.945505843, 35.770983518 ], [ 137.945892848999989, 35.771046352 ], [ 137.946186243, 35.771104939 ], [ 137.94635556599999, 35.771162954 ], [ 137.94635352899999, 35.77095022 ], [ 137.946750898, 35.771037902 ], [ 137.946884135, 35.771067132 ], [ 137.946959064999987, 35.771064615 ], [ 137.94718137800001, 35.771077084 ], [ 137.947306598000011, 35.771090083 ], [ 137.947306665000013, 35.770858048 ], [ 137.947313498999989, 35.7705471 ], [ 137.947323901, 35.770058738 ], [ 137.947333168, 35.769734446 ], [ 137.94733931, 35.769185013 ], [ 137.94735728, 35.768956154 ], [ 137.947377485, 35.768742567 ], [ 137.947404634, 35.76854046 ], [ 137.94742724599999, 35.768317345 ], [ 137.947449742, 35.768185519 ] ] ] } }
]
}
