{
"type": "FeatureCollection",
"name": "A29-19_20212",
"features": [
{ "type": "Feature", "properties": { "A29_001": "20212", "A29_002": "長野県", "A29_003": "大町市", "A29_004": 1, "A29_005": "第一種低層住居専用地域", "A29_006": 40, "A29_007": 60, "A29_008": null }, "geometry": { "type": "Polygon", "coordinates": [ [ [ 137.865137721999986, 36.505690676 ], [ 137.865004591, 36.505900728 ], [ 137.864860181000012, 36.506101474 ], [ 137.86461175, 36.506264977 ], [ 137.864482216, 36.506388323 ], [ 137.864431026, 36.506514628 ], [ 137.86446497, 36.506848777 ], [ 137.864515383, 36.507151129 ], [ 137.864408019, 36.507348241 ], [ 137.864183521, 36.507500452 ], [ 137.86397604699999, 36.507719696 ], [ 137.86359500899999, 36.508868217 ], [ 137.86243431299999, 36.512102647 ], [ 137.86329238, 36.512075471 ], [ 137.863321036, 36.512039034 ], [ 137.863330768999987, 36.512009255 ], [ 137.863346153, 36.511984824 ], [ 137.86336223699999, 36.51197031 ], [ 137.86340274299999, 36.511910117 ], [ 137.863417868, 36.511862631 ], [ 137.863425889000013, 36.511818342 ], [ 137.863462438999989, 36.511772304 ], [ 137.8635555, 36.511592825 ], [ 137.863582823, 36.511518647 ], [ 137.863582457, 36.511458236 ], [ 137.86358370100001, 36.511415344 ], [ 137.86358477499999, 36.511379661 ], [ 137.86358072199999, 36.511342779 ], [ 137.863568124000011, 36.511286025 ], [ 137.863553518, 36.511201772 ], [ 137.863550964000012, 36.511172739 ], [ 137.86355422599999, 36.511128866 ], [ 137.863558055999988, 36.511097344 ], [ 137.863579703999989, 36.511016799 ], [ 137.863619168000014, 36.510941938 ], [ 137.863662231, 36.510908894 ], [ 137.863695756, 36.510883127 ], [ 137.863743591, 36.510853596 ], [ 137.86377354699999, 36.510828774 ], [ 137.86383209600001, 36.510798345 ], [ 137.863871800999988, 36.510779983 ], [ 137.863894202000012, 36.51077109 ], [ 137.863965414, 36.510732086 ], [ 137.86400647, 36.510708242 ], [ 137.86406077800001, 36.510674826 ], [ 137.864093462, 36.510650937 ], [ 137.86412246, 36.510627119 ], [ 137.86423978, 36.510506169 ], [ 137.864289845, 36.510445422 ], [ 137.86433797699999, 36.510375383 ], [ 137.864364295, 36.510338032 ], [ 137.86439532, 36.510298453 ], [ 137.864470401, 36.51022306 ], [ 137.864507271, 36.510178556 ], [ 137.864539183, 36.510139793 ], [ 137.86456383699999, 36.510087382 ], [ 137.864572399999986, 36.510064176 ], [ 137.86457814, 36.51004474 ], [ 137.864582033, 36.510019256 ], [ 137.86457776200001, 36.509981652 ], [ 137.864571584, 36.509931601 ], [ 137.864567195, 36.509894898 ], [ 137.864550799, 36.509852002 ], [ 137.86449268199999, 36.509777792 ], [ 137.864431693, 36.50971339 ], [ 137.864408032, 36.509685235 ], [ 137.864383602, 36.509641846 ], [ 137.86435315899999, 36.509561051 ], [ 137.864343891, 36.509502395 ], [ 137.864345289, 36.509463911 ], [ 137.86436173199999, 36.509439512 ], [ 137.864399894, 36.509409092 ], [ 137.864547047, 36.509297042 ], [ 137.864729528999987, 36.509368868 ], [ 137.865114166000012, 36.509171709 ], [ 137.865363679000012, 36.508727271 ], [ 137.865542643, 36.508480151 ], [ 137.86562786799999, 36.508376188 ], [ 137.865750182999989, 36.508466195 ], [ 137.865836195000014, 36.508377944 ], [ 137.86593216599999, 36.508355293 ], [ 137.866285395, 36.508138496 ], [ 137.866427464999987, 36.50803186 ], [ 137.8665588, 36.508035559 ], [ 137.86676829699999, 36.507909904 ], [ 137.86681776099999, 36.507849929 ], [ 137.867162543, 36.507574378 ], [ 137.86738834499999, 36.507254243 ], [ 137.867360409000014, 36.507210836 ], [ 137.86734762899999, 36.507189859 ], [ 137.867323707, 36.507152602 ], [ 137.86730654199999, 36.507121779 ], [ 137.867297212000011, 36.507088384 ], [ 137.867291717, 36.507050323 ], [ 137.86728694199999, 36.507019746 ], [ 137.867276914, 36.506976163 ], [ 137.867256935, 36.506920722 ], [ 137.867243777999988, 36.506891272 ], [ 137.867227531999987, 36.5068573 ], [ 137.867211813000011, 36.506827205 ], [ 137.86719126, 36.506787442 ], [ 137.867169354, 36.506735596 ], [ 137.867152893999986, 36.506686752 ], [ 137.867142773000012, 36.506613428 ], [ 137.867139986000012, 36.506585475 ], [ 137.86713291699999, 36.506493873 ], [ 137.867126589, 36.506462026 ], [ 137.867114926999989, 36.506427267 ], [ 137.867100106, 36.506396546 ], [ 137.86708149899999, 36.506364634 ], [ 137.867065196, 36.506337601 ], [ 137.867036918, 36.506286892 ], [ 137.867023628, 36.506260145 ], [ 137.867005629, 36.506208409 ], [ 137.86699356299999, 36.506168331 ], [ 137.866983284000014, 36.506128261 ], [ 137.866975814999989, 36.506095291 ], [ 137.866749981999988, 36.506056078 ], [ 137.86664156399999, 36.506026916 ], [ 137.86645846799999, 36.505966778 ], [ 137.86660637, 36.506322521 ], [ 137.866466255, 36.506348616 ], [ 137.866362847, 36.506386828 ], [ 137.866310918000011, 36.506434255 ], [ 137.866281167000011, 36.506469875 ], [ 137.866225797, 36.50648747 ], [ 137.86614495399999, 36.506469152 ], [ 137.866119664, 36.506409383 ], [ 137.86590639100001, 36.506375454 ], [ 137.865755758, 36.506335891 ], [ 137.86575699799999, 36.506183842 ], [ 137.865688385999988, 36.506019499 ], [ 137.865476378000011, 36.505920867 ], [ 137.865381770999988, 36.505857431 ], [ 137.86525637, 36.505715063 ], [ 137.865137721999986, 36.505690676 ] ] ] } },
{ "type": "Feature", "properties": { "A29_001": "20212", "A29_002": "長野県", "A29_003": "大町市", "A29_004": 1, "A29_005": "第一種低層住居専用地域", "A29_006": 50, "A29_007": 80, "A29_008": null }, "geometry": { "type": "Polygon", "coordinates": [ [ [ 137.84082090699999, 36.51872977 ], [ 137.840847857, 36.518742049 ], [ 137.840867632999988, 36.518753604 ], [ 137.841009121000013, 36.518869563 ], [ 137.841059015000013, 36.518910934 ], [ 137.841071808, 36.518916502 ], [ 137.841122867, 36.518938954 ], [ 137.841139368, 36.518941749 ], [ 137.841202785, 36.518942099 ], [ 137.84131242, 36.518969471 ], [ 137.84138666199999, 36.518996828 ], [ 137.84144628199999, 36.519023563 ], [ 137.841500493000012, 36.519056216 ], [ 137.841558822, 36.519103672 ], [ 137.841595747000014, 36.519133887 ], [ 137.841611633000014, 36.519156595 ], [ 137.84162582, 36.519182178 ], [ 137.84167715699999, 36.519303677 ], [ 137.841702335, 36.519389522 ], [ 137.841719070000011, 36.519483432 ], [ 137.84186875, 36.519819243 ], [ 137.842087064999987, 36.520238256 ], [ 137.84213821, 36.520303516 ], [ 137.842362537000014, 36.520423841 ], [ 137.842551786, 36.520529129 ], [ 137.842648986, 36.520586884 ], [ 137.84275669199999, 36.520644795 ], [ 137.843139341000011, 36.520796597 ], [ 137.84325711599999, 36.520879987 ], [ 137.84343611599999, 36.521105918 ], [ 137.84366735099999, 36.521434921 ], [ 137.843799694000012, 36.521624825 ], [ 137.843879269000013, 36.521761574 ], [ 137.84397843799999, 36.521926448 ], [ 137.844051138999987, 36.522026983 ], [ 137.844111395, 36.522101963 ], [ 137.84462331099999, 36.521980633 ], [ 137.84514379699999, 36.521817252 ], [ 137.84713249, 36.521033154 ], [ 137.846858923000013, 36.520406206 ], [ 137.846710159999986, 36.51992931 ], [ 137.84667062, 36.51975147 ], [ 137.846618318999987, 36.519437981 ], [ 137.846577583, 36.518957269 ], [ 137.84657606, 36.518711758 ], [ 137.846583844, 36.51849757 ], [ 137.846595670999989, 36.51832705 ], [ 137.846636509, 36.518024507 ], [ 137.846830934, 36.516974715 ], [ 137.846998086000013, 36.516117995 ], [ 137.847219153, 36.514930893 ], [ 137.84746026, 36.513621927 ], [ 137.847128336999987, 36.513806656 ], [ 137.84649477100001, 36.514230026 ], [ 137.845885949, 36.514701312 ], [ 137.845483855999987, 36.514977856 ], [ 137.845156924, 36.515145438 ], [ 137.84455577899999, 36.515411252 ], [ 137.844316781, 36.515548016 ], [ 137.84352443, 36.516320705 ], [ 137.84329599899999, 36.516518492 ], [ 137.842693733, 36.51698904 ], [ 137.842075458000011, 36.517477016 ], [ 137.841565252, 36.517950806 ], [ 137.841268552, 36.518229656 ], [ 137.84083551, 36.518722028 ], [ 137.84082090699999, 36.51872977 ] ] ] } },
{ "type": "Feature", "properties": { "A29_001": "20212", "A29_002": "長野県", "A29_003": "大町市", "A29_004": 1, "A29_005": "第一種低層住居専用地域", "A29_006": 50, "A29_007": 80, "A29_008": null }, "geometry": { "type": "Polygon", "coordinates": [ [ [ 137.845383493000014, 36.514376953 ], [ 137.846227410000012, 36.513726335 ], [ 137.846526433, 36.513528198 ], [ 137.846758408999989, 36.513366256 ], [ 137.847104562, 36.51308741 ], [ 137.847276795, 36.512909432 ], [ 137.84738350399999, 36.512797804 ], [ 137.847220185, 36.512839538 ], [ 137.846726475, 36.512971668 ], [ 137.846454677, 36.513116251 ], [ 137.846232456, 36.513140313 ], [ 137.84602445499999, 36.51312232 ], [ 137.845311005000013, 36.513519209 ], [ 137.84497468399999, 36.513497698 ], [ 137.844369949999987, 36.513629209 ], [ 137.843932720999987, 36.513643658 ], [ 137.843688098, 36.513691997 ], [ 137.84319427, 36.51383535 ], [ 137.843025133999987, 36.513323955 ], [ 137.84249351599999, 36.513424956 ], [ 137.84193858099999, 36.51382077 ], [ 137.841370184999988, 36.514043985 ], [ 137.84116756899999, 36.514211405 ], [ 137.841073711, 36.514233354 ], [ 137.840931727999987, 36.514204479 ], [ 137.84085227, 36.514164719 ], [ 137.840627216, 36.514112917 ], [ 137.84033667700001, 36.514010184 ], [ 137.840035483, 36.513938294 ], [ 137.839479798000013, 36.513603757 ], [ 137.839378138, 36.513604546 ], [ 137.839079023000011, 36.513695589 ], [ 137.838934443999989, 36.513809505 ], [ 137.838874315, 36.513881315 ], [ 137.838727471999988, 36.514001473 ], [ 137.838525701, 36.514141072 ], [ 137.838404520000012, 36.514223709 ], [ 137.837718706, 36.514484549 ], [ 137.8376003, 36.514540029 ], [ 137.837460736999986, 36.514637488 ], [ 137.837304261000014, 36.514763584 ], [ 137.837202581000014, 36.514892209 ], [ 137.83709131, 36.514925288 ], [ 137.836941209, 36.515036792 ], [ 137.836813619999987, 36.515147799 ], [ 137.836587068, 36.515397359 ], [ 137.83652017599999, 36.515440931 ], [ 137.83658204, 36.515609894 ], [ 137.836602425, 36.515667776 ], [ 137.836651287, 36.515737983 ], [ 137.83671152299999, 36.515796808 ], [ 137.836765745, 36.515840638 ], [ 137.836776517, 36.515847457 ], [ 137.836904395, 36.515960731 ], [ 137.83714720899999, 36.516133945 ], [ 137.83723236, 36.516177677 ], [ 137.83727992499999, 36.516203626 ], [ 137.837508882, 36.516286639 ], [ 137.837566756, 36.516321297 ], [ 137.837611122, 36.51635588 ], [ 137.837697969, 36.516436571 ], [ 137.837962983000011, 36.516782851 ], [ 137.83802744499999, 36.516856929 ], [ 137.838084331, 36.516916095 ], [ 137.838254490999987, 36.517046905 ], [ 137.838478993, 36.517207848 ], [ 137.838905755000013, 36.517532762 ], [ 137.839230171999986, 36.517787714 ], [ 137.83990157299999, 36.518296748 ], [ 137.840199372, 36.518522107 ], [ 137.84020520199999, 36.518515371 ], [ 137.840407131, 36.518287054 ], [ 137.840721148, 36.517958571 ], [ 137.841689514, 36.517042515 ], [ 137.84191940299999, 36.516843315 ], [ 137.842442038, 36.516476378 ], [ 137.842756345999987, 36.516219963 ], [ 137.843311441, 36.515704824 ], [ 137.843750456, 36.515265512 ], [ 137.844004445, 36.515077625 ], [ 137.844211494, 36.514973302 ], [ 137.844410963, 36.514886024 ], [ 137.844807417, 36.514702774 ], [ 137.845095095, 36.51455749 ], [ 137.845383493000014, 36.514376953 ] ] ] } },
{ "type": "Feature", "properties": { "A29_001": "20212", "A29_002": "長野県", "A29_003": "大町市", "A29_004": 1, "A29_005": "第一種低層住居専用地域", "A29_006": 50, "A29_007": 80, "A29_008": null }, "geometry": { "type": "Polygon", "coordinates": [ [ [ 137.868811537999989, 36.506457282 ], [ 137.868562376, 36.506378971 ], [ 137.86837947, 36.506322641 ], [ 137.868142409, 36.506260867 ], [ 137.867478086, 36.506165719 ], [ 137.86708199, 36.506109301 ], [ 137.866975814999989, 36.506095291 ], [ 137.866983284000014, 36.506128261 ], [ 137.86699356299999, 36.506168331 ], [ 137.867005629, 36.506208409 ], [ 137.867023628, 36.506260145 ], [ 137.867036918, 36.506286892 ], [ 137.867065196, 36.506337601 ], [ 137.86708149899999, 36.506364634 ], [ 137.867100106, 36.506396546 ], [ 137.867114926999989, 36.506427267 ], [ 137.867126589, 36.506462026 ], [ 137.86713291699999, 36.506493873 ], [ 137.867139986000012, 36.506585475 ], [ 137.867142773000012, 36.506613428 ], [ 137.867152893999986, 36.506686752 ], [ 137.867169354, 36.506735596 ], [ 137.86719126, 36.506787442 ], [ 137.867211813000011, 36.506827205 ], [ 137.867227531999987, 36.5068573 ], [ 137.867243777999988, 36.506891272 ], [ 137.867256935, 36.506920722 ], [ 137.867276914, 36.506976163 ], [ 137.86728694199999, 36.507019746 ], [ 137.867291717, 36.507050323 ], [ 137.867297212000011, 36.507088384 ], [ 137.86730654199999, 36.507121779 ], [ 137.867323707, 36.507152602 ], [ 137.86734762899999, 36.507189859 ], [ 137.867360409000014, 36.507210836 ], [ 137.86738834499999, 36.507254243 ], [ 137.867737107000011, 36.507151847 ], [ 137.868130589, 36.506996082 ], [ 137.86815947, 36.50696297 ], [ 137.868533488999987, 36.506855749 ], [ 137.86900518499999, 36.506729676 ], [ 137.868985869, 36.506696994 ], [ 137.868838817000011, 36.506503362 ], [ 137.868811537999989, 36.506457282 ] ] ] } },
{ "type": "Feature", "properties": { "A29_001": "20212", "A29_002": "長野県", "A29_003": "大町市", "A29_004": 1, "A29_005": "第一種低層住居専用地域", "A29_006": 40, "A29_007": 60, "A29_008": null }, "geometry": { "type": "Polygon", "coordinates": [ [ [ 137.84406823399999, 36.50484116 ], [ 137.84387228599999, 36.504831611 ], [ 137.843669266, 36.504826709 ], [ 137.843651747, 36.504852298 ], [ 137.84362267899999, 36.504963349 ], [ 137.843625519, 36.505010409 ], [ 137.843650739, 36.505090937 ], [ 137.84365290299999, 36.505125647 ], [ 137.84363645, 36.505157189 ], [ 137.843487992, 36.505287681 ], [ 137.84343898899999, 36.505340134 ], [ 137.843417570000014, 36.505397838 ], [ 137.84348470899999, 36.505662259 ], [ 137.843467326, 36.505667778 ], [ 137.843579264, 36.505892556 ], [ 137.843545959000011, 36.505906333 ], [ 137.84348985299999, 36.505927293 ], [ 137.843349303, 36.506006819 ], [ 137.84326919599999, 36.506054143 ], [ 137.843204566, 36.506106239 ], [ 137.84315135, 36.506168311 ], [ 137.843042548999989, 36.506321912 ], [ 137.84299250699999, 36.506404639 ], [ 137.842964169999988, 36.506455312 ], [ 137.842903568, 36.506532755 ], [ 137.842865117, 36.506578145 ], [ 137.84279945099999, 36.506647088 ], [ 137.842755673, 36.506675506 ], [ 137.842670324000011, 36.506708922 ], [ 137.842338804, 36.506854689 ], [ 137.842290478, 36.506894139 ], [ 137.842312103000012, 36.506957489 ], [ 137.842410288999986, 36.50695073 ], [ 137.842650354999989, 36.506931955 ], [ 137.84272428700001, 36.506928578 ], [ 137.842871685, 36.506910824 ], [ 137.843514021, 36.506788937 ], [ 137.843509817000012, 36.5068321 ], [ 137.843509641, 36.506837101 ], [ 137.84351, 36.506847377 ], [ 137.843518434, 36.506906364 ], [ 137.84353298799999, 36.506980885 ], [ 137.843537313000013, 36.507050484 ], [ 137.843531619, 36.507090197 ], [ 137.843497004999989, 36.507170396 ], [ 137.843464734, 36.50723754 ], [ 137.84343568599999, 36.507279828 ], [ 137.84302154, 36.507752585 ], [ 137.842621963, 36.508125655 ], [ 137.842487893, 36.50823036 ], [ 137.842417931, 36.508279091 ], [ 137.842352850999987, 36.508331274 ], [ 137.842323177, 36.508368331 ], [ 137.842305944, 36.508412757 ], [ 137.84229654, 36.508495077 ], [ 137.842297046, 36.508514546 ], [ 137.842296118, 36.508545003 ], [ 137.842353913000011, 36.508575512 ], [ 137.84239665199999, 36.508604137 ], [ 137.84243930400001, 36.508643034 ], [ 137.84248311799999, 36.508689869 ], [ 137.84259049, 36.508772112 ], [ 137.842547042, 36.508800892 ], [ 137.842513649000011, 36.508828917 ], [ 137.842484571, 36.508861471 ], [ 137.842456613, 36.508893581 ], [ 137.842013277, 36.509185928 ], [ 137.842019563, 36.509221471 ], [ 137.842010601999988, 36.509225027 ], [ 137.84200069799999, 36.509234435 ], [ 137.841979869, 36.509281544 ], [ 137.841971547000014, 36.509315114 ], [ 137.841973841999987, 36.509386955 ], [ 137.842047349000012, 36.509671878 ], [ 137.842081185000012, 36.509789674 ], [ 137.842086891, 36.509827828 ], [ 137.84206916, 36.509865041 ], [ 137.841941209, 36.509960054 ], [ 137.84192205799999, 36.509979046 ], [ 137.84191043300001, 36.509994032 ], [ 137.841898845, 36.51001767 ], [ 137.841896176, 36.510029642 ], [ 137.841897777000014, 36.510051551 ], [ 137.841901885, 36.510067525 ], [ 137.841926117000014, 36.510119569 ], [ 137.842042463000013, 36.510302529 ], [ 137.842177862, 36.51046109 ], [ 137.84220948699999, 36.510504947 ], [ 137.842105065999988, 36.510556841 ], [ 137.841946083000011, 36.510649781 ], [ 137.841900885, 36.510674226 ], [ 137.841888858, 36.510683803 ], [ 137.841852421, 36.51074155 ], [ 137.841774832, 36.510860084 ], [ 137.841725751000013, 36.510919754 ], [ 137.841674805999986, 36.510964976 ], [ 137.84152049799999, 36.511125354 ], [ 137.841515514, 36.511133888 ], [ 137.84151394700001, 36.511147488 ], [ 137.84153991, 36.511322298 ], [ 137.84146513499999, 36.511419506 ], [ 137.844518558, 36.511787377 ], [ 137.846731354000013, 36.511150928 ], [ 137.847346471, 36.510935477 ], [ 137.847993147000011, 36.510690463 ], [ 137.84822104599999, 36.509410307 ], [ 137.848479841, 36.508031148 ], [ 137.848723584, 36.5066619 ], [ 137.84960660499999, 36.50165939 ], [ 137.848947439, 36.50153349 ], [ 137.848239787000011, 36.501394019 ], [ 137.848125084, 36.501365166 ], [ 137.847632374999989, 36.501230948 ], [ 137.847364176000013, 36.501107274 ], [ 137.847015606000014, 36.500934179 ], [ 137.846442682, 36.500619641 ], [ 137.843917914, 36.499224176 ], [ 137.843868697, 36.499270715 ], [ 137.843800673, 36.499399037 ], [ 137.843750789000012, 36.499580089 ], [ 137.843597012, 36.50014398 ], [ 137.84359533899999, 36.500157039 ], [ 137.84360494399999, 36.500182957 ], [ 137.843617451, 36.500195553 ], [ 137.843625721, 36.500201087 ], [ 137.84410023, 36.500528985 ], [ 137.84444572000001, 36.500792339 ], [ 137.844690617, 36.50100614 ], [ 137.844743722, 36.501056071 ], [ 137.844829871, 36.501127039 ], [ 137.844935061, 36.501201084 ], [ 137.844959425000013, 36.50121753 ], [ 137.845010454, 36.501234258 ], [ 137.845061722, 36.501251888 ], [ 137.845114125, 36.501268578 ], [ 137.845176729, 36.501286793 ], [ 137.845317418, 36.501323587 ], [ 137.845336315, 36.50133036 ], [ 137.84544755499999, 36.501366028 ], [ 137.845500469, 36.501392273 ], [ 137.845562285999989, 36.50143515 ], [ 137.845625317000014, 36.501492904 ], [ 137.84568842499999, 36.501573433 ], [ 137.845728336, 36.501627392 ], [ 137.845763696, 36.501683642 ], [ 137.845828813999987, 36.501802655 ], [ 137.845969532999987, 36.501950272 ], [ 137.84618961000001, 36.502196135 ], [ 137.846072104, 36.502271131 ], [ 137.845809667, 36.502403345 ], [ 137.845604587999986, 36.502498021 ], [ 137.845347495, 36.502601324 ], [ 137.845340391, 36.502640318 ], [ 137.845339458000012, 36.502658247 ], [ 137.84533950299999, 36.502666268 ], [ 137.845330775, 36.50269524 ], [ 137.845325634, 36.502709181 ], [ 137.845310348999988, 36.502734782 ], [ 137.8451336, 36.502903829 ], [ 137.845101860999989, 36.50295579 ], [ 137.845075909, 36.503002061 ], [ 137.84499352200001, 36.503227908 ], [ 137.84492913599999, 36.503344353 ], [ 137.844916270999988, 36.503360775 ], [ 137.84486862899999, 36.503410982 ], [ 137.84481921299999, 36.503459648 ], [ 137.844770755000013, 36.503500568 ], [ 137.844675945, 36.503570974 ], [ 137.844581326, 36.503645256 ], [ 137.844578009, 36.503654701 ], [ 137.844577498, 36.503662358 ], [ 137.84458449600001, 36.503693038 ], [ 137.844684237, 36.503978284 ], [ 137.844687271, 36.50402904 ], [ 137.844671801, 36.504049954 ], [ 137.84465753, 36.504061051 ], [ 137.844589326, 36.50410042 ], [ 137.844555915, 36.50411763 ], [ 137.84452166599999, 36.504141505 ], [ 137.84449859, 36.504177427 ], [ 137.844500256, 36.504205014 ], [ 137.844522711, 36.504282553 ], [ 137.844645687, 36.504566034 ], [ 137.844740604, 36.504813248 ], [ 137.844741548, 36.504835036 ], [ 137.844302223999989, 36.504840463 ], [ 137.84406823399999, 36.50484116 ] ] ] } },
{ "type": "Feature", "properties": { "A29_001": "20212", "A29_002": "長野県", "A29_003": "大町市", "A29_004": 1, "A29_005": "第一種低層住居専用地域", "A29_006": 50, "A29_007": 80, "A29_008": null }, "geometry": { "type": "Polygon", "coordinates": [ [ [ 137.866618108000011, 36.49413128 ], [ 137.866618528, 36.494059148 ], [ 137.866599873000013, 36.493679613 ], [ 137.866603622000014, 36.493664672 ], [ 137.866615408, 36.493651072 ], [ 137.86662995099999, 36.493644327 ], [ 137.866654969, 36.493638277 ], [ 137.866693223999988, 36.493636534 ], [ 137.866801321999986, 36.493643939 ], [ 137.86690413299999, 36.49364954 ], [ 137.866928252, 36.493649668 ], [ 137.866935074999986, 36.493647938 ], [ 137.866940942000014, 36.493645707 ], [ 137.866948877, 36.493638981 ], [ 137.866955816, 36.493629771 ], [ 137.866958407999988, 36.493622602 ], [ 137.866960538, 36.493611934 ], [ 137.866959853, 36.493601458 ], [ 137.86695199499999, 36.493550686 ], [ 137.866945549, 36.493521109 ], [ 137.866941602999987, 36.493490293 ], [ 137.866933788000011, 36.493452076 ], [ 137.866929586999987, 36.493412877 ], [ 137.866914852, 36.493322423 ], [ 137.866894086, 36.493169383 ], [ 137.866882978, 36.493066746 ], [ 137.866870662, 36.492967032 ], [ 137.866849038, 36.492769926 ], [ 137.86684385800001, 36.492730236 ], [ 137.866839391000013, 36.492704536 ], [ 137.866834995, 36.492668634 ], [ 137.866832534, 36.492644595 ], [ 137.866829252, 36.492624011 ], [ 137.866825060999986, 36.492587615 ], [ 137.866822288, 36.492552543 ], [ 137.866819091999986, 36.492495424 ], [ 137.86681835499999, 36.492461191 ], [ 137.866816625000013, 36.492448844 ], [ 137.866813868, 36.492436483 ], [ 137.866890549, 36.49236644 ], [ 137.866891423999988, 36.49225891 ], [ 137.8668873, 36.492060545 ], [ 137.866894701, 36.492015163 ], [ 137.86692083599999, 36.491752322 ], [ 137.866936646999989, 36.491496276 ], [ 137.866930739, 36.491481645 ], [ 137.86694618199999, 36.491307997 ], [ 137.866928887, 36.491090483 ], [ 137.866930797, 36.490931147 ], [ 137.866954255, 36.490580323 ], [ 137.866953032999987, 36.490541095 ], [ 137.866945523, 36.490481988 ], [ 137.86686092299999, 36.490281286 ], [ 137.866729396000011, 36.490016708 ], [ 137.86661227, 36.490086571 ], [ 137.866389360999989, 36.490190128 ], [ 137.86626970399999, 36.490177362 ], [ 137.86612446, 36.490157016 ], [ 137.866014224999986, 36.490135774 ], [ 137.865935451000013, 36.490112104 ], [ 137.865858457, 36.490083828 ], [ 137.865761862, 36.490036406 ], [ 137.86565613499999, 36.489962033 ], [ 137.865550517, 36.489870123 ], [ 137.865525335, 36.489821052 ], [ 137.865507361999988, 36.489718856 ], [ 137.865358385, 36.489942857 ], [ 137.865175384, 36.490223347 ], [ 137.864890022, 36.490622768 ], [ 137.864846449999987, 36.490670463 ], [ 137.864432529, 36.491198047 ], [ 137.86437287699999, 36.491256003 ], [ 137.864313200999987, 36.491378505 ], [ 137.864277265, 36.491608938 ], [ 137.864284623, 36.49166735 ], [ 137.864294808000011, 36.491797866 ], [ 137.86429296899999, 36.492319615 ], [ 137.86431036499999, 36.492523818 ], [ 137.864365115, 36.492877528 ], [ 137.86440455799999, 36.493237419 ], [ 137.864287918, 36.493639062 ], [ 137.86420182399999, 36.493797931 ], [ 137.864188331, 36.493986316 ], [ 137.864339056, 36.494011506 ], [ 137.864487352, 36.494036161 ], [ 137.864593171, 36.494060265 ], [ 137.86465519399999, 36.494033405 ], [ 137.864881056, 36.493879992 ], [ 137.864955849000012, 36.493858482 ], [ 137.865114361, 36.493829495 ], [ 137.86514936399999, 36.493828194 ], [ 137.865188042999989, 36.493834636 ], [ 137.865223785000012, 36.493849453 ], [ 137.865269966999989, 36.493880242 ], [ 137.865356698, 36.49400172 ], [ 137.865421937, 36.494111468 ], [ 137.865438015, 36.494127307 ], [ 137.86547668099999, 36.494136804 ], [ 137.86561639300001, 36.494149281 ], [ 137.865776855, 36.494160408 ], [ 137.865931757999988, 36.494166116 ], [ 137.866089858, 36.49418226 ], [ 137.866193606, 36.494194797 ], [ 137.866277682, 36.494192919 ], [ 137.866342436, 36.494186936 ], [ 137.866438549, 36.494173459 ], [ 137.866505674, 36.494158747 ], [ 137.866618108000011, 36.49413128 ] ] ] } },
{ "type": "Feature", "properties": { "A29_001": "20212", "A29_002": "長野県", "A29_003": "大町市", "A29_004": 2, "A29_005": "第二種低層住居専用地域", "A29_006": 60, "A29_007": 200, "A29_008": null }, "geometry": { "type": "Polygon", "coordinates": [ [ [ 137.840199372, 36.518522107 ], [ 137.84040983, 36.518664105 ], [ 137.84044095499999, 36.518667252 ], [ 137.840532591, 36.518557701 ], [ 137.840756175, 36.518710739 ], [ 137.84082090699999, 36.51872977 ], [ 137.84083551, 36.518722028 ], [ 137.841268552, 36.518229656 ], [ 137.841565252, 36.517950806 ], [ 137.842075458000011, 36.517477016 ], [ 137.842693733, 36.51698904 ], [ 137.84329599899999, 36.516518492 ], [ 137.84352443, 36.516320705 ], [ 137.844316781, 36.515548016 ], [ 137.84455577899999, 36.515411252 ], [ 137.845156924, 36.515145438 ], [ 137.845483855999987, 36.514977856 ], [ 137.845885949, 36.514701312 ], [ 137.84649477100001, 36.514230026 ], [ 137.847128336999987, 36.513806656 ], [ 137.84746026, 36.513621927 ], [ 137.84763261399999, 36.512709062 ], [ 137.84738350399999, 36.512797804 ], [ 137.847276795, 36.512909432 ], [ 137.847104562, 36.51308741 ], [ 137.846758408999989, 36.513366256 ], [ 137.846526433, 36.513528198 ], [ 137.846227410000012, 36.513726335 ], [ 137.845383493000014, 36.514376953 ], [ 137.845095095, 36.51455749 ], [ 137.844807417, 36.514702774 ], [ 137.844410963, 36.514886024 ], [ 137.844211494, 36.514973302 ], [ 137.844004445, 36.515077625 ], [ 137.843750456, 36.515265512 ], [ 137.843311441, 36.515704824 ], [ 137.842756345999987, 36.516219963 ], [ 137.842442038, 36.516476378 ], [ 137.84191940299999, 36.516843315 ], [ 137.841689514, 36.517042515 ], [ 137.840721148, 36.517958571 ], [ 137.840407131, 36.518287054 ], [ 137.84020520199999, 36.518515371 ], [ 137.840199372, 36.518522107 ] ] ] } },
{ "type": "Feature", "properties": { "A29_001": "20212", "A29_002": "長野県", "A29_003": "大町市", "A29_004": 3, "A29_005": "第一種中高層住居専用地域", "A29_006": 60, "A29_007": 200, "A29_008": null }, "geometry": { "type": "Polygon", "coordinates": [ [ [ 137.85194997799999, 36.513285623 ], [ 137.848354660000012, 36.512832592 ], [ 137.847866540000012, 36.515428513 ], [ 137.847472676, 36.517500046 ], [ 137.847345448999988, 36.518176171 ], [ 137.847302512999988, 36.518718429 ], [ 137.84731884499999, 36.519059489 ], [ 137.847366298, 36.519504071 ], [ 137.847434326000013, 36.519777361 ], [ 137.847502354, 36.520050652 ], [ 137.847628391, 36.520388805 ], [ 137.84779572299999, 36.520774652 ], [ 137.849658376, 36.520043176 ], [ 137.84985773, 36.519961169 ], [ 137.84985735399999, 36.519761708 ], [ 137.849906010000012, 36.519552329 ], [ 137.85139243, 36.515036056 ], [ 137.85194997799999, 36.513285623 ] ] ] } },
{ "type": "Feature", "properties": { "A29_001": "20212", "A29_002": "長野県", "A29_003": "大町市", "A29_004": 3, "A29_005": "第一種中高層住居専用地域", "A29_006": 60, "A29_007": 200, "A29_008": null }, "geometry": { "type": "Polygon", "coordinates": [ [ [ 137.852046354, 36.512962146 ], [ 137.85273267299999, 36.510759622 ], [ 137.849539443999987, 36.510493054 ], [ 137.849355839, 36.510569063 ], [ 137.848695678000013, 36.510941273 ], [ 137.84847227899999, 36.512285666 ], [ 137.84963484, 36.512438495 ], [ 137.849597883, 36.512645828 ], [ 137.851098989, 36.512834366 ], [ 137.852046354, 36.512962146 ] ] ] } },
{ "type": "Feature", "properties": { "A29_001": "20212", "A29_002": "長野県", "A29_003": "大町市", "A29_004": 3, "A29_005": "第一種中高層住居専用地域", "A29_006": 60, "A29_007": 200, "A29_008": null }, "geometry": { "type": "Polygon", "coordinates": [ [ [ 137.852904435, 36.510235977 ], [ 137.853121977, 36.509508343 ], [ 137.853464155000012, 36.508405193 ], [ 137.84927214699999, 36.507713589 ], [ 137.849098645, 36.508657995 ], [ 137.848814976999989, 36.510240967 ], [ 137.84935945, 36.510010295 ], [ 137.849496327, 36.509960266 ], [ 137.852904435, 36.510235977 ] ] ] } },
{ "type": "Feature", "properties": { "A29_001": "20212", "A29_002": "長野県", "A29_003": "大町市", "A29_004": 3, "A29_005": "第一種中高層住居専用地域", "A29_006": 60, "A29_007": 200, "A29_008": null }, "geometry": { "type": "Polygon", "coordinates": [ [ [ 137.85422305099999, 36.502671253 ], [ 137.85340917, 36.502481813 ], [ 137.852751489000013, 36.502316232 ], [ 137.852675565, 36.502532881 ], [ 137.851943388, 36.502333096 ], [ 137.85096448499999, 36.502015984 ], [ 137.850326612, 36.501809456 ], [ 137.849391924, 36.507043007 ], [ 137.851574878, 36.507400811 ], [ 137.853671999, 36.507744502 ], [ 137.853824577000012, 36.507273194 ], [ 137.854113493, 36.506226026 ], [ 137.85455998899999, 36.504520866 ], [ 137.854659692000013, 36.504042492 ], [ 137.854898491, 36.503221692 ], [ 137.854995226999989, 36.502840932 ], [ 137.85422305099999, 36.502671253 ] ] ] } },
{ "type": "Feature", "properties": { "A29_001": "20212", "A29_002": "長野県", "A29_003": "大町市", "A29_004": 3, "A29_005": "第一種中高層住居専用地域", "A29_006": 60, "A29_007": 200, "A29_008": null }, "geometry": { "type": "Polygon", "coordinates": [ [ [ 137.87040309599999, 36.497334155 ], [ 137.870461503, 36.497321008 ], [ 137.87063215399999, 36.497331993 ], [ 137.87070508, 36.497309685 ], [ 137.87074312499999, 36.497300873 ], [ 137.870576061, 36.497250802 ], [ 137.870332206, 36.497222163 ], [ 137.870155246, 36.497262496 ], [ 137.870061612, 36.497261659 ], [ 137.869986992, 36.49724918 ], [ 137.86971373599999, 36.497086831 ], [ 137.869640922, 36.497063582 ], [ 137.869600792, 36.496997679 ], [ 137.86940237799999, 36.49690165 ], [ 137.869226827, 36.496826181 ], [ 137.86915657599999, 36.496781514 ], [ 137.869010334, 36.496670565 ], [ 137.86894909899999, 36.496653911 ], [ 137.868873760000014, 36.496709614 ], [ 137.86886652699999, 36.496745364 ], [ 137.868847023, 36.496781607 ], [ 137.868808322, 36.496825851 ], [ 137.868766738, 36.496859346 ], [ 137.868670900000012, 36.496916932 ], [ 137.868567586000012, 36.496974307 ], [ 137.86846620899999, 36.497014209 ], [ 137.868398148000011, 36.49703126 ], [ 137.868299040000011, 36.497047561 ], [ 137.86803293299999, 36.496975712 ], [ 137.867957131, 36.496954961 ], [ 137.86778646499999, 36.496873144 ], [ 137.867610522, 36.49675953 ], [ 137.86743513499999, 36.496654355 ], [ 137.867380829000012, 36.496636692 ], [ 137.867259143000013, 36.496583919 ], [ 137.867214335999989, 36.496571776 ], [ 137.867200864000012, 36.496567604 ], [ 137.867187042000012, 36.496566557 ], [ 137.867160606, 36.496564317 ], [ 137.867111899, 36.496566483 ], [ 137.86708089699999, 36.496571095 ], [ 137.86704506800001, 36.4965777 ], [ 137.866941196, 36.496599238 ], [ 137.866887522000013, 36.496631542 ], [ 137.866874341999988, 36.496620225 ], [ 137.86679466699999, 36.496569225 ], [ 137.866741014000013, 36.496541308 ], [ 137.86676699, 36.496480874 ], [ 137.86677829300001, 36.496433304 ], [ 137.866793677, 36.496332836 ], [ 137.866802572000012, 36.49622469 ], [ 137.866805954, 36.496167075 ], [ 137.866804489, 36.496078278 ], [ 137.866794602999988, 36.49587607 ], [ 137.86678565599999, 36.495871336 ], [ 137.866780331, 36.495749336 ], [ 137.866776256, 36.495296671 ], [ 137.8666551, 36.495140656 ], [ 137.866647884, 36.495120764 ], [ 137.866652679999987, 36.495022501 ], [ 137.866638407000011, 36.494924633 ], [ 137.866627697000013, 36.49476623 ], [ 137.86662949, 36.494698232 ], [ 137.866631637000012, 36.494471386 ], [ 137.866633717000013, 36.494215754 ], [ 137.8666336, 36.494154695 ], [ 137.866618108000011, 36.49413128 ], [ 137.866505674, 36.494158747 ], [ 137.866438549, 36.494173459 ], [ 137.866342436, 36.494186936 ], [ 137.866277682, 36.494192919 ], [ 137.866193606, 36.494194797 ], [ 137.866089858, 36.49418226 ], [ 137.865931757999988, 36.494166116 ], [ 137.865776855, 36.494160408 ], [ 137.86561639300001, 36.494149281 ], [ 137.86547668099999, 36.494136804 ], [ 137.865438015, 36.494127307 ], [ 137.865421937, 36.494111468 ], [ 137.865356698, 36.49400172 ], [ 137.865269966999989, 36.493880242 ], [ 137.865223785000012, 36.493849453 ], [ 137.865188042999989, 36.493834636 ], [ 137.86514936399999, 36.493828194 ], [ 137.865114361, 36.493829495 ], [ 137.864955849000012, 36.493858482 ], [ 137.864881056, 36.493879992 ], [ 137.86465519399999, 36.494033405 ], [ 137.864593171, 36.494060265 ], [ 137.864487352, 36.494036161 ], [ 137.864339056, 36.494011506 ], [ 137.864188331, 36.493986316 ], [ 137.864192142, 36.495333505 ], [ 137.864155775, 36.49603672 ], [ 137.863940109, 36.496692459 ], [ 137.864155081, 36.497053439 ], [ 137.864270443, 36.497319853 ], [ 137.864325443000013, 36.497575095 ], [ 137.864342282, 36.49814141 ], [ 137.864353201, 36.498251859 ], [ 137.864955482999989, 36.49913847 ], [ 137.865250255, 36.500011456 ], [ 137.86549919399999, 36.500559385 ], [ 137.865716547, 36.500681036 ], [ 137.866062031000013, 36.50086274 ], [ 137.866132572999987, 36.501187089 ], [ 137.866257267, 36.501625244 ], [ 137.86627253, 36.50167428 ], [ 137.866370202000013, 36.501754206 ], [ 137.866408476, 36.501791766 ], [ 137.866404999, 36.50184318 ], [ 137.866368303, 36.501870959 ], [ 137.866281412, 36.501887234 ], [ 137.86619452, 36.501903508 ], [ 137.866164919999989, 36.501937309 ], [ 137.866112410999989, 36.50205629 ], [ 137.866064504, 36.502181721 ], [ 137.865981546, 36.502303063 ], [ 137.86598003, 36.502405552 ], [ 137.865795244999987, 36.502566088 ], [ 137.86570830299999, 36.502687102 ], [ 137.865654718, 36.502772263 ], [ 137.865564003, 36.502950656 ], [ 137.865521634, 36.503170331 ], [ 137.865379964, 36.503386341 ], [ 137.865323356, 36.503555985 ], [ 137.86520469300001, 36.503659707 ], [ 137.865074295999989, 36.503848352 ], [ 137.865051402, 36.503946617 ], [ 137.864894926, 36.50417238 ], [ 137.864785414000011, 36.504508713 ], [ 137.864800097, 36.504728592 ], [ 137.865081188, 36.504805665 ], [ 137.86541176, 36.504919177 ], [ 137.866225347000011, 36.505248873 ], [ 137.866660704999987, 36.505421211 ], [ 137.866808144, 36.505477104 ], [ 137.866891543, 36.505503664 ], [ 137.866990721, 36.505529668 ], [ 137.867179013999987, 36.505558723 ], [ 137.867585424999987, 36.50560657 ], [ 137.868048971, 36.505677827 ], [ 137.86831488499999, 36.505717934 ], [ 137.86866913899999, 36.505808689 ], [ 137.868862107000012, 36.505871336 ], [ 137.868928428, 36.50558378 ], [ 137.868942369, 36.505538676 ], [ 137.868941145, 36.505485812 ], [ 137.868915820000012, 36.505417743 ], [ 137.868894157999989, 36.505367403 ], [ 137.86888888499999, 36.50530456 ], [ 137.86888361199999, 36.505241707 ], [ 137.86887104199999, 36.505193533 ], [ 137.86884364299999, 36.505141775 ], [ 137.868819914, 36.50510952 ], [ 137.868766496, 36.505060012 ], [ 137.868727760000013, 36.504985537 ], [ 137.868739693, 36.504887988 ], [ 137.86874008, 36.504805807 ], [ 137.868749729, 36.504722792 ], [ 137.868742184000013, 36.504641461 ], [ 137.868762715, 36.504509188 ], [ 137.868761696, 36.504367789 ], [ 137.868755252, 36.504227713 ], [ 137.86875678199999, 36.504058434 ], [ 137.868801018999989, 36.503903296 ], [ 137.869054065, 36.503479615 ], [ 137.869293679, 36.503130349 ], [ 137.869427042000012, 36.50303857 ], [ 137.86970656599999, 36.502968553 ], [ 137.869854409, 36.502880472 ], [ 137.869877319000011, 36.50286356 ], [ 137.869908478000013, 36.502806767 ], [ 137.86991308, 36.502638171 ], [ 137.86990954699999, 36.502536854 ], [ 137.86987859199999, 36.502375461 ], [ 137.86990431800001, 36.501874171 ], [ 137.869898705999987, 36.501711091 ], [ 137.869812626, 36.501395656 ], [ 137.869639643, 36.500979744 ], [ 137.869491821, 36.500734738 ], [ 137.869305270000012, 36.500486545 ], [ 137.869087522, 36.500254561 ], [ 137.868829190000014, 36.500020885 ], [ 137.86875236899999, 36.499896874 ], [ 137.86874357, 36.499851784 ], [ 137.868750917999989, 36.499799191 ], [ 137.868777219, 36.499749493 ], [ 137.868996815, 36.499622409 ], [ 137.869000529, 36.499536091 ], [ 137.868802192, 36.499450597 ], [ 137.868763849, 36.499429756 ], [ 137.868733797, 36.499350288 ], [ 137.868838097, 36.499125082 ], [ 137.86905630199999, 36.499017909 ], [ 137.869153399999988, 36.499006166 ], [ 137.869257387, 36.498984635 ], [ 137.869341735, 36.498948311 ], [ 137.869417614000014, 36.498924109 ], [ 137.86947529, 36.49891459 ], [ 137.869545140000014, 36.498890446 ], [ 137.869710207, 36.498714677 ], [ 137.869905735, 36.498515592 ], [ 137.870068205, 36.498271568 ], [ 137.870159414999989, 36.498114262 ], [ 137.870204844999989, 36.497988942 ], [ 137.87023859300001, 36.497764904 ], [ 137.870250997, 36.497604649 ], [ 137.87027153599999, 36.497467987 ], [ 137.870340362, 36.497367448 ], [ 137.87040309599999, 36.497334155 ] ] ] } },
{ "type": "Feature", "properties": { "A29_001": "20212", "A29_002": "長野県", "A29_003": "大町市", "A29_004": 3, "A29_005": "第一種中高層住居専用地域", "A29_006": 60, "A29_007": 200, "A29_008": null }, "geometry": { "type": "Polygon", "coordinates": [ [ [ 137.85756000399999, 36.499487013 ], [ 137.857900698, 36.499251797 ], [ 137.85735495899999, 36.499274562 ], [ 137.852661127, 36.49953864 ], [ 137.851295548, 36.499624896 ], [ 137.85058872499999, 36.499679891 ], [ 137.850534119, 36.499749259 ], [ 137.85048425, 36.49983938 ], [ 137.850438451, 36.499976929 ], [ 137.85020327, 36.501161134 ], [ 137.850434701000012, 36.501209069 ], [ 137.851879860999986, 36.501669148 ], [ 137.852205454, 36.501774838 ], [ 137.852710038, 36.501913752 ], [ 137.853503504, 36.502123599 ], [ 137.854463986000013, 36.502345411 ], [ 137.8551182, 36.502481168 ], [ 137.855208419, 36.502258935 ], [ 137.85540847499999, 36.501862349 ], [ 137.855553621000013, 36.501604219 ], [ 137.855967913, 36.501000992 ], [ 137.856449594999987, 36.500428058 ], [ 137.85672404499999, 36.50016181 ], [ 137.857148432, 36.499795495 ], [ 137.857542056, 36.499500466 ], [ 137.85756000399999, 36.499487013 ] ] ] } },
{ "type": "Feature", "properties": { "A29_001": "20212", "A29_002": "長野県", "A29_003": "大町市", "A29_004": 3, "A29_005": "第一種中高層住居専用地域", "A29_006": 60, "A29_007": 200, "A29_008": null }, "geometry": { "type": "Polygon", "coordinates": [ [ [ 137.847412176, 36.530931327 ], [ 137.848616733999989, 36.528621675 ], [ 137.84900761899999, 36.527898468 ], [ 137.849398494000013, 36.527175267 ], [ 137.849597617, 36.526789403 ], [ 137.850219352000011, 36.525584537 ], [ 137.852383217000011, 36.521390897 ], [ 137.850360779, 36.520604952 ], [ 137.850290425999987, 36.520564618 ], [ 137.85025776, 36.52054528 ], [ 137.850225095000013, 36.520525933 ], [ 137.850188605, 36.520497949 ], [ 137.84931405399999, 36.520839714 ], [ 137.849112698, 36.5209193 ], [ 137.84797287399999, 36.521363815 ], [ 137.84723415900001, 36.521653872 ], [ 137.845685153, 36.522265563 ], [ 137.845268204, 36.522419917 ], [ 137.844895415, 36.52253576 ], [ 137.84460401699999, 36.522610069 ], [ 137.844403105999987, 36.522653981 ], [ 137.844351324, 36.522728859 ], [ 137.844240092, 36.522845046 ], [ 137.844138069, 36.522982751 ], [ 137.844111021, 36.523037541 ], [ 137.844101768, 36.523067573 ], [ 137.84409629000001, 36.523113371 ], [ 137.844103101, 36.523206955 ], [ 137.844109908, 36.52330054 ], [ 137.844126413, 36.523577118 ], [ 137.844127071, 36.523635575 ], [ 137.844039607000013, 36.523899063 ], [ 137.844026946000014, 36.52394519 ], [ 137.843926446000012, 36.524508407 ], [ 137.843883465, 36.524690101 ], [ 137.84383786699999, 36.524835038 ], [ 137.84375272599999, 36.52500829 ], [ 137.843587617, 36.525409616 ], [ 137.84353272199999, 36.525509016 ], [ 137.843502429000011, 36.525604091 ], [ 137.84334308699999, 36.525779836 ], [ 137.843310314, 36.5258194 ], [ 137.843276422, 36.525858047 ], [ 137.843218123000014, 36.525934609 ], [ 137.843208132, 36.525951425 ], [ 137.843201762, 36.525977201 ], [ 137.843195189999989, 36.526026813 ], [ 137.843198296999986, 36.526095333 ], [ 137.843185909, 36.526217452 ], [ 137.84319607099999, 36.526287534 ], [ 137.84318983599999, 36.526340843 ], [ 137.843200755, 36.526515614 ], [ 137.843186691999989, 36.526664248 ], [ 137.84315598500001, 36.527047622 ], [ 137.84315053, 36.527082587 ], [ 137.84312180500001, 36.52730659 ], [ 137.843157832, 36.527438457 ], [ 137.843183391, 36.527566788 ], [ 137.84320297, 36.527918103 ], [ 137.843208685, 36.528057221 ], [ 137.843225053999987, 36.528101029 ], [ 137.843130961000014, 36.528193878 ], [ 137.84309405499999, 36.52822292 ], [ 137.843064293999987, 36.528253542 ], [ 137.842994363, 36.528384951 ], [ 137.84290946199999, 36.528597786 ], [ 137.842809141, 36.528808994 ], [ 137.842766896, 36.528880471 ], [ 137.842444107, 36.529761432 ], [ 137.843217944, 36.529689957 ], [ 137.844697023, 36.529575382 ], [ 137.84461444199999, 36.530317681 ], [ 137.844575426, 36.530495035 ], [ 137.844736977, 36.530458198 ], [ 137.844802175000012, 36.530448399 ], [ 137.845038426, 36.530440414 ], [ 137.845280556, 36.530437057 ], [ 137.845503079999986, 36.530398859 ], [ 137.845676141000013, 36.53038492 ], [ 137.84581022899999, 36.530393596 ], [ 137.84605207300001, 36.530469381 ], [ 137.84646303, 36.530634458 ], [ 137.84667459799999, 36.530798432 ], [ 137.846973574, 36.530884911 ], [ 137.847412176, 36.530931327 ] ] ] } },
{ "type": "Feature", "properties": { "A29_001": "20212", "A29_002": "長野県", "A29_003": "大町市", "A29_004": 4, "A29_005": "第二種中高層住居専用地域", "A29_006": 60, "A29_007": 200, "A29_008": null }, "geometry": { "type": "Polygon", "coordinates": [ [ [ 137.852758524, 36.513384453 ], [ 137.852404725000014, 36.514462103 ], [ 137.85203427499999, 36.51563558 ], [ 137.85069630699999, 36.519727336 ], [ 137.85068125, 36.519780219 ], [ 137.850672876, 36.519828362 ], [ 137.85067155199999, 36.519877318 ], [ 137.850675158, 36.519918785 ], [ 137.850685605, 36.519948781 ], [ 137.850700598, 36.519970402 ], [ 137.85073714399999, 36.520006406 ], [ 137.85076683299999, 36.520033226 ], [ 137.850790327999988, 36.520046305 ], [ 137.852695696000012, 36.520783716 ], [ 137.85395759, 36.51839142 ], [ 137.855670994, 36.515137859 ], [ 137.856339021, 36.513811335 ], [ 137.854128549, 36.513537688 ], [ 137.852758524, 36.513384453 ] ] ] } },
{ "type": "Feature", "properties": { "A29_001": "20212", "A29_002": "長野県", "A29_003": "大町市", "A29_004": 4, "A29_005": "第二種中高層住居専用地域", "A29_006": 60, "A29_007": 200, "A29_008": null }, "geometry": { "type": "Polygon", "coordinates": [ [ [ 137.855806591, 36.510787312 ], [ 137.85361276099999, 36.51058916 ], [ 137.852924922, 36.512840708 ], [ 137.854231897, 36.512985174 ], [ 137.855683183999986, 36.513166869 ], [ 137.85578417100001, 36.512577119 ], [ 137.856696679, 36.512488226 ], [ 137.856659795000013, 36.512093497 ], [ 137.856691504999986, 36.511789287 ], [ 137.856828341000011, 36.511129533 ], [ 137.855781756, 36.51102932 ], [ 137.855806591, 36.510787312 ] ] ] } },
{ "type": "Feature", "properties": { "A29_001": "20212", "A29_002": "長野県", "A29_003": "大町市", "A29_004": 4, "A29_005": "第二種中高層住居専用地域", "A29_006": 60, "A29_007": 200, "A29_008": null }, "geometry": { "type": "Polygon", "coordinates": [ [ [ 137.856357816000013, 36.508875782 ], [ 137.85425081299999, 36.508536618 ], [ 137.853703774, 36.510310597 ], [ 137.856610799, 36.510558901 ], [ 137.85716692299999, 36.50986151 ], [ 137.857197251, 36.509229579 ], [ 137.856290333, 36.509121119 ], [ 137.856357816000013, 36.508875782 ] ] ] } },
{ "type": "Feature", "properties": { "A29_001": "20212", "A29_002": "長野県", "A29_003": "大町市", "A29_004": 5, "A29_005": "第一種住居地域", "A29_006": 60, "A29_007": 200, "A29_008": null }, "geometry": { "type": "Polygon", "coordinates": [ [ [ 137.860699251, 36.517376734 ], [ 137.860387480000014, 36.517223864 ], [ 137.86002898699999, 36.517005484 ], [ 137.859826355, 36.516933065 ], [ 137.85976654800001, 36.516890341 ], [ 137.859444037, 36.516745972 ], [ 137.859379421999989, 36.516705539 ], [ 137.859228755, 36.516565174 ], [ 137.859128911, 36.51644254 ], [ 137.858898543, 36.516088796 ], [ 137.858321112999988, 36.516969695 ], [ 137.858266613000012, 36.516834696 ], [ 137.858136261, 36.516902235 ], [ 137.858011382, 36.517058818 ], [ 137.85796770499999, 36.517081736 ], [ 137.857886154999989, 36.517088497 ], [ 137.857784704000011, 36.517094323 ], [ 137.85720877599999, 36.516859939 ], [ 137.85596830899999, 36.518182927 ], [ 137.855492551999987, 36.518661675 ], [ 137.855366476, 36.518801468 ], [ 137.854305802, 36.520351816 ], [ 137.854235187, 36.520494773 ], [ 137.854210308, 36.520564898 ], [ 137.853956657999987, 36.520594437 ], [ 137.85381778499999, 36.520596496 ], [ 137.853602693, 36.520581281 ], [ 137.84944932799999, 36.528626039 ], [ 137.84836082699999, 36.530631089 ], [ 137.848437561, 36.530627831 ], [ 137.848546306, 36.530630498 ], [ 137.848577312, 36.530635084 ], [ 137.848619660999987, 36.530645382 ], [ 137.84877001699999, 36.530679755 ], [ 137.848919258, 36.530714005 ], [ 137.84896560199999, 36.530727236 ], [ 137.84902566400001, 36.530756043 ], [ 137.84906072199999, 36.530770203 ], [ 137.849299298, 36.530819288 ], [ 137.85097623199999, 36.528255591 ], [ 137.851241826, 36.527845527 ], [ 137.854377785999986, 36.523015708 ], [ 137.854478935, 36.52306192 ], [ 137.854765605000011, 36.522598249 ], [ 137.855177262000012, 36.522773169 ], [ 137.855230997, 36.522590808 ], [ 137.85674379400001, 36.522187143 ], [ 137.857033839, 36.522252072 ], [ 137.857321485, 36.522327622 ], [ 137.857699993000011, 36.522437835 ], [ 137.857983203, 36.5223556 ], [ 137.858443114000011, 36.522179866 ], [ 137.858925099, 36.522012189 ], [ 137.85908405699999, 36.52195249 ], [ 137.858977063, 36.521680384 ], [ 137.858842304, 36.521380822 ], [ 137.858846986, 36.521278783 ], [ 137.858864958, 36.521153465 ], [ 137.858953952, 36.520982323 ], [ 137.85907011, 36.520856154 ], [ 137.859196411, 36.520729417 ], [ 137.859319836999987, 36.52063172 ], [ 137.859379329, 36.520544792 ], [ 137.859494017, 36.520404429 ], [ 137.85971163100001, 36.520170305 ], [ 137.859894483, 36.520271566 ], [ 137.860063020000013, 36.520355365 ], [ 137.860086359, 36.520360456 ], [ 137.860108491, 36.520363053 ], [ 137.860126938, 36.520364144 ], [ 137.86014545, 36.52035879 ], [ 137.860165200000012, 36.520350948 ], [ 137.860181912, 36.520339123 ], [ 137.860192528, 36.520320317 ], [ 137.860371629000014, 36.519343375 ], [ 137.860418189, 36.519069111 ], [ 137.860404047, 36.519068539 ], [ 137.860699251, 36.517376734 ] ] ] } },
{ "type": "Feature", "properties": { "A29_001": "20212", "A29_002": "長野県", "A29_003": "大町市", "A29_004": 5, "A29_005": "第一種住居地域", "A29_006": 60, "A29_007": 200, "A29_008": null }, "geometry": { "type": "Polygon", "coordinates": [ [ [ 137.853703774, 36.510310597 ], [ 137.85361276099999, 36.51058916 ], [ 137.855806591, 36.510787312 ], [ 137.855781756, 36.51102932 ], [ 137.856828341000011, 36.511129533 ], [ 137.856866789, 36.510893321 ], [ 137.85701225599999, 36.510912725 ], [ 137.85716692299999, 36.50986151 ], [ 137.856610799, 36.510558901 ], [ 137.853703774, 36.510310597 ] ] ] } },
{ "type": "Feature", "properties": { "A29_001": "20212", "A29_002": "長野県", "A29_003": "大町市", "A29_004": 5, "A29_005": "第一種住居地域", "A29_006": 60, "A29_007": 200, "A29_008": null }, "geometry": { "type": "Polygon", "coordinates": [ [ [ 137.847866540000012, 36.515428513 ], [ 137.848354660000012, 36.512832592 ], [ 137.85194997799999, 36.513285623 ], [ 137.852046354, 36.512962146 ], [ 137.851098989, 36.512834366 ], [ 137.849597883, 36.512645828 ], [ 137.84963484, 36.512438495 ], [ 137.84847227899999, 36.512285666 ], [ 137.848695678000013, 36.510941273 ], [ 137.849355839, 36.510569063 ], [ 137.849539443999987, 36.510493054 ], [ 137.85273267299999, 36.510759622 ], [ 137.852904435, 36.510235977 ], [ 137.849496327, 36.509960266 ], [ 137.84935945, 36.510010295 ], [ 137.848814976999989, 36.510240967 ], [ 137.849098645, 36.508657995 ], [ 137.84927214699999, 36.507713589 ], [ 137.853464155000012, 36.508405193 ], [ 137.853671999, 36.507744502 ], [ 137.851574878, 36.507400811 ], [ 137.849391924, 36.507043007 ], [ 137.850326612, 36.501809456 ], [ 137.85096448499999, 36.502015984 ], [ 137.851943388, 36.502333096 ], [ 137.852675565, 36.502532881 ], [ 137.852751489000013, 36.502316232 ], [ 137.85340917, 36.502481813 ], [ 137.85422305099999, 36.502671253 ], [ 137.854995226999989, 36.502840932 ], [ 137.8551182, 36.502481168 ], [ 137.854463986000013, 36.502345411 ], [ 137.853503504, 36.502123599 ], [ 137.852710038, 36.501913752 ], [ 137.852205454, 36.501774838 ], [ 137.851879860999986, 36.501669148 ], [ 137.850434701000012, 36.501209069 ], [ 137.85020327, 36.501161134 ], [ 137.850438451, 36.499976929 ], [ 137.85048425, 36.49983938 ], [ 137.850534119, 36.499749259 ], [ 137.85058872499999, 36.499679891 ], [ 137.851295548, 36.499624896 ], [ 137.852661127, 36.49953864 ], [ 137.85735495899999, 36.499274562 ], [ 137.857900698, 36.499251797 ], [ 137.858253794, 36.498990665 ], [ 137.858021487, 36.498951662 ], [ 137.853887388, 36.499170791 ], [ 137.853718493, 36.499051789 ], [ 137.853603265, 36.497636407 ], [ 137.85347125199999, 36.49601484 ], [ 137.853599136000014, 36.495911441 ], [ 137.855305565, 36.495816574 ], [ 137.856939376000014, 36.495723472 ], [ 137.855576286, 36.49261477 ], [ 137.856204564, 36.492425992 ], [ 137.85666644299999, 36.492255952 ], [ 137.856160974, 36.491483377 ], [ 137.855833639, 36.491100751 ], [ 137.855531398000011, 36.4908501 ], [ 137.855221664, 36.490601498 ], [ 137.854357389, 36.489940162 ], [ 137.853658239, 36.489421116 ], [ 137.853536407, 36.489530794 ], [ 137.852304264999987, 36.490798054 ], [ 137.851842288, 36.491262427 ], [ 137.849957318, 36.493263824 ], [ 137.850435381000011, 36.494223127 ], [ 137.849214143000012, 36.495978772 ], [ 137.848582821, 36.496899257 ], [ 137.846973091, 36.499246883 ], [ 137.846365838, 36.500127735 ], [ 137.844900306999989, 36.499328952 ], [ 137.844184772, 36.498933474 ], [ 137.843917914, 36.499224176 ], [ 137.846442682, 36.500619641 ], [ 137.847015606000014, 36.500934179 ], [ 137.847364176000013, 36.501107274 ], [ 137.847632374999989, 36.501230948 ], [ 137.848125084, 36.501365166 ], [ 137.848239787000011, 36.501394019 ], [ 137.848947439, 36.50153349 ], [ 137.84960660499999, 36.50165939 ], [ 137.848723584, 36.5066619 ], [ 137.848479841, 36.508031148 ], [ 137.84822104599999, 36.509410307 ], [ 137.847993147000011, 36.510690463 ], [ 137.847346471, 36.510935477 ], [ 137.846731354000013, 36.511150928 ], [ 137.844518558, 36.511787377 ], [ 137.84146513499999, 36.511419506 ], [ 137.84137293, 36.51153284 ], [ 137.841297507, 36.511574619 ], [ 137.841145049, 36.51163635 ], [ 137.84107259000001, 36.511680182 ], [ 137.841013549, 36.511724079 ], [ 137.840714565000013, 36.51170862 ], [ 137.84024188399999, 36.511690704 ], [ 137.839972382000013, 36.511682157 ], [ 137.839923575, 36.511680382 ], [ 137.83981767899999, 36.511696405 ], [ 137.839742261, 36.511719159 ], [ 137.839682348999986, 36.51174325 ], [ 137.83962101, 36.511780312 ], [ 137.839555362, 36.511812068 ], [ 137.83907467200001, 36.5119497 ], [ 137.83904011300001, 36.511968804 ], [ 137.838973702, 36.512138966 ], [ 137.838924014000014, 36.512230318 ], [ 137.838894262, 36.512276116 ], [ 137.838869069, 36.512309682 ], [ 137.838831833, 36.512419047 ], [ 137.83878599799999, 36.512497155 ], [ 137.838738, 36.51259861 ], [ 137.83865281199999, 36.512753915 ], [ 137.838569497, 36.512938466 ], [ 137.838539529, 36.512999078 ], [ 137.83842407099999, 36.513238714 ], [ 137.838360007, 36.513358366 ], [ 137.83829913299999, 36.513457416 ], [ 137.838209216, 36.513585702 ], [ 137.838525701, 36.514141072 ], [ 137.838727471999988, 36.514001473 ], [ 137.838874315, 36.513881315 ], [ 137.838934443999989, 36.513809505 ], [ 137.839079023000011, 36.513695589 ], [ 137.839378138, 36.513604546 ], [ 137.839479798000013, 36.513603757 ], [ 137.840035483, 36.513938294 ], [ 137.84033667700001, 36.514010184 ], [ 137.840627216, 36.514112917 ], [ 137.84085227, 36.514164719 ], [ 137.840931727999987, 36.514204479 ], [ 137.841073711, 36.514233354 ], [ 137.84116756899999, 36.514211405 ], [ 137.841370184999988, 36.514043985 ], [ 137.84193858099999, 36.51382077 ], [ 137.84249351599999, 36.513424956 ], [ 137.843025133999987, 36.513323955 ], [ 137.84319427, 36.51383535 ], [ 137.843688098, 36.513691997 ], [ 137.843932720999987, 36.513643658 ], [ 137.844369949999987, 36.513629209 ], [ 137.84497468399999, 36.513497698 ], [ 137.845311005000013, 36.513519209 ], [ 137.84602445499999, 36.51312232 ], [ 137.846232456, 36.513140313 ], [ 137.846454677, 36.513116251 ], [ 137.846726475, 36.512971668 ], [ 137.847220185, 36.512839538 ], [ 137.84738350399999, 36.512797804 ], [ 137.84763261399999, 36.512709062 ], [ 137.84746026, 36.513621927 ], [ 137.847219153, 36.514930893 ], [ 137.846998086000013, 36.516117995 ], [ 137.846830934, 36.516974715 ], [ 137.846636509, 36.518024507 ], [ 137.846595670999989, 36.51832705 ], [ 137.846583844, 36.51849757 ], [ 137.84657606, 36.518711758 ], [ 137.846577583, 36.518957269 ], [ 137.846618318999987, 36.519437981 ], [ 137.84667062, 36.51975147 ], [ 137.846710159999986, 36.51992931 ], [ 137.846858923000013, 36.520406206 ], [ 137.84713249, 36.521033154 ], [ 137.84779572299999, 36.520774652 ], [ 137.847628391, 36.520388805 ], [ 137.847502354, 36.520050652 ], [ 137.847434326000013, 36.519777361 ], [ 137.847366298, 36.519504071 ], [ 137.84731884499999, 36.519059489 ], [ 137.847302512999988, 36.518718429 ], [ 137.847345448999988, 36.518176171 ], [ 137.847472676, 36.517500046 ], [ 137.847866540000012, 36.515428513 ] ] ] } },
{ "type": "Feature", "properties": { "A29_001": "20212", "A29_002": "長野県", "A29_003": "大町市", "A29_004": 5, "A29_005": "第一種住居地域", "A29_006": 60, "A29_007": 200, "A29_008": null }, "geometry": { "type": "Polygon", "coordinates": [ [ [ 137.869417212, 36.506082618 ], [ 137.86923386399999, 36.505883883 ], [ 137.869135988000011, 36.505788033 ], [ 137.86904858599999, 36.505718122 ], [ 137.868956059999988, 36.505639929 ], [ 137.868928428, 36.50558378 ], [ 137.868862107000012, 36.505871336 ], [ 137.86866913899999, 36.505808689 ], [ 137.86831488499999, 36.505717934 ], [ 137.868048971, 36.505677827 ], [ 137.867585424999987, 36.50560657 ], [ 137.867179013999987, 36.505558723 ], [ 137.866990721, 36.505529668 ], [ 137.866891543, 36.505503664 ], [ 137.866808144, 36.505477104 ], [ 137.866660704999987, 36.505421211 ], [ 137.866225347000011, 36.505248873 ], [ 137.86541176, 36.504919177 ], [ 137.865081188, 36.504805665 ], [ 137.864800097, 36.504728592 ], [ 137.864785414000011, 36.504508713 ], [ 137.864894926, 36.50417238 ], [ 137.865051402, 36.503946617 ], [ 137.865074295999989, 36.503848352 ], [ 137.86520469300001, 36.503659707 ], [ 137.865323356, 36.503555985 ], [ 137.865379964, 36.503386341 ], [ 137.865521634, 36.503170331 ], [ 137.865564003, 36.502950656 ], [ 137.865654718, 36.502772263 ], [ 137.86570830299999, 36.502687102 ], [ 137.865795244999987, 36.502566088 ], [ 137.86598003, 36.502405552 ], [ 137.865981546, 36.502303063 ], [ 137.866064504, 36.502181721 ], [ 137.866112410999989, 36.50205629 ], [ 137.866164919999989, 36.501937309 ], [ 137.86619452, 36.501903508 ], [ 137.866281412, 36.501887234 ], [ 137.866368303, 36.501870959 ], [ 137.866404999, 36.50184318 ], [ 137.866408476, 36.501791766 ], [ 137.866370202000013, 36.501754206 ], [ 137.86627253, 36.50167428 ], [ 137.866257267, 36.501625244 ], [ 137.866132572999987, 36.501187089 ], [ 137.866062031000013, 36.50086274 ], [ 137.865716547, 36.500681036 ], [ 137.86549919399999, 36.500559385 ], [ 137.865250255, 36.500011456 ], [ 137.864955482999989, 36.49913847 ], [ 137.864353201, 36.498251859 ], [ 137.86415534, 36.498426103 ], [ 137.864139689000012, 36.499439957 ], [ 137.864183634999989, 36.500886998 ], [ 137.862528427, 36.501012447 ], [ 137.862530375, 36.501224364 ], [ 137.862578430000013, 36.501502605 ], [ 137.86257695899999, 36.501540431 ], [ 137.86253262299999, 36.501578145 ], [ 137.862661472000013, 36.501798292 ], [ 137.862851982, 36.502128051 ], [ 137.863202496000014, 36.50274813 ], [ 137.86325071499999, 36.502836095 ], [ 137.86333549, 36.502994127 ], [ 137.86345885899999, 36.503241984 ], [ 137.863565778, 36.503586292 ], [ 137.86363913299999, 36.50396693 ], [ 137.863646682, 36.504414458 ], [ 137.863603914, 36.504727155 ], [ 137.863505285, 36.505076594 ], [ 137.863416274, 36.505337827 ], [ 137.863750079999988, 36.505368492 ], [ 137.86423258, 36.505427067 ], [ 137.86444147099999, 36.505435381 ], [ 137.86459076599999, 36.505478462 ], [ 137.86476109, 36.505584849 ], [ 137.865137721999986, 36.505690676 ], [ 137.86525637, 36.505715063 ], [ 137.865381770999988, 36.505857431 ], [ 137.865476378000011, 36.505920867 ], [ 137.865688385999988, 36.506019499 ], [ 137.86575699799999, 36.506183842 ], [ 137.865755758, 36.506335891 ], [ 137.86590639100001, 36.506375454 ], [ 137.866119664, 36.506409383 ], [ 137.86614495399999, 36.506469152 ], [ 137.866225797, 36.50648747 ], [ 137.866281167000011, 36.506469875 ], [ 137.866310918000011, 36.506434255 ], [ 137.866362847, 36.506386828 ], [ 137.866466255, 36.506348616 ], [ 137.86660637, 36.506322521 ], [ 137.86645846799999, 36.505966778 ], [ 137.86664156399999, 36.506026916 ], [ 137.866749981999988, 36.506056078 ], [ 137.866975814999989, 36.506095291 ], [ 137.86708199, 36.506109301 ], [ 137.867478086, 36.506165719 ], [ 137.868142409, 36.506260867 ], [ 137.86837947, 36.506322641 ], [ 137.868562376, 36.506378971 ], [ 137.868811537999989, 36.506457282 ], [ 137.868838817000011, 36.506503362 ], [ 137.868985869, 36.506696994 ], [ 137.86900518499999, 36.506729676 ], [ 137.869160993, 36.506939486 ], [ 137.869202922, 36.506998891 ], [ 137.869231547999988, 36.506979396 ], [ 137.869282371999986, 36.506824293 ], [ 137.869321141, 36.50673789 ], [ 137.86947161, 36.506574751 ], [ 137.869612136, 36.506481316 ], [ 137.869709617000012, 36.506423431 ], [ 137.869689513999987, 36.506392809 ], [ 137.869654698, 36.5063414 ], [ 137.869417212, 36.506082618 ] ] ] } },
{ "type": "Feature", "properties": { "A29_001": "20212", "A29_002": "長野県", "A29_003": "大町市", "A29_004": 6, "A29_005": "第二種住居地域", "A29_006": 60, "A29_007": 200, "A29_008": null }, "geometry": { "type": "Polygon", "coordinates": [ [ [ 137.859019726000014, 36.514817761 ], [ 137.85945484699999, 36.513905884 ], [ 137.860154969, 36.514011183 ], [ 137.860664414000013, 36.512823853 ], [ 137.861985857, 36.509224313 ], [ 137.863416274, 36.505337827 ], [ 137.863505285, 36.505076594 ], [ 137.863603914, 36.504727155 ], [ 137.863646682, 36.504414458 ], [ 137.86363913299999, 36.50396693 ], [ 137.863565778, 36.503586292 ], [ 137.86345885899999, 36.503241984 ], [ 137.86333549, 36.502994127 ], [ 137.86325071499999, 36.502836095 ], [ 137.863202496000014, 36.50274813 ], [ 137.862851982, 36.502128051 ], [ 137.862661472000013, 36.501798292 ], [ 137.862160350000011, 36.503290248 ], [ 137.86197622899999, 36.503838355 ], [ 137.86182947899999, 36.504280461 ], [ 137.8617468, 36.504494566 ], [ 137.861704147000012, 36.504611335 ], [ 137.860766796, 36.504412173 ], [ 137.860033227, 36.504237214 ], [ 137.858049705000013, 36.508937125 ], [ 137.857907399999988, 36.509376681 ], [ 137.85786803900001, 36.510205617 ], [ 137.857622636, 36.511992575 ], [ 137.85752567899999, 36.512496236 ], [ 137.857413818, 36.513005007 ], [ 137.857306504, 36.51358892 ], [ 137.857196937999987, 36.51368578 ], [ 137.856475125, 36.515097328 ], [ 137.856473273, 36.51510095 ], [ 137.85767354, 36.515140522 ], [ 137.857812489, 36.515144361 ], [ 137.858501886, 36.515468214 ], [ 137.85876377400001, 36.515149479 ], [ 137.859019726000014, 36.514817761 ] ] ] } },
{ "type": "Feature", "properties": { "A29_001": "20212", "A29_002": "長野県", "A29_003": "大町市", "A29_004": 6, "A29_005": "第二種住居地域", "A29_006": 60, "A29_007": 200, "A29_008": null }, "geometry": { "type": "Polygon", "coordinates": [ [ [ 137.856560927, 36.513273085 ], [ 137.856675012000011, 36.512875448 ], [ 137.856705282, 36.512771087 ], [ 137.856696679, 36.512488226 ], [ 137.85578417100001, 36.512577119 ], [ 137.855683183999986, 36.513166869 ], [ 137.854231897, 36.512985174 ], [ 137.852924922, 36.512840708 ], [ 137.852758524, 36.513384453 ], [ 137.854128549, 36.513537688 ], [ 137.856339021, 36.513811335 ], [ 137.856509141, 36.513499692 ], [ 137.85651144799999, 36.513495466 ], [ 137.856560927, 36.513273085 ] ] ] } },
{ "type": "Feature", "properties": { "A29_001": "20212", "A29_002": "長野県", "A29_003": "大町市", "A29_004": 6, "A29_005": "第二種住居地域", "A29_006": 60, "A29_007": 200, "A29_008": null }, "geometry": { "type": "Polygon", "coordinates": [ [ [ 137.858068659, 36.503821483 ], [ 137.85827695399999, 36.503252946 ], [ 137.85954607299999, 36.503515166 ], [ 137.860004647000011, 36.502198399 ], [ 137.859781336999987, 36.502155482 ], [ 137.859749233, 36.501656074 ], [ 137.85975607200001, 36.501410868 ], [ 137.859855092, 36.501026232 ], [ 137.85853778399999, 36.50071162 ], [ 137.85845623899999, 36.49987065 ], [ 137.858326217000013, 36.49981904 ], [ 137.85793548800001, 36.50010335 ], [ 137.857544754, 36.500387665 ], [ 137.857132514, 36.500815789 ], [ 137.85672026, 36.501243923 ], [ 137.856472098000012, 36.501585394 ], [ 137.856216684, 36.50199914 ], [ 137.856071856, 36.502271548 ], [ 137.855943493000012, 36.502557428 ], [ 137.855818134, 36.502880815 ], [ 137.85550640400001, 36.503999801 ], [ 137.854794921, 36.506787457 ], [ 137.85455807, 36.507554977 ], [ 137.85425081299999, 36.508536618 ], [ 137.856357816000013, 36.508875782 ], [ 137.856290333, 36.509121119 ], [ 137.857197251, 36.509229579 ], [ 137.857297695, 36.50880091 ], [ 137.857421484000014, 36.508588356 ], [ 137.85749638199999, 36.508450565 ], [ 137.859335359, 36.504085711 ], [ 137.858068659, 36.503821483 ] ] ] } },
{ "type": "Feature", "properties": { "A29_001": "20212", "A29_002": "長野県", "A29_003": "大町市", "A29_004": 6, "A29_005": "第二種住居地域", "A29_006": 60, "A29_007": 200, "A29_008": null }, "geometry": { "type": "Polygon", "coordinates": [ [ [ 137.860290392, 36.498126564 ], [ 137.860477100999987, 36.497995571 ], [ 137.860515364, 36.49804875 ], [ 137.861434847999988, 36.497425915 ], [ 137.861403257, 36.497389426 ], [ 137.86324334299999, 36.49610114 ], [ 137.863239419, 36.496032256 ], [ 137.863675159, 36.495705713 ], [ 137.863741229, 36.495726055 ], [ 137.863785122, 36.495780146 ], [ 137.863768486, 36.496007447 ], [ 137.863713905, 36.496246081 ], [ 137.86367846600001, 36.496382473 ], [ 137.863940109, 36.496692459 ], [ 137.864155775, 36.49603672 ], [ 137.864192142, 36.495333505 ], [ 137.864188331, 36.493986316 ], [ 137.86420182399999, 36.493797931 ], [ 137.864287918, 36.493639062 ], [ 137.86440455799999, 36.493237419 ], [ 137.864365115, 36.492877528 ], [ 137.86431036499999, 36.492523818 ], [ 137.86429296899999, 36.492319615 ], [ 137.864294808000011, 36.491797866 ], [ 137.864284623, 36.49166735 ], [ 137.864277265, 36.491608938 ], [ 137.864313200999987, 36.491378505 ], [ 137.86437287699999, 36.491256003 ], [ 137.864432529, 36.491198047 ], [ 137.864846449999987, 36.490670463 ], [ 137.864890022, 36.490622768 ], [ 137.865175384, 36.490223347 ], [ 137.865358385, 36.489942857 ], [ 137.865507361999988, 36.489718856 ], [ 137.865129838, 36.489670155 ], [ 137.864980381, 36.489668368 ], [ 137.864885805, 36.489639115 ], [ 137.864712838, 36.48963522 ], [ 137.86463049, 36.489729546 ], [ 137.864493893, 36.48973428 ], [ 137.864414482, 36.489742293 ], [ 137.86433376, 36.489759238 ], [ 137.864284604, 36.489752524 ], [ 137.864107053, 36.489688041 ], [ 137.863952360000013, 36.489659107 ], [ 137.863778612, 36.489930911 ], [ 137.863693036, 36.490110106 ], [ 137.86365194199999, 36.490225875 ], [ 137.863591464, 36.490418236 ], [ 137.863590302, 36.490421933 ], [ 137.863578674, 36.490513049 ], [ 137.863567955, 36.490695085 ], [ 137.86357146099999, 36.490820537 ], [ 137.86357641, 36.49085134 ], [ 137.863597629, 36.490949498 ], [ 137.863706973, 36.491451031 ], [ 137.863664496000013, 36.491490197 ], [ 137.863542286000012, 36.491516492 ], [ 137.863546412, 36.49159885 ], [ 137.863503178, 36.491858832 ], [ 137.863196654, 36.492845801 ], [ 137.862784115000011, 36.493047844 ], [ 137.862575881, 36.493196435 ], [ 137.86248953, 36.493357654 ], [ 137.862470091, 36.493474322 ], [ 137.86254931900001, 36.493865186 ], [ 137.862526749000011, 36.493912966 ], [ 137.862456853999987, 36.493870676 ], [ 137.862351120999989, 36.493690469 ], [ 137.862010214, 36.493787448 ], [ 137.861815417, 36.493828322 ], [ 137.861593594, 36.493830137 ], [ 137.86125667499999, 36.493891203 ], [ 137.86107117899999, 36.49397105 ], [ 137.86124826299999, 36.494466035 ], [ 137.860294599000014, 36.494540567 ], [ 137.859633866, 36.494866377 ], [ 137.859333115, 36.495114709 ], [ 137.859086265, 36.495460483 ], [ 137.859080452, 36.495717789 ], [ 137.858932161000013, 36.495913162 ], [ 137.86017729, 36.497946513 ], [ 137.860290392, 36.498126564 ] ] ] } },
{ "type": "Feature", "properties": { "A29_001": "20212", "A29_002": "長野県", "A29_003": "大町市", "A29_004": 7, "A29_005": "準住居地域", "A29_006": 60, "A29_007": 200, "A29_008": null }, "geometry": { "type": "Polygon", "coordinates": [ [ [ 137.84796886699999, 36.530725099 ], [ 137.848006069, 36.530692542 ], [ 137.84815497299999, 36.53069633 ], [ 137.848235256, 36.53066401 ], [ 137.848300797, 36.530626643 ], [ 137.84836082699999, 36.530631089 ], [ 137.84944932799999, 36.528626039 ], [ 137.853602693, 36.520581281 ], [ 137.853459023, 36.520553213 ], [ 137.853339021000011, 36.520520226 ], [ 137.854052453, 36.519141511 ], [ 137.856164396, 36.515141569 ], [ 137.856201562, 36.515064877 ], [ 137.856336293999988, 36.515096579 ], [ 137.856473273, 36.51510095 ], [ 137.856475125, 36.515097328 ], [ 137.857196937999987, 36.51368578 ], [ 137.857306504, 36.51358892 ], [ 137.85651144799999, 36.513495466 ], [ 137.856509141, 36.513499692 ], [ 137.856339021, 36.513811335 ], [ 137.855670994, 36.515137859 ], [ 137.85395759, 36.51839142 ], [ 137.852695696000012, 36.520783716 ], [ 137.850790327999988, 36.520046305 ], [ 137.85076683299999, 36.520033226 ], [ 137.85073714399999, 36.520006406 ], [ 137.850700598, 36.519970402 ], [ 137.850685605, 36.519948781 ], [ 137.850675158, 36.519918785 ], [ 137.85067155199999, 36.519877318 ], [ 137.850672876, 36.519828362 ], [ 137.85068125, 36.519780219 ], [ 137.85069630699999, 36.519727336 ], [ 137.85203427499999, 36.51563558 ], [ 137.852404725000014, 36.514462103 ], [ 137.852758524, 36.513384453 ], [ 137.852924922, 36.512840708 ], [ 137.85361276099999, 36.51058916 ], [ 137.853703774, 36.510310597 ], [ 137.85425081299999, 36.508536618 ], [ 137.85455807, 36.507554977 ], [ 137.854794921, 36.506787457 ], [ 137.85550640400001, 36.503999801 ], [ 137.855818134, 36.502880815 ], [ 137.855943493000012, 36.502557428 ], [ 137.856071856, 36.502271548 ], [ 137.856216684, 36.50199914 ], [ 137.856472098000012, 36.501585394 ], [ 137.85672026, 36.501243923 ], [ 137.857132514, 36.500815789 ], [ 137.857544754, 36.500387665 ], [ 137.85793548800001, 36.50010335 ], [ 137.858326217000013, 36.49981904 ], [ 137.858067097, 36.499698594 ], [ 137.85856717499999, 36.499383078 ], [ 137.858558894999987, 36.49904564 ], [ 137.858485607, 36.499066614 ], [ 137.858408204, 36.499057231 ], [ 137.858253794, 36.498990665 ], [ 137.857900698, 36.499251797 ], [ 137.85756000399999, 36.499487013 ], [ 137.857542056, 36.499500466 ], [ 137.857148432, 36.499795495 ], [ 137.85672404499999, 36.50016181 ], [ 137.856449594999987, 36.500428058 ], [ 137.855967913, 36.501000992 ], [ 137.855553621000013, 36.501604219 ], [ 137.85540847499999, 36.501862349 ], [ 137.855208419, 36.502258935 ], [ 137.8551182, 36.502481168 ], [ 137.854995226999989, 36.502840932 ], [ 137.854898491, 36.503221692 ], [ 137.854659692000013, 36.504042492 ], [ 137.85455998899999, 36.504520866 ], [ 137.854113493, 36.506226026 ], [ 137.853824577000012, 36.507273194 ], [ 137.853671999, 36.507744502 ], [ 137.853464155000012, 36.508405193 ], [ 137.853121977, 36.509508343 ], [ 137.852904435, 36.510235977 ], [ 137.85273267299999, 36.510759622 ], [ 137.852046354, 36.512962146 ], [ 137.85194997799999, 36.513285623 ], [ 137.85139243, 36.515036056 ], [ 137.849906010000012, 36.519552329 ], [ 137.84985735399999, 36.519761708 ], [ 137.84985773, 36.519961169 ], [ 137.849658376, 36.520043176 ], [ 137.84779572299999, 36.520774652 ], [ 137.84713249, 36.521033154 ], [ 137.84514379699999, 36.521817252 ], [ 137.84462331099999, 36.521980633 ], [ 137.844111395, 36.522101963 ], [ 137.844188876, 36.522181274 ], [ 137.844433715, 36.522413892 ], [ 137.844502858999988, 36.522479584 ], [ 137.844403105999987, 36.522653981 ], [ 137.84460401699999, 36.522610069 ], [ 137.844895415, 36.52253576 ], [ 137.845268204, 36.522419917 ], [ 137.845685153, 36.522265563 ], [ 137.84723415900001, 36.521653872 ], [ 137.84797287399999, 36.521363815 ], [ 137.849112698, 36.5209193 ], [ 137.84931405399999, 36.520839714 ], [ 137.850188605, 36.520497949 ], [ 137.850225095000013, 36.520525933 ], [ 137.85025776, 36.52054528 ], [ 137.850290425999987, 36.520564618 ], [ 137.850360779, 36.520604952 ], [ 137.852383217000011, 36.521390897 ], [ 137.850219352000011, 36.525584537 ], [ 137.849597617, 36.526789403 ], [ 137.849398494000013, 36.527175267 ], [ 137.84900761899999, 36.527898468 ], [ 137.848616733999989, 36.528621675 ], [ 137.847412176, 36.530931327 ], [ 137.84750561199999, 36.530931208 ], [ 137.84774625899999, 36.530855875 ], [ 137.847809482, 36.530848551 ], [ 137.84796886699999, 36.530725099 ] ] ] } },
{ "type": "Feature", "properties": { "A29_001": "20212", "A29_002": "長野県", "A29_003": "大町市", "A29_004": 8, "A29_005": "近隣商業地域", "A29_006": 80, "A29_007": 200, "A29_008": null }, "geometry": { "type": "Polygon", "coordinates": [ [ [ 137.857297695, 36.50880091 ], [ 137.857197251, 36.509229579 ], [ 137.85716692299999, 36.50986151 ], [ 137.85701225599999, 36.510912725 ], [ 137.856866789, 36.510893321 ], [ 137.856828341000011, 36.511129533 ], [ 137.856691504999986, 36.511789287 ], [ 137.856659795000013, 36.512093497 ], [ 137.856696679, 36.512488226 ], [ 137.856705282, 36.512771087 ], [ 137.856675012000011, 36.512875448 ], [ 137.856560927, 36.513273085 ], [ 137.85651144799999, 36.513495466 ], [ 137.857306504, 36.51358892 ], [ 137.857413818, 36.513005007 ], [ 137.85752567899999, 36.512496236 ], [ 137.857622636, 36.511992575 ], [ 137.85786803900001, 36.510205617 ], [ 137.857907399999988, 36.509376681 ], [ 137.858049705000013, 36.508937125 ], [ 137.857297695, 36.50880091 ] ] ] } },
{ "type": "Feature", "properties": { "A29_001": "20212", "A29_002": "長野県", "A29_003": "大町市", "A29_004": 9, "A29_005": "商業地域", "A29_006": 80, "A29_007": 400, "A29_008": null }, "geometry": { "type": "Polygon", "coordinates": [ [ [ 137.858049705000013, 36.508937125 ], [ 137.860033227, 36.504237214 ], [ 137.860766796, 36.504412173 ], [ 137.861704147000012, 36.504611335 ], [ 137.8617468, 36.504494566 ], [ 137.86182947899999, 36.504280461 ], [ 137.86197622899999, 36.503838355 ], [ 137.862160350000011, 36.503290248 ], [ 137.862661472000013, 36.501798292 ], [ 137.86253262299999, 36.501578145 ], [ 137.862495421, 36.501607713 ], [ 137.861925340999989, 36.50075915 ], [ 137.86127456599999, 36.499691721 ], [ 137.861101262, 36.499421578 ], [ 137.860880815, 36.499127524 ], [ 137.860697214999988, 36.498822781 ], [ 137.860290392, 36.498126564 ], [ 137.86017729, 36.497946513 ], [ 137.86007597, 36.4980155 ], [ 137.86004427200001, 36.497993484 ], [ 137.85899201699999, 36.498741911 ], [ 137.858558894999987, 36.49904564 ], [ 137.85856717499999, 36.499383078 ], [ 137.858067097, 36.499698594 ], [ 137.858326217000013, 36.49981904 ], [ 137.85845623899999, 36.49987065 ], [ 137.85853778399999, 36.50071162 ], [ 137.859855092, 36.501026232 ], [ 137.85975607200001, 36.501410868 ], [ 137.859749233, 36.501656074 ], [ 137.859781336999987, 36.502155482 ], [ 137.860004647000011, 36.502198399 ], [ 137.85954607299999, 36.503515166 ], [ 137.85827695399999, 36.503252946 ], [ 137.858068659, 36.503821483 ], [ 137.859335359, 36.504085711 ], [ 137.85749638199999, 36.508450565 ], [ 137.857421484000014, 36.508588356 ], [ 137.857297695, 36.50880091 ], [ 137.858049705000013, 36.508937125 ] ] ] } },
{ "type": "Feature", "properties": { "A29_001": "20212", "A29_002": "長野県", "A29_003": "大町市", "A29_004": 10, "A29_005": "準工業地域", "A29_006": 60, "A29_007": 200, "A29_008": null }, "geometry": { "type": "Polygon", "coordinates": [ [ [ 137.844403105999987, 36.522653981 ], [ 137.844502858999988, 36.522479584 ], [ 137.844433715, 36.522413892 ], [ 137.844286051000012, 36.522446336 ], [ 137.844273004, 36.522408575 ], [ 137.844071498, 36.522446418 ], [ 137.843910781, 36.522472264 ], [ 137.84379698399999, 36.522488788 ], [ 137.843639403999987, 36.522508082 ], [ 137.843456753999988, 36.522525047 ], [ 137.842935627, 36.522568906 ], [ 137.842466852, 36.522605382 ], [ 137.841680491, 36.522670015 ], [ 137.839757299000013, 36.522828365 ], [ 137.838112509000013, 36.522958228 ], [ 137.837938057, 36.523138694 ], [ 137.837796934000011, 36.523770291 ], [ 137.837976556, 36.524799648 ], [ 137.83882259, 36.524815264 ], [ 137.839295157, 36.524821857 ], [ 137.83992402199999, 36.524829313 ], [ 137.841358750000012, 36.524872978 ], [ 137.842154873999988, 36.524896234 ], [ 137.842858087, 36.524917982 ], [ 137.842932633, 36.52490747 ], [ 137.843588436, 36.524932926 ], [ 137.843682602, 36.524931462 ], [ 137.84372423100001, 36.524956511 ], [ 137.84375272599999, 36.52500829 ], [ 137.84383786699999, 36.524835038 ], [ 137.843883465, 36.524690101 ], [ 137.843926446000012, 36.524508407 ], [ 137.844026946000014, 36.52394519 ], [ 137.844039607000013, 36.523899063 ], [ 137.844127071, 36.523635575 ], [ 137.844126413, 36.523577118 ], [ 137.844109908, 36.52330054 ], [ 137.844103101, 36.523206955 ], [ 137.84409629000001, 36.523113371 ], [ 137.844101768, 36.523067573 ], [ 137.844111021, 36.523037541 ], [ 137.844138069, 36.522982751 ], [ 137.844240092, 36.522845046 ], [ 137.844351324, 36.522728859 ], [ 137.844403105999987, 36.522653981 ] ] ] } },
{ "type": "Feature", "properties": { "A29_001": "20212", "A29_002": "長野県", "A29_003": "大町市", "A29_004": 10, "A29_005": "準工業地域", "A29_006": 60, "A29_007": 200, "A29_008": null }, "geometry": { "type": "Polygon", "coordinates": [ [ [ 137.849957318, 36.493263824 ], [ 137.848489887999989, 36.494642245 ], [ 137.847663696000012, 36.495452821 ], [ 137.845402815, 36.497666303 ], [ 137.844184772, 36.498933474 ], [ 137.844900306999989, 36.499328952 ], [ 137.846365838, 36.500127735 ], [ 137.846973091, 36.499246883 ], [ 137.848582821, 36.496899257 ], [ 137.849214143000012, 36.495978772 ], [ 137.850435381000011, 36.494223127 ], [ 137.849957318, 36.493263824 ] ] ] } },
{ "type": "Feature", "properties": { "A29_001": "20212", "A29_002": "長野県", "A29_003": "大町市", "A29_004": 10, "A29_005": "準工業地域", "A29_006": 60, "A29_007": 200, "A29_008": null }, "geometry": { "type": "Polygon", "coordinates": [ [ [ 137.864353201, 36.498251859 ], [ 137.864342282, 36.49814141 ], [ 137.864325443000013, 36.497575095 ], [ 137.864270443, 36.497319853 ], [ 137.864155081, 36.497053439 ], [ 137.863940109, 36.496692459 ], [ 137.86367846600001, 36.496382473 ], [ 137.863713905, 36.496246081 ], [ 137.863768486, 36.496007447 ], [ 137.863785122, 36.495780146 ], [ 137.863741229, 36.495726055 ], [ 137.863675159, 36.495705713 ], [ 137.863239419, 36.496032256 ], [ 137.86324334299999, 36.49610114 ], [ 137.861403257, 36.497389426 ], [ 137.861434847999988, 36.497425915 ], [ 137.860515364, 36.49804875 ], [ 137.860477100999987, 36.497995571 ], [ 137.860290392, 36.498126564 ], [ 137.860697214999988, 36.498822781 ], [ 137.860880815, 36.499127524 ], [ 137.861101262, 36.499421578 ], [ 137.86127456599999, 36.499691721 ], [ 137.861925340999989, 36.50075915 ], [ 137.862495421, 36.501607713 ], [ 137.86253262299999, 36.501578145 ], [ 137.86257695899999, 36.501540431 ], [ 137.862578430000013, 36.501502605 ], [ 137.862530375, 36.501224364 ], [ 137.862528427, 36.501012447 ], [ 137.864183634999989, 36.500886998 ], [ 137.864139689000012, 36.499439957 ], [ 137.86415534, 36.498426103 ], [ 137.864353201, 36.498251859 ] ] ] } },
{ "type": "Feature", "properties": { "A29_001": "20212", "A29_002": "長野県", "A29_003": "大町市", "A29_004": 10, "A29_005": "準工業地域", "A29_006": 60, "A29_007": 200, "A29_008": null }, "geometry": { "type": "Polygon", "coordinates": [ [ [ 137.86124826299999, 36.494466035 ], [ 137.86107117899999, 36.49397105 ], [ 137.86125667499999, 36.493891203 ], [ 137.861593594, 36.493830137 ], [ 137.861815417, 36.493828322 ], [ 137.862010214, 36.493787448 ], [ 137.862351120999989, 36.493690469 ], [ 137.862456853999987, 36.493870676 ], [ 137.862526749000011, 36.493912966 ], [ 137.86254931900001, 36.493865186 ], [ 137.862470091, 36.493474322 ], [ 137.86248953, 36.493357654 ], [ 137.862575881, 36.493196435 ], [ 137.862784115000011, 36.493047844 ], [ 137.863196654, 36.492845801 ], [ 137.863503178, 36.491858832 ], [ 137.863546412, 36.49159885 ], [ 137.863542286000012, 36.491516492 ], [ 137.862838848, 36.49162211 ], [ 137.86215702699999, 36.491789196 ], [ 137.861940174000011, 36.492078575 ], [ 137.86172237299999, 36.492211288 ], [ 137.861606902, 36.492312509 ], [ 137.86158034499999, 36.492393235 ], [ 137.861438646000011, 36.49253625 ], [ 137.860790896, 36.492607655 ], [ 137.860386333, 36.492785201 ], [ 137.859936766, 36.492980277 ], [ 137.860025431, 36.493303798 ], [ 137.85989280699999, 36.493408206 ], [ 137.85963712899999, 36.493575806 ], [ 137.859432419, 36.493745688 ], [ 137.859356313, 36.49382484 ], [ 137.85927549499999, 36.493966611 ], [ 137.85920129199999, 36.494069476 ], [ 137.85875513, 36.494288844 ], [ 137.858707036, 36.49427504 ], [ 137.858387986999986, 36.493915852 ], [ 137.858387074, 36.49402668 ], [ 137.858399518, 36.494216294 ], [ 137.858427287000012, 36.494406062 ], [ 137.858431177999989, 36.49452172 ], [ 137.85840346399999, 36.494731458 ], [ 137.858364289, 36.495018082 ], [ 137.858760808, 36.495624894 ], [ 137.858932161000013, 36.495913162 ], [ 137.859080452, 36.495717789 ], [ 137.859086265, 36.495460483 ], [ 137.859333115, 36.495114709 ], [ 137.859633866, 36.494866377 ], [ 137.860294599000014, 36.494540567 ], [ 137.86124826299999, 36.494466035 ] ] ] } },
{ "type": "Feature", "properties": { "A29_001": "20212", "A29_002": "長野県", "A29_003": "大町市", "A29_004": 10, "A29_005": "準工業地域", "A29_006": 60, "A29_007": 200, "A29_008": null }, "geometry": { "type": "Polygon", "coordinates": [ [ [ 137.864527693000014, 36.485821325 ], [ 137.86445476099999, 36.485788176 ], [ 137.864213650000011, 36.486578795 ], [ 137.86382869799999, 36.487251215 ], [ 137.863665308, 36.487897527 ], [ 137.86366414, 36.488684727 ], [ 137.863280809, 36.489801118 ], [ 137.863236164, 36.490069789 ], [ 137.863212986, 36.490361295 ], [ 137.863257591, 36.490707308 ], [ 137.863313368, 36.490880047 ], [ 137.863481209000014, 36.491268255 ], [ 137.863542286000012, 36.491516492 ], [ 137.863664496000013, 36.491490197 ], [ 137.863706973, 36.491451031 ], [ 137.863597629, 36.490949498 ], [ 137.86357641, 36.49085134 ], [ 137.86357146099999, 36.490820537 ], [ 137.863567955, 36.490695085 ], [ 137.863578674, 36.490513049 ], [ 137.863590302, 36.490421933 ], [ 137.863591464, 36.490418236 ], [ 137.86365194199999, 36.490225875 ], [ 137.863693036, 36.490110106 ], [ 137.863778612, 36.489930911 ], [ 137.863952360000013, 36.489659107 ], [ 137.863986797, 36.489609407 ], [ 137.86426133399999, 36.489192204 ], [ 137.865722446, 36.486993875 ], [ 137.865938496000012, 36.486652988 ], [ 137.866119658, 36.486381671 ], [ 137.866021714, 36.486352482 ], [ 137.865905889, 36.486300235 ], [ 137.865825062, 36.486255132 ], [ 137.865337154, 36.486159756 ], [ 137.865114741000014, 36.486091512 ], [ 137.864863887000013, 36.485999206 ], [ 137.864702709, 36.485931468 ], [ 137.86459621, 36.485866364 ], [ 137.864527693000014, 36.485821325 ] ] ] } },
{ "type": "Feature", "properties": { "A29_001": "20212", "A29_002": "長野県", "A29_003": "大町市", "A29_004": 10, "A29_005": "準工業地域", "A29_006": 60, "A29_007": 200, "A29_008": null }, "geometry": { "type": "Polygon", "coordinates": [ [ [ 137.85596830899999, 36.518182927 ], [ 137.85720877599999, 36.516859939 ], [ 137.857784704000011, 36.517094323 ], [ 137.857886154999989, 36.517088497 ], [ 137.85796770499999, 36.517081736 ], [ 137.858011382, 36.517058818 ], [ 137.858136261, 36.516902235 ], [ 137.858266613000012, 36.516834696 ], [ 137.858321112999988, 36.516969695 ], [ 137.858898543, 36.516088796 ], [ 137.859128911, 36.51644254 ], [ 137.859228755, 36.516565174 ], [ 137.859379421999989, 36.516705539 ], [ 137.859444037, 36.516745972 ], [ 137.85976654800001, 36.516890341 ], [ 137.859826355, 36.516933065 ], [ 137.86002898699999, 36.517005484 ], [ 137.860387480000014, 36.517223864 ], [ 137.860699251, 36.517376734 ], [ 137.86071406, 36.517286646 ], [ 137.860999375, 36.515700185 ], [ 137.861033936000013, 36.51561251 ], [ 137.86107097199999, 36.515411176 ], [ 137.861101787, 36.515180014 ], [ 137.861106296, 36.515155714 ], [ 137.861128326999989, 36.51502081 ], [ 137.86114985, 36.514871511 ], [ 137.86116013899999, 36.514779731 ], [ 137.86119242, 36.514595738 ], [ 137.861222639, 36.514437058 ], [ 137.86125912899999, 36.514227276 ], [ 137.861291515, 36.514030378 ], [ 137.86132388499999, 36.513908931 ], [ 137.86135435, 36.513796414 ], [ 137.861432529000012, 36.513567497 ], [ 137.86154888499999, 36.513258863 ], [ 137.86164265799999, 36.51300421 ], [ 137.86180036799999, 36.512566011 ], [ 137.861975303, 36.512582566 ], [ 137.861979088999988, 36.512496708 ], [ 137.861995208, 36.512454824 ], [ 137.862007347, 36.512416208 ], [ 137.862024756000011, 36.512389985 ], [ 137.862037937, 36.512375546 ], [ 137.862055364000014, 36.51234698 ], [ 137.862062299, 36.512331787 ], [ 137.862069652, 36.51232011 ], [ 137.862077771, 36.51231024 ], [ 137.86208789299999, 36.512301192 ], [ 137.862111922999986, 36.512284377 ], [ 137.862295456999988, 36.51217667 ], [ 137.8623837, 36.512122293 ], [ 137.86243431299999, 36.512102647 ], [ 137.86359500899999, 36.508868217 ], [ 137.86397604699999, 36.507719696 ], [ 137.864183521, 36.507500452 ], [ 137.864408019, 36.507348241 ], [ 137.864515383, 36.507151129 ], [ 137.86446497, 36.506848777 ], [ 137.864431026, 36.506514628 ], [ 137.864482216, 36.506388323 ], [ 137.86461175, 36.506264977 ], [ 137.864860181000012, 36.506101474 ], [ 137.865004591, 36.505900728 ], [ 137.865137721999986, 36.505690676 ], [ 137.86476109, 36.505584849 ], [ 137.86459076599999, 36.505478462 ], [ 137.86444147099999, 36.505435381 ], [ 137.86423258, 36.505427067 ], [ 137.863750079999988, 36.505368492 ], [ 137.863416274, 36.505337827 ], [ 137.861985857, 36.509224313 ], [ 137.860664414000013, 36.512823853 ], [ 137.860154969, 36.514011183 ], [ 137.85945484699999, 36.513905884 ], [ 137.859019726000014, 36.514817761 ], [ 137.85876377400001, 36.515149479 ], [ 137.858501886, 36.515468214 ], [ 137.857812489, 36.515144361 ], [ 137.85767354, 36.515140522 ], [ 137.856473273, 36.51510095 ], [ 137.856336293999988, 36.515096579 ], [ 137.856201562, 36.515064877 ], [ 137.856164396, 36.515141569 ], [ 137.854052453, 36.519141511 ], [ 137.853339021000011, 36.520520226 ], [ 137.853459023, 36.520553213 ], [ 137.853602693, 36.520581281 ], [ 137.85381778499999, 36.520596496 ], [ 137.853956657999987, 36.520594437 ], [ 137.854210308, 36.520564898 ], [ 137.854235187, 36.520494773 ], [ 137.854305802, 36.520351816 ], [ 137.855366476, 36.518801468 ], [ 137.855492551999987, 36.518661675 ], [ 137.85596830899999, 36.518182927 ] ] ] } },
{ "type": "Feature", "properties": { "A29_001": "20212", "A29_002": "長野県", "A29_003": "大町市", "A29_004": 10, "A29_005": "準工業地域", "A29_006": 60, "A29_007": 200, "A29_008": null }, "geometry": { "type": "Polygon", "coordinates": [ [ [ 137.86017729, 36.497946513 ], [ 137.858932161000013, 36.495913162 ], [ 137.858760808, 36.495624894 ], [ 137.85873922, 36.495626337 ], [ 137.85887020199999, 36.496966998 ], [ 137.858895587, 36.497226805 ], [ 137.858895963, 36.497313902 ], [ 137.85897796, 36.498335751 ], [ 137.85899201699999, 36.498741911 ], [ 137.86004427200001, 36.497993484 ], [ 137.86007597, 36.4980155 ], [ 137.86017729, 36.497946513 ] ] ] } },
{ "type": "Feature", "properties": { "A29_001": "20212", "A29_002": "長野県", "A29_003": "大町市", "A29_004": 10, "A29_005": "準工業地域", "A29_006": 60, "A29_007": 200, "A29_008": null }, "geometry": { "type": "Polygon", "coordinates": [ [ [ 137.853887388, 36.499170791 ], [ 137.858021487, 36.498951662 ], [ 137.858253794, 36.498990665 ], [ 137.858408204, 36.499057231 ], [ 137.858485607, 36.499066614 ], [ 137.858558894999987, 36.49904564 ], [ 137.85899201699999, 36.498741911 ], [ 137.85897796, 36.498335751 ], [ 137.858895963, 36.497313902 ], [ 137.858895587, 36.497226805 ], [ 137.85887020199999, 36.496966998 ], [ 137.8582556, 36.497002752 ], [ 137.858245067000013, 36.496884517 ], [ 137.856087296, 36.496981606 ], [ 137.85613253, 36.497485574 ], [ 137.853603265, 36.497636407 ], [ 137.853718493, 36.499051789 ], [ 137.853887388, 36.499170791 ] ] ] } },
{ "type": "Feature", "properties": { "A29_001": "20212", "A29_002": "長野県", "A29_003": "大町市", "A29_004": 11, "A29_005": "工業地域", "A29_006": 60, "A29_007": 200, "A29_008": null }, "geometry": { "type": "Polygon", "coordinates": [ [ [ 137.854072293, 36.489032973 ], [ 137.853658239, 36.489421116 ], [ 137.854357389, 36.489940162 ], [ 137.855221664, 36.490601498 ], [ 137.855531398000011, 36.4908501 ], [ 137.855833639, 36.491100751 ], [ 137.856160974, 36.491483377 ], [ 137.85666644299999, 36.492255952 ], [ 137.856204564, 36.492425992 ], [ 137.855576286, 36.49261477 ], [ 137.856939376000014, 36.495723472 ], [ 137.85873922, 36.495626337 ], [ 137.858760808, 36.495624894 ], [ 137.858364289, 36.495018082 ], [ 137.85840346399999, 36.494731458 ], [ 137.858431177999989, 36.49452172 ], [ 137.858427287000012, 36.494406062 ], [ 137.858399518, 36.494216294 ], [ 137.858387074, 36.49402668 ], [ 137.858387986999986, 36.493915852 ], [ 137.858707036, 36.49427504 ], [ 137.85875513, 36.494288844 ], [ 137.85920129199999, 36.494069476 ], [ 137.85927549499999, 36.493966611 ], [ 137.859356313, 36.49382484 ], [ 137.859432419, 36.493745688 ], [ 137.85963712899999, 36.493575806 ], [ 137.85989280699999, 36.493408206 ], [ 137.860025431, 36.493303798 ], [ 137.859936766, 36.492980277 ], [ 137.854797108000014, 36.489508238 ], [ 137.854770626, 36.489532094 ], [ 137.854072293, 36.489032973 ] ] ] } },
{ "type": "Feature", "properties": { "A29_001": "20212", "A29_002": "長野県", "A29_003": "大町市", "A29_004": 12, "A29_005": "工業専用地域", "A29_006": 60, "A29_007": 200, "A29_008": null }, "geometry": { "type": "Polygon", "coordinates": [ [ [ 137.863542286000012, 36.491516492 ], [ 137.863481209000014, 36.491268255 ], [ 137.863313368, 36.490880047 ], [ 137.863257591, 36.490707308 ], [ 137.863212986, 36.490361295 ], [ 137.863236164, 36.490069789 ], [ 137.863280809, 36.489801118 ], [ 137.86366414, 36.488684727 ], [ 137.863665308, 36.487897527 ], [ 137.86382869799999, 36.487251215 ], [ 137.864213650000011, 36.486578795 ], [ 137.86445476099999, 36.485788176 ], [ 137.864231890000013, 36.485683393 ], [ 137.864160915000014, 36.485637349 ], [ 137.864221428, 36.485506245 ], [ 137.86426814, 36.485386738 ], [ 137.86430718599999, 36.485282205 ], [ 137.864426861, 36.484930894 ], [ 137.86444069800001, 36.484894233 ], [ 137.864444666, 36.484860711 ], [ 137.864436433, 36.484813794 ], [ 137.86441843, 36.484779821 ], [ 137.86437043699999, 36.484711702 ], [ 137.86429598399999, 36.484613495 ], [ 137.864255961999987, 36.484543779 ], [ 137.86421387199999, 36.484425412 ], [ 137.864168463, 36.484185911 ], [ 137.863972905, 36.483504791 ], [ 137.863843339999988, 36.483057386 ], [ 137.863817154, 36.482997856 ], [ 137.86379861399999, 36.482972252 ], [ 137.863773906, 36.48295022 ], [ 137.863641487, 36.482889041 ], [ 137.863502946000011, 36.482839636 ], [ 137.86289097299999, 36.482628276 ], [ 137.86248394899999, 36.482479561 ], [ 137.861853543, 36.482257553 ], [ 137.861001159000011, 36.481973898 ], [ 137.860929405, 36.481948694 ], [ 137.860458459, 36.481777524 ], [ 137.860296233000014, 36.482038624 ], [ 137.860230857, 36.482133741 ], [ 137.859934345, 36.482634281 ], [ 137.859812645, 36.48285926 ], [ 137.859699205, 36.483020261 ], [ 137.85962379099999, 36.48314008 ], [ 137.859384755, 36.483494621 ], [ 137.859347509, 36.483557399 ], [ 137.859237943000011, 36.483720736 ], [ 137.859066094000013, 36.483933729 ], [ 137.858836876999987, 36.484225533 ], [ 137.858632304, 36.484479131 ], [ 137.858250972, 36.484952984 ], [ 137.858018275, 36.485264036 ], [ 137.85797184099999, 36.485312119 ], [ 137.857574454, 36.485685695 ], [ 137.857241716, 36.485971422 ], [ 137.856819300000012, 36.486362425 ], [ 137.856305513, 36.486853826 ], [ 137.855443901, 36.487715879 ], [ 137.855032477, 36.488118308 ], [ 137.85457879, 36.488525059 ], [ 137.854072293, 36.489032973 ], [ 137.854770626, 36.489532094 ], [ 137.854797108000014, 36.489508238 ], [ 137.859936766, 36.492980277 ], [ 137.860386333, 36.492785201 ], [ 137.860790896, 36.492607655 ], [ 137.861438646000011, 36.49253625 ], [ 137.86158034499999, 36.492393235 ], [ 137.861606902, 36.492312509 ], [ 137.86172237299999, 36.492211288 ], [ 137.861940174000011, 36.492078575 ], [ 137.86215702699999, 36.491789196 ], [ 137.862838848, 36.49162211 ], [ 137.863542286000012, 36.491516492 ] ] ] } },
{ "type": "Feature", "properties": { "A29_001": "20212", "A29_002": "長野県", "A29_003": "大町市", "A29_004": 12, "A29_005": "工業専用地域", "A29_006": 60, "A29_007": 200, "A29_008": null }, "geometry": { "type": "Polygon", "coordinates": [ [ [ 137.85613253, 36.497485574 ], [ 137.856087296, 36.496981606 ], [ 137.858245067000013, 36.496884517 ], [ 137.8582556, 36.497002752 ], [ 137.85887020199999, 36.496966998 ], [ 137.85873922, 36.495626337 ], [ 137.856939376000014, 36.495723472 ], [ 137.855305565, 36.495816574 ], [ 137.853599136000014, 36.495911441 ], [ 137.85347125199999, 36.49601484 ], [ 137.853603265, 36.497636407 ], [ 137.85613253, 36.497485574 ] ] ] } }
]
}
