{
"type": "FeatureCollection",
"name": "A29-19_20403",
"features": [
{ "type": "Feature", "properties": { "A29_001": "20403", "A29_002": "長野県", "A29_003": "高森町", "A29_004": 12, "A29_005": "工業専用地域", "A29_006": 60, "A29_007": 200, "A29_008": null }, "geometry": { "type": "Polygon", "coordinates": [ [ [ 137.876288147, 35.531595149 ], [ 137.876237599, 35.53162577 ], [ 137.875434598999988, 35.532067473 ], [ 137.875711794000011, 35.53237815 ], [ 137.875829360000012, 35.532643482 ], [ 137.875835851, 35.532747258 ], [ 137.875873869, 35.533112344 ], [ 137.875881604999989, 35.533620367 ], [ 137.875915666999987, 35.534486139 ], [ 137.876327030999988, 35.534990273 ], [ 137.87648292599999, 35.535181324 ], [ 137.876631694, 35.535363639 ], [ 137.876773611, 35.535537556 ], [ 137.876820528, 35.535608361 ], [ 137.87705168799999, 35.535885362 ], [ 137.877322783000011, 35.536210214 ], [ 137.87737691699999, 35.536275083 ], [ 137.878086671, 35.537128628 ], [ 137.878670639, 35.537830889 ], [ 137.878690854000013, 35.537853309 ], [ 137.87880302799999, 35.537977722 ], [ 137.879443442, 35.538746751 ], [ 137.879603143999987, 35.538938522 ], [ 137.879636919, 35.53897908 ], [ 137.880039339, 35.539462306 ], [ 137.880261374000014, 35.539728922 ], [ 137.88041483, 35.539913188 ], [ 137.88057783299999, 35.540108917 ], [ 137.880609889, 35.540168389 ], [ 137.88067438499999, 35.540172997 ], [ 137.880709424, 35.540105696 ], [ 137.880753234, 35.540078101 ], [ 137.880873670999989, 35.540011465 ], [ 137.881539913000012, 35.539657388 ], [ 137.881691711, 35.53957231 ], [ 137.881711851, 35.539533301 ], [ 137.881836056999987, 35.539469546 ], [ 137.882564229, 35.539082153 ], [ 137.88203958299999, 35.538514007 ], [ 137.881447310999988, 35.537824121 ], [ 137.880857515, 35.537117073 ], [ 137.880406689000012, 35.536551922 ], [ 137.879927744000014, 35.536001889 ], [ 137.87951159, 35.535482703 ], [ 137.87903271499999, 35.534925034 ], [ 137.87858535699999, 35.534367526 ], [ 137.878277806999989, 35.533992943 ], [ 137.877633925, 35.53319402 ], [ 137.877220297, 35.532729215 ], [ 137.876682662, 35.532077745 ], [ 137.876288147, 35.531595149 ] ] ] } },
{ "type": "Feature", "properties": { "A29_001": "20403", "A29_002": "長野県", "A29_003": "高森町", "A29_004": 5, "A29_005": "第一種住居地域", "A29_006": 60, "A29_007": 200, "A29_008": null }, "geometry": { "type": "Polygon", "coordinates": [ [ [ 137.878180840999988, 35.551103443 ], [ 137.87824399499999, 35.551088028 ], [ 137.878702729, 35.551090393 ], [ 137.878987937, 35.551116188 ], [ 137.879381755999987, 35.551135387 ], [ 137.879866216000011, 35.550752958 ], [ 137.88005435299999, 35.550610142 ], [ 137.880063349000011, 35.550603585 ], [ 137.88008313099999, 35.550595868 ], [ 137.87992192199999, 35.550423665 ], [ 137.879504671, 35.550037312 ], [ 137.87906804299999, 35.549666599 ], [ 137.878886254, 35.549513268 ], [ 137.878738258, 35.549405186 ], [ 137.878663324, 35.549367257 ], [ 137.87863403099999, 35.549353373 ], [ 137.87850653699999, 35.54925589 ], [ 137.878345903, 35.549084065 ], [ 137.878247147, 35.548984321 ], [ 137.878000227, 35.548840455 ], [ 137.877782273, 35.548722709 ], [ 137.877509949, 35.548616845 ], [ 137.877209902, 35.548494076 ], [ 137.876773667, 35.548303694 ], [ 137.876417756, 35.548287743 ], [ 137.876170660000014, 35.548240675 ], [ 137.876012331999988, 35.548186434 ], [ 137.875712224000011, 35.548051327 ], [ 137.87534728599999, 35.547847198 ], [ 137.875077766, 35.547681721 ], [ 137.874684537, 35.547513694 ], [ 137.874319144999987, 35.547368705 ], [ 137.873946751, 35.547223679 ], [ 137.873704550000014, 35.547148013 ], [ 137.873292177, 35.547040935 ], [ 137.872882941, 35.546830845 ], [ 137.872424789, 35.546607144 ], [ 137.872164214, 35.54649322 ], [ 137.871896399, 35.546409785 ], [ 137.871642517, 35.546335962 ], [ 137.87144243, 35.546249063 ], [ 137.871227319000013, 35.54612249 ], [ 137.871070456000012, 35.546031046 ], [ 137.870910769, 35.545927663 ], [ 137.870803661, 35.545817399 ], [ 137.870728278, 35.545754999 ], [ 137.870658908, 35.545679138 ], [ 137.870428381000011, 35.545669962 ], [ 137.870172394, 35.545567268 ], [ 137.86999191000001, 35.545511472 ], [ 137.869836219, 35.545456999 ], [ 137.869658654, 35.545401218 ], [ 137.869493986, 35.545375316 ], [ 137.86948787, 35.545411057 ], [ 137.869527205999987, 35.545418418 ], [ 137.86952472199999, 35.545434861 ], [ 137.869495527999987, 35.545523194 ], [ 137.86940359, 35.545711994 ], [ 137.86936069399999, 35.545800083 ], [ 137.869287111, 35.545925389 ], [ 137.869246053000012, 35.546007368 ], [ 137.869181907000012, 35.546287097 ], [ 137.869131218, 35.546425155 ], [ 137.86906779099999, 35.546513064 ], [ 137.869020505, 35.546589134 ], [ 137.868983191000012, 35.54688228 ], [ 137.86895549, 35.547065771 ], [ 137.86888754099999, 35.547358161 ], [ 137.869833312, 35.547621928 ], [ 137.86984600400001, 35.547566187 ], [ 137.870123525999986, 35.54734155 ], [ 137.870259361, 35.547443583 ], [ 137.870338838, 35.547389895 ], [ 137.870339917, 35.547389167 ], [ 137.870418722000011, 35.5473405 ], [ 137.870463655, 35.547390547 ], [ 137.870498278000014, 35.547429111 ], [ 137.87054425, 35.547464167 ], [ 137.870627, 35.547511778 ], [ 137.870629627, 35.547513067 ], [ 137.87067964900001, 35.547537605 ], [ 137.870948564, 35.547669518 ], [ 137.871048417, 35.5477185 ], [ 137.871079083000012, 35.547729778 ], [ 137.87112811099999, 35.547731028 ], [ 137.871295139000011, 35.547728528 ], [ 137.87133827299999, 35.547719986 ], [ 137.871338427000012, 35.547718806 ], [ 137.87134341699999, 35.547680528 ], [ 137.871352167, 35.547644028 ], [ 137.871402663999987, 35.547378465 ], [ 137.87142033399999, 35.547357809 ], [ 137.87144865, 35.547206993 ], [ 137.87157705199999, 35.547019494 ], [ 137.871620975000013, 35.547003812 ], [ 137.871625494, 35.547114599 ], [ 137.87155611899999, 35.547213921 ], [ 137.871546217, 35.547267529 ], [ 137.871555277, 35.547321833 ], [ 137.871595781, 35.54736676 ], [ 137.8716315, 35.547389861 ], [ 137.871672601, 35.547409579 ], [ 137.871739209, 35.547403877 ], [ 137.87181597, 35.547383409 ], [ 137.871908859, 35.54735289 ], [ 137.872004847, 35.547299133 ], [ 137.872024649999986, 35.547285523 ], [ 137.872050183, 35.547285656 ], [ 137.872097141000012, 35.547344927 ], [ 137.87220066, 35.547354409 ], [ 137.87233529299999, 35.547396846 ], [ 137.872456795, 35.547439214 ], [ 137.872638005999988, 35.547496202 ], [ 137.872758072000011, 35.547535581 ], [ 137.872883296999987, 35.547568428 ], [ 137.872998364000011, 35.547594068 ], [ 137.873103292, 35.547610115 ], [ 137.873143922, 35.547638945 ], [ 137.873247651000014, 35.547621597 ], [ 137.873398358, 35.547754742 ], [ 137.87340609200001, 35.547885951 ], [ 137.873431133, 35.547949281 ], [ 137.87330527099999, 35.547904507 ], [ 137.873078314, 35.547819856 ], [ 137.873018972000011, 35.547758136 ], [ 137.872959337999987, 35.547733977 ], [ 137.872778132, 35.547676394 ], [ 137.872558927, 35.547626959 ], [ 137.872156475999986, 35.547594457 ], [ 137.87215488199999, 35.547798953 ], [ 137.87234203599999, 35.548029473 ], [ 137.872455468, 35.548171368 ], [ 137.872402130000012, 35.548462643 ], [ 137.87164179199999, 35.548457994 ], [ 137.871635048, 35.548574342 ], [ 137.871963803999989, 35.548627568 ], [ 137.87217488499999, 35.548652516 ], [ 137.872269245000012, 35.548676856 ], [ 137.87235667499999, 35.548691621 ], [ 137.87281839, 35.54845935 ], [ 137.873063828999989, 35.548719148 ], [ 137.873075285999988, 35.548746873 ], [ 137.87313149799999, 35.548723316 ], [ 137.87351339599999, 35.548697636 ], [ 137.873578331, 35.548753303 ], [ 137.873735837, 35.548612935 ], [ 137.874029989, 35.548462784 ], [ 137.874132156, 35.548533907 ], [ 137.874183292, 35.548562791 ], [ 137.87427904099999, 35.548558518 ], [ 137.874391014, 35.548569593 ], [ 137.87445956900001, 35.548610014 ], [ 137.874556860000013, 35.548707823 ], [ 137.874678241, 35.548860131 ], [ 137.874753341, 35.548959732 ], [ 137.87478905099999, 35.54902097 ], [ 137.87480123899999, 35.549104982 ], [ 137.874839931999986, 35.549233013 ], [ 137.874884196000011, 35.549395415 ], [ 137.874905766000012, 35.549473751 ], [ 137.875036615, 35.549459166 ], [ 137.875080378, 35.549469087 ], [ 137.875119156000011, 35.549502522 ], [ 137.87534433499999, 35.549666815 ], [ 137.875510858000013, 35.549718237 ], [ 137.875754234999988, 35.549793906 ], [ 137.875847275000012, 35.549838269 ], [ 137.875948322, 35.549903661 ], [ 137.876045728, 35.54998716 ], [ 137.876094464, 35.550024616 ], [ 137.876117247, 35.550020044 ], [ 137.876122685000013, 35.549998051 ], [ 137.876110207000011, 35.549951243 ], [ 137.876062845, 35.549887083 ], [ 137.875992286000013, 35.549803724 ], [ 137.875927394, 35.549742335 ], [ 137.87600326399999, 35.549742727 ], [ 137.87610909899999, 35.549792881 ], [ 137.876276695, 35.549856709 ], [ 137.876383549, 35.549925946 ], [ 137.876401944, 35.549962292 ], [ 137.876487078999986, 35.549972272 ], [ 137.876648714, 35.550052286 ], [ 137.876697229, 35.550118359 ], [ 137.876698987, 35.550192777 ], [ 137.876738268, 35.550245448 ], [ 137.87698714699999, 35.550364643 ], [ 137.877173914999986, 35.550440016 ], [ 137.877297817999988, 35.550493601 ], [ 137.877311658999986, 35.550515136 ], [ 137.877503515, 35.550611999 ], [ 137.877554124999989, 35.550633725 ], [ 137.877501376999987, 35.550662071 ], [ 137.87724987199999, 35.550806728 ], [ 137.877542226, 35.550813961 ], [ 137.87733965699999, 35.550970318 ], [ 137.877603776, 35.551006024 ], [ 137.87770584, 35.551166815 ], [ 137.87812646399999, 35.551116041 ], [ 137.878180840999988, 35.551103443 ] ] ] } },
{ "type": "Feature", "properties": { "A29_001": "20403", "A29_002": "長野県", "A29_003": "高森町", "A29_004": 1, "A29_005": "第一種低層住居専用地域", "A29_006": 50, "A29_007": 80, "A29_008": null }, "geometry": { "type": "Polygon", "coordinates": [ [ [ 137.88008313099999, 35.550595868 ], [ 137.88030966, 35.550832342 ], [ 137.88036225, 35.550879083 ], [ 137.880423506999989, 35.550921109 ], [ 137.880461403999988, 35.550947109 ], [ 137.880475417000014, 35.550956722 ], [ 137.880638454, 35.551051764 ], [ 137.88065458299999, 35.551061167 ], [ 137.880924333, 35.551198194 ], [ 137.88113511099999, 35.551283837 ], [ 137.881204083, 35.551311861 ], [ 137.881398093, 35.551385468 ], [ 137.881466703, 35.551411498 ], [ 137.881476083, 35.551415056 ], [ 137.881593167, 35.551494833 ], [ 137.881655639, 35.551560778 ], [ 137.881766633000012, 35.55165065 ], [ 137.881789639, 35.551669278 ], [ 137.881847526, 35.551722511 ], [ 137.88185464599999, 35.551756042 ], [ 137.881869827, 35.551827535 ], [ 137.881924895, 35.551847182 ], [ 137.881967397000011, 35.551878647 ], [ 137.882071274, 35.551702466 ], [ 137.882170029, 35.551535076 ], [ 137.882243759, 35.551393264 ], [ 137.882410972, 35.551086107 ], [ 137.882558087, 35.550929457 ], [ 137.882643363, 35.55084523 ], [ 137.88283157699999, 35.550656595 ], [ 137.883018313, 35.550470337 ], [ 137.88327553100001, 35.550226009 ], [ 137.883444102, 35.55006072 ], [ 137.883504536, 35.550004688 ], [ 137.883402724, 35.549924035 ], [ 137.883180517999989, 35.54978839 ], [ 137.882995032, 35.549659373 ], [ 137.882735392, 35.549496348 ], [ 137.882573111, 35.54942397 ], [ 137.882248395, 35.549299247 ], [ 137.88198975200001, 35.54923496 ], [ 137.881635053, 35.5491387 ], [ 137.88119365, 35.549025717 ], [ 137.880726565, 35.548898423 ], [ 137.880206014, 35.548758617 ], [ 137.880144194, 35.548813306 ], [ 137.880229985, 35.548931535 ], [ 137.88039209499999, 35.54915494 ], [ 137.88045848499999, 35.549246432 ], [ 137.880583553, 35.549418787 ], [ 137.880589917, 35.549427556 ], [ 137.88063019399999, 35.549517806 ], [ 137.880636167, 35.549597083 ], [ 137.880684105, 35.549649875 ], [ 137.880685484, 35.549651394 ], [ 137.88064754199999, 35.549687416 ], [ 137.880639852, 35.549738651 ], [ 137.880625253, 35.549739769 ], [ 137.880611681, 35.549796937 ], [ 137.880594145, 35.549800424 ], [ 137.880426527999987, 35.549966505 ], [ 137.88080292399999, 35.55038495 ], [ 137.880557297, 35.550448363 ], [ 137.88008313099999, 35.550595868 ] ] ] } },
{ "type": "Feature", "properties": { "A29_001": "20403", "A29_002": "長野県", "A29_003": "高森町", "A29_004": 9, "A29_005": "商業地域", "A29_006": 80, "A29_007": 400, "A29_008": null }, "geometry": { "type": "Polygon", "coordinates": [ [ [ 137.88717030699999, 35.551860021 ], [ 137.88730641399999, 35.551423085 ], [ 137.88970202499999, 35.551812426 ], [ 137.889718859, 35.551814376 ], [ 137.88971804900001, 35.55181185 ], [ 137.889610801, 35.551423222 ], [ 137.889572208, 35.551432566 ], [ 137.889604303, 35.551356412 ], [ 137.889620844, 35.551176198 ], [ 137.889625322, 35.551047436 ], [ 137.889621639000012, 35.550939389 ], [ 137.889609903, 35.550771665 ], [ 137.889543076, 35.550655898 ], [ 137.889507259999988, 35.550607065 ], [ 137.889500857, 35.550527854 ], [ 137.88947863300001, 35.550379878 ], [ 137.889463871, 35.550325428 ], [ 137.88939026599999, 35.550180053 ], [ 137.88924176399999, 35.549957188 ], [ 137.889203794999986, 35.549884495 ], [ 137.889120571, 35.549776277 ], [ 137.889038731, 35.549639446 ], [ 137.888925948, 35.549427096 ], [ 137.888917953, 35.54940368 ], [ 137.887951345, 35.549877232 ], [ 137.886706084999986, 35.549683502 ], [ 137.886666330999986, 35.549385666 ], [ 137.886593043, 35.548893051 ], [ 137.886569098, 35.548358713 ], [ 137.88619888, 35.548230907 ], [ 137.885647355, 35.548584016 ], [ 137.88582541, 35.549448162 ], [ 137.88574837199999, 35.54944777 ], [ 137.885654847000012, 35.549466372 ], [ 137.88538963900001, 35.549562278 ], [ 137.885092996, 35.549725158 ], [ 137.885090303999988, 35.549726637 ], [ 137.883757186999986, 35.549826171 ], [ 137.884394809000014, 35.550422541 ], [ 137.884396439, 35.550424545 ], [ 137.88452151300001, 35.550448974 ], [ 137.884743832999987, 35.550483722 ], [ 137.884799750000013, 35.55049275 ], [ 137.884895051, 35.550509757 ], [ 137.885270472, 35.55057675 ], [ 137.885523138999986, 35.550678389 ], [ 137.88558060299999, 35.550702332 ], [ 137.885847329, 35.550813463 ], [ 137.885940221999988, 35.550852167 ], [ 137.88608058299999, 35.550939056 ], [ 137.88614275, 35.550996444 ], [ 137.886226437, 35.551117917 ], [ 137.886241, 35.551139056 ], [ 137.886301210999989, 35.551309447 ], [ 137.886369667, 35.551503167 ], [ 137.886431049, 35.551676816 ], [ 137.886445528, 35.551717778 ], [ 137.886504374, 35.551875306 ], [ 137.886563271999989, 35.551873578 ], [ 137.88717030699999, 35.551860021 ] ] ] } },
{ "type": "Feature", "properties": { "A29_001": "20403", "A29_002": "長野県", "A29_003": "高森町", "A29_004": 10, "A29_005": "準工業地域", "A29_006": 60, "A29_007": 200, "A29_008": null }, "geometry": { "type": "Polygon", "coordinates": [ [ [ 137.88753809100001, 35.552703801 ], [ 137.887707397000014, 35.552698102 ], [ 137.887885250000011, 35.552719873 ], [ 137.888017286, 35.552722332 ], [ 137.888128032999987, 35.552645981 ], [ 137.88848826899999, 35.552477289 ], [ 137.888700604, 35.552377604 ], [ 137.88890229399999, 35.552238514 ], [ 137.889156229, 35.552104806 ], [ 137.889296800000011, 35.552039933 ], [ 137.889409484999987, 35.551996384 ], [ 137.889592459999989, 35.551919801 ], [ 137.889733016, 35.5518585 ], [ 137.889718859, 35.551814376 ], [ 137.88970202499999, 35.551812426 ], [ 137.88730641399999, 35.551423085 ], [ 137.88717030699999, 35.551860021 ], [ 137.88702142, 35.551863347 ], [ 137.887029552, 35.551908535 ], [ 137.887092513999988, 35.552258417 ], [ 137.88710216699999, 35.552312056 ], [ 137.88712462699999, 35.552434937 ], [ 137.887159755, 35.552679214 ], [ 137.88715966800001, 35.552679211 ], [ 137.887160722, 35.552685944 ], [ 137.887172829, 35.552741976 ], [ 137.887183219, 35.552742541 ], [ 137.887283852, 35.552749014 ], [ 137.887366242000013, 35.552755991 ], [ 137.887465021999986, 35.552718335 ], [ 137.88753809100001, 35.552703801 ] ] ] } },
{ "type": "Feature", "properties": { "A29_001": "20403", "A29_002": "長野県", "A29_003": "高森町", "A29_004": 1, "A29_005": "第一種低層住居専用地域", "A29_006": 50, "A29_007": 80, "A29_008": null }, "geometry": { "type": "Polygon", "coordinates": [ [ [ 137.882556614, 35.553357392 ], [ 137.88259700099999, 35.55341338 ], [ 137.882673253, 35.553516797 ], [ 137.882723671, 35.553640116 ], [ 137.88274854, 35.553746132 ], [ 137.882728619, 35.553856231 ], [ 137.882693444000012, 35.553931139 ], [ 137.882697889000013, 35.553966361 ], [ 137.882726445, 35.553931333 ], [ 137.882748389, 35.553904417 ], [ 137.882825639, 35.553849778 ], [ 137.88288505599999, 35.553846139 ], [ 137.882928111000012, 35.553865556 ], [ 137.882973491, 35.5538976 ], [ 137.88297391099999, 35.553897897 ], [ 137.88306014599999, 35.553979777 ], [ 137.883061540999989, 35.553988131 ], [ 137.883081395, 35.553967961 ], [ 137.883221522000014, 35.553866724 ], [ 137.883297252, 35.553790795 ], [ 137.883418580000011, 35.553667401 ], [ 137.883470329, 35.553578828 ], [ 137.883541777, 35.553490357 ], [ 137.883619493999987, 35.553440671 ], [ 137.883759314, 35.553379379 ], [ 137.88388292499999, 35.553338871 ], [ 137.883997088, 35.553293545 ], [ 137.8841199, 35.553261977 ], [ 137.884209645, 35.553261243 ], [ 137.884217842999988, 35.553238628 ], [ 137.884286774, 35.553250149 ], [ 137.884398532, 35.553290309 ], [ 137.88455933, 35.553328811 ], [ 137.88457646399999, 35.553301711 ], [ 137.884701189999987, 35.553325242 ], [ 137.884786221000013, 35.553329015 ], [ 137.884973032, 35.553324244 ], [ 137.88512961, 35.553304056 ], [ 137.885260464, 35.55328946 ], [ 137.885400597, 35.553282543 ], [ 137.88552918900001, 35.553258395 ], [ 137.88561615099999, 35.553182522 ], [ 137.885658742, 35.55310833 ], [ 137.885734684999989, 35.552946545 ], [ 137.885746984, 35.552864567 ], [ 137.885836113000011, 35.552606499 ], [ 137.885882751, 35.552460781 ], [ 137.885903438000014, 35.552350228 ], [ 137.885912612999988, 35.552218628 ], [ 137.885679622999987, 35.552156388 ], [ 137.88565070300001, 35.552121899 ], [ 137.885522365000014, 35.551960026 ], [ 137.885424304, 35.551807847 ], [ 137.88528886899999, 35.55165834 ], [ 137.88512198399999, 35.551500086 ], [ 137.884973863, 35.55133048 ], [ 137.884859156, 35.551192764 ], [ 137.88472910499999, 35.55102635 ], [ 137.884596534, 35.550998844 ], [ 137.884475691, 35.550964242 ], [ 137.88440161, 35.55092034 ], [ 137.88434961199999, 35.550850912 ], [ 137.88424417600001, 35.550709665 ], [ 137.88431578699999, 35.550633752 ], [ 137.884259832999987, 35.550625944 ], [ 137.884001031999986, 35.550645984 ], [ 137.883751329, 35.550665318 ], [ 137.883688361, 35.550670194 ], [ 137.883584746, 35.550692178 ], [ 137.883546174, 35.550708484 ], [ 137.883424064, 35.550785691 ], [ 137.883404332999987, 35.550808861 ], [ 137.883333333, 35.550877083 ], [ 137.883271056000012, 35.550936917 ], [ 137.883171056, 35.551002889 ], [ 137.883137264999988, 35.551024137 ], [ 137.883079833000011, 35.55106025 ], [ 137.882987945, 35.551155697 ], [ 137.88295, 35.551195111 ], [ 137.882809638999987, 35.551339972 ], [ 137.882714889, 35.551520694 ], [ 137.88269037, 35.551548212 ], [ 137.882655725, 35.551587093 ], [ 137.88263947199999, 35.551605333 ], [ 137.882606138999989, 35.551744472 ], [ 137.88259208299999, 35.551926639 ], [ 137.882608315, 35.552037222 ], [ 137.88262366699999, 35.552141806 ], [ 137.88262190899999, 35.552146892 ], [ 137.882600860999986, 35.552207778 ], [ 137.882600860999986, 35.552272306 ], [ 137.882533411999987, 35.552423946 ], [ 137.882453472, 35.552603667 ], [ 137.882453174, 35.552607743 ], [ 137.88244644400001, 35.552699778 ], [ 137.882458332999988, 35.552725588 ], [ 137.882464507, 35.552772526 ], [ 137.882480861, 35.552896861 ], [ 137.882475723999988, 35.552975942 ], [ 137.882475566000011, 35.55297838 ], [ 137.88244559099999, 35.552978793 ], [ 137.882433435, 35.553256386 ], [ 137.882474411, 35.553275483 ], [ 137.882546271, 35.553341663 ], [ 137.882556614, 35.553357392 ] ] ] } },
{ "type": "Feature", "properties": { "A29_001": "20403", "A29_002": "長野県", "A29_003": "高森町", "A29_004": 3, "A29_005": "第一種中高層住居専用地域", "A29_006": 60, "A29_007": 200, "A29_008": null }, "geometry": { "type": "Polygon", "coordinates": [ [ [ 137.871656578999989, 35.553987532 ], [ 137.871709736000014, 35.553982085 ], [ 137.871729929, 35.55401224 ], [ 137.872003325, 35.553888458 ], [ 137.872133931, 35.553793743 ], [ 137.872346002, 35.553637444 ], [ 137.872513618999989, 35.553567962 ], [ 137.872554331, 35.553586657 ], [ 137.872582472, 35.553533143 ], [ 137.872595651000012, 35.55352725 ], [ 137.87275432199999, 35.553388559 ], [ 137.872827217, 35.553303083 ], [ 137.872951812999986, 35.553230395 ], [ 137.873120167, 35.553171278 ], [ 137.873220331, 35.553132819 ], [ 137.87345820199999, 35.55307721 ], [ 137.873456586, 35.553055941 ], [ 137.87384549399999, 35.552963321 ], [ 137.873984443000012, 35.552921115 ], [ 137.874171571, 35.552875581 ], [ 137.874176556, 35.552969711 ], [ 137.874660275999986, 35.552982286 ], [ 137.874800007, 35.55302737 ], [ 137.87493113799999, 35.553052376 ], [ 137.87503107399999, 35.553035722 ], [ 137.875106576, 35.553008926 ], [ 137.875148609, 35.553007713 ], [ 137.87520245499999, 35.553026236 ], [ 137.875310799, 35.5529791 ], [ 137.875431623999987, 35.552921892 ], [ 137.875583947, 35.552848511 ], [ 137.875661221, 35.552818862 ], [ 137.875813618, 35.552811065 ], [ 137.875878957, 35.552809889 ], [ 137.875879527, 35.552809734 ], [ 137.875940705, 35.552793056 ], [ 137.875977389000013, 35.552783056 ], [ 137.875994252999988, 35.552774704 ], [ 137.876036524, 35.552753768 ], [ 137.876121194, 35.552711833 ], [ 137.876164361, 35.552691056 ], [ 137.876230333, 35.552675833 ], [ 137.876304806, 35.552678611 ], [ 137.87643508299999, 35.552708361 ], [ 137.876541083, 35.552746656 ], [ 137.876547485, 35.552785528 ], [ 137.876635889999989, 35.552788131 ], [ 137.876742807999989, 35.552774375 ], [ 137.876859754, 35.5528222 ], [ 137.876999696000013, 35.552840094 ], [ 137.877187068000012, 35.5528382 ], [ 137.877306863, 35.552857421 ], [ 137.877326860000011, 35.552875411 ], [ 137.877389018, 35.552875732 ], [ 137.877470171, 35.552910494 ], [ 137.877552997, 35.55295528 ], [ 137.87778993399999, 35.552997285 ], [ 137.877867624, 35.55302702 ], [ 137.878000539999988, 35.553047739 ], [ 137.878079375999988, 35.553042421 ], [ 137.878206412999987, 35.553030914 ], [ 137.878315775, 35.553040779 ], [ 137.878409433, 35.553043408 ], [ 137.87852759399999, 35.553047594 ], [ 137.878635253999988, 35.553051011 ], [ 137.87887896399999, 35.553198699 ], [ 137.878982258, 35.553265777 ], [ 137.87909336300001, 35.553308627 ], [ 137.879222701, 35.553339342 ], [ 137.879296417, 35.553316827 ], [ 137.879396077, 35.553335942 ], [ 137.87943450899999, 35.553379281 ], [ 137.879546339, 35.553378212 ], [ 137.879695422, 35.553346068 ], [ 137.879786848, 35.553313124 ], [ 137.879911349999986, 35.553274201 ], [ 137.880025569, 35.553221844 ], [ 137.880158959999989, 35.553181033 ], [ 137.880283424999988, 35.553185442 ], [ 137.880435862000013, 35.553149544 ], [ 137.88058457, 35.553166049 ], [ 137.880692614, 35.553159626 ], [ 137.880833787, 35.553091489 ], [ 137.880967364000014, 35.553026352 ], [ 137.881058685999989, 35.553013492 ], [ 137.881315314, 35.55286358 ], [ 137.881446952, 35.552822759 ], [ 137.881489425000012, 35.552764308 ], [ 137.881545961, 35.552698775 ], [ 137.881539814, 35.552587131 ], [ 137.881498056, 35.552552574 ], [ 137.881493374, 35.552478142 ], [ 137.881613305, 35.552365713 ], [ 137.881712324, 35.552240299 ], [ 137.881769100000014, 35.552143286 ], [ 137.8817714, 35.552071751 ], [ 137.881815788000011, 35.551991847 ], [ 137.881876217000013, 35.551926481 ], [ 137.881873657, 35.551845572 ], [ 137.88185464599999, 35.551756042 ], [ 137.881847526, 35.551722511 ], [ 137.881789639, 35.551669278 ], [ 137.881766633000012, 35.55165065 ], [ 137.881655639, 35.551560778 ], [ 137.881593167, 35.551494833 ], [ 137.881476083, 35.551415056 ], [ 137.881466703, 35.551411498 ], [ 137.881398093, 35.551385468 ], [ 137.881204083, 35.551311861 ], [ 137.88113511099999, 35.551283837 ], [ 137.880924333, 35.551198194 ], [ 137.88065458299999, 35.551061167 ], [ 137.880638454, 35.551051764 ], [ 137.880475417000014, 35.550956722 ], [ 137.880461403999988, 35.550947109 ], [ 137.880423506999989, 35.550921109 ], [ 137.88036225, 35.550879083 ], [ 137.88030966, 35.550832342 ], [ 137.88008313099999, 35.550595868 ], [ 137.880063349000011, 35.550603585 ], [ 137.88005435299999, 35.550610142 ], [ 137.879866216000011, 35.550752958 ], [ 137.879381755999987, 35.551135387 ], [ 137.878987937, 35.551116188 ], [ 137.878702729, 35.551090393 ], [ 137.87824399499999, 35.551088028 ], [ 137.878180840999988, 35.551103443 ], [ 137.87812646399999, 35.551116041 ], [ 137.87770584, 35.551166815 ], [ 137.877603776, 35.551006024 ], [ 137.87733965699999, 35.550970318 ], [ 137.877542226, 35.550813961 ], [ 137.87724987199999, 35.550806728 ], [ 137.877501376999987, 35.550662071 ], [ 137.877554124999989, 35.550633725 ], [ 137.877503515, 35.550611999 ], [ 137.877311658999986, 35.550515136 ], [ 137.877297817999988, 35.550493601 ], [ 137.877173914999986, 35.550440016 ], [ 137.87698714699999, 35.550364643 ], [ 137.876738268, 35.550245448 ], [ 137.876698987, 35.550192777 ], [ 137.876697229, 35.550118359 ], [ 137.876648714, 35.550052286 ], [ 137.876487078999986, 35.549972272 ], [ 137.876401944, 35.549962292 ], [ 137.876383549, 35.549925946 ], [ 137.876276695, 35.549856709 ], [ 137.87610909899999, 35.549792881 ], [ 137.87600326399999, 35.549742727 ], [ 137.875927394, 35.549742335 ], [ 137.875992286000013, 35.549803724 ], [ 137.876062845, 35.549887083 ], [ 137.876110207000011, 35.549951243 ], [ 137.876122685000013, 35.549998051 ], [ 137.876117247, 35.550020044 ], [ 137.876094464, 35.550024616 ], [ 137.876045728, 35.54998716 ], [ 137.875948322, 35.549903661 ], [ 137.875847275000012, 35.549838269 ], [ 137.875754234999988, 35.549793906 ], [ 137.875510858000013, 35.549718237 ], [ 137.87534433499999, 35.549666815 ], [ 137.875119156000011, 35.549502522 ], [ 137.875080378, 35.549469087 ], [ 137.875036615, 35.549459166 ], [ 137.874905766000012, 35.549473751 ], [ 137.874884196000011, 35.549395415 ], [ 137.874839931999986, 35.549233013 ], [ 137.87480123899999, 35.549104982 ], [ 137.87478905099999, 35.54902097 ], [ 137.874753341, 35.548959732 ], [ 137.874678241, 35.548860131 ], [ 137.874556860000013, 35.548707823 ], [ 137.87445956900001, 35.548610014 ], [ 137.874391014, 35.548569593 ], [ 137.87427904099999, 35.548558518 ], [ 137.874183292, 35.548562791 ], [ 137.874132156, 35.548533907 ], [ 137.874029989, 35.548462784 ], [ 137.873735837, 35.548612935 ], [ 137.873578331, 35.548753303 ], [ 137.87351339599999, 35.548697636 ], [ 137.87313149799999, 35.548723316 ], [ 137.873075285999988, 35.548746873 ], [ 137.873063828999989, 35.548719148 ], [ 137.87281839, 35.54845935 ], [ 137.87235667499999, 35.548691621 ], [ 137.872269245000012, 35.548676856 ], [ 137.87217488499999, 35.548652516 ], [ 137.871963803999989, 35.548627568 ], [ 137.871635048, 35.548574342 ], [ 137.871559224, 35.5485692 ], [ 137.87147606799999, 35.548567574 ], [ 137.871330072, 35.548578737 ], [ 137.871134348, 35.548605143 ], [ 137.870980954, 35.548629384 ], [ 137.870894937, 35.548620588 ], [ 137.870736275000013, 35.548572063 ], [ 137.870574696, 35.548523521 ], [ 137.87050340799999, 35.548496915 ], [ 137.870363379, 35.548491415 ], [ 137.87012170599999, 35.548609397 ], [ 137.87023764599999, 35.548710168 ], [ 137.870363024999989, 35.548964004 ], [ 137.870391611, 35.548991833 ], [ 137.870391611, 35.549044806 ], [ 137.87037963899999, 35.54907925 ], [ 137.870365566, 35.549092518 ], [ 137.870359721999989, 35.549098028 ], [ 137.870322944, 35.549113056 ], [ 137.870076931999989, 35.549283053 ], [ 137.870060158, 35.549338295 ], [ 137.870025891000012, 35.549391538 ], [ 137.86996818899999, 35.549456105 ], [ 137.869843215, 35.549614763 ], [ 137.869714695, 35.549779125 ], [ 137.869592151, 35.549925394 ], [ 137.869535571, 35.549995691 ], [ 137.86952919699999, 35.550064342 ], [ 137.86943988199999, 35.550141146 ], [ 137.869355383999988, 35.550198895 ], [ 137.869269884, 35.550235652 ], [ 137.86933475699999, 35.550298953 ], [ 137.869277254999986, 35.550337764 ], [ 137.869092966000011, 35.550468446 ], [ 137.869065318, 35.550421557 ], [ 137.868953284000014, 35.550418109 ], [ 137.868858601999989, 35.550434785 ], [ 137.868778803, 35.550488742 ], [ 137.86870047799999, 35.550503596 ], [ 137.868695472000013, 35.550546497 ], [ 137.868682124, 35.550611297 ], [ 137.86866633599999, 35.550689438 ], [ 137.868665413, 35.550745534 ], [ 137.868700546000014, 35.550792645 ], [ 137.868757495000011, 35.550824423 ], [ 137.868807620000013, 35.550833271 ], [ 137.868903350000011, 35.550831864 ], [ 137.86894852099999, 35.550876937 ], [ 137.869017750000012, 35.550873806 ], [ 137.869120356, 35.550995172 ], [ 137.869391231, 35.551285638 ], [ 137.869111022999988, 35.551441575 ], [ 137.86908238, 35.551521557 ], [ 137.86903848099999, 35.551611953 ], [ 137.86895357099999, 35.551722168 ], [ 137.868933926000011, 35.551771194 ], [ 137.868922037, 35.551798796 ], [ 137.86896117, 35.551795185 ], [ 137.869110615000011, 35.551903287 ], [ 137.869306077, 35.551911464 ], [ 137.86954620899999, 35.552221178 ], [ 137.869667166999989, 35.552181472 ], [ 137.869935139, 35.552066278 ], [ 137.870032388999988, 35.5520245 ], [ 137.87008207400001, 35.551998309 ], [ 137.870252443999988, 35.5519085 ], [ 137.87032086100001, 35.551875417 ], [ 137.870419905, 35.551830415 ], [ 137.870341174, 35.551653344 ], [ 137.870285351, 35.551514729 ], [ 137.870200071999989, 35.551224519 ], [ 137.870373848000014, 35.551138726 ], [ 137.870346, 35.55107575 ], [ 137.870330556, 35.550963278 ], [ 137.870326333, 35.550880639 ], [ 137.87035583299999, 35.550785361 ], [ 137.87043696, 35.550621187 ], [ 137.87044147200001, 35.550612056 ], [ 137.870560805999986, 35.550455944 ], [ 137.870573417, 35.550387 ], [ 137.87059319, 35.550349661 ], [ 137.870593657, 35.550348781 ], [ 137.870654849, 35.55035164 ], [ 137.870755726, 35.550513146 ], [ 137.87069119099999, 35.550555737 ], [ 137.871073072, 35.550795026 ], [ 137.871213562, 35.550742099 ], [ 137.87137314099999, 35.550673769 ], [ 137.87157354499999, 35.550609229 ], [ 137.871779366, 35.550598378 ], [ 137.871769457999989, 35.550746189 ], [ 137.871811046, 35.550839416 ], [ 137.871869408, 35.551026934 ], [ 137.87192133, 35.551104714 ], [ 137.871919359, 35.551170288 ], [ 137.871845271000012, 35.55131538 ], [ 137.871852073000014, 35.551378615 ], [ 137.87194859600001, 35.551350499 ], [ 137.871694805, 35.55171168 ], [ 137.871869632, 35.551746377 ], [ 137.871874985, 35.551808412 ], [ 137.871781027, 35.551881854 ], [ 137.871774781, 35.551934289 ], [ 137.871698313, 35.552010207 ], [ 137.871753275, 35.552072501 ], [ 137.87181571299999, 35.552117865 ], [ 137.871945149999988, 35.552166511 ], [ 137.87190593, 35.552330864 ], [ 137.871796431, 35.552525854 ], [ 137.87165528599999, 35.552688566 ], [ 137.871405517, 35.55288155 ], [ 137.871535187, 35.553025592 ], [ 137.871018201, 35.55352345 ], [ 137.871446045999988, 35.554065017 ], [ 137.871585161000013, 35.554014348 ], [ 137.871656578999989, 35.553987532 ] ] ] } },
{ "type": "Feature", "properties": { "A29_001": "20403", "A29_002": "長野県", "A29_003": "高森町", "A29_004": 5, "A29_005": "第一種住居地域", "A29_006": 60, "A29_007": 200, "A29_008": null }, "geometry": { "type": "Polygon", "coordinates": [ [ [ 137.883692196999988, 35.554094413 ], [ 137.88393306899999, 35.553940745 ], [ 137.88386906, 35.553724586 ], [ 137.88400881699999, 35.55367164 ], [ 137.884015584, 35.553550045 ], [ 137.884027731, 35.5534881 ], [ 137.884209199999987, 35.553514068 ], [ 137.884381158, 35.553543565 ], [ 137.884571816, 35.553608334 ], [ 137.884739174, 35.553762417 ], [ 137.884765902999987, 35.553797135 ], [ 137.88474725399999, 35.5538507 ], [ 137.884931591999987, 35.553787844 ], [ 137.88502886500001, 35.553756741 ], [ 137.885131879, 35.553738187 ], [ 137.88516766, 35.553734196 ], [ 137.885297968, 35.55367643 ], [ 137.885388557, 35.553660794 ], [ 137.885511269, 35.553642341 ], [ 137.88571660400001, 35.553600459 ], [ 137.8859358, 35.553558647 ], [ 137.88609412400001, 35.553558261 ], [ 137.886167008, 35.553568172 ], [ 137.886345627999987, 35.553508544 ], [ 137.886468259999987, 35.553500583 ], [ 137.886570975000012, 35.553502059 ], [ 137.886749861, 35.553533809 ], [ 137.886792449000012, 35.553544206 ], [ 137.88698411199999, 35.553515608 ], [ 137.887222995, 35.553486115 ], [ 137.887306513999988, 35.553476809 ], [ 137.887275205, 35.553281222 ], [ 137.887272556, 35.553264673 ], [ 137.887262738, 35.55320334 ], [ 137.887251279999987, 35.553131763 ], [ 137.88723715, 35.553043494 ], [ 137.88723475, 35.5530285 ], [ 137.887220361, 35.552961921 ], [ 137.88721032399999, 35.552915483 ], [ 137.887198087, 35.552858863 ], [ 137.88719186099999, 35.552830056 ], [ 137.887180752, 35.552778643 ], [ 137.887160722, 35.552685944 ], [ 137.88715966800001, 35.552679211 ], [ 137.887159755, 35.552679214 ], [ 137.88712462699999, 35.552434937 ], [ 137.88710216699999, 35.552312056 ], [ 137.887092513999988, 35.552258417 ], [ 137.887029552, 35.551908535 ], [ 137.88702142, 35.551863347 ], [ 137.886563271999989, 35.551873578 ], [ 137.886504374, 35.551875306 ], [ 137.886445528, 35.551717778 ], [ 137.886431049, 35.551676816 ], [ 137.886369667, 35.551503167 ], [ 137.886301210999989, 35.551309447 ], [ 137.886241, 35.551139056 ], [ 137.886226437, 35.551117917 ], [ 137.88614275, 35.550996444 ], [ 137.88608058299999, 35.550939056 ], [ 137.885940221999988, 35.550852167 ], [ 137.885847329, 35.550813463 ], [ 137.88558060299999, 35.550702332 ], [ 137.885523138999986, 35.550678389 ], [ 137.885270472, 35.55057675 ], [ 137.884895051, 35.550509757 ], [ 137.884799750000013, 35.55049275 ], [ 137.884743832999987, 35.550483722 ], [ 137.88452151300001, 35.550448974 ], [ 137.884396439, 35.550424545 ], [ 137.884394809000014, 35.550422541 ], [ 137.883757186999986, 35.549826171 ], [ 137.885090303999988, 35.549726637 ], [ 137.885092996, 35.549725158 ], [ 137.88538963900001, 35.549562278 ], [ 137.885654847000012, 35.549466372 ], [ 137.88574837199999, 35.54944777 ], [ 137.88582541, 35.549448162 ], [ 137.885647355, 35.548584016 ], [ 137.88619888, 35.548230907 ], [ 137.886569098, 35.548358713 ], [ 137.886593043, 35.548893051 ], [ 137.886666330999986, 35.549385666 ], [ 137.886706084999986, 35.549683502 ], [ 137.887951345, 35.549877232 ], [ 137.888917953, 35.54940368 ], [ 137.888744613999989, 35.548918009 ], [ 137.888608613, 35.548573895 ], [ 137.888521449, 35.548331386 ], [ 137.88847404399999, 35.548233365 ], [ 137.88840886700001, 35.548169835 ], [ 137.888344705, 35.547972756 ], [ 137.888266624000011, 35.547687365 ], [ 137.888192167999989, 35.547500966 ], [ 137.888117658, 35.547513705 ], [ 137.88798346499999, 35.54731627 ], [ 137.887839141, 35.547108052 ], [ 137.88772772199999, 35.546985856 ], [ 137.88759629899999, 35.547103837 ], [ 137.887577477, 35.547084663 ], [ 137.887468694, 35.54719143 ], [ 137.88737229099999, 35.54720525 ], [ 137.887289024000012, 35.547064973 ], [ 137.887266219, 35.547089898 ], [ 137.887144221, 35.546919951 ], [ 137.886854008, 35.546805789 ], [ 137.886508176, 35.546663505 ], [ 137.88642547399999, 35.546778703 ], [ 137.886306917000013, 35.546863583 ], [ 137.886237497, 35.54682531 ], [ 137.886101569, 35.546931119 ], [ 137.885816475000013, 35.546670095 ], [ 137.885691228000013, 35.546639646 ], [ 137.885564441000014, 35.546619921 ], [ 137.885482763999988, 35.546615927 ], [ 137.885400878000013, 35.546639359 ], [ 137.885200376, 35.546719423 ], [ 137.885151783, 35.546777605 ], [ 137.88507947299999, 35.546884557 ], [ 137.885023557000011, 35.546946279 ], [ 137.88491219, 35.547008911 ], [ 137.884847603, 35.547059856 ], [ 137.88480445799999, 35.547084069 ], [ 137.884373837999988, 35.546958644 ], [ 137.88313056699999, 35.546521102 ], [ 137.882683562000011, 35.546362365 ], [ 137.88255021399999, 35.546599308 ], [ 137.882569472, 35.546631361 ], [ 137.882661167, 35.546783639 ], [ 137.882800508, 35.547020727 ], [ 137.882879489, 35.547224324 ], [ 137.882899259999988, 35.547386121 ], [ 137.88268227899999, 35.54736927 ], [ 137.882533548, 35.547357061 ], [ 137.882511558, 35.547370543 ], [ 137.882473304, 35.547336004 ], [ 137.88244964, 35.54733946 ], [ 137.88240218199999, 35.547363543 ], [ 137.882371936999988, 35.547408673 ], [ 137.882371897000013, 35.547409512 ], [ 137.882364861000013, 35.547555139 ], [ 137.882261027999988, 35.547657 ], [ 137.882254316, 35.547672083 ], [ 137.88221746799999, 35.547754888 ], [ 137.882187759, 35.547821651 ], [ 137.882178778, 35.547841833 ], [ 137.882171833, 35.547956222 ], [ 137.88213030599999, 35.548039222 ], [ 137.882177222, 35.548142333 ], [ 137.882191056000011, 35.548224056 ], [ 137.882199944, 35.548389833 ], [ 137.882164, 35.548372694 ], [ 137.88182760699999, 35.548323661 ], [ 137.88177772200001, 35.548316389 ], [ 137.88154122200001, 35.548280889 ], [ 137.881473860999989, 35.548258833 ], [ 137.881342127000011, 35.548164707 ], [ 137.881201295000011, 35.548337792 ], [ 137.880979884999988, 35.548213595 ], [ 137.880931269, 35.548160401 ], [ 137.880876022, 35.548155813 ], [ 137.880884062, 35.54817733 ], [ 137.88090938900001, 35.548245111 ], [ 137.881021083, 35.548347417 ], [ 137.881082694000014, 35.548441111 ], [ 137.88106825, 35.548506444 ], [ 137.881059915, 35.548511201 ], [ 137.880918119, 35.548592134 ], [ 137.880108353, 35.548311191 ], [ 137.880042658, 35.548429621 ], [ 137.880045102, 35.548453244 ], [ 137.879904149, 35.54845395 ], [ 137.880031315999986, 35.548538314 ], [ 137.880206014, 35.548758617 ], [ 137.880726565, 35.548898423 ], [ 137.88119365, 35.549025717 ], [ 137.881635053, 35.5491387 ], [ 137.88198975200001, 35.54923496 ], [ 137.882248395, 35.549299247 ], [ 137.882573111, 35.54942397 ], [ 137.882735392, 35.549496348 ], [ 137.882995032, 35.549659373 ], [ 137.883180517999989, 35.54978839 ], [ 137.883402724, 35.549924035 ], [ 137.883504536, 35.550004688 ], [ 137.883444102, 35.55006072 ], [ 137.88327553100001, 35.550226009 ], [ 137.883189554000012, 35.550307678 ], [ 137.88363241499999, 35.550391071 ], [ 137.883301612999986, 35.550603065 ], [ 137.883303597, 35.550648865 ], [ 137.88343924099999, 35.550776094 ], [ 137.883546174, 35.550708484 ], [ 137.883584746, 35.550692178 ], [ 137.883688361, 35.550670194 ], [ 137.883751329, 35.550665318 ], [ 137.883917158, 35.550652478 ], [ 137.884001031999986, 35.550645984 ], [ 137.884259832999987, 35.550625944 ], [ 137.88431578699999, 35.550633752 ], [ 137.88424417600001, 35.550709665 ], [ 137.88434961199999, 35.550850912 ], [ 137.88440161, 35.55092034 ], [ 137.884475691, 35.550964242 ], [ 137.884596534, 35.550998844 ], [ 137.88472910499999, 35.55102635 ], [ 137.884859156, 35.551192764 ], [ 137.884973863, 35.55133048 ], [ 137.88512198399999, 35.551500086 ], [ 137.88528886899999, 35.55165834 ], [ 137.885424304, 35.551807847 ], [ 137.885522365000014, 35.551960026 ], [ 137.88565070300001, 35.552121899 ], [ 137.885679622999987, 35.552156388 ], [ 137.885912612999988, 35.552218628 ], [ 137.885903438000014, 35.552350228 ], [ 137.885882751, 35.552460781 ], [ 137.885836113000011, 35.552606499 ], [ 137.885746984, 35.552864567 ], [ 137.885734684999989, 35.552946545 ], [ 137.885658742, 35.55310833 ], [ 137.88561615099999, 35.553182522 ], [ 137.88552918900001, 35.553258395 ], [ 137.885400597, 35.553282543 ], [ 137.885260464, 35.55328946 ], [ 137.88512961, 35.553304056 ], [ 137.884973032, 35.553324244 ], [ 137.884786221000013, 35.553329015 ], [ 137.884701189999987, 35.553325242 ], [ 137.88457646399999, 35.553301711 ], [ 137.88455933, 35.553328811 ], [ 137.884398532, 35.553290309 ], [ 137.884286774, 35.553250149 ], [ 137.884217842999988, 35.553238628 ], [ 137.884209645, 35.553261243 ], [ 137.8841199, 35.553261977 ], [ 137.883997088, 35.553293545 ], [ 137.88388292499999, 35.553338871 ], [ 137.883759314, 35.553379379 ], [ 137.883619493999987, 35.553440671 ], [ 137.883541777, 35.553490357 ], [ 137.883470329, 35.553578828 ], [ 137.883418580000011, 35.553667401 ], [ 137.883297252, 35.553790795 ], [ 137.883221522000014, 35.553866724 ], [ 137.883081395, 35.553967961 ], [ 137.883061540999989, 35.553988131 ], [ 137.88306014599999, 35.553979777 ], [ 137.88297391099999, 35.553897897 ], [ 137.882973491, 35.5538976 ], [ 137.882928111000012, 35.553865556 ], [ 137.88288505599999, 35.553846139 ], [ 137.882825639, 35.553849778 ], [ 137.882748389, 35.553904417 ], [ 137.882726445, 35.553931333 ], [ 137.882697889000013, 35.553966361 ], [ 137.882716045, 35.553970913 ], [ 137.88270311299999, 35.554025553 ], [ 137.882663893, 35.554154893 ], [ 137.882594428, 35.554261727 ], [ 137.882831114, 35.554343761 ], [ 137.883302474, 35.554376699 ], [ 137.883692196999988, 35.554094413 ] ] ] } },
{ "type": "Feature", "properties": { "A29_001": "20403", "A29_002": "長野県", "A29_003": "高森町", "A29_004": 11, "A29_005": "工業地域", "A29_006": 60, "A29_007": 200, "A29_008": null }, "geometry": { "type": "Polygon", "coordinates": [ [ [ 137.890547134, 35.554143607 ], [ 137.89032955799999, 35.553546609 ], [ 137.890169982, 35.553115091 ], [ 137.890115583000011, 35.553130556 ], [ 137.88999207399999, 35.552792231 ], [ 137.889736878, 35.551870539 ], [ 137.889733016, 35.5518585 ], [ 137.889592459999989, 35.551919801 ], [ 137.889409484999987, 35.551996384 ], [ 137.889296800000011, 35.552039933 ], [ 137.889156229, 35.552104806 ], [ 137.88890229399999, 35.552238514 ], [ 137.888700604, 35.552377604 ], [ 137.88848826899999, 35.552477289 ], [ 137.888128032999987, 35.552645981 ], [ 137.888017286, 35.552722332 ], [ 137.887885250000011, 35.552719873 ], [ 137.887707397000014, 35.552698102 ], [ 137.88753809100001, 35.552703801 ], [ 137.887465021999986, 35.552718335 ], [ 137.887366242000013, 35.552755991 ], [ 137.887283852, 35.552749014 ], [ 137.887183219, 35.552742541 ], [ 137.887172829, 35.552741976 ], [ 137.887180752, 35.552778643 ], [ 137.88719186099999, 35.552830056 ], [ 137.887198087, 35.552858863 ], [ 137.88721032399999, 35.552915483 ], [ 137.887220361, 35.552961921 ], [ 137.88723475, 35.5530285 ], [ 137.88723715, 35.553043494 ], [ 137.887251279999987, 35.553131763 ], [ 137.887262738, 35.55320334 ], [ 137.887272556, 35.553264673 ], [ 137.887275205, 35.553281222 ], [ 137.887296434, 35.55341384 ], [ 137.887306513999988, 35.553476809 ], [ 137.88731875, 35.55355325 ], [ 137.887401917, 35.55397775 ], [ 137.887494944, 35.55445275 ], [ 137.887551056, 35.554788639 ], [ 137.887568689, 35.554879756 ], [ 137.888481251, 35.554431457 ], [ 137.889181924000013, 35.554089676 ], [ 137.889608299, 35.553897229 ], [ 137.889805201, 35.554409546 ], [ 137.88998361599999, 35.554896966 ], [ 137.890086695, 35.555158872 ], [ 137.890474549, 35.554956977 ], [ 137.890600299999988, 35.554888796 ], [ 137.89073356899999, 35.554825078 ], [ 137.890854139, 35.554800645 ], [ 137.890764663999988, 35.55470754 ], [ 137.890735896, 35.554652543 ], [ 137.890547134, 35.554143607 ] ] ] } },
{ "type": "Feature", "properties": { "A29_001": "20403", "A29_002": "長野県", "A29_003": "高森町", "A29_004": 6, "A29_005": "第二種住居地域", "A29_006": 60, "A29_007": 200, "A29_008": null }, "geometry": { "type": "Polygon", "coordinates": [ [ [ 137.87777647199999, 35.554146333 ], [ 137.877858167, 35.554186417 ], [ 137.878415139, 35.554236194 ], [ 137.87866882899999, 35.554239194 ], [ 137.878674958, 35.554237726 ], [ 137.878838417, 35.554198556 ], [ 137.87919633300001, 35.554009139 ], [ 137.879393861000011, 35.553987278 ], [ 137.87945779399999, 35.553961152 ], [ 137.879503777999986, 35.553942361 ], [ 137.879665667000012, 35.553930194 ], [ 137.879861694, 35.553930194 ], [ 137.879879678, 35.553933156 ], [ 137.879964917, 35.553947194 ], [ 137.88036, 35.553933833 ], [ 137.88074169399999, 35.553942361 ], [ 137.88078056, 35.553950405 ], [ 137.880853083, 35.553965417 ], [ 137.881309028, 35.553956917 ], [ 137.881392221999988, 35.553972722 ], [ 137.88139693799999, 35.553971602 ], [ 137.881484277999988, 35.553950861 ], [ 137.88188677799999, 35.553834278 ], [ 137.882117, 35.553737139 ], [ 137.882176136, 35.553717386 ], [ 137.882222444, 35.553701917 ], [ 137.882307110999989, 35.553646083 ], [ 137.882365028, 35.553559861 ], [ 137.882400667000013, 35.553483361 ], [ 137.88243333299999, 35.553258722 ], [ 137.882433493, 35.553256553 ], [ 137.882433435, 35.553256386 ], [ 137.882438879, 35.553132071 ], [ 137.88244559099999, 35.552978793 ], [ 137.882475566000011, 35.55297838 ], [ 137.882475723999988, 35.552975942 ], [ 137.882480861, 35.552896861 ], [ 137.882464507, 35.552772526 ], [ 137.882458332999988, 35.552725588 ], [ 137.88244644400001, 35.552699778 ], [ 137.882453174, 35.552607743 ], [ 137.882453472, 35.552603667 ], [ 137.882533411999987, 35.552423946 ], [ 137.882600860999986, 35.552272306 ], [ 137.882600860999986, 35.552207778 ], [ 137.88262190899999, 35.552146892 ], [ 137.88262366699999, 35.552141806 ], [ 137.882608315, 35.552037222 ], [ 137.88259208299999, 35.551926639 ], [ 137.882606138999989, 35.551744472 ], [ 137.88263947199999, 35.551605333 ], [ 137.882655725, 35.551587093 ], [ 137.88269037, 35.551548212 ], [ 137.882714889, 35.551520694 ], [ 137.882809638999987, 35.551339972 ], [ 137.88295, 35.551195111 ], [ 137.882987945, 35.551155697 ], [ 137.883079833000011, 35.55106025 ], [ 137.883137264999988, 35.551024137 ], [ 137.883171056, 35.551002889 ], [ 137.883271056000012, 35.550936917 ], [ 137.883333333, 35.550877083 ], [ 137.883404332999987, 35.550808861 ], [ 137.883424064, 35.550785691 ], [ 137.88343924099999, 35.550776094 ], [ 137.883303597, 35.550648865 ], [ 137.883301612999986, 35.550603065 ], [ 137.88363241499999, 35.550391071 ], [ 137.883189554000012, 35.550307678 ], [ 137.883018313, 35.550470337 ], [ 137.88283157699999, 35.550656595 ], [ 137.882643363, 35.55084523 ], [ 137.882558087, 35.550929457 ], [ 137.882410972, 35.551086107 ], [ 137.882243759, 35.551393264 ], [ 137.882170029, 35.551535076 ], [ 137.882071274, 35.551702466 ], [ 137.881967397000011, 35.551878647 ], [ 137.881924895, 35.551847182 ], [ 137.881869827, 35.551827535 ], [ 137.881873657, 35.551845572 ], [ 137.881876217000013, 35.551926481 ], [ 137.881815788000011, 35.551991847 ], [ 137.8817714, 35.552071751 ], [ 137.881769100000014, 35.552143286 ], [ 137.881712324, 35.552240299 ], [ 137.881613305, 35.552365713 ], [ 137.881493374, 35.552478142 ], [ 137.881498056, 35.552552574 ], [ 137.881539814, 35.552587131 ], [ 137.881545961, 35.552698775 ], [ 137.881489425000012, 35.552764308 ], [ 137.881446952, 35.552822759 ], [ 137.881315314, 35.55286358 ], [ 137.881058685999989, 35.553013492 ], [ 137.880967364000014, 35.553026352 ], [ 137.880833787, 35.553091489 ], [ 137.880692614, 35.553159626 ], [ 137.88058457, 35.553166049 ], [ 137.880435862000013, 35.553149544 ], [ 137.880283424999988, 35.553185442 ], [ 137.880158959999989, 35.553181033 ], [ 137.880025569, 35.553221844 ], [ 137.879911349999986, 35.553274201 ], [ 137.879786848, 35.553313124 ], [ 137.879695422, 35.553346068 ], [ 137.879546339, 35.553378212 ], [ 137.87943450899999, 35.553379281 ], [ 137.879396077, 35.553335942 ], [ 137.879296417, 35.553316827 ], [ 137.879222701, 35.553339342 ], [ 137.87909336300001, 35.553308627 ], [ 137.878982258, 35.553265777 ], [ 137.87887896399999, 35.553198699 ], [ 137.878635253999988, 35.553051011 ], [ 137.87852759399999, 35.553047594 ], [ 137.878409433, 35.553043408 ], [ 137.878315775, 35.553040779 ], [ 137.878206412999987, 35.553030914 ], [ 137.878079375999988, 35.553042421 ], [ 137.878000539999988, 35.553047739 ], [ 137.877867624, 35.55302702 ], [ 137.87778993399999, 35.552997285 ], [ 137.877552997, 35.55295528 ], [ 137.877470171, 35.552910494 ], [ 137.877389018, 35.552875732 ], [ 137.877326860000011, 35.552875411 ], [ 137.877306863, 35.552857421 ], [ 137.877187068000012, 35.5528382 ], [ 137.876999696000013, 35.552840094 ], [ 137.876859754, 35.5528222 ], [ 137.876742807999989, 35.552774375 ], [ 137.876635889999989, 35.552788131 ], [ 137.876547485, 35.552785528 ], [ 137.876541083, 35.552746656 ], [ 137.87643508299999, 35.552708361 ], [ 137.876304806, 35.552678611 ], [ 137.876230333, 35.552675833 ], [ 137.876164361, 35.552691056 ], [ 137.876121194, 35.552711833 ], [ 137.876036524, 35.552753768 ], [ 137.875994252999988, 35.552774704 ], [ 137.875977389000013, 35.552783056 ], [ 137.875940705, 35.552793056 ], [ 137.875879527, 35.552809734 ], [ 137.875878957, 35.552809889 ], [ 137.875813618, 35.552811065 ], [ 137.875661221, 35.552818862 ], [ 137.875583947, 35.552848511 ], [ 137.875431623999987, 35.552921892 ], [ 137.875310799, 35.5529791 ], [ 137.87520245499999, 35.553026236 ], [ 137.875148609, 35.553007713 ], [ 137.875106576, 35.553008926 ], [ 137.87503107399999, 35.553035722 ], [ 137.87493113799999, 35.553052376 ], [ 137.874800007, 35.55302737 ], [ 137.874660275999986, 35.552982286 ], [ 137.874176556, 35.552969711 ], [ 137.87417277599999, 35.552898347 ], [ 137.874171571, 35.552875581 ], [ 137.873505, 35.55332655 ], [ 137.873386051000011, 35.55339922 ], [ 137.873171307, 35.553493181 ], [ 137.873039731, 35.553600294 ], [ 137.872905569000011, 35.553709588 ], [ 137.87287135299999, 35.553756153 ], [ 137.872929555000013, 35.553777443 ], [ 137.87306328299999, 35.553993732 ], [ 137.87297685499999, 35.554074369 ], [ 137.87312452399999, 35.554295777 ], [ 137.873228393, 35.554474371 ], [ 137.873210863999986, 35.554954894 ], [ 137.873382267000011, 35.555104318 ], [ 137.87338365799999, 35.555103422 ], [ 137.873474249999987, 35.555045083 ], [ 137.873503139, 35.55502575 ], [ 137.87369227799999, 35.554919778 ], [ 137.873712417, 35.554914778 ], [ 137.873719728999987, 35.554914778 ], [ 137.87373344400001, 35.554914778 ], [ 137.873748333, 35.554916194 ], [ 137.8738, 35.554884722 ], [ 137.873809998000013, 35.5548787 ], [ 137.873810751, 35.554878246 ], [ 137.874062694, 35.5547265 ], [ 137.874189346, 35.554659765 ], [ 137.874265923, 35.554619415 ], [ 137.874336615, 35.554582165 ], [ 137.87439369399999, 35.554551806 ], [ 137.874480361, 35.554522472 ], [ 137.874646624, 35.554420249 ], [ 137.874695777999989, 35.554390028 ], [ 137.874736617, 35.554366562 ], [ 137.874816638999988, 35.554320583 ], [ 137.874941833, 35.554259722 ], [ 137.875, 35.554239278 ], [ 137.875065221999989, 35.554228917 ], [ 137.87516622199999, 35.554156056 ], [ 137.87531002599999, 35.554071883 ], [ 137.87542761099999, 35.554003056 ], [ 137.875475548999987, 35.553986307 ], [ 137.875709056, 35.553904722 ], [ 137.87577588900001, 35.553913194 ], [ 137.875847193999988, 35.553907139 ], [ 137.875880107, 35.553901667 ], [ 137.8761175, 35.553862194 ], [ 137.87622822899999, 35.553869262 ], [ 137.876441277999987, 35.553882861 ], [ 137.876536409000011, 35.553893596 ], [ 137.876710083, 35.553913194 ], [ 137.876860111000013, 35.553943556 ], [ 137.876967028, 35.553987278 ], [ 137.877054832999988, 35.554004532 ], [ 137.877311627000012, 35.554054992 ], [ 137.87773780099999, 35.554138735 ], [ 137.87777647199999, 35.554146333 ] ] ] } },
{ "type": "Feature", "properties": { "A29_001": "20403", "A29_002": "長野県", "A29_003": "高森町", "A29_004": 3, "A29_005": "第一種中高層住居専用地域", "A29_006": 60, "A29_007": 200, "A29_008": null }, "geometry": { "type": "Polygon", "coordinates": [ [ [ 137.881629807, 35.556185589 ], [ 137.881590399, 35.556138961 ], [ 137.881502977, 35.556121818 ], [ 137.88156220499999, 35.556010032 ], [ 137.881356118000014, 35.555673898 ], [ 137.88138548500001, 35.5556502 ], [ 137.881343792, 35.5555689 ], [ 137.881283838, 35.555585286 ], [ 137.88117125299999, 35.5554218 ], [ 137.881170333, 35.555384306 ], [ 137.881034930999988, 35.555166481 ], [ 137.880949049, 35.55502832 ], [ 137.880927250000013, 35.55499325 ], [ 137.880818444, 35.554816972 ], [ 137.880758724, 35.554483554 ], [ 137.880974904, 35.554455092 ], [ 137.881120888999988, 35.554436889 ], [ 137.881233028, 35.554415028 ], [ 137.881356305999986, 35.554409556 ], [ 137.881600639, 35.554444806 ], [ 137.88163338699999, 35.554442994 ], [ 137.881689, 35.554439917 ], [ 137.881960806, 35.55430575 ], [ 137.88208267499999, 35.554268754 ], [ 137.88228683299999, 35.554206778 ], [ 137.88244688899999, 35.554198278 ], [ 137.882536955, 35.554268108 ], [ 137.882594428, 35.554261727 ], [ 137.882663893, 35.554154893 ], [ 137.88270311299999, 35.554025553 ], [ 137.882716045, 35.553970913 ], [ 137.882697889000013, 35.553966361 ], [ 137.882693444000012, 35.553931139 ], [ 137.882728619, 35.553856231 ], [ 137.88274854, 35.553746132 ], [ 137.882723671, 35.553640116 ], [ 137.882673253, 35.553516797 ], [ 137.88259700099999, 35.55341338 ], [ 137.882556614, 35.553357392 ], [ 137.882546271, 35.553341663 ], [ 137.882474411, 35.553275483 ], [ 137.882433435, 35.553256386 ], [ 137.882433493, 35.553256553 ], [ 137.88243333299999, 35.553258722 ], [ 137.882400667000013, 35.553483361 ], [ 137.882365028, 35.553559861 ], [ 137.882307110999989, 35.553646083 ], [ 137.882222444, 35.553701917 ], [ 137.882176136, 35.553717386 ], [ 137.882117, 35.553737139 ], [ 137.88188677799999, 35.553834278 ], [ 137.881484277999988, 35.553950861 ], [ 137.88139693799999, 35.553971602 ], [ 137.881392221999988, 35.553972722 ], [ 137.881309028, 35.553956917 ], [ 137.880853083, 35.553965417 ], [ 137.88078056, 35.553950405 ], [ 137.88074169399999, 35.553942361 ], [ 137.88036, 35.553933833 ], [ 137.879964917, 35.553947194 ], [ 137.879879678, 35.553933156 ], [ 137.879861694, 35.553930194 ], [ 137.879665667000012, 35.553930194 ], [ 137.879503777999986, 35.553942361 ], [ 137.87945779399999, 35.553961152 ], [ 137.879393861000011, 35.553987278 ], [ 137.87919633300001, 35.554009139 ], [ 137.878838417, 35.554198556 ], [ 137.878674958, 35.554237726 ], [ 137.87866882899999, 35.554239194 ], [ 137.878415139, 35.554236194 ], [ 137.877858167, 35.554186417 ], [ 137.87777647199999, 35.554146333 ], [ 137.877311627000012, 35.554054992 ], [ 137.877054832999988, 35.554004532 ], [ 137.876967028, 35.553987278 ], [ 137.876860111000013, 35.553943556 ], [ 137.876710083, 35.553913194 ], [ 137.876536409000011, 35.553893596 ], [ 137.876441277999987, 35.553882861 ], [ 137.87622822899999, 35.553869262 ], [ 137.8761175, 35.553862194 ], [ 137.875880107, 35.553901667 ], [ 137.875847193999988, 35.553907139 ], [ 137.87577588900001, 35.553913194 ], [ 137.875709056, 35.553904722 ], [ 137.875475548999987, 35.553986307 ], [ 137.87542761099999, 35.554003056 ], [ 137.87531002599999, 35.554071883 ], [ 137.87516622199999, 35.554156056 ], [ 137.875065221999989, 35.554228917 ], [ 137.875, 35.554239278 ], [ 137.874941833, 35.554259722 ], [ 137.874816638999988, 35.554320583 ], [ 137.874736617, 35.554366562 ], [ 137.874695777999989, 35.554390028 ], [ 137.874646624, 35.554420249 ], [ 137.874480361, 35.554522472 ], [ 137.87439369399999, 35.554551806 ], [ 137.874336615, 35.554582165 ], [ 137.874265923, 35.554619415 ], [ 137.874189346, 35.554659765 ], [ 137.874062694, 35.5547265 ], [ 137.873829099, 35.554867195 ], [ 137.873810751, 35.554878246 ], [ 137.873809998000013, 35.5548787 ], [ 137.8738, 35.554884722 ], [ 137.873748333, 35.554916194 ], [ 137.87373344400001, 35.554914778 ], [ 137.873719728999987, 35.554914778 ], [ 137.873712417, 35.554914778 ], [ 137.873705945000012, 35.554916385 ], [ 137.87369227799999, 35.554919778 ], [ 137.873503139, 35.55502575 ], [ 137.873474249999987, 35.555045083 ], [ 137.873387701000013, 35.555100818 ], [ 137.87338365799999, 35.555103422 ], [ 137.87343285099999, 35.555149889 ], [ 137.873493868999986, 35.555184549 ], [ 137.87354471399999, 35.555176227 ], [ 137.87363240799999, 35.555158081 ], [ 137.873721862999986, 35.555138512 ], [ 137.873865789, 35.555094901 ], [ 137.873960575000012, 35.555065343 ], [ 137.87409589, 35.555003085 ], [ 137.87445574099999, 35.554889047 ], [ 137.874585657000011, 35.554845362 ], [ 137.87467285, 35.554891604 ], [ 137.87473644100001, 35.554820387 ], [ 137.874821188, 35.554730678 ], [ 137.874953521, 35.554601149 ], [ 137.875097567000012, 35.554541796 ], [ 137.875232614, 35.554513878 ], [ 137.875381479, 35.554510356 ], [ 137.87557036199999, 35.554539953 ], [ 137.87578202899999, 35.554566806 ], [ 137.876011095, 35.554608058 ], [ 137.876227827, 35.554659262 ], [ 137.87629980599999, 35.554635308 ], [ 137.876412023, 35.554615856 ], [ 137.876545228999987, 35.554599373 ], [ 137.876669515, 35.554604309 ], [ 137.876733991, 35.554644708 ], [ 137.876815566, 35.554738141 ], [ 137.876874203, 35.554854349 ], [ 137.876975062000014, 35.554945019 ], [ 137.877114819000013, 35.554987238 ], [ 137.87743987799999, 35.555010035 ], [ 137.87743532499999, 35.554978877 ], [ 137.877542256, 35.554963689 ], [ 137.877889509, 35.554949812 ], [ 137.878240580000011, 35.554951623 ], [ 137.878425012, 35.555104253 ], [ 137.878609735, 35.555105921 ], [ 137.87873765099999, 35.555094417 ], [ 137.878857630999988, 35.555090027 ], [ 137.87900822099999, 35.555090087 ], [ 137.87941386899999, 35.555091603 ], [ 137.87961879, 35.555009664 ], [ 137.879897371999988, 35.554912362 ], [ 137.87997765599999, 35.555042615 ], [ 137.87998397199999, 35.555051194 ], [ 137.880082496999989, 35.555210948 ], [ 137.880154, 35.555326889 ], [ 137.880374972, 35.555685167 ], [ 137.880378156, 35.555691549 ], [ 137.88038153799999, 35.55569833 ], [ 137.880410055999988, 35.5557555 ], [ 137.880450861000014, 35.555808389 ], [ 137.880461446999988, 35.555825336 ], [ 137.88065738899999, 35.556139 ], [ 137.880697292, 35.556257735 ], [ 137.880671309, 35.556296714 ], [ 137.880606581, 35.556345629 ], [ 137.88056864699999, 35.556439638 ], [ 137.88058863099999, 35.556497574 ], [ 137.88065033399999, 35.556538434 ], [ 137.880715251, 35.556564565 ], [ 137.880793907, 35.556559443 ], [ 137.880905422000012, 35.556511324 ], [ 137.88116008899999, 35.556412466 ], [ 137.88159869399999, 35.556204554 ], [ 137.881629807, 35.556185589 ] ] ] } },
{ "type": "Feature", "properties": { "A29_001": "20403", "A29_002": "長野県", "A29_003": "高森町", "A29_004": 3, "A29_005": "第一種中高層住居専用地域", "A29_006": 60, "A29_007": 200, "A29_008": null }, "geometry": { "type": "Polygon", "coordinates": [ [ [ 137.88948664099999, 35.554252189 ], [ 137.889411372000012, 35.554248946 ], [ 137.888857613, 35.55453662 ], [ 137.88836190399999, 35.554788813 ], [ 137.887829433, 35.555039386 ], [ 137.88795623199999, 35.555635298 ], [ 137.888028686000013, 35.55600914 ], [ 137.888124763, 35.556500437 ], [ 137.888244823, 35.557061973 ], [ 137.888315506999987, 35.557438667 ], [ 137.88840159099999, 35.557868516 ], [ 137.888506637, 35.557814394 ], [ 137.89043866099999, 35.55688866 ], [ 137.890120486, 35.556008452 ], [ 137.889931655, 35.555501842 ], [ 137.88950187099999, 35.554313745 ], [ 137.88948664099999, 35.554252189 ] ] ] } },
{ "type": "Feature", "properties": { "A29_001": "20403", "A29_002": "長野県", "A29_003": "高森町", "A29_004": 5, "A29_005": "第一種住居地域", "A29_006": 60, "A29_007": 200, "A29_008": null }, "geometry": { "type": "Polygon", "coordinates": [ [ [ 137.88840159099999, 35.557868516 ], [ 137.888315506999987, 35.557438667 ], [ 137.888244823, 35.557061973 ], [ 137.888124763, 35.556500437 ], [ 137.888028686000013, 35.55600914 ], [ 137.88795623199999, 35.555635298 ], [ 137.887829433, 35.555039386 ], [ 137.88836190399999, 35.554788813 ], [ 137.888857613, 35.55453662 ], [ 137.889411372000012, 35.554248946 ], [ 137.88948664099999, 35.554252189 ], [ 137.88950187099999, 35.554313745 ], [ 137.889931655, 35.555501842 ], [ 137.889936831999989, 35.555515732 ], [ 137.890583568000011, 35.555207372 ], [ 137.890474549, 35.554956977 ], [ 137.890086695, 35.555158872 ], [ 137.88998361599999, 35.554896966 ], [ 137.889805201, 35.554409546 ], [ 137.889608299, 35.553897229 ], [ 137.889181924000013, 35.554089676 ], [ 137.888481251, 35.554431457 ], [ 137.887568689, 35.554879756 ], [ 137.887575943, 35.554917239 ], [ 137.88760552799999, 35.555070111 ], [ 137.887666278000012, 35.5553625 ], [ 137.887669619, 35.55537859 ], [ 137.887723023, 35.555635785 ], [ 137.887723943999987, 35.555640222 ], [ 137.88777323299999, 35.555882746 ], [ 137.887822472000011, 35.556125028 ], [ 137.887846278000012, 35.556169972 ], [ 137.88785405199999, 35.556206916 ], [ 137.887892222, 35.556388306 ], [ 137.887894499999987, 35.556440139 ], [ 137.88789973499999, 35.556465065 ], [ 137.887921105, 35.556566821 ], [ 137.88793963099999, 35.556655034 ], [ 137.887946993000014, 35.55669009 ], [ 137.887999433, 35.556939784 ], [ 137.888002355, 35.556953696 ], [ 137.888006052, 35.556971298 ], [ 137.888016111000013, 35.557019194 ], [ 137.888056616, 35.557216825 ], [ 137.888068143, 35.557273063 ], [ 137.888075097000012, 35.557306995 ], [ 137.888113874, 35.557496191 ], [ 137.88812823, 35.557566232 ], [ 137.88815280599999, 35.557686139 ], [ 137.88816044399999, 35.557723139 ], [ 137.888163217, 35.557736564 ], [ 137.888163375, 35.557737328 ], [ 137.88819589, 35.557894736 ], [ 137.888203806, 35.557933056 ], [ 137.888204572, 35.557941013 ], [ 137.888207232000013, 35.557968655 ], [ 137.88840159099999, 35.557868516 ] ] ] } },
{ "type": "Feature", "properties": { "A29_001": "20403", "A29_002": "長野県", "A29_003": "高森町", "A29_004": 10, "A29_005": "準工業地域", "A29_006": 60, "A29_007": 200, "A29_008": null }, "geometry": { "type": "Polygon", "coordinates": [ [ [ 137.882155966999989, 35.556686349 ], [ 137.882273528000013, 35.556498722 ], [ 137.882314444, 35.556394528 ], [ 137.882368278, 35.556250333 ], [ 137.882388305, 35.556186885 ], [ 137.882481694, 35.555891 ], [ 137.882483194, 35.555849235 ], [ 137.88248402799999, 35.555826 ], [ 137.88250847, 35.555396056 ], [ 137.88294934000001, 35.555466879 ], [ 137.883072846, 35.555345285 ], [ 137.883119639, 35.555371583 ], [ 137.883333333, 35.555487639 ], [ 137.8833835, 35.555514889 ], [ 137.883409212, 35.555528854 ], [ 137.8836665, 35.555668583 ], [ 137.884270910999987, 35.555974079 ], [ 137.884283833000012, 35.55592875 ], [ 137.884375721999987, 35.555612694 ], [ 137.88446348, 35.555388237 ], [ 137.884474, 35.555361333 ], [ 137.884532881000013, 35.55523268 ], [ 137.884604227000011, 35.555076791 ], [ 137.884680874999987, 35.554909317 ], [ 137.884766176999989, 35.554722935 ], [ 137.88502554199999, 35.554736978 ], [ 137.88506203599999, 35.554543988 ], [ 137.88525468, 35.554540201 ], [ 137.885253240999987, 35.5547286 ], [ 137.885821542, 35.554691896 ], [ 137.88584144399999, 35.554793444 ], [ 137.8858495, 35.55483775 ], [ 137.88588594399999, 35.555037861 ], [ 137.8858995, 35.55510205 ], [ 137.885920972, 35.555203722 ], [ 137.886000306, 35.55557925 ], [ 137.886023703, 35.555690001 ], [ 137.88604414299999, 35.555786751 ], [ 137.886070639, 35.555912167 ], [ 137.886154, 35.556306722 ], [ 137.88645127800001, 35.556268306 ], [ 137.88651015799999, 35.556535593 ], [ 137.886561417, 35.556768278 ], [ 137.88656997199999, 35.556824167 ], [ 137.886648444, 35.557188056 ], [ 137.886659689999988, 35.557239896 ], [ 137.886668347000011, 35.557279805 ], [ 137.886710583, 35.5574745 ], [ 137.886731556, 35.557551333 ], [ 137.88680195, 35.557853536 ], [ 137.886803996999987, 35.557862321 ], [ 137.886805611999989, 35.557869254 ], [ 137.886232664, 35.55809676 ], [ 137.886251722, 35.5581385 ], [ 137.886355138999988, 35.558333333 ], [ 137.88636019399999, 35.558342861 ], [ 137.886367998, 35.558357203 ], [ 137.886391212, 35.55839986 ], [ 137.886606852, 35.558796114 ], [ 137.886631778, 35.558841917 ], [ 137.886628045, 35.558875332 ], [ 137.88661797200001, 35.5589655 ], [ 137.88670313899999, 35.559180333 ], [ 137.886810999, 35.559452451 ], [ 137.886922333, 35.559733333 ], [ 137.886931249000014, 35.559756327 ], [ 137.887008372999986, 35.559955235 ], [ 137.887036732000013, 35.560028375 ], [ 137.887143917, 35.560304806 ], [ 137.887286291, 35.56024602 ], [ 137.887316465, 35.560316355 ], [ 137.887520056, 35.560947 ], [ 137.887651876, 35.561344038 ], [ 137.887780413, 35.56171244 ], [ 137.88791579299999, 35.562102341 ], [ 137.88804538799999, 35.562562328 ], [ 137.888157798, 35.5629793 ], [ 137.888124483000013, 35.562984855 ], [ 137.888134489, 35.563050729 ], [ 137.888172981999986, 35.563055217 ], [ 137.888216054, 35.563378826 ], [ 137.888335101, 35.563383723 ], [ 137.888372049, 35.563361015 ], [ 137.888640032000012, 35.56335522 ], [ 137.888703727, 35.563497407 ], [ 137.88891594399999, 35.563277182 ], [ 137.888630457, 35.562386478 ], [ 137.88830517, 35.561449712 ], [ 137.888996017000011, 35.561167063 ], [ 137.888994634999989, 35.561163618 ], [ 137.888722476, 35.560359042 ], [ 137.88881873599999, 35.560322873 ], [ 137.888650611, 35.560071806 ], [ 137.888502167000013, 35.559365639 ], [ 137.888375833, 35.55876625 ], [ 137.888334187999988, 35.558563954 ], [ 137.888288639, 35.558342694 ], [ 137.888286556, 35.558333333 ], [ 137.88825623299999, 35.558197995 ], [ 137.888209028, 35.557987306 ], [ 137.888204572, 35.557941013 ], [ 137.888203806, 35.557933056 ], [ 137.88819589, 35.557894736 ], [ 137.888177082, 35.557803686 ], [ 137.888163375, 35.557737328 ], [ 137.888163217, 35.557736564 ], [ 137.88816044399999, 35.557723139 ], [ 137.88815280599999, 35.557686139 ], [ 137.88812823, 35.557566232 ], [ 137.888113874, 35.557496191 ], [ 137.888075097000012, 35.557306995 ], [ 137.888068143, 35.557273063 ], [ 137.888056616, 35.557216825 ], [ 137.888016111000013, 35.557019194 ], [ 137.888006052, 35.556971298 ], [ 137.888002355, 35.556953696 ], [ 137.887999433, 35.556939784 ], [ 137.887946993000014, 35.55669009 ], [ 137.88793963099999, 35.556655034 ], [ 137.887921105, 35.556566821 ], [ 137.88789973499999, 35.556465065 ], [ 137.887894499999987, 35.556440139 ], [ 137.887892222, 35.556388306 ], [ 137.88785405199999, 35.556206916 ], [ 137.887846278000012, 35.556169972 ], [ 137.887822472000011, 35.556125028 ], [ 137.88777323299999, 35.555882746 ], [ 137.887723943999987, 35.555640222 ], [ 137.887723023, 35.555635785 ], [ 137.887669619, 35.55537859 ], [ 137.887666278000012, 35.5553625 ], [ 137.88760552799999, 35.555070111 ], [ 137.887575943, 35.554917239 ], [ 137.887551056, 35.554788639 ], [ 137.887494944, 35.55445275 ], [ 137.887401917, 35.55397775 ], [ 137.88731875, 35.55355325 ], [ 137.887306513999988, 35.553476809 ], [ 137.887222995, 35.553486115 ], [ 137.88698411199999, 35.553515608 ], [ 137.886792449000012, 35.553544206 ], [ 137.886749861, 35.553533809 ], [ 137.886570975000012, 35.553502059 ], [ 137.886468259999987, 35.553500583 ], [ 137.886345627999987, 35.553508544 ], [ 137.886167008, 35.553568172 ], [ 137.88609412400001, 35.553558261 ], [ 137.8859358, 35.553558647 ], [ 137.88571660400001, 35.553600459 ], [ 137.885511269, 35.553642341 ], [ 137.885388557, 35.553660794 ], [ 137.885297968, 35.55367643 ], [ 137.88516766, 35.553734196 ], [ 137.885131879, 35.553738187 ], [ 137.88502886500001, 35.553756741 ], [ 137.884931591999987, 35.553787844 ], [ 137.88474725399999, 35.5538507 ], [ 137.884765902999987, 35.553797135 ], [ 137.884739174, 35.553762417 ], [ 137.884571816, 35.553608334 ], [ 137.884381158, 35.553543565 ], [ 137.884209199999987, 35.553514068 ], [ 137.884027731, 35.5534881 ], [ 137.884015584, 35.553550045 ], [ 137.88400881699999, 35.55367164 ], [ 137.88386906, 35.553724586 ], [ 137.88393306899999, 35.553940745 ], [ 137.883692196999988, 35.554094413 ], [ 137.883302474, 35.554376699 ], [ 137.882831114, 35.554343761 ], [ 137.882594428, 35.554261727 ], [ 137.882536955, 35.554268108 ], [ 137.88244688899999, 35.554198278 ], [ 137.88228683299999, 35.554206778 ], [ 137.88208267499999, 35.554268754 ], [ 137.881960806, 35.55430575 ], [ 137.881689, 35.554439917 ], [ 137.88163338699999, 35.554442994 ], [ 137.881600639, 35.554444806 ], [ 137.881356305999986, 35.554409556 ], [ 137.881233028, 35.554415028 ], [ 137.881120888999988, 35.554436889 ], [ 137.880974904, 35.554455092 ], [ 137.880758724, 35.554483554 ], [ 137.880818444, 35.554816972 ], [ 137.880927250000013, 35.55499325 ], [ 137.880949049, 35.55502832 ], [ 137.881034930999988, 35.555166481 ], [ 137.881170333, 35.555384306 ], [ 137.88117125299999, 35.5554218 ], [ 137.881283838, 35.555585286 ], [ 137.881343792, 35.5555689 ], [ 137.88138548500001, 35.5556502 ], [ 137.881356118000014, 35.555673898 ], [ 137.88156220499999, 35.556010032 ], [ 137.881502977, 35.556121818 ], [ 137.881590399, 35.556138961 ], [ 137.881629807, 35.556185589 ], [ 137.882155966999989, 35.556686349 ] ] ] } },
{ "type": "Feature", "properties": { "A29_001": "20403", "A29_002": "長野県", "A29_003": "高森町", "A29_004": 11, "A29_005": "工業地域", "A29_006": 60, "A29_007": 200, "A29_008": null }, "geometry": { "type": "Polygon", "coordinates": [ [ [ 137.88944135, 35.565346793 ], [ 137.889489465999986, 35.565429554 ], [ 137.88978739, 35.565864157 ], [ 137.89002531700001, 35.566204969 ], [ 137.89035857499999, 35.566599684 ], [ 137.890559927, 35.566837283 ], [ 137.890802963999988, 35.567120882 ], [ 137.89102789899999, 35.567328072 ], [ 137.89136906600001, 35.567604534 ], [ 137.891705050000013, 35.567856952 ], [ 137.892197130999989, 35.568018769 ], [ 137.892815395000014, 35.56824511 ], [ 137.892615734, 35.568014201 ], [ 137.892700432, 35.568007473 ], [ 137.892430979000011, 35.567659799 ], [ 137.891510974, 35.565909798 ], [ 137.890950972000013, 35.564829798 ], [ 137.890044818, 35.563125518 ], [ 137.890049121, 35.563061567 ], [ 137.889782131, 35.563156426 ], [ 137.889706601, 35.563021137 ], [ 137.888937473, 35.563270606 ], [ 137.88891594399999, 35.563277182 ], [ 137.888703727, 35.563497407 ], [ 137.88870301, 35.563497842 ], [ 137.888726071, 35.563563566 ], [ 137.88840133299999, 35.563740309 ], [ 137.888533625, 35.563999501 ], [ 137.888683163, 35.564294078 ], [ 137.888795203, 35.564453002 ], [ 137.88901848099999, 35.564723149 ], [ 137.889165475, 35.56489179 ], [ 137.889354913, 35.565198254 ], [ 137.88944135, 35.565346793 ] ] ] } }
]
}
