{
"type": "FeatureCollection",
"name": "A29-19_20402",
"features": [
{ "type": "Feature", "properties": { "A29_001": "20402", "A29_002": "長野県", "A29_003": "松川町", "A29_004": 5, "A29_005": "第一種住居地域", "A29_006": 60, "A29_007": 200, "A29_008": null }, "geometry": { "type": "Polygon", "coordinates": [ [ [ 137.9132175, 35.595090611 ], [ 137.913221333, 35.595028806 ], [ 137.913279, 35.5948675 ], [ 137.913288666999989, 35.594854 ], [ 137.913322556, 35.594806722 ], [ 137.913332575, 35.594799705 ], [ 137.91340330599999, 35.594750167 ], [ 137.913640601, 35.594626153 ], [ 137.913648384999988, 35.594622085 ], [ 137.914084333, 35.59439425 ], [ 137.914097806, 35.59438721 ], [ 137.914199528000012, 35.594334056 ], [ 137.914262916000013, 35.594308316 ], [ 137.914313083, 35.594287944 ], [ 137.91467628699999, 35.594103156 ], [ 137.91527410099999, 35.593799 ], [ 137.915317722, 35.593776806 ], [ 137.91536244400001, 35.593759667 ], [ 137.91582986099999, 35.593546861 ], [ 137.915952707, 35.593488047 ], [ 137.916220917, 35.593359639 ], [ 137.915598117, 35.59293299 ], [ 137.915261436, 35.592655904 ], [ 137.914846915, 35.5922425 ], [ 137.914576262, 35.59192042 ], [ 137.91398246, 35.591068517 ], [ 137.913895758, 35.590946466 ], [ 137.913717139, 35.591017144 ], [ 137.913471286, 35.590498429 ], [ 137.913319677, 35.590268742 ], [ 137.913080681, 35.589948126 ], [ 137.912977066, 35.589983394 ], [ 137.913090269, 35.59031449 ], [ 137.913103605, 35.590407565 ], [ 137.91311485599999, 35.590546181 ], [ 137.91322551, 35.59098673 ], [ 137.913232461, 35.591034462 ], [ 137.91322782899999, 35.59106902 ], [ 137.91315385499999, 35.591203406 ], [ 137.913136033, 35.591245054 ], [ 137.913132765, 35.591292736 ], [ 137.913114594, 35.59138208 ], [ 137.913040644, 35.591393168 ], [ 137.913126369999986, 35.591814182 ], [ 137.913117402000012, 35.591842757 ], [ 137.913229961000013, 35.592262567 ], [ 137.91318066, 35.592296669 ], [ 137.913157594000012, 35.592336623 ], [ 137.913083089, 35.592463613 ], [ 137.91297132299999, 35.592935036 ], [ 137.912949860999987, 35.592963278 ], [ 137.912954500000012, 35.593017944 ], [ 137.912972415000013, 35.593062875 ], [ 137.9126875, 35.593217533 ], [ 137.912708777, 35.593342605 ], [ 137.912304086, 35.593450653 ], [ 137.912242028, 35.593604574 ], [ 137.912206228, 35.59354907 ], [ 137.912175988, 35.593531751 ], [ 137.912126992999987, 35.593523881 ], [ 137.91207340299999, 35.593505494 ], [ 137.912031498, 35.593486211 ], [ 137.912004818000014, 35.593461278 ], [ 137.911980405, 35.593445895 ], [ 137.911951111, 35.593456222 ], [ 137.91199206499999, 35.593608124 ], [ 137.911958282, 35.593613546 ], [ 137.91205098, 35.593866494 ], [ 137.912159828999989, 35.594074509 ], [ 137.912578943999989, 35.594737641 ], [ 137.912642199, 35.594712192 ], [ 137.912910614999987, 35.595109008 ], [ 137.912991354000013, 35.595088415 ], [ 137.913018042, 35.595112393 ], [ 137.913066093, 35.595089733 ], [ 137.913165364, 35.59525048 ], [ 137.913246813, 35.595223267 ], [ 137.91322391700001, 35.5951325 ], [ 137.9132175, 35.595090611 ] ] ] } },
{ "type": "Feature", "properties": { "A29_001": "20402", "A29_002": "長野県", "A29_003": "松川町", "A29_004": 5, "A29_005": "第一種住居地域", "A29_006": 60, "A29_007": 200, "A29_008": null }, "geometry": { "type": "Polygon", "coordinates": [ [ [ 137.91203463799999, 35.595164134 ], [ 137.912084571, 35.595163662 ], [ 137.91212746, 35.595168164 ], [ 137.912193863999988, 35.595191383 ], [ 137.912249672, 35.595225998 ], [ 137.91279637, 35.595692521 ], [ 137.91266146000001, 35.595434178 ], [ 137.912661861, 35.595379328 ], [ 137.912181341, 35.594607862 ], [ 137.912066079999988, 35.59459776 ], [ 137.911934578, 35.59461262 ], [ 137.911816171, 35.594633506 ], [ 137.911709355999989, 35.594666373 ], [ 137.91159073899999, 35.594715876 ], [ 137.911510071, 35.594766757 ], [ 137.911426350999989, 35.59483551 ], [ 137.911364539, 35.594903177 ], [ 137.91130554099999, 35.594985167 ], [ 137.911266127, 35.595064391 ], [ 137.911232227999989, 35.595147935 ], [ 137.91121232899999, 35.595233693 ], [ 137.911203093000012, 35.595298755 ], [ 137.911230405, 35.595775626 ], [ 137.911230030000013, 35.595826899 ], [ 137.911218717999986, 35.595876329 ], [ 137.911198668999987, 35.595922737 ], [ 137.91112630399999, 35.596035665 ], [ 137.911388667000011, 35.596248889 ], [ 137.911422832999989, 35.596217222 ], [ 137.91154036099999, 35.595973917 ], [ 137.911895974, 35.595940797 ], [ 137.91191105199999, 35.595773106 ], [ 137.91189372299999, 35.595507584 ], [ 137.91187505799999, 35.595305017 ], [ 137.911893756000012, 35.595263612 ], [ 137.911922089, 35.595222253 ], [ 137.91195380100001, 35.595198082 ], [ 137.911985476000012, 35.595178919 ], [ 137.91203463799999, 35.595164134 ] ] ] } },
{ "type": "Feature", "properties": { "A29_001": "20402", "A29_002": "長野県", "A29_003": "松川町", "A29_004": 6, "A29_005": "第二種住居地域", "A29_006": 60, "A29_007": 200, "A29_008": null }, "geometry": { "type": "Polygon", "coordinates": [ [ [ 137.916153474, 35.594807172 ], [ 137.916477007999987, 35.594684725 ], [ 137.916856043, 35.595363865 ], [ 137.918354897, 35.594828549 ], [ 137.91838228099999, 35.594877571 ], [ 137.919096376, 35.594632222 ], [ 137.919010799, 35.594514474 ], [ 137.91845642199999, 35.594266062 ], [ 137.91807235499999, 35.594079141 ], [ 137.917695794999986, 35.593823571 ], [ 137.917323633, 35.59360618 ], [ 137.91712903199999, 35.593383922 ], [ 137.91693748599999, 35.593223685 ], [ 137.916682834, 35.593068867 ], [ 137.91663961099999, 35.593038806 ], [ 137.916648718, 35.592941826 ], [ 137.916290522999986, 35.592631441 ], [ 137.916078053, 35.592618964 ], [ 137.915968099999986, 35.592521605 ], [ 137.915929651, 35.592388343 ], [ 137.915915020999989, 35.592352498 ], [ 137.915836767, 35.592272703 ], [ 137.915798295, 35.592263215 ], [ 137.915777408, 35.592244512 ], [ 137.915767929, 35.592223002 ], [ 137.915762032, 35.592190778 ], [ 137.915729956, 35.592144832 ], [ 137.91564128499999, 35.592052108 ], [ 137.915536941999989, 35.591946428 ], [ 137.91550568, 35.591909073 ], [ 137.91548838599999, 35.591878224 ], [ 137.915484166999988, 35.591856024 ], [ 137.915491419, 35.591822432 ], [ 137.915502936, 35.591804602 ], [ 137.91553017699999, 35.591792571 ], [ 137.915527965, 35.591735323 ], [ 137.915498289, 35.59172087 ], [ 137.915452835999986, 35.591707771 ], [ 137.915398614, 35.591696061 ], [ 137.915367113, 35.591691615 ], [ 137.91531812, 35.591683507 ], [ 137.915288412, 35.591673347 ], [ 137.91515940799999, 35.591465952 ], [ 137.91520775399999, 35.591442576 ], [ 137.915034705000011, 35.59120921 ], [ 137.91483838900001, 35.590983602 ], [ 137.91477691, 35.591006198 ], [ 137.914660854, 35.590825338 ], [ 137.91452468599999, 35.59071998 ], [ 137.914511877, 35.590674605 ], [ 137.914509197, 35.5906418 ], [ 137.914496992000011, 35.590613718 ], [ 137.91447383900001, 35.590585583 ], [ 137.914415021, 35.590543562 ], [ 137.914489319000012, 35.590464626 ], [ 137.91450334699999, 35.590442634 ], [ 137.91450938599999, 35.590415237 ], [ 137.914511828, 35.590380668 ], [ 137.91450035299999, 35.59035259 ], [ 137.914488944, 35.590315569 ], [ 137.91446899799999, 35.590248099 ], [ 137.914468349, 35.590076504 ], [ 137.914438186000012, 35.589888429 ], [ 137.914393934, 35.589871043 ], [ 137.91430154299999, 35.589888719 ], [ 137.914279298, 35.589896243 ], [ 137.914219022999987, 35.589833943 ], [ 137.914240634, 35.589752962 ], [ 137.914203549, 35.58971367 ], [ 137.91416949399999, 35.589578997 ], [ 137.91415328299999, 35.589559839 ], [ 137.914112491999987, 35.589548193 ], [ 137.913928309, 35.589501508 ], [ 137.913825381, 35.589522948 ], [ 137.913621839, 35.589408438 ], [ 137.913213109, 35.589565282 ], [ 137.913358542999987, 35.589800662 ], [ 137.913201896, 35.589901495 ], [ 137.913080681, 35.589948126 ], [ 137.913319677, 35.590268742 ], [ 137.913471286, 35.590498429 ], [ 137.913717139, 35.591017144 ], [ 137.913895758, 35.590946466 ], [ 137.91398246, 35.591068517 ], [ 137.914576262, 35.59192042 ], [ 137.914846915, 35.5922425 ], [ 137.915261436, 35.592655904 ], [ 137.915598117, 35.59293299 ], [ 137.916220917, 35.593359639 ], [ 137.915952707, 35.593488047 ], [ 137.91582986099999, 35.593546861 ], [ 137.91536244400001, 35.593759667 ], [ 137.915317722, 35.593776806 ], [ 137.91527410099999, 35.593799 ], [ 137.91467628699999, 35.594103156 ], [ 137.914313083, 35.594287944 ], [ 137.914262916000013, 35.594308316 ], [ 137.914199528000012, 35.594334056 ], [ 137.914097806, 35.59438721 ], [ 137.914084333, 35.59439425 ], [ 137.913648384999988, 35.594622085 ], [ 137.913640601, 35.594626153 ], [ 137.91340330599999, 35.594750167 ], [ 137.913332575, 35.594799705 ], [ 137.913322556, 35.594806722 ], [ 137.913288666999989, 35.594854 ], [ 137.913279, 35.5948675 ], [ 137.913221333, 35.595028806 ], [ 137.9132175, 35.595090611 ], [ 137.91322391700001, 35.5951325 ], [ 137.913246813, 35.595223267 ], [ 137.913224767, 35.595278648 ], [ 137.91328295299999, 35.595407715 ], [ 137.91343744299999, 35.595643974 ], [ 137.913594889, 35.595875477 ], [ 137.91361577, 35.595914929 ], [ 137.913634484, 35.595951389 ], [ 137.91365020399999, 35.595997971 ], [ 137.91366427599999, 35.596070182 ], [ 137.913668938, 35.596131615 ], [ 137.913671528, 35.596176941 ], [ 137.913680043999989, 35.59621037 ], [ 137.913693521, 35.596264096 ], [ 137.913716932999989, 35.596316915 ], [ 137.913753243, 35.596382915 ], [ 137.913836583, 35.596486347 ], [ 137.913953083, 35.596607111 ], [ 137.914070575000011, 35.59671212 ], [ 137.914164774, 35.596607643 ], [ 137.916145892, 35.59565019 ], [ 137.91574020199999, 35.595023386 ], [ 137.916088667999986, 35.594885559 ], [ 137.916153474, 35.594807172 ] ] ] } },
{ "type": "Feature", "properties": { "A29_001": "20402", "A29_002": "長野県", "A29_003": "松川町", "A29_004": 1, "A29_005": "第一種低層住居専用地域", "A29_006": 50, "A29_007": 80, "A29_008": null }, "geometry": { "type": "Polygon", "coordinates": [ [ [ 137.913117860999989, 35.596239 ], [ 137.91291361099999, 35.595890806 ], [ 137.912825027999986, 35.595743611 ], [ 137.91279637, 35.595692521 ], [ 137.912249672, 35.595225998 ], [ 137.912193863999988, 35.595191383 ], [ 137.91212746, 35.595168164 ], [ 137.912084571, 35.595163662 ], [ 137.91203463799999, 35.595164134 ], [ 137.911985476000012, 35.595178919 ], [ 137.91195380100001, 35.595198082 ], [ 137.911922089, 35.595222253 ], [ 137.911893756000012, 35.595263612 ], [ 137.91187505799999, 35.595305017 ], [ 137.91189372299999, 35.595507584 ], [ 137.91191105199999, 35.595773106 ], [ 137.911895974, 35.595940797 ], [ 137.912048083, 35.595925861 ], [ 137.912195639, 35.595912556 ], [ 137.912316306, 35.596135444 ], [ 137.912333194000013, 35.596164333 ], [ 137.91245161099999, 35.596367028 ], [ 137.912490111000011, 35.596432944 ], [ 137.912495643999989, 35.596441338 ], [ 137.912719156, 35.596780369 ], [ 137.913451799, 35.596802218 ], [ 137.913117860999989, 35.596239 ] ] ] } },
{ "type": "Feature", "properties": { "A29_001": "20402", "A29_002": "長野県", "A29_003": "松川町", "A29_004": 8, "A29_005": "近隣商業地域", "A29_006": 80, "A29_007": 200, "A29_008": null }, "geometry": { "type": "Polygon", "coordinates": [ [ [ 137.916349403999988, 35.596212552 ], [ 137.916491650000012, 35.59616602 ], [ 137.916612195, 35.59645422 ], [ 137.917221232, 35.596301196 ], [ 137.91718046299999, 35.596205603 ], [ 137.917185452000012, 35.596161746 ], [ 137.917090132999988, 35.59593806 ], [ 137.918658706, 35.595394317 ], [ 137.91864492900001, 35.595361339 ], [ 137.919754992, 35.594970232 ], [ 137.919693775000013, 35.594875496 ], [ 137.919611342, 35.594807368 ], [ 137.919495055, 35.59473717 ], [ 137.919376376, 35.594674591 ], [ 137.919177264000012, 35.594590638 ], [ 137.919096376, 35.594632222 ], [ 137.91838228099999, 35.594877571 ], [ 137.918354897, 35.594828549 ], [ 137.916856043, 35.595363865 ], [ 137.916477007999987, 35.594684725 ], [ 137.916153474, 35.594807172 ], [ 137.916088667999986, 35.594885559 ], [ 137.91574020199999, 35.595023386 ], [ 137.916145892, 35.59565019 ], [ 137.914164774, 35.596607643 ], [ 137.914070575000011, 35.59671212 ], [ 137.914379868999987, 35.596902506 ], [ 137.914342078, 35.596959559 ], [ 137.914746278, 35.597268194 ], [ 137.91496044499999, 35.597068081 ], [ 137.914846630999989, 35.597000144 ], [ 137.916349403999988, 35.596212552 ] ] ] } },
{ "type": "Feature", "properties": { "A29_001": "20402", "A29_002": "長野県", "A29_003": "松川町", "A29_004": 6, "A29_005": "第二種住居地域", "A29_006": 60, "A29_007": 200, "A29_008": null }, "geometry": { "type": "Polygon", "coordinates": [ [ [ 137.911803889, 35.597371472 ], [ 137.911953950999987, 35.59735026 ], [ 137.912041861, 35.597337833 ], [ 137.91216075, 35.597300944 ], [ 137.912257047, 35.597269731 ], [ 137.91231372199999, 35.597251361 ], [ 137.912457889, 35.597200417 ], [ 137.912563833, 35.597162833 ], [ 137.912588, 35.597153111 ], [ 137.912613986, 35.597139455 ], [ 137.91263319399999, 35.597129361 ], [ 137.91263733299999, 35.597128 ], [ 137.91274247199999, 35.597070222 ], [ 137.912911888999986, 35.597070778 ], [ 137.912719156, 35.596780369 ], [ 137.912495643999989, 35.596441338 ], [ 137.912490111000011, 35.596432944 ], [ 137.91245161099999, 35.596367028 ], [ 137.912333194000013, 35.596164333 ], [ 137.912316306, 35.596135444 ], [ 137.912195639, 35.595912556 ], [ 137.912048083, 35.595925861 ], [ 137.911895974, 35.595940797 ], [ 137.91154036099999, 35.595973917 ], [ 137.911422832999989, 35.596217222 ], [ 137.911388667000011, 35.596248889 ], [ 137.91112630399999, 35.596035665 ], [ 137.910933429000011, 35.595878393 ], [ 137.910510769000012, 35.596514993 ], [ 137.909697813, 35.596423254 ], [ 137.909529674, 35.596416707 ], [ 137.909371806, 35.596456361 ], [ 137.909380674, 35.596725067 ], [ 137.909257873, 35.59674736 ], [ 137.909122567, 35.596802503 ], [ 137.90901316899999, 35.597314225 ], [ 137.909011692, 35.597426797 ], [ 137.90914277499999, 35.597390236 ], [ 137.909679264, 35.597496846 ], [ 137.910196509, 35.597361055 ], [ 137.910356852, 35.59747536 ], [ 137.910416222, 35.597502361 ], [ 137.910566781, 35.597517407 ], [ 137.9108759, 35.597527144 ], [ 137.910881722, 35.597553028 ], [ 137.910932333, 35.597567083 ], [ 137.911338472000011, 35.597520278 ], [ 137.911375639, 35.597514444 ], [ 137.911397416999989, 35.597508861 ], [ 137.911413083000014, 35.597505278 ], [ 137.91142675, 35.597501278 ], [ 137.911565360999987, 35.597449333 ], [ 137.911732417, 35.597380917 ], [ 137.911760750000013, 35.597375806 ], [ 137.911803889, 35.597371472 ] ] ] } },
{ "type": "Feature", "properties": { "A29_001": "20402", "A29_002": "長野県", "A29_003": "松川町", "A29_004": 1, "A29_005": "第一種低層住居専用地域", "A29_006": 50, "A29_007": 80, "A29_008": null }, "geometry": { "type": "Polygon", "coordinates": [ [ [ 137.912332987000013, 35.594851329 ], [ 137.912578943999989, 35.594737641 ], [ 137.912159828999989, 35.594074509 ], [ 137.91205098, 35.593866494 ], [ 137.911958282, 35.593613546 ], [ 137.911905537, 35.593622011 ], [ 137.91183778300001, 35.593464279 ], [ 137.911826233, 35.593446693 ], [ 137.91180528000001, 35.593437052 ], [ 137.91178426499999, 35.593435995 ], [ 137.91175138599999, 35.593449938 ], [ 137.911747698, 35.593485422 ], [ 137.91174385299999, 35.593532147 ], [ 137.911734209, 35.59357312 ], [ 137.911725396, 35.593600384 ], [ 137.91171022099999, 35.59361182 ], [ 137.91168577900001, 35.593627735 ], [ 137.911663779, 35.59364158 ], [ 137.91116284099999, 35.59380679 ], [ 137.91107804, 35.593824024 ], [ 137.911087261, 35.593840763 ], [ 137.911100696, 35.593920007 ], [ 137.911116607, 35.594059838 ], [ 137.911124863, 35.594128563 ], [ 137.911100586, 35.594333663 ], [ 137.910987483000014, 35.594905958 ], [ 137.910980727, 35.5951307 ], [ 137.910222906, 35.595205774 ], [ 137.909585603000011, 35.594614781 ], [ 137.90890331899999, 35.593788853 ], [ 137.908622997, 35.593196028 ], [ 137.908019532, 35.593466353 ], [ 137.907429142000012, 35.593743455 ], [ 137.90708888899999, 35.593954036 ], [ 137.90652619799999, 35.594236259 ], [ 137.90604019, 35.594611868 ], [ 137.905967995, 35.594700945 ], [ 137.905898455999989, 35.594825808 ], [ 137.905861289, 35.59491625 ], [ 137.905800147, 35.595090045 ], [ 137.905745391000011, 35.59518994 ], [ 137.905681982, 35.595275483 ], [ 137.90557306, 35.595395382 ], [ 137.905487529, 35.595477149 ], [ 137.905414404, 35.595528152 ], [ 137.905222775, 35.595776426 ], [ 137.905136261, 35.595827274 ], [ 137.905403602, 35.59618707 ], [ 137.905551695000014, 35.596507821 ], [ 137.905634897, 35.596707369 ], [ 137.905674312, 35.596905508 ], [ 137.905668689, 35.597073614 ], [ 137.905631755, 35.597329806 ], [ 137.905527586, 35.597596398 ], [ 137.905493258, 35.597697586 ], [ 137.90548191, 35.597850162 ], [ 137.905501273, 35.597995735 ], [ 137.90553223, 35.598129404 ], [ 137.90558991099999, 35.598250161 ], [ 137.905634490000011, 35.598342199 ], [ 137.90778445399999, 35.597179211 ], [ 137.907575971999989, 35.596975444 ], [ 137.907527538000011, 35.596925446 ], [ 137.907265443999989, 35.596654889 ], [ 137.907191316, 35.59657838 ], [ 137.90705177800001, 35.596434361 ], [ 137.90698579, 35.59636273 ], [ 137.90651924, 35.596276485 ], [ 137.9062132, 35.595442608 ], [ 137.906566222, 35.595322083 ], [ 137.906593832999988, 35.595318389 ], [ 137.90669875, 35.595303861 ], [ 137.906744306, 35.595294722 ], [ 137.906798944, 35.595280972 ], [ 137.906817889, 35.595275639 ], [ 137.906896917000012, 35.595249639 ], [ 137.90704702799999, 35.595191 ], [ 137.907092699, 35.595169481 ], [ 137.90709429, 35.595168731 ], [ 137.907169417, 35.595133333 ], [ 137.90721230599999, 35.59510675 ], [ 137.907272667, 35.595104222 ], [ 137.907406556000012, 35.595016361 ], [ 137.907505194, 35.59497 ], [ 137.90754799699999, 35.594946252 ], [ 137.90757568699999, 35.594930889 ], [ 137.90769013900001, 35.594867389 ], [ 137.907904056, 35.59474875 ], [ 137.908082349000011, 35.594651009 ], [ 137.908090472, 35.594646556 ], [ 137.908112861, 35.594649667 ], [ 137.908114434999987, 35.594651167 ], [ 137.908333333, 35.59485975 ], [ 137.908408944, 35.594933778 ], [ 137.908460561999988, 35.594984589 ], [ 137.908562792999987, 35.595085222 ], [ 137.908906567, 35.595423621 ], [ 137.908906841, 35.595423891 ], [ 137.908600552, 35.595602257 ], [ 137.908695943999987, 35.595703583 ], [ 137.908986535, 35.595912795 ], [ 137.909058570000013, 35.595975114 ], [ 137.909121270000014, 35.596025504 ], [ 137.90916640899999, 35.596081531 ], [ 137.909371806, 35.596456361 ], [ 137.909529674, 35.596416707 ], [ 137.909697813, 35.596423254 ], [ 137.910510769000012, 35.596514993 ], [ 137.910933429000011, 35.595878393 ], [ 137.91112630399999, 35.596035665 ], [ 137.911198668999987, 35.595922737 ], [ 137.911218717999986, 35.595876329 ], [ 137.911230030000013, 35.595826899 ], [ 137.911230405, 35.595775626 ], [ 137.911203093000012, 35.595298755 ], [ 137.91121232899999, 35.595233693 ], [ 137.911232227999989, 35.595147935 ], [ 137.911266127, 35.595064391 ], [ 137.91130554099999, 35.594985167 ], [ 137.911364539, 35.594903177 ], [ 137.911426350999989, 35.59483551 ], [ 137.911510071, 35.594766757 ], [ 137.91159073899999, 35.594715876 ], [ 137.911709355999989, 35.594666373 ], [ 137.911816171, 35.594633506 ], [ 137.911934578, 35.59461262 ], [ 137.912066079999988, 35.59459776 ], [ 137.912181341, 35.594607862 ], [ 137.912332987000013, 35.594851329 ] ] ] } },
{ "type": "Feature", "properties": { "A29_001": "20402", "A29_002": "長野県", "A29_003": "松川町", "A29_004": 10, "A29_005": "準工業地域", "A29_006": 60, "A29_007": 200, "A29_008": null }, "geometry": { "type": "Polygon", "coordinates": [ [ [ 137.913224767, 35.595278648 ], [ 137.913246813, 35.595223267 ], [ 137.913165364, 35.59525048 ], [ 137.913066093, 35.595089733 ], [ 137.913018042, 35.595112393 ], [ 137.912991354000013, 35.595088415 ], [ 137.912910614999987, 35.595109008 ], [ 137.912642199, 35.594712192 ], [ 137.912578943999989, 35.594737641 ], [ 137.912332987000013, 35.594851329 ], [ 137.912661861, 35.595379328 ], [ 137.91266146000001, 35.595434178 ], [ 137.91279637, 35.595692521 ], [ 137.912825027999986, 35.595743611 ], [ 137.91291361099999, 35.595890806 ], [ 137.913117860999989, 35.596239 ], [ 137.913451799, 35.596802218 ], [ 137.91350445899999, 35.596948429 ], [ 137.91351967599999, 35.597103997 ], [ 137.913864718000013, 35.597197255 ], [ 137.91413346600001, 35.597502395 ], [ 137.9144042, 35.597855719 ], [ 137.914655562, 35.598223257 ], [ 137.914838944, 35.598543244 ], [ 137.915023356, 35.598481179 ], [ 137.915595028000013, 35.598216703 ], [ 137.915716529, 35.598158884 ], [ 137.915337921, 35.597821973 ], [ 137.91505239599999, 35.597534402 ], [ 137.914746278, 35.597268194 ], [ 137.914342078, 35.596959559 ], [ 137.914379868999987, 35.596902506 ], [ 137.914070575000011, 35.59671212 ], [ 137.913953083, 35.596607111 ], [ 137.913836583, 35.596486347 ], [ 137.913753243, 35.596382915 ], [ 137.913716932999989, 35.596316915 ], [ 137.913693521, 35.596264096 ], [ 137.913680043999989, 35.59621037 ], [ 137.913671528, 35.596176941 ], [ 137.913668938, 35.596131615 ], [ 137.91366427599999, 35.596070182 ], [ 137.91365020399999, 35.595997971 ], [ 137.913634484, 35.595951389 ], [ 137.91361577, 35.595914929 ], [ 137.913594889, 35.595875477 ], [ 137.91343744299999, 35.595643974 ], [ 137.91328295299999, 35.595407715 ], [ 137.913224767, 35.595278648 ] ] ] } },
{ "type": "Feature", "properties": { "A29_001": "20402", "A29_002": "長野県", "A29_003": "松川町", "A29_004": 5, "A29_005": "第一種住居地域", "A29_006": 60, "A29_007": 200, "A29_008": null }, "geometry": { "type": "Polygon", "coordinates": [ [ [ 137.907997392999988, 35.597420741 ], [ 137.90778445399999, 35.597179211 ], [ 137.905634490000011, 35.598342199 ], [ 137.905932173, 35.598747504 ], [ 137.90578551499999, 35.598950305 ], [ 137.906759074, 35.598430998 ], [ 137.907559357999986, 35.598006849 ], [ 137.907478157000014, 35.59770319 ], [ 137.907523472, 35.597679528 ], [ 137.907980017999989, 35.597430229 ], [ 137.907997392999988, 35.597420741 ] ] ] } },
{ "type": "Feature", "properties": { "A29_001": "20402", "A29_002": "長野県", "A29_003": "松川町", "A29_004": 3, "A29_005": "第一種中高層住居専用地域", "A29_006": 60, "A29_007": 200, "A29_008": null }, "geometry": { "type": "Polygon", "coordinates": [ [ [ 137.910416222, 35.597502361 ], [ 137.910356852, 35.59747536 ], [ 137.910196509, 35.597361055 ], [ 137.909679264, 35.597496846 ], [ 137.90914277499999, 35.597390236 ], [ 137.909011692, 35.597426797 ], [ 137.90901316899999, 35.597314225 ], [ 137.909122567, 35.596802503 ], [ 137.909257873, 35.59674736 ], [ 137.909380674, 35.596725067 ], [ 137.909371806, 35.596456361 ], [ 137.90916640899999, 35.596081531 ], [ 137.909121270000014, 35.596025504 ], [ 137.909058570000013, 35.595975114 ], [ 137.908986535, 35.595912795 ], [ 137.908695943999987, 35.595703583 ], [ 137.908600552, 35.595602257 ], [ 137.908906841, 35.595423891 ], [ 137.908906567, 35.595423621 ], [ 137.908562792999987, 35.595085222 ], [ 137.908460561999988, 35.594984589 ], [ 137.908408944, 35.594933778 ], [ 137.908333333, 35.59485975 ], [ 137.908114434999987, 35.594651167 ], [ 137.908112861, 35.594649667 ], [ 137.908090472, 35.594646556 ], [ 137.908082349000011, 35.594651009 ], [ 137.907904056, 35.59474875 ], [ 137.90769013900001, 35.594867389 ], [ 137.90757568699999, 35.594930889 ], [ 137.90754799699999, 35.594946252 ], [ 137.907505194, 35.59497 ], [ 137.907406556000012, 35.595016361 ], [ 137.907272667, 35.595104222 ], [ 137.90721230599999, 35.59510675 ], [ 137.907169417, 35.595133333 ], [ 137.90709429, 35.595168731 ], [ 137.907092699, 35.595169481 ], [ 137.90704702799999, 35.595191 ], [ 137.906896917000012, 35.595249639 ], [ 137.906817889, 35.595275639 ], [ 137.906798944, 35.595280972 ], [ 137.906744306, 35.595294722 ], [ 137.90669875, 35.595303861 ], [ 137.906593832999988, 35.595318389 ], [ 137.906566222, 35.595322083 ], [ 137.9062132, 35.595442608 ], [ 137.90651924, 35.596276485 ], [ 137.90698579, 35.59636273 ], [ 137.90705177800001, 35.596434361 ], [ 137.907191316, 35.59657838 ], [ 137.907265443999989, 35.596654889 ], [ 137.907527538000011, 35.596925446 ], [ 137.907575971999989, 35.596975444 ], [ 137.90778445399999, 35.597179211 ], [ 137.907997392999988, 35.597420741 ], [ 137.907980017999989, 35.597430229 ], [ 137.907523472, 35.597679528 ], [ 137.907478157000014, 35.59770319 ], [ 137.907559357999986, 35.598006849 ], [ 137.906759074, 35.598430998 ], [ 137.906820848, 35.598699302 ], [ 137.90698634099999, 35.598728735 ], [ 137.907074521999988, 35.598748844 ], [ 137.907121139999987, 35.598762787 ], [ 137.907180118000014, 35.598783348 ], [ 137.90723252699999, 35.598803877 ], [ 137.907290046000014, 35.598824432 ], [ 137.907335221000011, 35.598835982 ], [ 137.90746435599999, 35.598846157 ], [ 137.9076741, 35.598849634 ], [ 137.90768044399999, 35.598883167 ], [ 137.90798941700001, 35.599455778 ], [ 137.90799801899999, 35.599476347 ], [ 137.90802750099999, 35.599546838 ], [ 137.908113250000014, 35.599751861 ], [ 137.908211806, 35.6 ], [ 137.908273556000012, 35.600155444 ], [ 137.908320371, 35.600193047 ], [ 137.908372727, 35.600220969 ], [ 137.908458883, 35.600258596 ], [ 137.908564987, 35.600283919 ], [ 137.908779728000013, 35.600307868 ], [ 137.90874664, 35.600352009 ], [ 137.90896570699999, 35.600343544 ], [ 137.909123499, 35.600328816 ], [ 137.909303286000011, 35.600301079 ], [ 137.90943525, 35.600256531 ], [ 137.909896578, 35.600091255 ], [ 137.91007078199999, 35.600042772 ], [ 137.910319794, 35.599958104 ], [ 137.910618489, 35.599842229 ], [ 137.911580140000012, 35.599513607 ], [ 137.911567861, 35.599489583 ], [ 137.9115545, 35.599453778 ], [ 137.911535778, 35.599427778 ], [ 137.911365674, 35.599084986 ], [ 137.91133280599999, 35.59901875 ], [ 137.911288500000012, 35.598913583 ], [ 137.911239028000011, 35.598743194 ], [ 137.91113113899999, 35.598363639 ], [ 137.911093778, 35.598244833 ], [ 137.910881722, 35.597553028 ], [ 137.9108759, 35.597527144 ], [ 137.910566781, 35.597517407 ], [ 137.910416222, 35.597502361 ] ] ] } },
{ "type": "Feature", "properties": { "A29_001": "20402", "A29_002": "長野県", "A29_003": "松川町", "A29_004": 1, "A29_005": "第一種低層住居専用地域", "A29_006": 50, "A29_007": 80, "A29_008": null }, "geometry": { "type": "Polygon", "coordinates": [ [ [ 137.91949284399999, 35.597748571 ], [ 137.919040795, 35.596905247 ], [ 137.918349850999988, 35.597199547 ], [ 137.918357829, 35.597224607 ], [ 137.91889321299999, 35.598893975 ], [ 137.918133307, 35.599313862 ], [ 137.918602222, 35.600369287 ], [ 137.918629312, 35.600499632 ], [ 137.918560716, 35.601505242 ], [ 137.91857310099999, 35.601609759 ], [ 137.918710377, 35.601889342 ], [ 137.91885465499999, 35.601759219 ], [ 137.919048892, 35.601550525 ], [ 137.919344314999989, 35.601171108 ], [ 137.919539504, 35.600830057 ], [ 137.919697828000011, 35.600498845 ], [ 137.919837086, 35.600057836 ], [ 137.919883191, 35.599819571 ], [ 137.919917868999988, 35.599553745 ], [ 137.919923907, 35.599194929 ], [ 137.91989351699999, 35.598874255 ], [ 137.919811957, 35.598522808 ], [ 137.91974819, 35.598295461 ], [ 137.919651872, 35.59804697 ], [ 137.91949284399999, 35.597748571 ] ] ] } },
{ "type": "Feature", "properties": { "A29_001": "20402", "A29_002": "長野県", "A29_003": "松川町", "A29_004": 1, "A29_005": "第一種低層住居専用地域", "A29_006": 50, "A29_007": 80, "A29_008": null }, "geometry": { "type": "Polygon", "coordinates": [ [ [ 137.92070300099999, 35.598662843 ], [ 137.920556957, 35.598506885 ], [ 137.920509479, 35.598530983 ], [ 137.920583456, 35.598862311 ], [ 137.920613392, 35.599165334 ], [ 137.92061364700001, 35.599534992 ], [ 137.920588345999988, 35.599804361 ], [ 137.92053040799999, 35.60014512 ], [ 137.920440453999987, 35.600471415 ], [ 137.92030943, 35.600823747 ], [ 137.920128729999988, 35.601180609 ], [ 137.919939699, 35.601477809 ], [ 137.919609559, 35.601905497 ], [ 137.919452310999986, 35.602062905 ], [ 137.919630227, 35.602055177 ], [ 137.919779272999989, 35.602038604 ], [ 137.919916046999987, 35.602002893 ], [ 137.920086577, 35.601942899 ], [ 137.920341543, 35.601815939 ], [ 137.920816593000012, 35.601539749 ], [ 137.92117528, 35.601364038 ], [ 137.92150582299999, 35.601203453 ], [ 137.9218153, 35.601048491 ], [ 137.921848345, 35.60083878 ], [ 137.921813996999987, 35.600580095 ], [ 137.921756076, 35.600350869 ], [ 137.921722603, 35.600295379 ], [ 137.921235332, 35.599837051 ], [ 137.921841949, 35.599454567 ], [ 137.921759572000013, 35.599377855 ], [ 137.921540123999989, 35.599277393 ], [ 137.921160891, 35.599063795 ], [ 137.920905312, 35.598871776 ], [ 137.92070300099999, 35.598662843 ] ] ] } },
{ "type": "Feature", "properties": { "A29_001": "20402", "A29_002": "長野県", "A29_003": "松川町", "A29_004": 6, "A29_005": "第二種住居地域", "A29_006": 60, "A29_007": 200, "A29_008": null }, "geometry": { "type": "Polygon", "coordinates": [ [ [ 137.918663916000014, 35.601973308 ], [ 137.918692916999987, 35.60196057 ], [ 137.918725314, 35.601962873 ], [ 137.918746223999989, 35.601978714 ], [ 137.91879892099999, 35.602081279 ], [ 137.918828115999986, 35.602162983 ], [ 137.919126876, 35.602158699 ], [ 137.91916346299999, 35.602146951 ], [ 137.919219828, 35.602125759 ], [ 137.919284997, 35.602098647 ], [ 137.91932382499999, 35.602079755 ], [ 137.919385971, 35.602066938 ], [ 137.919452310999986, 35.602062905 ], [ 137.919609559, 35.601905497 ], [ 137.919939699, 35.601477809 ], [ 137.920128729999988, 35.601180609 ], [ 137.92030943, 35.600823747 ], [ 137.920440453999987, 35.600471415 ], [ 137.92053040799999, 35.60014512 ], [ 137.920588345999988, 35.599804361 ], [ 137.92061364700001, 35.599534992 ], [ 137.920613392, 35.599165334 ], [ 137.920583456, 35.598862311 ], [ 137.920509479, 35.598530983 ], [ 137.920452675, 35.598512107 ], [ 137.92039787600001, 35.598458184 ], [ 137.920326447, 35.598359225 ], [ 137.920297223, 35.598324624 ], [ 137.920267029, 35.598260087 ], [ 137.92014561, 35.598212282 ], [ 137.920035868000014, 35.597927104 ], [ 137.919911557, 35.597673232 ], [ 137.91978887499999, 35.597436538 ], [ 137.919670571000012, 35.596714781 ], [ 137.919672736, 35.596657555 ], [ 137.919681319, 35.59643938 ], [ 137.919752784, 35.595883093 ], [ 137.919799374, 35.595496252 ], [ 137.919829913, 35.595270133 ], [ 137.91980851400001, 35.595160326 ], [ 137.919792755, 35.59507821 ], [ 137.91977681099999, 35.59502185 ], [ 137.919754992, 35.594970232 ], [ 137.91864492900001, 35.595361339 ], [ 137.918658706, 35.595394317 ], [ 137.917090132999988, 35.59593806 ], [ 137.917185452000012, 35.596161746 ], [ 137.91718046299999, 35.596205603 ], [ 137.917221232, 35.596301196 ], [ 137.916612195, 35.59645422 ], [ 137.916491650000012, 35.59616602 ], [ 137.916349403999988, 35.596212552 ], [ 137.914846630999989, 35.597000144 ], [ 137.91496044499999, 35.597068081 ], [ 137.914746278, 35.597268194 ], [ 137.91505239599999, 35.597534402 ], [ 137.915337921, 35.597821973 ], [ 137.915716529, 35.598158884 ], [ 137.915595028000013, 35.598216703 ], [ 137.915887459, 35.598559158 ], [ 137.916251111, 35.5984945 ], [ 137.916332778, 35.598475417 ], [ 137.916366504, 35.598467976 ], [ 137.916654056, 35.598404528 ], [ 137.916666666999987, 35.598401833 ], [ 137.91677741699999, 35.598378056 ], [ 137.91688677799999, 35.598359667 ], [ 137.916960361, 35.598337056 ], [ 137.917004444000014, 35.598319722 ], [ 137.917220415, 35.598218766 ], [ 137.917387281, 35.598140763 ], [ 137.917534917000012, 35.59807175 ], [ 137.917489528, 35.597942694 ], [ 137.91738125, 35.597652861 ], [ 137.917616298000013, 35.597550868 ], [ 137.917760300999987, 35.597488382 ], [ 137.918220166999987, 35.597288833 ], [ 137.91833069399999, 35.597236444 ], [ 137.918355045, 35.597225821 ], [ 137.918357829, 35.597224607 ], [ 137.918349850999988, 35.597199547 ], [ 137.919040795, 35.596905247 ], [ 137.91949284399999, 35.597748571 ], [ 137.919651872, 35.59804697 ], [ 137.91974819, 35.598295461 ], [ 137.919811957, 35.598522808 ], [ 137.91989351699999, 35.598874255 ], [ 137.919923907, 35.599194929 ], [ 137.919917868999988, 35.599553745 ], [ 137.919883191, 35.599819571 ], [ 137.919837086, 35.600057836 ], [ 137.919697828000011, 35.600498845 ], [ 137.919539504, 35.600830057 ], [ 137.919344314999989, 35.601171108 ], [ 137.919048892, 35.601550525 ], [ 137.91885465499999, 35.601759219 ], [ 137.918710377, 35.601889342 ], [ 137.918717840999989, 35.601904543 ], [ 137.918079312, 35.602582939 ], [ 137.918161946999987, 35.602578314 ], [ 137.918237583, 35.602557056 ], [ 137.9183555, 35.602508917 ], [ 137.918440972000013, 35.60244375 ], [ 137.918494942, 35.602399624 ], [ 137.91852458299999, 35.602375389 ], [ 137.918591222, 35.602307028 ], [ 137.91861408299999, 35.6022755 ], [ 137.918639318, 35.602225033 ], [ 137.91863992399999, 35.602141326 ], [ 137.918644085000011, 35.602050483 ], [ 137.918651538, 35.601988989 ], [ 137.918663916000014, 35.601973308 ] ] ] } },
{ "type": "Feature", "properties": { "A29_001": "20402", "A29_002": "長野県", "A29_003": "松川町", "A29_004": 5, "A29_005": "第一種住居地域", "A29_006": 60, "A29_007": 200, "A29_008": null }, "geometry": { "type": "Polygon", "coordinates": [ [ [ 137.91889321299999, 35.598893975 ], [ 137.918357829, 35.597224607 ], [ 137.918355045, 35.597225821 ], [ 137.91833069399999, 35.597236444 ], [ 137.918220166999987, 35.597288833 ], [ 137.917760300999987, 35.597488382 ], [ 137.917616298000013, 35.597550868 ], [ 137.91738125, 35.597652861 ], [ 137.917489528, 35.597942694 ], [ 137.917534917000012, 35.59807175 ], [ 137.917387281, 35.598140763 ], [ 137.917220415, 35.598218766 ], [ 137.917004444000014, 35.598319722 ], [ 137.916960361, 35.598337056 ], [ 137.91688677799999, 35.598359667 ], [ 137.91677741699999, 35.598378056 ], [ 137.916666666999987, 35.598401833 ], [ 137.916654056, 35.598404528 ], [ 137.916366504, 35.598467976 ], [ 137.916332778, 35.598475417 ], [ 137.916251111, 35.5984945 ], [ 137.915887459, 35.598559158 ], [ 137.917850449000014, 35.600874833 ], [ 137.918043782000012, 35.601093506 ], [ 137.918156253, 35.601288655 ], [ 137.918221389, 35.601487868 ], [ 137.91826750199999, 35.601652647 ], [ 137.91827894799999, 35.601765745 ], [ 137.91828299299999, 35.601933183 ], [ 137.91825203799999, 35.602094728 ], [ 137.918207026, 35.602261929 ], [ 137.918150091, 35.602381852 ], [ 137.918013202999987, 35.602588822 ], [ 137.918079312, 35.602582939 ], [ 137.918717840999989, 35.601904543 ], [ 137.91857310099999, 35.601609759 ], [ 137.918560716, 35.601505242 ], [ 137.918629312, 35.600499632 ], [ 137.918602222, 35.600369287 ], [ 137.918133307, 35.599313862 ], [ 137.91889321299999, 35.598893975 ] ] ] } },
{ "type": "Feature", "properties": { "A29_001": "20402", "A29_002": "長野県", "A29_003": "松川町", "A29_004": 1, "A29_005": "第一種低層住居専用地域", "A29_006": 50, "A29_007": 80, "A29_008": null }, "geometry": { "type": "Polygon", "coordinates": [ [ [ 137.915887459, 35.598559158 ], [ 137.915595028000013, 35.598216703 ], [ 137.915023356, 35.598481179 ], [ 137.914838944, 35.598543244 ], [ 137.914655562, 35.598223257 ], [ 137.9144042, 35.597855719 ], [ 137.91413346600001, 35.597502395 ], [ 137.913786859, 35.597411333 ], [ 137.912906591, 35.599276791 ], [ 137.91282288299999, 35.599543489 ], [ 137.91267044899999, 35.600263933 ], [ 137.912627216, 35.600425893 ], [ 137.912504498, 35.600635999 ], [ 137.912778272, 35.601133387 ], [ 137.913096266, 35.601573754 ], [ 137.913514292, 35.602112386 ], [ 137.91439607699999, 35.602606289 ], [ 137.915358722, 35.603262972 ], [ 137.915683833, 35.60349399 ], [ 137.915888773, 35.603713504 ], [ 137.916151797, 35.603684967 ], [ 137.91656734099999, 35.603564159 ], [ 137.91679725, 35.603471069 ], [ 137.917073052, 35.603291153 ], [ 137.917536407999989, 35.602952357 ], [ 137.917952203999988, 35.602594249 ], [ 137.918013202999987, 35.602588822 ], [ 137.918150091, 35.602381852 ], [ 137.918207026, 35.602261929 ], [ 137.91825203799999, 35.602094728 ], [ 137.91828299299999, 35.601933183 ], [ 137.91827894799999, 35.601765745 ], [ 137.91826750199999, 35.601652647 ], [ 137.918221389, 35.601487868 ], [ 137.918156253, 35.601288655 ], [ 137.918043782000012, 35.601093506 ], [ 137.917850449000014, 35.600874833 ], [ 137.915887459, 35.598559158 ] ] ] } },
{ "type": "Feature", "properties": { "A29_001": "20402", "A29_002": "長野県", "A29_003": "松川町", "A29_004": 12, "A29_005": "工業専用地域", "A29_006": 60, "A29_007": 200, "A29_008": null }, "geometry": { "type": "Polygon", "coordinates": [ [ [ 137.915044736999988, 35.603334341 ], [ 137.914177276, 35.602756565 ], [ 137.913322201999989, 35.602283777 ], [ 137.912859534, 35.601700329 ], [ 137.912026112, 35.602182399 ], [ 137.911900153, 35.602036545 ], [ 137.911902699, 35.602007939 ], [ 137.911811336999989, 35.60192283 ], [ 137.911632677999989, 35.602195026 ], [ 137.911475251000013, 35.602358814 ], [ 137.911142977999987, 35.602074583 ], [ 137.91122834, 35.60198199 ], [ 137.910936442, 35.601767117 ], [ 137.91090552, 35.601802739 ], [ 137.91032603, 35.601383744 ], [ 137.909896435, 35.601850758 ], [ 137.909710256000011, 35.601731306 ], [ 137.909763551999987, 35.601631402 ], [ 137.908710832999986, 35.601435451 ], [ 137.908552944, 35.6020675 ], [ 137.90813857, 35.60307741 ], [ 137.908103116, 35.603133281 ], [ 137.907558544000011, 35.603326164 ], [ 137.908108879999986, 35.604234077 ], [ 137.908097741, 35.60425966 ], [ 137.908195122, 35.604419329 ], [ 137.908288053, 35.604423323 ], [ 137.90881174399999, 35.603894066 ], [ 137.909654445, 35.604300764 ], [ 137.909700492000013, 35.604233736 ], [ 137.909818562999988, 35.604141305 ], [ 137.91019302399999, 35.603731032 ], [ 137.910214247999988, 35.603703948 ], [ 137.910557073, 35.603306398 ], [ 137.91074237699999, 35.603443242 ], [ 137.910913623, 35.603665395 ], [ 137.911006972, 35.603791972 ], [ 137.91172008800001, 35.604736946 ], [ 137.911735854, 35.604727383 ], [ 137.912031332999987, 35.604574285 ], [ 137.912208252, 35.60450074 ], [ 137.912518404, 35.604417351 ], [ 137.912885888, 35.604320886 ], [ 137.913309297000012, 35.60424377 ], [ 137.914571566, 35.603981849 ], [ 137.914765953, 35.603915063 ], [ 137.914565212000014, 35.60361939 ], [ 137.915044736999988, 35.603334341 ] ] ] } },
{ "type": "Feature", "properties": { "A29_001": "20402", "A29_002": "長野県", "A29_003": "松川町", "A29_004": 5, "A29_005": "第一種住居地域", "A29_006": 60, "A29_007": 200, "A29_008": null }, "geometry": { "type": "Polygon", "coordinates": [ [ [ 137.91172008800001, 35.604736946 ], [ 137.911006972, 35.603791972 ], [ 137.910913623, 35.603665395 ], [ 137.91074237699999, 35.603443242 ], [ 137.910557073, 35.603306398 ], [ 137.910214247999988, 35.603703948 ], [ 137.91019302399999, 35.603731032 ], [ 137.909818562999988, 35.604141305 ], [ 137.909700492000013, 35.604233736 ], [ 137.909654445, 35.604300764 ], [ 137.90881174399999, 35.603894066 ], [ 137.908288053, 35.604423323 ], [ 137.908195122, 35.604419329 ], [ 137.908097741, 35.60425966 ], [ 137.908108879999986, 35.604234077 ], [ 137.907558544000011, 35.603326164 ], [ 137.908103116, 35.603133281 ], [ 137.90813857, 35.60307741 ], [ 137.908552944, 35.6020675 ], [ 137.908710832999986, 35.601435451 ], [ 137.909763551999987, 35.601631402 ], [ 137.909710256000011, 35.601731306 ], [ 137.909896435, 35.601850758 ], [ 137.91032603, 35.601383744 ], [ 137.91090552, 35.601802739 ], [ 137.910936442, 35.601767117 ], [ 137.91122834, 35.60198199 ], [ 137.911142977999987, 35.602074583 ], [ 137.911475251000013, 35.602358814 ], [ 137.911632677999989, 35.602195026 ], [ 137.911811336999989, 35.60192283 ], [ 137.911902699, 35.602007939 ], [ 137.911900153, 35.602036545 ], [ 137.912026112, 35.602182399 ], [ 137.912859534, 35.601700329 ], [ 137.913322201999989, 35.602283777 ], [ 137.914177276, 35.602756565 ], [ 137.915044736999988, 35.603334341 ], [ 137.914565212000014, 35.60361939 ], [ 137.914765953, 35.603915063 ], [ 137.915441173, 35.603624285 ], [ 137.915594871, 35.603771701 ], [ 137.915637229, 35.603769521 ], [ 137.915888773, 35.603713504 ], [ 137.915683833, 35.60349399 ], [ 137.915358722, 35.603262972 ], [ 137.91439607699999, 35.602606289 ], [ 137.913514292, 35.602112386 ], [ 137.913096266, 35.601573754 ], [ 137.912778272, 35.601133387 ], [ 137.912504498, 35.600635999 ], [ 137.912627216, 35.600425893 ], [ 137.91267044899999, 35.600263933 ], [ 137.91282288299999, 35.599543489 ], [ 137.912906591, 35.599276791 ], [ 137.913786859, 35.597411333 ], [ 137.91413346600001, 35.597502395 ], [ 137.913864718000013, 35.597197255 ], [ 137.91351967599999, 35.597103997 ], [ 137.91350445899999, 35.596948429 ], [ 137.913451799, 35.596802218 ], [ 137.912719156, 35.596780369 ], [ 137.912911888999986, 35.597070778 ], [ 137.91274247199999, 35.597070222 ], [ 137.91263733299999, 35.597128 ], [ 137.91263319399999, 35.597129361 ], [ 137.912613986, 35.597139455 ], [ 137.912588, 35.597153111 ], [ 137.912563833, 35.597162833 ], [ 137.912457889, 35.597200417 ], [ 137.91231372199999, 35.597251361 ], [ 137.912257047, 35.597269731 ], [ 137.91216075, 35.597300944 ], [ 137.912041861, 35.597337833 ], [ 137.911953950999987, 35.59735026 ], [ 137.911803889, 35.597371472 ], [ 137.911760750000013, 35.597375806 ], [ 137.911732417, 35.597380917 ], [ 137.911565360999987, 35.597449333 ], [ 137.91142675, 35.597501278 ], [ 137.911413083000014, 35.597505278 ], [ 137.911397416999989, 35.597508861 ], [ 137.911375639, 35.597514444 ], [ 137.911338472000011, 35.597520278 ], [ 137.910932333, 35.597567083 ], [ 137.910881722, 35.597553028 ], [ 137.911093778, 35.598244833 ], [ 137.91113113899999, 35.598363639 ], [ 137.911239028000011, 35.598743194 ], [ 137.911288500000012, 35.598913583 ], [ 137.91133280599999, 35.59901875 ], [ 137.911365674, 35.599084986 ], [ 137.911535778, 35.599427778 ], [ 137.9115545, 35.599453778 ], [ 137.911567861, 35.599489583 ], [ 137.911580140000012, 35.599513607 ], [ 137.910618489, 35.599842229 ], [ 137.910319794, 35.599958104 ], [ 137.91007078199999, 35.600042772 ], [ 137.909896578, 35.600091255 ], [ 137.90943525, 35.600256531 ], [ 137.909303286000011, 35.600301079 ], [ 137.909123499, 35.600328816 ], [ 137.90896570699999, 35.600343544 ], [ 137.90874664, 35.600352009 ], [ 137.908507488999987, 35.600609594 ], [ 137.908358213000014, 35.600756723 ], [ 137.90825476, 35.600885365 ], [ 137.90772619099999, 35.601707855 ], [ 137.907536926, 35.602030314 ], [ 137.907336726000011, 35.602251599 ], [ 137.907110452000012, 35.602628159 ], [ 137.907125944, 35.602654889 ], [ 137.90710716699999, 35.602692333 ], [ 137.90707269399999, 35.602752194 ], [ 137.907026777999988, 35.602858806 ], [ 137.907011583000013, 35.602992556 ], [ 137.906974819999988, 35.60304725 ], [ 137.906972083, 35.603051322 ], [ 137.90724428499999, 35.603430131 ], [ 137.908035576, 35.604788629 ], [ 137.908095581, 35.604967789 ], [ 137.908559672, 35.606168289 ], [ 137.908799015999989, 35.606033276 ], [ 137.909154664999988, 35.6058575 ], [ 137.909323048, 35.605776372 ], [ 137.909670831999989, 35.605659786 ], [ 137.910026998, 35.605547991 ], [ 137.91074104099999, 35.605310155 ], [ 137.910997845, 35.605174996 ], [ 137.91172008800001, 35.604736946 ] ] ] } },
{ "type": "Feature", "properties": { "A29_001": "20402", "A29_002": "長野県", "A29_003": "松川町", "A29_004": 1, "A29_005": "第一種低層住居専用地域", "A29_006": 50, "A29_007": 80, "A29_008": null }, "geometry": { "type": "Polygon", "coordinates": [ [ [ 137.90772619099999, 35.601707855 ], [ 137.90825476, 35.600885365 ], [ 137.908358213000014, 35.600756723 ], [ 137.908507488999987, 35.600609594 ], [ 137.90874664, 35.600352009 ], [ 137.908779728000013, 35.600307868 ], [ 137.908564987, 35.600283919 ], [ 137.908458883, 35.600258596 ], [ 137.908372727, 35.600220969 ], [ 137.908320371, 35.600193047 ], [ 137.908273556000012, 35.600155444 ], [ 137.908211806, 35.6 ], [ 137.908113250000014, 35.599751861 ], [ 137.90802750099999, 35.599546838 ], [ 137.90799801899999, 35.599476347 ], [ 137.90798941700001, 35.599455778 ], [ 137.90768044399999, 35.598883167 ], [ 137.9076741, 35.598849634 ], [ 137.90746435599999, 35.598846157 ], [ 137.907335221000011, 35.598835982 ], [ 137.907290046000014, 35.598824432 ], [ 137.90723252699999, 35.598803877 ], [ 137.907180118000014, 35.598783348 ], [ 137.907121139999987, 35.598762787 ], [ 137.907074521999988, 35.598748844 ], [ 137.90698634099999, 35.598728735 ], [ 137.906820848, 35.598699302 ], [ 137.906759074, 35.598430998 ], [ 137.90578551499999, 35.598950305 ], [ 137.905704500000013, 35.599062333 ], [ 137.905289366, 35.599405343 ], [ 137.905044193, 35.599587768 ], [ 137.904962082, 35.599635061 ], [ 137.90489757899999, 35.599670515 ], [ 137.904828783999989, 35.599694024 ], [ 137.90482855799999, 35.599921779 ], [ 137.90480997899999, 35.600064779 ], [ 137.904765067, 35.600214805 ], [ 137.904573003, 35.600717064 ], [ 137.90451951599999, 35.600842006 ], [ 137.904413027, 35.601026307 ], [ 137.90475833299999, 35.601321353 ], [ 137.904998081, 35.601280802 ], [ 137.905082805, 35.601275258 ], [ 137.905142568, 35.60128867 ], [ 137.905187589, 35.601321088 ], [ 137.905241203, 35.601376204 ], [ 137.905336288, 35.601351633 ], [ 137.905445793000013, 35.601548925 ], [ 137.905471764, 35.601590788 ], [ 137.905507964, 35.60163151 ], [ 137.905556996, 35.60171403 ], [ 137.9056254, 35.601852213 ], [ 137.90571254599999, 35.602072051 ], [ 137.905954232, 35.602559757 ], [ 137.906022847, 35.602758517 ], [ 137.906155842, 35.603096871 ], [ 137.906152808, 35.603191297 ], [ 137.906084236, 35.603460926 ], [ 137.906112928999988, 35.603529752 ], [ 137.906235831, 35.603653417 ], [ 137.906433029999988, 35.603839455 ], [ 137.906476489, 35.604162819 ], [ 137.90649627799999, 35.604211568 ], [ 137.906526875999987, 35.604220305 ], [ 137.906547915, 35.604337028 ], [ 137.906569816, 35.604337136 ], [ 137.906626561, 35.604601421 ], [ 137.90666070899999, 35.604841269 ], [ 137.906718496, 35.604845846 ], [ 137.906774799, 35.604932694 ], [ 137.90693828, 35.605810417 ], [ 137.906981535999989, 35.605884561 ], [ 137.906862636, 35.6060065 ], [ 137.906905372000011, 35.606151233 ], [ 137.906954689, 35.606235185 ], [ 137.907018155, 35.60630132 ], [ 137.90709396, 35.606357499 ], [ 137.907169063, 35.606390064 ], [ 137.907297647, 35.606417169 ], [ 137.90747011900001, 35.606433042 ], [ 137.907588385999986, 35.606433623 ], [ 137.90785925, 35.606412775 ], [ 137.908000437, 35.606394152 ], [ 137.90821280599999, 35.606345828 ], [ 137.908467062999989, 35.606220529 ], [ 137.908559672, 35.606168289 ], [ 137.908095581, 35.604967789 ], [ 137.908035576, 35.604788629 ], [ 137.90724428499999, 35.603430131 ], [ 137.906972083, 35.603051322 ], [ 137.906974819999988, 35.60304725 ], [ 137.907011583000013, 35.602992556 ], [ 137.907026777999988, 35.602858806 ], [ 137.90707269399999, 35.602752194 ], [ 137.90710716699999, 35.602692333 ], [ 137.907125944, 35.602654889 ], [ 137.907110452000012, 35.602628159 ], [ 137.907336726000011, 35.602251599 ], [ 137.907536926, 35.602030314 ], [ 137.90772619099999, 35.601707855 ] ] ] } }
]
}
