{
"type": "FeatureCollection",
"name": "A29-19_11465",
"features": [
{ "type": "Feature", "properties": { "A29_001": "11465", "A29_002": "埼玉県", "A29_003": "松伏町", "A29_004": 1, "A29_005": "第一種低層住居専用地域", "A29_006": 50, "A29_007": 80, "A29_008": null }, "geometry": { "type": "Polygon", "coordinates": [ [ [ 139.811314399, 35.917291689 ], [ 139.81056227900001, 35.916725588 ], [ 139.810162389, 35.916778472 ], [ 139.80996816699999, 35.9168065 ], [ 139.809500297999989, 35.916874078 ], [ 139.809443122, 35.916882336 ], [ 139.80959718299999, 35.917023186 ], [ 139.80996560599999, 35.917336619 ], [ 139.810445705, 35.917742365 ], [ 139.810833479, 35.918077978 ], [ 139.811258188000011, 35.91844293 ], [ 139.811683778, 35.918814319 ], [ 139.811969561000012, 35.919055473 ], [ 139.812347905, 35.919373396 ], [ 139.812381488, 35.919403094 ], [ 139.812484340999987, 35.919490163 ], [ 139.812798076, 35.919765378 ], [ 139.812954601, 35.919895614 ], [ 139.81309045899999, 35.920022627 ], [ 139.81322324300001, 35.920127819 ], [ 139.81345979, 35.920333189 ], [ 139.81360365399999, 35.920456029 ], [ 139.813843426, 35.920668314 ], [ 139.81396888399999, 35.920771358 ], [ 139.814392889, 35.92113439 ], [ 139.814679549, 35.921377137 ], [ 139.814681127999989, 35.921365697 ], [ 139.81470978499999, 35.921158063 ], [ 139.81477217299999, 35.920792157 ], [ 139.814845515, 35.920592443 ], [ 139.814920668000013, 35.920485139 ], [ 139.81525972599999, 35.920199017 ], [ 139.815280898, 35.920178833 ], [ 139.814766692, 35.919804489 ], [ 139.814623645000012, 35.919698583 ], [ 139.814377416000013, 35.919516346 ], [ 139.814114773, 35.919325521 ], [ 139.813910757, 35.919175723 ], [ 139.813570731999988, 35.918925742 ], [ 139.813303402, 35.918732053 ], [ 139.813075938999987, 35.918566033 ], [ 139.812878963, 35.918416235 ], [ 139.812551839, 35.918186285 ], [ 139.812116852, 35.917866647 ], [ 139.811659141, 35.917539959 ], [ 139.811314399, 35.917291689 ] ] ] } },
{ "type": "Feature", "properties": { "A29_001": "11465", "A29_002": "埼玉県", "A29_003": "松伏町", "A29_004": 5, "A29_005": "第一種住居地域", "A29_006": 60, "A29_007": 100, "A29_008": null }, "geometry": { "type": "Polygon", "coordinates": [ [ [ 139.81675261, 35.919567692 ], [ 139.81659537499999, 35.919448948 ], [ 139.816585585000013, 35.919452894 ], [ 139.816560176, 35.919463139 ], [ 139.816465740000012, 35.919505608 ], [ 139.816101578, 35.919657229 ], [ 139.816025051999986, 35.919683689 ], [ 139.81585171, 35.919758521 ], [ 139.815759430000014, 35.919804478 ], [ 139.81569743899999, 35.919842536 ], [ 139.815472328999988, 35.919996342 ], [ 139.815280898, 35.920178833 ], [ 139.81525972599999, 35.920199017 ], [ 139.814920668000013, 35.920485139 ], [ 139.814845515, 35.920592443 ], [ 139.81477217299999, 35.920792157 ], [ 139.81470978499999, 35.921158063 ], [ 139.814681127999989, 35.921365697 ], [ 139.814679549, 35.921377137 ], [ 139.81469920699999, 35.921393784 ], [ 139.814834778, 35.921509416 ], [ 139.814836132000011, 35.921494535 ], [ 139.81484349199999, 35.921413703 ], [ 139.814890281, 35.921144677 ], [ 139.814958159000014, 35.920801129 ], [ 139.815018658000014, 35.920674447 ], [ 139.81517445, 35.920507535 ], [ 139.81537606, 35.920298897 ], [ 139.81566746499999, 35.9200545 ], [ 139.815781093999988, 35.919957635 ], [ 139.81618242499999, 35.919772872 ], [ 139.81662406699999, 35.919588113 ], [ 139.81675261, 35.919567692 ] ] ] } },
{ "type": "Feature", "properties": { "A29_001": "11465", "A29_002": "埼玉県", "A29_003": "松伏町", "A29_004": 11, "A29_005": "工業地域", "A29_006": 60, "A29_007": 200, "A29_008": null }, "geometry": { "type": "Polygon", "coordinates": [ [ [ 139.83211093599999, 35.919203762 ], [ 139.832102760999987, 35.919201055 ], [ 139.83180941099999, 35.91978958 ], [ 139.83169741099999, 35.920007176 ], [ 139.831477088000014, 35.920482475 ], [ 139.83113628800001, 35.921155256 ], [ 139.830976717, 35.921482929 ], [ 139.831000716, 35.92149088 ], [ 139.831121911, 35.921531027 ], [ 139.831994286, 35.921802668 ], [ 139.832512349000012, 35.921967223 ], [ 139.832654722, 35.922013995 ], [ 139.832661489, 35.922 ], [ 139.833318738, 35.920669603 ], [ 139.83327227800001, 35.92065425 ], [ 139.832792192, 35.920503761 ], [ 139.833008936, 35.920061124 ], [ 139.833250612, 35.919562717 ], [ 139.83318822199999, 35.919545889 ], [ 139.83214302799999, 35.919214389 ], [ 139.83211093599999, 35.919203762 ] ] ] } },
{ "type": "Feature", "properties": { "A29_001": "11465", "A29_002": "埼玉県", "A29_003": "松伏町", "A29_004": 1, "A29_005": "第一種低層住居専用地域", "A29_006": 60, "A29_007": 100, "A29_008": null }, "geometry": { "type": "Polygon", "coordinates": [ [ [ 139.81700236899999, 35.91972397 ], [ 139.81675261, 35.919567692 ], [ 139.81662406699999, 35.919588113 ], [ 139.81618242499999, 35.919772872 ], [ 139.815781093999988, 35.919957635 ], [ 139.81566746499999, 35.9200545 ], [ 139.81537606, 35.920298897 ], [ 139.81517445, 35.920507535 ], [ 139.815018658000014, 35.920674447 ], [ 139.814958159000014, 35.920801129 ], [ 139.814890281, 35.921144677 ], [ 139.81484349199999, 35.921413703 ], [ 139.814836132000011, 35.921494535 ], [ 139.814834778, 35.921509416 ], [ 139.814915097000011, 35.921577923 ], [ 139.815370739, 35.921957304 ], [ 139.815533949000013, 35.921964684 ], [ 139.816201239, 35.922005799 ], [ 139.81721214, 35.922083207 ], [ 139.81810459799999, 35.922139604 ], [ 139.819114332, 35.922202686 ], [ 139.819571704, 35.922228495 ], [ 139.81977111099999, 35.922011025 ], [ 139.820194898000011, 35.921487569 ], [ 139.82018726199999, 35.921487441 ], [ 139.819691011, 35.921456226 ], [ 139.819496324999989, 35.921329366 ], [ 139.819165645999988, 35.921129005 ], [ 139.818964768, 35.921000119 ], [ 139.818812106, 35.920902169 ], [ 139.818787175000011, 35.920900769 ], [ 139.818401818000012, 35.920879129 ], [ 139.818418309, 35.920663165 ], [ 139.818207339, 35.920510989 ], [ 139.81801228, 35.920376442 ], [ 139.817993636000011, 35.920363582 ], [ 139.817289784, 35.920310052 ], [ 139.81724134000001, 35.920306368 ], [ 139.817281146999989, 35.919907159 ], [ 139.81700236899999, 35.91972397 ] ] ] } },
{ "type": "Feature", "properties": { "A29_001": "11465", "A29_002": "埼玉県", "A29_003": "松伏町", "A29_004": 1, "A29_005": "第一種低層住居専用地域", "A29_006": 60, "A29_007": 100, "A29_008": null }, "geometry": { "type": "Polygon", "coordinates": [ [ [ 139.816421244, 35.92244639 ], [ 139.815891945, 35.922418144 ], [ 139.815920487999989, 35.922443134 ], [ 139.815968322, 35.922485015 ], [ 139.816197848, 35.922683939 ], [ 139.81638340500001, 35.922839215 ], [ 139.816590947, 35.923022396 ], [ 139.816762434999987, 35.923162646 ], [ 139.817028902, 35.923387329 ], [ 139.817254921, 35.923557633 ], [ 139.817468631, 35.923702895 ], [ 139.817627815, 35.923806655 ], [ 139.817939153999987, 35.9239877 ], [ 139.818101859, 35.924091459 ], [ 139.818211796000014, 35.92415157 ], [ 139.818384847, 35.92424038 ], [ 139.81850907, 35.92430167 ], [ 139.818524586, 35.924275296 ], [ 139.818551275, 35.924229929 ], [ 139.818707842, 35.923919577 ], [ 139.819369446, 35.922636179 ], [ 139.816421244, 35.92244639 ] ] ] } },
{ "type": "Feature", "properties": { "A29_001": "11465", "A29_002": "埼玉県", "A29_003": "松伏町", "A29_004": 4, "A29_005": "第二種中高層住居専用地域", "A29_006": 60, "A29_007": 100, "A29_008": null }, "geometry": { "type": "Polygon", "coordinates": [ [ [ 139.819757699, 35.922258851 ], [ 139.81982133, 35.92217923 ], [ 139.819999338, 35.921956487 ], [ 139.82000983899999, 35.921944529 ], [ 139.820121992999987, 35.921816815 ], [ 139.820404397, 35.921501156 ], [ 139.820194898000011, 35.921487569 ], [ 139.81977111099999, 35.922011025 ], [ 139.819571704, 35.922228495 ], [ 139.819114332, 35.922202686 ], [ 139.81810459799999, 35.922139604 ], [ 139.81721214, 35.922083207 ], [ 139.816201239, 35.922005799 ], [ 139.815533949000013, 35.921964684 ], [ 139.815370739, 35.921957304 ], [ 139.815817944, 35.922353353 ], [ 139.815891945, 35.922418144 ], [ 139.816421244, 35.92244639 ], [ 139.819369446, 35.922636179 ], [ 139.818707842, 35.923919577 ], [ 139.818551275, 35.924229929 ], [ 139.818524586, 35.924275296 ], [ 139.81850907, 35.92430167 ], [ 139.818531761, 35.924312833 ], [ 139.81865196199999, 35.924367102 ], [ 139.81865600399999, 35.92436888 ], [ 139.818669539000012, 35.924340811 ], [ 139.81889467, 35.923890174 ], [ 139.81902225799999, 35.923630247 ], [ 139.81924809099999, 35.923216513 ], [ 139.81963371099999, 35.922416699 ], [ 139.819757699, 35.922258851 ] ] ] } },
{ "type": "Feature", "properties": { "A29_001": "11465", "A29_002": "埼玉県", "A29_003": "松伏町", "A29_004": 5, "A29_005": "第一種住居地域", "A29_006": 60, "A29_007": 200, "A29_008": null }, "geometry": { "type": "Polygon", "coordinates": [ [ [ 139.830035099000014, 35.921170997 ], [ 139.829865232, 35.921117357 ], [ 139.82969825, 35.921461056 ], [ 139.829409639, 35.922019722 ], [ 139.829113639000013, 35.922674 ], [ 139.828810389000012, 35.923277444 ], [ 139.828635, 35.923624 ], [ 139.828628017999989, 35.923637795 ], [ 139.828660092, 35.923649151 ], [ 139.828995502, 35.923749324 ], [ 139.82991612399999, 35.924052699 ], [ 139.830582916999987, 35.924266167 ], [ 139.831333464000011, 35.924512542 ], [ 139.831454041, 35.924553682 ], [ 139.831470101, 35.924521372 ], [ 139.831743953, 35.923957191 ], [ 139.832054860999989, 35.923348567 ], [ 139.832031003999987, 35.923294939 ], [ 139.83204184600001, 35.923271353 ], [ 139.832224000999986, 35.922904768 ], [ 139.832654722, 35.922013995 ], [ 139.832512349000012, 35.921967223 ], [ 139.831994286, 35.921802668 ], [ 139.831121911, 35.921531027 ], [ 139.831000716, 35.92149088 ], [ 139.830035099000014, 35.921170997 ] ] ] } },
{ "type": "Feature", "properties": { "A29_001": "11465", "A29_002": "埼玉県", "A29_003": "松伏町", "A29_004": 5, "A29_005": "第一種住居地域", "A29_006": 60, "A29_007": 200, "A29_008": null }, "geometry": { "type": "Polygon", "coordinates": [ [ [ 139.826371335, 35.922911205 ], [ 139.826321046, 35.922895828 ], [ 139.82622788899999, 35.923099917 ], [ 139.826014028, 35.923568472 ], [ 139.825845917, 35.923912056 ], [ 139.825684972, 35.924242583 ], [ 139.82555753, 35.924504303 ], [ 139.825517166999987, 35.924587194 ], [ 139.825576286, 35.924606695 ], [ 139.82601780600001, 35.924752333 ], [ 139.826686389, 35.924968694 ], [ 139.826693234, 35.924954657 ], [ 139.82682330599999, 35.924687917 ], [ 139.826847694, 35.924633083 ], [ 139.826939306000014, 35.924456722 ], [ 139.827008889000012, 35.924292972 ], [ 139.82717333299999, 35.923958361 ], [ 139.82752075499999, 35.923278564 ], [ 139.82645313899999, 35.922934164 ], [ 139.826371335, 35.922911205 ] ] ] } },
{ "type": "Feature", "properties": { "A29_001": "11465", "A29_002": "埼玉県", "A29_003": "松伏町", "A29_004": 1, "A29_005": "第一種低層住居専用地域", "A29_006": 50, "A29_007": 80, "A29_008": null }, "geometry": { "type": "Polygon", "coordinates": [ [ [ 139.818689291999988, 35.924383527 ], [ 139.81873258499999, 35.924402576 ], [ 139.81891992300001, 35.924492743 ], [ 139.81912221499999, 35.924573612 ], [ 139.819275253, 35.924638019 ], [ 139.81945643899999, 35.924704576 ], [ 139.819552601999987, 35.92473702 ], [ 139.820722991999986, 35.9251273 ], [ 139.82090429499999, 35.924798409 ], [ 139.82105058, 35.924433314 ], [ 139.82123393099999, 35.92375665 ], [ 139.821599972, 35.921348806 ], [ 139.821658722, 35.920951583 ], [ 139.821705888999986, 35.920614889 ], [ 139.821773861, 35.920282194 ], [ 139.82181225, 35.919971417 ], [ 139.82195704899999, 35.919096506 ], [ 139.821702743, 35.919010368 ], [ 139.821639785, 35.918994829 ], [ 139.820489635, 35.921333208 ], [ 139.820409899999987, 35.921491191 ], [ 139.820404397, 35.921501156 ], [ 139.820121992999987, 35.921816815 ], [ 139.82000983899999, 35.921944529 ], [ 139.819999338, 35.921956487 ], [ 139.81982133, 35.92217923 ], [ 139.819757699, 35.922258851 ], [ 139.81963371099999, 35.922416699 ], [ 139.81924809099999, 35.923216513 ], [ 139.81902225799999, 35.923630247 ], [ 139.81889467, 35.923890174 ], [ 139.818669539000012, 35.924340811 ], [ 139.81865600399999, 35.92436888 ], [ 139.818689291999988, 35.924383527 ] ] ] } },
{ "type": "Feature", "properties": { "A29_001": "11465", "A29_002": "埼玉県", "A29_003": "松伏町", "A29_004": 1, "A29_005": "第一種低層住居専用地域", "A29_006": 50, "A29_007": 80, "A29_008": null }, "geometry": { "type": "Polygon", "coordinates": [ [ [ 139.82622788899999, 35.923099917 ], [ 139.826321046, 35.922895828 ], [ 139.826371335, 35.922911205 ], [ 139.82645313899999, 35.922934164 ], [ 139.82752075499999, 35.923278564 ], [ 139.827614215000011, 35.923309455 ], [ 139.82837088799999, 35.923546761 ], [ 139.828628017999989, 35.923637795 ], [ 139.828635, 35.923624 ], [ 139.828810389000012, 35.923277444 ], [ 139.829113639000013, 35.922674 ], [ 139.829409639, 35.922019722 ], [ 139.82969825, 35.921461056 ], [ 139.829865232, 35.921117357 ], [ 139.830035099000014, 35.921170997 ], [ 139.830976717, 35.921482929 ], [ 139.83113628800001, 35.921155256 ], [ 139.831477088000014, 35.920482475 ], [ 139.83169741099999, 35.920007176 ], [ 139.83180941099999, 35.91978958 ], [ 139.832102760999987, 35.919201055 ], [ 139.831711858, 35.919071604 ], [ 139.831151191, 35.918893702 ], [ 139.830568527, 35.918699117 ], [ 139.829754417, 35.918441417 ], [ 139.82944931599999, 35.918335794 ], [ 139.82875247199999, 35.918112811 ], [ 139.828734572, 35.918107083 ], [ 139.828730197, 35.918115959 ], [ 139.828471748999988, 35.918642439 ], [ 139.82829670000001, 35.918994426 ], [ 139.827857223, 35.919880619 ], [ 139.827362130000012, 35.920859663 ], [ 139.82499209400001, 35.920090676 ], [ 139.82311351199999, 35.919473367 ], [ 139.823017224000012, 35.919442085 ], [ 139.82300908799999, 35.919492118 ], [ 139.822989764, 35.919668592 ], [ 139.822937755, 35.919958096 ], [ 139.822905166999988, 35.920198472 ], [ 139.82290021599999, 35.920225997 ], [ 139.822877088000013, 35.92039332 ], [ 139.82283953000001, 35.920622734 ], [ 139.822802360999987, 35.920863435 ], [ 139.82275066, 35.921146549 ], [ 139.822740887, 35.921249646 ], [ 139.822723281, 35.921364115 ], [ 139.822685873000012, 35.921565507 ], [ 139.822642734999988, 35.92185597 ], [ 139.822601365, 35.922083475 ], [ 139.82258815599999, 35.922196513 ], [ 139.822554703, 35.922408995 ], [ 139.82254179200001, 35.922491698 ], [ 139.822527118000011, 35.922593766 ], [ 139.822497777, 35.922758552 ], [ 139.822459181, 35.922983123 ], [ 139.822432166999988, 35.923230306 ], [ 139.822380313, 35.923499657 ], [ 139.822350096, 35.923708996 ], [ 139.822314882, 35.92393197 ], [ 139.82228041, 35.924086978 ], [ 139.822254063, 35.924220376 ], [ 139.82223948, 35.924290794 ], [ 139.822203401, 35.924404545 ], [ 139.822154121000011, 35.924564083 ], [ 139.822065248, 35.924807323 ], [ 139.82201245499999, 35.924920357 ], [ 139.82192798299999, 35.925138557 ], [ 139.821877422, 35.925257404 ], [ 139.821757768999987, 35.925463312 ], [ 139.821813096, 35.925484696 ], [ 139.823231335, 35.925943675 ], [ 139.824635398, 35.926410857 ], [ 139.824701639000011, 35.926275056 ], [ 139.824733099000014, 35.926213089 ], [ 139.824859382, 35.925964346 ], [ 139.824868528, 35.925946333 ], [ 139.824941806, 35.925769917 ], [ 139.82499776, 35.925649407 ], [ 139.825, 35.925644583 ], [ 139.82509401499999, 35.925442084 ], [ 139.825261500000011, 35.925081333 ], [ 139.82530358299999, 35.925 ], [ 139.825517166999987, 35.924587194 ], [ 139.82555753, 35.924504303 ], [ 139.825684972, 35.924242583 ], [ 139.825845917, 35.923912056 ], [ 139.826014028, 35.923568472 ], [ 139.82622788899999, 35.923099917 ] ] ] } },
{ "type": "Feature", "properties": { "A29_001": "11465", "A29_002": "埼玉県", "A29_003": "松伏町", "A29_004": 1, "A29_005": "第一種低層住居専用地域", "A29_006": 50, "A29_007": 80, "A29_008": null }, "geometry": { "type": "Polygon", "coordinates": [ [ [ 139.810432838, 35.921629697 ], [ 139.810214215, 35.921507826 ], [ 139.809853943, 35.921846392 ], [ 139.809080434, 35.92258254 ], [ 139.809798578999988, 35.923166955 ], [ 139.812075834000012, 35.924990248 ], [ 139.812918610999986, 35.925661115 ], [ 139.813743082, 35.926309615 ], [ 139.814407468000013, 35.92670316 ], [ 139.81432776299999, 35.926593251 ], [ 139.814135494999988, 35.926285583 ], [ 139.814063981, 35.926170148 ], [ 139.81392814, 35.92594117 ], [ 139.813822022000011, 35.925732808 ], [ 139.813684709, 35.92542637 ], [ 139.813635218, 35.925279669 ], [ 139.813565178, 35.925040731 ], [ 139.813544971, 35.924948436 ], [ 139.81352307899999, 35.924818063 ], [ 139.813497274000014, 35.924676158 ], [ 139.813441262999987, 35.924120036 ], [ 139.81343465099999, 35.923830069 ], [ 139.813333273000012, 35.923619214 ], [ 139.812959533, 35.923294225 ], [ 139.812105773000013, 35.922672542 ], [ 139.811356905, 35.922139142 ], [ 139.81092444, 35.92189307 ], [ 139.810432838, 35.921629697 ] ] ] } },
{ "type": "Feature", "properties": { "A29_001": "11465", "A29_002": "埼玉県", "A29_003": "松伏町", "A29_004": 3, "A29_005": "第一種中高層住居専用地域", "A29_006": 50, "A29_007": 100, "A29_008": null }, "geometry": { "type": "Polygon", "coordinates": [ [ [ 139.82707730199999, 35.926864708 ], [ 139.82780654199999, 35.925407689 ], [ 139.828192715, 35.925538481 ], [ 139.828539519, 35.925653954 ], [ 139.829140574, 35.925847144 ], [ 139.829468956999989, 35.925953874 ], [ 139.829941009, 35.926107707 ], [ 139.83063399, 35.92631845 ], [ 139.83075238, 35.926072319 ], [ 139.830897584000013, 35.925773747 ], [ 139.831052355, 35.925457169 ], [ 139.831329739000012, 35.924893888 ], [ 139.831493204999987, 35.924566578 ], [ 139.831471889, 35.924559772 ], [ 139.831454041, 35.924553682 ], [ 139.831333464000011, 35.924512542 ], [ 139.830582916999987, 35.924266167 ], [ 139.82991612399999, 35.924052699 ], [ 139.828995502, 35.923749324 ], [ 139.828660092, 35.923649151 ], [ 139.828628017999989, 35.923637795 ], [ 139.82837088799999, 35.923546761 ], [ 139.827614215000011, 35.923309455 ], [ 139.82752075499999, 35.923278564 ], [ 139.82717333299999, 35.923958361 ], [ 139.827008889000012, 35.924292972 ], [ 139.826939306000014, 35.924456722 ], [ 139.826847694, 35.924633083 ], [ 139.82682330599999, 35.924687917 ], [ 139.826693234, 35.924954657 ], [ 139.826686389, 35.924968694 ], [ 139.82601780600001, 35.924752333 ], [ 139.825576286, 35.924606695 ], [ 139.825517166999987, 35.924587194 ], [ 139.82530358299999, 35.925 ], [ 139.825261500000011, 35.925081333 ], [ 139.82509401499999, 35.925442084 ], [ 139.825, 35.925644583 ], [ 139.82499776, 35.925649407 ], [ 139.824941806, 35.925769917 ], [ 139.824868528, 35.925946333 ], [ 139.824859382, 35.925964346 ], [ 139.824733099000014, 35.926213089 ], [ 139.824701639000011, 35.926275056 ], [ 139.824635398, 35.926410857 ], [ 139.824679476, 35.926425523 ], [ 139.824743165, 35.926446714 ], [ 139.826668715000011, 35.926727372 ], [ 139.826725371, 35.926745766 ], [ 139.82707730199999, 35.926864708 ] ] ] } },
{ "type": "Feature", "properties": { "A29_001": "11465", "A29_002": "埼玉県", "A29_003": "松伏町", "A29_004": 2, "A29_005": "第二種低層住居専用地域", "A29_006": 50, "A29_007": 80, "A29_008": null }, "geometry": { "type": "Polygon", "coordinates": [ [ [ 139.809876108999987, 35.921289938 ], [ 139.809859877, 35.92127912 ], [ 139.80952572699999, 35.921590489 ], [ 139.809245358999988, 35.921853714 ], [ 139.80907291299999, 35.922023476 ], [ 139.808930968999988, 35.922152226 ], [ 139.808457034000014, 35.922602377 ], [ 139.808914300999987, 35.922964958 ], [ 139.809363362, 35.923329444 ], [ 139.809967199999988, 35.923812245 ], [ 139.810525318, 35.924255922 ], [ 139.811068196, 35.924696733 ], [ 139.81139768, 35.924958166 ], [ 139.811879596000011, 35.925346497 ], [ 139.81226654, 35.925655634 ], [ 139.812632380999986, 35.925947595 ], [ 139.813049818, 35.926284399 ], [ 139.81333944799999, 35.926507663 ], [ 139.81354231, 35.9266546 ], [ 139.814099527, 35.926990683 ], [ 139.814578207000011, 35.927310031 ], [ 139.814704002000013, 35.927199183 ], [ 139.814621353, 35.927047007 ], [ 139.81449978399999, 35.926867179 ], [ 139.814407468000013, 35.92670316 ], [ 139.813743082, 35.926309615 ], [ 139.812918610999986, 35.925661115 ], [ 139.812075834000012, 35.924990248 ], [ 139.809798578999988, 35.923166955 ], [ 139.809080434, 35.92258254 ], [ 139.809853943, 35.921846392 ], [ 139.810214215, 35.921507826 ], [ 139.81019275599999, 35.921495864 ], [ 139.80993597299999, 35.921329833 ], [ 139.809876108999987, 35.921289938 ] ] ] } },
{ "type": "Feature", "properties": { "A29_001": "11465", "A29_002": "埼玉県", "A29_003": "松伏町", "A29_004": 8, "A29_005": "近隣商業地域", "A29_006": 80, "A29_007": 200, "A29_008": null }, "geometry": { "type": "Polygon", "coordinates": [ [ [ 139.820647759, 35.926362736 ], [ 139.821073453, 35.926501476 ], [ 139.824002162999989, 35.92746641 ], [ 139.824045637000012, 35.927396467 ], [ 139.824233650999986, 35.927109914 ], [ 139.82447609, 35.926734715 ], [ 139.824481544, 35.926726274 ], [ 139.824335311999988, 35.926682556 ], [ 139.82362593900001, 35.926441082 ], [ 139.821565799000012, 35.925760709 ], [ 139.821228743, 35.925650894 ], [ 139.821058314, 35.925596721 ], [ 139.820647759, 35.926362736 ] ] ] } },
{ "type": "Feature", "properties": { "A29_001": "11465", "A29_002": "埼玉県", "A29_003": "松伏町", "A29_004": 1, "A29_005": "第一種低層住居専用地域", "A29_006": 50, "A29_007": 80, "A29_008": null }, "geometry": { "type": "Polygon", "coordinates": [ [ [ 139.806647174, 35.91944806 ], [ 139.80617206, 35.91922555 ], [ 139.80543690499999, 35.918879701 ], [ 139.805298975, 35.919049981 ], [ 139.80524724599999, 35.919146151 ], [ 139.805380136999986, 35.919324511 ], [ 139.805434307000013, 35.919308501 ], [ 139.805495818999987, 35.919440761 ], [ 139.805264161, 35.920075891 ], [ 139.80518033300001, 35.920402471 ], [ 139.805147059, 35.920620603 ], [ 139.805145761, 35.920633029 ], [ 139.805127193, 35.920810805 ], [ 139.805123634000012, 35.920926228 ], [ 139.80512945699999, 35.921039746 ], [ 139.805140806999987, 35.921244455 ], [ 139.805157194, 35.921388948 ], [ 139.80517968, 35.921620501 ], [ 139.80524992, 35.921976183 ], [ 139.80528726599999, 35.922165493 ], [ 139.805345356, 35.922380334 ], [ 139.805406857, 35.922576377 ], [ 139.805493853, 35.922810345 ], [ 139.805584368000012, 35.923043599 ], [ 139.805624795, 35.923140192 ], [ 139.805662584, 35.923234638 ], [ 139.80572762599999, 35.923369871 ], [ 139.805802338, 35.923520845 ], [ 139.805862991, 35.923631751 ], [ 139.80592540399999, 35.923741943 ], [ 139.805994851, 35.923857859 ], [ 139.806053751, 35.92395231 ], [ 139.806137272, 35.924071092 ], [ 139.806299924, 35.924281467 ], [ 139.806358832, 35.924354455 ], [ 139.806443245, 35.924438895 ], [ 139.80656195200001, 35.924552676 ], [ 139.806660435999987, 35.924644274 ], [ 139.806751889, 35.924719415 ], [ 139.806905777, 35.924841788 ], [ 139.807001632, 35.92490763 ], [ 139.807118593000013, 35.924984922 ], [ 139.80731118599999, 35.925105157 ], [ 139.807417601, 35.925156692 ], [ 139.807626914, 35.925259044 ], [ 139.807890756, 35.925380009 ], [ 139.808300768, 35.925542687 ], [ 139.809745998000011, 35.926096005 ], [ 139.809890204, 35.926140092 ], [ 139.81042397499999, 35.926296397 ], [ 139.810979406, 35.926458667 ], [ 139.81144146, 35.92659707 ], [ 139.812011407999989, 35.926766969 ], [ 139.81259777599999, 35.926941638 ], [ 139.813252162999987, 35.927144584 ], [ 139.813944666, 35.927369821 ], [ 139.81433705500001, 35.927500313 ], [ 139.814578207000011, 35.927310031 ], [ 139.814099527, 35.926990683 ], [ 139.81354231, 35.9266546 ], [ 139.81333944799999, 35.926507663 ], [ 139.813049818, 35.926284399 ], [ 139.812632380999986, 35.925947595 ], [ 139.81226654, 35.925655634 ], [ 139.811879596000011, 35.925346497 ], [ 139.81139768, 35.924958166 ], [ 139.811068196, 35.924696733 ], [ 139.810525318, 35.924255922 ], [ 139.809967199999988, 35.923812245 ], [ 139.809363362, 35.923329444 ], [ 139.808914300999987, 35.922964958 ], [ 139.808457034000014, 35.922602377 ], [ 139.808930968999988, 35.922152226 ], [ 139.80907291299999, 35.922023476 ], [ 139.809245358999988, 35.921853714 ], [ 139.80952572699999, 35.921590489 ], [ 139.809859877, 35.92127912 ], [ 139.809824291000012, 35.921255406 ], [ 139.80964666, 35.921120153 ], [ 139.809548173, 35.921043582 ], [ 139.809397800999989, 35.920934806 ], [ 139.80921929499999, 35.920790252 ], [ 139.809127305, 35.920710917 ], [ 139.808921809999987, 35.920550567 ], [ 139.808707658, 35.920390238 ], [ 139.80843933599999, 35.920255928 ], [ 139.808072524000011, 35.920095558 ], [ 139.806647174, 35.91944806 ] ] ] } },
{ "type": "Feature", "properties": { "A29_001": "11465", "A29_002": "埼玉県", "A29_003": "松伏町", "A29_004": 12, "A29_005": "工業専用地域", "A29_006": 50, "A29_007": 200, "A29_008": null }, "geometry": { "type": "Polygon", "coordinates": [ [ [ 139.838000658999988, 35.927502826 ], [ 139.838105084, 35.928179667 ], [ 139.838209454, 35.928908762 ], [ 139.83827959199999, 35.929104343 ], [ 139.838911833999987, 35.9307025 ], [ 139.83901766, 35.930947877 ], [ 139.839029984, 35.930976449 ], [ 139.839140754999988, 35.931252936 ], [ 139.839146731, 35.931267576 ], [ 139.83915696, 35.931260865 ], [ 139.83921708299999, 35.931221417 ], [ 139.839292417, 35.931135972 ], [ 139.839630534, 35.930761727 ], [ 139.84023707899999, 35.93112442 ], [ 139.840556214, 35.931332974 ], [ 139.839924147, 35.929766569 ], [ 139.839674863, 35.929154527 ], [ 139.83963820299999, 35.929053175 ], [ 139.839608873, 35.928951824 ], [ 139.83958687399999, 35.928853452 ], [ 139.83956487099999, 35.92869248 ], [ 139.839546525, 35.928442079 ], [ 139.839550178, 35.928287067 ], [ 139.83958314899999, 35.928093302 ], [ 139.839641773000011, 35.927860782 ], [ 139.839704068, 35.927702787 ], [ 139.83883011099999, 35.927388692 ], [ 139.838811513, 35.927381004 ], [ 139.838478963, 35.927751453 ], [ 139.838467310999988, 35.927764433 ], [ 139.838000658999988, 35.927502826 ] ] ] } },
{ "type": "Feature", "properties": { "A29_001": "11465", "A29_002": "埼玉県", "A29_003": "松伏町", "A29_004": 1, "A29_005": "第一種低層住居専用地域", "A29_006": 50, "A29_007": 80, "A29_008": null }, "geometry": { "type": "Polygon", "coordinates": [ [ [ 139.82057896, 35.926882056 ], [ 139.820506676, 35.92685571 ], [ 139.820394541000013, 35.927072204 ], [ 139.820327082, 35.927196802 ], [ 139.820250824999988, 35.927338093 ], [ 139.820167967, 35.927497864 ], [ 139.820040381000013, 35.927736925 ], [ 139.81993977799999, 35.927922689 ], [ 139.819747078, 35.928278954 ], [ 139.819602769999989, 35.928551519 ], [ 139.819491019, 35.928763275 ], [ 139.819351108, 35.929031547 ], [ 139.819259595, 35.929203241 ], [ 139.819199758, 35.929321281 ], [ 139.819148968, 35.929446284 ], [ 139.819068858, 35.929688349 ], [ 139.819025934, 35.929839415 ], [ 139.819083812, 35.929877377 ], [ 139.82005040199999, 35.930507489 ], [ 139.820321522, 35.930713824 ], [ 139.820502024, 35.930835286 ], [ 139.82121113, 35.931264145 ], [ 139.821548398, 35.931429965 ], [ 139.822068172, 35.931643823 ], [ 139.822687578999989, 35.931864471 ], [ 139.82383477, 35.932293828 ], [ 139.825512516, 35.932912501 ], [ 139.82618783699999, 35.93316071 ], [ 139.826273633999989, 35.933201366 ], [ 139.82627868, 35.933203571 ], [ 139.82638911399999, 35.933114617 ], [ 139.826481744, 35.933049586 ], [ 139.82657691, 35.932981724 ], [ 139.82665462, 35.932930217 ], [ 139.826754617, 35.932863687 ], [ 139.826816027, 35.93282673 ], [ 139.826810837000011, 35.932822395 ], [ 139.826801063, 35.932814229 ], [ 139.826493851, 35.932714269 ], [ 139.825998602, 35.932553267 ], [ 139.82576637299999, 35.932479563 ], [ 139.82501163, 35.932234834 ], [ 139.82445573199999, 35.932052766 ], [ 139.82445311399999, 35.932039453 ], [ 139.824601774, 35.931764486 ], [ 139.824828192000012, 35.93132284 ], [ 139.82498187499999, 35.93099852 ], [ 139.825342025999987, 35.93026403 ], [ 139.825391298, 35.930157195 ], [ 139.825677535000011, 35.929579142 ], [ 139.825900421999989, 35.92913654 ], [ 139.826209150000011, 35.928493183 ], [ 139.82603652200001, 35.92839847 ], [ 139.82580518899999, 35.928278263 ], [ 139.825527238, 35.928125142 ], [ 139.825289739, 35.928100086 ], [ 139.82505839800001, 35.928070737 ], [ 139.82464145599999, 35.928027781 ], [ 139.82416382, 35.927983389 ], [ 139.823863867999989, 35.927951886 ], [ 139.82380053599999, 35.927934711 ], [ 139.823585915, 35.927863866 ], [ 139.822934030999988, 35.927659587 ], [ 139.821443445, 35.927158696 ], [ 139.82057896, 35.926882056 ] ] ] } },
{ "type": "Feature", "properties": { "A29_001": "11465", "A29_002": "埼玉県", "A29_003": "松伏町", "A29_004": 5, "A29_005": "第一種住居地域", "A29_006": 60, "A29_007": 200, "A29_008": null }, "geometry": { "type": "Polygon", "coordinates": [ [ [ 139.819747078, 35.928278954 ], [ 139.81993977799999, 35.927922689 ], [ 139.820040381000013, 35.927736925 ], [ 139.820167967, 35.927497864 ], [ 139.820250824999988, 35.927338093 ], [ 139.820327082, 35.927196802 ], [ 139.820394541000013, 35.927072204 ], [ 139.820506676, 35.92685571 ], [ 139.820494454, 35.926851255 ], [ 139.819958750000012, 35.926655992 ], [ 139.81952481499999, 35.926512715 ], [ 139.819432169, 35.926469778 ], [ 139.819582047000011, 35.926182906 ], [ 139.81972987099999, 35.92589961 ], [ 139.81988232, 35.925589745 ], [ 139.819890015, 35.925573389 ], [ 139.81948541700001, 35.925449573 ], [ 139.818973518, 35.925279239 ], [ 139.818771223999988, 35.925196939 ], [ 139.81853727, 35.925086733 ], [ 139.818305443000014, 35.924989193 ], [ 139.817946946, 35.924808731 ], [ 139.81759514399999, 35.924620884 ], [ 139.817133414000011, 35.924343591 ], [ 139.816691846999987, 35.924049904 ], [ 139.816393197999986, 35.923839704 ], [ 139.81578310399999, 35.923298568 ], [ 139.814561102999988, 35.922244607 ], [ 139.814662061, 35.921503849 ], [ 139.814679549, 35.921377137 ], [ 139.814392889, 35.92113439 ], [ 139.81396888399999, 35.920771358 ], [ 139.813843426, 35.920668314 ], [ 139.81360365399999, 35.920456029 ], [ 139.81345979, 35.920333189 ], [ 139.81322324300001, 35.920127819 ], [ 139.81309045899999, 35.920022627 ], [ 139.812954601, 35.919895614 ], [ 139.812798076, 35.919765378 ], [ 139.812484340999987, 35.919490163 ], [ 139.812381488, 35.919403094 ], [ 139.812347905, 35.919373396 ], [ 139.811969561000012, 35.919055473 ], [ 139.811683778, 35.918814319 ], [ 139.811258188000011, 35.91844293 ], [ 139.810833479, 35.918077978 ], [ 139.810445705, 35.917742365 ], [ 139.80996560599999, 35.917336619 ], [ 139.80959718299999, 35.917023186 ], [ 139.809443122, 35.916882336 ], [ 139.80920658299999, 35.9169165 ], [ 139.80862180599999, 35.917007611 ], [ 139.808439083, 35.917030028 ], [ 139.808333333, 35.9170635 ], [ 139.80809919399999, 35.917137583 ], [ 139.807832416999986, 35.9172795 ], [ 139.807584361000011, 35.917423722 ], [ 139.80752325, 35.917454556 ], [ 139.807469056, 35.917474528 ], [ 139.807428139, 35.917490611 ], [ 139.807384750000011, 35.917506556 ], [ 139.8072731, 35.917576964 ], [ 139.807256833, 35.917587222 ], [ 139.807132583, 35.91770675 ], [ 139.807013833000013, 35.917826222 ], [ 139.806827472, 35.91806525 ], [ 139.806783610999986, 35.918139944 ], [ 139.806750451, 35.918227439 ], [ 139.806740496, 35.918253705 ], [ 139.806537889, 35.91815915 ], [ 139.80635748200001, 35.918400559 ], [ 139.806025522, 35.918243769 ], [ 139.806016933, 35.918256046 ], [ 139.805907452000014, 35.91841715 ], [ 139.805744901, 35.918338419 ], [ 139.80572998400001, 35.918351616 ], [ 139.805715002, 35.91836487 ], [ 139.805688312, 35.918388483 ], [ 139.80551921, 35.918321509 ], [ 139.805471552, 35.918382781 ], [ 139.80548137299999, 35.918468951 ], [ 139.805577373, 35.918509041 ], [ 139.805533043, 35.918557121 ], [ 139.805572414000011, 35.918599211 ], [ 139.80543690499999, 35.918879701 ], [ 139.80617206, 35.91922555 ], [ 139.806647174, 35.91944806 ], [ 139.808072524000011, 35.920095558 ], [ 139.80843933599999, 35.920255928 ], [ 139.808707658, 35.920390238 ], [ 139.808921809999987, 35.920550567 ], [ 139.809127305, 35.920710917 ], [ 139.80921929499999, 35.920790252 ], [ 139.809397800999989, 35.920934806 ], [ 139.809548173, 35.921043582 ], [ 139.80964666, 35.921120153 ], [ 139.809824291000012, 35.921255406 ], [ 139.809859877, 35.92127912 ], [ 139.809876108999987, 35.921289938 ], [ 139.80993597299999, 35.921329833 ], [ 139.81019275599999, 35.921495864 ], [ 139.810214215, 35.921507826 ], [ 139.810432838, 35.921629697 ], [ 139.81092444, 35.92189307 ], [ 139.811356905, 35.922139142 ], [ 139.812105773000013, 35.922672542 ], [ 139.812959533, 35.923294225 ], [ 139.813333273000012, 35.923619214 ], [ 139.81343465099999, 35.923830069 ], [ 139.813441262999987, 35.924120036 ], [ 139.813497274000014, 35.924676158 ], [ 139.81352307899999, 35.924818063 ], [ 139.813544971, 35.924948436 ], [ 139.813565178, 35.925040731 ], [ 139.813635218, 35.925279669 ], [ 139.813684709, 35.92542637 ], [ 139.813822022000011, 35.925732808 ], [ 139.81392814, 35.92594117 ], [ 139.814063981, 35.926170148 ], [ 139.814135494999988, 35.926285583 ], [ 139.81432776299999, 35.926593251 ], [ 139.814407468000013, 35.92670316 ], [ 139.81449978399999, 35.926867179 ], [ 139.814621353, 35.927047007 ], [ 139.814704002000013, 35.927199183 ], [ 139.814578207000011, 35.927310031 ], [ 139.81433705500001, 35.927500313 ], [ 139.814733924, 35.927632273 ], [ 139.815290393999987, 35.927820279 ], [ 139.815660398, 35.92794625 ], [ 139.815892012, 35.928047876 ], [ 139.816089619, 35.928130895 ], [ 139.816266113000012, 35.928218681 ], [ 139.816339406999987, 35.928263525 ], [ 139.816459624, 35.928262111 ], [ 139.816526466, 35.928311724 ], [ 139.816579236, 35.928353227 ], [ 139.816655458000014, 35.928416196 ], [ 139.816717022, 35.928465808 ], [ 139.816804969, 35.92854881 ], [ 139.81691050399999, 35.928654709 ], [ 139.81707334699999, 35.928834289 ], [ 139.817334308999989, 35.929114838 ], [ 139.817939926, 35.929782148 ], [ 139.818156569, 35.930042658 ], [ 139.818274043, 35.930222477 ], [ 139.818320605, 35.930326724 ], [ 139.818400329000013, 35.930494623 ], [ 139.818576191, 35.930874303 ], [ 139.818603466000013, 35.930893167 ], [ 139.818687954000012, 35.930949355 ], [ 139.818843879000013, 35.931058555 ], [ 139.81921065899999, 35.931292188 ], [ 139.819394929999987, 35.931406321 ], [ 139.819658801, 35.931584495 ], [ 139.819841152, 35.931704697 ], [ 139.820188304, 35.931913409 ], [ 139.820409969, 35.93203566 ], [ 139.820635148, 35.932157309 ], [ 139.82081107, 35.932243179 ], [ 139.82114298, 35.932396794 ], [ 139.82138927599999, 35.932497933 ], [ 139.821841995999989, 35.932662527 ], [ 139.822848424, 35.933031101 ], [ 139.824503544, 35.93364826 ], [ 139.824966225, 35.933822029 ], [ 139.825352771000013, 35.933966864 ], [ 139.82557278199999, 35.933648759 ], [ 139.825612029000013, 35.933631575 ], [ 139.825835821999988, 35.93353359 ], [ 139.825880248, 35.933512845 ], [ 139.825925996, 35.933476719 ], [ 139.826188816000013, 35.933271162 ], [ 139.82627868, 35.933203571 ], [ 139.826273633999989, 35.933201366 ], [ 139.82618783699999, 35.93316071 ], [ 139.825512516, 35.932912501 ], [ 139.82383477, 35.932293828 ], [ 139.822687578999989, 35.931864471 ], [ 139.822068172, 35.931643823 ], [ 139.821548398, 35.931429965 ], [ 139.82121113, 35.931264145 ], [ 139.820502024, 35.930835286 ], [ 139.820321522, 35.930713824 ], [ 139.82005040199999, 35.930507489 ], [ 139.819083812, 35.929877377 ], [ 139.819025934, 35.929839415 ], [ 139.819068858, 35.929688349 ], [ 139.819148968, 35.929446284 ], [ 139.819199758, 35.929321281 ], [ 139.819259595, 35.929203241 ], [ 139.819351108, 35.929031547 ], [ 139.819491019, 35.928763275 ], [ 139.819602769999989, 35.928551519 ], [ 139.819747078, 35.928278954 ] ] ] } },
{ "type": "Feature", "properties": { "A29_001": "11465", "A29_002": "埼玉県", "A29_003": "松伏町", "A29_004": 4, "A29_005": "第二種中高層住居専用地域", "A29_006": 60, "A29_007": 200, "A29_008": null }, "geometry": { "type": "Polygon", "coordinates": [ [ [ 139.822203543, 35.933662745 ], [ 139.82228917099999, 35.93363032 ], [ 139.822298139, 35.933643907 ], [ 139.822344734000012, 35.933707923 ], [ 139.822607639000012, 35.933655333 ], [ 139.82322994399999, 35.9335285 ], [ 139.823285860999988, 35.933566194 ], [ 139.823333845, 35.93359853 ], [ 139.823499309999988, 35.933710037 ], [ 139.823621306, 35.93379225 ], [ 139.823935111, 35.933879083 ], [ 139.824000332999987, 35.933897139 ], [ 139.824269778, 35.933978444 ], [ 139.824642278, 35.934074778 ], [ 139.824906199, 35.934147979 ], [ 139.825, 35.934178744 ], [ 139.825160638999989, 35.934231431 ], [ 139.825346956, 35.933975272 ], [ 139.825352771000013, 35.933966864 ], [ 139.824966225, 35.933822029 ], [ 139.824503544, 35.93364826 ], [ 139.822848424, 35.933031101 ], [ 139.821841995999989, 35.932662527 ], [ 139.82138927599999, 35.932497933 ], [ 139.82114298, 35.932396794 ], [ 139.82081107, 35.932243179 ], [ 139.820635148, 35.932157309 ], [ 139.820409969, 35.93203566 ], [ 139.820188304, 35.931913409 ], [ 139.819841152, 35.931704697 ], [ 139.819658801, 35.931584495 ], [ 139.819394929999987, 35.931406321 ], [ 139.81921065899999, 35.931292188 ], [ 139.818843879000013, 35.931058555 ], [ 139.818687954000012, 35.930949355 ], [ 139.818603466000013, 35.930893167 ], [ 139.818576191, 35.930874303 ], [ 139.81874452299999, 35.9313293 ], [ 139.818729471000012, 35.931732781 ], [ 139.818724956000011, 35.931914087 ], [ 139.818709688000013, 35.932023785 ], [ 139.818683862, 35.932145883 ], [ 139.818640433000013, 35.932316628 ], [ 139.818586450999987, 35.932465432 ], [ 139.818536, 35.93255414 ], [ 139.818479685, 35.9326314 ], [ 139.818419850999987, 35.932714383 ], [ 139.818356497, 35.932802135 ], [ 139.81822041, 35.932954744 ], [ 139.817915381, 35.933314331 ], [ 139.817764041, 35.933484108 ], [ 139.817643202, 35.933623364 ], [ 139.817462529000011, 35.933832247 ], [ 139.817344036, 35.933967687 ], [ 139.817298281, 35.934018239 ], [ 139.81719386099999, 35.93415845 ], [ 139.817142237000013, 35.934232848 ], [ 139.817060112, 35.934325367 ], [ 139.816999106999987, 35.934383547 ], [ 139.81686675200001, 35.934502048 ], [ 139.81694654399999, 35.934531365 ], [ 139.817041751, 35.934566347 ], [ 139.81712417899999, 35.934575342 ], [ 139.817188595, 35.934575168 ], [ 139.817834639000012, 35.934461667 ], [ 139.817921317000014, 35.934458551 ], [ 139.818029943999989, 35.934436833 ], [ 139.818187806, 35.934405361 ], [ 139.818509917, 35.934346444 ], [ 139.818781699, 35.934295539 ], [ 139.81885384, 35.934266931 ], [ 139.81903770400001, 35.934232612 ], [ 139.819093126000013, 35.934228326 ], [ 139.81963503899999, 35.934136098 ], [ 139.819701017999989, 35.934131097 ], [ 139.82042503400001, 35.933998106 ], [ 139.820612415999989, 35.933965216 ], [ 139.82068983, 35.933959501 ], [ 139.82091767899999, 35.933921607 ], [ 139.821530259000014, 35.933812445 ], [ 139.821713241, 35.933779076 ], [ 139.821956045, 35.933732358 ], [ 139.822028931, 35.933713513 ], [ 139.822106186000013, 35.933692308 ], [ 139.822203543, 35.933662745 ] ] ] } },
{ "type": "Feature", "properties": { "A29_001": "11465", "A29_002": "埼玉県", "A29_003": "松伏町", "A29_004": 12, "A29_005": "工業専用地域", "A29_006": 50, "A29_007": 200, "A29_008": null }, "geometry": { "type": "Polygon", "coordinates": [ [ [ 139.840625057000011, 35.931607566 ], [ 139.840534897, 35.93166898 ], [ 139.840480558, 35.931724986 ], [ 139.84022840899999, 35.932013083 ], [ 139.84002317, 35.932245849 ], [ 139.839844903999989, 35.932445227 ], [ 139.83980972, 35.932488155 ], [ 139.839732825999988, 35.932602655 ], [ 139.839709094999989, 35.932637994 ], [ 139.839719546, 35.932660203 ], [ 139.839946083, 35.933217972 ], [ 139.83998827799999, 35.933333334 ], [ 139.839999084, 35.933362861 ], [ 139.840354221000013, 35.934245083 ], [ 139.8403628, 35.934266142 ], [ 139.841465813000013, 35.933827087 ], [ 139.841470199000014, 35.933701885 ], [ 139.841454089, 35.933641639 ], [ 139.841404197, 35.933455065 ], [ 139.841228210999986, 35.932982889 ], [ 139.841034635999989, 35.932532178 ], [ 139.84065711400001, 35.931594749 ], [ 139.840625057000011, 35.931607566 ] ] ] } },
{ "type": "Feature", "properties": { "A29_001": "11465", "A29_002": "埼玉県", "A29_003": "松伏町", "A29_004": 6, "A29_005": "第二種住居地域", "A29_006": 60, "A29_007": 200, "A29_008": null }, "geometry": { "type": "Polygon", "coordinates": [ [ [ 139.82626649, 35.928505282 ], [ 139.826900232000014, 35.927222993 ], [ 139.827082112999989, 35.926866334 ], [ 139.82707730199999, 35.926864708 ], [ 139.826725371, 35.926745766 ], [ 139.826668715000011, 35.926727372 ], [ 139.824743165, 35.926446714 ], [ 139.824679476, 35.926425523 ], [ 139.824635398, 35.926410857 ], [ 139.823231335, 35.925943675 ], [ 139.821813096, 35.925484696 ], [ 139.821757768999987, 35.925463312 ], [ 139.821877422, 35.925257404 ], [ 139.82192798299999, 35.925138557 ], [ 139.82201245499999, 35.924920357 ], [ 139.822065248, 35.924807323 ], [ 139.822154121000011, 35.924564083 ], [ 139.822203401, 35.924404545 ], [ 139.82223948, 35.924290794 ], [ 139.822254063, 35.924220376 ], [ 139.82228041, 35.924086978 ], [ 139.822314882, 35.92393197 ], [ 139.822350096, 35.923708996 ], [ 139.822380313, 35.923499657 ], [ 139.822432166999988, 35.923230306 ], [ 139.822459181, 35.922983123 ], [ 139.822497777, 35.922758552 ], [ 139.822527118000011, 35.922593766 ], [ 139.82254179200001, 35.922491698 ], [ 139.822554703, 35.922408995 ], [ 139.82258815599999, 35.922196513 ], [ 139.822601365, 35.922083475 ], [ 139.822642734999988, 35.92185597 ], [ 139.822685873000012, 35.921565507 ], [ 139.822723281, 35.921364115 ], [ 139.822740887, 35.921249646 ], [ 139.82275066, 35.921146549 ], [ 139.822802360999987, 35.920863435 ], [ 139.82283953000001, 35.920622734 ], [ 139.822877088000013, 35.92039332 ], [ 139.82290021599999, 35.920225997 ], [ 139.822905166999988, 35.920198472 ], [ 139.822937755, 35.919958096 ], [ 139.822989764, 35.919668592 ], [ 139.82300908799999, 35.919492118 ], [ 139.823017224000012, 35.919442085 ], [ 139.82204004499999, 35.919124618 ], [ 139.82195704899999, 35.919096506 ], [ 139.82181225, 35.919971417 ], [ 139.821773861, 35.920282194 ], [ 139.821705888999986, 35.920614889 ], [ 139.821658722, 35.920951583 ], [ 139.821599972, 35.921348806 ], [ 139.82123393099999, 35.92375665 ], [ 139.82105058, 35.924433314 ], [ 139.82090429499999, 35.924798409 ], [ 139.820722991999986, 35.9251273 ], [ 139.819552601999987, 35.92473702 ], [ 139.81945643899999, 35.924704576 ], [ 139.819275253, 35.924638019 ], [ 139.81912221499999, 35.924573612 ], [ 139.81891992300001, 35.924492743 ], [ 139.81873258499999, 35.924402576 ], [ 139.818689291999988, 35.924383527 ], [ 139.81865600399999, 35.92436888 ], [ 139.81865196199999, 35.924367102 ], [ 139.818531761, 35.924312833 ], [ 139.81850907, 35.92430167 ], [ 139.818384847, 35.92424038 ], [ 139.818211796000014, 35.92415157 ], [ 139.818101859, 35.924091459 ], [ 139.817939153999987, 35.9239877 ], [ 139.817627815, 35.923806655 ], [ 139.817468631, 35.923702895 ], [ 139.817254921, 35.923557633 ], [ 139.817028902, 35.923387329 ], [ 139.816762434999987, 35.923162646 ], [ 139.816590947, 35.923022396 ], [ 139.81638340500001, 35.922839215 ], [ 139.816197848, 35.922683939 ], [ 139.815968322, 35.922485015 ], [ 139.815920487999989, 35.922443134 ], [ 139.815891945, 35.922418144 ], [ 139.815817944, 35.922353353 ], [ 139.815370739, 35.921957304 ], [ 139.814915097000011, 35.921577923 ], [ 139.814834778, 35.921509416 ], [ 139.81469920699999, 35.921393784 ], [ 139.814679549, 35.921377137 ], [ 139.814662061, 35.921503849 ], [ 139.814561102999988, 35.922244607 ], [ 139.81578310399999, 35.923298568 ], [ 139.816393197999986, 35.923839704 ], [ 139.816691846999987, 35.924049904 ], [ 139.817133414000011, 35.924343591 ], [ 139.81759514399999, 35.924620884 ], [ 139.817946946, 35.924808731 ], [ 139.818305443000014, 35.924989193 ], [ 139.81853727, 35.925086733 ], [ 139.818771223999988, 35.925196939 ], [ 139.818973518, 35.925279239 ], [ 139.81948541700001, 35.925449573 ], [ 139.819890015, 35.925573389 ], [ 139.81988232, 35.925589745 ], [ 139.81972987099999, 35.92589961 ], [ 139.819582047000011, 35.926182906 ], [ 139.819432169, 35.926469778 ], [ 139.81952481499999, 35.926512715 ], [ 139.819958750000012, 35.926655992 ], [ 139.820494454, 35.926851255 ], [ 139.820506676, 35.92685571 ], [ 139.82057896, 35.926882056 ], [ 139.821443445, 35.927158696 ], [ 139.822934030999988, 35.927659587 ], [ 139.823585915, 35.927863866 ], [ 139.82380053599999, 35.927934711 ], [ 139.823863867999989, 35.927951886 ], [ 139.82416382, 35.927983389 ], [ 139.82464145599999, 35.928027781 ], [ 139.82505839800001, 35.928070737 ], [ 139.825289739, 35.928100086 ], [ 139.825527238, 35.928125142 ], [ 139.82580518899999, 35.928278263 ], [ 139.82603652200001, 35.92839847 ], [ 139.826209150000011, 35.928493183 ], [ 139.826260389, 35.928517725 ], [ 139.82626649, 35.928505282 ] ], [ [ 139.820647759, 35.926362736 ], [ 139.821058314, 35.925596721 ], [ 139.821228743, 35.925650894 ], [ 139.821565799000012, 35.925760709 ], [ 139.82362593900001, 35.926441082 ], [ 139.824335311999988, 35.926682556 ], [ 139.824481544, 35.926726274 ], [ 139.82447609, 35.926734715 ], [ 139.824233650999986, 35.927109914 ], [ 139.824045637000012, 35.927396467 ], [ 139.824002162999989, 35.92746641 ], [ 139.821073453, 35.926501476 ], [ 139.820647759, 35.926362736 ] ] ] } }
]
}
