{
"type": "FeatureCollection",
"name": "A29-19_11362",
"features": [
{ "type": "Feature", "properties": { "A29_001": "11362", "A29_002": "埼玉県", "A29_003": "皆野町", "A29_004": 8, "A29_005": "近隣商業地域", "A29_006": 80, "A29_007": 200, "A29_008": null }, "geometry": { "type": "Polygon", "coordinates": [ [ [ 139.106287165999987, 36.077679044 ], [ 139.10601710899999, 36.077624389 ], [ 139.105934565000013, 36.077607684 ], [ 139.105691944, 36.077558582 ], [ 139.105613307999988, 36.077971694 ], [ 139.105546855999989, 36.078320793 ], [ 139.104705114000012, 36.077855436 ], [ 139.104524149000014, 36.077814437 ], [ 139.10376411199999, 36.077642243 ], [ 139.10358214199999, 36.077586764 ], [ 139.10346279699999, 36.077531667 ], [ 139.103355869000012, 36.07746806 ], [ 139.102879336, 36.076965806 ], [ 139.101900879, 36.076747029 ], [ 139.10213178699999, 36.07703102 ], [ 139.10294279199999, 36.077958834 ], [ 139.103874652, 36.078207748 ], [ 139.104158168999987, 36.07825464 ], [ 139.104277736, 36.078285891 ], [ 139.10437141700001, 36.078320801 ], [ 139.105582215, 36.078946983 ], [ 139.10781875399999, 36.080118304 ], [ 139.107955944, 36.079972647 ], [ 139.108060574, 36.079861557 ], [ 139.108181043, 36.079733652 ], [ 139.108216277999986, 36.079696241 ], [ 139.108033651999989, 36.07959994 ], [ 139.107050264, 36.079081378 ], [ 139.10613476099999, 36.0785986 ], [ 139.106170977, 36.078402357 ], [ 139.106227515, 36.078095999 ], [ 139.106253646, 36.077913346 ], [ 139.106277025999987, 36.077749926 ], [ 139.106287165999987, 36.077679044 ] ] ] } },
{ "type": "Feature", "properties": { "A29_001": "11362", "A29_002": "埼玉県", "A29_003": "皆野町", "A29_004": 5, "A29_005": "第一種住居地域", "A29_006": 60, "A29_007": 200, "A29_008": null }, "geometry": { "type": "Polygon", "coordinates": [ [ [ 139.109817733999989, 36.08121841 ], [ 139.109852007, 36.081164962 ], [ 139.110502336, 36.079440105 ], [ 139.11051998799999, 36.079308936 ], [ 139.110548048999988, 36.079131685 ], [ 139.11054790899999, 36.078954266 ], [ 139.11051616200001, 36.078763778 ], [ 139.110438722, 36.078558706 ], [ 139.11038506700001, 36.078451072 ], [ 139.110254387, 36.078285742 ], [ 139.110060521, 36.078091414 ], [ 139.109649733999987, 36.078103241 ], [ 139.10898193, 36.078080604 ], [ 139.10862255699999, 36.07805983 ], [ 139.108280900000011, 36.078029147 ], [ 139.10791814800001, 36.077992611 ], [ 139.10748515899999, 36.077927033 ], [ 139.106287165999987, 36.077679044 ], [ 139.106277025999987, 36.077749926 ], [ 139.106253646, 36.077913346 ], [ 139.106227515, 36.078095999 ], [ 139.106170977, 36.078402357 ], [ 139.10613476099999, 36.0785986 ], [ 139.107050264, 36.079081378 ], [ 139.108033651999989, 36.07959994 ], [ 139.108216277999986, 36.079696241 ], [ 139.108181043, 36.079733652 ], [ 139.108060574, 36.079861557 ], [ 139.107955944, 36.079972647 ], [ 139.10781875399999, 36.080118304 ], [ 139.105582215, 36.078946983 ], [ 139.10558413199999, 36.078990765 ], [ 139.105601482999987, 36.079020679 ], [ 139.105615731, 36.079068459 ], [ 139.105609055, 36.079155458 ], [ 139.105581848000014, 36.079238756 ], [ 139.105532677000014, 36.079314767 ], [ 139.105474869, 36.079371647 ], [ 139.105431769, 36.079426233 ], [ 139.105388616, 36.079486779 ], [ 139.10536607899999, 36.07954149 ], [ 139.10535086499999, 36.07959863 ], [ 139.105339858, 36.079677256 ], [ 139.105342025999988, 36.079760733 ], [ 139.10537288899999, 36.079918308 ], [ 139.10571192899999, 36.079978555 ], [ 139.105818918000011, 36.080004243 ], [ 139.10590971799999, 36.08003341 ], [ 139.10601794499999, 36.080084146 ], [ 139.10607499599999, 36.080109531 ], [ 139.106130764999989, 36.080114639 ], [ 139.106183673, 36.080111383 ], [ 139.106230806000013, 36.080097361 ], [ 139.106294158999987, 36.080076283 ], [ 139.106351550999989, 36.080064709 ], [ 139.106439763999987, 36.080055706 ], [ 139.10652051299999, 36.080059772 ], [ 139.106637772, 36.080086715 ], [ 139.10673584, 36.080124272 ], [ 139.106835222, 36.08017853 ], [ 139.106921375000013, 36.0802339 ], [ 139.106993103, 36.080260566 ], [ 139.107081130000012, 36.08027183 ], [ 139.107151565, 36.080279412 ], [ 139.107210184, 36.080294075 ], [ 139.107281902000011, 36.080321933 ], [ 139.107469191, 36.08040057 ], [ 139.10751309, 36.080418721 ], [ 139.107571753, 36.080428615 ], [ 139.10767442400001, 36.080444737 ], [ 139.10782824, 36.080489785 ], [ 139.107926351, 36.080522573 ], [ 139.10803310099999, 36.080574489 ], [ 139.108126445000011, 36.080646594 ], [ 139.108186042, 36.080714918 ], [ 139.108237142, 36.080748613 ], [ 139.108301538, 36.080774041 ], [ 139.108427447999986, 36.08081892 ], [ 139.108512254, 36.080861164 ], [ 139.10874475, 36.080975842 ], [ 139.108826717999989, 36.081007339 ], [ 139.10888538099999, 36.081017233 ], [ 139.108967490999987, 36.08103323 ], [ 139.109071632, 36.08104936 ], [ 139.109150695000011, 36.081077261 ], [ 139.109225318999989, 36.081108713 ], [ 139.109315826, 36.081170068 ], [ 139.109403636, 36.081205177 ], [ 139.109425784, 36.081213138 ], [ 139.109481229000011, 36.081233069 ], [ 139.1097456, 36.081235859 ], [ 139.109817733999989, 36.08121841 ] ] ] } },
{ "type": "Feature", "properties": { "A29_001": "11362", "A29_002": "埼玉県", "A29_003": "皆野町", "A29_004": 4, "A29_005": "第二種中高層住居専用地域", "A29_006": 60, "A29_007": 200, "A29_008": null }, "geometry": { "type": "Polygon", "coordinates": [ [ [ 139.105582215, 36.078946983 ], [ 139.10437141700001, 36.078320801 ], [ 139.104277736, 36.078285891 ], [ 139.104158168999987, 36.07825464 ], [ 139.103874652, 36.078207748 ], [ 139.10294279199999, 36.077958834 ], [ 139.10213178699999, 36.07703102 ], [ 139.101813471000014, 36.076949636 ], [ 139.10170285, 36.077475495 ], [ 139.10083012699999, 36.077376802 ], [ 139.10079615699999, 36.077520833 ], [ 139.100692525999989, 36.077960204 ], [ 139.100587389, 36.078606401 ], [ 139.100632674, 36.078712437 ], [ 139.10067432299999, 36.078782802 ], [ 139.10071770799999, 36.078856038 ], [ 139.10079095, 36.078940902 ], [ 139.100867677, 36.079030082 ], [ 139.100949399, 36.079150768 ], [ 139.101010172, 36.079249865 ], [ 139.101041127, 36.079333041 ], [ 139.10104933, 36.079398907 ], [ 139.101056895999989, 36.079533449 ], [ 139.10106862399999, 36.079599337 ], [ 139.101092649, 36.079669593 ], [ 139.101139533, 36.079745712 ], [ 139.101161982, 36.079795927 ], [ 139.101175446000013, 36.079864688 ], [ 139.101176213, 36.079972002 ], [ 139.101156785, 36.080166473 ], [ 139.101264324999988, 36.080164268 ], [ 139.101375708, 36.080127748 ], [ 139.101520711, 36.080077125 ], [ 139.101702964999987, 36.080000975 ], [ 139.101816097000011, 36.079965896 ], [ 139.101913141000011, 36.079955043 ], [ 139.102047091, 36.07995586 ], [ 139.10214210699999, 36.07997361 ], [ 139.102237124, 36.079991359 ], [ 139.10233051099999, 36.079994791 ], [ 139.102415216999987, 36.079983861 ], [ 139.102542328999988, 36.079961744 ], [ 139.102628785, 36.079952256 ], [ 139.10267634600001, 36.079955407 ], [ 139.10273428299999, 36.079980085 ], [ 139.10278672199999, 36.08002762 ], [ 139.102847894, 36.080083795 ], [ 139.10289517699999, 36.080116992 ], [ 139.102954958, 36.080133095 ], [ 139.103034218, 36.080139301 ], [ 139.103104731, 36.080138301 ], [ 139.10318595199999, 36.080123056 ], [ 139.103270896999987, 36.080086374 ], [ 139.103396577000012, 36.080028476 ], [ 139.103453108999986, 36.080014513 ], [ 139.10357671, 36.079990943 ], [ 139.10391072199999, 36.079895683 ], [ 139.104048514999988, 36.079862182 ], [ 139.104126197, 36.079848347 ], [ 139.104225108, 36.079826056 ], [ 139.104300975, 36.079817933 ], [ 139.104445606000013, 36.079807367 ], [ 139.104764553, 36.079816462 ], [ 139.10494062, 36.079837563 ], [ 139.105099074, 36.079857127 ], [ 139.105227512999988, 36.079882231 ], [ 139.105310179000014, 36.079901335 ], [ 139.10537288899999, 36.079918308 ], [ 139.105342025999988, 36.079760733 ], [ 139.105339858, 36.079677256 ], [ 139.10535086499999, 36.07959863 ], [ 139.10536607899999, 36.07954149 ], [ 139.105388616, 36.079486779 ], [ 139.105431769, 36.079426233 ], [ 139.105474869, 36.079371647 ], [ 139.105532677000014, 36.079314767 ], [ 139.105581848000014, 36.079238756 ], [ 139.105609055, 36.079155458 ], [ 139.105615731, 36.079068459 ], [ 139.105601482999987, 36.079020679 ], [ 139.10558413199999, 36.078990765 ], [ 139.105582215, 36.078946983 ] ] ] } },
{ "type": "Feature", "properties": { "A29_001": "11362", "A29_002": "埼玉県", "A29_003": "皆野町", "A29_004": 3, "A29_005": "第一種中高層住居専用地域", "A29_006": 60, "A29_007": 200, "A29_008": null }, "geometry": { "type": "Polygon", "coordinates": [ [ [ 139.101156785, 36.080166473 ], [ 139.101176213, 36.079972002 ], [ 139.101175446000013, 36.079864688 ], [ 139.101161982, 36.079795927 ], [ 139.101139533, 36.079745712 ], [ 139.101092649, 36.079669593 ], [ 139.10106862399999, 36.079599337 ], [ 139.101056895999989, 36.079533449 ], [ 139.10104933, 36.079398907 ], [ 139.101041127, 36.079333041 ], [ 139.101010172, 36.079249865 ], [ 139.100949399, 36.079150768 ], [ 139.100867677, 36.079030082 ], [ 139.10079095, 36.078940902 ], [ 139.10071770799999, 36.078856038 ], [ 139.10067432299999, 36.078782802 ], [ 139.100632674, 36.078712437 ], [ 139.100587389, 36.078606401 ], [ 139.100692525999989, 36.077960204 ], [ 139.10079615699999, 36.077520833 ], [ 139.10083012699999, 36.077376802 ], [ 139.100609007, 36.07733336 ], [ 139.10012516899999, 36.077303692 ], [ 139.099603768, 36.077269975 ], [ 139.09914786499999, 36.07726909 ], [ 139.098966565000012, 36.077306133 ], [ 139.098792333, 36.077341312 ], [ 139.09870528, 36.077352224 ], [ 139.09864411, 36.07735948 ], [ 139.098645849, 36.077390792 ], [ 139.098648136, 36.077431998 ], [ 139.098664125, 36.077481698 ], [ 139.098661064999988, 36.077557988 ], [ 139.09862938099999, 36.077679888 ], [ 139.098600436999988, 36.077759836 ], [ 139.098502989, 36.077877517 ], [ 139.097481585999986, 36.079044502 ], [ 139.097393944, 36.079118365 ], [ 139.09709380699999, 36.079297756 ], [ 139.097291992, 36.079466854 ], [ 139.097334079, 36.079490005 ], [ 139.097409225, 36.07949619 ], [ 139.09750326, 36.079492952 ], [ 139.09760212, 36.07947639 ], [ 139.09768700399999, 36.079446388 ], [ 139.09773649499999, 36.079431429 ], [ 139.097797436, 36.079448973 ], [ 139.097886308999989, 36.079495304 ], [ 139.098154588999989, 36.07970871 ], [ 139.09827830399999, 36.079799132 ], [ 139.098395326, 36.07985136 ], [ 139.098772612, 36.079968138 ], [ 139.099136030000011, 36.080060029 ], [ 139.099351823, 36.080105229 ], [ 139.099612427000011, 36.080133534 ], [ 139.09987066299999, 36.080163731 ], [ 139.10010087500001, 36.08017468 ], [ 139.100338279999988, 36.08017041 ], [ 139.100599362, 36.080147206 ], [ 139.100806127999988, 36.080152286 ], [ 139.100977502, 36.080172411 ], [ 139.101156785, 36.080166473 ] ] ] } },
{ "type": "Feature", "properties": { "A29_001": "11362", "A29_002": "埼玉県", "A29_003": "皆野町", "A29_004": 4, "A29_005": "第二種中高層住居専用地域", "A29_006": 60, "A29_007": 200, "A29_008": null }, "geometry": { "type": "Polygon", "coordinates": [ [ [ 139.09864411, 36.07735948 ], [ 139.098633044, 36.077223808 ], [ 139.098606015, 36.077097732 ], [ 139.098590683999987, 36.076977451 ], [ 139.09856793, 36.076897186 ], [ 139.098533621, 36.076795866 ], [ 139.09852272399999, 36.076704228 ], [ 139.098517001, 36.076648473 ], [ 139.098516257999989, 36.076641233 ], [ 139.098516915, 36.076570651 ], [ 139.09840203600001, 36.076541331 ], [ 139.09824496499999, 36.076500304 ], [ 139.098144185, 36.076471069 ], [ 139.098038742, 36.076437991 ], [ 139.097977345, 36.076406613 ], [ 139.097888243, 36.076353604 ], [ 139.09776846599999, 36.07628252 ], [ 139.09772019799999, 36.076260762 ], [ 139.09743968, 36.076259039 ], [ 139.097408715, 36.076271965 ], [ 139.09722366299999, 36.076428215 ], [ 139.09716753, 36.076462448 ], [ 139.097124783999988, 36.076478878 ], [ 139.096284615, 36.076482058 ], [ 139.096328175999986, 36.076535981 ], [ 139.096383162, 36.076624552 ], [ 139.096403224, 36.07667833 ], [ 139.09641883399999, 36.07673685 ], [ 139.096429117000014, 36.076894301 ], [ 139.096466435999986, 36.076987533 ], [ 139.09651836399999, 36.077089201 ], [ 139.096571415999989, 36.077227838 ], [ 139.096609526, 36.077393807 ], [ 139.096621577, 36.077519075 ], [ 139.09665717199999, 36.07763972 ], [ 139.096694336000013, 36.077749643 ], [ 139.096760550999988, 36.077894323 ], [ 139.09681402699999, 36.077987654 ], [ 139.096834045, 36.078046201 ], [ 139.096848845000011, 36.078191756 ], [ 139.096855655000013, 36.07824903 ], [ 139.096868339999986, 36.07830634 ], [ 139.096907218000013, 36.078390042 ], [ 139.09692432, 36.078446187 ], [ 139.096937817999986, 36.07857385 ], [ 139.096954613, 36.078978154 ], [ 139.096965407, 36.079080761 ], [ 139.09698820700001, 36.079156018 ], [ 139.097024204, 36.07923374 ], [ 139.09709380699999, 36.079297756 ], [ 139.097393944, 36.079118365 ], [ 139.097481585999986, 36.079044502 ], [ 139.098502989, 36.077877517 ], [ 139.098600436999988, 36.077759836 ], [ 139.09862938099999, 36.077679888 ], [ 139.098661064999988, 36.077557988 ], [ 139.098664125, 36.077481698 ], [ 139.098648136, 36.077431998 ], [ 139.098645849, 36.077390792 ], [ 139.09864411, 36.07735948 ] ] ] } },
{ "type": "Feature", "properties": { "A29_001": "11362", "A29_002": "埼玉県", "A29_003": "皆野町", "A29_004": 10, "A29_005": "準工業地域", "A29_006": 60, "A29_007": 200, "A29_008": null }, "geometry": { "type": "Polygon", "coordinates": [ [ [ 139.098516915, 36.076570651 ], [ 139.098516257999989, 36.076641233 ], [ 139.098517001, 36.076648473 ], [ 139.098516915, 36.076570651 ] ] ] } },
{ "type": "Feature", "properties": { "A29_001": "11362", "A29_002": "埼玉県", "A29_003": "皆野町", "A29_004": 10, "A29_005": "準工業地域", "A29_006": 60, "A29_007": 200, "A29_008": null }, "geometry": { "type": "Polygon", "coordinates": [ [ [ 139.101813471000014, 36.076949636 ], [ 139.101654808, 36.076924924 ], [ 139.101517497, 36.076906916 ], [ 139.101012661, 36.076860907 ], [ 139.10074256199999, 36.076843994 ], [ 139.10013888200001, 36.076813592 ], [ 139.100009777999986, 36.07679754 ], [ 139.099409051, 36.07670229 ], [ 139.099120633000013, 36.076633751 ], [ 139.098986846, 36.076615761 ], [ 139.098813043, 36.076605157 ], [ 139.098707315000013, 36.076602601 ], [ 139.09862987299999, 36.07659068 ], [ 139.098516915, 36.076570651 ], [ 139.098517001, 36.076648473 ], [ 139.09852272399999, 36.076704228 ], [ 139.098533621, 36.076795866 ], [ 139.09856793, 36.076897186 ], [ 139.098590683999987, 36.076977451 ], [ 139.098606015, 36.077097732 ], [ 139.098633044, 36.077223808 ], [ 139.09864411, 36.07735948 ], [ 139.09870528, 36.077352224 ], [ 139.098792333, 36.077341312 ], [ 139.098966565000012, 36.077306133 ], [ 139.09914786499999, 36.07726909 ], [ 139.099603768, 36.077269975 ], [ 139.10012516899999, 36.077303692 ], [ 139.100609007, 36.07733336 ], [ 139.10083012699999, 36.077376802 ], [ 139.10170285, 36.077475495 ], [ 139.101813471000014, 36.076949636 ] ] ] } },
{ "type": "Feature", "properties": { "A29_001": "11362", "A29_002": "埼玉県", "A29_003": "皆野町", "A29_004": 4, "A29_005": "第二種中高層住居専用地域", "A29_006": 60, "A29_007": 200, "A29_008": null }, "geometry": { "type": "Polygon", "coordinates": [ [ [ 139.097614494999988, 36.072199237 ], [ 139.09760993399999, 36.072195726 ], [ 139.097106317999987, 36.07186474 ], [ 139.096817713, 36.071707963 ], [ 139.096723814, 36.071681869 ], [ 139.096637793000014, 36.071645571 ], [ 139.096560785, 36.071587865 ], [ 139.096517033999987, 36.071554687 ], [ 139.096473081999989, 36.071542971 ], [ 139.096342778, 36.071530723 ], [ 139.096184169999987, 36.071529747 ], [ 139.096047015000011, 36.071495994 ], [ 139.09593105, 36.071458079 ], [ 139.095832519999988, 36.071440303 ], [ 139.095771186, 36.071402725 ], [ 139.095732856000012, 36.071355273 ], [ 139.09535140700001, 36.070729691 ], [ 139.0950445, 36.070253251 ], [ 139.094542214, 36.069625372 ], [ 139.094338728999986, 36.069712349 ], [ 139.094348894, 36.069881724 ], [ 139.094389584, 36.070242059 ], [ 139.09443056500001, 36.070571396 ], [ 139.094466251, 36.070838699 ], [ 139.094514154, 36.071055998 ], [ 139.094571137, 36.071244739 ], [ 139.094634127, 36.071419208 ], [ 139.094732009000012, 36.071632046 ], [ 139.094798071000014, 36.071792227 ], [ 139.094954252, 36.072053118 ], [ 139.095110411, 36.072316393 ], [ 139.09523811299999, 36.072481722 ], [ 139.095421243, 36.072687932 ], [ 139.09559551800001, 36.072898856 ], [ 139.096025736, 36.073383206 ], [ 139.09637180199999, 36.073757344 ], [ 139.096683267, 36.074062113 ], [ 139.096995002, 36.074338265 ], [ 139.097397263, 36.074672206 ], [ 139.097750413, 36.074917611 ], [ 139.098133028, 36.075153658 ], [ 139.09851003599999, 36.075361052 ], [ 139.098919558, 36.075547182 ], [ 139.099437297, 36.075784053 ], [ 139.099814821, 36.075936599 ], [ 139.09999634, 36.076002097 ], [ 139.100251205, 36.076077581 ], [ 139.100526632, 36.076153191 ], [ 139.100933999, 36.076255838 ], [ 139.101253509, 36.076329331 ], [ 139.101511469, 36.076388139 ], [ 139.10157571900001, 36.076406722 ], [ 139.101239298, 36.07597679 ], [ 139.100886761999988, 36.075584146 ], [ 139.100726838000014, 36.0754073 ], [ 139.100570698000013, 36.075218552 ], [ 139.100440093, 36.075047846 ], [ 139.1003676, 36.074946054 ], [ 139.10026625899999, 36.07478745 ], [ 139.099991391, 36.074335662 ], [ 139.099882321, 36.074218742 ], [ 139.099408719, 36.073816409 ], [ 139.099190306, 36.073612375 ], [ 139.09900844399999, 36.073426448 ], [ 139.098673733999988, 36.073093523 ], [ 139.098331518, 36.072778437 ], [ 139.097941685, 36.072451134 ], [ 139.097614494999988, 36.072199237 ] ] ] } },
{ "type": "Feature", "properties": { "A29_001": "11362", "A29_002": "埼玉県", "A29_003": "皆野町", "A29_004": 5, "A29_005": "第一種住居地域", "A29_006": 60, "A29_007": 200, "A29_008": null }, "geometry": { "type": "Polygon", "coordinates": [ [ [ 139.10601710899999, 36.077624389 ], [ 139.106063854000013, 36.077261323 ], [ 139.105714983000013, 36.07718528 ], [ 139.105151256, 36.076516533 ], [ 139.10468842899999, 36.07600011 ], [ 139.103973677, 36.075202571 ], [ 139.103805314, 36.074984541 ], [ 139.103448039999989, 36.074865517 ], [ 139.103307113999989, 36.074857504 ], [ 139.103119104, 36.074858743 ], [ 139.102304581999988, 36.074949162 ], [ 139.101763578, 36.074998517 ], [ 139.101569589, 36.075016214 ], [ 139.101606228, 36.074876987 ], [ 139.101764443, 36.074275773 ], [ 139.101539994, 36.074088399 ], [ 139.101438093000013, 36.073990005 ], [ 139.101347987, 36.073886913 ], [ 139.10127234699999, 36.073807758 ], [ 139.100975637, 36.073810713 ], [ 139.100790456, 36.073823889 ], [ 139.100707969000013, 36.073849616 ], [ 139.10065463399999, 36.073899368 ], [ 139.100627511999988, 36.073973126 ], [ 139.100603151, 36.07406598 ], [ 139.100599128, 36.074099135 ], [ 139.10059108499999, 36.074165427 ], [ 139.100590430000011, 36.074170827 ], [ 139.100536938, 36.0741122 ], [ 139.100348144, 36.073905279 ], [ 139.10013970599999, 36.073676828 ], [ 139.099825092, 36.073393512 ], [ 139.09998437499999, 36.073005786 ], [ 139.100028986000012, 36.072946443 ], [ 139.100224770000011, 36.072740176 ], [ 139.099832757, 36.072251303 ], [ 139.099707806, 36.072105074 ], [ 139.09957144, 36.071923005 ], [ 139.099501921000012, 36.071817653 ], [ 139.09946168499999, 36.07172202 ], [ 139.099381437, 36.071506909 ], [ 139.099358626, 36.071432844 ], [ 139.09931349199999, 36.071232255 ], [ 139.099902343999986, 36.071083244 ], [ 139.100238045999987, 36.070992296 ], [ 139.100497358000013, 36.070903265 ], [ 139.10042023, 36.070794848 ], [ 139.099319758, 36.068786421 ], [ 139.097969333, 36.06934092 ], [ 139.09783115499999, 36.06935438 ], [ 139.09768109699999, 36.069382074 ], [ 139.09684976299999, 36.069706049 ], [ 139.096849141, 36.069772817 ], [ 139.096831028999986, 36.069825168 ], [ 139.096789487, 36.069870221 ], [ 139.096724537, 36.069905592 ], [ 139.096512374000014, 36.070004513 ], [ 139.09649737699999, 36.070011505 ], [ 139.09652394299999, 36.070041369 ], [ 139.096912113, 36.070477724 ], [ 139.097415826, 36.071043957 ], [ 139.09765916399999, 36.071317494 ], [ 139.09773471, 36.07140619 ], [ 139.09777807899999, 36.071480381 ], [ 139.097803715999987, 36.071566387 ], [ 139.097804438999987, 36.071646476 ], [ 139.09778268, 36.071775114 ], [ 139.097744158000012, 36.071893918 ], [ 139.097726733, 36.071947659 ], [ 139.097614494999988, 36.072199237 ], [ 139.097941685, 36.072451134 ], [ 139.098331518, 36.072778437 ], [ 139.098673733999988, 36.073093523 ], [ 139.09900844399999, 36.073426448 ], [ 139.099190306, 36.073612375 ], [ 139.099408719, 36.073816409 ], [ 139.099882321, 36.074218742 ], [ 139.099991391, 36.074335662 ], [ 139.10026625899999, 36.07478745 ], [ 139.1003676, 36.074946054 ], [ 139.100440093, 36.075047846 ], [ 139.100570698000013, 36.075218552 ], [ 139.100726838000014, 36.0754073 ], [ 139.100886761999988, 36.075584146 ], [ 139.101239298, 36.07597679 ], [ 139.10157571900001, 36.076406722 ], [ 139.101511469, 36.076388139 ], [ 139.101253509, 36.076329331 ], [ 139.100933999, 36.076255838 ], [ 139.100526632, 36.076153191 ], [ 139.100251205, 36.076077581 ], [ 139.09999634, 36.076002097 ], [ 139.099814821, 36.075936599 ], [ 139.099437297, 36.075784053 ], [ 139.098919558, 36.075547182 ], [ 139.09851003599999, 36.075361052 ], [ 139.098133028, 36.075153658 ], [ 139.097750413, 36.074917611 ], [ 139.097397263, 36.074672206 ], [ 139.096995002, 36.074338265 ], [ 139.096683267, 36.074062113 ], [ 139.09637180199999, 36.073757344 ], [ 139.096025736, 36.073383206 ], [ 139.09559551800001, 36.072898856 ], [ 139.095421243, 36.072687932 ], [ 139.09523811299999, 36.072481722 ], [ 139.095110411, 36.072316393 ], [ 139.094954252, 36.072053118 ], [ 139.094798071000014, 36.071792227 ], [ 139.094732009000012, 36.071632046 ], [ 139.094634127, 36.071419208 ], [ 139.094571137, 36.071244739 ], [ 139.094514154, 36.071055998 ], [ 139.094466251, 36.070838699 ], [ 139.09443056500001, 36.070571396 ], [ 139.094389584, 36.070242059 ], [ 139.094348894, 36.069881724 ], [ 139.094338728999986, 36.069712349 ], [ 139.094034334000014, 36.069840283 ], [ 139.094062235, 36.06842754 ], [ 139.09322318299999, 36.067902501 ], [ 139.09271757499999, 36.067632294 ], [ 139.09259778099999, 36.067564783 ], [ 139.092457585, 36.067480453 ], [ 139.092352478, 36.067413031 ], [ 139.09229131399999, 36.067357806 ], [ 139.092192305, 36.067266576 ], [ 139.092113832, 36.067177858 ], [ 139.091991595, 36.067057868 ], [ 139.09187483, 36.066980836 ], [ 139.091807703, 36.066935112 ], [ 139.091603119000013, 36.066826536 ], [ 139.091565734, 36.066806044 ], [ 139.09122908399999, 36.066621522 ], [ 139.090896168, 36.066416763 ], [ 139.09086014, 36.066500002 ], [ 139.090856443, 36.066581059 ], [ 139.090858685, 36.066654997 ], [ 139.090869559999987, 36.066748067 ], [ 139.090909579999987, 36.066865164 ], [ 139.09095839, 36.066984699 ], [ 139.091024686999987, 36.067118652 ], [ 139.091380726000011, 36.067676484 ], [ 139.091731208999988, 36.068200897 ], [ 139.092081674000013, 36.068727692 ], [ 139.09248127, 36.069340639 ], [ 139.092762103000013, 36.069776384 ], [ 139.093280748000012, 36.070537914 ], [ 139.093544258, 36.07094255 ], [ 139.09368341199999, 36.071138952 ], [ 139.093915262, 36.071474236 ], [ 139.093312012000013, 36.071904521 ], [ 139.093123114, 36.072001124 ], [ 139.092564406, 36.072379217 ], [ 139.09280643, 36.072569102 ], [ 139.092879235, 36.072636323 ], [ 139.092940381, 36.072693933 ], [ 139.092987131, 36.072720453 ], [ 139.093022221000012, 36.072737362 ], [ 139.09307798399999, 36.072742477 ], [ 139.09315389599999, 36.072739368 ], [ 139.09319209200001, 36.072738412 ], [ 139.093240533, 36.072741096 ], [ 139.093269806, 36.072752008 ], [ 139.09333550299999, 36.072794145 ], [ 139.093425988, 36.072855513 ], [ 139.093520946000012, 36.072909755 ], [ 139.093602887, 36.072942453 ], [ 139.093700794, 36.072995521 ], [ 139.09374305, 36.073031552 ], [ 139.093767681, 36.073067474 ], [ 139.09380350399999, 36.073163082 ], [ 139.093832397999989, 36.07321453 ], [ 139.09386433899999, 36.073254075 ], [ 139.093893443000013, 36.073282871 ], [ 139.093934353, 36.073305777 ], [ 139.093976899000012, 36.073310809 ], [ 139.094091451999986, 36.073311516 ], [ 139.094136956999989, 36.073314182 ], [ 139.094164772, 36.073323892 ], [ 139.09420994300001, 36.073362325 ], [ 139.094256492999989, 36.073410306 ], [ 139.094314536000013, 36.073485781 ], [ 139.09434486399999, 36.073540815 ], [ 139.094375136999986, 36.073601811 ], [ 139.094404196999989, 36.073635375 ], [ 139.094436217, 36.073666574 ], [ 139.094503462, 36.073700374 ], [ 139.09461023899999, 36.073747533 ], [ 139.09472003, 36.073786365 ], [ 139.094814989000014, 36.073840605 ], [ 139.095204567, 36.074116051 ], [ 139.095322501999988, 36.074226471 ], [ 139.095449161, 36.074346485 ], [ 139.09553485399999, 36.074449553 ], [ 139.09558855899999, 36.074517848 ], [ 139.095677224000013, 36.074617357 ], [ 139.095746351, 36.074764439 ], [ 139.095797075, 36.074837484 ], [ 139.095847988, 36.074890261 ], [ 139.09589002300001, 36.074950136 ], [ 139.095943373000011, 36.075056581 ], [ 139.095985985999988, 36.075211847 ], [ 139.096045913000012, 36.075400605 ], [ 139.09605462499999, 36.075568777 ], [ 139.096041385, 36.075728468 ], [ 139.09604800599999, 36.075806011 ], [ 139.096099165, 36.075989945 ], [ 139.096136005, 36.076134444 ], [ 139.096184638000011, 36.076274246 ], [ 139.096218819, 36.07638892 ], [ 139.096284615, 36.076482058 ], [ 139.097124783999988, 36.076478878 ], [ 139.09716753, 36.076462448 ], [ 139.09722366299999, 36.076428215 ], [ 139.097408715, 36.076271965 ], [ 139.09743968, 36.076259039 ], [ 139.09772019799999, 36.076260762 ], [ 139.09776846599999, 36.07628252 ], [ 139.097888243, 36.076353604 ], [ 139.097977345, 36.076406613 ], [ 139.098038742, 36.076437991 ], [ 139.098144185, 36.076471069 ], [ 139.09824496499999, 36.076500304 ], [ 139.09840203600001, 36.076541331 ], [ 139.098516915, 36.076570651 ], [ 139.09862987299999, 36.07659068 ], [ 139.098707315000013, 36.076602601 ], [ 139.098813043, 36.076605157 ], [ 139.098986846, 36.076615761 ], [ 139.099120633000013, 36.076633751 ], [ 139.099409051, 36.07670229 ], [ 139.100009777999986, 36.07679754 ], [ 139.10013888200001, 36.076813592 ], [ 139.10074256199999, 36.076843994 ], [ 139.101012661, 36.076860907 ], [ 139.101517497, 36.076906916 ], [ 139.101654808, 36.076924924 ], [ 139.101813471000014, 36.076949636 ], [ 139.10213178699999, 36.07703102 ], [ 139.101900879, 36.076747029 ], [ 139.102879336, 36.076965806 ], [ 139.103355869000012, 36.07746806 ], [ 139.10346279699999, 36.077531667 ], [ 139.10358214199999, 36.077586764 ], [ 139.10376411199999, 36.077642243 ], [ 139.104524149000014, 36.077814437 ], [ 139.104705114000012, 36.077855436 ], [ 139.105546855999989, 36.078320793 ], [ 139.105613307999988, 36.077971694 ], [ 139.105691944, 36.077558582 ], [ 139.105934565000013, 36.077607684 ], [ 139.10601710899999, 36.077624389 ] ] ] } },
{ "type": "Feature", "properties": { "A29_001": "11362", "A29_002": "埼玉県", "A29_003": "皆野町", "A29_004": 8, "A29_005": "近隣商業地域", "A29_006": 80, "A29_007": 200, "A29_008": null }, "geometry": { "type": "Polygon", "coordinates": [ [ [ 139.09649737699999, 36.070011505 ], [ 139.096349443, 36.069844006 ], [ 139.096222305999987, 36.069697163 ], [ 139.096124234, 36.069583288 ], [ 139.096051585, 36.069499377 ], [ 139.095997598, 36.069382793 ], [ 139.09594375099999, 36.069251305 ], [ 139.095881609, 36.069064441 ], [ 139.095778462999988, 36.068786231 ], [ 139.095698559999988, 36.068661259 ], [ 139.095648657, 36.068532179 ], [ 139.095495223, 36.068166381 ], [ 139.095435560999988, 36.067949962 ], [ 139.095274511000014, 36.067967552 ], [ 139.095013932, 36.067996011 ], [ 139.094729838, 36.068034322 ], [ 139.094558592999988, 36.068066175 ], [ 139.094040342999989, 36.067702416 ], [ 139.093979907, 36.06766587 ], [ 139.093574201, 36.067420533 ], [ 139.093063497, 36.067192742 ], [ 139.092917943, 36.06711601 ], [ 139.09283907299999, 36.067069737 ], [ 139.092786649, 36.067022197 ], [ 139.092695845, 36.066932925 ], [ 139.092454765000014, 36.066706799 ], [ 139.09233043899999, 36.066621613 ], [ 139.091816838, 36.066327983 ], [ 139.091671461, 36.066232649 ], [ 139.091485568, 36.066135636 ], [ 139.091361272, 36.066047587 ], [ 139.09130017199999, 36.065985683 ], [ 139.091265506000013, 36.065923945 ], [ 139.091241426000011, 36.065860841 ], [ 139.090969782, 36.066075208 ], [ 139.090972595000011, 36.066151058 ], [ 139.091001584999987, 36.066254255 ], [ 139.09099692699999, 36.066261435 ], [ 139.090896168, 36.066416763 ], [ 139.09122908399999, 36.066621522 ], [ 139.091565734, 36.066806044 ], [ 139.091603119000013, 36.066826536 ], [ 139.091807703, 36.066935112 ], [ 139.09187483, 36.066980836 ], [ 139.091991595, 36.067057868 ], [ 139.092113832, 36.067177858 ], [ 139.092192305, 36.067266576 ], [ 139.09229131399999, 36.067357806 ], [ 139.092352478, 36.067413031 ], [ 139.092457585, 36.067480453 ], [ 139.09259778099999, 36.067564783 ], [ 139.09271757499999, 36.067632294 ], [ 139.09322318299999, 36.067902501 ], [ 139.094062235, 36.06842754 ], [ 139.094034334000014, 36.069840283 ], [ 139.094338728999986, 36.069712349 ], [ 139.094542214, 36.069625372 ], [ 139.0950445, 36.070253251 ], [ 139.09535140700001, 36.070729691 ], [ 139.095732856000012, 36.071355273 ], [ 139.095771186, 36.071402725 ], [ 139.095832519999988, 36.071440303 ], [ 139.09593105, 36.071458079 ], [ 139.096047015000011, 36.071495994 ], [ 139.096184169999987, 36.071529747 ], [ 139.096342778, 36.071530723 ], [ 139.096473081999989, 36.071542971 ], [ 139.096517033999987, 36.071554687 ], [ 139.096560785, 36.071587865 ], [ 139.096637793000014, 36.071645571 ], [ 139.096723814, 36.071681869 ], [ 139.096817713, 36.071707963 ], [ 139.097106317999987, 36.07186474 ], [ 139.09760993399999, 36.072195726 ], [ 139.097614494999988, 36.072199237 ], [ 139.097726733, 36.071947659 ], [ 139.097744158000012, 36.071893918 ], [ 139.09778268, 36.071775114 ], [ 139.097804438999987, 36.071646476 ], [ 139.097803715999987, 36.071566387 ], [ 139.09777807899999, 36.071480381 ], [ 139.09773471, 36.07140619 ], [ 139.09765916399999, 36.071317494 ], [ 139.097415826, 36.071043957 ], [ 139.096912113, 36.070477724 ], [ 139.09652394299999, 36.070041369 ], [ 139.09649737699999, 36.070011505 ] ] ] } },
{ "type": "Feature", "properties": { "A29_001": "11362", "A29_002": "埼玉県", "A29_003": "皆野町", "A29_004": 4, "A29_005": "第二種中高層住居専用地域", "A29_006": 60, "A29_007": 200, "A29_008": null }, "geometry": { "type": "Polygon", "coordinates": [ [ [ 139.090896168, 36.066416763 ], [ 139.09099692699999, 36.066261435 ], [ 139.091001584999987, 36.066254255 ], [ 139.090972595000011, 36.066151058 ], [ 139.090770496, 36.066153501 ], [ 139.090560149999988, 36.06613368 ], [ 139.090418347999986, 36.066120317 ], [ 139.089992843, 36.066079523 ], [ 139.08982279, 36.066047467 ], [ 139.089620609, 36.065996134 ], [ 139.08946517199999, 36.065971322 ], [ 139.08925675899999, 36.065958105 ], [ 139.088883942, 36.065936711 ], [ 139.088769332999988, 36.065943153 ], [ 139.088604637, 36.065965976 ], [ 139.088430859999988, 36.066017359 ], [ 139.088242017, 36.066109186 ], [ 139.088035147, 36.066243825 ], [ 139.087816550000014, 36.066376006 ], [ 139.08769864199999, 36.066420581 ], [ 139.087574861, 36.066465119 ], [ 139.08748793399999, 36.066463624 ], [ 139.087443920999988, 36.066459057 ], [ 139.087354385999987, 36.06642273 ], [ 139.087302431000012, 36.066512547 ], [ 139.08725186, 36.066642435 ], [ 139.087147329, 36.066887881 ], [ 139.086988729000012, 36.067260332 ], [ 139.086864271, 36.067562885 ], [ 139.086824408000012, 36.067678532 ], [ 139.086805379999987, 36.067827217 ], [ 139.08680385299999, 36.067988887 ], [ 139.08685495, 36.068176641 ], [ 139.086902751999986, 36.06834005 ], [ 139.086969805, 36.068517887 ], [ 139.087095240999986, 36.068671764 ], [ 139.087192980999987, 36.068772529 ], [ 139.087432681, 36.068957164 ], [ 139.087516459, 36.069043534 ], [ 139.08764386199999, 36.06917596 ], [ 139.087743488, 36.069263859 ], [ 139.087873005, 36.069359098 ], [ 139.087990429, 36.069428507 ], [ 139.088185286, 36.069509844 ], [ 139.088348515, 36.069580969 ], [ 139.088495899, 36.069650563 ], [ 139.088645044, 36.069720169 ], [ 139.088722112999989, 36.069770726 ], [ 139.088776083, 36.069841171 ], [ 139.088868608000013, 36.069934747 ], [ 139.088977019999987, 36.070025562 ], [ 139.08910672799999, 36.070100769 ], [ 139.08926458, 36.070181874 ], [ 139.08943478, 36.070261626 ], [ 139.08953314499999, 36.070296576 ], [ 139.08964720899999, 36.070348792 ], [ 139.08985575, 36.070474567 ], [ 139.08999969199999, 36.070535553 ], [ 139.09018916, 36.0706283 ], [ 139.090350483, 36.070715148 ], [ 139.090513261000012, 36.070834914 ], [ 139.090735446, 36.071009419 ], [ 139.09092416199999, 36.071182284 ], [ 139.091041323000013, 36.071280305 ], [ 139.091198815000013, 36.071400037 ], [ 139.091344268, 36.071488217 ], [ 139.091544312, 36.071581027 ], [ 139.091647779, 36.071636038 ], [ 139.091910058, 36.071858005 ], [ 139.092221445, 36.072106029 ], [ 139.092564406, 36.072379217 ], [ 139.093123114, 36.072001124 ], [ 139.093312012000013, 36.071904521 ], [ 139.093915262, 36.071474236 ], [ 139.09368341199999, 36.071138952 ], [ 139.093544258, 36.07094255 ], [ 139.093280748000012, 36.070537914 ], [ 139.092762103000013, 36.069776384 ], [ 139.09248127, 36.069340639 ], [ 139.092081674000013, 36.068727692 ], [ 139.091731208999988, 36.068200897 ], [ 139.091380726000011, 36.067676484 ], [ 139.091024686999987, 36.067118652 ], [ 139.09095839, 36.066984699 ], [ 139.090909579999987, 36.066865164 ], [ 139.090869559999987, 36.066748067 ], [ 139.090858685, 36.066654997 ], [ 139.090856443, 36.066581059 ], [ 139.09086014, 36.066500002 ], [ 139.090896168, 36.066416763 ] ] ] } },
{ "type": "Feature", "properties": { "A29_001": "11362", "A29_002": "埼玉県", "A29_003": "皆野町", "A29_004": 10, "A29_005": "準工業地域", "A29_006": 60, "A29_007": 200, "A29_008": null }, "geometry": { "type": "Polygon", "coordinates": [ [ [ 139.110060521, 36.078091414 ], [ 139.109919756000011, 36.077971265 ], [ 139.109803062, 36.077882805 ], [ 139.109754133, 36.077836724 ], [ 139.109712358, 36.07777924 ], [ 139.109679999, 36.077719904 ], [ 139.109659373999989, 36.077662548 ], [ 139.109657636, 36.077595767 ], [ 139.109684167000012, 36.077521525 ], [ 139.109970823, 36.077013892 ], [ 139.110343519999986, 36.076348435 ], [ 139.110214606999989, 36.07631141 ], [ 139.110076103000011, 36.076295312 ], [ 139.1097095, 36.076295006 ], [ 139.109636548, 36.076306011 ], [ 139.109546884999986, 36.076345532 ], [ 139.109374276000011, 36.076460861 ], [ 139.109275212999989, 36.076500324 ], [ 139.10920689, 36.076518989 ], [ 139.10812469699999, 36.076134711 ], [ 139.108075297, 36.076140135 ], [ 139.108058480000011, 36.076180096 ], [ 139.107978188, 36.07673476 ], [ 139.107660938, 36.077501655 ], [ 139.106856381999989, 36.077336529 ], [ 139.106601081, 36.077243409 ], [ 139.10640923, 36.077150674 ], [ 139.105954523, 36.07676446 ], [ 139.10588944599999, 36.076685848 ], [ 139.10586899899999, 36.076609414 ], [ 139.105849995999989, 36.076120919 ], [ 139.105831636, 36.076073114 ], [ 139.105718266, 36.075879744 ], [ 139.10436784800001, 36.073807558 ], [ 139.103399478, 36.072746448 ], [ 139.102221708, 36.071462276 ], [ 139.10202940799999, 36.071292983 ], [ 139.10192240399999, 36.071238675 ], [ 139.10174903399999, 36.07111886 ], [ 139.101687962, 36.071052671 ], [ 139.10161334899999, 36.070926305 ], [ 139.101555827999988, 36.070857275 ], [ 139.101517800000011, 36.070776918 ], [ 139.10139911600001, 36.070651713 ], [ 139.101327856000012, 36.070353671 ], [ 139.101261432, 36.070104307 ], [ 139.101217865, 36.0700511 ], [ 139.101069795, 36.069864192 ], [ 139.10092707699999, 36.069670161 ], [ 139.100843707, 36.069538017 ], [ 139.100755609, 36.069345752 ], [ 139.100671419, 36.069112017 ], [ 139.100592823, 36.068845407 ], [ 139.100436054, 36.068266405 ], [ 139.10030617000001, 36.067829216 ], [ 139.100186253, 36.067267608 ], [ 139.10004133699999, 36.066741618 ], [ 139.09995472599999, 36.066579407 ], [ 139.099848094, 36.066485752 ], [ 139.099765881, 36.066419432 ], [ 139.09965192300001, 36.066355779 ], [ 139.099483494, 36.066274622 ], [ 139.099343116, 36.066209376 ], [ 139.099234325, 36.066158631 ], [ 139.099153862, 36.066093752 ], [ 139.099105052, 36.066036221 ], [ 139.099070366, 36.065975914 ], [ 139.099042782, 36.065909929 ], [ 139.099001845, 36.065763736 ], [ 139.09894705, 36.065591705 ], [ 139.09886300299999, 36.065343661 ], [ 139.098856673, 36.065266358 ], [ 139.09884711, 36.065157559 ], [ 139.098830432, 36.065055869 ], [ 139.098782007000011, 36.064956848 ], [ 139.098726376, 36.064874951 ], [ 139.098635687000012, 36.064772808 ], [ 139.098553691, 36.064683595 ], [ 139.098511903, 36.064628969 ], [ 139.098475482999987, 36.06456579 ], [ 139.09844979499999, 36.064485508 ], [ 139.098413695, 36.064387991 ], [ 139.098383320000011, 36.064243295 ], [ 139.098343489, 36.063978352 ], [ 139.098318234, 36.06366199 ], [ 139.098290273, 36.063447198 ], [ 139.098225735999989, 36.063101008 ], [ 139.09820802499999, 36.063006007 ], [ 139.09721805, 36.062584995 ], [ 139.097146221, 36.063059107 ], [ 139.09709725499999, 36.063382312 ], [ 139.097083986, 36.063545581 ], [ 139.097079347, 36.063770426 ], [ 139.097116588, 36.06406063 ], [ 139.097202904, 36.064379752 ], [ 139.09728103, 36.064569099 ], [ 139.097384326999986, 36.064831093 ], [ 139.09805577, 36.066155368 ], [ 139.098733431999989, 36.067571249 ], [ 139.099319758, 36.068786421 ], [ 139.10042023, 36.070794848 ], [ 139.100497358000013, 36.070903265 ], [ 139.100238045999987, 36.070992296 ], [ 139.099902343999986, 36.071083244 ], [ 139.09931349199999, 36.071232255 ], [ 139.099358626, 36.071432844 ], [ 139.099381437, 36.071506909 ], [ 139.09946168499999, 36.07172202 ], [ 139.099501921000012, 36.071817653 ], [ 139.09957144, 36.071923005 ], [ 139.099707806, 36.072105074 ], [ 139.099832757, 36.072251303 ], [ 139.100224770000011, 36.072740176 ], [ 139.100028986000012, 36.072946443 ], [ 139.09998437499999, 36.073005786 ], [ 139.099825092, 36.073393512 ], [ 139.10013970599999, 36.073676828 ], [ 139.100348144, 36.073905279 ], [ 139.100536938, 36.0741122 ], [ 139.100590430000011, 36.074170827 ], [ 139.10059108499999, 36.074165427 ], [ 139.100599128, 36.074099135 ], [ 139.100603151, 36.07406598 ], [ 139.100627511999988, 36.073973126 ], [ 139.10065463399999, 36.073899368 ], [ 139.100707969000013, 36.073849616 ], [ 139.100790456, 36.073823889 ], [ 139.100975637, 36.073810713 ], [ 139.10127234699999, 36.073807758 ], [ 139.101347987, 36.073886913 ], [ 139.101438093000013, 36.073990005 ], [ 139.101539994, 36.074088399 ], [ 139.101764443, 36.074275773 ], [ 139.101606228, 36.074876987 ], [ 139.101569589, 36.075016214 ], [ 139.101763578, 36.074998517 ], [ 139.102304581999988, 36.074949162 ], [ 139.103119104, 36.074858743 ], [ 139.103307113999989, 36.074857504 ], [ 139.103448039999989, 36.074865517 ], [ 139.103805314, 36.074984541 ], [ 139.103973677, 36.075202571 ], [ 139.10468842899999, 36.07600011 ], [ 139.105151256, 36.076516533 ], [ 139.105714983000013, 36.07718528 ], [ 139.106063854000013, 36.077261323 ], [ 139.10601710899999, 36.077624389 ], [ 139.106287165999987, 36.077679044 ], [ 139.10748515899999, 36.077927033 ], [ 139.10791814800001, 36.077992611 ], [ 139.108280900000011, 36.078029147 ], [ 139.10862255699999, 36.07805983 ], [ 139.10898193, 36.078080604 ], [ 139.109649733999987, 36.078103241 ], [ 139.110060521, 36.078091414 ] ] ] } },
{ "type": "Feature", "properties": { "A29_001": "11362", "A29_002": "埼玉県", "A29_003": "皆野町", "A29_004": 4, "A29_005": "第二種中高層住居専用地域", "A29_006": 60, "A29_007": 200, "A29_008": null }, "geometry": { "type": "Polygon", "coordinates": [ [ [ 139.099319758, 36.068786421 ], [ 139.098733431999989, 36.067571249 ], [ 139.09805577, 36.066155368 ], [ 139.097384326999986, 36.064831093 ], [ 139.09728103, 36.064569099 ], [ 139.097202904, 36.064379752 ], [ 139.097116588, 36.06406063 ], [ 139.097079347, 36.063770426 ], [ 139.097083986, 36.063545581 ], [ 139.09709725499999, 36.063382312 ], [ 139.097146221, 36.063059107 ], [ 139.09721805, 36.062584995 ], [ 139.096772628999986, 36.062369039 ], [ 139.096604565, 36.062281561 ], [ 139.09644351099999, 36.062229896 ], [ 139.09633349, 36.062217296 ], [ 139.096208647, 36.062219508 ], [ 139.096087251, 36.062245589 ], [ 139.09599161, 36.062265866 ], [ 139.09588870799999, 36.062277156 ], [ 139.095730769, 36.062285126 ], [ 139.09562868899999, 36.062517057 ], [ 139.095224406, 36.063435591 ], [ 139.095062649, 36.064245382 ], [ 139.094991612, 36.064775532 ], [ 139.094960232, 36.065059559 ], [ 139.094819159999986, 36.066336426 ], [ 139.094797156, 36.066726779 ], [ 139.094901112, 36.067389165 ], [ 139.094964299, 36.067699562 ], [ 139.095013932, 36.067996011 ], [ 139.095274511000014, 36.067967552 ], [ 139.095435560999988, 36.067949962 ], [ 139.095495223, 36.068166381 ], [ 139.095648657, 36.068532179 ], [ 139.095698559999988, 36.068661259 ], [ 139.095778462999988, 36.068786231 ], [ 139.095881609, 36.069064441 ], [ 139.09594375099999, 36.069251305 ], [ 139.095997598, 36.069382793 ], [ 139.096051585, 36.069499377 ], [ 139.096124234, 36.069583288 ], [ 139.096222305999987, 36.069697163 ], [ 139.096349443, 36.069844006 ], [ 139.09649737699999, 36.070011505 ], [ 139.096512374000014, 36.070004513 ], [ 139.096724537, 36.069905592 ], [ 139.096789487, 36.069870221 ], [ 139.096831028999986, 36.069825168 ], [ 139.096849141, 36.069772817 ], [ 139.09684976299999, 36.069706049 ], [ 139.09768109699999, 36.069382074 ], [ 139.09783115499999, 36.06935438 ], [ 139.097969333, 36.06934092 ], [ 139.099319758, 36.068786421 ] ] ] } },
{ "type": "Feature", "properties": { "A29_001": "11362", "A29_002": "埼玉県", "A29_003": "皆野町", "A29_004": 10, "A29_005": "準工業地域", "A29_006": 60, "A29_007": 200, "A29_008": null }, "geometry": { "type": "Polygon", "coordinates": [ [ [ 139.095013932, 36.067996011 ], [ 139.094964299, 36.067699562 ], [ 139.094901112, 36.067389165 ], [ 139.094797156, 36.066726779 ], [ 139.094819159999986, 36.066336426 ], [ 139.094960232, 36.065059559 ], [ 139.094991612, 36.064775532 ], [ 139.095062649, 36.064245382 ], [ 139.095224406, 36.063435591 ], [ 139.09562868899999, 36.062517057 ], [ 139.095730769, 36.062285126 ], [ 139.095593221, 36.062232413 ], [ 139.09543250199999, 36.062144979 ], [ 139.095275119, 36.062093335 ], [ 139.095176196000011, 36.062071859 ], [ 139.095025682999989, 36.062070932 ], [ 139.094878728999987, 36.06208195 ], [ 139.094706301, 36.062068963 ], [ 139.094698067, 36.0621643 ], [ 139.094639465, 36.062348673 ], [ 139.09462998399999, 36.062378499 ], [ 139.094528219000011, 36.062661052 ], [ 139.094419445, 36.06290779 ], [ 139.09432537699999, 36.0630368 ], [ 139.094300438, 36.063071002 ], [ 139.094136735, 36.063302497 ], [ 139.094034155, 36.063412811 ], [ 139.09392419299999, 36.063487964 ], [ 139.093826701000012, 36.063548887 ], [ 139.093743545, 36.063584144 ], [ 139.093734192, 36.063585306 ], [ 139.093644745, 36.063596411 ], [ 139.09354605199999, 36.063597233 ], [ 139.093438373999987, 36.063616599 ], [ 139.093268955000013, 36.063642737 ], [ 139.093200217, 36.063643744 ], [ 139.093087414, 36.063645908 ], [ 139.092992218, 36.063649612 ], [ 139.092949699, 36.063673673 ], [ 139.092535929, 36.064011646 ], [ 139.092198251000013, 36.064315748 ], [ 139.09191255799999, 36.064525739 ], [ 139.091868061000014, 36.06457268 ], [ 139.091848383000013, 36.064604035 ], [ 139.091847846, 36.064661265 ], [ 139.091861728999987, 36.064684244 ], [ 139.09189469899999, 36.064738818 ], [ 139.091906646000012, 36.064780385 ], [ 139.09190800499999, 36.064823317 ], [ 139.091875883, 36.064866043 ], [ 139.091790909999986, 36.06490701 ], [ 139.091619255000012, 36.06498321 ], [ 139.091475755, 36.065063877 ], [ 139.091404622, 36.065132115 ], [ 139.091303172000011, 36.065238797 ], [ 139.091231853000011, 36.065327065 ], [ 139.091182, 36.065381126 ], [ 139.09105115599999, 36.065427532 ], [ 139.09087616299999, 36.06548368 ], [ 139.090658649, 36.065563887 ], [ 139.090545358000014, 36.065617555 ], [ 139.090490476000014, 36.0656444 ], [ 139.090386332, 36.065662355 ], [ 139.09029771199999, 36.065716175 ], [ 139.090210678, 36.065788606 ], [ 139.090143176999987, 36.06584542 ], [ 139.09006651499999, 36.065939377 ], [ 139.090009197, 36.066037746 ], [ 139.089992843, 36.066079523 ], [ 139.090418347999986, 36.066120317 ], [ 139.090560149999988, 36.06613368 ], [ 139.090770496, 36.066153501 ], [ 139.090972595000011, 36.066151058 ], [ 139.090969782, 36.066075208 ], [ 139.091241426000011, 36.065860841 ], [ 139.091265506000013, 36.065923945 ], [ 139.09130017199999, 36.065985683 ], [ 139.091361272, 36.066047587 ], [ 139.091485568, 36.066135636 ], [ 139.091671461, 36.066232649 ], [ 139.091816838, 36.066327983 ], [ 139.09233043899999, 36.066621613 ], [ 139.092454765000014, 36.066706799 ], [ 139.092695845, 36.066932925 ], [ 139.092786649, 36.067022197 ], [ 139.09283907299999, 36.067069737 ], [ 139.092917943, 36.06711601 ], [ 139.093063497, 36.067192742 ], [ 139.093574201, 36.067420533 ], [ 139.093979907, 36.06766587 ], [ 139.094040342999989, 36.067702416 ], [ 139.094558592999988, 36.068066175 ], [ 139.094729838, 36.068034322 ], [ 139.095013932, 36.067996011 ] ] ] } },
{ "type": "Feature", "properties": { "A29_001": "11362", "A29_002": "埼玉県", "A29_003": "皆野町", "A29_004": 5, "A29_005": "第一種住居地域", "A29_006": 60, "A29_007": 200, "A29_008": null }, "geometry": { "type": "Polygon", "coordinates": [ [ [ 139.089992843, 36.066079523 ], [ 139.090009197, 36.066037746 ], [ 139.09006651499999, 36.065939377 ], [ 139.090143176999987, 36.06584542 ], [ 139.090210678, 36.065788606 ], [ 139.09029771199999, 36.065716175 ], [ 139.090386332, 36.065662355 ], [ 139.090490476000014, 36.0656444 ], [ 139.090545358000014, 36.065617555 ], [ 139.090658649, 36.065563887 ], [ 139.09087616299999, 36.06548368 ], [ 139.09105115599999, 36.065427532 ], [ 139.091182, 36.065381126 ], [ 139.091231853000011, 36.065327065 ], [ 139.091303172000011, 36.065238797 ], [ 139.091404622, 36.065132115 ], [ 139.091475755, 36.065063877 ], [ 139.091619255000012, 36.06498321 ], [ 139.091790909999986, 36.06490701 ], [ 139.091875883, 36.064866043 ], [ 139.09190800499999, 36.064823317 ], [ 139.091906646000012, 36.064780385 ], [ 139.09189469899999, 36.064738818 ], [ 139.091861728999987, 36.064684244 ], [ 139.091847846, 36.064661265 ], [ 139.091848383000013, 36.064604035 ], [ 139.091868061000014, 36.06457268 ], [ 139.09191255799999, 36.064525739 ], [ 139.092198251000013, 36.064315748 ], [ 139.092535929, 36.064011646 ], [ 139.092949699, 36.063673673 ], [ 139.092992218, 36.063649612 ], [ 139.093087414, 36.063645908 ], [ 139.093200217, 36.063643744 ], [ 139.093268955000013, 36.063642737 ], [ 139.093438373999987, 36.063616599 ], [ 139.09354605199999, 36.063597233 ], [ 139.093644745, 36.063596411 ], [ 139.093734192, 36.063585306 ], [ 139.093743545, 36.063584144 ], [ 139.093826701000012, 36.063548887 ], [ 139.09392419299999, 36.063487964 ], [ 139.094034155, 36.063412811 ], [ 139.094136735, 36.063302497 ], [ 139.094300438, 36.063071002 ], [ 139.09432537699999, 36.0630368 ], [ 139.094419445, 36.06290779 ], [ 139.094528219000011, 36.062661052 ], [ 139.09462998399999, 36.062378499 ], [ 139.094639465, 36.062348673 ], [ 139.094698067, 36.0621643 ], [ 139.094706301, 36.062068963 ], [ 139.094535164, 36.062026813 ], [ 139.094406365999987, 36.06198071 ], [ 139.094268714, 36.061939321 ], [ 139.094139805, 36.06190514 ], [ 139.094066786000013, 36.061861766 ], [ 139.093918144000014, 36.06173923 ], [ 139.093529358000012, 36.06217084 ], [ 139.093307130999989, 36.062379317 ], [ 139.093064434000013, 36.062578131 ], [ 139.092730022000012, 36.062847915 ], [ 139.092596969, 36.06294248 ], [ 139.092378344999986, 36.063079439 ], [ 139.09221897099999, 36.063161916 ], [ 139.091938089, 36.06336049 ], [ 139.091618845999989, 36.063577904 ], [ 139.091367644, 36.063743274 ], [ 139.09115818399999, 36.063842133 ], [ 139.09099318, 36.063898343 ], [ 139.090793, 36.06394718 ], [ 139.090630999000012, 36.063996254 ], [ 139.09052800500001, 36.064017077 ], [ 139.090348361, 36.064068426 ], [ 139.090203959, 36.064119993 ], [ 139.090100742, 36.064164661 ], [ 139.089820366, 36.064308386 ], [ 139.089681813999988, 36.064362374 ], [ 139.089566916, 36.064399815 ], [ 139.089484502, 36.064418381 ], [ 139.089316849999989, 36.064443571 ], [ 139.089210896999987, 36.064466759 ], [ 139.089119358, 36.064518654 ], [ 139.089024725, 36.064587221 ], [ 139.088921461000012, 36.064636657 ], [ 139.088806538999989, 36.064676482 ], [ 139.08861198299999, 36.064751583 ], [ 139.088487958, 36.064822351 ], [ 139.088337185, 36.064926339 ], [ 139.08822465899999, 36.06502341 ], [ 139.088097291999986, 36.065137083 ], [ 139.088019986, 36.065236758 ], [ 139.087954204999988, 36.065360351 ], [ 139.087906245999989, 36.065462593 ], [ 139.08786384699999, 36.065598255 ], [ 139.087834206999986, 36.065626687 ], [ 139.08774603099999, 36.065633292 ], [ 139.087669489, 36.065651893 ], [ 139.087631039, 36.06568027 ], [ 139.08763341299999, 36.065739901 ], [ 139.087537553, 36.066249623 ], [ 139.087354385999987, 36.06642273 ], [ 139.087443920999988, 36.066459057 ], [ 139.08748793399999, 36.066463624 ], [ 139.087574861, 36.066465119 ], [ 139.08769864199999, 36.066420581 ], [ 139.087816550000014, 36.066376006 ], [ 139.088035147, 36.066243825 ], [ 139.088242017, 36.066109186 ], [ 139.088430859999988, 36.066017359 ], [ 139.088604637, 36.065965976 ], [ 139.088769332999988, 36.065943153 ], [ 139.088883942, 36.065936711 ], [ 139.08925675899999, 36.065958105 ], [ 139.08946517199999, 36.065971322 ], [ 139.089620609, 36.065996134 ], [ 139.08982279, 36.066047467 ], [ 139.089992843, 36.066079523 ] ] ] } }
]
}
