{
"type": "FeatureCollection",
"name": "A29-19_44212",
"features": [
{ "type": "Feature", "properties": { "A29_001": "44212", "A29_002": "大分県", "A29_003": "豊後大野市", "A29_004": 7, "A29_005": "準住居地域", "A29_006": 60, "A29_007": 200, "A29_008": null }, "geometry": { "type": "Polygon", "coordinates": [ [ [ 131.57814008299999, 32.972108273 ], [ 131.577997219999986, 32.972125263 ], [ 131.57788524, 32.972142005 ], [ 131.577746237000014, 32.972181777 ], [ 131.57758592799999, 32.972253141 ], [ 131.577476436000012, 32.972304228 ], [ 131.577423415999988, 32.972334058 ], [ 131.577378427000014, 32.972380075 ], [ 131.57735381099999, 32.972425044 ], [ 131.577316883, 32.972492019 ], [ 131.577287700999989, 32.972531283 ], [ 131.577249443, 32.972563105 ], [ 131.57841589, 32.973538262 ], [ 131.579085641, 32.974109469 ], [ 131.579313735, 32.975112574 ], [ 131.579829507, 32.974947273 ], [ 131.57971833900001, 32.974410662 ], [ 131.579607616, 32.973865134 ], [ 131.579643608, 32.973894415 ], [ 131.57977000599999, 32.973997245 ], [ 131.58061806399999, 32.974739496 ], [ 131.580684342000012, 32.97479794 ], [ 131.580863203, 32.974763357 ], [ 131.581183204000013, 32.974669051 ], [ 131.581442818, 32.974601875 ], [ 131.580780479999987, 32.974013746 ], [ 131.578785296, 32.972282228 ], [ 131.578418742, 32.971945095 ], [ 131.578286584000011, 32.9720118 ], [ 131.57814008299999, 32.972108273 ] ] ] } },
{ "type": "Feature", "properties": { "A29_001": "44212", "A29_002": "大分県", "A29_003": "豊後大野市", "A29_004": 5, "A29_005": "第一種住居地域", "A29_006": 60, "A29_007": 200, "A29_008": null }, "geometry": { "type": "Polygon", "coordinates": [ [ [ 131.58187430699999, 32.967766471 ], [ 131.581805029, 32.967763471 ], [ 131.58174958399999, 32.967780804 ], [ 131.581708501, 32.967801554 ], [ 131.581609945, 32.967889859 ], [ 131.581402529, 32.968109693 ], [ 131.581406668, 32.968222915 ], [ 131.58143614, 32.968376359 ], [ 131.581431251, 32.968434915 ], [ 131.581434417999986, 32.968465526 ], [ 131.581425751000012, 32.968512276 ], [ 131.581383890000012, 32.968661331 ], [ 131.581326307000012, 32.968871609 ], [ 131.581259612999986, 32.969080776 ], [ 131.581204808, 32.969199692 ], [ 131.581178196, 32.969251664 ], [ 131.58114547400001, 32.969294526 ], [ 131.581123141, 32.969321803 ], [ 131.581103085, 32.969343886 ], [ 131.581009224000013, 32.969436859 ], [ 131.580940696, 32.969504747 ], [ 131.580690446, 32.969726969 ], [ 131.580552307, 32.969849664 ], [ 131.580077612, 32.970252524 ], [ 131.579920722999987, 32.970374857 ], [ 131.579657723, 32.970579885 ], [ 131.579616362, 32.970552829 ], [ 131.579517055999986, 32.970632941 ], [ 131.579241945, 32.970888746 ], [ 131.579199251, 32.970942413 ], [ 131.579162251000014, 32.970970135 ], [ 131.578636528, 32.971245717 ], [ 131.578687667, 32.971305856 ], [ 131.578708334, 32.971373023 ], [ 131.578740532000012, 32.971551739 ], [ 131.57874375099999, 32.971569606 ], [ 131.57875209, 32.971712456 ], [ 131.578752611999988, 32.971721384 ], [ 131.578757029, 32.971996329 ], [ 131.578756696, 32.972180828 ], [ 131.578589083999987, 32.972031301 ], [ 131.57846997199999, 32.971919927 ], [ 131.57845872199999, 32.971925454 ], [ 131.578418742, 32.971945095 ], [ 131.578785296, 32.972282228 ], [ 131.580780479999987, 32.974013746 ], [ 131.581442818, 32.974601875 ], [ 131.583136488, 32.976084715 ], [ 131.583067723999989, 32.975836647 ], [ 131.583046782, 32.975618295 ], [ 131.583051213, 32.975444455 ], [ 131.583074511, 32.975315158 ], [ 131.583148357999988, 32.975127143 ], [ 131.583267905000014, 32.974904697 ], [ 131.583366602000012, 32.974740237 ], [ 131.5834639, 32.974578108 ], [ 131.58353062099999, 32.974437015 ], [ 131.583548869, 32.974358915 ], [ 131.583696279, 32.974392225 ], [ 131.583697625000013, 32.974329859 ], [ 131.583696347, 32.974212164 ], [ 131.583688596, 32.97400947 ], [ 131.583600679, 32.973758831 ], [ 131.58350112299999, 32.973521276 ], [ 131.583377012, 32.973312053 ], [ 131.583333333000013, 32.973257366 ], [ 131.583332928, 32.973256859 ], [ 131.583196011000013, 32.973085387 ], [ 131.582924537999986, 32.972906664 ], [ 131.582420731000013, 32.972598553 ], [ 131.58240186899999, 32.972408109 ], [ 131.58238898, 32.972230303 ], [ 131.58237602299999, 32.97188375 ], [ 131.582375646, 32.971873664 ], [ 131.582370491, 32.971655343 ], [ 131.582369368, 32.971607803 ], [ 131.58236475699999, 32.971413803 ], [ 131.582358312, 32.971291387 ], [ 131.582388979, 32.971066942 ], [ 131.582465320000011, 32.970764257 ], [ 131.582473123999989, 32.970733314 ], [ 131.582508367, 32.970593581 ], [ 131.582525311000012, 32.970410665 ], [ 131.58248417199999, 32.970012776 ], [ 131.5824299, 32.969811965 ], [ 131.582426088, 32.969797859 ], [ 131.582342074, 32.969603057 ], [ 131.582154865, 32.969168971 ], [ 131.58212350299999, 32.969086526 ], [ 131.582037058, 32.968859304 ], [ 131.58201418199999, 32.968766774 ], [ 131.581967724, 32.968578859 ], [ 131.581891501, 32.968035526 ], [ 131.58187430699999, 32.967766471 ] ] ] } },
{ "type": "Feature", "properties": { "A29_001": "44212", "A29_002": "大分県", "A29_003": "豊後大野市", "A29_004": 9, "A29_005": "商業地域", "A29_006": 80, "A29_007": 400, "A29_008": null }, "geometry": { "type": "Polygon", "coordinates": [ [ [ 131.585454483, 32.973988729 ], [ 131.585310858000014, 32.973908789 ], [ 131.585215234, 32.974028993 ], [ 131.58503936599999, 32.97414434 ], [ 131.584799944, 32.974237079 ], [ 131.584531841, 32.974316114 ], [ 131.584178278, 32.974414711 ], [ 131.58402759, 32.9744695 ], [ 131.583844793999987, 32.974564836 ], [ 131.583723607, 32.974663362 ], [ 131.58359948099999, 32.974797889 ], [ 131.583483175999987, 32.974974919 ], [ 131.583368329, 32.975175251 ], [ 131.583318819999988, 32.975357246 ], [ 131.583300283999989, 32.975637913 ], [ 131.583354617, 32.975893904 ], [ 131.583490004, 32.976180229 ], [ 131.583645796000013, 32.976368464 ], [ 131.583809769999988, 32.976509419 ], [ 131.583967886000011, 32.976635311 ], [ 131.584393153, 32.976889353 ], [ 131.584703579, 32.977054673 ], [ 131.584988801, 32.977201319 ], [ 131.58533241399999, 32.977362697 ], [ 131.586166131, 32.976660632 ], [ 131.586184715, 32.976617248 ], [ 131.586136965, 32.976342137 ], [ 131.586125659, 32.976232859 ], [ 131.586063603000014, 32.976123582 ], [ 131.58599432599999, 32.976011998 ], [ 131.585941853, 32.975915776 ], [ 131.585837492, 32.975737776 ], [ 131.585732575, 32.975551359 ], [ 131.585635352, 32.97540011 ], [ 131.585527352000014, 32.975195582 ], [ 131.585481649, 32.975 ], [ 131.585481628999986, 32.974999915 ], [ 131.58546168399999, 32.974812526 ], [ 131.585456072999989, 32.974579499 ], [ 131.585455045, 32.974523499 ], [ 131.585437684, 32.974471804 ], [ 131.585392017, 32.974398388 ], [ 131.585379767, 32.974368666 ], [ 131.585366128, 32.97433311 ], [ 131.585363073, 32.97430036 ], [ 131.585372877999987, 32.974245249 ], [ 131.585424350000011, 32.97408136 ], [ 131.585454483, 32.973988729 ] ] ] } },
{ "type": "Feature", "properties": { "A29_001": "44212", "A29_002": "大分県", "A29_003": "豊後大野市", "A29_004": 1, "A29_005": "第一種低層住居専用地域", "A29_006": 50, "A29_007": 100, "A29_008": null }, "geometry": { "type": "Polygon", "coordinates": [ [ [ 131.573050118999987, 32.975759993 ], [ 131.57296896599999, 32.975802101 ], [ 131.572818020999989, 32.975878128 ], [ 131.57278896599999, 32.975893906 ], [ 131.572776104000013, 32.975900823 ], [ 131.57276077099999, 32.97590735 ], [ 131.57274691, 32.9759106 ], [ 131.57273379899999, 32.975909961 ], [ 131.572723771, 32.975905406 ], [ 131.572548632, 32.975776017 ], [ 131.572516409, 32.975758961 ], [ 131.572484215, 32.975754933 ], [ 131.572453881, 32.975754489 ], [ 131.572405215, 32.975763739 ], [ 131.572348686999987, 32.975782211 ], [ 131.572306715, 32.975802572 ], [ 131.57229129800001, 32.975814711 ], [ 131.57228135299999, 32.975831461 ], [ 131.572262687, 32.975877239 ], [ 131.572262017000014, 32.975898365 ], [ 131.572261187, 32.975924489 ], [ 131.572254243, 32.976001183 ], [ 131.572249631, 32.976027822 ], [ 131.572243465000014, 32.976055127 ], [ 131.572214937000012, 32.976109044 ], [ 131.57211046399999, 32.976290683 ], [ 131.572111804, 32.976351334 ], [ 131.572112381000011, 32.97637746 ], [ 131.572123137, 32.976420385 ], [ 131.57213013099999, 32.976448294 ], [ 131.572159798, 32.976600016 ], [ 131.572197012, 32.976945642 ], [ 131.57220429899999, 32.977013321 ], [ 131.572209493, 32.977159543 ], [ 131.572257603999986, 32.977580599 ], [ 131.572297521, 32.977625904 ], [ 131.572381830000012, 32.977742892 ], [ 131.572457823, 32.977868264 ], [ 131.57257197199999, 32.978124955 ], [ 131.57262412899999, 32.978311531 ], [ 131.572696234, 32.978562435 ], [ 131.572720301, 32.978660321 ], [ 131.572742301, 32.978774848 ], [ 131.57280660699999, 32.978994404 ], [ 131.572822773000013, 32.978987598 ], [ 131.57289805100001, 32.978981932 ], [ 131.573088274000014, 32.978937209 ], [ 131.57324485699999, 32.978880488 ], [ 131.573449969, 32.978783404 ], [ 131.57362077499999, 32.978716877 ], [ 131.573701664, 32.978689627 ], [ 131.57375471899999, 32.978681988 ], [ 131.57398880299999, 32.978691822 ], [ 131.574118193, 32.978726627 ], [ 131.574197149000014, 32.978731085 ], [ 131.57438586, 32.978741739 ], [ 131.574491165000012, 32.978735905 ], [ 131.574565777, 32.978727128 ], [ 131.574631692999986, 32.978713961 ], [ 131.574639311999988, 32.978711346 ], [ 131.57467855499999, 32.978697878 ], [ 131.57473405499999, 32.978671572 ], [ 131.574777444, 32.978639406 ], [ 131.574813322000011, 32.978609764 ], [ 131.574788476, 32.97858731 ], [ 131.574444289000013, 32.97829671 ], [ 131.574168066, 32.978031378 ], [ 131.573982734, 32.977814955 ], [ 131.573863081000013, 32.977627592 ], [ 131.573725102999987, 32.977407428 ], [ 131.573623314, 32.977181224 ], [ 131.573448358, 32.976844958 ], [ 131.573379074, 32.976689073 ], [ 131.57322342099999, 32.976321008 ], [ 131.57316929000001, 32.97613804 ], [ 131.573116408, 32.975932753 ], [ 131.573050118999987, 32.975759993 ] ] ] } },
{ "type": "Feature", "properties": { "A29_001": "44212", "A29_002": "大分県", "A29_003": "豊後大野市", "A29_004": 3, "A29_005": "第一種中高層住居専用地域", "A29_006": 60, "A29_007": 200, "A29_008": null }, "geometry": { "type": "Polygon", "coordinates": [ [ [ 131.57496977, 32.978751156 ], [ 131.574813322000011, 32.978609764 ], [ 131.574777444, 32.978639406 ], [ 131.57473405499999, 32.978671572 ], [ 131.57467855499999, 32.978697878 ], [ 131.574639311999988, 32.978711346 ], [ 131.574631692999986, 32.978713961 ], [ 131.574565777, 32.978727128 ], [ 131.574491165000012, 32.978735905 ], [ 131.57438586, 32.978741739 ], [ 131.574197149000014, 32.978731085 ], [ 131.574118193, 32.978726627 ], [ 131.57409491199999, 32.978797865 ], [ 131.57405710899999, 32.978913544 ], [ 131.574020831000013, 32.979052099 ], [ 131.57401649799999, 32.979069655 ], [ 131.57401649799999, 32.979089405 ], [ 131.574019407, 32.979100203 ], [ 131.574038193, 32.979128182 ], [ 131.57419566499999, 32.979189238 ], [ 131.574250992, 32.979212014 ], [ 131.57430761, 32.979235322 ], [ 131.574365796, 32.979270935 ], [ 131.574462915999987, 32.979330377 ], [ 131.574500666, 32.979361433 ], [ 131.574516859999989, 32.979377988 ], [ 131.574534777, 32.979394099 ], [ 131.574545194, 32.979414572 ], [ 131.574548666, 32.979434544 ], [ 131.57454752699999, 32.979456016 ], [ 131.57453941599999, 32.979481849 ], [ 131.574527859999989, 32.979511099 ], [ 131.574480583, 32.979601571 ], [ 131.574469916, 32.979629542 ], [ 131.574467158, 32.9796435 ], [ 131.574459944000012, 32.979680016 ], [ 131.574461694, 32.979699516 ], [ 131.574501583, 32.979740488 ], [ 131.574598415999986, 32.979792405 ], [ 131.574923028, 32.979960961 ], [ 131.575, 32.979991282 ], [ 131.575043556, 32.980024961 ], [ 131.575067168, 32.980077822 ], [ 131.575084084, 32.980151322 ], [ 131.575089306, 32.980190794 ], [ 131.575095806, 32.980212738 ], [ 131.575110112, 32.980234683 ], [ 131.575213584000011, 32.980319683 ], [ 131.57527624299999, 32.980369267 ], [ 131.575455057, 32.980510766 ], [ 131.57547685899999, 32.980533471 ], [ 131.57545944200001, 32.98056326 ], [ 131.57552894599999, 32.980597461 ], [ 131.57564086299999, 32.980661822 ], [ 131.575786308, 32.980717544 ], [ 131.575912592, 32.980749056 ], [ 131.576065476, 32.980787211 ], [ 131.576133142, 32.980682989 ], [ 131.57627761399999, 32.980485544 ], [ 131.576612393, 32.980066101 ], [ 131.576671361, 32.979992227 ], [ 131.576702708999989, 32.979961079 ], [ 131.576485142, 32.979791489 ], [ 131.57626043, 32.979661285 ], [ 131.576086761999989, 32.979525849 ], [ 131.575851725, 32.9793813 ], [ 131.57566409399999, 32.97924123 ], [ 131.57546256099999, 32.979105922 ], [ 131.575241368, 32.978947215 ], [ 131.57496977, 32.978751156 ] ] ] } },
{ "type": "Feature", "properties": { "A29_001": "44212", "A29_002": "大分県", "A29_003": "豊後大野市", "A29_004": 4, "A29_005": "第二種中高層住居専用地域", "A29_006": 60, "A29_007": 200, "A29_008": null }, "geometry": { "type": "Polygon", "coordinates": [ [ [ 131.58904149899999, 32.981494524 ], [ 131.58925711099999, 32.981460107 ], [ 131.589412278, 32.981513802 ], [ 131.589502915999986, 32.981517941 ], [ 131.589610722, 32.981502802 ], [ 131.589715250000012, 32.981455996 ], [ 131.589881305, 32.981337163 ], [ 131.590040278, 32.981234358 ], [ 131.590162, 32.981184774 ], [ 131.590330222, 32.981135219 ], [ 131.590542583, 32.981103552 ], [ 131.590928861, 32.981044358 ], [ 131.591118333, 32.981029219 ], [ 131.591261556, 32.981146136 ], [ 131.59141125, 32.981255774 ], [ 131.591973862, 32.981049608 ], [ 131.592198806, 32.980964886 ], [ 131.592390556, 32.980880997 ], [ 131.59338013199999, 32.980499645 ], [ 131.593619448, 32.980409141 ], [ 131.593772252, 32.980337947 ], [ 131.593997419, 32.980252315 ], [ 131.59436137599999, 32.980083811 ], [ 131.59483992599999, 32.979827226 ], [ 131.59541669399999, 32.979531487 ], [ 131.59576389, 32.979349416 ], [ 131.596160716000014, 32.979105133 ], [ 131.596843643, 32.978711951 ], [ 131.597382032000013, 32.978375831 ], [ 131.59775058, 32.97810399 ], [ 131.59776375199999, 32.978093091 ], [ 131.597738424, 32.978041992 ], [ 131.59769831, 32.977961064 ], [ 131.59763314, 32.977829584 ], [ 131.59756439, 32.977709084 ], [ 131.597494055999988, 32.977541778 ], [ 131.597485653, 32.977532396 ], [ 131.59747922299999, 32.977525216 ], [ 131.59744805599999, 32.977490417 ], [ 131.59744064899999, 32.977430877 ], [ 131.59741330599999, 32.977211056 ], [ 131.597396108999988, 32.977208961 ], [ 131.596333821, 32.977079542 ], [ 131.59562822800001, 32.977000698 ], [ 131.594964436999987, 32.97692165 ], [ 131.59441768799999, 32.976842041 ], [ 131.594060721, 32.976803808 ], [ 131.593689852000011, 32.976770338 ], [ 131.593280299000014, 32.976786378 ], [ 131.592979584, 32.976825389 ], [ 131.592395095, 32.976936213 ], [ 131.591741186, 32.977084946 ], [ 131.591435080999986, 32.977147249 ], [ 131.591339553000012, 32.977166249 ], [ 131.59086149699999, 32.977263027 ], [ 131.590463876, 32.977361117 ], [ 131.590121591000013, 32.977435551 ], [ 131.589723697000011, 32.977529038 ], [ 131.58930942399999, 32.977674278 ], [ 131.588911994999989, 32.977838228 ], [ 131.588475939, 32.978061081 ], [ 131.588192577, 32.978196304 ], [ 131.587932099999989, 32.978420678 ], [ 131.58743726, 32.978887835 ], [ 131.587690446000011, 32.979067767 ], [ 131.588038266000012, 32.979406722 ], [ 131.588225697000013, 32.979611546 ], [ 131.58835833099999, 32.979805609 ], [ 131.58842999399999, 32.980062573 ], [ 131.588519362, 32.980510795 ], [ 131.588571722000012, 32.980841745 ], [ 131.588652303, 32.981612726 ], [ 131.588771194, 32.981608801 ], [ 131.58904149899999, 32.981494524 ] ] ] } },
{ "type": "Feature", "properties": { "A29_001": "44212", "A29_002": "大分県", "A29_003": "豊後大野市", "A29_004": 6, "A29_005": "第二種住居地域", "A29_006": 60, "A29_007": 200, "A29_008": null }, "geometry": { "type": "Polygon", "coordinates": [ [ [ 131.58758335600001, 32.979203921 ], [ 131.58728903, 32.979018897 ], [ 131.586355325, 32.979954139 ], [ 131.586347507, 32.97996197 ], [ 131.58851757, 32.981888184 ], [ 131.588484276, 32.981628456 ], [ 131.58845279799999, 32.981399585 ], [ 131.58841643, 32.981063862 ], [ 131.588385743, 32.980849081 ], [ 131.588352463, 32.980663673 ], [ 131.588327381, 32.980453564 ], [ 131.588272515, 32.980164906 ], [ 131.58822191199999, 32.979965017 ], [ 131.588143949, 32.979791588 ], [ 131.587893592, 32.97949073 ], [ 131.587667833000012, 32.979274845 ], [ 131.58758335600001, 32.979203921 ] ] ] } },
{ "type": "Feature", "properties": { "A29_001": "44212", "A29_002": "大分県", "A29_003": "豊後大野市", "A29_004": 4, "A29_005": "第二種中高層住居専用地域", "A29_006": 60, "A29_007": 200, "A29_008": null }, "geometry": { "type": "Polygon", "coordinates": [ [ [ 131.578709784000011, 32.974804142 ], [ 131.57841589, 32.973538262 ], [ 131.577249443, 32.972563105 ], [ 131.577098971, 32.972608827 ], [ 131.576883982, 32.972693864 ], [ 131.576520109, 32.972835632 ], [ 131.576356207, 32.972929019 ], [ 131.576276842999988, 32.97299953 ], [ 131.576219831, 32.973087382 ], [ 131.57617872, 32.973148576 ], [ 131.576140220000013, 32.973173632 ], [ 131.575897024999989, 32.973313743 ], [ 131.575784164, 32.973392632 ], [ 131.575672636, 32.973477215 ], [ 131.575663469, 32.973490409 ], [ 131.575346719, 32.973794603 ], [ 131.575291975, 32.97385805 ], [ 131.57521873799999, 32.973952345 ], [ 131.57511652299999, 32.974090227 ], [ 131.574983365, 32.974183622 ], [ 131.574701327000014, 32.974309413 ], [ 131.57455415199999, 32.974389954 ], [ 131.574307548, 32.974393437 ], [ 131.5741041, 32.974390849 ], [ 131.57397927, 32.974479507 ], [ 131.573809828, 32.974634324 ], [ 131.573752966, 32.974785444 ], [ 131.574049341, 32.974972458 ], [ 131.574467109000011, 32.975233286 ], [ 131.57448444, 32.975244106 ], [ 131.574436523, 32.975454666 ], [ 131.574420763, 32.975523921 ], [ 131.57440882899999, 32.975832858 ], [ 131.574460799, 32.976112141 ], [ 131.574568405, 32.976375899 ], [ 131.574709727, 32.976681782 ], [ 131.57493799299999, 32.977073001 ], [ 131.575087212999989, 32.977307206 ], [ 131.575327033, 32.977545691 ], [ 131.575488583, 32.977690712 ], [ 131.57553730399999, 32.977739682 ], [ 131.575746044999988, 32.97791254 ], [ 131.576237547, 32.978283751 ], [ 131.57659592600001, 32.978539303 ], [ 131.57699058099999, 32.978801733 ], [ 131.577291605, 32.979022315 ], [ 131.577799604, 32.979357035 ], [ 131.578127198, 32.979591585 ], [ 131.578612985, 32.979938149 ], [ 131.579109878, 32.980277613 ], [ 131.579552261, 32.98059149 ], [ 131.57998337, 32.980885452 ], [ 131.580303871000012, 32.981098889 ], [ 131.580491536000011, 32.981242475 ], [ 131.580840077, 32.981481618 ], [ 131.581200005999989, 32.981757115 ], [ 131.581380706, 32.981900732 ], [ 131.581780001, 32.982228895 ], [ 131.58192035499999, 32.982382095 ], [ 131.582118581, 32.982647773 ], [ 131.582309025, 32.982910126 ], [ 131.582595413, 32.983323211 ], [ 131.583147915000012, 32.983213756 ], [ 131.583164720000013, 32.98314845 ], [ 131.583161012, 32.982874277 ], [ 131.58313696, 32.982590841 ], [ 131.583132267, 32.982538075 ], [ 131.582127076, 32.979907724 ], [ 131.581253640999989, 32.979096719 ], [ 131.580582746, 32.978488081 ], [ 131.58017646, 32.977993747 ], [ 131.57933931299999, 32.976664632 ], [ 131.578943161000012, 32.975831346 ], [ 131.578858284, 32.975461151 ], [ 131.578709784000011, 32.974804142 ] ] ] } },
{ "type": "Feature", "properties": { "A29_001": "44212", "A29_002": "大分県", "A29_003": "豊後大野市", "A29_004": 5, "A29_005": "第一種住居地域", "A29_006": 60, "A29_007": 200, "A29_008": null }, "geometry": { "type": "Polygon", "coordinates": [ [ [ 131.592071779, 32.981605524 ], [ 131.592583216, 32.981398483 ], [ 131.59261464, 32.981387164 ], [ 131.59329929099999, 32.981084801 ], [ 131.59369242, 32.980902066 ], [ 131.594103528, 32.980699279 ], [ 131.594400533, 32.980548355 ], [ 131.594869440999986, 32.980314214 ], [ 131.595961593999988, 32.97972561 ], [ 131.596952511000012, 32.979215086 ], [ 131.598051593, 32.978696862 ], [ 131.598253365, 32.978604038 ], [ 131.598428272, 32.978473408 ], [ 131.59875152699999, 32.978133206 ], [ 131.59916114, 32.977706529 ], [ 131.599013918, 32.977636751 ], [ 131.598993224, 32.977617362 ], [ 131.598980557, 32.97757764 ], [ 131.598909899, 32.977433111 ], [ 131.598900743, 32.977417014 ], [ 131.598809251, 32.977376084 ], [ 131.598780018000014, 32.977341248 ], [ 131.598775918, 32.977336362 ], [ 131.598684768999988, 32.977206737 ], [ 131.59862318399999, 32.977119154 ], [ 131.59829711099999, 32.976650724 ], [ 131.598133278, 32.976663807 ], [ 131.598002223, 32.976662334 ], [ 131.597922353, 32.976659359 ], [ 131.597709917, 32.976651446 ], [ 131.59740422199999, 32.976634668 ], [ 131.597087389, 32.976609279 ], [ 131.596339887999989, 32.976548945 ], [ 131.595918837, 32.976492001 ], [ 131.59562369299999, 32.976452084 ], [ 131.595245973, 32.976385574 ], [ 131.59492958199999, 32.976329862 ], [ 131.594807221, 32.976292751 ], [ 131.594425609000012, 32.976177056 ], [ 131.594163720000012, 32.97615589 ], [ 131.593745748, 32.976147889 ], [ 131.59358935899999, 32.976132862 ], [ 131.593333941999987, 32.976062806 ], [ 131.592719108000011, 32.975893945 ], [ 131.592019247, 32.975684695 ], [ 131.59197705299999, 32.975672278 ], [ 131.59183630199999, 32.975630778 ], [ 131.591666667, 32.975593088 ], [ 131.5914477, 32.975576665 ], [ 131.591088108, 32.975561926 ], [ 131.590770310000011, 32.975545812 ], [ 131.590300582, 32.975522195 ], [ 131.589786276000012, 32.975499962 ], [ 131.589166548, 32.975456337 ], [ 131.589163996, 32.975471417 ], [ 131.589129856999989, 32.97555775 ], [ 131.589100551, 32.975631889 ], [ 131.58902141199999, 32.975794055 ], [ 131.589000051, 32.975834083 ], [ 131.588986468, 32.975848083 ], [ 131.58896871799999, 32.975859972 ], [ 131.588701829, 32.975990361 ], [ 131.588441773, 32.976115222 ], [ 131.588323272999986, 32.976202527 ], [ 131.58822760699999, 32.976291499 ], [ 131.58793287099999, 32.976451374 ], [ 131.58791601499999, 32.976460517 ], [ 131.587894440000014, 32.976472221 ], [ 131.587830107, 32.976512527 ], [ 131.587704773000013, 32.976640416 ], [ 131.587605801, 32.976701582 ], [ 131.587463968, 32.976743277 ], [ 131.58736171699999, 32.976757193 ], [ 131.587209134, 32.976761165 ], [ 131.586791049999988, 32.976696026 ], [ 131.586500771, 32.976640415 ], [ 131.586301799000012, 32.976630387 ], [ 131.586184715, 32.976617248 ], [ 131.586166131, 32.976660632 ], [ 131.58533241399999, 32.977362697 ], [ 131.58555649199999, 32.97749932 ], [ 131.58578595099999, 32.977641528 ], [ 131.58610234299999, 32.977865539 ], [ 131.586440841000012, 32.978151648 ], [ 131.586519298000013, 32.978287116 ], [ 131.586780761999989, 32.978470722 ], [ 131.587053938999986, 32.978659666 ], [ 131.58743726, 32.978887835 ], [ 131.587932099999989, 32.978420678 ], [ 131.588192577, 32.978196304 ], [ 131.588475939, 32.978061081 ], [ 131.588911994999989, 32.977838228 ], [ 131.58930942399999, 32.977674278 ], [ 131.589723697000011, 32.977529038 ], [ 131.590121591000013, 32.977435551 ], [ 131.590463876, 32.977361117 ], [ 131.59086149699999, 32.977263027 ], [ 131.591339553000012, 32.977166249 ], [ 131.591435080999986, 32.977147249 ], [ 131.591741186, 32.977084946 ], [ 131.592395095, 32.976936213 ], [ 131.592979584, 32.976825389 ], [ 131.593280299000014, 32.976786378 ], [ 131.593689852000011, 32.976770338 ], [ 131.594060721, 32.976803808 ], [ 131.59441768799999, 32.976842041 ], [ 131.594964436999987, 32.97692165 ], [ 131.59562822800001, 32.977000698 ], [ 131.596333821, 32.977079542 ], [ 131.597396108999988, 32.977208961 ], [ 131.59741330599999, 32.977211056 ], [ 131.59744064899999, 32.977430877 ], [ 131.59744805599999, 32.977490417 ], [ 131.59747922299999, 32.977525216 ], [ 131.597485653, 32.977532396 ], [ 131.597494055999988, 32.977541778 ], [ 131.59756439, 32.977709084 ], [ 131.59763314, 32.977829584 ], [ 131.59769831, 32.977961064 ], [ 131.597738424, 32.978041992 ], [ 131.59776375199999, 32.978093091 ], [ 131.59775058, 32.97810399 ], [ 131.597382032000013, 32.978375831 ], [ 131.596843643, 32.978711951 ], [ 131.596160716000014, 32.979105133 ], [ 131.59576389, 32.979349416 ], [ 131.59541669399999, 32.979531487 ], [ 131.59483992599999, 32.979827226 ], [ 131.59436137599999, 32.980083811 ], [ 131.593997419, 32.980252315 ], [ 131.593772252, 32.980337947 ], [ 131.593619448, 32.980409141 ], [ 131.59338013199999, 32.980499645 ], [ 131.592390556, 32.980880997 ], [ 131.592198806, 32.980964886 ], [ 131.591973862, 32.981049608 ], [ 131.59141125, 32.981255774 ], [ 131.591261556, 32.981146136 ], [ 131.591118333, 32.981029219 ], [ 131.590928861, 32.981044358 ], [ 131.590542583, 32.981103552 ], [ 131.590330222, 32.981135219 ], [ 131.590162, 32.981184774 ], [ 131.590040278, 32.981234358 ], [ 131.589881305, 32.981337163 ], [ 131.589715250000012, 32.981455996 ], [ 131.589610722, 32.981502802 ], [ 131.589502915999986, 32.981517941 ], [ 131.589412278, 32.981513802 ], [ 131.58925711099999, 32.981460107 ], [ 131.58904149899999, 32.981494524 ], [ 131.588771194, 32.981608801 ], [ 131.588652303, 32.981612726 ], [ 131.588690117, 32.981884105 ], [ 131.588744413, 32.982208435 ], [ 131.58881198, 32.98245294 ], [ 131.588895615000013, 32.982640044 ], [ 131.588991072, 32.982801697 ], [ 131.589120720000011, 32.982946284 ], [ 131.589384023, 32.983135151 ], [ 131.589790634, 32.983316662 ], [ 131.589846016, 32.983218333 ], [ 131.589862076, 32.98318206 ], [ 131.589932736, 32.983097873 ], [ 131.590136445000013, 32.982976745 ], [ 131.591066834, 32.982569357 ], [ 131.591243418, 32.982395135 ], [ 131.59141989, 32.982172774 ], [ 131.591645871, 32.981879943 ], [ 131.591773972999988, 32.981768719 ], [ 131.59196058399999, 32.98165208 ], [ 131.592071779, 32.981605524 ] ] ] } },
{ "type": "Feature", "properties": { "A29_001": "44212", "A29_002": "大分県", "A29_003": "豊後大野市", "A29_004": 2, "A29_005": "第二種低層住居専用地域", "A29_006": 50, "A29_007": 150, "A29_008": null }, "geometry": { "type": "Polygon", "coordinates": [ [ [ 131.578200525999989, 32.981007642 ], [ 131.577671348, 32.980631915 ], [ 131.577201048, 32.98030994 ], [ 131.576702708999989, 32.979961079 ], [ 131.576671361, 32.979992227 ], [ 131.576612393, 32.980066101 ], [ 131.57627761399999, 32.980485544 ], [ 131.576133142, 32.980682989 ], [ 131.576065476, 32.980787211 ], [ 131.575912592, 32.980749056 ], [ 131.575786308, 32.980717544 ], [ 131.57564086299999, 32.980661822 ], [ 131.57552894599999, 32.980597461 ], [ 131.57545944200001, 32.98056326 ], [ 131.57533719599999, 32.980765683 ], [ 131.575258467999987, 32.980927177 ], [ 131.575207029000012, 32.981034793 ], [ 131.575160541, 32.981188527 ], [ 131.575159902, 32.981200729 ], [ 131.57516201199999, 32.981211886 ], [ 131.57516682799999, 32.981221168 ], [ 131.575172642000013, 32.981227154 ], [ 131.575192178, 32.981236023 ], [ 131.57528149800001, 32.981267759 ], [ 131.57555515199999, 32.981349885 ], [ 131.575915406, 32.981463321 ], [ 131.576325884999989, 32.98158592 ], [ 131.576704186, 32.9816887 ], [ 131.57710340700001, 32.981811001 ], [ 131.57716495299999, 32.981829855 ], [ 131.57756556699999, 32.981934878 ], [ 131.577375429999989, 32.982983117 ], [ 131.577832175999987, 32.983074044 ], [ 131.578373421, 32.983160797 ], [ 131.578945492, 32.983273242 ], [ 131.579375185, 32.983348764 ], [ 131.57990654, 32.983427295 ], [ 131.580088596, 32.983458989 ], [ 131.580281958, 32.983478101 ], [ 131.580543986, 32.98346249 ], [ 131.580761459, 32.98343474 ], [ 131.580882987, 32.98341924 ], [ 131.581139043, 32.983361379 ], [ 131.581189626, 32.983351463 ], [ 131.58126936799999, 32.983335777 ], [ 131.581213835, 32.983266908 ], [ 131.581106647000013, 32.983152885 ], [ 131.580935103, 32.982994019 ], [ 131.580751348, 32.982827959 ], [ 131.58060841599999, 32.98270648 ], [ 131.580258362, 32.982449726 ], [ 131.580048392, 32.982305069 ], [ 131.579746123, 32.982070323 ], [ 131.57951644100001, 32.981934061 ], [ 131.579345628, 32.981810361 ], [ 131.579135661, 32.981665703 ], [ 131.578945096000012, 32.981504511 ], [ 131.578539207, 32.981231569 ], [ 131.578200525999989, 32.981007642 ] ] ] } },
{ "type": "Feature", "properties": { "A29_001": "44212", "A29_002": "大分県", "A29_003": "豊後大野市", "A29_004": 9, "A29_005": "商業地域", "A29_006": 80, "A29_007": 400, "A29_008": null }, "geometry": { "type": "Polygon", "coordinates": [ [ [ 131.59012329, 32.983660752 ], [ 131.590236156, 32.983577541 ], [ 131.590054304, 32.983552278 ], [ 131.589849171, 32.983511717 ], [ 131.589645287, 32.98344691 ], [ 131.589497064999989, 32.983370096 ], [ 131.58926769499999, 32.983244337 ], [ 131.58907031199999, 32.983109032 ], [ 131.588869878, 32.982933809 ], [ 131.588747501, 32.982761741 ], [ 131.588676722, 32.982595301 ], [ 131.588608298999986, 32.982393625 ], [ 131.58857974, 32.982270647 ], [ 131.588540598, 32.982045724 ], [ 131.58851757, 32.981888184 ], [ 131.586347507, 32.97996197 ], [ 131.586355325, 32.979954139 ], [ 131.58728903, 32.979018897 ], [ 131.58683331, 32.97872592 ], [ 131.586445408, 32.978435302 ], [ 131.586103783999988, 32.978189096 ], [ 131.585812503, 32.977969664 ], [ 131.585507374, 32.977763216 ], [ 131.585326807, 32.97763957 ], [ 131.58507496199999, 32.977483373 ], [ 131.58475620499999, 32.977322791 ], [ 131.584151832, 32.977000346 ], [ 131.583915423, 32.976864025 ], [ 131.58367112, 32.976712275 ], [ 131.583602697, 32.97665861 ], [ 131.583425804, 32.976475664 ], [ 131.583275176, 32.976297903 ], [ 131.583188232999987, 32.976162313 ], [ 131.583136488, 32.976084715 ], [ 131.581442818, 32.974601875 ], [ 131.581183204000013, 32.974669051 ], [ 131.580863203, 32.974763357 ], [ 131.580684342000012, 32.97479794 ], [ 131.58061806399999, 32.974739496 ], [ 131.57977000599999, 32.973997245 ], [ 131.579643608, 32.973894415 ], [ 131.579607616, 32.973865134 ], [ 131.57971833900001, 32.974410662 ], [ 131.579829507, 32.974947273 ], [ 131.579313735, 32.975112574 ], [ 131.579461994000013, 32.97574092 ], [ 131.579558119000012, 32.975942369 ], [ 131.57993425699999, 32.976667555 ], [ 131.580599447, 32.977716837 ], [ 131.580834001999989, 32.977999965 ], [ 131.580949121, 32.978130969 ], [ 131.581014984, 32.978191827 ], [ 131.582626022, 32.979709263 ], [ 131.583605432000013, 32.982307348 ], [ 131.58361807, 32.982507107 ], [ 131.583627584999988, 32.982608761 ], [ 131.58364072, 32.982669018 ], [ 131.583669097000012, 32.982718278 ], [ 131.58375752500001, 32.982827309 ], [ 131.583815804000011, 32.982899642 ], [ 131.583792417000012, 32.982975119 ], [ 131.583730772, 32.983063637 ], [ 131.583573072, 32.983189633 ], [ 131.583609798, 32.983521655 ], [ 131.583554523, 32.983592381 ], [ 131.583469637, 32.983610395 ], [ 131.583198336, 32.983676257 ], [ 131.582922814999989, 32.983736266 ], [ 131.582683462, 32.983786711 ], [ 131.58235080099999, 32.983825368 ], [ 131.582741142, 32.983869828 ], [ 131.583061749, 32.983884774 ], [ 131.583502256, 32.983908554 ], [ 131.583928519000011, 32.983885421 ], [ 131.584363206, 32.983871643 ], [ 131.584646541000012, 32.983850453 ], [ 131.585270834999989, 32.983728807 ], [ 131.585654983000012, 32.983658887 ], [ 131.586106296, 32.983630932 ], [ 131.586666361, 32.983611859 ], [ 131.58754711, 32.983619463 ], [ 131.588116097000011, 32.983684903 ], [ 131.588593333, 32.983783657 ], [ 131.589084660999987, 32.983905833 ], [ 131.589437188, 32.984052631 ], [ 131.58957987299999, 32.983979307 ], [ 131.589775929000012, 32.983875192 ], [ 131.589908216, 32.98379918 ], [ 131.590033252000012, 32.983725455 ], [ 131.59012329, 32.983660752 ] ] ] } },
{ "type": "Feature", "properties": { "A29_001": "44212", "A29_002": "大分県", "A29_003": "豊後大野市", "A29_004": 10, "A29_005": "準工業地域", "A29_006": 60, "A29_007": 200, "A29_008": null }, "geometry": { "type": "Polygon", "coordinates": [ [ [ 131.579418960999988, 32.984222741 ], [ 131.579909324, 32.984153852 ], [ 131.58045693599999, 32.98417313 ], [ 131.580655294, 32.984159081 ], [ 131.580681521, 32.983895834 ], [ 131.580347461, 32.983893808 ], [ 131.579992291, 32.983888539 ], [ 131.579722741000012, 32.983862737 ], [ 131.579452131000011, 32.983821713 ], [ 131.579203817, 32.983780585 ], [ 131.578740646999989, 32.98370052 ], [ 131.578255122, 32.983611162 ], [ 131.57771101099999, 32.983512677 ], [ 131.577300243, 32.98342095 ], [ 131.577217811999986, 32.983831598 ], [ 131.577288764, 32.983881572 ], [ 131.577386014000012, 32.983930934 ], [ 131.577620235000012, 32.984017545 ], [ 131.577871635, 32.98408073 ], [ 131.578063875, 32.984129046 ], [ 131.578235619999987, 32.984161866 ], [ 131.578377738, 32.984181406 ], [ 131.578701456, 32.984223129 ], [ 131.579106739, 32.984239268 ], [ 131.579418960999988, 32.984222741 ] ] ] } },
{ "type": "Feature", "properties": { "A29_001": "44212", "A29_002": "大分県", "A29_003": "豊後大野市", "A29_004": 5, "A29_005": "第一種住居地域", "A29_006": 60, "A29_007": 200, "A29_008": null }, "geometry": { "type": "Polygon", "coordinates": [ [ [ 131.573752966, 32.974785444 ], [ 131.57371407799999, 32.974888796 ], [ 131.573419161, 32.974936101 ], [ 131.573463550000014, 32.974999907 ], [ 131.57346360599999, 32.975 ], [ 131.573624540999987, 32.975268596 ], [ 131.573258216, 32.975652018 ], [ 131.573050118999987, 32.975759993 ], [ 131.573116408, 32.975932753 ], [ 131.57316929000001, 32.97613804 ], [ 131.57322342099999, 32.976321008 ], [ 131.573379074, 32.976689073 ], [ 131.573448358, 32.976844958 ], [ 131.573623314, 32.977181224 ], [ 131.573725102999987, 32.977407428 ], [ 131.573863081000013, 32.977627592 ], [ 131.573982734, 32.977814955 ], [ 131.574168066, 32.978031378 ], [ 131.574444289000013, 32.97829671 ], [ 131.574788476, 32.97858731 ], [ 131.574813322000011, 32.978609764 ], [ 131.57496977, 32.978751156 ], [ 131.575241368, 32.978947215 ], [ 131.57546256099999, 32.979105922 ], [ 131.57566409399999, 32.97924123 ], [ 131.575851725, 32.9793813 ], [ 131.576086761999989, 32.979525849 ], [ 131.57626043, 32.979661285 ], [ 131.576485142, 32.979791489 ], [ 131.576702708999989, 32.979961079 ], [ 131.577201048, 32.98030994 ], [ 131.577671348, 32.980631915 ], [ 131.578200525999989, 32.981007642 ], [ 131.578539207, 32.981231569 ], [ 131.578945096000012, 32.981504511 ], [ 131.579135661, 32.981665703 ], [ 131.579345628, 32.981810361 ], [ 131.57951644100001, 32.981934061 ], [ 131.579746123, 32.982070323 ], [ 131.580048392, 32.982305069 ], [ 131.580258362, 32.982449726 ], [ 131.58060841599999, 32.98270648 ], [ 131.580751348, 32.982827959 ], [ 131.580935103, 32.982994019 ], [ 131.581106647000013, 32.983152885 ], [ 131.581213835, 32.983266908 ], [ 131.58126936799999, 32.983335777 ], [ 131.581189626, 32.983351463 ], [ 131.581139043, 32.983361379 ], [ 131.580882987, 32.98341924 ], [ 131.580761459, 32.98343474 ], [ 131.580543986, 32.98346249 ], [ 131.580281958, 32.983478101 ], [ 131.580088596, 32.983458989 ], [ 131.57990654, 32.983427295 ], [ 131.579375185, 32.983348764 ], [ 131.578945492, 32.983273242 ], [ 131.578373421, 32.983160797 ], [ 131.577832175999987, 32.983074044 ], [ 131.577375429999989, 32.982983117 ], [ 131.577300243, 32.98342095 ], [ 131.57771101099999, 32.983512677 ], [ 131.578255122, 32.983611162 ], [ 131.578740646999989, 32.98370052 ], [ 131.579203817, 32.983780585 ], [ 131.579452131000011, 32.983821713 ], [ 131.579722741000012, 32.983862737 ], [ 131.579992291, 32.983888539 ], [ 131.580347461, 32.983893808 ], [ 131.580681521, 32.983895834 ], [ 131.580655294, 32.984159081 ], [ 131.580851009000014, 32.984156118 ], [ 131.58129641, 32.984084854 ], [ 131.58170205, 32.984047905 ], [ 131.58202749599999, 32.984018193 ], [ 131.582176147000013, 32.984022511 ], [ 131.582284722999987, 32.984045863 ], [ 131.58237533, 32.984080001 ], [ 131.582610136, 32.984185781 ], [ 131.58278788699999, 32.984303572 ], [ 131.58291796, 32.984375781 ], [ 131.583066255, 32.984464347 ], [ 131.583226693, 32.984538924 ], [ 131.583372301, 32.984596937 ], [ 131.583521991, 32.984629878 ], [ 131.583605288, 32.984640226 ], [ 131.583740482, 32.984639715 ], [ 131.583904843, 32.984628376 ], [ 131.584133157999986, 32.984594423 ], [ 131.584351757, 32.984566388 ], [ 131.584593952, 32.984524149 ], [ 131.584869489999988, 32.984466484 ], [ 131.585114387, 32.984411312 ], [ 131.585311974, 32.984366931 ], [ 131.585591668, 32.984305723 ], [ 131.58581429899999, 32.984255351 ], [ 131.58597921399999, 32.984218887 ], [ 131.586143650999986, 32.984188125 ], [ 131.58628525200001, 32.984170935 ], [ 131.58644600299999, 32.984168012 ], [ 131.586502365, 32.984172001 ], [ 131.586637548999988, 32.984206857 ], [ 131.586796334000013, 32.984267706 ], [ 131.586972807, 32.984329774 ], [ 131.587129266, 32.984387761 ], [ 131.587266029, 32.984417654 ], [ 131.587405525, 32.984439312 ], [ 131.587599304, 32.98445132 ], [ 131.587769371, 32.984459915 ], [ 131.587988077, 32.984448315 ], [ 131.588229425, 32.984412839 ], [ 131.588489425, 32.984361325 ], [ 131.588677295999986, 32.984322857 ], [ 131.58891512, 32.984252443 ], [ 131.58912924, 32.984179791 ], [ 131.589286772, 32.984114628 ], [ 131.589437188, 32.984052631 ], [ 131.589084660999987, 32.983905833 ], [ 131.588593333, 32.983783657 ], [ 131.588116097000011, 32.983684903 ], [ 131.58754711, 32.983619463 ], [ 131.586666361, 32.983611859 ], [ 131.586106296, 32.983630932 ], [ 131.585654983000012, 32.983658887 ], [ 131.585270834999989, 32.983728807 ], [ 131.584646541000012, 32.983850453 ], [ 131.584363206, 32.983871643 ], [ 131.583928519000011, 32.983885421 ], [ 131.583502256, 32.983908554 ], [ 131.583061749, 32.983884774 ], [ 131.582741142, 32.983869828 ], [ 131.58235080099999, 32.983825368 ], [ 131.582683462, 32.983786711 ], [ 131.582922814999989, 32.983736266 ], [ 131.583198336, 32.983676257 ], [ 131.583469637, 32.983610395 ], [ 131.583554523, 32.983592381 ], [ 131.583609798, 32.983521655 ], [ 131.583573072, 32.983189633 ], [ 131.583730772, 32.983063637 ], [ 131.583792417000012, 32.982975119 ], [ 131.583815804000011, 32.982899642 ], [ 131.58375752500001, 32.982827309 ], [ 131.583669097000012, 32.982718278 ], [ 131.58364072, 32.982669018 ], [ 131.583627584999988, 32.982608761 ], [ 131.58361807, 32.982507107 ], [ 131.583605432000013, 32.982307348 ], [ 131.582626022, 32.979709263 ], [ 131.581014984, 32.978191827 ], [ 131.580949121, 32.978130969 ], [ 131.580834001999989, 32.977999965 ], [ 131.580599447, 32.977716837 ], [ 131.57993425699999, 32.976667555 ], [ 131.579558119000012, 32.975942369 ], [ 131.579461994000013, 32.97574092 ], [ 131.579313735, 32.975112574 ], [ 131.579085641, 32.974109469 ], [ 131.57841589, 32.973538262 ], [ 131.578709784000011, 32.974804142 ], [ 131.578858284, 32.975461151 ], [ 131.578943161000012, 32.975831346 ], [ 131.57933931299999, 32.976664632 ], [ 131.58017646, 32.977993747 ], [ 131.580582746, 32.978488081 ], [ 131.581253640999989, 32.979096719 ], [ 131.582127076, 32.979907724 ], [ 131.583132267, 32.982538075 ], [ 131.58313696, 32.982590841 ], [ 131.583161012, 32.982874277 ], [ 131.583164720000013, 32.98314845 ], [ 131.583147915000012, 32.983213756 ], [ 131.582595413, 32.983323211 ], [ 131.582309025, 32.982910126 ], [ 131.582118581, 32.982647773 ], [ 131.58192035499999, 32.982382095 ], [ 131.581780001, 32.982228895 ], [ 131.581380706, 32.981900732 ], [ 131.581200005999989, 32.981757115 ], [ 131.580840077, 32.981481618 ], [ 131.580491536000011, 32.981242475 ], [ 131.580303871000012, 32.981098889 ], [ 131.57998337, 32.980885452 ], [ 131.579552261, 32.98059149 ], [ 131.579109878, 32.980277613 ], [ 131.578612985, 32.979938149 ], [ 131.578127198, 32.979591585 ], [ 131.577799604, 32.979357035 ], [ 131.577291605, 32.979022315 ], [ 131.57699058099999, 32.978801733 ], [ 131.57659592600001, 32.978539303 ], [ 131.576237547, 32.978283751 ], [ 131.575746044999988, 32.97791254 ], [ 131.57553730399999, 32.977739682 ], [ 131.575488583, 32.977690712 ], [ 131.575327033, 32.977545691 ], [ 131.575087212999989, 32.977307206 ], [ 131.57493799299999, 32.977073001 ], [ 131.574709727, 32.976681782 ], [ 131.574568405, 32.976375899 ], [ 131.574460799, 32.976112141 ], [ 131.57440882899999, 32.975832858 ], [ 131.574420763, 32.975523921 ], [ 131.574436523, 32.975454666 ], [ 131.57448444, 32.975244106 ], [ 131.574467109000011, 32.975233286 ], [ 131.574049341, 32.974972458 ], [ 131.573752966, 32.974785444 ] ] ] } },
{ "type": "Feature", "properties": { "A29_001": "44212", "A29_002": "大分県", "A29_003": "豊後大野市", "A29_004": 10, "A29_005": "準工業地域", "A29_006": 60, "A29_007": 200, "A29_008": null }, "geometry": { "type": "Polygon", "coordinates": [ [ [ 131.580576291999989, 32.984602544 ], [ 131.580634986, 32.98432885 ], [ 131.58063965299999, 32.984305649 ], [ 131.58035748899999, 32.984289284 ], [ 131.58010249, 32.984283783 ], [ 131.579837684000012, 32.984297561 ], [ 131.579482989000013, 32.984349894 ], [ 131.57926393299999, 32.984369172 ], [ 131.579090681999986, 32.984371949 ], [ 131.578887987, 32.984366421 ], [ 131.578623181000012, 32.984338866 ], [ 131.57834529199999, 32.98429756 ], [ 131.57794481900001, 32.984234172 ], [ 131.577585207, 32.984143255 ], [ 131.577340041000014, 32.984063365 ], [ 131.577184531, 32.983986789 ], [ 131.576866996, 32.98577603 ], [ 131.577088035, 32.985819541 ], [ 131.577336008, 32.985920153 ], [ 131.57739131400001, 32.985937708 ], [ 131.577601480999988, 32.986004486 ], [ 131.577988204, 32.986132736 ], [ 131.578147537, 32.986162931 ], [ 131.57844026, 32.986201403 ], [ 131.57879656599999, 32.986243653 ], [ 131.579407401, 32.986277987 ], [ 131.57964640099999, 32.986284765 ], [ 131.579720401, 32.986278348 ], [ 131.579777678999989, 32.986267793 ], [ 131.579892263, 32.986237599 ], [ 131.580078418999989, 32.986165888 ], [ 131.58012176299999, 32.98614896 ], [ 131.580378236, 32.986061821 ], [ 131.58039737499999, 32.985985738 ], [ 131.58045675299999, 32.985520859 ], [ 131.580459486, 32.985518488 ], [ 131.580491236, 32.985347877 ], [ 131.580561264000011, 32.984800294 ], [ 131.580570669999986, 32.984693406 ], [ 131.580576291999989, 32.984629517 ], [ 131.580576291999989, 32.984602544 ] ] ] } },
{ "type": "Feature", "properties": { "A29_001": "44212", "A29_002": "大分県", "A29_003": "豊後大野市", "A29_004": 5, "A29_005": "第一種住居地域", "A29_006": 60, "A29_007": 200, "A29_008": null }, "geometry": { "type": "Polygon", "coordinates": [ [ [ 131.58117357099999, 32.984667962 ], [ 131.58119696, 32.984280017 ], [ 131.581199507, 32.984259572 ], [ 131.580951126, 32.984296914 ], [ 131.580772959, 32.98431347 ], [ 131.58063965299999, 32.984305649 ], [ 131.580634986, 32.98432885 ], [ 131.580576291999989, 32.984602544 ], [ 131.580576291999989, 32.984629517 ], [ 131.580570669999986, 32.984693406 ], [ 131.580561264000011, 32.984800294 ], [ 131.580491236, 32.985347877 ], [ 131.580459486, 32.985518488 ], [ 131.58045675299999, 32.985520859 ], [ 131.58039737499999, 32.985985738 ], [ 131.580378236, 32.986061821 ], [ 131.58012176299999, 32.98614896 ], [ 131.580078418999989, 32.986165888 ], [ 131.580111643, 32.986224412 ], [ 131.580125458, 32.986274849 ], [ 131.580138263, 32.986323154 ], [ 131.580152790999989, 32.986551015 ], [ 131.580154631999989, 32.986625259 ], [ 131.58110714, 32.98629976 ], [ 131.581075233, 32.986002771 ], [ 131.58108070899999, 32.985757516 ], [ 131.58109241299999, 32.985686563 ], [ 131.581157765, 32.985290378 ], [ 131.581154098000013, 32.985192683 ], [ 131.581156598, 32.985125656 ], [ 131.58117357099999, 32.984667962 ] ] ] } },
{ "type": "Feature", "properties": { "A29_001": "44212", "A29_002": "大分県", "A29_003": "豊後大野市", "A29_004": 4, "A29_005": "第二種中高層住居専用地域", "A29_006": 60, "A29_007": 200, "A29_008": null }, "geometry": { "type": "Polygon", "coordinates": [ [ [ 131.59022608399999, 32.986601021 ], [ 131.59025769499999, 32.986611576 ], [ 131.59051072299999, 32.986742326 ], [ 131.590719029000013, 32.986851826 ], [ 131.590751778999987, 32.986869048 ], [ 131.590822779, 32.986894715 ], [ 131.591013334, 32.986923659 ], [ 131.591404278999988, 32.986983104 ], [ 131.591454696, 32.986990743 ], [ 131.591666279, 32.987022437 ], [ 131.59221847399999, 32.987098382 ], [ 131.59283428, 32.98719291 ], [ 131.593225117, 32.987235486 ], [ 131.593796996, 32.98731263 ], [ 131.59417714599999, 32.987060663 ], [ 131.594736575000013, 32.987042313 ], [ 131.59484730299999, 32.987038681 ], [ 131.594949108, 32.98704994 ], [ 131.59524939, 32.98753226 ], [ 131.595289872, 32.987574472 ], [ 131.59566503, 32.987617313 ], [ 131.595967742, 32.987662846 ], [ 131.59617565, 32.987687143 ], [ 131.59621878199999, 32.987692184 ], [ 131.596230021, 32.987912928 ], [ 131.5964351, 32.987946007 ], [ 131.596563744, 32.987966832 ], [ 131.596709933999989, 32.987990498 ], [ 131.596997492000014, 32.98806194 ], [ 131.59714032, 32.9881246 ], [ 131.597283260000012, 32.988300786 ], [ 131.597525934, 32.988309571 ], [ 131.597946767, 32.988305207 ], [ 131.598250439, 32.988286136 ], [ 131.598567683, 32.988232389 ], [ 131.598359025, 32.988011087 ], [ 131.598134918999989, 32.987843039 ], [ 131.597888565, 32.987682144 ], [ 131.597519549, 32.987517138 ], [ 131.596829409, 32.987262058 ], [ 131.596139224000012, 32.986999929 ], [ 131.59551335099999, 32.986768024 ], [ 131.59455785599999, 32.986424938 ], [ 131.593957042, 32.986188209 ], [ 131.593174667999989, 32.985891267 ], [ 131.59276959499999, 32.985749907 ], [ 131.592149422, 32.985534401 ], [ 131.591403337, 32.985244323 ], [ 131.59076360099999, 32.985019507 ], [ 131.590134920999986, 32.984780542 ], [ 131.589799719000013, 32.984667029 ], [ 131.58924379699999, 32.984452562 ], [ 131.589011750999987, 32.98436304 ], [ 131.588997248, 32.984353686 ], [ 131.588975729, 32.984361779 ], [ 131.58848891299999, 32.984480309 ], [ 131.588152135, 32.984548839 ], [ 131.587776058, 32.984575274 ], [ 131.587540550999989, 32.984575208 ], [ 131.587355054999989, 32.984551417 ], [ 131.587134582, 32.98450665 ], [ 131.586880315, 32.984409191 ], [ 131.586596928, 32.984311662 ], [ 131.58645185, 32.984298237 ], [ 131.58631248099999, 32.984302905 ], [ 131.586154517000011, 32.98431061 ], [ 131.585972155, 32.984338143 ], [ 131.585713972, 32.984414667 ], [ 131.585391127, 32.984483125 ], [ 131.58502386699999, 32.984578803 ], [ 131.58478035499999, 32.984624772 ], [ 131.584685216, 32.984634077 ], [ 131.584345520999989, 32.984709493 ], [ 131.583946687, 32.984756326 ], [ 131.583629575, 32.984775603 ], [ 131.58328293400001, 32.984746599 ], [ 131.58308237899999, 32.984661221 ], [ 131.58268310599999, 32.984419481 ], [ 131.58239541099999, 32.984245899 ], [ 131.582274439, 32.984188036 ], [ 131.582153494000011, 32.984168759 ], [ 131.58198185399999, 32.984166009 ], [ 131.58175302, 32.984190787 ], [ 131.581445715, 32.984223841 ], [ 131.581252825, 32.984248647 ], [ 131.581199507, 32.984259572 ], [ 131.58119696, 32.984280017 ], [ 131.58117357099999, 32.984667962 ], [ 131.581156598, 32.985125656 ], [ 131.581154098000013, 32.985192683 ], [ 131.581157765, 32.985290378 ], [ 131.58109241299999, 32.985686563 ], [ 131.58108070899999, 32.985757516 ], [ 131.581075233, 32.986002771 ], [ 131.58110714, 32.98629976 ], [ 131.580154631999989, 32.986625259 ], [ 131.58015676, 32.986711062 ], [ 131.580158624, 32.986786237 ], [ 131.580181517, 32.986842209 ], [ 131.58029090299999, 32.987109654 ], [ 131.58029090299999, 32.987165987 ], [ 131.580281335, 32.987191332 ], [ 131.58027995399999, 32.98719499 ], [ 131.580250208, 32.987273792 ], [ 131.580210743, 32.98731444 ], [ 131.580145541, 32.987381598 ], [ 131.58013621500001, 32.987399936 ], [ 131.580135477999988, 32.987401385 ], [ 131.58012509299999, 32.987421805 ], [ 131.580114943000012, 32.987441764 ], [ 131.58010920800001, 32.987453041 ], [ 131.580332872000014, 32.987341617 ], [ 131.58046507200001, 32.987312815 ], [ 131.580584335999987, 32.987313247 ], [ 131.580764757999987, 32.987323166 ], [ 131.580936237, 32.987334515 ], [ 131.581356738000011, 32.987364238 ], [ 131.582871434999987, 32.987471683 ], [ 131.582861657, 32.987536544 ], [ 131.582768351, 32.988156071 ], [ 131.58275849, 32.988242516 ], [ 131.582792379000011, 32.988254932 ], [ 131.58293002, 32.988282694 ], [ 131.583061213, 32.988309155 ], [ 131.58319207400001, 32.988339988 ], [ 131.583332936, 32.988373155 ], [ 131.583333333000013, 32.988373253 ], [ 131.583470836, 32.988407142 ], [ 131.583471099, 32.988407207 ], [ 131.583652797000013, 32.988451988 ], [ 131.583961326, 32.988528016 ], [ 131.58397413599999, 32.988531494 ], [ 131.58428422599999, 32.98861568 ], [ 131.584351048, 32.988633822 ], [ 131.58437747, 32.988640997 ], [ 131.584643492999987, 32.988713239 ], [ 131.584813771, 32.988426211 ], [ 131.58488766100001, 32.988315851 ], [ 131.58515496699999, 32.988110684 ], [ 131.585696745, 32.987702351 ], [ 131.585915328999988, 32.987539657 ], [ 131.586350691, 32.987215602 ], [ 131.586667608, 32.986987964 ], [ 131.586791229, 32.986899163 ], [ 131.58687099799999, 32.986986297 ], [ 131.587419915, 32.986829409 ], [ 131.587527332, 32.986780853 ], [ 131.587678054, 32.98676227 ], [ 131.587711471, 32.986760937 ], [ 131.587801359999986, 32.98677302 ], [ 131.588283888, 32.986917937 ], [ 131.588372333, 32.986957103 ], [ 131.58843902699999, 32.987001631 ], [ 131.588534638, 32.987136131 ], [ 131.588734249, 32.98746587 ], [ 131.58875113799999, 32.98749377 ], [ 131.588880611, 32.987701464 ], [ 131.589039944, 32.987951408 ], [ 131.589174194, 32.988125908 ], [ 131.589234944, 32.988181575 ], [ 131.589301971999987, 32.988221853 ], [ 131.589504666000011, 32.987959325 ], [ 131.589674722000012, 32.987751631 ], [ 131.589700389, 32.987716909 ], [ 131.589828028, 32.987488381 ], [ 131.58984019499999, 32.987439159 ], [ 131.58989430599999, 32.987287964 ], [ 131.589996361, 32.987041048 ], [ 131.590048862, 32.986930409 ], [ 131.59005841699999, 32.986894187 ], [ 131.59008108399999, 32.986809715 ], [ 131.59010077799999, 32.986760937 ], [ 131.590137778000013, 32.986685493 ], [ 131.590175972999987, 32.986611076 ], [ 131.590191218, 32.986602765 ], [ 131.590196251, 32.986600021 ], [ 131.59020458, 32.9866003 ], [ 131.59022608399999, 32.986601021 ] ] ] } },
{ "type": "Feature", "properties": { "A29_001": "44212", "A29_002": "大分県", "A29_003": "豊後大野市", "A29_004": 7, "A29_005": "準住居地域", "A29_006": 60, "A29_007": 200, "A29_008": null }, "geometry": { "type": "Polygon", "coordinates": [ [ [ 131.600165256, 32.984440302 ], [ 131.600091780000014, 32.984381692 ], [ 131.600051033999989, 32.984349191 ], [ 131.6, 32.984320517 ], [ 131.599999617, 32.984320302 ], [ 131.59986142299999, 32.98423558 ], [ 131.599730706, 32.984161737 ], [ 131.599718282999987, 32.984154719 ], [ 131.599613154999986, 32.984103429 ], [ 131.599602533, 32.984098247 ], [ 131.59949376, 32.984051339 ], [ 131.599440339000012, 32.984028302 ], [ 131.599331866999989, 32.983994413 ], [ 131.599178083999988, 32.983946368 ], [ 131.599128172, 32.983930774 ], [ 131.598987283000014, 32.983892913 ], [ 131.598851755, 32.983863386 ], [ 131.598838496000013, 32.983861884 ], [ 131.59881873, 32.983857184 ], [ 131.598752276999988, 32.983852118 ], [ 131.598698643, 32.983846042 ], [ 131.598670532999989, 32.983842858 ], [ 131.59837281099999, 32.983819108 ], [ 131.598268977, 32.983815274 ], [ 131.59784133799999, 32.983801135 ], [ 131.59749340799999, 32.983779051 ], [ 131.597551896, 32.983160133 ], [ 131.59753595, 32.983062388 ], [ 131.59748683399999, 32.982937634 ], [ 131.597426156000012, 32.98283903 ], [ 131.597370933, 32.98275971 ], [ 131.597393614999987, 32.982746969 ], [ 131.597456254, 32.982640164 ], [ 131.59754150399999, 32.982452192 ], [ 131.597194839999986, 32.981842837 ], [ 131.596833849, 32.981876056 ], [ 131.596606849000011, 32.981884996 ], [ 131.59565376899999, 32.981894243 ], [ 131.59501577099999, 32.981926646 ], [ 131.59473784799999, 32.981952575 ], [ 131.594538516, 32.981981511 ], [ 131.594307179, 32.98202985 ], [ 131.593792479, 32.982162663 ], [ 131.593272517, 32.982342477 ], [ 131.592981758, 32.982435482 ], [ 131.59279538199999, 32.982504364 ], [ 131.592623933999988, 32.982584967 ], [ 131.59213017799999, 32.982808286 ], [ 131.59141208, 32.983159328 ], [ 131.591204016, 32.983303597 ], [ 131.590906684, 32.983435369 ], [ 131.590608167999989, 32.983598856 ], [ 131.589781976000012, 32.984042008 ], [ 131.58962064799999, 32.984109751 ], [ 131.59021967699999, 32.984324305 ], [ 131.59077592599999, 32.984535903 ], [ 131.59095259899999, 32.984522845 ], [ 131.59135976499999, 32.984536372 ], [ 131.591707654, 32.984548801 ], [ 131.59199943199999, 32.984567214 ], [ 131.59216769599999, 32.984582939 ], [ 131.592371499, 32.984566624 ], [ 131.59278519099999, 32.984538822 ], [ 131.593112541000011, 32.984519651 ], [ 131.593527864, 32.984495051 ], [ 131.59389697099999, 32.984451403 ], [ 131.59430971, 32.984476357 ], [ 131.594545231000012, 32.984490596 ], [ 131.594678644999988, 32.984498662 ], [ 131.59501044000001, 32.98451872 ], [ 131.595025342000014, 32.984519621 ], [ 131.595520958, 32.984549585 ], [ 131.595934476, 32.984594079 ], [ 131.59654164299999, 32.984617134 ], [ 131.596855753999989, 32.984638023 ], [ 131.59703283799999, 32.984644107 ], [ 131.597407671000013, 32.98465719 ], [ 131.597800783, 32.984681051 ], [ 131.598072366, 32.98468569 ], [ 131.598420811000011, 32.984698274 ], [ 131.598571978, 32.984712052 ], [ 131.59871006099999, 32.984724607 ], [ 131.598863978, 32.984767218 ], [ 131.598969533, 32.984815413 ], [ 131.59913311299999, 32.98495202 ], [ 131.59925136699999, 32.985050774 ], [ 131.59941042299999, 32.985164258 ], [ 131.599555572000014, 32.98530556 ], [ 131.599676963, 32.985480713 ], [ 131.599811175000013, 32.985711985 ], [ 131.59994217, 32.985909623 ], [ 131.600127649, 32.986183221 ], [ 131.600230337, 32.986324837 ], [ 131.60047797199999, 32.986674808 ], [ 131.600580764, 32.986831691 ], [ 131.600774739, 32.987077393 ], [ 131.60088999199999, 32.987221301 ], [ 131.601104811, 32.987458677 ], [ 131.601264628, 32.987598842 ], [ 131.60152247900001, 32.987810176 ], [ 131.601761936, 32.987980493 ], [ 131.602012390999988, 32.988128441 ], [ 131.602208155999989, 32.988226151 ], [ 131.60244154599999, 32.98832368 ], [ 131.602732089, 32.988423281 ], [ 131.603134267, 32.988544656 ], [ 131.603543405000011, 32.988664823 ], [ 131.604114484, 32.988826485 ], [ 131.60453668400001, 32.988948586 ], [ 131.60454701, 32.988904466 ], [ 131.604859842, 32.987946036 ], [ 131.60449495200001, 32.987854585 ], [ 131.603988464, 32.987710753 ], [ 131.603627698, 32.987613722 ], [ 131.603199184, 32.987482677 ], [ 131.60296753899999, 32.987388771 ], [ 131.60274107, 32.987284163 ], [ 131.602461312, 32.987130485 ], [ 131.60224553, 32.986957707 ], [ 131.602035226999988, 32.986770808 ], [ 131.601903217, 32.986621115 ], [ 131.60157409199999, 32.986174059 ], [ 131.601337817, 32.985855745 ], [ 131.60101741, 32.985460322 ], [ 131.60094481499999, 32.985371365 ], [ 131.60074459, 32.985096468 ], [ 131.600420589, 32.984660996 ], [ 131.600291645, 32.984541691 ], [ 131.600165256, 32.984440302 ] ] ] } },
{ "type": "Feature", "properties": { "A29_001": "44212", "A29_002": "大分県", "A29_003": "豊後大野市", "A29_004": 10, "A29_005": "準工業地域", "A29_006": 60, "A29_007": 200, "A29_008": null }, "geometry": { "type": "Polygon", "coordinates": [ [ [ 131.590069991, 32.990062484 ], [ 131.58995456400001, 32.990712626 ], [ 131.589954553000013, 32.990712689 ], [ 131.589987028, 32.990705962 ], [ 131.59063622299999, 32.990570101 ], [ 131.59153755599999, 32.990383796 ], [ 131.591666279, 32.990354435 ], [ 131.591824946, 32.990322241 ], [ 131.591863139999987, 32.990308824 ], [ 131.59191216799999, 32.990280185 ], [ 131.59195064, 32.990251185 ], [ 131.59198430699999, 32.990215824 ], [ 131.592033390000012, 32.990158657 ], [ 131.592187696, 32.989963519 ], [ 131.591666667, 32.989907671 ], [ 131.591666279, 32.98990763 ], [ 131.591401001, 32.989877269 ], [ 131.59134481699999, 32.989869238 ], [ 131.590982000999986, 32.98981738 ], [ 131.590872166999986, 32.989799046 ], [ 131.59049402799999, 32.989735907 ], [ 131.59013851200001, 32.989676536 ], [ 131.590069991, 32.990062484 ] ] ] } },
{ "type": "Feature", "properties": { "A29_001": "44212", "A29_002": "大分県", "A29_003": "豊後大野市", "A29_004": 6, "A29_005": "第二種住居地域", "A29_006": 60, "A29_007": 200, "A29_008": null }, "geometry": { "type": "Polygon", "coordinates": [ [ [ 131.600845647, 32.989627243 ], [ 131.60088745199999, 32.989366854 ], [ 131.601351201999989, 32.989438104 ], [ 131.60141745199999, 32.989463132 ], [ 131.601464591, 32.989482466 ], [ 131.60173500799999, 32.989547827 ], [ 131.602151953, 32.989641216 ], [ 131.60220228599999, 32.989658549 ], [ 131.602763814000014, 32.989797521 ], [ 131.60285214699999, 32.989815466 ], [ 131.60316203, 32.9898358 ], [ 131.60347403599999, 32.989857494 ], [ 131.60359089799999, 32.989865383 ], [ 131.603805924999989, 32.98987991 ], [ 131.604148648, 32.989906883 ], [ 131.60433598099999, 32.989935771 ], [ 131.604516453, 32.989964632 ], [ 131.604482647, 32.989854827 ], [ 131.604409952999987, 32.989613133 ], [ 131.604403953, 32.989542411 ], [ 131.604397675, 32.989410133 ], [ 131.604407148, 32.989277688 ], [ 131.604417925, 32.989239188 ], [ 131.604431925, 32.989189105 ], [ 131.60452889699999, 32.988981855 ], [ 131.60453668400001, 32.988948586 ], [ 131.604114484, 32.988826485 ], [ 131.603543405000011, 32.988664823 ], [ 131.603134267, 32.988544656 ], [ 131.602732089, 32.988423281 ], [ 131.60244154599999, 32.98832368 ], [ 131.602208155999989, 32.988226151 ], [ 131.602012390999988, 32.988128441 ], [ 131.601761936, 32.987980493 ], [ 131.60152247900001, 32.987810176 ], [ 131.601264628, 32.987598842 ], [ 131.601104811, 32.987458677 ], [ 131.60088999199999, 32.987221301 ], [ 131.600774739, 32.987077393 ], [ 131.600580764, 32.986831691 ], [ 131.60047797199999, 32.986674808 ], [ 131.600230337, 32.986324837 ], [ 131.600127649, 32.986183221 ], [ 131.59994217, 32.985909623 ], [ 131.599811175000013, 32.985711985 ], [ 131.599676963, 32.985480713 ], [ 131.599555572000014, 32.98530556 ], [ 131.59941042299999, 32.985164258 ], [ 131.59925136699999, 32.985050774 ], [ 131.59913311299999, 32.98495202 ], [ 131.598969533, 32.984815413 ], [ 131.598863978, 32.984767218 ], [ 131.59871006099999, 32.984724607 ], [ 131.598571978, 32.984712052 ], [ 131.598420811000011, 32.984698274 ], [ 131.598072366, 32.98468569 ], [ 131.597800783, 32.984681051 ], [ 131.597407671000013, 32.98465719 ], [ 131.59703283799999, 32.984644107 ], [ 131.596855753999989, 32.984638023 ], [ 131.59654164299999, 32.984617134 ], [ 131.595934476, 32.984594079 ], [ 131.595520958, 32.984549585 ], [ 131.595025342000014, 32.984519621 ], [ 131.59501044000001, 32.98451872 ], [ 131.594678644999988, 32.984498662 ], [ 131.594545231000012, 32.984490596 ], [ 131.59430971, 32.984476357 ], [ 131.59389697099999, 32.984451403 ], [ 131.593527864, 32.984495051 ], [ 131.593112541000011, 32.984519651 ], [ 131.59278519099999, 32.984538822 ], [ 131.592371499, 32.984566624 ], [ 131.59216769599999, 32.984582939 ], [ 131.59199943199999, 32.984567214 ], [ 131.591707654, 32.984548801 ], [ 131.59135976499999, 32.984536372 ], [ 131.59095259899999, 32.984522845 ], [ 131.59077592599999, 32.984535903 ], [ 131.59021967699999, 32.984324305 ], [ 131.58962064799999, 32.984109751 ], [ 131.589355342, 32.984219016 ], [ 131.588997248, 32.984353686 ], [ 131.589011750999987, 32.98436304 ], [ 131.58924379699999, 32.984452562 ], [ 131.589799719000013, 32.984667029 ], [ 131.590134920999986, 32.984780542 ], [ 131.59076360099999, 32.985019507 ], [ 131.591403337, 32.985244323 ], [ 131.592149422, 32.985534401 ], [ 131.59276959499999, 32.985749907 ], [ 131.593174667999989, 32.985891267 ], [ 131.593957042, 32.986188209 ], [ 131.59455785599999, 32.986424938 ], [ 131.59551335099999, 32.986768024 ], [ 131.596139224000012, 32.986999929 ], [ 131.596829409, 32.987262058 ], [ 131.597519549, 32.987517138 ], [ 131.597888565, 32.987682144 ], [ 131.598134918999989, 32.987843039 ], [ 131.598359025, 32.988011087 ], [ 131.598567683, 32.988232389 ], [ 131.598725653, 32.988234825 ], [ 131.59896743499999, 32.988543721 ], [ 131.59932851799999, 32.988358773 ], [ 131.59964935799999, 32.988817619 ], [ 131.599842918, 32.989259165 ], [ 131.59998793299999, 32.989743085 ], [ 131.60010373599999, 32.990177013 ], [ 131.600265251, 32.990791468 ], [ 131.600339045, 32.991145503 ], [ 131.600345882, 32.991222921 ], [ 131.600586286, 32.991256686 ], [ 131.600745036, 32.990253715 ], [ 131.600845647, 32.989627243 ] ] ] } },
{ "type": "Feature", "properties": { "A29_001": "44212", "A29_002": "大分県", "A29_003": "豊後大野市", "A29_004": 1, "A29_005": "第一種低層住居専用地域", "A29_006": 50, "A29_007": 100, "A29_008": null }, "geometry": { "type": "Polygon", "coordinates": [ [ [ 131.586824111, 32.989762332 ], [ 131.586230449, 32.98949357 ], [ 131.586221169999988, 32.989649097 ], [ 131.586193086, 32.990119826 ], [ 131.586181161000013, 32.990319695 ], [ 131.58598315399999, 32.990329388 ], [ 131.585994828999986, 32.990374989 ], [ 131.586015346000011, 32.990462659 ], [ 131.586057294999989, 32.990641908 ], [ 131.586107547000012, 32.99085665 ], [ 131.586154451999988, 32.991057063 ], [ 131.586196238000014, 32.99123559 ], [ 131.58619741199999, 32.991240655 ], [ 131.586460218000013, 32.991383711 ], [ 131.586540885, 32.991400683 ], [ 131.586818302000012, 32.991346322 ], [ 131.58688991299999, 32.991332294 ], [ 131.586985886, 32.991313461 ], [ 131.587256164, 32.991260517 ], [ 131.58753866399999, 32.991205128 ], [ 131.58759300299999, 32.991194489 ], [ 131.587668192, 32.991179767 ], [ 131.587889571, 32.991137959 ], [ 131.58793338699999, 32.991129684 ], [ 131.588237658999986, 32.9910676 ], [ 131.58830572, 32.991053712 ], [ 131.588915638, 32.990925879 ], [ 131.589339367, 32.990838904 ], [ 131.589352197000011, 32.990836271 ], [ 131.589353902999989, 32.990810061 ], [ 131.58945341099999, 32.990022529 ], [ 131.588203292, 32.989900798 ], [ 131.587774814999989, 32.989857781 ], [ 131.587488016, 32.989828988 ], [ 131.587042386, 32.989784247 ], [ 131.586835664, 32.989763492 ], [ 131.586824111, 32.989762332 ] ] ] } },
{ "type": "Feature", "properties": { "A29_001": "44212", "A29_002": "大分県", "A29_003": "豊後大野市", "A29_004": 7, "A29_005": "準住居地域", "A29_006": 60, "A29_007": 200, "A29_008": null }, "geometry": { "type": "Polygon", "coordinates": [ [ [ 131.586015346000011, 32.990462659 ], [ 131.585994828999986, 32.990374989 ], [ 131.58598315399999, 32.990329388 ], [ 131.586181161000013, 32.990319695 ], [ 131.586193086, 32.990119826 ], [ 131.586221169999988, 32.989649097 ], [ 131.586230449, 32.98949357 ], [ 131.586824111, 32.989762332 ], [ 131.586835664, 32.989763492 ], [ 131.587042386, 32.989784247 ], [ 131.587488016, 32.989828988 ], [ 131.587774814999989, 32.989857781 ], [ 131.588203292, 32.989900798 ], [ 131.58945341099999, 32.990022529 ], [ 131.589353902999989, 32.990810061 ], [ 131.589352197000011, 32.990836271 ], [ 131.589954553000013, 32.990712689 ], [ 131.58995456400001, 32.990712626 ], [ 131.590069991, 32.990062484 ], [ 131.59013851200001, 32.989676537 ], [ 131.589875552, 32.989632622 ], [ 131.589841666000012, 32.989626963 ], [ 131.58957602699999, 32.989591379 ], [ 131.58898007799999, 32.989511546 ], [ 131.58899279900001, 32.9894449 ], [ 131.589104248000012, 32.988804258 ], [ 131.58916688799999, 32.988440218 ], [ 131.589205375, 32.988352713 ], [ 131.589301971999987, 32.988221853 ], [ 131.589234944, 32.988181576 ], [ 131.589174194, 32.988125908 ], [ 131.589039944, 32.987951408 ], [ 131.588880611, 32.987701464 ], [ 131.58875113799999, 32.987493771 ], [ 131.588734248, 32.98746587 ], [ 131.588534638, 32.987136131 ], [ 131.588439026, 32.98700163 ], [ 131.588372333, 32.986957103 ], [ 131.588283888, 32.986917937 ], [ 131.587801359999986, 32.98677302 ], [ 131.587711471, 32.986760937 ], [ 131.58767805299999, 32.986762269 ], [ 131.587527332, 32.986780853 ], [ 131.587419915, 32.986829408 ], [ 131.58687099799999, 32.986986297 ], [ 131.586791229, 32.986899163 ], [ 131.586667608, 32.986987963 ], [ 131.586350692, 32.987215602 ], [ 131.585915328999988, 32.987539657 ], [ 131.585696745, 32.987702351 ], [ 131.58515496699999, 32.988110683 ], [ 131.58488766100001, 32.988315851 ], [ 131.584813771, 32.988426211 ], [ 131.584643492999987, 32.988713239 ], [ 131.58437747, 32.988640998 ], [ 131.584351048, 32.988633822 ], [ 131.584284225, 32.98861568 ], [ 131.58397413599999, 32.988531493 ], [ 131.583961326, 32.988528016 ], [ 131.583652797000013, 32.988451988 ], [ 131.58347109799999, 32.988407207 ], [ 131.583470836, 32.988407142 ], [ 131.583333333000013, 32.988373253 ], [ 131.58333293699999, 32.988373155 ], [ 131.58319207400001, 32.988339988 ], [ 131.583061214, 32.988309155 ], [ 131.58293002100001, 32.988282694 ], [ 131.582792379000011, 32.988254932 ], [ 131.58275849, 32.988242516 ], [ 131.58264824, 32.988574404 ], [ 131.582605077000011, 32.988733734 ], [ 131.58260296200001, 32.988741543 ], [ 131.582529712, 32.989040987 ], [ 131.582486323000012, 32.989168987 ], [ 131.582461419, 32.989221803 ], [ 131.582446989, 32.989252404 ], [ 131.58235207300001, 32.98940782 ], [ 131.582224599999989, 32.98958382 ], [ 131.582143239, 32.989700403 ], [ 131.5821066, 32.989776987 ], [ 131.582043766999988, 32.989958486 ], [ 131.581898461, 32.990435764 ], [ 131.582097548, 32.990430701 ], [ 131.582101736999988, 32.990431541 ], [ 131.5821751, 32.990440319 ], [ 131.582267323, 32.990464708 ], [ 131.582277565999988, 32.990469089 ], [ 131.58238846099999, 32.990516514 ], [ 131.58274261, 32.990691329 ], [ 131.583354213, 32.990931876 ], [ 131.583525038, 32.991088773 ], [ 131.58381071299999, 32.991353598 ], [ 131.583934241, 32.991434542 ], [ 131.584025020000013, 32.991451126 ], [ 131.58427738, 32.991532848 ], [ 131.584422576, 32.991573043 ], [ 131.584642271, 32.991623626 ], [ 131.584810438, 32.991654654 ], [ 131.584974382000013, 32.991673598 ], [ 131.585094521, 32.991666959 ], [ 131.58525888299999, 32.991649237 ], [ 131.585851967, 32.991548821 ], [ 131.58608599499999, 32.991496849 ], [ 131.586540885, 32.991400683 ], [ 131.586460218000013, 32.991383711 ], [ 131.58619741199999, 32.991240655 ], [ 131.586196238000014, 32.99123559 ], [ 131.586154451999988, 32.991057063 ], [ 131.586107547000012, 32.99085665 ], [ 131.586057294999989, 32.990641908 ], [ 131.586015346000011, 32.990462659 ] ] ] } },
{ "type": "Feature", "properties": { "A29_001": "44212", "A29_002": "大分県", "A29_003": "豊後大野市", "A29_004": 8, "A29_005": "近隣商業地域", "A29_006": 80, "A29_007": 200, "A29_008": null }, "geometry": { "type": "Polygon", "coordinates": [ [ [ 131.60510996, 32.988021343 ], [ 131.604859842, 32.987946036 ], [ 131.60454701, 32.988904466 ], [ 131.60453668400001, 32.988948586 ], [ 131.60488690299999, 32.989033853 ], [ 131.60512146799999, 32.989098486 ], [ 131.605329508000011, 32.9891562 ], [ 131.605634095, 32.989270994 ], [ 131.605938603999988, 32.989374043 ], [ 131.60623339, 32.989481836 ], [ 131.60651284799999, 32.989589704 ], [ 131.606884579, 32.989740576 ], [ 131.607217211, 32.989879893 ], [ 131.607551261999987, 32.990022726 ], [ 131.607818009, 32.990144994 ], [ 131.60786187799999, 32.990164843 ], [ 131.608107655999987, 32.990276049 ], [ 131.60838730399999, 32.990410923 ], [ 131.608667000999986, 32.990552843 ], [ 131.60897895299999, 32.990723967 ], [ 131.609331497, 32.990920729 ], [ 131.609595925, 32.991070943 ], [ 131.60990095299999, 32.99124797 ], [ 131.610471878999988, 32.991585771 ], [ 131.610476928999987, 32.99158876 ], [ 131.61048527, 32.991530351 ], [ 131.610486355, 32.991522752 ], [ 131.610500594, 32.99142305 ], [ 131.61050506699999, 32.99136207 ], [ 131.61051253799999, 32.991260216 ], [ 131.61051953899999, 32.991130424 ], [ 131.61052826, 32.991062098 ], [ 131.61080739799999, 32.990745167 ], [ 131.610239428999989, 32.990412455 ], [ 131.60999878199999, 32.990275045 ], [ 131.609700814, 32.990110902 ], [ 131.609390208, 32.989932727 ], [ 131.609128586999987, 32.989784848 ], [ 131.608859951999989, 32.989629956 ], [ 131.608630441, 32.989490141 ], [ 131.608401012, 32.989362069 ], [ 131.608171591, 32.989235171 ], [ 131.607932368, 32.989101274 ], [ 131.60773236599999, 32.988996547 ], [ 131.60759671, 32.98892674 ], [ 131.607397901000013, 32.988833199 ], [ 131.607245185000011, 32.988762671 ], [ 131.606918087, 32.988633787 ], [ 131.606618211000011, 32.988527884 ], [ 131.60635156399999, 32.988418158 ], [ 131.60611406000001, 32.988331227 ], [ 131.605780251, 32.988222448 ], [ 131.60548142499999, 32.988134639 ], [ 131.60510996, 32.988021343 ] ] ] } },
{ "type": "Feature", "properties": { "A29_001": "44212", "A29_002": "大分県", "A29_003": "豊後大野市", "A29_004": 4, "A29_005": "第二種中高層住居専用地域", "A29_006": 60, "A29_007": 200, "A29_008": null }, "geometry": { "type": "Polygon", "coordinates": [ [ [ 131.612733760999987, 32.99127655 ], [ 131.61269437199999, 32.990524578 ], [ 131.612390844, 32.990512884 ], [ 131.612120177, 32.990499828 ], [ 131.61184567699999, 32.990509606 ], [ 131.611410677, 32.990543828 ], [ 131.611362426999989, 32.990546606 ], [ 131.611128455, 32.990560106 ], [ 131.610935121000011, 32.990556856 ], [ 131.610830733, 32.990543828 ], [ 131.61069501099999, 32.990513762 ], [ 131.61082153699999, 32.990268857 ], [ 131.610307323, 32.99007054 ], [ 131.610779775, 32.989232473 ], [ 131.61041198, 32.98907855 ], [ 131.6101706, 32.98898651 ], [ 131.60961629900001, 32.988802909 ], [ 131.609602599, 32.988639911 ], [ 131.60957775599999, 32.988514925 ], [ 131.60957027, 32.988480223 ], [ 131.609560277000014, 32.988463857 ], [ 131.609545588, 32.988462882 ], [ 131.609535888000011, 32.988481786 ], [ 131.609526370999987, 32.988512217 ], [ 131.60947964799999, 32.988643995 ], [ 131.60941973199999, 32.988745828 ], [ 131.60936795399999, 32.988794606 ], [ 131.609301953999989, 32.988836551 ], [ 131.60919837099999, 32.988862217 ], [ 131.608919593, 32.988876634 ], [ 131.608663057, 32.988843129 ], [ 131.608573342, 32.988831411 ], [ 131.60833333299999, 32.988805785 ], [ 131.60833295399999, 32.988805745 ], [ 131.60808237, 32.988780078 ], [ 131.608010339, 32.98877431 ], [ 131.60790059199999, 32.988765523 ], [ 131.607878199, 32.988764456 ], [ 131.607876524, 32.988764377 ], [ 131.607658593, 32.988753995 ], [ 131.607662119999986, 32.988395995 ], [ 131.607653314, 32.988361412 ], [ 131.607571231, 32.988267523 ], [ 131.607363064, 32.988069856 ], [ 131.607310313999989, 32.987988328 ], [ 131.60727512, 32.987874662 ], [ 131.60713586899999, 32.987184079 ], [ 131.607112397, 32.987139606 ], [ 131.607074286, 32.987107496 ], [ 131.607009814, 32.987087718 ], [ 131.606915980999986, 32.987080329 ], [ 131.606637481, 32.987072912 ], [ 131.606539258, 32.98704944 ], [ 131.60647475799999, 32.987004967 ], [ 131.606463036, 32.986945662 ], [ 131.606468897000013, 32.986888829 ], [ 131.606509953, 32.986834468 ], [ 131.606872841000012, 32.986666412 ], [ 131.606962842, 32.986634273 ], [ 131.60707656400001, 32.986585357 ], [ 131.607264092, 32.986493024 ], [ 131.607304008, 32.986470246 ], [ 131.607332230999987, 32.986450079 ], [ 131.607354342, 32.986429913 ], [ 131.607372758, 32.986410246 ], [ 131.60738806399999, 32.986382301 ], [ 131.60739773099999, 32.986353857 ], [ 131.60740484199999, 32.986325051 ], [ 131.60740320299999, 32.98628194 ], [ 131.60739992500001, 32.986260218 ], [ 131.607391146999987, 32.98623694 ], [ 131.60738336899999, 32.98621969 ], [ 131.60721648, 32.985984551 ], [ 131.60708473, 32.985754968 ], [ 131.607077369, 32.985741496 ], [ 131.607071647, 32.985722191 ], [ 131.60706795199999, 32.985704607 ], [ 131.607064258, 32.985683552 ], [ 131.607061007999988, 32.985639079 ], [ 131.60706036900001, 32.985582441 ], [ 131.60688350800001, 32.985239524 ], [ 131.606769840999988, 32.985036913 ], [ 131.606698951999988, 32.984975774 ], [ 131.606646063, 32.984943524 ], [ 131.60660153500001, 32.984928941 ], [ 131.606356674000011, 32.984864302 ], [ 131.60592964599999, 32.984747107 ], [ 131.605725591, 32.984698135 ], [ 131.605437924, 32.984641997 ], [ 131.60519134099999, 32.984593886 ], [ 131.60496006299999, 32.984546997 ], [ 131.604566785, 32.984476108 ], [ 131.604326867999987, 32.984461524 ], [ 131.604314007, 32.984389608 ], [ 131.604161757000014, 32.984341913 ], [ 131.603837090000013, 32.984251136 ], [ 131.603768522, 32.984228065 ], [ 131.60357074, 32.984161519 ], [ 131.603316562, 32.984075997 ], [ 131.60326703699999, 32.984062617 ], [ 131.603087894999987, 32.984014219 ], [ 131.602938034, 32.983995552 ], [ 131.602848145, 32.983975802 ], [ 131.60269642099999, 32.983922077 ], [ 131.602631256, 32.983915219 ], [ 131.602624787, 32.983910411 ], [ 131.60251609, 32.983829608 ], [ 131.602377561999987, 32.983766608 ], [ 131.602201645, 32.983722136 ], [ 131.602016951, 32.983705441 ], [ 131.601924617, 32.98369433 ], [ 131.601795978000013, 32.983734164 ], [ 131.601549728, 32.983834247 ], [ 131.601507422999987, 32.98385758 ], [ 131.60146175599999, 32.983888386 ], [ 131.601175950999988, 32.984091608 ], [ 131.601134839, 32.984117691 ], [ 131.601073923, 32.98414508 ], [ 131.60093751299999, 32.984193105 ], [ 131.600925673, 32.984197274 ], [ 131.600919336, 32.984189702 ], [ 131.59993197099999, 32.98400485 ], [ 131.59988562800001, 32.983932807 ], [ 131.59983090899999, 32.98387787 ], [ 131.599748234, 32.983810149 ], [ 131.599604262000014, 32.983745071 ], [ 131.59948100599999, 32.983703469 ], [ 131.59941360799999, 32.983576864 ], [ 131.59934604, 32.983478957 ], [ 131.599265397000011, 32.983377622 ], [ 131.599185905000013, 32.983302132 ], [ 131.599085214000013, 32.983234325 ], [ 131.599021402, 32.983195068 ], [ 131.59896148499999, 32.983175982 ], [ 131.59889916899999, 32.983170614 ], [ 131.598839062, 32.98317367 ], [ 131.598712928, 32.983185976 ], [ 131.598670625000011, 32.983186228 ], [ 131.59863381, 32.983175763 ], [ 131.598595483, 32.983143891 ], [ 131.59831897699999, 32.982911969 ], [ 131.598054977, 32.982762414 ], [ 131.597901587, 32.982750525 ], [ 131.59787636499999, 32.982648581 ], [ 131.597833726, 32.982568997 ], [ 131.59777745, 32.982409886 ], [ 131.59777355899999, 32.982398886 ], [ 131.597749865, 32.982358692 ], [ 131.597606809000013, 32.982409358 ], [ 131.59754150399999, 32.982452192 ], [ 131.597456254, 32.982640164 ], [ 131.597393614999987, 32.982746969 ], [ 131.597370933, 32.98275971 ], [ 131.597426156000012, 32.98283903 ], [ 131.59748683399999, 32.982937634 ], [ 131.59753595, 32.983062388 ], [ 131.597551896, 32.983160133 ], [ 131.59749340799999, 32.983779051 ], [ 131.59784133799999, 32.983801135 ], [ 131.598268977, 32.983815274 ], [ 131.59837281099999, 32.983819108 ], [ 131.598670532999989, 32.983842858 ], [ 131.598698643, 32.983846042 ], [ 131.598752276999988, 32.983852118 ], [ 131.59881873, 32.983857184 ], [ 131.598838496000013, 32.983861884 ], [ 131.598851755, 32.983863386 ], [ 131.598987283000014, 32.983892913 ], [ 131.599128172, 32.983930774 ], [ 131.599178083999988, 32.983946368 ], [ 131.599331866999989, 32.983994413 ], [ 131.599440339000012, 32.984028302 ], [ 131.59949376, 32.984051339 ], [ 131.599602533, 32.984098247 ], [ 131.599613154999986, 32.984103429 ], [ 131.599718282999987, 32.984154719 ], [ 131.599730706, 32.984161737 ], [ 131.59986142299999, 32.98423558 ], [ 131.599999617, 32.984320302 ], [ 131.6, 32.984320517 ], [ 131.600051033999989, 32.984349191 ], [ 131.600091780000014, 32.984381692 ], [ 131.600165256, 32.984440302 ], [ 131.600291645, 32.984541691 ], [ 131.600420589, 32.984660996 ], [ 131.60074459, 32.985096468 ], [ 131.60094481499999, 32.985371365 ], [ 131.60101741, 32.985460322 ], [ 131.601337817, 32.985855745 ], [ 131.60157409199999, 32.986174059 ], [ 131.601903217, 32.986621115 ], [ 131.602035226999988, 32.986770808 ], [ 131.60224553, 32.986957707 ], [ 131.602461312, 32.987130485 ], [ 131.60274107, 32.987284163 ], [ 131.60296753899999, 32.987388771 ], [ 131.603199184, 32.987482677 ], [ 131.603627698, 32.987613722 ], [ 131.603988464, 32.987710753 ], [ 131.60449495200001, 32.987854585 ], [ 131.604859842, 32.987946036 ], [ 131.60510996, 32.988021343 ], [ 131.60548142499999, 32.988134639 ], [ 131.605780251, 32.988222448 ], [ 131.60611406000001, 32.988331227 ], [ 131.60635156399999, 32.988418158 ], [ 131.606618211000011, 32.988527884 ], [ 131.606918087, 32.988633787 ], [ 131.607245185000011, 32.988762671 ], [ 131.607397901000013, 32.988833199 ], [ 131.60759671, 32.98892674 ], [ 131.60773236599999, 32.988996547 ], [ 131.607932368, 32.989101274 ], [ 131.608171591, 32.989235171 ], [ 131.608401012, 32.989362069 ], [ 131.608630441, 32.989490141 ], [ 131.608859951999989, 32.989629956 ], [ 131.609128586999987, 32.989784848 ], [ 131.609390208, 32.989932727 ], [ 131.609700814, 32.990110902 ], [ 131.60999878199999, 32.990275045 ], [ 131.610239428999989, 32.990412455 ], [ 131.61080739799999, 32.990745167 ], [ 131.61170992699999, 32.991254388 ], [ 131.612800983999989, 32.991889689 ], [ 131.61277371599999, 32.991666667 ], [ 131.61275656699999, 32.99159205 ], [ 131.61274556699999, 32.9914923 ], [ 131.612733760999987, 32.99127655 ] ] ] } },
{ "type": "Feature", "properties": { "A29_001": "44212", "A29_002": "大分県", "A29_003": "豊後大野市", "A29_004": 5, "A29_005": "第一種住居地域", "A29_006": 60, "A29_007": 200, "A29_008": null }, "geometry": { "type": "Polygon", "coordinates": [ [ [ 131.608212177000013, 32.99328602 ], [ 131.60745147599999, 32.99195361 ], [ 131.610407607000013, 32.992303527 ], [ 131.611976465, 32.99269881 ], [ 131.611590304, 32.992398892 ], [ 131.61130868399999, 32.992181823 ], [ 131.611073411, 32.992016202 ], [ 131.61084090899999, 32.991848219 ], [ 131.61059024299999, 32.991673277 ], [ 131.610476833, 32.991589434 ], [ 131.610476928999987, 32.99158876 ], [ 131.610471878999988, 32.991585771 ], [ 131.60990095299999, 32.99124797 ], [ 131.609595925, 32.991070943 ], [ 131.609331497, 32.990920729 ], [ 131.60897895299999, 32.990723967 ], [ 131.608667000999986, 32.990552843 ], [ 131.60838730399999, 32.990410923 ], [ 131.608107655999987, 32.990276049 ], [ 131.60786187799999, 32.990164843 ], [ 131.607818009, 32.990144994 ], [ 131.607551261999987, 32.990022726 ], [ 131.607217211, 32.989879893 ], [ 131.606884579, 32.989740576 ], [ 131.60651284799999, 32.989589704 ], [ 131.60623339, 32.989481836 ], [ 131.605938603999988, 32.989374043 ], [ 131.605634095, 32.989270994 ], [ 131.605329508000011, 32.9891562 ], [ 131.60512146799999, 32.989098486 ], [ 131.60488690299999, 32.989033853 ], [ 131.60453668400001, 32.988948586 ], [ 131.60452889699999, 32.988981855 ], [ 131.604431925, 32.989189105 ], [ 131.604417925, 32.989239188 ], [ 131.604407148, 32.989277688 ], [ 131.604397675, 32.989410133 ], [ 131.604403953, 32.989542411 ], [ 131.604409952999987, 32.989613133 ], [ 131.604482647, 32.989854827 ], [ 131.604516453, 32.989964632 ], [ 131.60458745299999, 32.990102605 ], [ 131.60487312, 32.990597493 ], [ 131.605186315, 32.991184049 ], [ 131.605226926, 32.991279354 ], [ 131.605770842999988, 32.991275882 ], [ 131.605969759, 32.991282187 ], [ 131.60602437099999, 32.991285854 ], [ 131.606221788, 32.991299104 ], [ 131.60666403799999, 32.991344327 ], [ 131.60678951, 32.991358799 ], [ 131.606745598, 32.99174269 ], [ 131.60766569899999, 32.993385803 ], [ 131.608212177000013, 32.99328602 ] ] ] } },
{ "type": "Feature", "properties": { "A29_001": "44212", "A29_002": "大分県", "A29_003": "豊後大野市", "A29_004": 10, "A29_005": "準工業地域", "A29_006": 60, "A29_007": 200, "A29_008": null }, "geometry": { "type": "Polygon", "coordinates": [ [ [ 131.605969759, 32.991282187 ], [ 131.605770842999988, 32.991275882 ], [ 131.605226926, 32.991279354 ], [ 131.605186315, 32.991184049 ], [ 131.60487312, 32.990597493 ], [ 131.60458745299999, 32.990102605 ], [ 131.604516453, 32.989964632 ], [ 131.60433598099999, 32.989935771 ], [ 131.604148648, 32.989906883 ], [ 131.603805924999989, 32.98987991 ], [ 131.60359089799999, 32.989865383 ], [ 131.60347403599999, 32.989857494 ], [ 131.60316203, 32.9898358 ], [ 131.60285214699999, 32.989815466 ], [ 131.602763814000014, 32.989797521 ], [ 131.60220228599999, 32.989658549 ], [ 131.602151953, 32.989641216 ], [ 131.60173500799999, 32.989547827 ], [ 131.601464591, 32.989482466 ], [ 131.60141745199999, 32.989463132 ], [ 131.601351201999989, 32.989438104 ], [ 131.60088745199999, 32.989366854 ], [ 131.600845647, 32.989627243 ], [ 131.600745036, 32.990253715 ], [ 131.600586286, 32.991256686 ], [ 131.600345882, 32.991222921 ], [ 131.600438884999988, 32.991540073 ], [ 131.600601966, 32.992126394 ], [ 131.60074780799999, 32.992602034 ], [ 131.600897366, 32.992863283 ], [ 131.601034782, 32.993087372 ], [ 131.60117782399999, 32.993253874 ], [ 131.601361781, 32.993452209 ], [ 131.601502734, 32.99357142 ], [ 131.60163365, 32.993671593 ], [ 131.601765234999988, 32.993754534 ], [ 131.601914838999988, 32.993850005 ], [ 131.60206468199999, 32.993931607 ], [ 131.60226322299999, 32.99402578 ], [ 131.602527329, 32.994129032 ], [ 131.602735443, 32.994196146 ], [ 131.60310962299999, 32.994295342 ], [ 131.603417911, 32.994337307 ], [ 131.603716284, 32.99435583 ], [ 131.604109200000011, 32.994341011 ], [ 131.604379176, 32.994318724 ], [ 131.604728658, 32.994270054 ], [ 131.605142148999988, 32.994206979 ], [ 131.605909606000012, 32.994091746 ], [ 131.605880788, 32.994011964 ], [ 131.606196735999987, 32.993961204 ], [ 131.606587881, 32.993898363 ], [ 131.60671586699999, 32.993846006 ], [ 131.606838649999986, 32.99379125 ], [ 131.606947271, 32.993735727 ], [ 131.607046402, 32.993683464 ], [ 131.607334151, 32.993524388 ], [ 131.60766569899999, 32.993385803 ], [ 131.606745598, 32.99174269 ], [ 131.60678951, 32.991358799 ], [ 131.60666403799999, 32.991344327 ], [ 131.606221788, 32.991299104 ], [ 131.60602437099999, 32.991285854 ], [ 131.605969759, 32.991282187 ] ] ] } },
{ "type": "Feature", "properties": { "A29_001": "44212", "A29_002": "大分県", "A29_003": "豊後大野市", "A29_004": 3, "A29_005": "第一種中高層住居専用地域", "A29_006": 60, "A29_007": 200, "A29_008": null }, "geometry": { "type": "Polygon", "coordinates": [ [ [ 131.615458641, 32.996122435 ], [ 131.615329921000011, 32.995770754 ], [ 131.615276779, 32.995664782 ], [ 131.615219131, 32.995579684 ], [ 131.614993840000011, 32.99533025 ], [ 131.61483651, 32.99516469 ], [ 131.61422718599999, 32.994626803 ], [ 131.614085401000011, 32.994499826 ], [ 131.613842964000014, 32.994286927 ], [ 131.61352897099999, 32.994025393 ], [ 131.613226161, 32.993768501 ], [ 131.612928919000012, 32.993510406 ], [ 131.612548944999986, 32.993178727 ], [ 131.61230837299999, 32.992984966 ], [ 131.611976465, 32.99269881 ], [ 131.610407607000013, 32.992303527 ], [ 131.60745147599999, 32.99195361 ], [ 131.608212177000013, 32.99328602 ], [ 131.609128500999986, 32.993138684 ], [ 131.60917634399999, 32.993137687 ], [ 131.609266816, 32.993222548 ], [ 131.6093904, 32.993283993 ], [ 131.609523122000013, 32.993339993 ], [ 131.609703427, 32.993413076 ], [ 131.609778096000014, 32.993445532 ], [ 131.609897928, 32.993494437 ], [ 131.609993366999987, 32.993539611 ], [ 131.610073317, 32.993578881 ], [ 131.610116733000012, 32.993611465 ], [ 131.61017678799999, 32.993663206 ], [ 131.610276268, 32.993740234 ], [ 131.610395678, 32.993828409 ], [ 131.610488011, 32.99387627 ], [ 131.610591706, 32.993926465 ], [ 131.61071309499999, 32.993978965 ], [ 131.610825455999986, 32.99405477 ], [ 131.610881761, 32.99411352 ], [ 131.61098831699999, 32.994297992 ], [ 131.611126595, 32.994602131 ], [ 131.611162901, 32.994621242 ], [ 131.611353484, 32.994667131 ], [ 131.611460123, 32.994709187 ], [ 131.611565651, 32.994775159 ], [ 131.611676818, 32.994861214 ], [ 131.61177440099999, 32.995008436 ], [ 131.611869729, 32.995137971 ], [ 131.61188556799999, 32.995159492 ], [ 131.611928678999988, 32.995195798 ], [ 131.61205226199999, 32.995036659 ], [ 131.612133929, 32.994914048 ], [ 131.612159983999987, 32.99482252 ], [ 131.612170687, 32.994811123 ], [ 131.61218036599999, 32.99480443 ], [ 131.612192397, 32.994804133 ], [ 131.612202629, 32.994809928 ], [ 131.61220610699999, 32.994821602 ], [ 131.612204657, 32.994837117 ], [ 131.612180961, 32.995054706 ], [ 131.612170717, 32.995218991 ], [ 131.612197027, 32.995396204 ], [ 131.61227599599999, 32.995529704 ], [ 131.612376785, 32.995593805 ], [ 131.612531764000011, 32.995634151 ], [ 131.612706441, 32.995701412 ], [ 131.61281849299999, 32.995781899 ], [ 131.612926673, 32.995907034 ], [ 131.613108957, 32.996098769 ], [ 131.613182067999986, 32.996073936 ], [ 131.613258252, 32.996059118 ], [ 131.613353735, 32.996040547 ], [ 131.613466985, 32.996013603 ], [ 131.613557402, 32.995986214 ], [ 131.613739485, 32.995918019 ], [ 131.61388904099999, 32.995854825 ], [ 131.613998735, 32.995821436 ], [ 131.614069846, 32.995821436 ], [ 131.614164819, 32.995843269 ], [ 131.61435068, 32.995901464 ], [ 131.61442929099999, 32.995933269 ], [ 131.614822374, 32.996082186 ], [ 131.614957986, 32.99613613 ], [ 131.615038819, 32.996144436 ], [ 131.615095125000011, 32.996150241 ], [ 131.615458641, 32.996122435 ] ] ] } },
{ "type": "Feature", "properties": { "A29_001": "44212", "A29_002": "大分県", "A29_003": "豊後大野市", "A29_004": 6, "A29_005": "第二種住居地域", "A29_006": 60, "A29_007": 200, "A29_008": null }, "geometry": { "type": "Polygon", "coordinates": [ [ [ 131.61695805, 32.997041113 ], [ 131.616531, 32.99694125 ], [ 131.616431229999989, 32.99694174 ], [ 131.61637923, 32.99695114 ], [ 131.616333739999988, 32.9969605 ], [ 131.616311978999988, 32.996910233 ], [ 131.616242718, 32.996770815 ], [ 131.616167227, 32.996543414 ], [ 131.616093261, 32.996288967 ], [ 131.616053851, 32.996116487 ], [ 131.616160653, 32.996116464 ], [ 131.61638934199999, 32.996115723 ], [ 131.616750892, 32.996139466 ], [ 131.616897534, 32.996136901 ], [ 131.616768627, 32.996002668 ], [ 131.616585765, 32.995845387 ], [ 131.616436201999988, 32.995712994 ], [ 131.616342737, 32.99558605 ], [ 131.616236105000013, 32.995337026 ], [ 131.616281291, 32.995306492 ], [ 131.616403096999989, 32.995208214 ], [ 131.61651520800001, 32.995102853 ], [ 131.616666667, 32.99490724 ], [ 131.616890262999988, 32.99451202 ], [ 131.616666667, 32.99433529 ], [ 131.616236235, 32.993969326 ], [ 131.616082401999989, 32.993779076 ], [ 131.615798039999987, 32.993420993 ], [ 131.615661068, 32.993251104 ], [ 131.61560165099999, 32.993194632 ], [ 131.61552395699999, 32.993174077 ], [ 131.615501251000012, 32.993171119 ], [ 131.615376179, 32.993154827 ], [ 131.615012928999988, 32.99312141 ], [ 131.614954927000014, 32.993109414 ], [ 131.614840484000013, 32.993085744 ], [ 131.61469949100001, 32.993034318 ], [ 131.614674234, 32.993025105 ], [ 131.614620707, 32.993021132 ], [ 131.614468595, 32.992989716 ], [ 131.61415173, 32.99290972 ], [ 131.613911623, 32.992840966 ], [ 131.613707706000014, 32.992772383 ], [ 131.613511039, 32.992689688 ], [ 131.613342233999987, 32.992606661 ], [ 131.612910373, 32.992387133 ], [ 131.612835546000014, 32.99236133 ], [ 131.612778428000013, 32.992341633 ], [ 131.612719317, 32.992327216 ], [ 131.612780844000014, 32.992149355 ], [ 131.612805845, 32.992016716 ], [ 131.612800983999989, 32.991889689 ], [ 131.61170992699999, 32.991254388 ], [ 131.61080739799999, 32.990745167 ], [ 131.61052826, 32.991062098 ], [ 131.61051953899999, 32.991130424 ], [ 131.61051253799999, 32.991260216 ], [ 131.61050506699999, 32.99136207 ], [ 131.610500594, 32.99142305 ], [ 131.610486355, 32.991522752 ], [ 131.61048527, 32.991530351 ], [ 131.610476928999987, 32.99158876 ], [ 131.610476833, 32.991589434 ], [ 131.61059024299999, 32.991673277 ], [ 131.61084090899999, 32.991848219 ], [ 131.611073411, 32.992016202 ], [ 131.61130868399999, 32.992181823 ], [ 131.611590304, 32.992398892 ], [ 131.611976465, 32.99269881 ], [ 131.61230837299999, 32.992984966 ], [ 131.612548944999986, 32.993178727 ], [ 131.612928919000012, 32.993510406 ], [ 131.613226161, 32.993768501 ], [ 131.61352897099999, 32.994025393 ], [ 131.613842964000014, 32.994286927 ], [ 131.614085401000011, 32.994499826 ], [ 131.61422718599999, 32.994626803 ], [ 131.61483651, 32.99516469 ], [ 131.614993840000011, 32.99533025 ], [ 131.615219131, 32.995579684 ], [ 131.615276779, 32.995664782 ], [ 131.615329921000011, 32.995770754 ], [ 131.615458641, 32.996122435 ], [ 131.615095125000011, 32.996150241 ], [ 131.615038819, 32.996144436 ], [ 131.615015069, 32.996233714 ], [ 131.61500743, 32.99647463 ], [ 131.615015069, 32.996513352 ], [ 131.615071236, 32.996590769 ], [ 131.61525773599999, 32.996778213 ], [ 131.615674587, 32.997138249 ], [ 131.616312032, 32.997137085 ], [ 131.616316375999986, 32.997138957 ], [ 131.616317197, 32.997177857 ], [ 131.616320140999989, 32.997231318 ], [ 131.616319581999988, 32.997432182 ], [ 131.616359249, 32.997407887 ], [ 131.61695805, 32.997041113 ] ] ] } },
{ "type": "Feature", "properties": { "A29_001": "44212", "A29_002": "大分県", "A29_003": "豊後大野市", "A29_004": 4, "A29_005": "第二種中高層住居専用地域", "A29_006": 60, "A29_007": 200, "A29_008": null }, "geometry": { "type": "Polygon", "coordinates": [ [ [ 131.60093751299999, 32.984193105 ], [ 131.600919336, 32.984189702 ], [ 131.600925673, 32.984197274 ], [ 131.60093751299999, 32.984193105 ] ] ] } }
]
}
