{
"type": "FeatureCollection",
"name": "A29-19_16209",
"features": [
{ "type": "Feature", "properties": { "A29_001": "16209", "A29_002": "富山県", "A29_003": "小矢部市", "A29_004": 3, "A29_005": "第一種中高層住居専用地域", "A29_006": 60, "A29_007": 200, "A29_008": null }, "geometry": { "type": "Polygon", "coordinates": [ [ [ 136.894971209, 36.619357964 ], [ 136.895628498, 36.618828015 ], [ 136.893977675, 36.618826435 ], [ 136.893327465, 36.618830806 ], [ 136.893053444, 36.618863722 ], [ 136.8928039, 36.618936979 ], [ 136.892545203999987, 36.619049696 ], [ 136.892355251, 36.619187679 ], [ 136.892251482, 36.619296173 ], [ 136.89218316099999, 36.619418579 ], [ 136.892141511, 36.61957514 ], [ 136.892129831, 36.619776132 ], [ 136.892141251, 36.620038576 ], [ 136.892217, 36.620607687 ], [ 136.89409279099999, 36.620833873 ], [ 136.89425846899999, 36.620551382 ], [ 136.89442811, 36.6203668 ], [ 136.89471698700001, 36.619982601 ], [ 136.894849376, 36.619689481 ], [ 136.894971209, 36.619357964 ] ] ] } },
{ "type": "Feature", "properties": { "A29_001": "16209", "A29_002": "富山県", "A29_003": "小矢部市", "A29_004": 3, "A29_005": "第一種中高層住居専用地域", "A29_006": 60, "A29_007": 200, "A29_008": null }, "geometry": { "type": "Polygon", "coordinates": [ [ [ 136.90221259899999, 36.619797104 ], [ 136.90238747399999, 36.619521843 ], [ 136.9026407, 36.619517635 ], [ 136.902748206000012, 36.619566994 ], [ 136.903508136, 36.618435464 ], [ 136.90324001, 36.618299432 ], [ 136.903305071, 36.618037676 ], [ 136.902592500999987, 36.61799457 ], [ 136.901563509, 36.617567168 ], [ 136.90045772900001, 36.61918364 ], [ 136.900663802999986, 36.619220302 ], [ 136.900716913, 36.619475205 ], [ 136.901315323, 36.621074513 ], [ 136.902369004, 36.620773189 ], [ 136.90216958, 36.620267232 ], [ 136.90270604299999, 36.620133936 ], [ 136.902420543, 36.6198987 ], [ 136.90221259899999, 36.619797104 ] ] ] } },
{ "type": "Feature", "properties": { "A29_001": "16209", "A29_002": "富山県", "A29_003": "小矢部市", "A29_004": 5, "A29_005": "第一種住居地域", "A29_006": 60, "A29_007": 200, "A29_008": null }, "geometry": { "type": "Polygon", "coordinates": [ [ [ 136.89953955499999, 36.622601489 ], [ 136.899729651, 36.622377772 ], [ 136.899903920000014, 36.622454466 ], [ 136.900343493, 36.621856622 ], [ 136.900640654999989, 36.621649601 ], [ 136.90080885099999, 36.621550855 ], [ 136.90085344, 36.621487765 ], [ 136.900946613, 36.621490358 ], [ 136.901423099, 36.621353428 ], [ 136.901315323, 36.621074513 ], [ 136.900716913, 36.619475205 ], [ 136.900663802999986, 36.619220302 ], [ 136.90045772900001, 36.61918364 ], [ 136.900163416999987, 36.619656278 ], [ 136.89938, 36.619471222 ], [ 136.899435278, 36.619351806 ], [ 136.900131050999988, 36.619030526 ], [ 136.899585941999987, 36.618351705 ], [ 136.899458521000014, 36.618416993 ], [ 136.89907991199999, 36.617983356 ], [ 136.898383676, 36.618301553 ], [ 136.897745, 36.618567654 ], [ 136.897191437, 36.61876525 ], [ 136.896810708, 36.618837609 ], [ 136.895628498, 36.618828015 ], [ 136.894971209, 36.619357964 ], [ 136.894849376, 36.619689481 ], [ 136.89471698700001, 36.619982601 ], [ 136.89442811, 36.6203668 ], [ 136.89425846899999, 36.620551382 ], [ 136.89409279099999, 36.620833873 ], [ 136.892217, 36.620607687 ], [ 136.892250816, 36.620904508 ], [ 136.89233187100001, 36.621232554 ], [ 136.894074541, 36.621466706 ], [ 136.89419315, 36.621921077 ], [ 136.894249159999987, 36.622396913 ], [ 136.894412391, 36.622649632 ], [ 136.895286051, 36.62242993 ], [ 136.89657312599999, 36.622096873 ], [ 136.897566192, 36.621842791 ], [ 136.89814799199999, 36.621692688 ], [ 136.89848698, 36.621612378 ], [ 136.898855946, 36.62156306 ], [ 136.898616073, 36.621920269 ], [ 136.898605921000012, 36.622208199 ], [ 136.89829455899999, 36.622239666 ], [ 136.897966450000013, 36.622326315 ], [ 136.89726618, 36.622537303 ], [ 136.897245571000013, 36.622572683 ], [ 136.897329692, 36.622790172 ], [ 136.897695419, 36.623835492 ], [ 136.899996114, 36.62381503 ], [ 136.900072448, 36.623768703 ], [ 136.900116223999987, 36.623698384 ], [ 136.90021368, 36.623131165 ], [ 136.899464173000013, 36.623015031 ], [ 136.89953955499999, 36.622601489 ] ] ] } },
{ "type": "Feature", "properties": { "A29_001": "16209", "A29_002": "富山県", "A29_003": "小矢部市", "A29_004": 3, "A29_005": "第一種中高層住居専用地域", "A29_006": 60, "A29_007": 200, "A29_008": null }, "geometry": { "type": "Polygon", "coordinates": [ [ [ 136.894074541, 36.621466706 ], [ 136.89233187100001, 36.621232554 ], [ 136.892647133999986, 36.622289675 ], [ 136.892808476, 36.622912001 ], [ 136.892884896999988, 36.623745609 ], [ 136.89388749, 36.623585365 ], [ 136.89388669600001, 36.622956317 ], [ 136.893784540000013, 36.622663282 ], [ 136.894412391, 36.622649632 ], [ 136.894249159999987, 36.622396913 ], [ 136.89419315, 36.621921077 ], [ 136.894074541, 36.621466706 ] ] ] } },
{ "type": "Feature", "properties": { "A29_001": "16209", "A29_002": "富山県", "A29_003": "小矢部市", "A29_004": 10, "A29_005": "準工業地域", "A29_006": 60, "A29_007": 200, "A29_008": null }, "geometry": { "type": "Polygon", "coordinates": [ [ [ 136.899701916999987, 36.624466389 ], [ 136.900154844000014, 36.624156992 ], [ 136.900415243, 36.624311049 ], [ 136.90136834099999, 36.624923598 ], [ 136.90256778, 36.624249888 ], [ 136.901423099, 36.621353428 ], [ 136.900946613, 36.621490358 ], [ 136.90085344, 36.621487765 ], [ 136.90080885099999, 36.621550855 ], [ 136.900640654999989, 36.621649601 ], [ 136.900343493, 36.621856622 ], [ 136.899903920000014, 36.622454466 ], [ 136.899729651, 36.622377772 ], [ 136.89953955499999, 36.622601489 ], [ 136.899464173000013, 36.623015031 ], [ 136.90021368, 36.623131165 ], [ 136.900116223999987, 36.623698384 ], [ 136.900072448, 36.623768703 ], [ 136.899996114, 36.62381503 ], [ 136.897695419, 36.623835492 ], [ 136.897340719, 36.623829323 ], [ 136.897433861, 36.62408931 ], [ 136.89796014800001, 36.62539906 ], [ 136.89800095199999, 36.625501762 ], [ 136.898432148000012, 36.625207695 ], [ 136.898773417, 36.624991861 ], [ 136.899038057000013, 36.624850749 ], [ 136.899278417, 36.624722583 ], [ 136.899368017, 36.624668381 ], [ 136.899701916999987, 36.624466389 ] ] ] } },
{ "type": "Feature", "properties": { "A29_001": "16209", "A29_002": "富山県", "A29_003": "小矢部市", "A29_004": 8, "A29_005": "近隣商業地域", "A29_006": 80, "A29_007": 200, "A29_008": null }, "geometry": { "type": "Polygon", "coordinates": [ [ [ 136.897433861, 36.62408931 ], [ 136.897340719, 36.623829323 ], [ 136.897695419, 36.623835492 ], [ 136.897329692, 36.622790172 ], [ 136.897245571000013, 36.622572683 ], [ 136.89726618, 36.622537303 ], [ 136.897966450000013, 36.622326315 ], [ 136.89829455899999, 36.622239666 ], [ 136.898605921000012, 36.622208199 ], [ 136.898616073, 36.621920269 ], [ 136.898855946, 36.62156306 ], [ 136.89848698, 36.621612378 ], [ 136.89814799199999, 36.621692688 ], [ 136.897566192, 36.621842791 ], [ 136.89657312599999, 36.622096873 ], [ 136.895286051, 36.62242993 ], [ 136.894412391, 36.622649632 ], [ 136.893784540000013, 36.622663282 ], [ 136.89388669600001, 36.622956317 ], [ 136.89388749, 36.623585365 ], [ 136.892884896999988, 36.623745609 ], [ 136.89291135900001, 36.624627935 ], [ 136.892898800000012, 36.625042213 ], [ 136.8928545, 36.625574472 ], [ 136.893577241, 36.625473516 ], [ 136.89351537499999, 36.624474176 ], [ 136.894470109, 36.624196693 ], [ 136.895747279, 36.624156433 ], [ 136.897433861, 36.62408931 ] ] ] } },
{ "type": "Feature", "properties": { "A29_001": "16209", "A29_002": "富山県", "A29_003": "小矢部市", "A29_004": 6, "A29_005": "第二種住居地域", "A29_006": 60, "A29_007": 200, "A29_008": null }, "geometry": { "type": "Polygon", "coordinates": [ [ [ 136.897604209, 36.627054769 ], [ 136.898113894, 36.626981522 ], [ 136.89807105599999, 36.627017006 ], [ 136.899666228, 36.626770426 ], [ 136.901847906, 36.626465902 ], [ 136.903253059, 36.626228763 ], [ 136.903108731, 36.625913451 ], [ 136.90256778, 36.624249888 ], [ 136.90136834099999, 36.624923598 ], [ 136.900415243, 36.624311049 ], [ 136.900154844000014, 36.624156992 ], [ 136.899701916999987, 36.624466389 ], [ 136.899368017, 36.624668381 ], [ 136.899278417, 36.624722583 ], [ 136.899038057000013, 36.624850749 ], [ 136.898773417, 36.624991861 ], [ 136.898432148000012, 36.625207695 ], [ 136.89800095199999, 36.625501762 ], [ 136.897956775000011, 36.62553189 ], [ 136.897685053, 36.625669557 ], [ 136.89754926099999, 36.625714392 ], [ 136.897604209, 36.627054769 ] ] ] } },
{ "type": "Feature", "properties": { "A29_001": "16209", "A29_002": "富山県", "A29_003": "小矢部市", "A29_004": 11, "A29_005": "工業地域", "A29_006": 60, "A29_007": 200, "A29_008": null }, "geometry": { "type": "Polygon", "coordinates": [ [ [ 136.89754926099999, 36.625714392 ], [ 136.8973178, 36.625790814 ], [ 136.896945906000013, 36.625885353 ], [ 136.896640389999988, 36.625947611 ], [ 136.896363387, 36.625977505 ], [ 136.895750361000012, 36.625995189 ], [ 136.89434806, 36.625978182 ], [ 136.894498183, 36.627234182 ], [ 136.894528245, 36.627476874 ], [ 136.897604209, 36.627054769 ], [ 136.89754926099999, 36.625714392 ] ] ] } },
{ "type": "Feature", "properties": { "A29_001": "16209", "A29_002": "富山県", "A29_003": "小矢部市", "A29_004": 5, "A29_005": "第一種住居地域", "A29_006": 60, "A29_007": 200, "A29_008": null }, "geometry": { "type": "Polygon", "coordinates": [ [ [ 136.894498183, 36.627234182 ], [ 136.89434806, 36.625978182 ], [ 136.895750361000012, 36.625995189 ], [ 136.896363387, 36.625977505 ], [ 136.896640389999988, 36.625947611 ], [ 136.896945906000013, 36.625885353 ], [ 136.8973178, 36.625790814 ], [ 136.89754926099999, 36.625714392 ], [ 136.897685053, 36.625669557 ], [ 136.897956775000011, 36.62553189 ], [ 136.89800095199999, 36.625501762 ], [ 136.89796014800001, 36.62539906 ], [ 136.897433861, 36.62408931 ], [ 136.895747279, 36.624156433 ], [ 136.894470109, 36.624196693 ], [ 136.89351537499999, 36.624474176 ], [ 136.893577241, 36.625473516 ], [ 136.8928545, 36.625574472 ], [ 136.892810354, 36.625960211 ], [ 136.892724566, 36.626247724 ], [ 136.892382407000014, 36.626875006 ], [ 136.892567707000012, 36.627075887 ], [ 136.893038378, 36.627480039 ], [ 136.894498183, 36.627234182 ] ] ] } },
{ "type": "Feature", "properties": { "A29_001": "16209", "A29_002": "富山県", "A29_003": "小矢部市", "A29_004": 10, "A29_005": "準工業地域", "A29_006": 60, "A29_007": 200, "A29_008": null }, "geometry": { "type": "Polygon", "coordinates": [ [ [ 136.89807105599999, 36.627017006 ], [ 136.898113894, 36.626981522 ], [ 136.897604209, 36.627054769 ], [ 136.894528245, 36.627476874 ], [ 136.89456469000001, 36.628091919 ], [ 136.894552647000012, 36.628151504 ], [ 136.89446647599999, 36.62825861 ], [ 136.894371471999989, 36.628353772 ], [ 136.89425874299999, 36.628441741 ], [ 136.894272847, 36.628637302 ], [ 136.894316518000011, 36.6288377 ], [ 136.894436805999987, 36.629124115 ], [ 136.89471887, 36.629563398 ], [ 136.89571755, 36.628776513 ], [ 136.897858609999986, 36.627145358 ], [ 136.89807105599999, 36.627017006 ] ] ] } },
{ "type": "Feature", "properties": { "A29_001": "16209", "A29_002": "富山県", "A29_003": "小矢部市", "A29_004": 3, "A29_005": "第一種中高層住居専用地域", "A29_006": 60, "A29_007": 200, "A29_008": null }, "geometry": { "type": "Polygon", "coordinates": [ [ [ 136.862053078, 36.669124444 ], [ 136.862296307, 36.665687439 ], [ 136.861018245999986, 36.665650544 ], [ 136.85911849499999, 36.665533583 ], [ 136.859105733, 36.665951431 ], [ 136.859352854, 36.66595803 ], [ 136.859499672999988, 36.666253488 ], [ 136.859696383999989, 36.667028952 ], [ 136.856903792, 36.666827982 ], [ 136.856832024, 36.667408084 ], [ 136.857641774, 36.667759629 ], [ 136.857913379, 36.667936785 ], [ 136.858208093, 36.668257069 ], [ 136.858540946, 36.668663292 ], [ 136.858765487999989, 36.669079404 ], [ 136.862053078, 36.669124444 ] ] ] } },
{ "type": "Feature", "properties": { "A29_001": "16209", "A29_002": "富山県", "A29_003": "小矢部市", "A29_004": 4, "A29_005": "第二種中高層住居専用地域", "A29_006": 60, "A29_007": 200, "A29_008": null }, "geometry": { "type": "Polygon", "coordinates": [ [ [ 136.864466935, 36.666247597 ], [ 136.864401945999987, 36.665609344 ], [ 136.86407665199999, 36.665687206 ], [ 136.863169930999987, 36.665718282 ], [ 136.86289195, 36.669120387 ], [ 136.86412554399999, 36.669151664 ], [ 136.864215588, 36.668757817 ], [ 136.86432010499999, 36.668371797 ], [ 136.86437805, 36.66793187 ], [ 136.864459882, 36.66714319 ], [ 136.864466935, 36.666247597 ] ] ] } },
{ "type": "Feature", "properties": { "A29_001": "16209", "A29_002": "富山県", "A29_003": "小矢部市", "A29_004": 5, "A29_005": "第一種住居地域", "A29_006": 60, "A29_007": 200, "A29_008": null }, "geometry": { "type": "Polygon", "coordinates": [ [ [ 136.856011599999988, 36.667351961 ], [ 136.855779861, 36.667248478 ], [ 136.855837879, 36.666952954 ], [ 136.85576223699999, 36.666920327 ], [ 136.855674818000011, 36.666872409 ], [ 136.855604104, 36.666792106 ], [ 136.85549108399999, 36.666456482 ], [ 136.855385465000012, 36.6664705 ], [ 136.855364232, 36.666381349 ], [ 136.855319802999986, 36.666241979 ], [ 136.85527529, 36.666123592 ], [ 136.85522353499999, 36.666039523 ], [ 136.855155067, 36.665989747 ], [ 136.854870948000013, 36.665983281 ], [ 136.854881666000011, 36.66567428 ], [ 136.854851114000013, 36.665616972 ], [ 136.854787351999988, 36.665574839 ], [ 136.85469514499999, 36.665540261 ], [ 136.853565893, 36.665485793 ], [ 136.853562818, 36.665075654 ], [ 136.853122441000011, 36.665064957 ], [ 136.85313385500001, 36.664586183 ], [ 136.85295462799999, 36.664406398 ], [ 136.85298456699999, 36.664030683 ], [ 136.853294756, 36.664029592 ], [ 136.853299832, 36.663945672 ], [ 136.853595361, 36.663911833 ], [ 136.853637361000011, 36.663886472 ], [ 136.853681583, 36.663839333 ], [ 136.85374091700001, 36.663799 ], [ 136.85384169400001, 36.663750083 ], [ 136.853894860999986, 36.663727861 ], [ 136.85394158299999, 36.663717 ], [ 136.85401661099999, 36.663703417 ], [ 136.854074833, 36.663697056 ], [ 136.85410841699999, 36.663694806 ], [ 136.854173917, 36.663692528 ], [ 136.854335972, 36.663687528 ], [ 136.854386889000011, 36.663684361 ], [ 136.854426167000014, 36.663682222 ], [ 136.854484229, 36.663678143 ], [ 136.85457881100001, 36.662684062 ], [ 136.854535472, 36.662690333 ], [ 136.853820194, 36.662621194 ], [ 136.853666972000013, 36.662603639 ], [ 136.853550692999988, 36.662575945 ], [ 136.853518208, 36.663192153 ], [ 136.852978443000012, 36.663169273 ], [ 136.85298497799999, 36.663309498 ], [ 136.852778918000013, 36.663324692 ], [ 136.852796101, 36.663466376 ], [ 136.852689986, 36.663465208 ], [ 136.852661794, 36.663304354 ], [ 136.852530389, 36.663302577 ], [ 136.852527796, 36.663066506 ], [ 136.852704004, 36.662968253 ], [ 136.85238365, 36.662704161 ], [ 136.85252439199999, 36.662441032 ], [ 136.85246830599999, 36.662434583 ], [ 136.852200333000013, 36.662401472 ], [ 136.85219730599999, 36.662501222 ], [ 136.852190194, 36.662734056 ], [ 136.85216330599999, 36.663140889 ], [ 136.852123, 36.663367167 ], [ 136.852154750000011, 36.663480222 ], [ 136.852281471999987, 36.663822528 ], [ 136.852364193999989, 36.664324083 ], [ 136.85242811099999, 36.664523722 ], [ 136.852421222, 36.66465075 ], [ 136.852366889, 36.664884917 ], [ 136.852303167, 36.665066 ], [ 136.852171972, 36.665369194 ], [ 136.85209683299999, 36.665595 ], [ 136.85200533299999, 36.665807889 ], [ 136.85188972200001, 36.666121556 ], [ 136.851847889, 36.666235028 ], [ 136.851834477000011, 36.666271424 ], [ 136.852139827, 36.66629066 ], [ 136.85231480600001, 36.666392167 ], [ 136.85220999399999, 36.666504495 ], [ 136.852278468, 36.666552365 ], [ 136.85221174099999, 36.666657106 ], [ 136.852630080000012, 36.666848969 ], [ 136.852696681999987, 36.666774748 ], [ 136.852793541000011, 36.666830324 ], [ 136.852776664, 36.666904675 ], [ 136.853301638, 36.66707774 ], [ 136.853415867, 36.666881478 ], [ 136.85365611099999, 36.667023167 ], [ 136.853716528, 36.667040639 ], [ 136.853854694, 36.667432139 ], [ 136.85388630599999, 36.667498417 ], [ 136.853947139000013, 36.667681611 ], [ 136.854136833000013, 36.667890167 ], [ 136.85416143399999, 36.667960362 ], [ 136.854217533999986, 36.668247568 ], [ 136.85463076, 36.669195886 ], [ 136.854509586, 36.669113622 ], [ 136.854342194, 36.669009972 ], [ 136.85417075, 36.668951333 ], [ 136.85376725, 36.668886 ], [ 136.85353102799999, 36.668847472 ], [ 136.853355416999989, 36.668842444 ], [ 136.853181889000012, 36.668867556 ], [ 136.853137901999986, 36.668875954 ], [ 136.853118192000011, 36.668879717 ], [ 136.852527621, 36.66987053 ], [ 136.852676758, 36.670319205 ], [ 136.853310582, 36.670225496 ], [ 136.85337666699999, 36.670268722 ], [ 136.853502028, 36.67033825 ], [ 136.853539500000011, 36.670384639 ], [ 136.853657639, 36.670590694 ], [ 136.853800244000013, 36.670868898 ], [ 136.853800678999988, 36.670869746 ], [ 136.853968138999988, 36.670849573 ], [ 136.853954361, 36.671289056 ], [ 136.854006306, 36.671585643 ], [ 136.853165792, 36.671732463 ], [ 136.853320212999989, 36.672333361 ], [ 136.853355211, 36.672432289 ], [ 136.853498495999986, 36.672639816 ], [ 136.853511384, 36.672676012 ], [ 136.853526482, 36.672693703 ], [ 136.853604717, 36.672773308 ], [ 136.853634, 36.672840547 ], [ 136.853640531999986, 36.672878937 ], [ 136.853104244, 36.673003904 ], [ 136.853078966999988, 36.673032451 ], [ 136.853117327, 36.673062358 ], [ 136.85376998800001, 36.673073612 ], [ 136.853836508, 36.673094055 ], [ 136.853900097, 36.673107337 ], [ 136.854562499999986, 36.673097947 ], [ 136.854728577, 36.673195351 ], [ 136.854775842, 36.673219319 ], [ 136.85483205, 36.673227812 ], [ 136.855268717, 36.67321584 ], [ 136.855327501, 36.673319719 ], [ 136.855376275999987, 36.673336538 ], [ 136.855681256999986, 36.673314682 ], [ 136.855829109000013, 36.673353219 ], [ 136.85592667200001, 36.67338328 ], [ 136.855972492, 36.673398899 ], [ 136.856016562, 36.673481278 ], [ 136.856044343, 36.673566 ], [ 136.856075319000013, 36.67359231 ], [ 136.856200997, 36.673624033 ], [ 136.856301621999989, 36.673629064 ], [ 136.856313147, 36.673663173 ], [ 136.856313204, 36.673693475 ], [ 136.856255398, 36.673773514 ], [ 136.856629978, 36.673669573 ], [ 136.85686742199999, 36.673317414 ], [ 136.858633755999989, 36.673689025 ], [ 136.859336465000013, 36.673801899 ], [ 136.860072007000014, 36.673899723 ], [ 136.861011416, 36.673523964 ], [ 136.862043833, 36.67310625 ], [ 136.861744007, 36.672619883 ], [ 136.861541463, 36.672563328 ], [ 136.861443946, 36.67252135 ], [ 136.861331793, 36.672437606 ], [ 136.861259628999989, 36.672346811 ], [ 136.861180037, 36.67226315 ], [ 136.86109737699999, 36.672206903 ], [ 136.86102526499999, 36.672173567 ], [ 136.85966748300001, 36.672431771 ], [ 136.857443730999989, 36.672833287 ], [ 136.856090583, 36.672982778 ], [ 136.856041119999986, 36.672934077 ], [ 136.85607472699999, 36.672232174 ], [ 136.857492736000012, 36.671978579 ], [ 136.859713234, 36.671570377 ], [ 136.860211101, 36.671499767 ], [ 136.859048156, 36.670082718 ], [ 136.858702685999987, 36.670340119 ], [ 136.858565376, 36.670442893 ], [ 136.85809429299999, 36.670633447 ], [ 136.856325078999987, 36.671193235 ], [ 136.856210444, 36.671018028 ], [ 136.8560515, 36.670802333 ], [ 136.855866944000013, 36.670578417 ], [ 136.855827389000012, 36.670544722 ], [ 136.855398861, 36.670179778 ], [ 136.855336333, 36.670126528 ], [ 136.855260711999989, 36.670060359 ], [ 136.855181512, 36.670043448 ], [ 136.855054943, 36.669998778 ], [ 136.85491044299999, 36.669864869 ], [ 136.854706203, 36.669571639 ], [ 136.857094996, 36.668297101 ], [ 136.85562793599999, 36.6675875 ], [ 136.856011599999988, 36.667351961 ] ] ] } },
{ "type": "Feature", "properties": { "A29_001": "16209", "A29_002": "富山県", "A29_003": "小矢部市", "A29_004": 4, "A29_005": "第二種中高層住居専用地域", "A29_006": 60, "A29_007": 200, "A29_008": null }, "geometry": { "type": "Polygon", "coordinates": [ [ [ 136.867403478999989, 36.667377625 ], [ 136.866165286000012, 36.665508466 ], [ 136.865256953999989, 36.66555643 ], [ 136.865319523000011, 36.666665372 ], [ 136.865282557, 36.667378 ], [ 136.865185888000013, 36.668447791 ], [ 136.864875554, 36.66961854 ], [ 136.86645397699999, 36.670264034 ], [ 136.86722937799999, 36.668969879 ], [ 136.867492013, 36.668465012 ], [ 136.867560142, 36.668269113 ], [ 136.86758728, 36.668068394 ], [ 136.86756458799999, 36.667877006 ], [ 136.86752675299999, 36.667655174 ], [ 136.867403478999989, 36.667377625 ] ] ] } },
{ "type": "Feature", "properties": { "A29_001": "16209", "A29_002": "富山県", "A29_003": "小矢部市", "A29_004": 7, "A29_005": "準住居地域", "A29_006": 60, "A29_007": 200, "A29_008": null }, "geometry": { "type": "Polygon", "coordinates": [ [ [ 136.857641774, 36.667759629 ], [ 136.856832024, 36.667408084 ], [ 136.85680406099999, 36.66767264 ], [ 136.856011599999988, 36.667351961 ], [ 136.85562793599999, 36.6675875 ], [ 136.857094996, 36.668297101 ], [ 136.857407997, 36.668485096 ], [ 136.85768044299999, 36.668822611 ], [ 136.858340629, 36.669894671 ], [ 136.858702685999987, 36.670340119 ], [ 136.859048156, 36.670082718 ], [ 136.858971738, 36.669978475 ], [ 136.858623306, 36.669503167 ], [ 136.858362113999988, 36.669084578 ], [ 136.858765487999989, 36.669079404 ], [ 136.858540946, 36.668663292 ], [ 136.858208093, 36.668257069 ], [ 136.857913379, 36.667936785 ], [ 136.857641774, 36.667759629 ] ] ] } },
{ "type": "Feature", "properties": { "A29_001": "16209", "A29_002": "富山県", "A29_003": "小矢部市", "A29_004": 3, "A29_005": "第一種中高層住居専用地域", "A29_006": 60, "A29_007": 200, "A29_008": null }, "geometry": { "type": "Polygon", "coordinates": [ [ [ 136.851825444000013, 36.672468833 ], [ 136.852071056, 36.672431889 ], [ 136.85220189099999, 36.672448484 ], [ 136.852545201, 36.672463697 ], [ 136.852805726000014, 36.672454846 ], [ 136.853320212999989, 36.672333361 ], [ 136.853165792, 36.671732463 ], [ 136.854006306, 36.671585643 ], [ 136.853954361, 36.671289056 ], [ 136.853968138999988, 36.670849573 ], [ 136.853800678999988, 36.670869746 ], [ 136.853800244000013, 36.670868898 ], [ 136.853657639, 36.670590694 ], [ 136.853539500000011, 36.670384639 ], [ 136.853502028, 36.67033825 ], [ 136.85337666699999, 36.670268722 ], [ 136.853310582, 36.670225496 ], [ 136.852676758, 36.670319205 ], [ 136.852527621, 36.66987053 ], [ 136.853118192000011, 36.668879717 ], [ 136.853137901999986, 36.668875954 ], [ 136.853181889000012, 36.668867556 ], [ 136.853355416999989, 36.668842444 ], [ 136.85353102799999, 36.668847472 ], [ 136.85376725, 36.668886 ], [ 136.85417075, 36.668951333 ], [ 136.854342194, 36.669009972 ], [ 136.854509586, 36.669113622 ], [ 136.85463076, 36.669195886 ], [ 136.854217533999986, 36.668247568 ], [ 136.85416143399999, 36.667960362 ], [ 136.85364332899999, 36.668095838 ], [ 136.853320360999987, 36.668178446 ], [ 136.853181226, 36.668182848 ], [ 136.852911904, 36.668174986 ], [ 136.852612818000011, 36.66820758 ], [ 136.852553484999987, 36.668240806 ], [ 136.85253523099999, 36.668362367 ], [ 136.852505234, 36.668460051 ], [ 136.852451694, 36.668524291 ], [ 136.852054124, 36.668754536 ], [ 136.851947421, 36.668790021 ], [ 136.85160115799999, 36.668777183 ], [ 136.851456093, 36.668783953 ], [ 136.851319713, 36.668838435 ], [ 136.851224868, 36.668869182 ], [ 136.851038315000011, 36.668887764 ], [ 136.85079257000001, 36.668873629 ], [ 136.85055722199999, 36.668813861 ], [ 136.850688778, 36.669260528 ], [ 136.85077641699999, 36.669644361 ], [ 136.850787937, 36.669671051 ], [ 136.850534624, 36.669732918 ], [ 136.85076261099999, 36.670442611 ], [ 136.850967528000012, 36.671156139 ], [ 136.851066722000013, 36.671491472 ], [ 136.851207722, 36.671953472 ], [ 136.851379611, 36.672537611 ], [ 136.851551722000011, 36.672494889 ], [ 136.8516085, 36.6724905 ], [ 136.851758889, 36.672478833 ], [ 136.851825444000013, 36.672468833 ] ] ] } },
{ "type": "Feature", "properties": { "A29_001": "16209", "A29_002": "富山県", "A29_003": "小矢部市", "A29_004": 10, "A29_005": "準工業地域", "A29_006": 60, "A29_007": 200, "A29_008": null }, "geometry": { "type": "Polygon", "coordinates": [ [ [ 136.86076301599999, 36.672015375 ], [ 136.860331763, 36.671484912 ], [ 136.860211101, 36.671499767 ], [ 136.859713234, 36.671570377 ], [ 136.857492736000012, 36.671978579 ], [ 136.85607472699999, 36.672232174 ], [ 136.856041119999986, 36.672934077 ], [ 136.856090583, 36.672982778 ], [ 136.857443730999989, 36.672833287 ], [ 136.85966748300001, 36.672431771 ], [ 136.86102526499999, 36.672173567 ], [ 136.86076301599999, 36.672015375 ] ] ] } },
{ "type": "Feature", "properties": { "A29_001": "16209", "A29_002": "富山県", "A29_003": "小矢部市", "A29_004": 11, "A29_005": "工業地域", "A29_006": 60, "A29_007": 200, "A29_008": null }, "geometry": { "type": "Polygon", "coordinates": [ [ [ 136.873148345, 36.675123003 ], [ 136.873975876, 36.673519093 ], [ 136.87202038, 36.672827541 ], [ 136.87185582399999, 36.673098072 ], [ 136.87155468899999, 36.67358596 ], [ 136.871093551, 36.673417426 ], [ 136.870661778999988, 36.674114768 ], [ 136.870568838, 36.674267143 ], [ 136.873148345, 36.675123003 ] ] ] } },
{ "type": "Feature", "properties": { "A29_001": "16209", "A29_002": "富山県", "A29_003": "小矢部市", "A29_004": 5, "A29_005": "第一種住居地域", "A29_006": 60, "A29_007": 200, "A29_008": null }, "geometry": { "type": "Polygon", "coordinates": [ [ [ 136.87716906, 36.675496663 ], [ 136.875064041, 36.674792875 ], [ 136.874622882000011, 36.675600133 ], [ 136.876692463000012, 36.676285958 ], [ 136.87847566100001, 36.677644624 ], [ 136.878542388999989, 36.677655528 ], [ 136.87941575100001, 36.677818554 ], [ 136.880250619, 36.677865066 ], [ 136.88012474300001, 36.677517504 ], [ 136.88007808399999, 36.676985168 ], [ 136.879419694, 36.676855305 ], [ 136.879667299, 36.676343239 ], [ 136.878653164000013, 36.676012925 ], [ 136.87716906, 36.675496663 ] ] ] } },
{ "type": "Feature", "properties": { "A29_001": "16209", "A29_002": "富山県", "A29_003": "小矢部市", "A29_004": 10, "A29_005": "準工業地域", "A29_006": 60, "A29_007": 200, "A29_008": null }, "geometry": { "type": "Polygon", "coordinates": [ [ [ 136.874622882000011, 36.675600133 ], [ 136.875064041, 36.674792875 ], [ 136.87716906, 36.675496663 ], [ 136.878653164000013, 36.676012925 ], [ 136.879667299, 36.676343239 ], [ 136.879419694, 36.676855305 ], [ 136.88007808399999, 36.676985168 ], [ 136.88023021699999, 36.677014633 ], [ 136.880506655, 36.676125701 ], [ 136.88052983599999, 36.67584264 ], [ 136.880495884, 36.675521312 ], [ 136.880385931, 36.675152544 ], [ 136.880206437999988, 36.674861206 ], [ 136.87995891700001, 36.674555397 ], [ 136.879613801, 36.674225507 ], [ 136.87918217399999, 36.673985808 ], [ 136.87861786, 36.673786743 ], [ 136.873332092, 36.671947329 ], [ 136.871633538999987, 36.671032262 ], [ 136.871128324000011, 36.670783024 ], [ 136.870599231999989, 36.670586182 ], [ 136.87005925, 36.670425078 ], [ 136.869459815, 36.670433122 ], [ 136.869154688, 36.670496741 ], [ 136.869148502, 36.670565875 ], [ 136.868941201000013, 36.670591587 ], [ 136.869482604000012, 36.67143466 ], [ 136.86645397699999, 36.670264034 ], [ 136.864875554, 36.66961854 ], [ 136.86445878699999, 36.669467261 ], [ 136.86453994499999, 36.669150331 ], [ 136.86412554399999, 36.669151664 ], [ 136.86289195, 36.669120387 ], [ 136.862053078, 36.669124444 ], [ 136.858765487999989, 36.669079404 ], [ 136.858362113999988, 36.669084578 ], [ 136.858623306, 36.669503167 ], [ 136.858971738, 36.669978475 ], [ 136.861715761, 36.669999178 ], [ 136.861948095, 36.669893306 ], [ 136.86206903499999, 36.66984974 ], [ 136.862289279, 36.669844581 ], [ 136.862254393, 36.670886032 ], [ 136.862325139, 36.670901611 ], [ 136.862991502999989, 36.671023755 ], [ 136.862995377, 36.670939429 ], [ 136.863475768, 36.671020771 ], [ 136.86366221899999, 36.669972075 ], [ 136.86415914299999, 36.670062994 ], [ 136.864139795999989, 36.670165955 ], [ 136.865569756000014, 36.670715708 ], [ 136.866272554, 36.670985892 ], [ 136.866192199000011, 36.671122737 ], [ 136.867245348000012, 36.67152208 ], [ 136.867275833, 36.671533639 ], [ 136.86828530599999, 36.671932 ], [ 136.86917480599999, 36.672263444 ], [ 136.869523722, 36.672395028 ], [ 136.869702499999988, 36.672372306 ], [ 136.86968865, 36.67225514 ], [ 136.870818606, 36.672708076 ], [ 136.870846878, 36.672668803 ], [ 136.87185582399999, 36.673098072 ], [ 136.87202038, 36.672827541 ], [ 136.873975876, 36.673519093 ], [ 136.873148345, 36.675123003 ], [ 136.870568838, 36.674267143 ], [ 136.870661778999988, 36.674114768 ], [ 136.869434866, 36.673679644 ], [ 136.86848554299999, 36.673216477 ], [ 136.868457167, 36.673631167 ], [ 136.868106944, 36.674406361 ], [ 136.87005925, 36.674979528 ], [ 136.87213725, 36.675487903 ], [ 136.872236910999987, 36.676277336 ], [ 136.874337389, 36.676634222 ], [ 136.874951028, 36.676875444 ], [ 136.875786944, 36.677187028 ], [ 136.877103917, 36.677861639 ], [ 136.87771841599999, 36.678192446 ], [ 136.87788975, 36.678282806 ], [ 136.87812405599999, 36.678406 ], [ 136.878183334, 36.678416132 ], [ 136.878420455, 36.678434523 ], [ 136.87840785099999, 36.678007186 ], [ 136.87847566100001, 36.677644624 ], [ 136.876692463000012, 36.676285958 ], [ 136.874622882000011, 36.675600133 ] ] ] } },
{ "type": "Feature", "properties": { "A29_001": "16209", "A29_002": "富山県", "A29_003": "小矢部市", "A29_004": 9, "A29_005": "商業地域", "A29_006": 80, "A29_007": 400, "A29_008": null }, "geometry": { "type": "Polygon", "coordinates": [ [ [ 136.866110983999988, 36.678573825 ], [ 136.866798506, 36.678273038 ], [ 136.866850308000011, 36.678350425 ], [ 136.869364582, 36.677804055 ], [ 136.86945823799999, 36.678083273 ], [ 136.87012794099999, 36.677994788 ], [ 136.87098603699999, 36.677830466 ], [ 136.870964584, 36.677557271 ], [ 136.87091682499999, 36.677273757 ], [ 136.870794232, 36.677283468 ], [ 136.870749741, 36.676899763 ], [ 136.869153302, 36.677176155 ], [ 136.86738147, 36.677556748 ], [ 136.86657669499999, 36.676157853 ], [ 136.866665883, 36.676105489 ], [ 136.866988459999988, 36.67571571 ], [ 136.86773588599999, 36.674827126 ], [ 136.867944765, 36.674589088 ], [ 136.868106944, 36.674406361 ], [ 136.868457167, 36.673631167 ], [ 136.86848554299999, 36.673216477 ], [ 136.867477941, 36.672879594 ], [ 136.86710940899999, 36.672649758 ], [ 136.86684782099999, 36.672434909 ], [ 136.866723465, 36.672434595 ], [ 136.866123074, 36.672153 ], [ 136.866054042, 36.672283667 ], [ 136.865201874, 36.67196514 ], [ 136.865248662, 36.671854353 ], [ 136.86504811399999, 36.671868156 ], [ 136.864551299, 36.671711523 ], [ 136.864451674, 36.671876866 ], [ 136.863638947999988, 36.671629681 ], [ 136.86357913, 36.671786905 ], [ 136.863509306999987, 36.671979075 ], [ 136.863482303000012, 36.672323166 ], [ 136.863053267, 36.672654708 ], [ 136.86373447599999, 36.673236348 ], [ 136.864166691, 36.673226955 ], [ 136.864110452, 36.673377511 ], [ 136.86373532499999, 36.673588657 ], [ 136.863102446999989, 36.673963242 ], [ 136.86349846499999, 36.674129092 ], [ 136.863594869, 36.674304835 ], [ 136.863924451, 36.674502155 ], [ 136.864182633000013, 36.674790856 ], [ 136.864294857, 36.674857906 ], [ 136.86442612799999, 36.674899252 ], [ 136.864532217, 36.675021607 ], [ 136.864841481000013, 36.675268469 ], [ 136.865039459, 36.675511234 ], [ 136.865202125, 36.675700496 ], [ 136.865430073, 36.67615317 ], [ 136.86559197599999, 36.676538911 ], [ 136.86575497199999, 36.677458806 ], [ 136.865822306000013, 36.677491583 ], [ 136.86586042799999, 36.677614512 ], [ 136.865424646, 36.67777317 ], [ 136.865824922, 36.678370301 ], [ 136.865970143, 36.678327747 ], [ 136.866110983999988, 36.678573825 ] ] ] } },
{ "type": "Feature", "properties": { "A29_001": "16209", "A29_002": "富山県", "A29_003": "小矢部市", "A29_004": 9, "A29_005": "商業地域", "A29_006": 80, "A29_007": 400, "A29_008": null }, "geometry": { "type": "Polygon", "coordinates": [ [ [ 136.88296902, 36.680187113 ], [ 136.883194779, 36.679977817 ], [ 136.883274594999989, 36.680009005 ], [ 136.883363406, 36.680009216 ], [ 136.88343758100001, 36.679964088 ], [ 136.88344417499999, 36.679780498 ], [ 136.883192431, 36.679810898 ], [ 136.883146299, 36.679474577 ], [ 136.88321485899999, 36.679345978 ], [ 136.88313207499999, 36.679317167 ], [ 136.883179877, 36.679198057 ], [ 136.88304399099999, 36.679119046 ], [ 136.88307671199999, 36.679076203 ], [ 136.88303922599999, 36.678958687 ], [ 136.882898006, 36.678565499 ], [ 136.882880919, 36.678381854 ], [ 136.88222516499999, 36.678365124 ], [ 136.882154293000013, 36.678747329 ], [ 136.882044664, 36.679375973 ], [ 136.882065747000013, 36.679680045 ], [ 136.882234364999988, 36.680115615 ], [ 136.882372016, 36.680519874 ], [ 136.882866844, 36.680601769 ], [ 136.88296902, 36.680187113 ] ] ] } },
{ "type": "Feature", "properties": { "A29_001": "16209", "A29_002": "富山県", "A29_003": "小矢部市", "A29_004": 8, "A29_005": "近隣商業地域", "A29_006": 80, "A29_007": 200, "A29_008": null }, "geometry": { "type": "Polygon", "coordinates": [ [ [ 136.880335177, 36.678752876 ], [ 136.880324906999988, 36.678159821 ], [ 136.880250619, 36.677865066 ], [ 136.87941575100001, 36.677818554 ], [ 136.878542388999989, 36.677655528 ], [ 136.87847566100001, 36.677644624 ], [ 136.87840785099999, 36.678007186 ], [ 136.878420455, 36.678434523 ], [ 136.878183334, 36.678416132 ], [ 136.87812405599999, 36.678406 ], [ 136.87788975, 36.678282806 ], [ 136.87771841599999, 36.678192446 ], [ 136.877103917, 36.677861639 ], [ 136.875786944, 36.677187028 ], [ 136.874951028, 36.676875444 ], [ 136.874337389, 36.676634222 ], [ 136.872236910999987, 36.676277336 ], [ 136.87213725, 36.675487903 ], [ 136.87005925, 36.674979528 ], [ 136.869577007, 36.675642142 ], [ 136.869103937, 36.676110226 ], [ 136.866688352000011, 36.676351945 ], [ 136.86738147, 36.677556748 ], [ 136.869153302, 36.677176155 ], [ 136.870749741, 36.676899763 ], [ 136.870794232, 36.677283468 ], [ 136.87091682499999, 36.677273757 ], [ 136.870964584, 36.677557271 ], [ 136.87273594199999, 36.677796129 ], [ 136.87409327899999, 36.677976637 ], [ 136.87491011, 36.678077837 ], [ 136.875434971, 36.678157094 ], [ 136.875724641, 36.678235754 ], [ 136.876083575, 36.678393788 ], [ 136.87641659, 36.678635909 ], [ 136.876840840999989, 36.67902132 ], [ 136.87736322, 36.679449412 ], [ 136.880660944, 36.681025249 ], [ 136.88082261299999, 36.680979481 ], [ 136.880678778, 36.680438667 ], [ 136.880524857000012, 36.679675748 ], [ 136.880335177, 36.678752876 ] ] ] } },
{ "type": "Feature", "properties": { "A29_001": "16209", "A29_002": "富山県", "A29_003": "小矢部市", "A29_004": 10, "A29_005": "準工業地域", "A29_006": 60, "A29_007": 200, "A29_008": null }, "geometry": { "type": "Polygon", "coordinates": [ [ [ 136.883168625, 36.67770642 ], [ 136.882356648000012, 36.677616736 ], [ 136.88222516499999, 36.678365124 ], [ 136.882880919, 36.678381854 ], [ 136.882898006, 36.678565499 ], [ 136.88303922599999, 36.678958687 ], [ 136.883923192999987, 36.67926043 ], [ 136.88540587899999, 36.679873413 ], [ 136.886120519, 36.680198434 ], [ 136.887163877, 36.680739899 ], [ 136.888057116999988, 36.681373878 ], [ 136.889332112, 36.682286016 ], [ 136.89063249899999, 36.680836891 ], [ 136.886621807000012, 36.678862563 ], [ 136.88547278499999, 36.678313964 ], [ 136.884311806, 36.677922559 ], [ 136.883746177, 36.677787912 ], [ 136.883168625, 36.67770642 ] ] ] } },
{ "type": "Feature", "properties": { "A29_001": "16209", "A29_002": "富山県", "A29_003": "小矢部市", "A29_004": 4, "A29_005": "第二種中高層住居専用地域", "A29_006": 60, "A29_007": 200, "A29_008": null }, "geometry": { "type": "Polygon", "coordinates": [ [ [ 136.869124897, 36.68140875 ], [ 136.868857244, 36.681095172 ], [ 136.868781649, 36.680891826 ], [ 136.868732582, 36.68071859 ], [ 136.868545976, 36.680543072 ], [ 136.86827147299999, 36.680332074 ], [ 136.867938677000012, 36.680037949 ], [ 136.86765573299999, 36.679713904 ], [ 136.867387229, 36.679331236 ], [ 136.866933646, 36.679498935 ], [ 136.866524727000012, 36.678817119 ], [ 136.866334413, 36.678879597 ], [ 136.866110983999988, 36.678573825 ], [ 136.865970143, 36.678327747 ], [ 136.865824922, 36.678370301 ], [ 136.865424646, 36.67777317 ], [ 136.86586042799999, 36.677614512 ], [ 136.865822306000013, 36.677491583 ], [ 136.86575497199999, 36.677458806 ], [ 136.86559197599999, 36.676538911 ], [ 136.865430073, 36.67615317 ], [ 136.865202125, 36.675700496 ], [ 136.865039459, 36.675511234 ], [ 136.864841481000013, 36.675268469 ], [ 136.864532217, 36.675021607 ], [ 136.86442612799999, 36.674899252 ], [ 136.864294857, 36.674857906 ], [ 136.864182633000013, 36.674790856 ], [ 136.863924451, 36.674502155 ], [ 136.863594869, 36.674304835 ], [ 136.86349846499999, 36.674129092 ], [ 136.863102446999989, 36.673963242 ], [ 136.863008971999989, 36.673915917 ], [ 136.862875944, 36.673838806 ], [ 136.86268388900001, 36.673669333 ], [ 136.862621222, 36.673557583 ], [ 136.862391972000012, 36.673335306 ], [ 136.86225894399999, 36.673351194 ], [ 136.862168389, 36.673305833 ], [ 136.862043833, 36.67310625 ], [ 136.861011416, 36.673523964 ], [ 136.860072007000014, 36.673899723 ], [ 136.859336465000013, 36.673801899 ], [ 136.858633755999989, 36.673689025 ], [ 136.85686742199999, 36.673317414 ], [ 136.856629978, 36.673669573 ], [ 136.856255398, 36.673773514 ], [ 136.85607939799999, 36.673952613 ], [ 136.85604179, 36.674029772 ], [ 136.855978287, 36.674362957 ], [ 136.85616099399999, 36.674420661 ], [ 136.856173179, 36.674482212 ], [ 136.856267249000012, 36.674498195 ], [ 136.85627768099999, 36.674554019 ], [ 136.85637576799999, 36.674564766 ], [ 136.85635308799999, 36.674683931 ], [ 136.856755883, 36.674816126 ], [ 136.856910789000011, 36.674941714 ], [ 136.857457966, 36.675056399 ], [ 136.857575872000012, 36.67518189 ], [ 136.858795993, 36.675423498 ], [ 136.858868300000012, 36.675849911 ], [ 136.85893062299999, 36.675996121 ], [ 136.859019037, 36.676094709 ], [ 136.85913717299999, 36.676163568 ], [ 136.859347957000011, 36.676196899 ], [ 136.85972542, 36.67618893 ], [ 136.85995430299999, 36.67619948 ], [ 136.860283614999986, 36.676389894 ], [ 136.860596789, 36.676544498 ], [ 136.860610736000012, 36.676760329 ], [ 136.860817499, 36.676875315 ], [ 136.86111592200001, 36.676643595 ], [ 136.861170781, 36.67661989 ], [ 136.86122700199999, 36.676625996 ], [ 136.86137456599999, 36.676739637 ], [ 136.861481059, 36.676758986 ], [ 136.861563878999988, 36.676775889 ], [ 136.86193834299999, 36.677153595 ], [ 136.861938079999987, 36.67722036 ], [ 136.861917057, 36.67729661 ], [ 136.86185756099999, 36.677370376 ], [ 136.861724009999989, 36.677455875 ], [ 136.861237792, 36.677640619 ], [ 136.861022397, 36.677729179 ], [ 136.86089008799999, 36.677854038 ], [ 136.860883887999989, 36.677939058 ], [ 136.86085395, 36.678140422 ], [ 136.860823729, 36.678342793 ], [ 136.860689307, 36.67864766 ], [ 136.860616893000014, 36.678822478 ], [ 136.860633984, 36.678942987 ], [ 136.860706005999987, 36.679252605 ], [ 136.86072596599999, 36.679389665 ], [ 136.86079289700001, 36.679500854 ], [ 136.860871807, 36.679548304 ], [ 136.860939167999987, 36.679553204 ], [ 136.861030177, 36.679503824 ], [ 136.861100827, 36.679416615 ], [ 136.861224776, 36.679183076 ], [ 136.861295555999988, 36.679065157 ], [ 136.861593215, 36.678852653 ], [ 136.861812348, 36.678798252 ], [ 136.86202296799999, 36.678837896 ], [ 136.862147383, 36.678967453 ], [ 136.862259859, 36.679122255 ], [ 136.86231619099999, 36.679250922 ], [ 136.862375851, 36.67938796 ], [ 136.862448871999987, 36.67944011 ], [ 136.862542561999987, 36.67945689 ], [ 136.86266272200001, 36.67944066 ], [ 136.862819742, 36.679365471 ], [ 136.862872541, 36.679349061 ], [ 136.86292234199999, 36.679349191 ], [ 136.863001242, 36.679396631 ], [ 136.86309168299999, 36.67949372 ], [ 136.863122349, 36.679576553 ], [ 136.86312899399999, 36.679687509 ], [ 136.863008235, 36.679857268 ], [ 136.86297513299999, 36.679937426 ], [ 136.862992936000012, 36.680022587 ], [ 136.863135043, 36.680301466 ], [ 136.863305724000014, 36.680561809 ], [ 136.863447673, 36.680600322 ], [ 136.863575888000014, 36.680691978 ], [ 136.863569958, 36.680746087 ], [ 136.863360715, 36.680741033 ], [ 136.86315848800001, 36.680739077 ], [ 136.86299857, 36.680752976 ], [ 136.862889857, 36.680793553 ], [ 136.86284417499999, 36.68086823 ], [ 136.863072824999989, 36.681177852 ], [ 136.863176829999986, 36.681411711 ], [ 136.863496322, 36.681344712 ], [ 136.863836556, 36.681775333 ], [ 136.863893523, 36.681848084 ], [ 136.86406821599999, 36.681874615 ], [ 136.864775173, 36.681874978 ], [ 136.865725443, 36.681884537 ], [ 136.865817179, 36.682046436 ], [ 136.86601793, 36.682038359 ], [ 136.866222451, 36.681974494 ], [ 136.866339973, 36.681900395 ], [ 136.866510728, 36.681840737 ], [ 136.86679496799999, 36.681831438 ], [ 136.86686796699999, 36.681787271 ], [ 136.866955014000013, 36.681784629 ], [ 136.867057998, 36.681794903 ], [ 136.867143113999987, 36.681832315 ], [ 136.867244089, 36.681902672 ], [ 136.86725389099999, 36.681665203 ], [ 136.867548749, 36.681665944 ], [ 136.86797849199999, 36.681236386 ], [ 136.868046083, 36.681212234 ], [ 136.86811358599999, 36.681210973 ], [ 136.868233928, 36.681325729 ], [ 136.86880733000001, 36.681872256 ], [ 136.868892464, 36.681905375 ], [ 136.86906646599999, 36.681924409 ], [ 136.869222611999987, 36.681967719 ], [ 136.869633923, 36.682171903 ], [ 136.869654639, 36.6823279 ], [ 136.86967578299999, 36.682372304 ], [ 136.86974492600001, 36.682406813 ], [ 136.86986553700001, 36.682452895 ], [ 136.87008981, 36.682515298 ], [ 136.869124897, 36.68140875 ] ] ] } },
{ "type": "Feature", "properties": { "A29_001": "16209", "A29_002": "富山県", "A29_003": "小矢部市", "A29_004": 5, "A29_005": "第一種住居地域", "A29_006": 60, "A29_007": 200, "A29_008": null }, "geometry": { "type": "Polygon", "coordinates": [ [ [ 136.888502519000014, 36.682469116 ], [ 136.88876316299999, 36.682435388 ], [ 136.889274648, 36.682459472 ], [ 136.889332112, 36.682286016 ], [ 136.888057116999988, 36.681373878 ], [ 136.887163877, 36.680739899 ], [ 136.886120519, 36.680198434 ], [ 136.88540587899999, 36.679873413 ], [ 136.883923192999987, 36.67926043 ], [ 136.88303922599999, 36.678958687 ], [ 136.88307671199999, 36.679076203 ], [ 136.88304399099999, 36.679119046 ], [ 136.883179877, 36.679198057 ], [ 136.88313207499999, 36.679317167 ], [ 136.88321485899999, 36.679345978 ], [ 136.883146299, 36.679474577 ], [ 136.883192431, 36.679810898 ], [ 136.88344417499999, 36.679780498 ], [ 136.88343758100001, 36.679964088 ], [ 136.883363406, 36.680009216 ], [ 136.883274594999989, 36.680009005 ], [ 136.883194779, 36.679977817 ], [ 136.88296902, 36.680187113 ], [ 136.882866844, 36.680601769 ], [ 136.882372016, 36.680519874 ], [ 136.882577450000014, 36.68120912 ], [ 136.88266614, 36.681322402 ], [ 136.88281945, 36.681414762 ], [ 136.88285883, 36.681496472 ], [ 136.88315912600001, 36.681989157 ], [ 136.884098741, 36.681675447 ], [ 136.883866613, 36.681198001 ], [ 136.88413043, 36.681105633 ], [ 136.88467807, 36.681116469 ], [ 136.884944472, 36.681126637 ], [ 136.885269986999987, 36.681196324 ], [ 136.885516833, 36.681259136 ], [ 136.88570254199999, 36.681478946 ], [ 136.885862798, 36.681700824 ], [ 136.886403107, 36.682179249 ], [ 136.88673687299999, 36.68239106 ], [ 136.886913901000014, 36.682148259 ], [ 136.887446793, 36.682310224 ], [ 136.887912403, 36.682576469 ], [ 136.88821321399999, 36.682569542 ], [ 136.888502519000014, 36.682469116 ] ] ] } },
{ "type": "Feature", "properties": { "A29_001": "16209", "A29_002": "富山県", "A29_003": "小矢部市", "A29_004": 3, "A29_005": "第一種中高層住居専用地域", "A29_006": 60, "A29_007": 200, "A29_008": null }, "geometry": { "type": "Polygon", "coordinates": [ [ [ 136.875038087, 36.67853227 ], [ 136.873148689, 36.678328524 ], [ 136.87223146, 36.678204651 ], [ 136.87105670299999, 36.678076556 ], [ 136.87109116799999, 36.678353241 ], [ 136.870839780000011, 36.67829062 ], [ 136.87000326099999, 36.678460869 ], [ 136.871228852, 36.683087304 ], [ 136.874908366999989, 36.683358668 ], [ 136.87474308099999, 36.682677019 ], [ 136.874691307, 36.6822763 ], [ 136.874696574000012, 36.681822785 ], [ 136.874772379, 36.681034663 ], [ 136.875038087, 36.67853227 ] ] ] } },
{ "type": "Feature", "properties": { "A29_001": "16209", "A29_002": "富山県", "A29_003": "小矢部市", "A29_004": 3, "A29_005": "第一種中高層住居専用地域", "A29_006": 60, "A29_007": 200, "A29_008": null }, "geometry": { "type": "Polygon", "coordinates": [ [ [ 136.876617535, 36.679488549 ], [ 136.87636634099999, 36.679292849 ], [ 136.87583662, 36.679440586 ], [ 136.87569353, 36.681079564 ], [ 136.875659727, 36.682194224 ], [ 136.875680179, 36.682659247 ], [ 136.875936034, 36.68344556 ], [ 136.876539223, 36.683510812 ], [ 136.877543572, 36.683617177 ], [ 136.877927282, 36.683625199 ], [ 136.878895817, 36.683546218 ], [ 136.881067320999989, 36.682916698 ], [ 136.880458632, 36.681401094 ], [ 136.877152446999986, 36.679789818 ], [ 136.876617535, 36.679488549 ] ] ] } },
{ "type": "Feature", "properties": { "A29_001": "16209", "A29_002": "富山県", "A29_003": "小矢部市", "A29_004": 3, "A29_005": "第一種中高層住居専用地域", "A29_006": 60, "A29_007": 200, "A29_008": null }, "geometry": { "type": "Polygon", "coordinates": [ [ [ 136.88467807, 36.681116469 ], [ 136.88413043, 36.681105633 ], [ 136.883866613, 36.681198001 ], [ 136.884098741, 36.681675447 ], [ 136.88315912600001, 36.681989157 ], [ 136.88434079000001, 36.684546175 ], [ 136.88477046599999, 36.684434209 ], [ 136.885835499, 36.683994167 ], [ 136.885922217, 36.683919976 ], [ 136.885988921, 36.683813309 ], [ 136.885985881000011, 36.68367214 ], [ 136.885925844000013, 36.683573759 ], [ 136.885807847, 36.683457118 ], [ 136.885603889, 36.683206744 ], [ 136.886643179, 36.68251221 ], [ 136.88673687299999, 36.68239106 ], [ 136.886403107, 36.682179249 ], [ 136.885862798, 36.681700824 ], [ 136.88570254199999, 36.681478946 ], [ 136.885516833, 36.681259136 ], [ 136.885269986999987, 36.681196324 ], [ 136.884944472, 36.681126637 ], [ 136.88467807, 36.681116469 ] ] ] } },
{ "type": "Feature", "properties": { "A29_001": "16209", "A29_002": "富山県", "A29_003": "小矢部市", "A29_004": 3, "A29_005": "第一種中高層住居専用地域", "A29_006": 60, "A29_007": 200, "A29_008": null }, "geometry": { "type": "Polygon", "coordinates": [ [ [ 136.87431498699999, 36.687218203 ], [ 136.875235575, 36.686965137 ], [ 136.87568262100001, 36.686968615 ], [ 136.876343397, 36.686822391 ], [ 136.876770219, 36.686692284 ], [ 136.877320733, 36.686592753 ], [ 136.87636295199999, 36.68555819 ], [ 136.876157914, 36.685286814 ], [ 136.875942898, 36.685464647 ], [ 136.87570423299999, 36.685161236 ], [ 136.875368490999989, 36.684693058 ], [ 136.875134886000012, 36.684050272 ], [ 136.87145737899999, 36.683777326 ], [ 136.871740461, 36.684266845 ], [ 136.873586550999988, 36.686363779 ], [ 136.87431498699999, 36.687218203 ] ] ] } },
{ "type": "Feature", "properties": { "A29_001": "16209", "A29_002": "富山県", "A29_003": "小矢部市", "A29_004": 3, "A29_005": "第一種中高層住居専用地域", "A29_006": 60, "A29_007": 200, "A29_008": null }, "geometry": { "type": "Polygon", "coordinates": [ [ [ 136.882529094, 36.68538461 ], [ 136.88173594599999, 36.683486102 ], [ 136.879311628000011, 36.684121761 ], [ 136.878820170000012, 36.684203077 ], [ 136.87806586, 36.68427207 ], [ 136.87767983399999, 36.684259582 ], [ 136.877291695, 36.684258649 ], [ 136.876858266, 36.684229245 ], [ 136.876178888, 36.684170911 ], [ 136.87634584, 36.684570717 ], [ 136.876625195, 36.685041199 ], [ 136.877489187, 36.686000369 ], [ 136.878555116, 36.687585906 ], [ 136.882910471, 36.68657055 ], [ 136.882851190999986, 36.686194729 ], [ 136.882529094, 36.68538461 ] ] ] } },
{ "type": "Feature", "properties": { "A29_001": "16209", "A29_002": "富山県", "A29_003": "小矢部市", "A29_004": 5, "A29_005": "第一種住居地域", "A29_006": 60, "A29_007": 200, "A29_008": null }, "geometry": { "type": "Polygon", "coordinates": [ [ [ 136.877489187, 36.686000369 ], [ 136.876625195, 36.685041199 ], [ 136.87634584, 36.684570717 ], [ 136.876178888, 36.684170911 ], [ 136.876858266, 36.684229245 ], [ 136.877291695, 36.684258649 ], [ 136.87767983399999, 36.684259582 ], [ 136.87806586, 36.68427207 ], [ 136.878820170000012, 36.684203077 ], [ 136.879311628000011, 36.684121761 ], [ 136.88173594599999, 36.683486102 ], [ 136.88162803899999, 36.683223415 ], [ 136.881737875999988, 36.683195438 ], [ 136.88123455499999, 36.682124738 ], [ 136.88082261299999, 36.680979481 ], [ 136.880660944, 36.681025249 ], [ 136.87736322, 36.679449412 ], [ 136.876840840999989, 36.67902132 ], [ 136.87641659, 36.678635909 ], [ 136.876083575, 36.678393788 ], [ 136.875724641, 36.678235754 ], [ 136.875434971, 36.678157094 ], [ 136.87491011, 36.678077837 ], [ 136.87409327899999, 36.677976637 ], [ 136.87273594199999, 36.677796129 ], [ 136.870964584, 36.677557271 ], [ 136.87098603699999, 36.677830466 ], [ 136.87012794099999, 36.677994788 ], [ 136.86945823799999, 36.678083273 ], [ 136.869364582, 36.677804055 ], [ 136.866850308000011, 36.678350425 ], [ 136.866798506, 36.678273038 ], [ 136.866110983999988, 36.678573825 ], [ 136.866334413, 36.678879597 ], [ 136.866524727000012, 36.678817119 ], [ 136.866933646, 36.679498935 ], [ 136.867387229, 36.679331236 ], [ 136.86765573299999, 36.679713904 ], [ 136.867938677000012, 36.680037949 ], [ 136.86827147299999, 36.680332074 ], [ 136.868545976, 36.680543072 ], [ 136.868732582, 36.68071859 ], [ 136.868781649, 36.680891826 ], [ 136.868857244, 36.681095172 ], [ 136.869124897, 36.68140875 ], [ 136.87008981, 36.682515298 ], [ 136.870530583, 36.683066971 ], [ 136.870626225, 36.683448725 ], [ 136.87052871099999, 36.683555307 ], [ 136.87050556, 36.683890597 ], [ 136.87056381, 36.683975777 ], [ 136.87066272199999, 36.684017333 ], [ 136.87084414099999, 36.684061599 ], [ 136.870961531, 36.684149186 ], [ 136.871051849, 36.684248104 ], [ 136.871126984999989, 36.684419019 ], [ 136.871175963000013, 36.684617529 ], [ 136.871249224, 36.684752193 ], [ 136.87145031599999, 36.685024302 ], [ 136.871584514, 36.685239459 ], [ 136.871587105, 36.685491266 ], [ 136.87155499799999, 36.685603515 ], [ 136.87153524499999, 36.685659263 ], [ 136.871440818999986, 36.685731994 ], [ 136.871401515, 36.685790554 ], [ 136.871417224, 36.685863558 ], [ 136.871464, 36.6859705 ], [ 136.87192312900001, 36.685957806 ], [ 136.87200298799999, 36.685978033 ], [ 136.872073803, 36.686041159 ], [ 136.872194146999988, 36.686158772 ], [ 136.87228640399999, 36.686189045 ], [ 136.872378649000012, 36.686222179 ], [ 136.87256763, 36.686508782 ], [ 136.872618845, 36.686587597 ], [ 136.872732353, 36.686635089 ], [ 136.872856514, 36.686684039 ], [ 136.872964599999989, 36.68675584 ], [ 136.873084979999987, 36.686864869 ], [ 136.873162982999986, 36.686906551 ], [ 136.87329613, 36.686928339 ], [ 136.873331565, 36.686952748 ], [ 136.873338545, 36.686985671 ], [ 136.87333422, 36.687033211 ], [ 136.8730785, 36.687323486 ], [ 136.87340791299999, 36.687585673 ], [ 136.87377729100001, 36.687277439 ], [ 136.87393260499999, 36.687336319 ], [ 136.87431498699999, 36.687218203 ], [ 136.873586550999988, 36.686363779 ], [ 136.871740461, 36.684266845 ], [ 136.87145737899999, 36.683777326 ], [ 136.875134886000012, 36.684050272 ], [ 136.875368490999989, 36.684693058 ], [ 136.87570423299999, 36.685161236 ], [ 136.875942898, 36.685464647 ], [ 136.876157914, 36.685286814 ], [ 136.87636295199999, 36.68555819 ], [ 136.877320733, 36.686592753 ], [ 136.878006311, 36.6877162 ], [ 136.878555116, 36.687585906 ], [ 136.877489187, 36.686000369 ] ], [ [ 136.875936034, 36.68344556 ], [ 136.875680179, 36.682659247 ], [ 136.875659727, 36.682194224 ], [ 136.87569353, 36.681079564 ], [ 136.87583662, 36.679440586 ], [ 136.87636634099999, 36.679292849 ], [ 136.876617535, 36.679488549 ], [ 136.877152446999986, 36.679789818 ], [ 136.880458632, 36.681401094 ], [ 136.881067320999989, 36.682916698 ], [ 136.878895817, 36.683546218 ], [ 136.877927282, 36.683625199 ], [ 136.877543572, 36.683617177 ], [ 136.876539223, 36.683510812 ], [ 136.875936034, 36.68344556 ] ], [ [ 136.87474308099999, 36.682677019 ], [ 136.874908366999989, 36.683358668 ], [ 136.871228852, 36.683087304 ], [ 136.87000326099999, 36.678460869 ], [ 136.870839780000011, 36.67829062 ], [ 136.87109116799999, 36.678353241 ], [ 136.87105670299999, 36.678076556 ], [ 136.87223146, 36.678204651 ], [ 136.873148689, 36.678328524 ], [ 136.875038087, 36.67853227 ], [ 136.874772379, 36.681034663 ], [ 136.874696574000012, 36.681822785 ], [ 136.874691307, 36.6822763 ], [ 136.87474308099999, 36.682677019 ] ] ] } },
{ "type": "Feature", "properties": { "A29_001": "16209", "A29_002": "富山県", "A29_003": "小矢部市", "A29_004": 10, "A29_005": "準工業地域", "A29_006": 60, "A29_007": 200, "A29_008": null }, "geometry": { "type": "Polygon", "coordinates": [ [ [ 136.882910471, 36.68657055 ], [ 136.878555116, 36.687585906 ], [ 136.878006311, 36.6877162 ], [ 136.879214722, 36.690034367 ], [ 136.87925386, 36.690341166 ], [ 136.879278762000013, 36.690336465 ], [ 136.879354213, 36.690334717 ], [ 136.87947943399999, 36.690345446 ], [ 136.88009498299999, 36.690388724 ], [ 136.880237775000012, 36.690404896 ], [ 136.88057863899999, 36.6904435 ], [ 136.880945028000014, 36.6904725 ], [ 136.881007204000014, 36.690473708 ], [ 136.88128536100001, 36.690479111 ], [ 136.881797471999988, 36.690469194 ], [ 136.882076219, 36.690460912 ], [ 136.882106889, 36.69046 ], [ 136.882382889000013, 36.69046 ], [ 136.88249769399999, 36.69046 ], [ 136.882887003, 36.69046877 ], [ 136.882965055999989, 36.690470528 ], [ 136.883333333, 36.690480833 ], [ 136.88333797199999, 36.690480861 ], [ 136.883794083, 36.690483444 ], [ 136.883861485000011, 36.690485657 ], [ 136.88447936099999, 36.690505944 ], [ 136.88468161599999, 36.690507526 ], [ 136.884969582999986, 36.690509778 ], [ 136.885236306, 36.690516194 ], [ 136.885403, 36.690504639 ], [ 136.884728824, 36.689722071 ], [ 136.884396178, 36.689196699 ], [ 136.883796453, 36.688031652 ], [ 136.883702297000013, 36.687871669 ], [ 136.883510378000011, 36.687728144 ], [ 136.883342618, 36.687455915 ], [ 136.883086915, 36.686945029 ], [ 136.882910471, 36.68657055 ] ] ] } },
{ "type": "Feature", "properties": { "A29_001": "16209", "A29_002": "富山県", "A29_003": "小矢部市", "A29_004": 12, "A29_005": "工業専用地域", "A29_006": 60, "A29_007": 200, "A29_008": null }, "geometry": { "type": "Polygon", "coordinates": [ [ [ 136.816888221999989, 36.626890417 ], [ 136.816868722, 36.626955833 ], [ 136.816834556, 36.627051111 ], [ 136.81679141699999, 36.627188083 ], [ 136.816781416999987, 36.627302722 ], [ 136.816769806, 36.627457194 ], [ 136.816773332999986, 36.627538472 ], [ 136.816800222000012, 36.627644361 ], [ 136.816833167, 36.627777778 ], [ 136.816876306000012, 36.627979194 ], [ 136.81686200499999, 36.62828716 ], [ 136.81744422, 36.62828696 ], [ 136.817496081, 36.628332894 ], [ 136.817533372000014, 36.628460812 ], [ 136.817656043999989, 36.628548921 ], [ 136.81770525499999, 36.628657798 ], [ 136.81793869, 36.628851149 ], [ 136.818028591, 36.628859042 ], [ 136.81815164299999, 36.628863217 ], [ 136.81846975900001, 36.629173178 ], [ 136.81870120799999, 36.629282587 ], [ 136.818724515000014, 36.629362774 ], [ 136.818963572, 36.629359657 ], [ 136.819130957999988, 36.629505122 ], [ 136.819265341, 36.629555588 ], [ 136.81948787799999, 36.629410187 ], [ 136.81970993199999, 36.629372086 ], [ 136.81996887299999, 36.629354956 ], [ 136.820179313000011, 36.629433064 ], [ 136.820456237, 36.629529249 ], [ 136.820603465, 36.629684668 ], [ 136.820672768, 36.629899474 ], [ 136.821079752, 36.629855946 ], [ 136.82118716, 36.629918612 ], [ 136.821321993999987, 36.629934741 ], [ 136.821438988000011, 36.629970847 ], [ 136.821511921, 36.630149449 ], [ 136.821699661, 36.630030261 ], [ 136.82187891, 36.630037933 ], [ 136.82223223, 36.630020356 ], [ 136.822269842999987, 36.629944638 ], [ 136.822332117, 36.629911912 ], [ 136.822394167999988, 36.629929259 ], [ 136.82242235199999, 36.629977984 ], [ 136.82248229699999, 36.630069722 ], [ 136.822569173, 36.630092864 ], [ 136.822688026, 36.630110376 ], [ 136.822748232, 36.630143456 ], [ 136.822790680999987, 36.630177915 ], [ 136.822842107000014, 36.630189509 ], [ 136.822913199, 36.630169684 ], [ 136.82299501, 36.630134153 ], [ 136.82312104, 36.630134516 ], [ 136.823211543000014, 36.6301405 ], [ 136.82334855900001, 36.630065068 ], [ 136.82340725, 36.630039485 ], [ 136.82361850800001, 36.63003437 ], [ 136.823638382000013, 36.629955739 ], [ 136.823729069, 36.629920233 ], [ 136.823778878000013, 36.629896054 ], [ 136.82390552199999, 36.629757641 ], [ 136.824310301, 36.629342472 ], [ 136.82429692299999, 36.629156444 ], [ 136.824153157000012, 36.629153169 ], [ 136.824150006, 36.629063026 ], [ 136.823983475, 36.628989582 ], [ 136.82388425100001, 36.628949237 ], [ 136.823690854, 36.628930081 ], [ 136.82361996099999, 36.628905555 ], [ 136.823586425, 36.628862538 ], [ 136.823602564999987, 36.628825386 ], [ 136.8236595, 36.628795505 ], [ 136.823700363, 36.628787039 ], [ 136.82369895, 36.628705485 ], [ 136.823725696, 36.628678379 ], [ 136.823727698999988, 36.62862688 ], [ 136.823687032, 36.628590995 ], [ 136.82362331499999, 36.628549321 ], [ 136.823231002, 36.628555345 ], [ 136.823181384, 36.628536603 ], [ 136.82312464, 36.628523563 ], [ 136.823092588, 36.628546362 ], [ 136.82307111599999, 36.628584928 ], [ 136.823054164000013, 36.628604909 ], [ 136.823025773000012, 36.628602681 ], [ 136.823007244, 36.628578306 ], [ 136.822998275, 36.628399443 ], [ 136.82302019799999, 36.628259298 ], [ 136.823167127, 36.627949261 ], [ 136.823204479, 36.6279322 ], [ 136.823295073999986, 36.627916723 ], [ 136.82338037, 36.627895509 ], [ 136.823407844, 36.627871028 ], [ 136.823413124000012, 36.627847794 ], [ 136.82341177399999, 36.62781858 ], [ 136.82339933099999, 36.627789334 ], [ 136.823283126, 36.627642353 ], [ 136.823287719, 36.62747414 ], [ 136.82326428499999, 36.627421614 ], [ 136.823207962999987, 36.627313672 ], [ 136.823156146, 36.627257249 ], [ 136.823098374000011, 36.627209392 ], [ 136.823011003, 36.627165266 ], [ 136.82291528799999, 36.627134468 ], [ 136.822777304999988, 36.627029152 ], [ 136.822592176, 36.627147842 ], [ 136.82255403799999, 36.627208775 ], [ 136.82249482899999, 36.627218142 ], [ 136.82243797000001, 36.627231331 ], [ 136.822112667, 36.627470748 ], [ 136.82181894499999, 36.627527126 ], [ 136.821738657, 36.627486834 ], [ 136.821732322, 36.627315132 ], [ 136.82193653499999, 36.627163116 ], [ 136.822128684, 36.627062569 ], [ 136.82214480799999, 36.626953788 ], [ 136.822224123000012, 36.626889254 ], [ 136.822335525, 36.626851424 ], [ 136.822380872999986, 36.626765713 ], [ 136.822376420000012, 36.626702749 ], [ 136.822374384, 36.626628347 ], [ 136.822153125, 36.626356829 ], [ 136.822070489, 36.626312715 ], [ 136.821961742000013, 36.626285695 ], [ 136.821911491, 36.626409543 ], [ 136.821727089, 36.626365134 ], [ 136.821760833000013, 36.626227885 ], [ 136.821469535, 36.626221208 ], [ 136.821358774, 36.626274712 ], [ 136.821236583, 36.626336472 ], [ 136.821111508, 36.626420579 ], [ 136.820955054, 36.626477353 ], [ 136.820751148, 36.626560695 ], [ 136.820677816999989, 36.626552852 ], [ 136.820406464, 36.626370842 ], [ 136.820407155, 36.626216329 ], [ 136.82055166399999, 36.626184319 ], [ 136.82038447, 36.625996889 ], [ 136.82014248499999, 36.62612781 ], [ 136.81984314499999, 36.625854153 ], [ 136.819582792, 36.625859117 ], [ 136.819372539, 36.62577457 ], [ 136.819232806, 36.625797054 ], [ 136.81869844799999, 36.625684854 ], [ 136.81862298199999, 36.625625498 ], [ 136.818571294, 36.625541413 ], [ 136.81850764399999, 36.625485907 ], [ 136.818155776, 36.62531701 ], [ 136.81775865099999, 36.625212837 ], [ 136.817464883000014, 36.625805239 ], [ 136.817438669000012, 36.62636981 ], [ 136.817253580999989, 36.626478001 ], [ 136.817272325, 36.626520023 ], [ 136.816949367, 36.62676134 ], [ 136.816888221999989, 36.626890417 ] ] ] } },
{ "type": "Feature", "properties": { "A29_001": "16209", "A29_002": "富山県", "A29_003": "小矢部市", "A29_004": 8, "A29_005": "近隣商業地域", "A29_006": 80, "A29_007": 300, "A29_008": null }, "geometry": { "type": "Polygon", "coordinates": [ [ [ 136.869103937, 36.676110226 ], [ 136.869577007, 36.675642142 ], [ 136.87005925, 36.674979528 ], [ 136.868106944, 36.674406361 ], [ 136.867944765, 36.674589088 ], [ 136.86773588599999, 36.674827126 ], [ 136.866988459999988, 36.67571571 ], [ 136.866665883, 36.676105489 ], [ 136.86657669499999, 36.676157853 ], [ 136.866688352000011, 36.676351945 ], [ 136.869103937, 36.676110226 ] ] ] } },
{ "type": "Feature", "properties": { "A29_001": "16209", "A29_002": "富山県", "A29_003": "小矢部市", "A29_004": 5, "A29_005": "第一種住居地域", "A29_006": 60, "A29_007": 200, "A29_008": null }, "geometry": { "type": "Polygon", "coordinates": [ [ [ 136.869702499999988, 36.672372306 ], [ 136.869759194000011, 36.672730472 ], [ 136.869795888999988, 36.672887306 ], [ 136.869725778, 36.672889167 ], [ 136.86926175, 36.672683194 ], [ 136.868973638999989, 36.672555306 ], [ 136.868931003, 36.672536721 ], [ 136.86848554299999, 36.673216477 ], [ 136.869434866, 36.673679644 ], [ 136.870661778999988, 36.674114768 ], [ 136.871093551, 36.673417426 ], [ 136.87155468899999, 36.67358596 ], [ 136.87185582399999, 36.673098072 ], [ 136.870846878, 36.672668803 ], [ 136.870818606, 36.672708076 ], [ 136.86968865, 36.67225514 ], [ 136.869702499999988, 36.672372306 ] ] ] } },
{ "type": "Feature", "properties": { "A29_001": "16209", "A29_002": "富山県", "A29_003": "小矢部市", "A29_004": 6, "A29_005": "第二種住居地域", "A29_006": 60, "A29_007": 200, "A29_008": null }, "geometry": { "type": "Polygon", "coordinates": [ [ [ 136.86848554299999, 36.673216477 ], [ 136.868931003, 36.672536721 ], [ 136.868973638999989, 36.672555306 ], [ 136.86926175, 36.672683194 ], [ 136.869725778, 36.672889167 ], [ 136.869795888999988, 36.672887306 ], [ 136.869759194000011, 36.672730472 ], [ 136.869702499999988, 36.672372306 ], [ 136.869523722, 36.672395028 ], [ 136.86917480599999, 36.672263444 ], [ 136.86828530599999, 36.671932 ], [ 136.867275833, 36.671533639 ], [ 136.867245348000012, 36.67152208 ], [ 136.866759746000014, 36.672351543 ], [ 136.86684782099999, 36.672434909 ], [ 136.86710940899999, 36.672649758 ], [ 136.867477941, 36.672879594 ], [ 136.86848554299999, 36.673216477 ] ] ] } },
{ "type": "Feature", "properties": { "A29_001": "16209", "A29_002": "富山県", "A29_003": "小矢部市", "A29_004": 8, "A29_005": "近隣商業地域", "A29_006": 80, "A29_007": 200, "A29_008": null }, "geometry": { "type": "Polygon", "coordinates": [ [ [ 136.866759746000014, 36.672351543 ], [ 136.867245348000012, 36.67152208 ], [ 136.866192199000011, 36.671122737 ], [ 136.866272554, 36.670985892 ], [ 136.865569756000014, 36.670715708 ], [ 136.864912731, 36.671825474 ], [ 136.86504811399999, 36.671868156 ], [ 136.865248662, 36.671854353 ], [ 136.865201874, 36.67196514 ], [ 136.866054042, 36.672283667 ], [ 136.866123074, 36.672153 ], [ 136.866723465, 36.672434595 ], [ 136.86684782099999, 36.672434909 ], [ 136.866759746000014, 36.672351543 ] ] ] } },
{ "type": "Feature", "properties": { "A29_001": "16209", "A29_002": "富山県", "A29_003": "小矢部市", "A29_004": 8, "A29_005": "近隣商業地域", "A29_006": 80, "A29_007": 200, "A29_008": null }, "geometry": { "type": "Polygon", "coordinates": [ [ [ 136.864110452, 36.673377511 ], [ 136.864166691, 36.673226955 ], [ 136.86373447599999, 36.673236348 ], [ 136.863053267, 36.672654708 ], [ 136.863482303000012, 36.672323166 ], [ 136.863509306999987, 36.671979075 ], [ 136.86357913, 36.671786905 ], [ 136.863243729, 36.671714863 ], [ 136.862823703, 36.671637489 ], [ 136.862377047, 36.67155766 ], [ 136.861885906999987, 36.671499177 ], [ 136.861400573999987, 36.67146932 ], [ 136.860835208, 36.67146787 ], [ 136.860331763, 36.671484912 ], [ 136.86076301599999, 36.672015375 ], [ 136.86102526499999, 36.672173567 ], [ 136.86109737699999, 36.672206903 ], [ 136.861180037, 36.67226315 ], [ 136.861259628999989, 36.672346811 ], [ 136.861331793, 36.672437606 ], [ 136.861443946, 36.67252135 ], [ 136.861541463, 36.672563328 ], [ 136.861744007, 36.672619883 ], [ 136.862043833, 36.67310625 ], [ 136.862168389, 36.673305833 ], [ 136.86225894399999, 36.673351194 ], [ 136.862391972000012, 36.673335306 ], [ 136.862621222, 36.673557583 ], [ 136.86268388900001, 36.673669333 ], [ 136.862875944, 36.673838806 ], [ 136.863008971999989, 36.673915917 ], [ 136.863102446999989, 36.673963242 ], [ 136.86373532499999, 36.673588657 ], [ 136.864110452, 36.673377511 ] ] ] } },
{ "type": "Feature", "properties": { "A29_001": "16209", "A29_002": "富山県", "A29_003": "小矢部市", "A29_004": 6, "A29_005": "第二種住居地域", "A29_006": 60, "A29_007": 200, "A29_008": null }, "geometry": { "type": "Polygon", "coordinates": [ [ [ 136.864451674, 36.671876866 ], [ 136.864551299, 36.671711523 ], [ 136.864912731, 36.671825474 ], [ 136.865569756000014, 36.670715708 ], [ 136.864139795999989, 36.670165955 ], [ 136.86415914299999, 36.670062994 ], [ 136.86366221899999, 36.669972075 ], [ 136.863475768, 36.671020771 ], [ 136.862995377, 36.670939429 ], [ 136.862991502999989, 36.671023755 ], [ 136.862325139, 36.670901611 ], [ 136.862254393, 36.670886032 ], [ 136.862289279, 36.669844581 ], [ 136.86206903499999, 36.66984974 ], [ 136.861948095, 36.669893306 ], [ 136.861715761, 36.669999178 ], [ 136.858971738, 36.669978475 ], [ 136.859048156, 36.670082718 ], [ 136.860211101, 36.671499767 ], [ 136.860331763, 36.671484912 ], [ 136.860835208, 36.67146787 ], [ 136.861400573999987, 36.67146932 ], [ 136.861885906999987, 36.671499177 ], [ 136.862377047, 36.67155766 ], [ 136.862823703, 36.671637489 ], [ 136.863243729, 36.671714863 ], [ 136.86357913, 36.671786905 ], [ 136.863638947999988, 36.671629681 ], [ 136.864451674, 36.671876866 ] ] ] } },
{ "type": "Feature", "properties": { "A29_001": "16209", "A29_002": "富山県", "A29_003": "小矢部市", "A29_004": 3, "A29_005": "第一種中高層住居専用地域", "A29_006": 60, "A29_007": 200, "A29_008": null }, "geometry": { "type": "Polygon", "coordinates": [ [ [ 136.854706203, 36.669571639 ], [ 136.85491044299999, 36.669864869 ], [ 136.855054943, 36.669998778 ], [ 136.855181512, 36.670043448 ], [ 136.855260711999989, 36.670060359 ], [ 136.855336333, 36.670126528 ], [ 136.855398861, 36.670179778 ], [ 136.855827389000012, 36.670544722 ], [ 136.855866944000013, 36.670578417 ], [ 136.8560515, 36.670802333 ], [ 136.856210444, 36.671018028 ], [ 136.856325078999987, 36.671193235 ], [ 136.85809429299999, 36.670633447 ], [ 136.858565376, 36.670442893 ], [ 136.858702685999987, 36.670340119 ], [ 136.858340629, 36.669894671 ], [ 136.85768044299999, 36.668822611 ], [ 136.857407997, 36.668485096 ], [ 136.857094996, 36.668297101 ], [ 136.854706203, 36.669571639 ] ] ] } },
{ "type": "Feature", "properties": { "A29_001": "16209", "A29_002": "富山県", "A29_003": "小矢部市", "A29_004": 6, "A29_005": "第二種住居地域", "A29_006": 60, "A29_007": 200, "A29_008": null }, "geometry": { "type": "Polygon", "coordinates": [ [ [ 136.867178959, 36.666234656 ], [ 136.866578663000013, 36.665252884 ], [ 136.866345306999989, 36.66486552 ], [ 136.86624905299999, 36.664690269 ], [ 136.86605068, 36.664478981 ], [ 136.865861001000013, 36.664344155 ], [ 136.865422669999987, 36.663856475 ], [ 136.865176251, 36.663519639 ], [ 136.865050311, 36.663519319 ], [ 136.865050072, 36.663580601 ], [ 136.86477703700001, 36.663580624 ], [ 136.864822624999988, 36.663957727 ], [ 136.864823159999986, 36.664426994 ], [ 136.864767304, 36.664936178 ], [ 136.863342681, 36.665028176 ], [ 136.861796207999987, 36.665020651 ], [ 136.86059178299999, 36.664965103 ], [ 136.859138938, 36.664858828 ], [ 136.85911849499999, 36.665533583 ], [ 136.861018245999986, 36.665650544 ], [ 136.862296307, 36.665687439 ], [ 136.862053078, 36.669124444 ], [ 136.86289195, 36.669120387 ], [ 136.863169930999987, 36.665718282 ], [ 136.86407665199999, 36.665687206 ], [ 136.864401945999987, 36.665609344 ], [ 136.864466935, 36.666247597 ], [ 136.864459882, 36.66714319 ], [ 136.86437805, 36.66793187 ], [ 136.86432010499999, 36.668371797 ], [ 136.864215588, 36.668757817 ], [ 136.86412554399999, 36.669151664 ], [ 136.86453994499999, 36.669150331 ], [ 136.86445878699999, 36.669467261 ], [ 136.864875554, 36.66961854 ], [ 136.865185888000013, 36.668447791 ], [ 136.865282557, 36.667378 ], [ 136.865319523000011, 36.666665372 ], [ 136.865256953999989, 36.66555643 ], [ 136.866165286000012, 36.665508466 ], [ 136.867403478999989, 36.667377625 ], [ 136.86752675299999, 36.667655174 ], [ 136.86756458799999, 36.667877006 ], [ 136.86758728, 36.668068394 ], [ 136.867560142, 36.668269113 ], [ 136.867492013, 36.668465012 ], [ 136.86722937799999, 36.668969879 ], [ 136.86645397699999, 36.670264034 ], [ 136.869482604000012, 36.67143466 ], [ 136.868941201000013, 36.670591587 ], [ 136.869148502, 36.670565875 ], [ 136.869154688, 36.670496741 ], [ 136.869459815, 36.670433122 ], [ 136.87005925, 36.670425078 ], [ 136.869656807000013, 36.670201484 ], [ 136.869258351000013, 36.669903622 ], [ 136.868963678999989, 36.669600513 ], [ 136.868637266, 36.669169766 ], [ 136.868465684, 36.668848077 ], [ 136.868378791999987, 36.668595099 ], [ 136.86823962599999, 36.668112713 ], [ 136.86801887199999, 36.667630266 ], [ 136.867682046, 36.667022799 ], [ 136.867178959, 36.666234656 ] ] ] } }
]
}
