{
"type": "FeatureCollection",
"name": "A29-19_16342",
"features": [
{ "type": "Feature", "properties": { "A29_001": "16342", "A29_002": "富山県", "A29_003": "入善町", "A29_004": 11, "A29_005": "工業地域", "A29_006": 60, "A29_007": 200, "A29_008": null }, "geometry": { "type": "Polygon", "coordinates": [ [ [ 137.504437878, 36.928990963 ], [ 137.49994533899999, 36.927867499 ], [ 137.499764897, 36.928204798 ], [ 137.49963182799999, 36.928167021 ], [ 137.49942611, 36.928326754 ], [ 137.49904663800001, 36.928826151 ], [ 137.49890172100001, 36.928796156 ], [ 137.49885702200001, 36.928932786 ], [ 137.498640709999989, 36.928876166 ], [ 137.498602436, 36.929295923 ], [ 137.498420813, 36.929483176 ], [ 137.501944156, 36.932260997 ], [ 137.502455828, 36.931978944 ], [ 137.503021322, 36.931699771 ], [ 137.503281912, 36.931557487 ], [ 137.503359297, 36.931509097 ], [ 137.50346316, 36.931421177 ], [ 137.503529178, 36.931338729 ], [ 137.503577713, 36.931248442 ], [ 137.50373179499999, 36.930845821 ], [ 137.504437878, 36.928990963 ] ] ] } },
{ "type": "Feature", "properties": { "A29_001": "16342", "A29_002": "富山県", "A29_003": "入善町", "A29_004": 5, "A29_005": "第一種住居地域", "A29_006": 60, "A29_007": 200, "A29_008": null }, "geometry": { "type": "Polygon", "coordinates": [ [ [ 137.506921629, 36.932648333 ], [ 137.506926203, 36.932474499 ], [ 137.506481205, 36.932591653 ], [ 137.506386018, 36.932224971 ], [ 137.505908583, 36.93226067 ], [ 137.505826015, 36.931350341 ], [ 137.50373179499999, 36.930845821 ], [ 137.503577713, 36.931248442 ], [ 137.503529178, 36.931338729 ], [ 137.50346316, 36.931421177 ], [ 137.503359297, 36.931509097 ], [ 137.503281912, 36.931557487 ], [ 137.503021322, 36.931699771 ], [ 137.502455828, 36.931978944 ], [ 137.503343569, 36.932716541 ], [ 137.50500687600001, 36.932724213 ], [ 137.504410549, 36.933750952 ], [ 137.505405747, 36.934532338 ], [ 137.50549906399999, 36.934465985 ], [ 137.507098374, 36.933321213 ], [ 137.507607621, 36.932957685 ], [ 137.507366195, 36.932934614 ], [ 137.507110692, 36.932885275 ], [ 137.506873449000011, 36.932834452 ], [ 137.506921629, 36.932648333 ] ] ] } },
{ "type": "Feature", "properties": { "A29_001": "16342", "A29_002": "富山県", "A29_003": "入善町", "A29_004": 3, "A29_005": "第一種中高層住居専用地域", "A29_006": 60, "A29_007": 200, "A29_008": null }, "geometry": { "type": "Polygon", "coordinates": [ [ [ 137.50357003900001, 36.934526592 ], [ 137.499446944, 36.931189901 ], [ 137.49851984, 36.932543945 ], [ 137.49804407799999, 36.933241987 ], [ 137.499226684, 36.933449484 ], [ 137.49948323699999, 36.933511607 ], [ 137.499769208, 36.933624087 ], [ 137.499948891, 36.933725298 ], [ 137.500198885, 36.933908253 ], [ 137.50046442199999, 36.934147315 ], [ 137.500875987, 36.934531949 ], [ 137.501584837, 36.935163296 ], [ 137.50264568899999, 36.936124297 ], [ 137.50357003900001, 36.934526592 ] ] ] } },
{ "type": "Feature", "properties": { "A29_001": "16342", "A29_002": "富山県", "A29_003": "入善町", "A29_004": 3, "A29_005": "第一種中高層住居専用地域", "A29_006": 60, "A29_007": 200, "A29_008": null }, "geometry": { "type": "Polygon", "coordinates": [ [ [ 137.510477071999986, 36.936605321 ], [ 137.511232661, 36.932624341 ], [ 137.509890143, 36.93245397 ], [ 137.509849441, 36.932650202 ], [ 137.50871419, 36.932502069 ], [ 137.50859130500001, 36.932752186 ], [ 137.50830319799999, 36.932751227 ], [ 137.507961459, 36.932712271 ], [ 137.507607621, 36.932957685 ], [ 137.507098374, 36.933321213 ], [ 137.50549906399999, 36.934465985 ], [ 137.50612652800001, 36.934961804 ], [ 137.506211994000012, 36.9350203 ], [ 137.506322675, 36.935062759 ], [ 137.50729548000001, 36.935275997 ], [ 137.507474911, 36.93574952 ], [ 137.51029359, 36.937053398 ], [ 137.510477071999986, 36.936605321 ] ] ] } },
{ "type": "Feature", "properties": { "A29_001": "16342", "A29_002": "富山県", "A29_003": "入善町", "A29_004": 1, "A29_005": "第一種低層住居専用地域", "A29_006": 60, "A29_007": 100, "A29_008": null }, "geometry": { "type": "Polygon", "coordinates": [ [ [ 137.496924845, 36.933790299 ], [ 137.494780458, 36.933635297 ], [ 137.493981252999987, 36.93544802 ], [ 137.49319147, 36.9372214 ], [ 137.495629017999988, 36.937282628 ], [ 137.496924845, 36.933790299 ] ] ] } },
{ "type": "Feature", "properties": { "A29_001": "16342", "A29_002": "富山県", "A29_003": "入善町", "A29_004": 3, "A29_005": "第一種中高層住居専用地域", "A29_006": 60, "A29_007": 200, "A29_008": null }, "geometry": { "type": "Polygon", "coordinates": [ [ [ 137.49828427599999, 36.933898314 ], [ 137.497754183000012, 36.93379411 ], [ 137.49644324799999, 36.937305358 ], [ 137.497644493, 36.937329977 ], [ 137.498932720999989, 36.935195786 ], [ 137.498891866, 36.935036704 ], [ 137.498832986999986, 36.934836057 ], [ 137.49874978599999, 36.934663852 ], [ 137.498518576, 36.934277943 ], [ 137.49828427599999, 36.933898314 ] ] ] } },
{ "type": "Feature", "properties": { "A29_001": "16342", "A29_002": "富山県", "A29_003": "入善町", "A29_004": 10, "A29_005": "準工業地域", "A29_006": 60, "A29_007": 200, "A29_008": null }, "geometry": { "type": "Polygon", "coordinates": [ [ [ 137.512315562, 36.938843758 ], [ 137.512573212, 36.938802855 ], [ 137.512725915, 36.938879256 ], [ 137.512796857000012, 36.938208114 ], [ 137.51029359, 36.937053398 ], [ 137.507474911, 36.93574952 ], [ 137.50729548000001, 36.935275997 ], [ 137.506322675, 36.935062759 ], [ 137.506211994000012, 36.9350203 ], [ 137.50612652800001, 36.934961804 ], [ 137.50549906399999, 36.934465985 ], [ 137.505405747, 36.934532338 ], [ 137.504410549, 36.933750952 ], [ 137.50500687600001, 36.932724213 ], [ 137.503343569, 36.932716541 ], [ 137.502455828, 36.931978944 ], [ 137.501944156, 36.932260997 ], [ 137.498420813, 36.929483176 ], [ 137.498110770000011, 36.929814873 ], [ 137.498109382, 36.929848865 ], [ 137.498294225, 36.929999448 ], [ 137.498301475, 36.930044731 ], [ 137.498226448999986, 36.930208568 ], [ 137.499446944, 36.931189901 ], [ 137.50357003900001, 36.934526592 ], [ 137.503671612, 36.934361139 ], [ 137.50483443499999, 36.935266876 ], [ 137.50548324499999, 36.935787876 ], [ 137.50569783899999, 36.935953931 ], [ 137.506129754999989, 36.936231192 ], [ 137.506536753, 36.936461073 ], [ 137.506458602, 36.936598283 ], [ 137.50694885499999, 36.936843419 ], [ 137.50997741, 36.938243657 ], [ 137.511485619000013, 36.938940383 ], [ 137.512026564, 36.939179633 ], [ 137.512182431000014, 36.939162489 ], [ 137.512315562, 36.938843758 ] ] ] } },
{ "type": "Feature", "properties": { "A29_001": "16342", "A29_002": "富山県", "A29_003": "入善町", "A29_004": 3, "A29_005": "第一種中高層住居専用地域", "A29_006": 60, "A29_007": 200, "A29_008": null }, "geometry": { "type": "Polygon", "coordinates": [ [ [ 137.50548324499999, 36.935787876 ], [ 137.50483443499999, 36.935266876 ], [ 137.50371877500001, 36.936037592 ], [ 137.503875271, 36.936180818 ], [ 137.50353184299999, 36.936436062 ], [ 137.503741729000012, 36.936612769 ], [ 137.5035469, 36.937002321 ], [ 137.505882654, 36.939386467 ], [ 137.50769827100001, 36.939145692 ], [ 137.509702699, 36.938884315 ], [ 137.50997741, 36.938243657 ], [ 137.50694885499999, 36.936843419 ], [ 137.506458602, 36.936598283 ], [ 137.506536753, 36.936461073 ], [ 137.506129754999989, 36.936231192 ], [ 137.50569783899999, 36.935953931 ], [ 137.50548324499999, 36.935787876 ] ] ] } },
{ "type": "Feature", "properties": { "A29_001": "16342", "A29_002": "富山県", "A29_003": "入善町", "A29_004": 3, "A29_005": "第一種中高層住居専用地域", "A29_006": 60, "A29_007": 200, "A29_008": null }, "geometry": { "type": "Polygon", "coordinates": [ [ [ 137.495183343, 36.938059935 ], [ 137.492888822, 36.938005696 ], [ 137.492364667, 36.939148056 ], [ 137.494538291, 36.939748421 ], [ 137.495183343, 36.938059935 ] ] ] } },
{ "type": "Feature", "properties": { "A29_001": "16342", "A29_002": "富山県", "A29_003": "入善町", "A29_004": 5, "A29_005": "第一種住居地域", "A29_006": 60, "A29_007": 200, "A29_008": null }, "geometry": { "type": "Polygon", "coordinates": [ [ [ 137.498977556, 36.940289694 ], [ 137.499433297, 36.939582308 ], [ 137.498967236999988, 36.939335933 ], [ 137.499189312999988, 36.939082886 ], [ 137.498581976999986, 36.938765079 ], [ 137.498727100999986, 36.938485389 ], [ 137.498369356000012, 36.938349779 ], [ 137.498822071, 36.937604769 ], [ 137.498971726, 36.935780404 ], [ 137.498970428, 36.935481408 ], [ 137.498932720999989, 36.935195786 ], [ 137.497644493, 36.937329977 ], [ 137.49644324799999, 36.937305358 ], [ 137.497754183000012, 36.93379411 ], [ 137.49828427599999, 36.933898314 ], [ 137.498328543000014, 36.933660946 ], [ 137.498961065, 36.933769352 ], [ 137.49919329, 36.934135776 ], [ 137.499412997, 36.934525721 ], [ 137.49953607899999, 36.934791257 ], [ 137.49961374099999, 36.935233102 ], [ 137.49963223099999, 36.935454956 ], [ 137.499623143, 36.935926491 ], [ 137.49952891800001, 36.937071849 ], [ 137.499992103000011, 36.937145029 ], [ 137.500459906, 36.937230181 ], [ 137.500651704, 36.937278999 ], [ 137.501046159, 36.937414513 ], [ 137.501233111, 36.937095182 ], [ 137.501662619, 36.936814085 ], [ 137.50264568899999, 36.936124297 ], [ 137.501584837, 36.935163296 ], [ 137.500875987, 36.934531949 ], [ 137.50046442199999, 36.934147315 ], [ 137.500198885, 36.933908253 ], [ 137.499948891, 36.933725298 ], [ 137.499769208, 36.933624087 ], [ 137.49948323699999, 36.933511607 ], [ 137.499226684, 36.933449484 ], [ 137.49804407799999, 36.933241987 ], [ 137.49851984, 36.932543945 ], [ 137.499446944, 36.931189901 ], [ 137.498226448999986, 36.930208568 ], [ 137.498048239000013, 36.930597086 ], [ 137.49809384299999, 36.930977505 ], [ 137.49706009499999, 36.93284872 ], [ 137.497085601, 36.932874401 ], [ 137.49702990599999, 36.932976487 ], [ 137.49642350799999, 36.932863007 ], [ 137.49593726, 36.932716287 ], [ 137.49568311499999, 36.932600991 ], [ 137.495471253, 36.932372082 ], [ 137.495012976, 36.932859762 ], [ 137.494571562, 36.933263702 ], [ 137.494408263999986, 36.933208477 ], [ 137.494317, 36.933397691 ], [ 137.49412024899999, 36.93371359 ], [ 137.49389887699999, 36.934075409 ], [ 137.493868873, 36.934352079 ], [ 137.493817838000012, 36.934920296 ], [ 137.493770031, 36.935411432 ], [ 137.493258736, 36.936141564 ], [ 137.49303947199999, 36.93644784 ], [ 137.492805457, 36.936771565 ], [ 137.492783393, 36.936821697 ], [ 137.492457432, 36.937525982 ], [ 137.492357046, 36.937703058 ], [ 137.492296712000012, 36.937764383 ], [ 137.492302708000011, 36.937812292 ], [ 137.49231998499999, 36.93785874 ], [ 137.492348478999986, 36.937923636 ], [ 137.492388143, 36.937995654 ], [ 137.492601302, 36.938213716 ], [ 137.492618678000014, 36.938248361 ], [ 137.492618082, 36.938282936 ], [ 137.492571754000011, 36.938389764 ], [ 137.492480875000012, 36.938497608 ], [ 137.492397337, 36.938760118 ], [ 137.49226030299999, 36.939364932 ], [ 137.494522921999987, 36.939987673 ], [ 137.49641518199999, 36.940507053 ], [ 137.497421057999986, 36.940790084 ], [ 137.49809093499999, 36.940971217 ], [ 137.498548672999988, 36.941093339 ], [ 137.498659053000011, 36.940815751 ], [ 137.498977556, 36.940289694 ] ], [ [ 137.492364667, 36.939148056 ], [ 137.492888822, 36.938005696 ], [ 137.495183343, 36.938059935 ], [ 137.494538291, 36.939748421 ], [ 137.492364667, 36.939148056 ] ], [ [ 137.493981252999987, 36.93544802 ], [ 137.494780458, 36.933635297 ], [ 137.496924845, 36.933790299 ], [ 137.495629017999988, 36.937282628 ], [ 137.49319147, 36.9372214 ], [ 137.493981252999987, 36.93544802 ] ] ] } },
{ "type": "Feature", "properties": { "A29_001": "16342", "A29_002": "富山県", "A29_003": "入善町", "A29_004": 9, "A29_005": "商業地域", "A29_006": 80, "A29_007": 400, "A29_008": null }, "geometry": { "type": "Polygon", "coordinates": [ [ [ 137.501545413, 36.940555617 ], [ 137.501670636, 36.940465373 ], [ 137.50214259099999, 36.940881667 ], [ 137.502371998, 36.940750343 ], [ 137.502740222999989, 36.940590026 ], [ 137.501897364, 36.939810573 ], [ 137.500983937, 36.939110084 ], [ 137.500261039, 36.938532389 ], [ 137.500070924999989, 36.93835946 ], [ 137.499842320999988, 36.938044172 ], [ 137.499506379, 36.937567165 ], [ 137.499192695, 36.937562562 ], [ 137.499100833999989, 36.937612891 ], [ 137.498822071, 36.937604769 ], [ 137.498369356000012, 36.938349779 ], [ 137.498727100999986, 36.938485389 ], [ 137.498581976999986, 36.938765079 ], [ 137.499189312999988, 36.939082886 ], [ 137.498967236999988, 36.939335933 ], [ 137.499433297, 36.939582308 ], [ 137.498977556, 36.940289694 ], [ 137.498659053000011, 36.940815751 ], [ 137.498548672999988, 36.941093339 ], [ 137.500626963, 36.941674259 ], [ 137.500745241, 36.941413414 ], [ 137.500827866, 36.941356811 ], [ 137.500971388000011, 36.941163989 ], [ 137.501184902, 36.940877979 ], [ 137.501380245, 36.940716483 ], [ 137.501545413, 36.940555617 ] ] ] } },
{ "type": "Feature", "properties": { "A29_001": "16342", "A29_002": "富山県", "A29_003": "入善町", "A29_004": 1, "A29_005": "第一種低層住居専用地域", "A29_006": 60, "A29_007": 100, "A29_008": null }, "geometry": { "type": "Polygon", "coordinates": [ [ [ 137.50887366500001, 36.941568761 ], [ 137.509465397000014, 36.939482996 ], [ 137.507264725, 36.939770445 ], [ 137.506898758, 36.94040216 ], [ 137.506721957, 36.940622624 ], [ 137.506776454, 36.940653584 ], [ 137.50590095199999, 36.941827457 ], [ 137.506322133, 36.942555989 ], [ 137.506541516, 36.942591842 ], [ 137.507278144, 36.94271205 ], [ 137.507449291, 36.94272205 ], [ 137.507606264, 36.942719606 ], [ 137.507820787000014, 36.942679578 ], [ 137.507984915, 36.942637679 ], [ 137.508178160999989, 36.942561586 ], [ 137.508403982, 36.942421315 ], [ 137.508588651999986, 36.942253515 ], [ 137.508695651000011, 36.942115055 ], [ 137.50877022, 36.941951035 ], [ 137.50887366500001, 36.941568761 ] ] ] } },
{ "type": "Feature", "properties": { "A29_001": "16342", "A29_002": "富山県", "A29_003": "入善町", "A29_004": 8, "A29_005": "近隣商業地域", "A29_006": 80, "A29_007": 200, "A29_008": null }, "geometry": { "type": "Polygon", "coordinates": [ [ [ 137.503366443, 36.94284972 ], [ 137.503643221, 36.942124683 ], [ 137.50445688799999, 36.942741116 ], [ 137.50551686099999, 36.943030062 ], [ 137.5055848, 36.942809553 ], [ 137.50408107199999, 36.941669874 ], [ 137.506352513, 36.939660893 ], [ 137.505649467000012, 36.939754812 ], [ 137.505643694000014, 36.939726147 ], [ 137.505347658, 36.939766612 ], [ 137.503610176, 36.941298474 ], [ 137.50301378399999, 36.940817968 ], [ 137.503828929, 36.939978939 ], [ 137.503600299, 36.939999855 ], [ 137.503325176, 36.939918077 ], [ 137.502371313, 36.939640881 ], [ 137.501901358999987, 36.93936133 ], [ 137.502168235, 36.938381589 ], [ 137.501938878, 36.938281768 ], [ 137.502185096, 36.937700694 ], [ 137.502340299999986, 36.937295568 ], [ 137.502906996, 36.937472555 ], [ 137.5035469, 36.937002321 ], [ 137.503741729000012, 36.936612769 ], [ 137.50353184299999, 36.936436062 ], [ 137.503875271, 36.936180818 ], [ 137.50371877500001, 36.936037592 ], [ 137.50483443499999, 36.935266876 ], [ 137.503671612, 36.934361139 ], [ 137.50357003900001, 36.934526592 ], [ 137.50264568899999, 36.936124297 ], [ 137.501662619, 36.936814085 ], [ 137.501233111, 36.937095182 ], [ 137.501046159, 36.937414513 ], [ 137.500651704, 36.937278999 ], [ 137.500459906, 36.937230181 ], [ 137.499992103000011, 36.937145029 ], [ 137.49952891800001, 36.937071849 ], [ 137.499623143, 36.935926491 ], [ 137.49963223099999, 36.935454956 ], [ 137.49961374099999, 36.935233102 ], [ 137.49953607899999, 36.934791257 ], [ 137.499412997, 36.934525721 ], [ 137.49919329, 36.934135776 ], [ 137.498961065, 36.933769352 ], [ 137.498328543000014, 36.933660946 ], [ 137.49828427599999, 36.933898314 ], [ 137.498518576, 36.934277943 ], [ 137.49874978599999, 36.934663852 ], [ 137.498832986999986, 36.934836057 ], [ 137.498891866, 36.935036704 ], [ 137.498932720999989, 36.935195786 ], [ 137.498970428, 36.935481408 ], [ 137.498971726, 36.935780404 ], [ 137.498822071, 36.937604769 ], [ 137.499100833999989, 36.937612891 ], [ 137.499192695, 36.937562562 ], [ 137.499506379, 36.937567165 ], [ 137.499842320999988, 36.938044172 ], [ 137.500070924999989, 36.93835946 ], [ 137.500261039, 36.938532389 ], [ 137.500983937, 36.939110084 ], [ 137.501897364, 36.939810573 ], [ 137.502740222999989, 36.940590026 ], [ 137.502371998, 36.940750343 ], [ 137.50214259099999, 36.940881667 ], [ 137.501670636, 36.940465373 ], [ 137.501545413, 36.940555617 ], [ 137.501380245, 36.940716483 ], [ 137.501184902, 36.940877979 ], [ 137.500971388000011, 36.941163989 ], [ 137.500827866, 36.941356811 ], [ 137.500745241, 36.941413414 ], [ 137.500626963, 36.941674259 ], [ 137.502727806, 36.94226875 ], [ 137.50281019, 36.942623381 ], [ 137.502983261999987, 36.942868957 ], [ 137.503186699999986, 36.943834246 ], [ 137.503559981, 36.943796362 ], [ 137.503366443, 36.94284972 ] ] ] } },
{ "type": "Feature", "properties": { "A29_001": "16342", "A29_002": "富山県", "A29_003": "入善町", "A29_004": 11, "A29_005": "工業地域", "A29_006": 60, "A29_007": 200, "A29_008": null }, "geometry": { "type": "Polygon", "coordinates": [ [ [ 137.49641518199999, 36.940507053 ], [ 137.494522921999987, 36.939987673 ], [ 137.493896221999989, 36.942232778 ], [ 137.493447239, 36.94390214 ], [ 137.498989902, 36.944887419 ], [ 137.499156671, 36.946056127 ], [ 137.500386157, 36.945939064 ], [ 137.50178311, 36.945805063 ], [ 137.5019121, 36.945413067 ], [ 137.503468633000011, 36.945241657 ], [ 137.503186699999986, 36.943834246 ], [ 137.502983261999987, 36.942868957 ], [ 137.50281019, 36.942623381 ], [ 137.502727806, 36.94226875 ], [ 137.500626963, 36.941674259 ], [ 137.498548672999988, 36.941093339 ], [ 137.49809093499999, 36.940971217 ], [ 137.497421057999986, 36.940790084 ], [ 137.49641518199999, 36.940507053 ] ] ] } },
{ "type": "Feature", "properties": { "A29_001": "16342", "A29_002": "富山県", "A29_003": "入善町", "A29_004": 5, "A29_005": "第一種住居地域", "A29_006": 60, "A29_007": 200, "A29_008": null }, "geometry": { "type": "Polygon", "coordinates": [ [ [ 137.508752654, 36.943912664 ], [ 137.508904438, 36.943013419 ], [ 137.508976133, 36.942771199 ], [ 137.508846498999986, 36.942345963 ], [ 137.508921835, 36.942253948 ], [ 137.508970506, 36.942177508 ], [ 137.509007328, 36.942108255 ], [ 137.509042547, 36.942012779 ], [ 137.50971930899999, 36.939579962 ], [ 137.510259780000013, 36.939548595 ], [ 137.510258623999988, 36.939291086 ], [ 137.510607666999988, 36.939296037 ], [ 137.510607494999988, 36.939257887 ], [ 137.511038361, 36.939293597 ], [ 137.511060226000012, 36.939201735 ], [ 137.51178596299999, 36.93911204 ], [ 137.511827641, 36.939218485 ], [ 137.512026564, 36.939179633 ], [ 137.511485619000013, 36.938940383 ], [ 137.50997741, 36.938243657 ], [ 137.509702699, 36.938884315 ], [ 137.50769827100001, 36.939145692 ], [ 137.505882654, 36.939386467 ], [ 137.5035469, 36.937002321 ], [ 137.502906996, 36.937472555 ], [ 137.502340299999986, 36.937295568 ], [ 137.502185096, 36.937700694 ], [ 137.501938878, 36.938281768 ], [ 137.502168235, 36.938381589 ], [ 137.501901358999987, 36.93936133 ], [ 137.502371313, 36.939640881 ], [ 137.503325176, 36.939918077 ], [ 137.503600299, 36.939999855 ], [ 137.503828929, 36.939978939 ], [ 137.50301378399999, 36.940817968 ], [ 137.503610176, 36.941298474 ], [ 137.505347658, 36.939766612 ], [ 137.505643694000014, 36.939726147 ], [ 137.505649467000012, 36.939754812 ], [ 137.506352513, 36.939660893 ], [ 137.50408107199999, 36.941669874 ], [ 137.5055848, 36.942809553 ], [ 137.50551686099999, 36.943030062 ], [ 137.50445688799999, 36.942741116 ], [ 137.503643221, 36.942124683 ], [ 137.503366443, 36.94284972 ], [ 137.503559981, 36.943796362 ], [ 137.503186699999986, 36.943834246 ], [ 137.503468633000011, 36.945241657 ], [ 137.5019121, 36.945413067 ], [ 137.50178311, 36.945805063 ], [ 137.500386157, 36.945939064 ], [ 137.501824117000012, 36.946194959 ], [ 137.50324640299999, 36.946463569 ], [ 137.503307041999989, 36.946473813 ], [ 137.503441372999987, 36.946040572 ], [ 137.503554955999988, 36.945672584 ], [ 137.50356066, 36.94567351 ], [ 137.504032972, 36.945750194 ], [ 137.504104, 36.945771528 ], [ 137.504117333000011, 36.945823139 ], [ 137.504103957000012, 36.945977314 ], [ 137.504095111, 36.946079278 ], [ 137.504128417, 36.946113056 ], [ 137.504320444, 36.946158722 ], [ 137.505149972, 36.946297906 ], [ 137.506061415, 36.944508311 ], [ 137.506312277, 36.94441818 ], [ 137.506346353999987, 36.944399007 ], [ 137.506372919, 36.944360781 ], [ 137.506574569, 36.943947709 ], [ 137.506589295, 36.943919054 ], [ 137.506596546, 36.943879691 ], [ 137.50659637699999, 36.943841542 ], [ 137.506615493999988, 36.943528152 ], [ 137.5066789, 36.943357726 ], [ 137.508752654, 36.943912664 ] ], [ [ 137.507264725, 36.939770445 ], [ 137.509465397000014, 36.939482996 ], [ 137.50887366500001, 36.941568761 ], [ 137.50877022, 36.941951035 ], [ 137.508695651000011, 36.942115055 ], [ 137.508588651999986, 36.942253515 ], [ 137.508403982, 36.942421315 ], [ 137.508178160999989, 36.942561586 ], [ 137.507984915, 36.942637679 ], [ 137.507820787000014, 36.942679578 ], [ 137.507606264, 36.942719606 ], [ 137.507449291, 36.94272205 ], [ 137.507278144, 36.94271205 ], [ 137.506541516, 36.942591842 ], [ 137.506322133, 36.942555989 ], [ 137.50590095199999, 36.941827457 ], [ 137.506776454, 36.940653584 ], [ 137.506721957, 36.940622624 ], [ 137.506898758, 36.94040216 ], [ 137.507264725, 36.939770445 ] ] ] } },
{ "type": "Feature", "properties": { "A29_001": "16342", "A29_002": "富山県", "A29_003": "入善町", "A29_004": 3, "A29_005": "第一種中高層住居専用地域", "A29_006": 60, "A29_007": 200, "A29_008": null }, "geometry": { "type": "Polygon", "coordinates": [ [ [ 137.50356066, 36.94567351 ], [ 137.503554955999988, 36.945672584 ], [ 137.503441372999987, 36.946040572 ], [ 137.503307041999989, 36.946473813 ], [ 137.503212367, 36.946779153 ], [ 137.503585213, 36.946852488 ], [ 137.503640877, 36.946945321 ], [ 137.50469906, 36.947129129 ], [ 137.505149972, 36.946297906 ], [ 137.504320444, 36.946158722 ], [ 137.504128417, 36.946113056 ], [ 137.504095111, 36.946079278 ], [ 137.504103957000012, 36.945977314 ], [ 137.504117333000011, 36.945823139 ], [ 137.504104, 36.945771528 ], [ 137.504032972, 36.945750194 ], [ 137.50356066, 36.94567351 ] ] ] } },
{ "type": "Feature", "properties": { "A29_001": "16342", "A29_002": "富山県", "A29_003": "入善町", "A29_004": 5, "A29_005": "第一種住居地域", "A29_006": 60, "A29_007": 200, "A29_008": null }, "geometry": { "type": "Polygon", "coordinates": [ [ [ 137.510477071999986, 36.936605321 ], [ 137.51029359, 36.937053398 ], [ 137.512796857000012, 36.938208114 ], [ 137.51284230600001, 36.937787238 ], [ 137.511721943, 36.937665319 ], [ 137.511640094, 36.937628599 ], [ 137.511567469, 36.937331956 ], [ 137.511647098999987, 36.93687631 ], [ 137.510477071999986, 36.936605321 ] ] ] } }
]
}
