{
"type": "FeatureCollection",
"name": "A29-19_16343",
"features": [
{ "type": "Feature", "properties": { "A29_001": "16343", "A29_002": "富山県", "A29_003": "朝日町", "A29_004": 5, "A29_005": "第一種住居地域", "A29_006": 60, "A29_007": 200, "A29_008": null }, "geometry": { "type": "Polygon", "coordinates": [ [ [ 137.552008699999988, 36.944525671 ], [ 137.550970658000011, 36.946274623 ], [ 137.552568681, 36.946381289 ], [ 137.553425454, 36.946412748 ], [ 137.55439141, 36.946479417 ], [ 137.554191666, 36.946319223 ], [ 137.552876728, 36.945232749 ], [ 137.552008699999988, 36.944525671 ] ] ] } },
{ "type": "Feature", "properties": { "A29_001": "16343", "A29_002": "富山県", "A29_003": "朝日町", "A29_004": 3, "A29_005": "第一種中高層住居専用地域", "A29_006": 60, "A29_007": 200, "A29_008": null }, "geometry": { "type": "Polygon", "coordinates": [ [ [ 137.556405106, 36.943923525 ], [ 137.555880244, 36.943663787 ], [ 137.55561781, 36.944280838 ], [ 137.55552000099999, 36.944407598 ], [ 137.554997590999989, 36.944938789 ], [ 137.55486711099999, 36.945094639 ], [ 137.55482475299999, 36.945478049 ], [ 137.55474385299999, 36.945704869 ], [ 137.55460052399999, 36.945918699 ], [ 137.554335114999986, 36.946156758 ], [ 137.554191666, 36.946319223 ], [ 137.55439141, 36.946479417 ], [ 137.555864867999986, 36.946559371 ], [ 137.558619598, 36.946720664 ], [ 137.55830334, 36.945757233 ], [ 137.557983788, 36.944845075 ], [ 137.556885548999986, 36.944177474 ], [ 137.556405106, 36.943923525 ] ] ] } },
{ "type": "Feature", "properties": { "A29_001": "16343", "A29_002": "富山県", "A29_003": "朝日町", "A29_004": 5, "A29_005": "第一種住居地域", "A29_006": 60, "A29_007": 200, "A29_008": null }, "geometry": { "type": "Polygon", "coordinates": [ [ [ 137.558835498, 36.944837181 ], [ 137.55829193299999, 36.944541916 ], [ 137.558169136, 36.944551426 ], [ 137.558137891, 36.944482859 ], [ 137.557699461999988, 36.944260733 ], [ 137.556010896, 36.943358085 ], [ 137.555880244, 36.943663787 ], [ 137.556405106, 36.943923525 ], [ 137.556885548999986, 36.944177474 ], [ 137.557983788, 36.944845075 ], [ 137.55830334, 36.945757233 ], [ 137.558619598, 36.946720664 ], [ 137.561604741, 36.946877422 ], [ 137.561488179, 36.946193736 ], [ 137.561281713, 36.94610622 ], [ 137.56051324399999, 36.94570939 ], [ 137.559589749999986, 36.945203388 ], [ 137.558835498, 36.944837181 ] ] ] } },
{ "type": "Feature", "properties": { "A29_001": "16343", "A29_002": "富山県", "A29_003": "朝日町", "A29_004": 3, "A29_005": "第一種中高層住居専用地域", "A29_006": 60, "A29_007": 200, "A29_008": null }, "geometry": { "type": "Polygon", "coordinates": [ [ [ 137.55724005499999, 36.947687896 ], [ 137.55297228500001, 36.947473234 ], [ 137.552774613, 36.949129089 ], [ 137.55721675699999, 36.949105682 ], [ 137.55724005499999, 36.947687896 ] ] ] } },
{ "type": "Feature", "properties": { "A29_001": "16343", "A29_002": "富山県", "A29_003": "朝日町", "A29_004": 10, "A29_005": "準工業地域", "A29_006": 60, "A29_007": 200, "A29_008": null }, "geometry": { "type": "Polygon", "coordinates": [ [ [ 137.5656473, 36.948713649 ], [ 137.565727334, 36.948365836 ], [ 137.564613912, 36.947796324 ], [ 137.562925694, 36.946885659 ], [ 137.561655946, 36.946236812 ], [ 137.561488179, 36.946193736 ], [ 137.561604741, 36.946877422 ], [ 137.558619598, 36.946720664 ], [ 137.555864867999986, 36.946559371 ], [ 137.55439141, 36.946479417 ], [ 137.553425454, 36.946412748 ], [ 137.552568681, 36.946381289 ], [ 137.550970658000011, 36.946274623 ], [ 137.550365924, 36.947293474 ], [ 137.552167558, 36.947422934 ], [ 137.55297228500001, 36.947473234 ], [ 137.55724005499999, 36.947687896 ], [ 137.56141737499999, 36.947886389 ], [ 137.562211614, 36.947931711 ], [ 137.562389327, 36.948977854 ], [ 137.563432414, 36.949102986 ], [ 137.56415674199999, 36.948999467 ], [ 137.564154809, 36.948513064 ], [ 137.564263684999986, 36.948541311 ], [ 137.564475875999989, 36.948635431 ], [ 137.564804119, 36.948809172 ], [ 137.565070244, 36.948998433 ], [ 137.565377616, 36.949253071 ], [ 137.56560989799999, 36.94950419 ], [ 137.56582893, 36.948877655 ], [ 137.565815686, 36.948841935 ], [ 137.565784232999988, 36.948821901 ], [ 137.5656473, 36.948713649 ] ] ] } },
{ "type": "Feature", "properties": { "A29_001": "16343", "A29_002": "富山県", "A29_003": "朝日町", "A29_004": 3, "A29_005": "第一種中高層住居専用地域", "A29_006": 60, "A29_007": 200, "A29_008": null }, "geometry": { "type": "Polygon", "coordinates": [ [ [ 137.552167558, 36.947422934 ], [ 137.550365924, 36.947293474 ], [ 137.549471915, 36.948799635 ], [ 137.549287729000014, 36.949125902 ], [ 137.547959959, 36.95140655 ], [ 137.55163617299999, 36.951519623 ], [ 137.55166272400001, 36.951243058 ], [ 137.551771421000012, 36.950340478 ], [ 137.551945018999987, 36.949120112 ], [ 137.552167558, 36.947422934 ] ] ] } },
{ "type": "Feature", "properties": { "A29_001": "16343", "A29_002": "富山県", "A29_003": "朝日町", "A29_004": 11, "A29_005": "工業地域", "A29_006": 60, "A29_007": 200, "A29_008": null }, "geometry": { "type": "Polygon", "coordinates": [ [ [ 137.557233252, 36.950729631 ], [ 137.55721675699999, 36.949105682 ], [ 137.552774613, 36.949129089 ], [ 137.552359028000012, 36.949133278 ], [ 137.552167083, 36.950746333 ], [ 137.552116439, 36.951150983 ], [ 137.552076027999988, 36.951495583 ], [ 137.552055682, 36.951794025 ], [ 137.552520858, 36.951815356 ], [ 137.554263407, 36.951874231 ], [ 137.556706177, 36.951935267 ], [ 137.55723645099999, 36.951948508 ], [ 137.557233252, 36.950729631 ] ] ] } },
{ "type": "Feature", "properties": { "A29_001": "16343", "A29_002": "富山県", "A29_003": "朝日町", "A29_004": 5, "A29_005": "第一種住居地域", "A29_006": 60, "A29_007": 200, "A29_008": null }, "geometry": { "type": "Polygon", "coordinates": [ [ [ 137.55163617299999, 36.951519623 ], [ 137.547959959, 36.95140655 ], [ 137.54764898799999, 36.951958812 ], [ 137.549625228999986, 36.95204518 ], [ 137.550899684, 36.952072019 ], [ 137.551611572000013, 36.952079745 ], [ 137.55163617299999, 36.951519623 ] ] ] } },
{ "type": "Feature", "properties": { "A29_001": "16343", "A29_002": "富山県", "A29_003": "朝日町", "A29_004": 3, "A29_005": "第一種中高層住居専用地域", "A29_006": 60, "A29_007": 200, "A29_008": null }, "geometry": { "type": "Polygon", "coordinates": [ [ [ 137.565377616, 36.949253071 ], [ 137.565070244, 36.948998433 ], [ 137.564804119, 36.948809172 ], [ 137.564475875999989, 36.948635431 ], [ 137.564263684999986, 36.948541311 ], [ 137.564154809, 36.948513064 ], [ 137.56415674199999, 36.948999467 ], [ 137.563432414, 36.949102986 ], [ 137.562389327, 36.948977854 ], [ 137.562539509, 36.950062054 ], [ 137.56259105, 36.950507074 ], [ 137.562686371000012, 36.950533094 ], [ 137.562697651, 36.950812283 ], [ 137.562688791999989, 36.951001973 ], [ 137.562640732, 36.951228683 ], [ 137.56248955699999, 36.952043418 ], [ 137.562712655000013, 36.952079646 ], [ 137.563070807, 36.952154846 ], [ 137.563471768999989, 36.952256235 ], [ 137.56384644100001, 36.952352445 ], [ 137.56429372299999, 36.952524814 ], [ 137.564631537999986, 36.952700853 ], [ 137.56490986, 36.952368511 ], [ 137.565002639999989, 36.952224631 ], [ 137.56504990799999, 36.952090993 ], [ 137.565077207, 36.951974993 ], [ 137.565087092999988, 36.951781942 ], [ 137.565104752, 36.95144994 ], [ 137.565150461, 36.95108759 ], [ 137.565233709000012, 36.950672472 ], [ 137.56560989799999, 36.94950419 ], [ 137.565377616, 36.949253071 ] ] ] } },
{ "type": "Feature", "properties": { "A29_001": "16343", "A29_002": "富山県", "A29_003": "朝日町", "A29_004": 10, "A29_005": "準工業地域", "A29_006": 60, "A29_007": 200, "A29_008": null }, "geometry": { "type": "Polygon", "coordinates": [ [ [ 137.558921056, 36.952066722 ], [ 137.558981194000012, 36.951918056 ], [ 137.559047665, 36.951664153 ], [ 137.55910580599999, 36.951401417 ], [ 137.557233252, 36.950729631 ], [ 137.55723645099999, 36.951948508 ], [ 137.556706177, 36.951935267 ], [ 137.556694994, 36.952180881 ], [ 137.55672478599999, 36.95271223 ], [ 137.55771651, 36.952809069 ], [ 137.55776425799999, 36.952196459 ], [ 137.558921056, 36.952066722 ] ] ] } },
{ "type": "Feature", "properties": { "A29_001": "16343", "A29_002": "富山県", "A29_003": "朝日町", "A29_004": 8, "A29_005": "近隣商業地域", "A29_006": 80, "A29_007": 200, "A29_008": null }, "geometry": { "type": "Polygon", "coordinates": [ [ [ 137.554263407, 36.951874231 ], [ 137.552520858, 36.951815356 ], [ 137.552395026999989, 36.953524293 ], [ 137.5541263, 36.953551483 ], [ 137.554263407, 36.951874231 ] ] ] } },
{ "type": "Feature", "properties": { "A29_001": "16343", "A29_002": "富山県", "A29_003": "朝日町", "A29_004": 8, "A29_005": "近隣商業地域", "A29_006": 80, "A29_007": 300, "A29_008": null }, "geometry": { "type": "Polygon", "coordinates": [ [ [ 137.557472718000014, 36.95391065 ], [ 137.556941739, 36.95325878 ], [ 137.556743606999987, 36.95302499 ], [ 137.55672478599999, 36.95271223 ], [ 137.556694994, 36.952180881 ], [ 137.556706177, 36.951935267 ], [ 137.554263407, 36.951874231 ], [ 137.5541263, 36.953551483 ], [ 137.555215583, 36.953544889 ], [ 137.555210999, 36.953853201 ], [ 137.555812995, 36.953868106 ], [ 137.55666761, 36.95388926 ], [ 137.55747227099999, 36.953911604 ], [ 137.557472718000014, 36.95391065 ] ] ] } },
{ "type": "Feature", "properties": { "A29_001": "16343", "A29_002": "富山県", "A29_003": "朝日町", "A29_004": 5, "A29_005": "第一種住居地域", "A29_006": 60, "A29_007": 200, "A29_008": null }, "geometry": { "type": "Polygon", "coordinates": [ [ [ 137.557473522, 36.953911638 ], [ 137.55918884499999, 36.956052215 ], [ 137.55970982, 36.953957595 ], [ 137.557473522, 36.953911638 ] ] ] } },
{ "type": "Feature", "properties": { "A29_001": "16343", "A29_002": "富山県", "A29_003": "朝日町", "A29_004": 5, "A29_005": "第一種住居地域", "A29_006": 60, "A29_007": 200, "A29_008": null }, "geometry": { "type": "Polygon", "coordinates": [ [ [ 137.56169601, 36.951494594 ], [ 137.561794096999989, 36.951122686 ], [ 137.561822326999987, 36.950869706 ], [ 137.561812196, 36.950403835 ], [ 137.561849337000012, 36.950404904 ], [ 137.561801526000011, 36.950158025 ], [ 137.56167466299999, 36.949427456 ], [ 137.56141737499999, 36.947886389 ], [ 137.55724005499999, 36.947687896 ], [ 137.55721675699999, 36.949105682 ], [ 137.557233252, 36.950729631 ], [ 137.55910580599999, 36.951401417 ], [ 137.559047665, 36.951664153 ], [ 137.558981194000012, 36.951918056 ], [ 137.558921056, 36.952066722 ], [ 137.55776425799999, 36.952196459 ], [ 137.55771651, 36.952809069 ], [ 137.55672478599999, 36.95271223 ], [ 137.556743606999987, 36.95302499 ], [ 137.556941739, 36.95325878 ], [ 137.55986144900001, 36.953284706 ], [ 137.56024359700001, 36.952058706 ], [ 137.56033163399999, 36.951213966 ], [ 137.561027677, 36.951256435 ], [ 137.560890059, 36.952086745 ], [ 137.560461102, 36.953727905 ], [ 137.559806021000014, 36.95619293 ], [ 137.560857537, 36.956233351 ], [ 137.561021254, 36.955112159 ], [ 137.56132202500001, 36.953674335 ], [ 137.561264126, 36.953673315 ], [ 137.56145887299999, 36.952765734 ], [ 137.561599390999987, 36.952009244 ], [ 137.56169601, 36.951494594 ] ] ] } },
{ "type": "Feature", "properties": { "A29_001": "16343", "A29_002": "富山県", "A29_003": "朝日町", "A29_004": 7, "A29_005": "準住居地域", "A29_006": 60, "A29_007": 200, "A29_008": null }, "geometry": { "type": "Polygon", "coordinates": [ [ [ 137.56164744099999, 36.956251434 ], [ 137.562095648, 36.953710596 ], [ 137.562190743, 36.953715525 ], [ 137.562350336, 36.952828623 ], [ 137.56248955699999, 36.952043418 ], [ 137.562640732, 36.951228683 ], [ 137.562688791999989, 36.951001973 ], [ 137.562697651, 36.950812283 ], [ 137.562686371000012, 36.950533094 ], [ 137.56259105, 36.950507074 ], [ 137.562539509, 36.950062054 ], [ 137.562389327, 36.948977854 ], [ 137.562211614, 36.947931711 ], [ 137.56141737499999, 36.947886389 ], [ 137.56167466299999, 36.949427456 ], [ 137.561801526000011, 36.950158025 ], [ 137.561849337000012, 36.950404904 ], [ 137.561812196, 36.950403835 ], [ 137.561822326999987, 36.950869706 ], [ 137.561794096999989, 36.951122686 ], [ 137.56169601, 36.951494594 ], [ 137.561599390999987, 36.952009244 ], [ 137.56145887299999, 36.952765734 ], [ 137.561264126, 36.953673315 ], [ 137.56132202500001, 36.953674335 ], [ 137.561021254, 36.955112159 ], [ 137.560857537, 36.956233351 ], [ 137.56164744099999, 36.956251434 ] ] ] } },
{ "type": "Feature", "properties": { "A29_001": "16343", "A29_002": "富山県", "A29_003": "朝日町", "A29_004": 3, "A29_005": "第一種中高層住居専用地域", "A29_006": 60, "A29_007": 200, "A29_008": null }, "geometry": { "type": "Polygon", "coordinates": [ [ [ 137.549625228999986, 36.95204518 ], [ 137.54764898799999, 36.951958812 ], [ 137.546388619, 36.954118073 ], [ 137.54807135199999, 36.954727881 ], [ 137.548426604000014, 36.95487952 ], [ 137.548892136, 36.955095339 ], [ 137.551232555000013, 36.956361951 ], [ 137.551401582000011, 36.955232505 ], [ 137.551522917999989, 36.953868655 ], [ 137.551611572000013, 36.952079745 ], [ 137.550899684, 36.952072019 ], [ 137.549625228999986, 36.95204518 ] ] ] } },
{ "type": "Feature", "properties": { "A29_001": "16343", "A29_002": "富山県", "A29_003": "朝日町", "A29_004": 5, "A29_005": "第一種住居地域", "A29_006": 60, "A29_007": 200, "A29_008": null }, "geometry": { "type": "Polygon", "coordinates": [ [ [ 137.55666761, 36.95388926 ], [ 137.555812995, 36.953868106 ], [ 137.555782334000014, 36.956130998 ], [ 137.55751763, 36.956439027 ], [ 137.557826382, 36.956480166 ], [ 137.558148182999986, 36.956505446 ], [ 137.55871726699999, 36.956510887 ], [ 137.557750061, 36.955281901 ], [ 137.557212400999987, 36.954621018 ], [ 137.55666761, 36.95388926 ] ] ] } },
{ "type": "Feature", "properties": { "A29_001": "16343", "A29_002": "富山県", "A29_003": "朝日町", "A29_004": 5, "A29_005": "第一種住居地域", "A29_006": 60, "A29_007": 200, "A29_008": null }, "geometry": { "type": "Polygon", "coordinates": [ [ [ 137.54807135199999, 36.954727881 ], [ 137.546388619, 36.954118073 ], [ 137.546020531000011, 36.954779717 ], [ 137.546818357, 36.955029386 ], [ 137.54723758899999, 36.955178195 ], [ 137.547589480999989, 36.955311415 ], [ 137.548387295, 36.955681593 ], [ 137.548965098999986, 36.955983169 ], [ 137.549749362999989, 36.956429117 ], [ 137.550032364, 36.956574397 ], [ 137.55046804700001, 36.956805796 ], [ 137.550801635, 36.956976052 ], [ 137.551204474, 36.956528646 ], [ 137.551232555000013, 36.956361951 ], [ 137.548892136, 36.955095339 ], [ 137.548426604000014, 36.95487952 ], [ 137.54807135199999, 36.954727881 ] ] ] } },
{ "type": "Feature", "properties": { "A29_001": "16343", "A29_002": "富山県", "A29_003": "朝日町", "A29_004": 8, "A29_005": "近隣商業地域", "A29_006": 80, "A29_007": 200, "A29_008": null }, "geometry": { "type": "Polygon", "coordinates": [ [ [ 137.558985802, 36.956814251 ], [ 137.559084111, 36.956148699 ], [ 137.559411396, 36.956182667 ], [ 137.559806021000014, 36.95619293 ], [ 137.560461102, 36.953727905 ], [ 137.560890059, 36.952086745 ], [ 137.561027677, 36.951256435 ], [ 137.56033163399999, 36.951213966 ], [ 137.56024359700001, 36.952058706 ], [ 137.55986144900001, 36.953284706 ], [ 137.556941739, 36.95325878 ], [ 137.557472718000014, 36.95391065 ], [ 137.55747227099999, 36.953911604 ], [ 137.55666761, 36.95388926 ], [ 137.557212400999987, 36.954621018 ], [ 137.557750061, 36.955281901 ], [ 137.55871726699999, 36.956510887 ], [ 137.558148182999986, 36.956505446 ], [ 137.557826382, 36.956480166 ], [ 137.55751763, 36.956439027 ], [ 137.555782334000014, 36.956130998 ], [ 137.555812995, 36.953868106 ], [ 137.555210999, 36.953853201 ], [ 137.555199111, 36.954664417 ], [ 137.554918342, 36.954662418 ], [ 137.554908407999989, 36.956559149 ], [ 137.55550166399999, 36.956649799 ], [ 137.557169031, 36.956951217 ], [ 137.557596082, 36.957018296 ], [ 137.558902585, 36.957083701 ], [ 137.558924182999988, 36.95681759 ], [ 137.558985802, 36.956814251 ] ], [ [ 137.55918884499999, 36.956052215 ], [ 137.557473522, 36.953911638 ], [ 137.55970982, 36.953957595 ], [ 137.55918884499999, 36.956052215 ] ] ] } },
{ "type": "Feature", "properties": { "A29_001": "16343", "A29_002": "富山県", "A29_003": "朝日町", "A29_004": 11, "A29_005": "工業地域", "A29_006": 60, "A29_007": 200, "A29_008": null }, "geometry": { "type": "Polygon", "coordinates": [ [ [ 137.55217243300001, 36.955724379 ], [ 137.551800694, 36.955660833 ], [ 137.55162, 36.956957889 ], [ 137.55183802799999, 36.957075361 ], [ 137.552257222, 36.957268778 ], [ 137.5525165, 36.957361556 ], [ 137.553107882, 36.95754296 ], [ 137.553196939, 36.957278973 ], [ 137.553715790000012, 36.956016299 ], [ 137.55217243300001, 36.955724379 ] ] ] } },
{ "type": "Feature", "properties": { "A29_001": "16343", "A29_002": "富山県", "A29_003": "朝日町", "A29_004": 5, "A29_005": "第一種住居地域", "A29_006": 60, "A29_007": 200, "A29_008": null }, "geometry": { "type": "Polygon", "coordinates": [ [ [ 137.554908407999989, 36.956559149 ], [ 137.554918342, 36.954662418 ], [ 137.555199111, 36.954664417 ], [ 137.555210999, 36.953853201 ], [ 137.555215583, 36.953544889 ], [ 137.5541263, 36.953551483 ], [ 137.552395026999989, 36.953524293 ], [ 137.55217243300001, 36.955724379 ], [ 137.553715790000012, 36.956016299 ], [ 137.553196939, 36.957278973 ], [ 137.5538046, 36.957448901 ], [ 137.554167712, 36.95752938 ], [ 137.555025035, 36.957647749 ], [ 137.555954559000014, 36.957763248 ], [ 137.556965362999989, 36.957885716 ], [ 137.558682056, 36.958079139 ], [ 137.558710709, 36.957898621 ], [ 137.558718094999989, 36.95771667 ], [ 137.55873726499999, 36.957613871 ], [ 137.55882146499999, 36.957391001 ], [ 137.558865155, 36.957268371 ], [ 137.558902585, 36.957083701 ], [ 137.557596082, 36.957018296 ], [ 137.557169031, 36.956951217 ], [ 137.55550166399999, 36.956649799 ], [ 137.554908407999989, 36.956559149 ] ] ] } },
{ "type": "Feature", "properties": { "A29_001": "16343", "A29_002": "富山県", "A29_003": "朝日町", "A29_004": 9, "A29_005": "商業地域", "A29_006": 80, "A29_007": 400, "A29_008": null }, "geometry": { "type": "Polygon", "coordinates": [ [ [ 137.561489972, 36.958711848 ], [ 137.56158097299999, 36.957245694 ], [ 137.56476776, 36.957417309 ], [ 137.565867774999987, 36.957492638 ], [ 137.56663052799999, 36.957569757 ], [ 137.566694008000013, 36.957313367 ], [ 137.566734278000013, 36.957168347 ], [ 137.56676786700001, 36.957000967 ], [ 137.566652737, 36.956953938 ], [ 137.566595095999986, 36.956914608 ], [ 137.56656524600001, 36.956856768 ], [ 137.566561736000011, 36.956811988 ], [ 137.56660065599999, 36.956722298 ], [ 137.566613526, 36.956673518 ], [ 137.566591616000011, 36.956562958 ], [ 137.566599435, 36.956489168 ], [ 137.566630175, 36.956404768 ], [ 137.566636424, 36.955874618 ], [ 137.56635404299999, 36.955855809 ], [ 137.566112831999988, 36.955864519 ], [ 137.56535105899999, 36.9558144 ], [ 137.564711706, 36.95579349 ], [ 137.564726177000011, 36.95636639 ], [ 137.564586537999986, 36.95681271 ], [ 137.561738014000014, 36.956645506 ], [ 137.561740605000011, 36.956252805 ], [ 137.56164744099999, 36.956251434 ], [ 137.560857537, 36.956233351 ], [ 137.559806021000014, 36.95619293 ], [ 137.559411396, 36.956182667 ], [ 137.559084111, 36.956148699 ], [ 137.558985802, 36.956814251 ], [ 137.558924182999988, 36.95681759 ], [ 137.558902585, 36.957083701 ], [ 137.558865155, 36.957268371 ], [ 137.55882146499999, 36.957391001 ], [ 137.55873726499999, 36.957613871 ], [ 137.558718094999989, 36.95771667 ], [ 137.558710709, 36.957898621 ], [ 137.558682056, 36.958079139 ], [ 137.558643596, 36.958223381 ], [ 137.55858700499999, 36.958341805 ], [ 137.559501493, 36.958448313 ], [ 137.560688015000011, 36.958617436 ], [ 137.5608035, 36.958633556 ], [ 137.561489972, 36.958711848 ] ] ] } },
{ "type": "Feature", "properties": { "A29_001": "16343", "A29_002": "富山県", "A29_003": "朝日町", "A29_004": 5, "A29_005": "第一種住居地域", "A29_006": 60, "A29_007": 200, "A29_008": null }, "geometry": { "type": "Polygon", "coordinates": [ [ [ 137.551826510000012, 36.95860667 ], [ 137.55188439, 36.958418356 ], [ 137.552064578, 36.958445669 ], [ 137.55211146100001, 36.958374701 ], [ 137.552082122, 36.958099997 ], [ 137.55169180499999, 36.957889708 ], [ 137.551824806000013, 36.957737833 ], [ 137.552057692, 36.957485216 ], [ 137.551149441, 36.957058181 ], [ 137.551086336, 36.957123988 ], [ 137.55071758299999, 36.957529389 ], [ 137.549617356999988, 36.958725505 ], [ 137.551471174999989, 36.958825838 ], [ 137.551826510000012, 36.95860667 ] ] ] } },
{ "type": "Feature", "properties": { "A29_001": "16343", "A29_002": "富山県", "A29_003": "朝日町", "A29_004": 7, "A29_005": "準住居地域", "A29_006": 60, "A29_007": 200, "A29_008": null }, "geometry": { "type": "Polygon", "coordinates": [ [ [ 137.555025035, 36.957647749 ], [ 137.554167712, 36.95752938 ], [ 137.5538046, 36.957448901 ], [ 137.553196939, 36.957278973 ], [ 137.553107882, 36.95754296 ], [ 137.5525165, 36.957361556 ], [ 137.552257222, 36.957268778 ], [ 137.55183802799999, 36.957075361 ], [ 137.55162, 36.956957889 ], [ 137.551800694, 36.955660833 ], [ 137.55217243300001, 36.955724379 ], [ 137.552395026999989, 36.953524293 ], [ 137.552520858, 36.951815356 ], [ 137.552055682, 36.951794025 ], [ 137.552076027999988, 36.951495583 ], [ 137.552116439, 36.951150983 ], [ 137.552167083, 36.950746333 ], [ 137.552359028000012, 36.949133278 ], [ 137.552774613, 36.949129089 ], [ 137.55297228500001, 36.947473234 ], [ 137.552167558, 36.947422934 ], [ 137.551945018999987, 36.949120112 ], [ 137.551771421000012, 36.950340478 ], [ 137.55166272400001, 36.951243058 ], [ 137.55163617299999, 36.951519623 ], [ 137.551611572000013, 36.952079745 ], [ 137.551522917999989, 36.953868655 ], [ 137.551401582000011, 36.955232505 ], [ 137.551232555000013, 36.956361951 ], [ 137.551204474, 36.956528646 ], [ 137.550801635, 36.956976052 ], [ 137.551086336, 36.957123988 ], [ 137.551149441, 36.957058181 ], [ 137.552057692, 36.957485216 ], [ 137.552591707, 36.957686972 ], [ 137.553071649, 36.957827652 ], [ 137.553489041, 36.957929031 ], [ 137.553939172000014, 36.9580145 ], [ 137.554507535, 36.95811274 ], [ 137.555046247, 36.958187369 ], [ 137.555496239, 36.958246488 ], [ 137.556116981, 36.958315577 ], [ 137.556718063, 36.958389996 ], [ 137.55766688599999, 36.958502249 ], [ 137.560520101, 36.958834074 ], [ 137.560691596, 36.958857345 ], [ 137.560688015000011, 36.958617436 ], [ 137.559501493, 36.958448313 ], [ 137.55858700499999, 36.958341805 ], [ 137.558643596, 36.958223381 ], [ 137.558682056, 36.958079139 ], [ 137.556965362999989, 36.957885716 ], [ 137.555954559000014, 36.957763248 ], [ 137.555025035, 36.957647749 ] ] ] } },
{ "type": "Feature", "properties": { "A29_001": "16343", "A29_002": "富山県", "A29_003": "朝日町", "A29_004": 5, "A29_005": "第一種住居地域", "A29_006": 60, "A29_007": 200, "A29_008": null }, "geometry": { "type": "Polygon", "coordinates": [ [ [ 137.568541304, 36.960236046 ], [ 137.568187004, 36.957102177 ], [ 137.56852245499999, 36.956992316 ], [ 137.56664678199999, 36.9549115 ], [ 137.56616872399999, 36.954394512 ], [ 137.56556009, 36.953761722 ], [ 137.56517161799999, 36.953466484 ], [ 137.564390620000012, 36.952969864 ], [ 137.564631537999986, 36.952700853 ], [ 137.56429372299999, 36.952524814 ], [ 137.56384644100001, 36.952352445 ], [ 137.563471768999989, 36.952256235 ], [ 137.563070807, 36.952154846 ], [ 137.562712655000013, 36.952079646 ], [ 137.56248955699999, 36.952043418 ], [ 137.562350336, 36.952828623 ], [ 137.562190743, 36.953715525 ], [ 137.562095648, 36.953710596 ], [ 137.56164744099999, 36.956251434 ], [ 137.561740605000011, 36.956252805 ], [ 137.561738014000014, 36.956645506 ], [ 137.564586537999986, 36.95681271 ], [ 137.564726177000011, 36.95636639 ], [ 137.564711706, 36.95579349 ], [ 137.56535105899999, 36.9558144 ], [ 137.566112831999988, 36.955864519 ], [ 137.56635404299999, 36.955855809 ], [ 137.566636424, 36.955874618 ], [ 137.566630175, 36.956404768 ], [ 137.566599435, 36.956489168 ], [ 137.566591616000011, 36.956562958 ], [ 137.566613526, 36.956673518 ], [ 137.56660065599999, 36.956722298 ], [ 137.566561736000011, 36.956811988 ], [ 137.56656524600001, 36.956856768 ], [ 137.566595095999986, 36.956914608 ], [ 137.566652737, 36.956953938 ], [ 137.56676786700001, 36.957000967 ], [ 137.566734278000013, 36.957168347 ], [ 137.566694008000013, 36.957313367 ], [ 137.56663052799999, 36.957569757 ], [ 137.565867774999987, 36.957492638 ], [ 137.56476776, 36.957417309 ], [ 137.56158097299999, 36.957245694 ], [ 137.561489972, 36.958711848 ], [ 137.5608035, 36.958633556 ], [ 137.560688015000011, 36.958617436 ], [ 137.560691596, 36.958857345 ], [ 137.560520101, 36.958834074 ], [ 137.56052878700001, 36.95951949 ], [ 137.562127366, 36.959612818 ], [ 137.563511319000014, 36.959686087 ], [ 137.563243011999987, 36.9588977 ], [ 137.56456930600001, 36.959044556 ], [ 137.565097138999988, 36.959104444 ], [ 137.56534338899999, 36.959142806 ], [ 137.565879943999988, 36.959250444 ], [ 137.566408693999989, 36.959410972 ], [ 137.567403278, 36.959788111 ], [ 137.568142222, 36.960064833 ], [ 137.568541304, 36.960236046 ] ] ] } },
{ "type": "Feature", "properties": { "A29_001": "16343", "A29_002": "富山県", "A29_003": "朝日町", "A29_004": 3, "A29_005": "第一種中高層住居専用地域", "A29_006": 60, "A29_007": 200, "A29_008": null }, "geometry": { "type": "Polygon", "coordinates": [ [ [ 137.560044083, 36.960304306 ], [ 137.560044306, 36.960138583 ], [ 137.560535528, 36.960150861 ], [ 137.56052878700001, 36.95951949 ], [ 137.560520101, 36.958834074 ], [ 137.55766688599999, 36.958502249 ], [ 137.557725417, 36.958775056 ], [ 137.55747761399999, 36.958736012 ], [ 137.55722075599999, 36.959941778 ], [ 137.560044083, 36.960304306 ] ] ] } }
]
}
