{
"type": "FeatureCollection",
"name": "A29-19_28220",
"features": [
{ "type": "Feature", "properties": { "A29_001": "28220", "A29_002": "兵庫県", "A29_003": "加西市", "A29_004": 11, "A29_005": "工業地域", "A29_006": 60, "A29_007": 200, "A29_008": null }, "geometry": { "type": "Polygon", "coordinates": [ [ [ 134.88005297, 34.858492643 ], [ 134.880216534999988, 34.858425488 ], [ 134.880540983, 34.858157166 ], [ 134.880804527, 34.858199971 ], [ 134.881103099, 34.858192902 ], [ 134.88141182199999, 34.858145715 ], [ 134.88164906099999, 34.858053055 ], [ 134.881991812, 34.857901244 ], [ 134.882299819999986, 34.857746726 ], [ 134.882582434, 34.857524439 ], [ 134.88259636699999, 34.857514473 ], [ 134.882509402000011, 34.856932555 ], [ 134.882455402, 34.856644193 ], [ 134.882360419, 34.856284461 ], [ 134.88186961, 34.856448868 ], [ 134.881656204, 34.856120676 ], [ 134.881485932, 34.855751742 ], [ 134.881538635, 34.855716122 ], [ 134.881592514, 34.855679707 ], [ 134.881927708, 34.85561141 ], [ 134.882103779, 34.855546216 ], [ 134.88210616, 34.855484564 ], [ 134.88211612399999, 34.855226547 ], [ 134.88215454600001, 34.854040943 ], [ 134.882143928, 34.853313513 ], [ 134.880944889, 34.851828185 ], [ 134.880591718, 34.851801152 ], [ 134.880397867999989, 34.851802024 ], [ 134.880094514, 34.851870173 ], [ 134.879880821, 34.851933148 ], [ 134.879891441000012, 34.852226477 ], [ 134.879521098, 34.852228141 ], [ 134.879170646, 34.852174855 ], [ 134.878883769, 34.852109357 ], [ 134.878666173, 34.852019697 ], [ 134.878430385, 34.851803703 ], [ 134.877655169, 34.852274669 ], [ 134.876424852000014, 34.853060121 ], [ 134.87572617699999, 34.853497528 ], [ 134.87401310300001, 34.854594993 ], [ 134.872379427999988, 34.855656492 ], [ 134.872461598, 34.855739437 ], [ 134.872624094, 34.855903465 ], [ 134.872631922000011, 34.855945323 ], [ 134.87264058400001, 34.855991643 ], [ 134.872683029, 34.856066588 ], [ 134.87273806799999, 34.85614542 ], [ 134.872945915, 34.856443116 ], [ 134.87291113399999, 34.856803639 ], [ 134.872566854000013, 34.856970863 ], [ 134.872797631, 34.857221696 ], [ 134.873463407, 34.857482303 ], [ 134.873626757000011, 34.857461303 ], [ 134.87373237700001, 34.857462026 ], [ 134.873841046, 34.857486588 ], [ 134.87412547299999, 34.857175251 ], [ 134.874194595, 34.85726283 ], [ 134.874668731000014, 34.857863559 ], [ 134.874920777999989, 34.857772775 ], [ 134.87524227, 34.85769654 ], [ 134.87559829, 34.85763253 ], [ 134.87575746499999, 34.857645181 ], [ 134.875905466, 34.857684905 ], [ 134.87613884699999, 34.857753033 ], [ 134.876417374999988, 34.857866278 ], [ 134.876479931, 34.857918473 ], [ 134.87651678099999, 34.858022063 ], [ 134.87650539099999, 34.858270172 ], [ 134.876485983, 34.858399058 ], [ 134.876448122999989, 34.858544207 ], [ 134.876233514, 34.859169403 ], [ 134.876211076, 34.859336151 ], [ 134.877159103, 34.85913971 ], [ 134.87837574299999, 34.858873451 ], [ 134.878381924, 34.858846744 ], [ 134.878406691, 34.858739743 ], [ 134.87852607, 34.85870535 ], [ 134.878825623000012, 34.858642457 ], [ 134.879166125000012, 34.858639772 ], [ 134.879456404, 34.858638434 ], [ 134.879577821999987, 34.858621192 ], [ 134.879857996999988, 34.858544801 ], [ 134.88005297, 34.858492643 ] ] ] } },
{ "type": "Feature", "properties": { "A29_001": "28220", "A29_002": "兵庫県", "A29_003": "加西市", "A29_004": 5, "A29_005": "第一種住居地域", "A29_006": 60, "A29_007": 200, "A29_008": null }, "geometry": { "type": "Polygon", "coordinates": [ [ [ 134.878360805, 34.880620698 ], [ 134.876326884, 34.8785478 ], [ 134.875753902000014, 34.879405594 ], [ 134.87572211, 34.879453189 ], [ 134.875655136, 34.879380862 ], [ 134.875303593000012, 34.878649653 ], [ 134.87519293, 34.87858743 ], [ 134.875023569, 34.878506054 ], [ 134.874849409, 34.87842955 ], [ 134.87464569, 34.878347454 ], [ 134.87441549, 34.878273502 ], [ 134.874287054, 34.878188052 ], [ 134.874103647999988, 34.878361653 ], [ 134.874160216, 34.87843586 ], [ 134.874962868000011, 34.879488774 ], [ 134.876137559999989, 34.880991688 ], [ 134.876637211, 34.881660627 ], [ 134.87684754, 34.881949777 ], [ 134.877047855, 34.882264622 ], [ 134.87754637099999, 34.884147959 ], [ 134.879095962, 34.883899665 ], [ 134.879028014999989, 34.883562903 ], [ 134.87882401499999, 34.883440745 ], [ 134.87883491299999, 34.882695074 ], [ 134.878785034, 34.882440969 ], [ 134.87867309, 34.881888681 ], [ 134.878536566, 34.880949447 ], [ 134.878512373, 34.880812286 ], [ 134.87847979899999, 34.88075755 ], [ 134.878360805, 34.880620698 ] ] ] } },
{ "type": "Feature", "properties": { "A29_001": "28220", "A29_002": "兵庫県", "A29_003": "加西市", "A29_004": 5, "A29_005": "第一種住居地域", "A29_006": 60, "A29_007": 200, "A29_008": null }, "geometry": { "type": "Polygon", "coordinates": [ [ [ 134.879438576000013, 34.889342322 ], [ 134.879478919, 34.889132196 ], [ 134.879616865, 34.888854635 ], [ 134.879629464, 34.888790179 ], [ 134.879636159, 34.888489619 ], [ 134.879750973, 34.888124173 ], [ 134.879750546999986, 34.888059776 ], [ 134.879638363, 34.886854581 ], [ 134.87976663500001, 34.886821646 ], [ 134.879964655, 34.886770801 ], [ 134.879957955, 34.886661603 ], [ 134.879945168, 34.886453176 ], [ 134.880043384, 34.886425708 ], [ 134.88007518399999, 34.886416814 ], [ 134.880161758000014, 34.88637707 ], [ 134.88019551799999, 34.886347119 ], [ 134.88027254799999, 34.88627878 ], [ 134.880306942, 34.886227344 ], [ 134.880089602, 34.886015327 ], [ 134.879737397000014, 34.885631468 ], [ 134.879402754000012, 34.8854517 ], [ 134.879373689, 34.885411759 ], [ 134.879353138999988, 34.885348583 ], [ 134.879205316999986, 34.884541156 ], [ 134.87771324, 34.88474834 ], [ 134.87792, 34.88530274 ], [ 134.878099569, 34.885788955 ], [ 134.87869507799999, 34.887473259 ], [ 134.879134407, 34.888687719 ], [ 134.879385501, 34.889350116 ], [ 134.879416456, 34.889431775 ], [ 134.879438576000013, 34.889342322 ] ] ] } },
{ "type": "Feature", "properties": { "A29_001": "28220", "A29_002": "兵庫県", "A29_003": "加西市", "A29_004": 6, "A29_005": "第二種住居地域", "A29_006": 60, "A29_007": 200, "A29_008": null }, "geometry": { "type": "Polygon", "coordinates": [ [ [ 134.87439999, 34.87995132 ], [ 134.87459743, 34.88018505 ], [ 134.874825866, 34.880469205 ], [ 134.874755324, 34.88053202 ], [ 134.874785538, 34.88056797 ], [ 134.875099283, 34.88094127 ], [ 134.875290917, 34.881193243 ], [ 134.87567051799999, 34.881692364 ], [ 134.87574843199999, 34.881796758 ], [ 134.87587883899999, 34.881971487 ], [ 134.87598106199999, 34.882108452 ], [ 134.876178833000012, 34.882597611 ], [ 134.87624008099999, 34.882741857 ], [ 134.876357805999987, 34.883019111 ], [ 134.876431544000013, 34.883309193 ], [ 134.876436661000014, 34.883327621 ], [ 134.876609613999989, 34.883950468 ], [ 134.876728528, 34.8843787 ], [ 134.87678151899999, 34.884532972 ], [ 134.877133278, 34.885557019 ], [ 134.877140531, 34.885578133 ], [ 134.87716298699999, 34.885643505 ], [ 134.87731603200001, 34.886089043 ], [ 134.87740236799999, 34.88634038 ], [ 134.877410774999987, 34.886364852 ], [ 134.877714473999987, 34.886312183 ], [ 134.87775039600001, 34.886403646 ], [ 134.87779608, 34.886523864 ], [ 134.87820740399999, 34.887724647 ], [ 134.87822112500001, 34.887764704 ], [ 134.878408064000013, 34.888274317 ], [ 134.878534788, 34.888619775 ], [ 134.878721839, 34.889129684 ], [ 134.87888769599999, 34.889581811 ], [ 134.87894116199999, 34.889727557 ], [ 134.87894288699999, 34.88973226 ], [ 134.879122383, 34.889714584 ], [ 134.879160832, 34.889710896 ], [ 134.879160366, 34.889708717 ], [ 134.879099380000014, 34.889519104 ], [ 134.879141096000012, 34.889516929 ], [ 134.87927369499999, 34.88949726 ], [ 134.879356755, 34.889480978 ], [ 134.879414379, 34.889440172 ], [ 134.879416456, 34.889431775 ], [ 134.879385501, 34.889350116 ], [ 134.879134407, 34.888687719 ], [ 134.87869507799999, 34.887473259 ], [ 134.878099569, 34.885788955 ], [ 134.87792, 34.88530274 ], [ 134.87771324, 34.88474834 ], [ 134.879205316999986, 34.884541156 ], [ 134.879197940000012, 34.884500863 ], [ 134.879095962, 34.883899665 ], [ 134.87754637099999, 34.884147959 ], [ 134.877047855, 34.882264622 ], [ 134.87684754, 34.881949777 ], [ 134.876637211, 34.881660627 ], [ 134.876137559999989, 34.880991688 ], [ 134.874962868000011, 34.879488774 ], [ 134.874160216, 34.87843586 ], [ 134.874103647999988, 34.878361653 ], [ 134.873602742, 34.878880407 ], [ 134.873662776, 34.878987473 ], [ 134.873558148, 34.879085411 ], [ 134.87397203, 34.87941475 ], [ 134.874116179, 34.879528002 ], [ 134.8741699, 34.87966602 ], [ 134.87439999, 34.87995132 ] ] ] } },
{ "type": "Feature", "properties": { "A29_001": "28220", "A29_002": "兵庫県", "A29_003": "加西市", "A29_004": 11, "A29_005": "工業地域", "A29_006": 60, "A29_007": 200, "A29_008": null }, "geometry": { "type": "Polygon", "coordinates": [ [ [ 134.877410774999987, 34.886364852 ], [ 134.875759786, 34.886651237 ], [ 134.875181693, 34.885024907 ], [ 134.874384631999988, 34.885445979 ], [ 134.874283087, 34.885572549 ], [ 134.874847057000011, 34.886564136 ], [ 134.875549697999986, 34.887772666 ], [ 134.875842884, 34.888339026 ], [ 134.875911327000011, 34.888512837 ], [ 134.875944871, 34.88866176 ], [ 134.87594927399999, 34.888780998 ], [ 134.875953715, 34.888906199 ], [ 134.875943586, 34.889016558 ], [ 134.876135511, 34.889177508 ], [ 134.87575842199999, 34.890022133 ], [ 134.87559746, 34.890306089 ], [ 134.87573999899999, 34.890421048 ], [ 134.875384415000013, 34.890924199 ], [ 134.87557897799999, 34.89098469 ], [ 134.875784528, 34.890985417 ], [ 134.875942056000014, 34.890969417 ], [ 134.876079377999986, 34.890925213 ], [ 134.87624655499999, 34.890614681 ], [ 134.87647895, 34.89064404 ], [ 134.876847160000011, 34.89062302 ], [ 134.877133320000013, 34.890524566 ], [ 134.877329527, 34.890428282 ], [ 134.877392477, 34.890487345 ], [ 134.877676145, 34.890753497 ], [ 134.877869534000013, 34.89061048 ], [ 134.877894768, 34.89059182 ], [ 134.877886407, 34.890023412 ], [ 134.878172826999986, 34.889895743 ], [ 134.878216691, 34.889628381 ], [ 134.87837920199999, 34.889621891 ], [ 134.878754963, 34.889606885 ], [ 134.878842165, 34.889742889 ], [ 134.87894288699999, 34.88973226 ], [ 134.87894116199999, 34.889727557 ], [ 134.87888769599999, 34.889581811 ], [ 134.878721839, 34.889129684 ], [ 134.878534788, 34.888619775 ], [ 134.878408064000013, 34.888274317 ], [ 134.87822112500001, 34.887764704 ], [ 134.87820740399999, 34.887724647 ], [ 134.87779608, 34.886523864 ], [ 134.87775039600001, 34.886403646 ], [ 134.877714473999987, 34.886312183 ], [ 134.877410774999987, 34.886364852 ] ] ] } },
{ "type": "Feature", "properties": { "A29_001": "28220", "A29_002": "兵庫県", "A29_003": "加西市", "A29_004": 10, "A29_005": "準工業地域", "A29_006": 60, "A29_007": 200, "A29_008": null }, "geometry": { "type": "Polygon", "coordinates": [ [ [ 134.844077816, 34.909906534 ], [ 134.844044875, 34.909650534 ], [ 134.843756355000011, 34.909473094 ], [ 134.843429165, 34.909379754 ], [ 134.843480375000013, 34.909209494 ], [ 134.843131934000013, 34.909060284 ], [ 134.843094154, 34.908864575 ], [ 134.841938844, 34.909435505 ], [ 134.842720756, 34.910492315 ], [ 134.843398705999988, 34.910156914 ], [ 134.843528905, 34.909873324 ], [ 134.844077816, 34.909906534 ] ] ] } },
{ "type": "Feature", "properties": { "A29_001": "28220", "A29_002": "兵庫県", "A29_003": "加西市", "A29_004": 11, "A29_005": "工業地域", "A29_006": 60, "A29_007": 200, "A29_008": null }, "geometry": { "type": "Polygon", "coordinates": [ [ [ 134.89100566499999, 34.911857215 ], [ 134.891042206, 34.911855844 ], [ 134.892032061, 34.912276282 ], [ 134.892383344, 34.911856274 ], [ 134.892538882999986, 34.911865243 ], [ 134.892946223, 34.912304613 ], [ 134.892947045, 34.912444628 ], [ 134.893239154000014, 34.912825233 ], [ 134.893837353, 34.912798792 ], [ 134.893962743, 34.912699212 ], [ 134.89409339299999, 34.912698602 ], [ 134.894825182, 34.912352053 ], [ 134.894813809, 34.912337805 ], [ 134.894682980999988, 34.912173912 ], [ 134.89457528, 34.911880948 ], [ 134.893824029, 34.911153844 ], [ 134.893768513999987, 34.91108016 ], [ 134.892831609000012, 34.909894288 ], [ 134.892354143, 34.909035139 ], [ 134.892080528, 34.908714402 ], [ 134.891742735, 34.908509554 ], [ 134.891282260999986, 34.908244447 ], [ 134.891096922, 34.908132003 ], [ 134.890911544, 34.908013596 ], [ 134.890798768, 34.907927651 ], [ 134.89068953099999, 34.907829765 ], [ 134.890638341, 34.907752482 ], [ 134.89054360099999, 34.907657511 ], [ 134.889599438, 34.907232241 ], [ 134.88938345, 34.907551765 ], [ 134.889357796000013, 34.907589717 ], [ 134.88915463699999, 34.907603527 ], [ 134.889228078, 34.907756867 ], [ 134.88898057899999, 34.908171183 ], [ 134.889059328, 34.90826443 ], [ 134.889076894, 34.90828523 ], [ 134.888748811999989, 34.90836544 ], [ 134.888747346, 34.90846106 ], [ 134.888747192000011, 34.908471069 ], [ 134.8887468, 34.908496633 ], [ 134.888453249, 34.908505904 ], [ 134.888265708, 34.908976532 ], [ 134.888323022, 34.908974466 ], [ 134.88838396, 34.908994461 ], [ 134.888482431999989, 34.908998782 ], [ 134.888606865000014, 34.908988673 ], [ 134.888686309, 34.908962073 ], [ 134.888733976999987, 34.908946352 ], [ 134.888755691, 34.908946252 ], [ 134.88877158, 34.908955567 ], [ 134.88879202699999, 34.908967553 ], [ 134.889065233, 34.909230646 ], [ 134.888392076, 34.909826517 ], [ 134.88834819600001, 34.909906357 ], [ 134.888337334999989, 34.910006199 ], [ 134.888348992, 34.910063833 ], [ 134.888360261, 34.910119549 ], [ 134.888627775, 34.910490081 ], [ 134.888213363, 34.910697811 ], [ 134.887813808, 34.910870937 ], [ 134.887779391, 34.910887357 ], [ 134.888018918, 34.911063727 ], [ 134.888154883, 34.911095536 ], [ 134.88846660199999, 34.911384929 ], [ 134.888432150999989, 34.911434565 ], [ 134.888413250000013, 34.911461796 ], [ 134.8883961, 34.911486506 ], [ 134.88840456, 34.911687871 ], [ 134.88831355799999, 34.911746847 ], [ 134.888701000999987, 34.912046816 ], [ 134.888703717, 34.912030998 ], [ 134.888728863000011, 34.911884498 ], [ 134.888784628, 34.911856626 ], [ 134.889092951, 34.91175257 ], [ 134.88920523499999, 34.911894246 ], [ 134.889219531, 34.91188843 ], [ 134.88937127, 34.911826702 ], [ 134.889377286000013, 34.911645403 ], [ 134.889413168, 34.91163861 ], [ 134.889681676, 34.911587776 ], [ 134.889677374, 34.91171937 ], [ 134.88967625, 34.911753752 ], [ 134.890110526, 34.911746993 ], [ 134.89019077899999, 34.91170339 ], [ 134.890334104, 34.911625518 ], [ 134.890416526, 34.91161083 ], [ 134.890566619, 34.911600095 ], [ 134.890701592, 34.911590441 ], [ 134.89100566499999, 34.911857215 ] ] ] } },
{ "type": "Feature", "properties": { "A29_001": "28220", "A29_002": "兵庫県", "A29_003": "加西市", "A29_004": 12, "A29_005": "工業専用地域", "A29_006": 60, "A29_007": 200, "A29_008": null }, "geometry": { "type": "Polygon", "coordinates": [ [ [ 134.843682647, 34.911918574 ], [ 134.843769702, 34.911691963 ], [ 134.84427192699999, 34.911765796 ], [ 134.844827968, 34.911766324 ], [ 134.845832408, 34.911799763 ], [ 134.845968508, 34.911835772 ], [ 134.846710309, 34.912211472 ], [ 134.846906969, 34.912320422 ], [ 134.846970328999987, 34.912423472 ], [ 134.847161669, 34.912209072 ], [ 134.847060905, 34.912238702 ], [ 134.846158659999986, 34.911801536 ], [ 134.846158674, 34.911774068 ], [ 134.846500201999987, 34.911565595 ], [ 134.846663681, 34.911593527 ], [ 134.846689360999989, 34.911464592 ], [ 134.846560546, 34.911212337 ], [ 134.846162711, 34.91136292 ], [ 134.84613995699999, 34.911371533 ], [ 134.846297295999989, 34.911509321 ], [ 134.84632861099999, 34.911536744 ], [ 134.84610006, 34.911660782 ], [ 134.845712418, 34.911412823 ], [ 134.845295799000013, 34.911584032 ], [ 134.844868835, 34.911649752 ], [ 134.84480971799999, 34.911636173 ], [ 134.844746797, 34.911182273 ], [ 134.844634052, 34.911049204 ], [ 134.844572805000013, 34.910977907 ], [ 134.84457759099999, 34.910909194 ], [ 134.844625509, 34.91085331 ], [ 134.844952086, 34.910156843 ], [ 134.844104216, 34.909949474 ], [ 134.844077816, 34.909906534 ], [ 134.843528905, 34.909873324 ], [ 134.843398705999988, 34.910156914 ], [ 134.842720756, 34.910492315 ], [ 134.841938844, 34.909435505 ], [ 134.843094154, 34.908864575 ], [ 134.843056553999986, 34.908701145 ], [ 134.842923584, 34.908749055 ], [ 134.84273002399999, 34.908713275 ], [ 134.842639741, 34.908590739 ], [ 134.842292753, 34.908635514 ], [ 134.842196414, 34.908618655 ], [ 134.841352046, 34.908434841 ], [ 134.84133454799999, 34.908488553 ], [ 134.841297126, 34.908603425 ], [ 134.841127777999986, 34.90855305 ], [ 134.841022208999988, 34.908919778 ], [ 134.841178391999989, 34.909069742 ], [ 134.841309341999988, 34.909458452 ], [ 134.841342086999987, 34.909645767 ], [ 134.840747219, 34.909948602 ], [ 134.840174917000013, 34.910239944 ], [ 134.840043132, 34.910298513 ], [ 134.839985778, 34.910212 ], [ 134.839979777999986, 34.910185667 ], [ 134.839836432999988, 34.909749655 ], [ 134.839835222, 34.909745972 ], [ 134.839834352, 34.909744334 ], [ 134.83981, 34.909698472 ], [ 134.839815261000012, 34.909695511 ], [ 134.83996621599999, 34.909610555 ], [ 134.839975563, 34.909060577 ], [ 134.83994061300001, 34.908477407 ], [ 134.839897662, 34.908290317 ], [ 134.83978723199999, 34.908176707 ], [ 134.83958246200001, 34.908020427 ], [ 134.83970887800001, 34.907885132 ], [ 134.839673599, 34.907859674 ], [ 134.839518684000012, 34.907810231 ], [ 134.839420424999986, 34.907792752 ], [ 134.839349298, 34.90780879 ], [ 134.839135258, 34.907891253 ], [ 134.839051102000013, 34.907907345 ], [ 134.838920723, 34.907892861 ], [ 134.838817164, 34.907861092 ], [ 134.83869980599999, 34.907862802 ], [ 134.838696747, 34.908054791 ], [ 134.838890098, 34.908061582 ], [ 134.839015832, 34.908078747 ], [ 134.838994891999988, 34.908498557 ], [ 134.838941029000011, 34.908569844 ], [ 134.838870203999988, 34.908588027 ], [ 134.838782931999987, 34.908637989 ], [ 134.838774895, 34.908746705 ], [ 134.83878253099999, 34.908820999 ], [ 134.838890502999988, 34.908946707 ], [ 134.838916692, 34.909036346 ], [ 134.838938203, 34.909482467 ], [ 134.83914085399999, 34.910144577 ], [ 134.839360074000012, 34.910100617 ], [ 134.8394934, 34.910519798 ], [ 134.839385028, 34.910548139 ], [ 134.839336333, 34.910560889 ], [ 134.839073082999988, 34.91059925 ], [ 134.838781167, 34.910610167 ], [ 134.838519851, 34.910591088 ], [ 134.838389983000013, 34.910528539 ], [ 134.83826987399999, 34.910428018 ], [ 134.838237983999989, 34.910768238 ], [ 134.838155605, 34.911823278 ], [ 134.838605916, 34.911967768 ], [ 134.83877405199999, 34.912216783 ], [ 134.839057086, 34.912250017 ], [ 134.83930855599999, 34.912352297 ], [ 134.839442807000012, 34.912511017 ], [ 134.83967401699999, 34.912718837 ], [ 134.839876557, 34.912935387 ], [ 134.840120387000013, 34.913069977 ], [ 134.84030777699999, 34.912948656 ], [ 134.840614566999989, 34.912697696 ], [ 134.840784337, 34.912684066 ], [ 134.84088940699999, 34.912774036 ], [ 134.840964957000011, 34.912737126 ], [ 134.84116420699999, 34.912843916 ], [ 134.841597218, 34.913145605 ], [ 134.842050188, 34.913188905 ], [ 134.842481157, 34.912206665 ], [ 134.84262733700001, 34.912183445 ], [ 134.842774767, 34.911728665 ], [ 134.843255937, 34.911789064 ], [ 134.843251317000011, 34.911888104 ], [ 134.843682647, 34.911918574 ] ] ] } },
{ "type": "Feature", "properties": { "A29_001": "28220", "A29_002": "兵庫県", "A29_003": "加西市", "A29_004": 12, "A29_005": "工業専用地域", "A29_006": 60, "A29_007": 200, "A29_008": null }, "geometry": { "type": "Polygon", "coordinates": [ [ [ 134.881279756999987, 34.911573117 ], [ 134.881126943999988, 34.911597707 ], [ 134.880970165, 34.911534015 ], [ 134.880903859, 34.911489709 ], [ 134.880853529, 34.911456079 ], [ 134.880771764, 34.911401445 ], [ 134.880099271, 34.911917417 ], [ 134.879920371, 34.911733117 ], [ 134.880052170999988, 34.911512977 ], [ 134.880100811, 34.911359937 ], [ 134.880050270999988, 34.911226707 ], [ 134.879952901, 34.911121687 ], [ 134.879764101, 34.911021357 ], [ 134.879896351000014, 34.910867947 ], [ 134.880244791, 34.911006287 ], [ 134.880420052, 34.911035637 ], [ 134.880714812, 34.910958977 ], [ 134.880719602, 34.910894367 ], [ 134.880980308, 34.910802896 ], [ 134.881629784000012, 34.910502301 ], [ 134.881778661, 34.910422919 ], [ 134.88186066899999, 34.910345986 ], [ 134.881912328, 34.91027706 ], [ 134.881938663999989, 34.910188214 ], [ 134.881938069, 34.910098773 ], [ 134.881913182, 34.910013736 ], [ 134.881890443, 34.909948477 ], [ 134.881834133000012, 34.909731327 ], [ 134.881923183, 34.909567347 ], [ 134.881917343, 34.909474817 ], [ 134.882087293000012, 34.909099527 ], [ 134.882072623, 34.908856367 ], [ 134.882018613000014, 34.908594007 ], [ 134.881966143, 34.908366097 ], [ 134.881983713000011, 34.908256237 ], [ 134.88201562, 34.908224897 ], [ 134.882175483999987, 34.908157476 ], [ 134.882157623000012, 34.908085417 ], [ 134.882005623, 34.907623317 ], [ 134.882021583000011, 34.907272407 ], [ 134.88223499, 34.907270392 ], [ 134.88235648700001, 34.90725434 ], [ 134.88236867, 34.90723326 ], [ 134.88244028299999, 34.90710936 ], [ 134.882573193000013, 34.90668933 ], [ 134.882575057999986, 34.906279083 ], [ 134.882613362, 34.906278727 ], [ 134.882695248, 34.906277966 ], [ 134.882731076999988, 34.906263246 ], [ 134.883119515, 34.905627935 ], [ 134.883157931999989, 34.905419061 ], [ 134.883113758, 34.905414714 ], [ 134.882911675, 34.905394832 ], [ 134.882931447, 34.905374308 ], [ 134.883130920000013, 34.905167251 ], [ 134.883030224, 34.905186083 ], [ 134.882722476999987, 34.905243634 ], [ 134.88251985299999, 34.905195197 ], [ 134.88209656699999, 34.905037132 ], [ 134.882094712, 34.90494506 ], [ 134.882039952000014, 34.904928307 ], [ 134.881904643000013, 34.904894031 ], [ 134.88177714299999, 34.904910001 ], [ 134.881696620000014, 34.904927907 ], [ 134.88161046, 34.904960329 ], [ 134.881549992, 34.904960514 ], [ 134.88128499699999, 34.904961327 ], [ 134.881217306, 34.904927655 ], [ 134.880921602, 34.904923377 ], [ 134.88092300299999, 34.905028304 ], [ 134.88077059, 34.905031694 ], [ 134.88076497099999, 34.905330107 ], [ 134.881079015000012, 34.905726591 ], [ 134.88076320499999, 34.905778482 ], [ 134.880579726, 34.905828638 ], [ 134.880403554999987, 34.905895023 ], [ 134.88024618599999, 34.905958938 ], [ 134.880232317, 34.905949404 ], [ 134.88022549499999, 34.905944714 ], [ 134.88019965, 34.905926947 ], [ 134.880196289, 34.905878855 ], [ 134.880191653, 34.905812496 ], [ 134.880165946, 34.905811739 ], [ 134.880128434999989, 34.905810634 ], [ 134.87998707599999, 34.905880579 ], [ 134.879742136, 34.906115135 ], [ 134.879724984, 34.90619779 ], [ 134.879491, 34.906278608 ], [ 134.87929799, 34.906322341 ], [ 134.879492062, 34.906628979 ], [ 134.879475441000011, 34.906742348 ], [ 134.879461676, 34.90695237 ], [ 134.879461049000014, 34.906973773 ], [ 134.87959491, 34.906977678 ], [ 134.87955208, 34.907166561 ], [ 134.879445522, 34.907471147 ], [ 134.879283211, 34.907713039 ], [ 134.879346661999989, 34.907732607 ], [ 134.87936622399999, 34.90773864 ], [ 134.879355898, 34.907923719 ], [ 134.879354576999987, 34.907947393 ], [ 134.87961708, 34.907956948 ], [ 134.879620030000012, 34.908027296 ], [ 134.87968979499999, 34.908054151 ], [ 134.87951478, 34.908684938 ], [ 134.87939967, 34.908663928 ], [ 134.879210730000011, 34.908935978 ], [ 134.8790498, 34.908925482 ], [ 134.878888418, 34.909062547 ], [ 134.87890477, 34.909292508 ], [ 134.87886391, 34.909436898 ], [ 134.87922598, 34.909661288 ], [ 134.879633651, 34.909670218 ], [ 134.879642571, 34.909833767 ], [ 134.879604461000014, 34.909997518 ], [ 134.879454691, 34.910265088 ], [ 134.879354611999986, 34.910162876 ], [ 134.879293299000011, 34.910100257 ], [ 134.879243801, 34.910049703 ], [ 134.87886898, 34.910203148 ], [ 134.87857992, 34.910350818 ], [ 134.87853214, 34.910633008 ], [ 134.87857987000001, 34.910738258 ], [ 134.8785129, 34.910999887 ], [ 134.878512483, 34.91109809 ], [ 134.87855645, 34.911147318 ], [ 134.87882287, 34.911133218 ], [ 134.878378020000014, 34.911823988 ], [ 134.877937495999987, 34.911608765 ], [ 134.877913052999986, 34.911596823 ], [ 134.877875679, 34.911727238 ], [ 134.877608919000011, 34.911691838 ], [ 134.877613679, 34.912016838 ], [ 134.877578217, 34.912142263 ], [ 134.87755930099999, 34.91226625 ], [ 134.877512593, 34.912293723 ], [ 134.87751096, 34.91230712 ], [ 134.87752562899999, 34.912333303 ], [ 134.877611997, 34.912397579 ], [ 134.877652919000013, 34.912398558 ], [ 134.877679183, 34.912399186 ], [ 134.87764267, 34.912482353 ], [ 134.877596922, 34.912570331 ], [ 134.87757142800001, 34.91266904 ], [ 134.877546102, 34.912767095 ], [ 134.877546857999988, 34.912881752 ], [ 134.877547908, 34.913040744 ], [ 134.877548362, 34.913109593 ], [ 134.877591523, 34.913156148 ], [ 134.87759036599999, 34.913260155 ], [ 134.877590354, 34.91326123 ], [ 134.877590069, 34.913286861 ], [ 134.877536055, 34.913314935 ], [ 134.87735542199999, 34.913324644 ], [ 134.877107267000014, 34.913294327 ], [ 134.876541269, 34.913192101 ], [ 134.87625538099999, 34.913140465 ], [ 134.876234842, 34.913136755 ], [ 134.87622950299999, 34.913195448 ], [ 134.876211891, 34.913389087 ], [ 134.876185690999989, 34.913697723 ], [ 134.876155152, 34.913703696 ], [ 134.876090839999989, 34.913716274 ], [ 134.876022645, 34.913737568 ], [ 134.87594186699999, 34.91378277 ], [ 134.875859378, 34.913852098 ], [ 134.875755636, 34.913802365 ], [ 134.875587415000012, 34.913779218 ], [ 134.87554874, 34.913781359 ], [ 134.875399277000014, 34.913819718 ], [ 134.875114470999989, 34.914070294 ], [ 134.875123988000013, 34.914108414 ], [ 134.875190671000013, 34.914385748 ], [ 134.875232594000011, 34.914596568 ], [ 134.87537397299999, 34.914696113 ], [ 134.875392588000011, 34.914726634 ], [ 134.87538190699999, 34.914756108 ], [ 134.875230957000014, 34.914849338 ], [ 134.875201928, 34.914865034 ], [ 134.875176404, 34.91494672 ], [ 134.87516996299999, 34.915024027 ], [ 134.875176059000012, 34.915158523 ], [ 134.875203203000012, 34.915316438 ], [ 134.875013795, 34.915524636 ], [ 134.874976741000012, 34.915614244 ], [ 134.874924697000012, 34.915904908 ], [ 134.87486633, 34.915932613 ], [ 134.874618287, 34.915857248 ], [ 134.874583161, 34.915868824 ], [ 134.874499918, 34.916158372 ], [ 134.875168906, 34.916876324 ], [ 134.875187734, 34.916861917 ], [ 134.875275509, 34.916794754 ], [ 134.875569918, 34.916897856 ], [ 134.875550917999988, 34.917013258 ], [ 134.875776128000012, 34.917085438 ], [ 134.87591781099999, 34.916933804 ], [ 134.876114623, 34.916479747 ], [ 134.876916927, 34.916683401 ], [ 134.877789199, 34.914760209 ], [ 134.878006266, 34.914375233 ], [ 134.877957263000013, 34.914229099 ], [ 134.877858893, 34.913935739 ], [ 134.877810915, 34.913819723 ], [ 134.877787067000014, 34.913716076 ], [ 134.877778987999989, 34.913588805 ], [ 134.87787726900001, 34.913550338 ], [ 134.87853899000001, 34.913644238 ], [ 134.879449021, 34.913749917 ], [ 134.880018632, 34.913745217 ], [ 134.880479361999988, 34.913674257 ], [ 134.880805122, 34.913543647 ], [ 134.881200713, 34.913302937 ], [ 134.881962972999986, 34.912797987 ], [ 134.881889367000014, 34.912638003 ], [ 134.881876928, 34.912526069 ], [ 134.881429706, 34.911784083 ], [ 134.881327822, 34.911615046 ], [ 134.88130219300001, 34.911572525 ], [ 134.881279756999987, 34.911573117 ] ] ] } },
{ "type": "Feature", "properties": { "A29_001": "28220", "A29_002": "兵庫県", "A29_003": "加西市", "A29_004": 4, "A29_005": "第二種中高層住居専用地域", "A29_006": 60, "A29_007": 200, "A29_008": null }, "geometry": { "type": "Polygon", "coordinates": [ [ [ 134.83626382, 34.917771989 ], [ 134.835922979, 34.917769106 ], [ 134.83599058499999, 34.919170594 ], [ 134.83599132399999, 34.919341274 ], [ 134.83596951199999, 34.919489178 ], [ 134.835956479, 34.919535577 ], [ 134.835897714999987, 34.919776244 ], [ 134.835814125000013, 34.920124822 ], [ 134.835760337000011, 34.920231899 ], [ 134.835651678, 34.920382956 ], [ 134.835500978999988, 34.920594332 ], [ 134.83516398899999, 34.920934742 ], [ 134.835820379000012, 34.920583332 ], [ 134.83585975299999, 34.920561436 ], [ 134.837767278, 34.919453806 ], [ 134.837725444, 34.919412694 ], [ 134.837691056000011, 34.919372167 ], [ 134.837650222, 34.919313028 ], [ 134.837619444000012, 34.919260556 ], [ 134.837578917, 34.919189472 ], [ 134.83754188899999, 34.919145306 ], [ 134.837520500000011, 34.919105028 ], [ 134.837479556, 34.919028139 ], [ 134.83745925, 34.918988167 ], [ 134.837438972, 34.918948194 ], [ 134.83739822199999, 34.9188395 ], [ 134.8373785, 34.918770778 ], [ 134.837373805999988, 34.918733194 ], [ 134.837362944, 34.918658917 ], [ 134.83735347199999, 34.918625333 ], [ 134.837339944, 34.918596639 ], [ 134.837284111, 34.918511861 ], [ 134.837238082999988, 34.918453972 ], [ 134.837205167, 34.918414361 ], [ 134.837196417, 34.918406722 ], [ 134.83716861100001, 34.918382389 ], [ 134.837146611, 34.918365667 ], [ 134.837109333, 34.918342583 ], [ 134.837056444000012, 34.9183165 ], [ 134.837004721999989, 34.918293194 ], [ 134.83689933299999, 34.918240722 ], [ 134.836849806, 34.918212778 ], [ 134.836767888999987, 34.918176444 ], [ 134.836657472000013, 34.918149694 ], [ 134.836603889, 34.9181285 ], [ 134.836568306, 34.918098972 ], [ 134.836451278999988, 34.918007337 ], [ 134.836341091, 34.917907146 ], [ 134.836291546000012, 34.917820485 ], [ 134.83626382, 34.917771989 ] ] ] } },
{ "type": "Feature", "properties": { "A29_001": "28220", "A29_002": "兵庫県", "A29_003": "加西市", "A29_004": 6, "A29_005": "第二種住居地域", "A29_006": 60, "A29_007": 200, "A29_008": null }, "geometry": { "type": "Polygon", "coordinates": [ [ [ 134.838828866, 34.919968354 ], [ 134.83970542599999, 34.919464625 ], [ 134.839753303, 34.919444178 ], [ 134.840164148000014, 34.919268713 ], [ 134.840396352999988, 34.919168999 ], [ 134.840508782, 34.919086958 ], [ 134.840914074000011, 34.918779686 ], [ 134.841233546000012, 34.9185343 ], [ 134.84146212499999, 34.918362759 ], [ 134.841315796, 34.918365529 ], [ 134.841186635000014, 34.91818311 ], [ 134.841068535, 34.91810181 ], [ 134.84045716599999, 34.91854562 ], [ 134.838348142, 34.919731827 ], [ 134.838312583, 34.919691278 ], [ 134.838254333, 34.919636167 ], [ 134.838224889, 34.919617333 ], [ 134.83816791699999, 34.919588222 ], [ 134.838140685000013, 34.919577032 ], [ 134.838130333, 34.919572778 ], [ 134.838076056, 34.919562306 ], [ 134.83803036899999, 34.919558889 ], [ 134.837971333000013, 34.919554472 ], [ 134.837900694000012, 34.9195355 ], [ 134.837840306, 34.919500278 ], [ 134.837804089, 34.919477231 ], [ 134.837767278, 34.919453806 ], [ 134.83585975299999, 34.920561436 ], [ 134.835820379000012, 34.920583332 ], [ 134.83516398899999, 34.920934742 ], [ 134.834719779000011, 34.921159353 ], [ 134.834232289999989, 34.921461633 ], [ 134.83368841, 34.921949243 ], [ 134.833251800999989, 34.922456863 ], [ 134.832909281000013, 34.922967324 ], [ 134.832779022000011, 34.923249834 ], [ 134.832402792000011, 34.924236124 ], [ 134.83257807199999, 34.924266614 ], [ 134.832839541999988, 34.924395764 ], [ 134.833010272, 34.924538194 ], [ 134.833287703, 34.924822253 ], [ 134.833557222, 34.924124833 ], [ 134.833782851, 34.923515833 ], [ 134.833972531, 34.923120073 ], [ 134.833982018, 34.923107925 ], [ 134.83459617, 34.922437559 ], [ 134.834870362, 34.922192188 ], [ 134.835270068999989, 34.921920434 ], [ 134.83545357, 34.921820352 ], [ 134.836716169, 34.921132802 ], [ 134.837047898, 34.920948563 ], [ 134.838028982, 34.920429629 ], [ 134.838828866, 34.919968354 ] ] ] } },
{ "type": "Feature", "properties": { "A29_001": "28220", "A29_002": "兵庫県", "A29_003": "加西市", "A29_004": 1, "A29_005": "第一種低層住居専用地域", "A29_006": 50, "A29_007": 100, "A29_008": null }, "geometry": { "type": "Polygon", "coordinates": [ [ [ 134.847998889, 34.921353509 ], [ 134.848211682999988, 34.921139608 ], [ 134.848178555, 34.921063796 ], [ 134.847775065, 34.920372416 ], [ 134.847672605000014, 34.920284596 ], [ 134.847576905000011, 34.920234416 ], [ 134.847320475, 34.920390487 ], [ 134.847282245, 34.920547767 ], [ 134.847186195, 34.920649337 ], [ 134.847187615, 34.920772027 ], [ 134.847107316, 34.920886447 ], [ 134.846897536, 34.920772167 ], [ 134.846638856, 34.920986357 ], [ 134.846822836, 34.921469887 ], [ 134.84638986600001, 34.921709557 ], [ 134.845891666999989, 34.921650317 ], [ 134.845694086, 34.921500477 ], [ 134.845573656, 34.921465467 ], [ 134.845479747000013, 34.921491697 ], [ 134.845381287, 34.921627707 ], [ 134.845239287, 34.922011448 ], [ 134.845209207000011, 34.922166008 ], [ 134.845046266999987, 34.922440048 ], [ 134.844907158000012, 34.922763508 ], [ 134.844467028, 34.923641398 ], [ 134.844846209999986, 34.925575928 ], [ 134.8448637, 34.925657648 ], [ 134.84499491, 34.925638798 ], [ 134.846517949, 34.925438657 ], [ 134.84744881899999, 34.925308806 ], [ 134.84780317900001, 34.925243806 ], [ 134.848216828, 34.925150576 ], [ 134.84861188799999, 34.925011146 ], [ 134.849541418, 34.924563805 ], [ 134.850820946999988, 34.923932525 ], [ 134.850683288999988, 34.923895973 ], [ 134.85067350700001, 34.923863205 ], [ 134.85066532499999, 34.923753838 ], [ 134.850457525, 34.923683761 ], [ 134.8504653, 34.923592638 ], [ 134.850418265, 34.923484173 ], [ 134.850243946, 34.923187015 ], [ 134.85000986099999, 34.923008881 ], [ 134.85004219699999, 34.922899962 ], [ 134.84999302599999, 34.922811793 ], [ 134.849813153000014, 34.922811452 ], [ 134.849637464000011, 34.922502129 ], [ 134.84942913399999, 34.922471709 ], [ 134.849123146000011, 34.92223579 ], [ 134.84896481199999, 34.922314174 ], [ 134.848779236000013, 34.922153606 ], [ 134.84862529599999, 34.922087536 ], [ 134.84839291599999, 34.921912016 ], [ 134.848173065999987, 34.921544886 ], [ 134.847998889, 34.921353509 ] ] ] } },
{ "type": "Feature", "properties": { "A29_001": "28220", "A29_002": "兵庫県", "A29_003": "加西市", "A29_004": 2, "A29_005": "第二種低層住居専用地域", "A29_006": 60, "A29_007": 150, "A29_008": null }, "geometry": { "type": "Polygon", "coordinates": [ [ [ 134.844846209999986, 34.925575928 ], [ 134.844467028, 34.923641398 ], [ 134.844907158000012, 34.922763508 ], [ 134.845046266999987, 34.922440048 ], [ 134.845209207000011, 34.922166008 ], [ 134.845239287, 34.922011448 ], [ 134.844563967, 34.921837788 ], [ 134.84388843799999, 34.922682238 ], [ 134.843988118, 34.922742078 ], [ 134.84329477899999, 34.923351979 ], [ 134.842955429, 34.923625689 ], [ 134.841902059, 34.923171629 ], [ 134.841291219999988, 34.924129869 ], [ 134.84203233, 34.924325339 ], [ 134.84227694, 34.925530749 ], [ 134.842364901, 34.925915669 ], [ 134.844017189999988, 34.925694568 ], [ 134.844846209999986, 34.925575928 ] ] ] } },
{ "type": "Feature", "properties": { "A29_001": "28220", "A29_002": "兵庫県", "A29_003": "加西市", "A29_004": 5, "A29_005": "第一種住居地域", "A29_006": 60, "A29_007": 200, "A29_008": null }, "geometry": { "type": "Polygon", "coordinates": [ [ [ 134.851180907000014, 34.924602025 ], [ 134.851113109000011, 34.924635759 ], [ 134.851207605000013, 34.924688197 ], [ 134.851373375, 34.924857432 ], [ 134.85137084199999, 34.925030366 ], [ 134.85157449, 34.925178569 ], [ 134.85183865499999, 34.925438493 ], [ 134.85162888799999, 34.925659654 ], [ 134.850997917, 34.926127889 ], [ 134.851052356, 34.92616031 ], [ 134.85150464, 34.92642967 ], [ 134.851563478, 34.926375614 ], [ 134.85166068800001, 34.926248204 ], [ 134.851724528, 34.926011164 ], [ 134.851867747999989, 34.925825444 ], [ 134.85195475399999, 34.925562535 ], [ 134.85208272700001, 34.925517804 ], [ 134.852432744, 34.92533622 ], [ 134.85223280299999, 34.925078956 ], [ 134.85228154699999, 34.925029434 ], [ 134.85259149699999, 34.924761204 ], [ 134.853088445999987, 34.924410384 ], [ 134.853149736, 34.924286354 ], [ 134.852808345999989, 34.924232934 ], [ 134.852516216, 34.924219644 ], [ 134.852277445999988, 34.924223894 ], [ 134.851971916999986, 34.924260714 ], [ 134.851692777000011, 34.924339394 ], [ 134.851180907000014, 34.924602025 ] ] ] } },
{ "type": "Feature", "properties": { "A29_001": "28220", "A29_002": "兵庫県", "A29_003": "加西市", "A29_004": 4, "A29_005": "第二種中高層住居専用地域", "A29_006": 60, "A29_007": 200, "A29_008": null }, "geometry": { "type": "Polygon", "coordinates": [ [ [ 134.841291219999988, 34.924129869 ], [ 134.84105836, 34.9240878 ], [ 134.840852039999987, 34.92411018 ], [ 134.84061694, 34.92412623 ], [ 134.84042856, 34.92409043 ], [ 134.840247729999987, 34.92400723 ], [ 134.84014264000001, 34.92391727 ], [ 134.83961177, 34.92385921 ], [ 134.839807739, 34.92300388 ], [ 134.840027719, 34.92222809 ], [ 134.840292878000014, 34.92115076 ], [ 134.840553787, 34.92023273 ], [ 134.840896006, 34.91936602 ], [ 134.840935616, 34.91900854 ], [ 134.841773135000011, 34.918370069 ], [ 134.84146212499999, 34.918362759 ], [ 134.841233546000012, 34.9185343 ], [ 134.840914074000011, 34.918779686 ], [ 134.840508782, 34.919086958 ], [ 134.840396352999988, 34.919168999 ], [ 134.840164148000014, 34.919268713 ], [ 134.839753303, 34.919444178 ], [ 134.839633397, 34.91977432 ], [ 134.839347448000012, 34.92055255 ], [ 134.839133688, 34.921383211 ], [ 134.838952559, 34.922210501 ], [ 134.83874087, 34.922955051 ], [ 134.838574599999987, 34.923648831 ], [ 134.838571889, 34.923682549 ], [ 134.83893818300001, 34.923789462 ], [ 134.83890852799999, 34.924005167 ], [ 134.83890158299999, 34.924202111 ], [ 134.838925749999987, 34.92450225 ], [ 134.838973944, 34.924733833 ], [ 134.839019388999986, 34.925 ], [ 134.839112639, 34.925433472 ], [ 134.839191889, 34.925762167 ], [ 134.839262278, 34.925978972 ], [ 134.839358806, 34.926219528 ], [ 134.83944125, 34.926405694 ], [ 134.839546250000012, 34.92637325 ], [ 134.839670944, 34.926336361 ], [ 134.839897638999986, 34.926259139 ], [ 134.83995120899999, 34.926240522 ], [ 134.839876100999987, 34.92588948 ], [ 134.84064175099999, 34.92576898 ], [ 134.84227694, 34.925530749 ], [ 134.84203233, 34.924325339 ], [ 134.841291219999988, 34.924129869 ] ] ] } },
{ "type": "Feature", "properties": { "A29_001": "28220", "A29_002": "兵庫県", "A29_003": "加西市", "A29_004": 2, "A29_005": "第二種低層住居専用地域", "A29_006": 60, "A29_007": 150, "A29_008": null }, "geometry": { "type": "Polygon", "coordinates": [ [ [ 134.830975892, 34.923607186 ], [ 134.83103844199999, 34.923560464 ], [ 134.83121389199999, 34.923617864 ], [ 134.83132714199999, 34.923763764 ], [ 134.83146325199999, 34.923908494 ], [ 134.831781912999986, 34.924204224 ], [ 134.831888023, 34.924247914 ], [ 134.831997793, 34.924248544 ], [ 134.832402792000011, 34.924236124 ], [ 134.832779022000011, 34.923249834 ], [ 134.832909281000013, 34.922967324 ], [ 134.833251800999989, 34.922456863 ], [ 134.83368841, 34.921949243 ], [ 134.834232289999989, 34.921461633 ], [ 134.834719779000011, 34.921159353 ], [ 134.83516398899999, 34.920934742 ], [ 134.835500978999988, 34.920594332 ], [ 134.835651678, 34.920382956 ], [ 134.835760337000011, 34.920231899 ], [ 134.835814125000013, 34.920124822 ], [ 134.835897714999987, 34.919776244 ], [ 134.835956479, 34.919535577 ], [ 134.83596951199999, 34.919489178 ], [ 134.83599132399999, 34.919341274 ], [ 134.83599058499999, 34.919170594 ], [ 134.835922979, 34.917769106 ], [ 134.835764323, 34.917764978 ], [ 134.835494455, 34.917757955 ], [ 134.835237866999989, 34.917994732 ], [ 134.834867937000013, 34.918181373 ], [ 134.834706536999988, 34.918283193 ], [ 134.834363558, 34.918605333 ], [ 134.83395753799999, 34.918876053 ], [ 134.833684148, 34.919040773 ], [ 134.83281506899999, 34.919655634 ], [ 134.831654820000011, 34.920525694 ], [ 134.83033602099999, 34.921542735 ], [ 134.828741502000014, 34.922778296 ], [ 134.82815266099999, 34.92326401 ], [ 134.828173222, 34.923300389 ], [ 134.828204333, 34.923383111 ], [ 134.82827822199999, 34.923481028 ], [ 134.828290944, 34.923500028 ], [ 134.828385360999988, 34.923640806 ], [ 134.828393083, 34.923651889 ], [ 134.828514555999988, 34.9238265 ], [ 134.828550138999987, 34.923872056 ], [ 134.82865072199999, 34.924000861 ], [ 134.828674639000013, 34.924027306 ], [ 134.828815916999986, 34.924183639 ], [ 134.828829786999989, 34.924199043 ], [ 134.829028222, 34.924419444 ], [ 134.829058852, 34.924456242 ], [ 134.829085056, 34.924487722 ], [ 134.829105778000013, 34.924512333 ], [ 134.82921894399999, 34.924646778 ], [ 134.82928475, 34.924724472 ], [ 134.829370861, 34.924849083 ], [ 134.829451971999987, 34.925 ], [ 134.82949305599999, 34.925088056 ], [ 134.829522778000012, 34.925166667 ], [ 134.829549944, 34.925241889 ], [ 134.829567867, 34.925312464 ], [ 134.82959672199999, 34.925426083 ], [ 134.829639444, 34.925613667 ], [ 134.829675388999988, 34.925789028 ], [ 134.82969530599999, 34.925868972 ], [ 134.829698971999989, 34.925883722 ], [ 134.829705361, 34.925957083 ], [ 134.82970061099999, 34.926123472 ], [ 134.829700444, 34.926128944 ], [ 134.82968961099999, 34.926261639 ], [ 134.82968672199999, 34.926277972 ], [ 134.829674806000014, 34.926345222 ], [ 134.82967376799999, 34.926355536 ], [ 134.829664478000012, 34.926447869 ], [ 134.82966030599999, 34.926489333 ], [ 134.829660361, 34.926547917 ], [ 134.829660389, 34.926565167 ], [ 134.829684555999989, 34.926696528 ], [ 134.829788278, 34.927087222 ], [ 134.829820715000011, 34.927216571 ], [ 134.829833167, 34.927266222 ], [ 134.82983862, 34.927287805 ], [ 134.829915121999989, 34.927585794 ], [ 134.830066111, 34.92790815 ], [ 134.830081874, 34.927855102 ], [ 134.830181696000011, 34.927599781 ], [ 134.830356365, 34.927309772 ], [ 134.830561415, 34.927119335 ], [ 134.83117164399999, 34.926576574 ], [ 134.831207131000014, 34.926572883 ], [ 134.831292222, 34.926564032 ], [ 134.831286935, 34.925389369 ], [ 134.830975892, 34.923607186 ] ] ] } },
{ "type": "Feature", "properties": { "A29_001": "28220", "A29_002": "兵庫県", "A29_003": "加西市", "A29_004": 3, "A29_005": "第一種中高層住居専用地域", "A29_006": 60, "A29_007": 200, "A29_008": null }, "geometry": { "type": "Polygon", "coordinates": [ [ [ 134.83563940499999, 34.927464274 ], [ 134.835710971999987, 34.92741925 ], [ 134.836221674, 34.9274226 ], [ 134.836394501, 34.927402505 ], [ 134.836753442, 34.92736077 ], [ 134.836870291, 34.927333701 ], [ 134.837257963000013, 34.927210684 ], [ 134.837476603, 34.927141304 ], [ 134.83765157799999, 34.926829332 ], [ 134.83785581399999, 34.926485619 ], [ 134.83808621, 34.926275962 ], [ 134.838273783, 34.926047712 ], [ 134.838413190000011, 34.925878073 ], [ 134.838599523, 34.925567229 ], [ 134.838632797, 34.925090062 ], [ 134.838485684, 34.92441687 ], [ 134.838467056000013, 34.924035324 ], [ 134.838571889, 34.923682549 ], [ 134.838574599999987, 34.923648831 ], [ 134.83874087, 34.922955051 ], [ 134.838952559, 34.922210501 ], [ 134.839133688, 34.921383211 ], [ 134.839347448000012, 34.92055255 ], [ 134.839633397, 34.91977432 ], [ 134.839753303, 34.919444178 ], [ 134.83970542599999, 34.919464625 ], [ 134.838828866, 34.919968354 ], [ 134.838028982, 34.920429629 ], [ 134.837047898, 34.920948563 ], [ 134.836716169, 34.921132802 ], [ 134.83545357, 34.921820352 ], [ 134.835270068999989, 34.921920434 ], [ 134.834870362, 34.922192188 ], [ 134.83459617, 34.922437559 ], [ 134.833982018, 34.923107925 ], [ 134.833972531, 34.923120073 ], [ 134.833782851, 34.923515833 ], [ 134.833557222, 34.924124833 ], [ 134.833287703, 34.924822253 ], [ 134.83358306299999, 34.925152513 ], [ 134.833724042999989, 34.925343503 ], [ 134.833833233, 34.925573363 ], [ 134.83403818299999, 34.926076183 ], [ 134.83420457299999, 34.926362853 ], [ 134.834399514000012, 34.926724733 ], [ 134.834509924, 34.926831903 ], [ 134.834815544, 34.926912433 ], [ 134.83515211400001, 34.927033732 ], [ 134.83526362399999, 34.927106452 ], [ 134.835341414, 34.927219142 ], [ 134.83543260799999, 34.927347629 ], [ 134.83563940499999, 34.927464274 ] ] ] } },
{ "type": "Feature", "properties": { "A29_001": "28220", "A29_002": "兵庫県", "A29_003": "加西市", "A29_004": 3, "A29_005": "第一種中高層住居専用地域", "A29_006": 60, "A29_007": 200, "A29_008": null }, "geometry": { "type": "Polygon", "coordinates": [ [ [ 134.85006476800001, 34.926639371 ], [ 134.850275028, 34.9266275 ], [ 134.850686544000013, 34.926433156 ], [ 134.850787747999988, 34.926345555 ], [ 134.851052356, 34.92616031 ], [ 134.850997917, 34.926127889 ], [ 134.85162888799999, 34.925659654 ], [ 134.85183865499999, 34.925438493 ], [ 134.85157449, 34.925178569 ], [ 134.85137084199999, 34.925030366 ], [ 134.851373375, 34.924857432 ], [ 134.851207605000013, 34.924688197 ], [ 134.851113109000011, 34.924635759 ], [ 134.850622407, 34.924879915 ], [ 134.85008645799999, 34.925265865 ], [ 134.84855375699999, 34.926063484 ], [ 134.84817591800001, 34.926135149 ], [ 134.845589853, 34.926491925 ], [ 134.845511499999986, 34.926500457 ], [ 134.84553485, 34.926627717 ], [ 134.845616381000013, 34.927340907 ], [ 134.845645330999986, 34.927584017 ], [ 134.845436791, 34.928091797 ], [ 134.845225582000012, 34.928590978 ], [ 134.845032432000011, 34.929050258 ], [ 134.84482267300001, 34.929574188 ], [ 134.846145253, 34.928941196 ], [ 134.846694114, 34.928634016 ], [ 134.848116731, 34.927809891 ], [ 134.849715253999989, 34.926870515 ], [ 134.85006476800001, 34.926639371 ] ] ] } },
{ "type": "Feature", "properties": { "A29_001": "28220", "A29_002": "兵庫県", "A29_003": "加西市", "A29_004": 4, "A29_005": "第二種中高層住居専用地域", "A29_006": 60, "A29_007": 200, "A29_008": null }, "geometry": { "type": "Polygon", "coordinates": [ [ [ 134.84451581, 34.926608878 ], [ 134.844131041, 34.926724568 ], [ 134.84384104099999, 34.926844178 ], [ 134.843626500999989, 34.927016198 ], [ 134.843466231, 34.927092208 ], [ 134.84277301099999, 34.927303899 ], [ 134.843182982, 34.927775719 ], [ 134.841828063, 34.928545509 ], [ 134.842093412999986, 34.928875869 ], [ 134.84300372300001, 34.929956889 ], [ 134.843364763000011, 34.929751428 ], [ 134.843613433, 34.929604028 ], [ 134.84378428299999, 34.929337478 ], [ 134.844021182, 34.928974868 ], [ 134.844156622000014, 34.928690188 ], [ 134.844324191999988, 34.928318178 ], [ 134.844500651, 34.927903098 ], [ 134.844571011, 34.927659578 ], [ 134.844579380999988, 34.927323758 ], [ 134.844571301, 34.926968638 ], [ 134.84451581, 34.926608878 ] ] ] } },
{ "type": "Feature", "properties": { "A29_001": "28220", "A29_002": "兵庫県", "A29_003": "加西市", "A29_004": 8, "A29_005": "近隣商業地域", "A29_006": 80, "A29_007": 300, "A29_008": null }, "geometry": { "type": "Polygon", "coordinates": [ [ [ 134.833766706, 34.929841383 ], [ 134.83282244599999, 34.929175864 ], [ 134.832201024, 34.929742327 ], [ 134.832160237000011, 34.929702424 ], [ 134.832093437, 34.929757039 ], [ 134.831763028000012, 34.930012534 ], [ 134.83261157699999, 34.930822274 ], [ 134.832938917, 34.930604604 ], [ 134.833335025999986, 34.930308083 ], [ 134.833520136, 34.930232003 ], [ 134.833587606, 34.930152073 ], [ 134.833655806, 34.929979603 ], [ 134.833766706, 34.929841383 ] ] ] } },
{ "type": "Feature", "properties": { "A29_001": "28220", "A29_002": "兵庫県", "A29_003": "加西市", "A29_004": 4, "A29_005": "第二種中高層住居専用地域", "A29_006": 60, "A29_007": 200, "A29_008": null }, "geometry": { "type": "Polygon", "coordinates": [ [ [ 134.840330653, 34.92809061 ], [ 134.83962056199999, 34.92726058 ], [ 134.839125293, 34.927469271 ], [ 134.83840074299999, 34.927900621 ], [ 134.837836844, 34.928323761 ], [ 134.83717038399999, 34.928853881 ], [ 134.841546482000012, 34.930721295 ], [ 134.842190942, 34.930966653 ], [ 134.842349711, 34.930882507 ], [ 134.842325579, 34.930853068 ], [ 134.84015627299999, 34.92820649 ], [ 134.840330653, 34.92809061 ] ] ] } },
{ "type": "Feature", "properties": { "A29_001": "28220", "A29_002": "兵庫県", "A29_003": "加西市", "A29_004": 10, "A29_005": "準工業地域", "A29_006": 60, "A29_007": 200, "A29_008": null }, "geometry": { "type": "Polygon", "coordinates": [ [ [ 134.835898722, 34.929284944 ], [ 134.836115533, 34.929123012 ], [ 134.83639027800001, 34.928917806 ], [ 134.836688165999988, 34.928687169 ], [ 134.836802471999988, 34.928598667 ], [ 134.83681378, 34.928589912 ], [ 134.836981089, 34.928460375 ], [ 134.837408446000012, 34.928129497 ], [ 134.837770083, 34.9278495 ], [ 134.83779328899999, 34.927832429 ], [ 134.837212181000012, 34.927225212 ], [ 134.836870291, 34.927333701 ], [ 134.836753442, 34.92736077 ], [ 134.836394501, 34.927402505 ], [ 134.836221674, 34.9274226 ], [ 134.835710971999987, 34.92741925 ], [ 134.83563940499999, 34.927464274 ], [ 134.83543260799999, 34.927347629 ], [ 134.835341414, 34.927219142 ], [ 134.83526362399999, 34.927106452 ], [ 134.83515211400001, 34.927033732 ], [ 134.834815544, 34.926912433 ], [ 134.834509924, 34.926831903 ], [ 134.834399514000012, 34.926724733 ], [ 134.83420457299999, 34.926362853 ], [ 134.83403818299999, 34.926076183 ], [ 134.833833233, 34.925573363 ], [ 134.833724042999989, 34.925343503 ], [ 134.83358306299999, 34.925152513 ], [ 134.833287703, 34.924822253 ], [ 134.833010272, 34.924538194 ], [ 134.832839541999988, 34.924395764 ], [ 134.83257807199999, 34.924266614 ], [ 134.832402792000011, 34.924236124 ], [ 134.831997793, 34.924248544 ], [ 134.831888023, 34.924247914 ], [ 134.831781912999986, 34.924204224 ], [ 134.83146325199999, 34.923908494 ], [ 134.83132714199999, 34.923763764 ], [ 134.83121389199999, 34.923617864 ], [ 134.83103844199999, 34.923560464 ], [ 134.830975892, 34.923607186 ], [ 134.831286935, 34.925389369 ], [ 134.831292222, 34.926564032 ], [ 134.831207131000014, 34.926572883 ], [ 134.83117164399999, 34.926576574 ], [ 134.830561415, 34.927119335 ], [ 134.830356365, 34.927309772 ], [ 134.830181696000011, 34.927599781 ], [ 134.830081874, 34.927855102 ], [ 134.830066111, 34.92790815 ], [ 134.830234026, 34.928356705 ], [ 134.830267556, 34.928435861 ], [ 134.83049747199999, 34.928637667 ], [ 134.83101438599999, 34.929111502 ], [ 134.83108267899999, 34.92917841 ], [ 134.83109030599999, 34.929173284 ], [ 134.83119850599999, 34.929129794 ], [ 134.831377776000011, 34.929062334 ], [ 134.832093437, 34.929757039 ], [ 134.832160237000011, 34.929702424 ], [ 134.832201024, 34.929742327 ], [ 134.83282244599999, 34.929175864 ], [ 134.833766706, 34.929841383 ], [ 134.833655806, 34.929979603 ], [ 134.833587606, 34.930152073 ], [ 134.833520136, 34.930232003 ], [ 134.833335025999986, 34.930308083 ], [ 134.832938917, 34.930604604 ], [ 134.833494427, 34.931163023 ], [ 134.833505742999989, 34.931174518 ], [ 134.833618889, 34.931095833 ], [ 134.833721389, 34.931005833 ], [ 134.834279917, 34.930564389 ], [ 134.834386959, 34.93047979 ], [ 134.834990721999986, 34.930002611 ], [ 134.835018412000011, 34.929980725 ], [ 134.835318449, 34.929743584 ], [ 134.835751327, 34.929401444 ], [ 134.835898722, 34.929284944 ] ] ] } },
{ "type": "Feature", "properties": { "A29_001": "28220", "A29_002": "兵庫県", "A29_003": "加西市", "A29_004": 5, "A29_005": "第一種住居地域", "A29_006": 60, "A29_007": 200, "A29_008": null }, "geometry": { "type": "Polygon", "coordinates": [ [ [ 134.84552940399999, 34.931795207 ], [ 134.845941243999988, 34.931933387 ], [ 134.846193201, 34.931567677 ], [ 134.84652567399999, 34.931380232 ], [ 134.847051810000011, 34.931039318 ], [ 134.847109381, 34.930982785 ], [ 134.847135501, 34.930898717 ], [ 134.847117567, 34.930855154 ], [ 134.847064925000012, 34.930727285 ], [ 134.847063324, 34.930632198 ], [ 134.84707069000001, 34.930351361 ], [ 134.847055114999989, 34.930337747 ], [ 134.846974012, 34.930266859 ], [ 134.846885366, 34.930169919 ], [ 134.846836978, 34.930052346 ], [ 134.846145253, 34.928941196 ], [ 134.84482267300001, 34.929574188 ], [ 134.845032432000011, 34.929050258 ], [ 134.845225582000012, 34.928590978 ], [ 134.845436791, 34.928091797 ], [ 134.845645330999986, 34.927584017 ], [ 134.845616381000013, 34.927340907 ], [ 134.84553485, 34.926627717 ], [ 134.845511499999986, 34.926500457 ], [ 134.84451581, 34.926608878 ], [ 134.844571301, 34.926968638 ], [ 134.844579380999988, 34.927323758 ], [ 134.844571011, 34.927659578 ], [ 134.844500651, 34.927903098 ], [ 134.844324191999988, 34.928318178 ], [ 134.844156622000014, 34.928690188 ], [ 134.844021182, 34.928974868 ], [ 134.84378428299999, 34.929337478 ], [ 134.843613433, 34.929604028 ], [ 134.843364763000011, 34.929751428 ], [ 134.84300372300001, 34.929956889 ], [ 134.843459894, 34.930501698 ], [ 134.842985113999987, 34.931173099 ], [ 134.844521004, 34.931554088 ], [ 134.84552940399999, 34.931795207 ] ] ] } },
{ "type": "Feature", "properties": { "A29_001": "28220", "A29_002": "兵庫県", "A29_003": "加西市", "A29_004": 6, "A29_005": "第二種住居地域", "A29_006": 60, "A29_007": 200, "A29_008": null }, "geometry": { "type": "Polygon", "coordinates": [ [ [ 134.837098956, 34.930850562 ], [ 134.838179695, 34.930000171 ], [ 134.840148305000014, 34.93084326 ], [ 134.842056574999987, 34.931640299 ], [ 134.84229467599999, 34.931729278 ], [ 134.84231558499999, 34.931630069 ], [ 134.842455755, 34.931472349 ], [ 134.842584189, 34.931480521 ], [ 134.843813479, 34.93179268 ], [ 134.844305131, 34.931913449 ], [ 134.845047662000013, 34.932091595 ], [ 134.84537113499999, 34.932179675 ], [ 134.845671536, 34.932283355 ], [ 134.845941243999988, 34.931933387 ], [ 134.84552940399999, 34.931795207 ], [ 134.844521004, 34.931554088 ], [ 134.842985113999987, 34.931173099 ], [ 134.843459894, 34.930501698 ], [ 134.84300372300001, 34.929956889 ], [ 134.842093412999986, 34.928875869 ], [ 134.841828063, 34.928545509 ], [ 134.843182982, 34.927775719 ], [ 134.84277301099999, 34.927303899 ], [ 134.843466231, 34.927092208 ], [ 134.843626500999989, 34.927016198 ], [ 134.84384104099999, 34.926844178 ], [ 134.844131041, 34.926724568 ], [ 134.84451581, 34.926608878 ], [ 134.845511499999986, 34.926500457 ], [ 134.845589853, 34.926491925 ], [ 134.84817591800001, 34.926135149 ], [ 134.84855375699999, 34.926063484 ], [ 134.85008645799999, 34.925265865 ], [ 134.850622407, 34.924879915 ], [ 134.851113109000011, 34.924635759 ], [ 134.851180907000014, 34.924602025 ], [ 134.851692777000011, 34.924339394 ], [ 134.851971916999986, 34.924260714 ], [ 134.852277445999988, 34.924223894 ], [ 134.852516216, 34.924219644 ], [ 134.852808345999989, 34.924232934 ], [ 134.853149736, 34.924286354 ], [ 134.853276720999986, 34.923974643 ], [ 134.853052405999989, 34.923881391 ], [ 134.85253617399999, 34.923818006 ], [ 134.851798378000012, 34.923922525 ], [ 134.851251292, 34.924133558 ], [ 134.85081624899999, 34.924317279 ], [ 134.850820946999988, 34.923932525 ], [ 134.849541418, 34.924563805 ], [ 134.84861188799999, 34.925011146 ], [ 134.848216828, 34.925150576 ], [ 134.84780317900001, 34.925243806 ], [ 134.84744881899999, 34.925308806 ], [ 134.846517949, 34.925438657 ], [ 134.84499491, 34.925638798 ], [ 134.8448637, 34.925657648 ], [ 134.844846209999986, 34.925575928 ], [ 134.844017189999988, 34.925694568 ], [ 134.842364901, 34.925915669 ], [ 134.84227694, 34.925530749 ], [ 134.84064175099999, 34.92576898 ], [ 134.839876100999987, 34.92588948 ], [ 134.83995120899999, 34.926240522 ], [ 134.839897638999986, 34.926259139 ], [ 134.839670944, 34.926336361 ], [ 134.839546250000012, 34.92637325 ], [ 134.83944125, 34.926405694 ], [ 134.839358806, 34.926219528 ], [ 134.839262278, 34.925978972 ], [ 134.839191889, 34.925762167 ], [ 134.839112639, 34.925433472 ], [ 134.839019388999986, 34.925 ], [ 134.838973944, 34.924733833 ], [ 134.838925749999987, 34.92450225 ], [ 134.83890158299999, 34.924202111 ], [ 134.83890852799999, 34.924005167 ], [ 134.83893818300001, 34.923789462 ], [ 134.838571889, 34.923682549 ], [ 134.838467056000013, 34.924035324 ], [ 134.838485684, 34.92441687 ], [ 134.838632797, 34.925090062 ], [ 134.838599523, 34.925567229 ], [ 134.838413190000011, 34.925878073 ], [ 134.838273783, 34.926047712 ], [ 134.83808621, 34.926275962 ], [ 134.83785581399999, 34.926485619 ], [ 134.83765157799999, 34.926829332 ], [ 134.837476603, 34.927141304 ], [ 134.837257963000013, 34.927210684 ], [ 134.837234587000012, 34.927218102 ], [ 134.837212181000012, 34.927225212 ], [ 134.83779328899999, 34.927832429 ], [ 134.837770083, 34.9278495 ], [ 134.837408446000012, 34.928129497 ], [ 134.836981089, 34.928460375 ], [ 134.83681378, 34.928589912 ], [ 134.836802471999988, 34.928598667 ], [ 134.836688165999988, 34.928687169 ], [ 134.83639027800001, 34.928917806 ], [ 134.836115533, 34.929123012 ], [ 134.835898722, 34.929284944 ], [ 134.835751327, 34.929401444 ], [ 134.835318449, 34.929743584 ], [ 134.835018412000011, 34.929980725 ], [ 134.834990721999986, 34.930002611 ], [ 134.834386959, 34.93047979 ], [ 134.834279917, 34.930564389 ], [ 134.833721389, 34.931005833 ], [ 134.833618889, 34.931095833 ], [ 134.833505742999989, 34.931174518 ], [ 134.833871147, 34.931545693 ], [ 134.834901088, 34.932540173 ], [ 134.837098956, 34.930850562 ] ], [ [ 134.839125293, 34.927469271 ], [ 134.83962056199999, 34.92726058 ], [ 134.840330653, 34.92809061 ], [ 134.84015627299999, 34.92820649 ], [ 134.842325579, 34.930853068 ], [ 134.842349711, 34.930882507 ], [ 134.842190942, 34.930966653 ], [ 134.841546482000012, 34.930721295 ], [ 134.83717038399999, 34.928853881 ], [ 134.837836844, 34.928323761 ], [ 134.83840074299999, 34.927900621 ], [ 134.839125293, 34.927469271 ] ] ] } },
{ "type": "Feature", "properties": { "A29_001": "28220", "A29_002": "兵庫県", "A29_003": "加西市", "A29_004": 11, "A29_005": "工業地域", "A29_006": 60, "A29_007": 200, "A29_008": null }, "geometry": { "type": "Polygon", "coordinates": [ [ [ 134.828906974, 34.931927114 ], [ 134.829386285, 34.931588851 ], [ 134.82998392799999, 34.931632675 ], [ 134.830335228, 34.931377245 ], [ 134.831015968, 34.931901814 ], [ 134.831649035999988, 34.931502052 ], [ 134.83106725799999, 34.930873804 ], [ 134.831131038, 34.930831574 ], [ 134.830673087, 34.930412645 ], [ 134.83072046699999, 34.930252105 ], [ 134.830121717, 34.929885405 ], [ 134.830439477, 34.929704375 ], [ 134.830819596999987, 34.929355195 ], [ 134.83108267899999, 34.92917841 ], [ 134.83101438599999, 34.929111502 ], [ 134.83049747199999, 34.928637667 ], [ 134.830267556, 34.928435861 ], [ 134.830234026, 34.928356705 ], [ 134.830066111, 34.92790815 ], [ 134.829915121999989, 34.927585794 ], [ 134.82989429599999, 34.927601515 ], [ 134.829482805999987, 34.927842115 ], [ 134.829053476000013, 34.928155975 ], [ 134.828863406000011, 34.928275136 ], [ 134.828691236, 34.928329646 ], [ 134.828561027, 34.928405516 ], [ 134.828312737, 34.928404376 ], [ 134.82778188, 34.928759982 ], [ 134.827680504, 34.928680038 ], [ 134.827661393999989, 34.928682915 ], [ 134.827271567, 34.928675516 ], [ 134.827083017, 34.928613866 ], [ 134.826968013, 34.928489142 ], [ 134.82682439199999, 34.928328177 ], [ 134.826761756, 34.928293317 ], [ 134.826727363, 34.928274176 ], [ 134.826678109999989, 34.928270798 ], [ 134.82659561, 34.928277096 ], [ 134.82654062099999, 34.928295006 ], [ 134.82645925700001, 34.928321507 ], [ 134.82641425, 34.928373278 ], [ 134.82636208299999, 34.928434667 ], [ 134.826334833, 34.928471444 ], [ 134.82630319399999, 34.928522028 ], [ 134.826258610999986, 34.928581861 ], [ 134.826209167, 34.928630361 ], [ 134.82613225, 34.928680222 ], [ 134.82581284599999, 34.928816994 ], [ 134.825859114999986, 34.928902098 ], [ 134.826060106999989, 34.929205103 ], [ 134.826279153, 34.92922239 ], [ 134.826661613, 34.929682473 ], [ 134.826118318999988, 34.930072224 ], [ 134.82610840800001, 34.93015622 ], [ 134.826852116999987, 34.930829601 ], [ 134.826883564000013, 34.930859159 ], [ 134.826822806, 34.930902667 ], [ 134.82668725900001, 34.930999721 ], [ 134.826508106, 34.931127998 ], [ 134.826544624, 34.931160843 ], [ 134.827293759000014, 34.931834126 ], [ 134.82803941, 34.932504806 ], [ 134.82829831, 34.932748056 ], [ 134.829173069, 34.932178395 ], [ 134.828906974, 34.931927114 ] ] ] } },
{ "type": "Feature", "properties": { "A29_001": "28220", "A29_002": "兵庫県", "A29_003": "加西市", "A29_004": 4, "A29_005": "第二種中高層住居専用地域", "A29_006": 60, "A29_007": 200, "A29_008": null }, "geometry": { "type": "Polygon", "coordinates": [ [ [ 134.825859114999986, 34.928902098 ], [ 134.82581284599999, 34.928816994 ], [ 134.825730678000014, 34.928858267 ], [ 134.825169948, 34.929056407 ], [ 134.825040118, 34.929196847 ], [ 134.824893137, 34.92974724 ], [ 134.825507039, 34.930321292 ], [ 134.825475619, 34.930348797 ], [ 134.825145909000014, 34.930720347 ], [ 134.824969638999988, 34.930964287 ], [ 134.82491434, 34.931332567 ], [ 134.824864100000013, 34.931675017 ], [ 134.82478642, 34.931795868 ], [ 134.824656698000013, 34.931920218 ], [ 134.825605349, 34.932757052 ], [ 134.825802517, 34.93293864 ], [ 134.82639072, 34.932482457 ], [ 134.82683603000001, 34.932102897 ], [ 134.827293759000014, 34.931834126 ], [ 134.826544624, 34.931160843 ], [ 134.826508106, 34.931127998 ], [ 134.82668725900001, 34.930999721 ], [ 134.826822806, 34.930902667 ], [ 134.826883564000013, 34.930859159 ], [ 134.826852116999987, 34.930829601 ], [ 134.82610840800001, 34.93015622 ], [ 134.826118318999988, 34.930072224 ], [ 134.826661613, 34.929682473 ], [ 134.826279153, 34.92922239 ], [ 134.826060106999989, 34.929205103 ], [ 134.825859114999986, 34.928902098 ] ] ] } },
{ "type": "Feature", "properties": { "A29_001": "28220", "A29_002": "兵庫県", "A29_003": "加西市", "A29_004": 5, "A29_005": "第一種住居地域", "A29_006": 60, "A29_007": 200, "A29_008": null }, "geometry": { "type": "Polygon", "coordinates": [ [ [ 134.831925939, 34.932783274 ], [ 134.832164629, 34.932922204 ], [ 134.832529109, 34.933226344 ], [ 134.83301455899999, 34.933650544 ], [ 134.833613148000012, 34.933121793 ], [ 134.83399391899999, 34.933416193 ], [ 134.834509518, 34.933101963 ], [ 134.833177748, 34.931792303 ], [ 134.832707957999986, 34.931901864 ], [ 134.831925939, 34.932783274 ] ] ] } },
{ "type": "Feature", "properties": { "A29_001": "28220", "A29_002": "兵庫県", "A29_003": "加西市", "A29_004": 8, "A29_005": "近隣商業地域", "A29_006": 80, "A29_007": 200, "A29_008": null }, "geometry": { "type": "Polygon", "coordinates": [ [ [ 134.833251657, 34.934673503 ], [ 134.834839241999987, 34.933600322 ], [ 134.835197077, 34.933422426 ], [ 134.835221968000013, 34.933408442 ], [ 134.83552678800001, 34.933247902 ], [ 134.83525948799999, 34.932917522 ], [ 134.834901088, 34.932540173 ], [ 134.833871147, 34.931545693 ], [ 134.833505742999989, 34.931174518 ], [ 134.833494427, 34.931163023 ], [ 134.832938917, 34.930604604 ], [ 134.83261157699999, 34.930822274 ], [ 134.831763028000012, 34.930012534 ], [ 134.832093437, 34.929757039 ], [ 134.831377776000011, 34.929062334 ], [ 134.83119850599999, 34.929129794 ], [ 134.83109030599999, 34.929173284 ], [ 134.83108267899999, 34.92917841 ], [ 134.830819596999987, 34.929355195 ], [ 134.830439477, 34.929704375 ], [ 134.830121717, 34.929885405 ], [ 134.83072046699999, 34.930252105 ], [ 134.830673087, 34.930412645 ], [ 134.831131038, 34.930831574 ], [ 134.83106725799999, 34.930873804 ], [ 134.831649035999988, 34.931502052 ], [ 134.831015968, 34.931901814 ], [ 134.830335228, 34.931377245 ], [ 134.82998392799999, 34.931632675 ], [ 134.829386285, 34.931588851 ], [ 134.828906974, 34.931927114 ], [ 134.829173069, 34.932178395 ], [ 134.82942257900001, 34.932381865 ], [ 134.829494469999986, 34.932433914 ], [ 134.829738909000014, 34.932610885 ], [ 134.830025099000011, 34.932826035 ], [ 134.830180879000011, 34.932980365 ], [ 134.830634959, 34.933297075 ], [ 134.829772389999988, 34.934047495 ], [ 134.82999906, 34.934253205 ], [ 134.830293719999986, 34.934030305 ], [ 134.8303574, 34.934403485 ], [ 134.831160052, 34.933634534 ], [ 134.831514543, 34.933249549 ], [ 134.831900932, 34.933541815 ], [ 134.833251657, 34.934673503 ] ], [ [ 134.83301455899999, 34.933650544 ], [ 134.832529109, 34.933226344 ], [ 134.832164629, 34.932922204 ], [ 134.831925939, 34.932783274 ], [ 134.832707957999986, 34.931901864 ], [ 134.833177748, 34.931792303 ], [ 134.834509518, 34.933101963 ], [ 134.83399391899999, 34.933416193 ], [ 134.833613148000012, 34.933121793 ], [ 134.83301455899999, 34.933650544 ] ] ] } },
{ "type": "Feature", "properties": { "A29_001": "28220", "A29_002": "兵庫県", "A29_003": "加西市", "A29_004": 5, "A29_005": "第一種住居地域", "A29_006": 60, "A29_007": 200, "A29_008": null }, "geometry": { "type": "Polygon", "coordinates": [ [ [ 134.83983970700001, 34.93362712 ], [ 134.840008635, 34.933589145 ], [ 134.840299084, 34.933608003 ], [ 134.840384336999989, 34.933601924 ], [ 134.840585051, 34.93358761 ], [ 134.840885617, 34.93348715 ], [ 134.841045508, 34.933433703 ], [ 134.841084139, 34.933400795 ], [ 134.841150451, 34.933398623 ], [ 134.841585087999988, 34.933384389 ], [ 134.841744274, 34.933367027 ], [ 134.841967065, 34.93333151 ], [ 134.84196737799999, 34.933309851 ], [ 134.841968079, 34.933261144 ], [ 134.84207537, 34.933212423 ], [ 134.84213965, 34.933138783 ], [ 134.842144698, 34.932947831 ], [ 134.84208688699999, 34.932403305 ], [ 134.84213861500001, 34.932386319 ], [ 134.842301940999988, 34.932299145 ], [ 134.842367289, 34.932235528 ], [ 134.842383936, 34.932117394 ], [ 134.842352648, 34.931975131 ], [ 134.842312808, 34.931855087 ], [ 134.84229467599999, 34.931729278 ], [ 134.842056574999987, 34.931640299 ], [ 134.840148305000014, 34.93084326 ], [ 134.838179695, 34.930000171 ], [ 134.837098956, 34.930850562 ], [ 134.834901088, 34.932540173 ], [ 134.83525948799999, 34.932917522 ], [ 134.83552678800001, 34.933247902 ], [ 134.835221968000013, 34.933408442 ], [ 134.835197077, 34.933422426 ], [ 134.835273833, 34.933521583 ], [ 134.83531583300001, 34.933575833 ], [ 134.835488556, 34.933846639 ], [ 134.835548667000012, 34.933959139 ], [ 134.835661944, 34.934171111 ], [ 134.835801417, 34.934432083 ], [ 134.835952306, 34.934686611 ], [ 134.836145528, 34.934976556 ], [ 134.836237917, 34.935084222 ], [ 134.836272111, 34.935115583 ], [ 134.83628249899999, 34.935127082 ], [ 134.836868589, 34.934799632 ], [ 134.83751516800001, 34.934534351 ], [ 134.838395318000011, 34.934214291 ], [ 134.839080876999986, 34.933912251 ], [ 134.839299677000014, 34.9337908 ], [ 134.839381097, 34.93385504 ], [ 134.83965477699999, 34.93373121 ], [ 134.83983970700001, 34.93362712 ] ] ] } },
{ "type": "Feature", "properties": { "A29_001": "28220", "A29_002": "兵庫県", "A29_003": "加西市", "A29_004": 5, "A29_005": "第一種住居地域", "A29_006": 60, "A29_007": 200, "A29_008": null }, "geometry": { "type": "Polygon", "coordinates": [ [ [ 134.828715983, 34.932917653 ], [ 134.82800672499999, 34.933573476 ], [ 134.82747948, 34.935000745 ], [ 134.82735066399999, 34.935381952 ], [ 134.82758348199999, 34.935254256 ], [ 134.828025231, 34.935041516 ], [ 134.828267090999987, 34.934947976 ], [ 134.828894531, 34.934753846 ], [ 134.829514601, 34.934532845 ], [ 134.829763611, 34.934431745 ], [ 134.82999906, 34.934253205 ], [ 134.829772389999988, 34.934047495 ], [ 134.830634959, 34.933297075 ], [ 134.830180879000011, 34.932980365 ], [ 134.830025099000011, 34.932826035 ], [ 134.829738909000014, 34.932610885 ], [ 134.829494469999986, 34.932433914 ], [ 134.828715983, 34.932917653 ] ] ] } },
{ "type": "Feature", "properties": { "A29_001": "28220", "A29_002": "兵庫県", "A29_003": "加西市", "A29_004": 5, "A29_005": "第一種住居地域", "A29_006": 60, "A29_007": 200, "A29_008": null }, "geometry": { "type": "Polygon", "coordinates": [ [ [ 134.82803941, 34.932504806 ], [ 134.827293759000014, 34.931834126 ], [ 134.82683603000001, 34.932102897 ], [ 134.82639072, 34.932482457 ], [ 134.825774141000011, 34.932960647 ], [ 134.82564338099999, 34.933058027 ], [ 134.825711751, 34.933126637 ], [ 134.826072051000011, 34.933060607 ], [ 134.826681911, 34.933645747 ], [ 134.82634102099999, 34.933896807 ], [ 134.826117630999988, 34.934128027 ], [ 134.825867452000011, 34.934251737 ], [ 134.825438152, 34.934580637 ], [ 134.825908962, 34.935073787 ], [ 134.826387622, 34.935569067 ], [ 134.826705642, 34.934661597 ], [ 134.826927441, 34.934054786 ], [ 134.827050611, 34.933673296 ], [ 134.827094910999989, 34.933542906 ], [ 134.827221470000012, 34.933291626 ], [ 134.82744137, 34.933022746 ], [ 134.827697410000013, 34.932787096 ], [ 134.82803941, 34.932504806 ] ] ] } },
{ "type": "Feature", "properties": { "A29_001": "28220", "A29_002": "兵庫県", "A29_003": "加西市", "A29_004": 1, "A29_005": "第一種低層住居専用地域", "A29_006": 50, "A29_007": 100, "A29_008": null }, "geometry": { "type": "Polygon", "coordinates": [ [ [ 134.825908962, 34.935073787 ], [ 134.825438152, 34.934580637 ], [ 134.825867452000011, 34.934251737 ], [ 134.826117630999988, 34.934128027 ], [ 134.82634102099999, 34.933896807 ], [ 134.826681911, 34.933645747 ], [ 134.826072051000011, 34.933060607 ], [ 134.825711751, 34.933126637 ], [ 134.82564338099999, 34.933058027 ], [ 134.825774141000011, 34.932960647 ], [ 134.825802517, 34.93293864 ], [ 134.825605349, 34.932757052 ], [ 134.824656698000013, 34.931920218 ], [ 134.82463309, 34.931942848 ], [ 134.82438342, 34.932150498 ], [ 134.82413556099999, 34.932222538 ], [ 134.823927031000011, 34.932318078 ], [ 134.823815180999986, 34.932408938 ], [ 134.823693101, 34.932536418 ], [ 134.823592440999988, 34.932749918 ], [ 134.823551521000013, 34.932900758 ], [ 134.82367222100001, 34.932979908 ], [ 134.823521430999989, 34.933113968 ], [ 134.823178662, 34.933489868 ], [ 134.822680042, 34.934029999 ], [ 134.822246253, 34.934483749 ], [ 134.821968321000014, 34.934881422 ], [ 134.82216948300001, 34.934897658 ], [ 134.822358587, 34.935040006 ], [ 134.822695345, 34.935050575 ], [ 134.823138553, 34.935316503 ], [ 134.823305653, 34.935067098 ], [ 134.823508382999989, 34.934874718 ], [ 134.823711213, 34.934699548 ], [ 134.82373738699999, 34.934679164 ], [ 134.824165494, 34.934957384 ], [ 134.824334599, 34.935145127 ], [ 134.824642950999987, 34.93537047 ], [ 134.824876087, 34.935610427 ], [ 134.82502784499999, 34.935803009 ], [ 134.82510151299999, 34.935981097 ], [ 134.824787472999986, 34.936354738 ], [ 134.824990043000014, 34.936573457 ], [ 134.824857334, 34.936673017 ], [ 134.824847424000012, 34.936763457 ], [ 134.824669352, 34.936842485 ], [ 134.825090555, 34.937224962 ], [ 134.825808983, 34.936712207 ], [ 134.825996223, 34.936554317 ], [ 134.826102453, 34.936396767 ], [ 134.82623883299999, 34.936038907 ], [ 134.826387622, 34.935569067 ], [ 134.825908962, 34.935073787 ] ] ] } },
{ "type": "Feature", "properties": { "A29_001": "28220", "A29_002": "兵庫県", "A29_003": "加西市", "A29_004": 6, "A29_005": "第二種住居地域", "A29_006": 60, "A29_007": 200, "A29_008": null }, "geometry": { "type": "Polygon", "coordinates": [ [ [ 134.825090555, 34.937224962 ], [ 134.825382792, 34.937490328 ], [ 134.82584563399999, 34.937159767 ], [ 134.826064433999989, 34.937362287 ], [ 134.82611701499999, 34.937415804 ], [ 134.826253357000013, 34.937316333 ], [ 134.826757353, 34.936837259 ], [ 134.826983471, 34.936508383 ], [ 134.827171776, 34.935911332 ], [ 134.82735066399999, 34.935381952 ], [ 134.82747948, 34.935000745 ], [ 134.82800672499999, 34.933573476 ], [ 134.828715983, 34.932917653 ], [ 134.829494469999986, 34.932433914 ], [ 134.82942257900001, 34.932381865 ], [ 134.829173069, 34.932178395 ], [ 134.82829831, 34.932748056 ], [ 134.82803941, 34.932504806 ], [ 134.827697410000013, 34.932787096 ], [ 134.82744137, 34.933022746 ], [ 134.827221470000012, 34.933291626 ], [ 134.827094910999989, 34.933542906 ], [ 134.827050611, 34.933673296 ], [ 134.826927441, 34.934054786 ], [ 134.826705642, 34.934661597 ], [ 134.826387622, 34.935569067 ], [ 134.82623883299999, 34.936038907 ], [ 134.826102453, 34.936396767 ], [ 134.825996223, 34.936554317 ], [ 134.825808983, 34.936712207 ], [ 134.825090555, 34.937224962 ] ] ] } },
{ "type": "Feature", "properties": { "A29_001": "28220", "A29_002": "兵庫県", "A29_003": "加西市", "A29_004": 3, "A29_005": "第一種中高層住居専用地域", "A29_006": 60, "A29_007": 150, "A29_008": null }, "geometry": { "type": "Polygon", "coordinates": [ [ [ 134.835952306, 34.934686611 ], [ 134.835801417, 34.934432083 ], [ 134.835661944, 34.934171111 ], [ 134.835548667000012, 34.933959139 ], [ 134.835488556, 34.933846639 ], [ 134.83531583300001, 34.933575833 ], [ 134.835273833, 34.933521583 ], [ 134.835197077, 34.933422426 ], [ 134.834839241999987, 34.933600322 ], [ 134.833251657, 34.934673503 ], [ 134.831900932, 34.933541815 ], [ 134.831514543, 34.933249549 ], [ 134.831160052, 34.933634534 ], [ 134.8303574, 34.934403485 ], [ 134.830293719999986, 34.934030305 ], [ 134.82999906, 34.934253205 ], [ 134.829763611, 34.934431745 ], [ 134.829514601, 34.934532845 ], [ 134.828894531, 34.934753846 ], [ 134.828267090999987, 34.934947976 ], [ 134.828025231, 34.935041516 ], [ 134.82758348199999, 34.935254256 ], [ 134.82735066399999, 34.935381952 ], [ 134.827171776, 34.935911332 ], [ 134.826983471, 34.936508383 ], [ 134.826757353, 34.936837259 ], [ 134.826253357000013, 34.937316333 ], [ 134.82611701499999, 34.937415804 ], [ 134.827170294000013, 34.938487826 ], [ 134.827505274, 34.938992286 ], [ 134.82914528399999, 34.938529285 ], [ 134.830102323, 34.938157305 ], [ 134.83126523199999, 34.937685464 ], [ 134.832695242, 34.937081224 ], [ 134.83390176099999, 34.936477873 ], [ 134.835747279, 34.935439242 ], [ 134.83628249899999, 34.935127082 ], [ 134.836272111, 34.935115583 ], [ 134.836237917, 34.935084222 ], [ 134.836145528, 34.934976556 ], [ 134.835952306, 34.934686611 ] ] ] } },
{ "type": "Feature", "properties": { "A29_001": "28220", "A29_002": "兵庫県", "A29_003": "加西市", "A29_004": 5, "A29_005": "第一種住居地域", "A29_006": 60, "A29_007": 200, "A29_008": null }, "geometry": { "type": "Polygon", "coordinates": [ [ [ 134.877410774999987, 34.886364852 ], [ 134.87740236799999, 34.88634038 ], [ 134.87731603200001, 34.886089043 ], [ 134.87716298699999, 34.885643505 ], [ 134.877140531, 34.885578133 ], [ 134.877133278, 34.885557019 ], [ 134.87678151899999, 34.884532972 ], [ 134.876728528, 34.8843787 ], [ 134.876609613999989, 34.883950468 ], [ 134.876436661000014, 34.883327621 ], [ 134.876431544000013, 34.883309193 ], [ 134.876357805999987, 34.883019111 ], [ 134.87624008099999, 34.882741857 ], [ 134.876178833000012, 34.882597611 ], [ 134.87598106199999, 34.882108452 ], [ 134.87587883899999, 34.881971487 ], [ 134.87574843199999, 34.881796758 ], [ 134.87567051799999, 34.881692364 ], [ 134.875290917, 34.881193243 ], [ 134.875099283, 34.88094127 ], [ 134.874785538, 34.88056797 ], [ 134.874755324, 34.88053202 ], [ 134.874708813000012, 34.880566338 ], [ 134.874598485, 34.88064774 ], [ 134.875116171, 34.881170455 ], [ 134.874811427, 34.881340875 ], [ 134.874792775, 34.88140965 ], [ 134.87480903299999, 34.881505462 ], [ 134.874979418, 34.881832951 ], [ 134.874878187, 34.88187709 ], [ 134.87484943199999, 34.88190584 ], [ 134.87482377399999, 34.881965583 ], [ 134.87482403199999, 34.882004937 ], [ 134.874921784, 34.882199936 ], [ 134.874582298, 34.882355413 ], [ 134.874542794, 34.882373505 ], [ 134.87497629399999, 34.882991797 ], [ 134.87497674299999, 34.883060407 ], [ 134.874942425, 34.88310799 ], [ 134.873708380000011, 34.88362647 ], [ 134.87342738000001, 34.883934168 ], [ 134.87338316099999, 34.883982588 ], [ 134.87348072, 34.884161757 ], [ 134.874283087, 34.885572549 ], [ 134.874384631999988, 34.885445979 ], [ 134.875181693, 34.885024907 ], [ 134.875759786, 34.886651237 ], [ 134.877410774999987, 34.886364852 ] ] ] } },
{ "type": "Feature", "properties": { "A29_001": "28220", "A29_002": "兵庫県", "A29_003": "加西市", "A29_004": 11, "A29_005": "工業地域", "A29_006": 60, "A29_007": 200, "A29_008": null }, "geometry": { "type": "Polygon", "coordinates": [ [ [ 134.898621332, 34.909344342 ], [ 134.89885042899999, 34.909397101 ], [ 134.899056522, 34.909388509 ], [ 134.90055861799999, 34.909889067 ], [ 134.900685153000012, 34.910100278 ], [ 134.900783381, 34.910237204 ], [ 134.900896143000011, 34.910129823 ], [ 134.90140706, 34.910322064 ], [ 134.90165733399999, 34.910338067 ], [ 134.901733705, 34.910328169 ], [ 134.90196222599999, 34.910212613 ], [ 134.90257511499999, 34.910412004 ], [ 134.902919513, 34.910305444 ], [ 134.903272178, 34.910389656 ], [ 134.903756885, 34.910475155 ], [ 134.90387836, 34.910623418 ], [ 134.904063675, 34.910624456 ], [ 134.904398447, 34.910800339 ], [ 134.904723796000013, 34.910953367 ], [ 134.905002239, 34.911022658 ], [ 134.905202484, 34.911172457 ], [ 134.905455515, 34.911251407 ], [ 134.905642075, 34.911097879 ], [ 134.90592328599999, 34.911232031 ], [ 134.906162367, 34.911303413 ], [ 134.906292251999986, 34.911327606 ], [ 134.90642657, 34.911323157 ], [ 134.906614069999989, 34.911305099 ], [ 134.906899485, 34.91123053 ], [ 134.906352149000014, 34.910613688 ], [ 134.906087114, 34.910473736 ], [ 134.905682085, 34.910160763 ], [ 134.905931297, 34.909716948 ], [ 134.90612402299999, 34.909784732 ], [ 134.90652509099999, 34.90983436 ], [ 134.906698836, 34.909837357 ], [ 134.90692577499999, 34.909828653 ], [ 134.907059879, 34.909793674 ], [ 134.906874042, 34.909384306 ], [ 134.906279250000011, 34.90845595 ], [ 134.905808514, 34.907712093 ], [ 134.905789494, 34.907641583 ], [ 134.905791306999987, 34.907569066 ], [ 134.905868029, 34.906942841 ], [ 134.905927174999988, 34.906454084 ], [ 134.906158459000011, 34.906405291 ], [ 134.905905084000011, 34.906274825 ], [ 134.90605838499999, 34.90600315 ], [ 134.90608545, 34.905898076 ], [ 134.906106623999989, 34.905611758 ], [ 134.90453989, 34.905470298 ], [ 134.902695029, 34.905301499 ], [ 134.900835615, 34.904699597 ], [ 134.898642266, 34.904034344 ], [ 134.89660299799999, 34.903541976 ], [ 134.895851717999989, 34.903417611 ], [ 134.897117251999987, 34.904353418 ], [ 134.896730706, 34.904606116 ], [ 134.897122633, 34.905420419 ], [ 134.897862506, 34.905080041 ], [ 134.897930534000011, 34.905078532 ], [ 134.89796357899999, 34.905083359 ], [ 134.899305180999988, 34.906047268 ], [ 134.898627444, 34.906856603 ], [ 134.898302687000012, 34.90720873 ], [ 134.898282927, 34.907282761 ], [ 134.898286802, 34.907425852 ], [ 134.898281535, 34.907502201 ], [ 134.898233296, 34.907645535 ], [ 134.898168027999986, 34.907839035 ], [ 134.898171463000011, 34.907917729 ], [ 134.898222331999989, 34.908158393 ], [ 134.898468344, 34.908567495 ], [ 134.898825246, 34.909102493 ], [ 134.898621332, 34.909344342 ] ] ] } }
]
}
