{
"type": "FeatureCollection",
"name": "A29-19_46204",
"features": [
{ "type": "Feature", "properties": { "A29_001": "46204", "A29_002": "鹿児島県", "A29_003": "枕崎市", "A29_004": 11, "A29_005": "工業地域", "A29_006": 60, "A29_007": 200, "A29_008": null }, "geometry": { "type": "Polygon", "coordinates": [ [ [ 130.297298281, 31.266455726 ], [ 130.297292518, 31.266145368 ], [ 130.297411344000011, 31.266151209 ], [ 130.297482621, 31.265607327 ], [ 130.296936991, 31.265551667 ], [ 130.29731886, 31.2646464 ], [ 130.29740429, 31.26447426 ], [ 130.2975432, 31.26439097 ], [ 130.297798160000013, 31.26431952 ], [ 130.29880642, 31.26445054 ], [ 130.30025974, 31.26465123 ], [ 130.30150004, 31.264869059 ], [ 130.301505262, 31.264721161 ], [ 130.30150914399999, 31.26461123 ], [ 130.300881347, 31.264288782 ], [ 130.30029588299999, 31.264005787 ], [ 130.299916075, 31.263906962 ], [ 130.299347568, 31.263801877 ], [ 130.298930883999986, 31.263750722 ], [ 130.298526261, 31.263718458 ], [ 130.29849601, 31.26353401 ], [ 130.298033010000012, 31.26304101 ], [ 130.29673301, 31.26169501 ], [ 130.296572145999988, 31.261528291 ], [ 130.296176763, 31.261768544 ], [ 130.29620201, 31.26202101 ], [ 130.29623401, 31.26256801 ], [ 130.296234429, 31.262573474 ], [ 130.296435057, 31.264395348 ], [ 130.29630109499999, 31.264476949 ], [ 130.29617923699999, 31.264921157 ], [ 130.296081289999989, 31.264894576 ], [ 130.295880645000011, 31.265537833 ], [ 130.296008147, 31.265679257 ], [ 130.29661833599999, 31.26583181 ], [ 130.296642506000012, 31.265837852 ], [ 130.29663722, 31.265853574 ], [ 130.296594787, 31.265979798 ], [ 130.296510274000013, 31.266231189 ], [ 130.296499463, 31.266297399 ], [ 130.297298281, 31.266455726 ] ] ] } },
{ "type": "Feature", "properties": { "A29_001": "46204", "A29_002": "鹿児島県", "A29_003": "枕崎市", "A29_004": 1, "A29_005": "第一種低層住居専用地域", "A29_006": 50, "A29_007": 80, "A29_008": null }, "geometry": { "type": "Polygon", "coordinates": [ [ [ 130.276647363, 31.266673007 ], [ 130.28020789199999, 31.266757569 ], [ 130.280193389, 31.266514 ], [ 130.280178549, 31.266458879 ], [ 130.28011079800001, 31.266207239 ], [ 130.280094722, 31.266147528 ], [ 130.280085694, 31.266101444 ], [ 130.280008861, 31.265813611 ], [ 130.27999668699999, 31.265764906 ], [ 130.279976111, 31.265682583 ], [ 130.27995802800001, 31.2655855 ], [ 130.279955777999987, 31.265475833 ], [ 130.279967056, 31.265393333 ], [ 130.280005472, 31.265268111 ], [ 130.28008563899999, 31.265041 ], [ 130.28020372200001, 31.264727222 ], [ 130.280223944, 31.2646735 ], [ 130.280353472, 31.264434944 ], [ 130.28041163899999, 31.264308472 ], [ 130.280572167, 31.263975667 ], [ 130.280653667, 31.263812222 ], [ 130.280107028, 31.263488944 ], [ 130.280189917, 31.263383583 ], [ 130.280287944, 31.263254306 ], [ 130.28042786099999, 31.263060611 ], [ 130.280429559, 31.263056378 ], [ 130.280459306000012, 31.262982222 ], [ 130.280482471999989, 31.262069972 ], [ 130.280500651000011, 31.261215007 ], [ 130.276836556, 31.261098548 ], [ 130.276783693999988, 31.2628155 ], [ 130.276774917000012, 31.26289725 ], [ 130.27670039099999, 31.264712758 ], [ 130.27669738899999, 31.264785889 ], [ 130.276698337999989, 31.264788654 ], [ 130.276703110999989, 31.264802556 ], [ 130.276684636, 31.265295187 ], [ 130.276634444, 31.266633528 ], [ 130.276633409, 31.266672549 ], [ 130.276647363, 31.266673007 ] ] ] } },
{ "type": "Feature", "properties": { "A29_001": "46204", "A29_002": "鹿児島県", "A29_003": "枕崎市", "A29_004": 8, "A29_005": "近隣商業地域", "A29_006": 80, "A29_007": 300, "A29_008": null }, "geometry": { "type": "Polygon", "coordinates": [ [ [ 130.300177472, 31.2664995 ], [ 130.29812125, 31.266219806 ], [ 130.298071528, 31.266660306 ], [ 130.298069778000013, 31.266680944 ], [ 130.298037, 31.267000778 ], [ 130.298021083, 31.267156083 ], [ 130.297975138999988, 31.267604528 ], [ 130.298302417, 31.267639694 ], [ 130.29886, 31.267716278 ], [ 130.299394056000011, 31.267778333 ], [ 130.299408889, 31.267780333 ], [ 130.299948167, 31.267852917 ], [ 130.2999656, 31.267760082 ], [ 130.300177472, 31.2664995 ] ] ] } },
{ "type": "Feature", "properties": { "A29_001": "46204", "A29_002": "鹿児島県", "A29_003": "枕崎市", "A29_004": 11, "A29_005": "工業地域", "A29_006": 60, "A29_007": 200, "A29_008": null }, "geometry": { "type": "Polygon", "coordinates": [ [ [ 130.286431056, 31.264208924 ], [ 130.286762270999986, 31.268235073 ], [ 130.286773509999989, 31.268371687 ], [ 130.287824554, 31.268308904 ], [ 130.289613010000011, 31.26817701 ], [ 130.29144401, 31.26807601 ], [ 130.29302501, 31.26799201 ], [ 130.293012999000013, 31.267820161 ], [ 130.29330334299999, 31.267584421 ], [ 130.293748036000011, 31.267330318 ], [ 130.29399722799999, 31.267212362 ], [ 130.29273226399999, 31.266158332 ], [ 130.290330129000012, 31.26629142 ], [ 130.28862801, 31.266368 ], [ 130.288287911999987, 31.266378203 ], [ 130.288136767999987, 31.263961248 ], [ 130.292425814000012, 31.26254707 ], [ 130.29235487299999, 31.262383852 ], [ 130.29196832299999, 31.261494491 ], [ 130.288041322, 31.262797303 ], [ 130.28635490799999, 31.262879465 ], [ 130.28635501, 31.26288101 ], [ 130.28641201, 31.26382801 ], [ 130.286431056, 31.264208924 ] ] ] } },
{ "type": "Feature", "properties": { "A29_001": "46204", "A29_002": "鹿児島県", "A29_003": "枕崎市", "A29_004": 7, "A29_005": "準住居地域", "A29_006": 60, "A29_007": 200, "A29_008": null }, "geometry": { "type": "Polygon", "coordinates": [ [ [ 130.305926594999988, 31.268242273 ], [ 130.30564769899999, 31.267642515 ], [ 130.303680283, 31.268325871 ], [ 130.30386619399999, 31.268646333 ], [ 130.304070222, 31.26890675 ], [ 130.305926594999988, 31.268242273 ] ] ] } },
{ "type": "Feature", "properties": { "A29_001": "46204", "A29_002": "鹿児島県", "A29_003": "枕崎市", "A29_004": 8, "A29_005": "近隣商業地域", "A29_006": 80, "A29_007": 200, "A29_008": null }, "geometry": { "type": "Polygon", "coordinates": [ [ [ 130.30386619399999, 31.268646333 ], [ 130.303680283, 31.268325871 ], [ 130.299785523999986, 31.268825802 ], [ 130.29965040799999, 31.269570539 ], [ 130.304070222, 31.26890675 ], [ 130.30386619399999, 31.268646333 ] ] ] } },
{ "type": "Feature", "properties": { "A29_001": "46204", "A29_002": "鹿児島県", "A29_003": "枕崎市", "A29_004": 7, "A29_005": "準住居地域", "A29_006": 60, "A29_007": 200, "A29_008": null }, "geometry": { "type": "Polygon", "coordinates": [ [ [ 130.27753543599999, 31.270023067 ], [ 130.27744044100001, 31.27018362 ], [ 130.277307234, 31.270387715 ], [ 130.279640007000012, 31.270834126 ], [ 130.279714278, 31.270674556 ], [ 130.279760611, 31.270556056 ], [ 130.279777767000013, 31.270502804 ], [ 130.279843021, 31.270300254 ], [ 130.27770667499999, 31.269883823 ], [ 130.27753543599999, 31.270023067 ] ] ] } },
{ "type": "Feature", "properties": { "A29_001": "46204", "A29_002": "鹿児島県", "A29_003": "枕崎市", "A29_004": 3, "A29_005": "第一種中高層住居専用地域", "A29_006": 60, "A29_007": 200, "A29_008": null }, "geometry": { "type": "Polygon", "coordinates": [ [ [ 130.282703508, 31.270861893 ], [ 130.282756092, 31.270872425 ], [ 130.282767, 31.270407444 ], [ 130.282776667, 31.270392889 ], [ 130.282747472000011, 31.269636 ], [ 130.282746387, 31.269609891 ], [ 130.282723417, 31.269057139 ], [ 130.282719555999989, 31.2687815 ], [ 130.282718445, 31.268767169 ], [ 130.282702027999989, 31.268555472 ], [ 130.282646639, 31.268103694 ], [ 130.282621806, 31.267943556 ], [ 130.28259075, 31.267632056 ], [ 130.28252888899999, 31.267183333 ], [ 130.282529667, 31.266995316 ], [ 130.283049739, 31.266878766 ], [ 130.283174927, 31.26688992 ], [ 130.283531169000014, 31.266921661 ], [ 130.283651944000013, 31.266941278 ], [ 130.28370494399999, 31.266876 ], [ 130.283542444, 31.266765167 ], [ 130.283333333, 31.266643222 ], [ 130.28299833299999, 31.26646 ], [ 130.282879743, 31.26642121 ], [ 130.282869417, 31.266417833 ], [ 130.282809764, 31.266380729 ], [ 130.282678366999988, 31.266298999 ], [ 130.282573332999988, 31.266233667 ], [ 130.282563853, 31.266219931 ], [ 130.28247397199999, 31.266089694 ], [ 130.282367222, 31.265916389 ], [ 130.282360555999986, 31.265899444 ], [ 130.282269444, 31.265709639 ], [ 130.282208032999989, 31.265478572 ], [ 130.282197360999987, 31.265438417 ], [ 130.282160333, 31.265265972 ], [ 130.282158513000013, 31.265145193 ], [ 130.282160352, 31.265076291 ], [ 130.282162306, 31.265003111 ], [ 130.282156444, 31.264864167 ], [ 130.282152774999986, 31.264696974 ], [ 130.282136971999989, 31.263976806 ], [ 130.28212472199999, 31.26389425 ], [ 130.282088278, 31.263648639 ], [ 130.282043472, 31.263434361 ], [ 130.281990881000013, 31.263017358 ], [ 130.281983083, 31.262955528 ], [ 130.281946083, 31.262771361 ], [ 130.281894028000011, 31.262607812 ], [ 130.281646083, 31.261828806 ], [ 130.281498027999987, 31.261398528 ], [ 130.281422475, 31.261234281 ], [ 130.280524034, 31.261215496 ], [ 130.280500651000011, 31.261215007 ], [ 130.28048982199999, 31.261724291 ], [ 130.280482471999989, 31.262069972 ], [ 130.280459306000012, 31.262982222 ], [ 130.28042786099999, 31.263060611 ], [ 130.280287944, 31.263254306 ], [ 130.280189917, 31.263383583 ], [ 130.280107028, 31.263488944 ], [ 130.280653667, 31.263812222 ], [ 130.280572167, 31.263975667 ], [ 130.28041163899999, 31.264308472 ], [ 130.280353472, 31.264434944 ], [ 130.280223944, 31.2646735 ], [ 130.28020372200001, 31.264727222 ], [ 130.28008563899999, 31.265041 ], [ 130.280005472, 31.265268111 ], [ 130.279967056, 31.265393333 ], [ 130.279955777999987, 31.265475833 ], [ 130.27995802800001, 31.2655855 ], [ 130.279976111, 31.265682583 ], [ 130.27999668699999, 31.265764906 ], [ 130.280008861, 31.265813611 ], [ 130.280085694, 31.266101444 ], [ 130.280094722, 31.266147528 ], [ 130.28011079800001, 31.266207239 ], [ 130.280178575, 31.266458977 ], [ 130.280193389, 31.266514 ], [ 130.280207636, 31.266753272 ], [ 130.28020806399999, 31.266757608 ], [ 130.280501587, 31.266915685 ], [ 130.28035379, 31.26731353 ], [ 130.280297420000011, 31.26743425 ], [ 130.280204836, 31.267571011 ], [ 130.280138276, 31.267646708 ], [ 130.279897678999987, 31.267773634 ], [ 130.279503712, 31.267974277 ], [ 130.279285738, 31.26812273 ], [ 130.27927226, 31.26815364 ], [ 130.279214450000012, 31.26829117 ], [ 130.27913254, 31.2684252 ], [ 130.27912017, 31.26850584 ], [ 130.27911013, 31.2686257 ], [ 130.27907044299999, 31.268730722 ], [ 130.2790166, 31.268891836 ], [ 130.278863024, 31.2689924 ], [ 130.27870259299999, 31.269080993 ], [ 130.278545498, 31.269187504 ], [ 130.278344565999987, 31.269270987 ], [ 130.278332973, 31.269275804 ], [ 130.278329015, 31.26943583 ], [ 130.278327956, 31.269478627 ], [ 130.278275068999989, 31.269582739 ], [ 130.278065607, 31.269724752 ], [ 130.27770667499999, 31.269883823 ], [ 130.279843021, 31.270300254 ], [ 130.281110751, 31.270542869 ], [ 130.282703508, 31.270861893 ] ] ] } },
{ "type": "Feature", "properties": { "A29_001": "46204", "A29_002": "鹿児島県", "A29_003": "枕崎市", "A29_004": 5, "A29_005": "第一種住居地域", "A29_006": 60, "A29_007": 200, "A29_008": null }, "geometry": { "type": "Polygon", "coordinates": [ [ [ 130.282718445, 31.268767169 ], [ 130.282719555999989, 31.2687815 ], [ 130.282723417, 31.269057139 ], [ 130.282747472000011, 31.269636 ], [ 130.282776667, 31.270392889 ], [ 130.282767, 31.270407444 ], [ 130.282756092, 31.270872425 ], [ 130.283487955, 31.271019007 ], [ 130.284153377, 31.271290019 ], [ 130.28416649, 31.27045167 ], [ 130.28416268, 31.27009301 ], [ 130.28411739, 31.26987084 ], [ 130.284031056, 31.269615278 ], [ 130.28401158299999, 31.269565889 ], [ 130.283924641, 31.269338803 ], [ 130.283763193999988, 31.268917111 ], [ 130.28361466699999, 31.268503583 ], [ 130.283465639000013, 31.268073278 ], [ 130.28328836099999, 31.267673167 ], [ 130.283118889, 31.267267972 ], [ 130.28307786100001, 31.267109278 ], [ 130.283065443999988, 31.267037306 ], [ 130.283049739, 31.266878766 ], [ 130.282529667, 31.266995316 ], [ 130.28252888899999, 31.267183333 ], [ 130.28259075, 31.267632056 ], [ 130.282621806, 31.267943556 ], [ 130.282646639, 31.268103694 ], [ 130.282702027999989, 31.268555472 ], [ 130.282718445, 31.268767169 ] ] ] } },
{ "type": "Feature", "properties": { "A29_001": "46204", "A29_002": "鹿児島県", "A29_003": "枕崎市", "A29_004": 10, "A29_005": "準工業地域", "A29_006": 60, "A29_007": 200, "A29_008": null }, "geometry": { "type": "Polygon", "coordinates": [ [ [ 130.289931284, 31.271054663 ], [ 130.290417001, 31.271001743 ], [ 130.29042486099999, 31.271056917 ], [ 130.290449400999989, 31.271231357 ], [ 130.291057900999988, 31.271149108 ], [ 130.291192129, 31.271113238 ], [ 130.29136933, 31.271030534 ], [ 130.293148852, 31.270010012 ], [ 130.29353082, 31.269821215 ], [ 130.293817827999987, 31.269710347 ], [ 130.29426928800001, 31.269592535 ], [ 130.294702384, 31.269487697 ], [ 130.295107672, 31.26943762 ], [ 130.295201115999987, 31.269430262 ], [ 130.295207389000012, 31.268995861 ], [ 130.295869111, 31.268779972 ], [ 130.296724361, 31.268491972 ], [ 130.29673725, 31.2684875 ], [ 130.297273749999988, 31.268301083 ], [ 130.297331082999989, 31.268269417 ], [ 130.29756581699999, 31.2680771 ], [ 130.297647833000013, 31.268018111 ], [ 130.29796177, 31.267737045 ], [ 130.297975138999988, 31.267604528 ], [ 130.298021083, 31.267156083 ], [ 130.298037, 31.267000778 ], [ 130.298069778000013, 31.266680944 ], [ 130.298071528, 31.266660306 ], [ 130.29812125, 31.266219806 ], [ 130.297411344000011, 31.266151209 ], [ 130.297292518, 31.266145368 ], [ 130.297298281, 31.266455726 ], [ 130.297282421, 31.266652762 ], [ 130.297222986, 31.266706133 ], [ 130.29714857799999, 31.267373945 ], [ 130.297091332, 31.267411171 ], [ 130.296893825000012, 31.267539606 ], [ 130.29696573699999, 31.267677223 ], [ 130.296932505, 31.267689539 ], [ 130.29682295399999, 31.267730138 ], [ 130.296775145999987, 31.267665791 ], [ 130.295120556, 31.268259167 ], [ 130.294687778, 31.268423889 ], [ 130.294571853, 31.268463631 ], [ 130.29451195199999, 31.268397623 ], [ 130.294411872000012, 31.268432957 ], [ 130.29169141, 31.269393384 ], [ 130.29137784299999, 31.269438146 ], [ 130.29137101, 31.26944101 ], [ 130.29068301, 31.26946901 ], [ 130.29008101, 31.26949401 ], [ 130.287931514, 31.269636597 ], [ 130.287824554, 31.268308904 ], [ 130.286773509999989, 31.268371687 ], [ 130.28692143, 31.27017895 ], [ 130.287016913, 31.271298061 ], [ 130.288943224, 31.271233546 ], [ 130.28932783799999, 31.271099692 ], [ 130.289931284, 31.271054663 ] ] ] } },
{ "type": "Feature", "properties": { "A29_001": "46204", "A29_002": "鹿児島県", "A29_003": "枕崎市", "A29_004": 7, "A29_005": "準住居地域", "A29_006": 60, "A29_007": 200, "A29_008": null }, "geometry": { "type": "Polygon", "coordinates": [ [ [ 130.295193250000011, 31.269785167 ], [ 130.295201115999987, 31.269430262 ], [ 130.295107672, 31.26943762 ], [ 130.294702384, 31.269487697 ], [ 130.29426928800001, 31.269592535 ], [ 130.293817827999987, 31.269710347 ], [ 130.29353082, 31.269821215 ], [ 130.293148852, 31.270010012 ], [ 130.29136933, 31.271030534 ], [ 130.291192129, 31.271113238 ], [ 130.291057900999988, 31.271149108 ], [ 130.290449400999989, 31.271231357 ], [ 130.290490471999988, 31.271523306 ], [ 130.290533457, 31.271821537 ], [ 130.291242031, 31.271768579 ], [ 130.291415777999987, 31.271740771 ], [ 130.29156559899999, 31.271655301 ], [ 130.293290137000014, 31.270660625 ], [ 130.293607923, 31.27050547 ], [ 130.293928634999986, 31.270366021 ], [ 130.294365070999987, 31.270221977 ], [ 130.29468531399999, 31.270145284 ], [ 130.29477992299999, 31.270124566 ], [ 130.29519394, 31.270041742 ], [ 130.295193250000011, 31.269785167 ] ] ] } },
{ "type": "Feature", "properties": { "A29_001": "46204", "A29_002": "鹿児島県", "A29_003": "枕崎市", "A29_004": 11, "A29_005": "工業地域", "A29_006": 60, "A29_007": 200, "A29_008": null }, "geometry": { "type": "Polygon", "coordinates": [ [ [ 130.283174927, 31.26688992 ], [ 130.283049739, 31.266878766 ], [ 130.283065443999988, 31.267037306 ], [ 130.28307786100001, 31.267109278 ], [ 130.283118889, 31.267267972 ], [ 130.28328836099999, 31.267673167 ], [ 130.283465639000013, 31.268073278 ], [ 130.28361466699999, 31.268503583 ], [ 130.283763193999988, 31.268917111 ], [ 130.283924641, 31.269338803 ], [ 130.28401158299999, 31.269565889 ], [ 130.284031056, 31.269615278 ], [ 130.28411739, 31.26987084 ], [ 130.28416268, 31.27009301 ], [ 130.28416649, 31.27045167 ], [ 130.284153377, 31.271290019 ], [ 130.28542138, 31.271806437 ], [ 130.28560671599999, 31.271857153 ], [ 130.28582768699999, 31.27184286 ], [ 130.285779139999988, 31.27094594 ], [ 130.28571, 31.27016438 ], [ 130.28559801, 31.26943801 ], [ 130.28554301, 31.26926401 ], [ 130.28536601, 31.26897201 ], [ 130.28521501, 31.268786 ], [ 130.285152608, 31.268723602 ], [ 130.28495341199999, 31.268579619 ], [ 130.284614223, 31.268425592 ], [ 130.283662373999988, 31.268082041 ], [ 130.28368683299999, 31.267462833 ], [ 130.283672722, 31.267357306 ], [ 130.28362766699999, 31.267251778 ], [ 130.283577306000012, 31.267174361 ], [ 130.283503110999987, 31.267121972 ], [ 130.28339625000001, 31.2670825 ], [ 130.283295556000013, 31.267056694 ], [ 130.283246383, 31.267050796 ], [ 130.28316920099999, 31.267025543 ], [ 130.283174927, 31.26688992 ] ] ] } },
{ "type": "Feature", "properties": { "A29_001": "46204", "A29_002": "鹿児島県", "A29_003": "枕崎市", "A29_004": 8, "A29_005": "近隣商業地域", "A29_006": 80, "A29_007": 200, "A29_008": null }, "geometry": { "type": "Polygon", "coordinates": [ [ [ 130.2796516, 31.270836345 ], [ 130.280798876, 31.271005731 ], [ 130.28332797499999, 31.271527177 ], [ 130.284966591999989, 31.272247594 ], [ 130.28507437499999, 31.272282221 ], [ 130.285148824, 31.272306138 ], [ 130.28540416199999, 31.272359859 ], [ 130.285696389, 31.272366714 ], [ 130.285925123999988, 31.272323517 ], [ 130.28582768699999, 31.27184286 ], [ 130.28560671599999, 31.271857153 ], [ 130.28542138, 31.271806437 ], [ 130.283487955, 31.271019007 ], [ 130.281110751, 31.270542869 ], [ 130.2798223, 31.270296134 ], [ 130.279843021, 31.270300254 ], [ 130.279777767000013, 31.270502804 ], [ 130.279760611, 31.270556056 ], [ 130.279714278, 31.270674556 ], [ 130.279640007000012, 31.270834126 ], [ 130.2796516, 31.270836345 ] ] ] } },
{ "type": "Feature", "properties": { "A29_001": "46204", "A29_002": "鹿児島県", "A29_003": "枕崎市", "A29_004": 9, "A29_005": "商業地域", "A29_006": 80, "A29_007": 400, "A29_008": null }, "geometry": { "type": "Polygon", "coordinates": [ [ [ 130.28911779, 31.273126487 ], [ 130.290202560000012, 31.273006962 ], [ 130.29064324399999, 31.273077759 ], [ 130.290697916999989, 31.272914583 ], [ 130.29067319399999, 31.272696083 ], [ 130.290668167, 31.272629472 ], [ 130.290620472, 31.27228575 ], [ 130.290593444, 31.272237722 ], [ 130.29058649800001, 31.272189532 ], [ 130.290533457, 31.271821537 ], [ 130.290490471999988, 31.271523306 ], [ 130.290449400999989, 31.271231357 ], [ 130.29042486099999, 31.271056917 ], [ 130.290417001, 31.271001743 ], [ 130.289931284, 31.271054663 ], [ 130.28932783799999, 31.271099692 ], [ 130.288943224, 31.271233546 ], [ 130.287016913, 31.271298061 ], [ 130.28708945, 31.27195294 ], [ 130.2871705, 31.27228065 ], [ 130.287294306, 31.27258075 ], [ 130.287420278000013, 31.272879444 ], [ 130.28753161099999, 31.273098139 ], [ 130.288254, 31.272999528 ], [ 130.28842680599999, 31.2729825 ], [ 130.28904679199999, 31.272890513 ], [ 130.28911779, 31.273126487 ] ] ] } },
{ "type": "Feature", "properties": { "A29_001": "46204", "A29_002": "鹿児島県", "A29_003": "枕崎市", "A29_004": 9, "A29_005": "商業地域", "A29_006": 80, "A29_007": 400, "A29_008": null }, "geometry": { "type": "Polygon", "coordinates": [ [ [ 130.29831468, 31.27359781 ], [ 130.298433958, 31.272953663 ], [ 130.298667193999989, 31.272980194 ], [ 130.29897283299999, 31.272439556 ], [ 130.29927443, 31.27147919 ], [ 130.299335722, 31.271191667 ], [ 130.299425305999989, 31.270679972 ], [ 130.299519167, 31.270187167 ], [ 130.299602310000012, 31.26983905 ], [ 130.29965040799999, 31.269570539 ], [ 130.299785523999986, 31.268825802 ], [ 130.299948167, 31.267852917 ], [ 130.299408889, 31.267780333 ], [ 130.299394056000011, 31.267778333 ], [ 130.29886, 31.267716278 ], [ 130.298302417, 31.267639694 ], [ 130.297975138999988, 31.267604528 ], [ 130.29796177, 31.267737045 ], [ 130.297647833000013, 31.268018111 ], [ 130.29756581699999, 31.2680771 ], [ 130.297331082999989, 31.268269417 ], [ 130.297273749999988, 31.268301083 ], [ 130.29673725, 31.2684875 ], [ 130.296724361, 31.268491972 ], [ 130.295869111, 31.268779972 ], [ 130.295207389000012, 31.268995861 ], [ 130.295201115999987, 31.269430262 ], [ 130.295193250000011, 31.269785167 ], [ 130.29519394, 31.270041742 ], [ 130.29519446099999, 31.270235633 ], [ 130.295508114, 31.270198723 ], [ 130.29838811799999, 31.269850616 ], [ 130.298411582999989, 31.269898306 ], [ 130.298297139, 31.270516583 ], [ 130.298133861, 31.271380278 ], [ 130.29806291700001, 31.271796806 ], [ 130.298008735, 31.272079689 ], [ 130.297981222, 31.272223333 ], [ 130.297887944, 31.272688194 ], [ 130.29782358, 31.273075397 ], [ 130.297799889, 31.273217917 ], [ 130.29778052399999, 31.273623145 ], [ 130.297769722, 31.273849167 ], [ 130.297840627, 31.273886371 ], [ 130.29820475599999, 31.273925184 ], [ 130.298250517000014, 31.273930062 ], [ 130.298265429999987, 31.27385283 ], [ 130.29831468, 31.27359781 ] ] ] } },
{ "type": "Feature", "properties": { "A29_001": "46204", "A29_002": "鹿児島県", "A29_003": "枕崎市", "A29_004": 3, "A29_005": "第一種中高層住居専用地域", "A29_006": 60, "A29_007": 200, "A29_008": null }, "geometry": { "type": "Polygon", "coordinates": [ [ [ 130.31007831299999, 31.267633425 ], [ 130.310147664, 31.267505341 ], [ 130.309811744, 31.267647365 ], [ 130.309207106, 31.26790039 ], [ 130.308685231999988, 31.268075406 ], [ 130.30813611100001, 31.268229353 ], [ 130.30734918600001, 31.268429087 ], [ 130.306123224, 31.268715357 ], [ 130.306176281, 31.268953612 ], [ 130.306068791, 31.269081168 ], [ 130.30603686399999, 31.269283661 ], [ 130.305983083, 31.269330167 ], [ 130.305924806, 31.269373889 ], [ 130.305502361, 31.269650194 ], [ 130.305604613000014, 31.269814485 ], [ 130.30565175000001, 31.269890222 ], [ 130.305721497, 31.269988713 ], [ 130.305765388999987, 31.270050694 ], [ 130.305890417, 31.270167917 ], [ 130.30592594399999, 31.270197806 ], [ 130.306003112000013, 31.270273338 ], [ 130.305813058000012, 31.270547142 ], [ 130.30599593299999, 31.270935155 ], [ 130.30575131, 31.271097307 ], [ 130.30575894399999, 31.271102889 ], [ 130.30614116699999, 31.27144875 ], [ 130.30632925, 31.271593917 ], [ 130.306320249, 31.27160415 ], [ 130.306181528, 31.271761861 ], [ 130.305995472, 31.27193525 ], [ 130.30553925000001, 31.272302306 ], [ 130.305124234, 31.272491791 ], [ 130.30540715, 31.27282379 ], [ 130.305541154999986, 31.272980784 ], [ 130.305628981000012, 31.273070916 ], [ 130.306210534, 31.27333234 ], [ 130.307653816999988, 31.273729765 ], [ 130.309566558, 31.274048631 ], [ 130.31053065, 31.274127868 ], [ 130.310655884, 31.274138161 ], [ 130.310590778, 31.27388023 ], [ 130.310473507000012, 31.273678243 ], [ 130.310377, 31.27359475 ], [ 130.31014385, 31.27331162 ], [ 130.309972936, 31.273013952 ], [ 130.309870757, 31.272830351 ], [ 130.309847391, 31.272694244 ], [ 130.309827926, 31.27244048 ], [ 130.309761880999986, 31.272311989 ], [ 130.30960944, 31.27215604 ], [ 130.30943876, 31.27198701 ], [ 130.3092513, 31.27183694 ], [ 130.30919573700001, 31.271798904 ], [ 130.309464537999986, 31.271753389 ], [ 130.30981297400001, 31.271566978 ], [ 130.310092034, 31.271291283 ], [ 130.310429279, 31.270968828 ], [ 130.310259828999989, 31.270910196 ], [ 130.310152923, 31.270873204 ], [ 130.309913176, 31.270767315 ], [ 130.309903600000013, 31.270731988 ], [ 130.30986277299999, 31.270581377 ], [ 130.30983990199999, 31.270377281 ], [ 130.309734357999986, 31.270238117 ], [ 130.30963698, 31.27016683 ], [ 130.30931412000001, 31.2698849 ], [ 130.30909526, 31.26974811 ], [ 130.308988574000011, 31.269671201 ], [ 130.30900152000001, 31.269594148 ], [ 130.30907216899999, 31.269508232 ], [ 130.309118197, 31.269458793 ], [ 130.309046314, 31.269296275 ], [ 130.30907409400001, 31.269244123 ], [ 130.309138273, 31.269210473 ], [ 130.309208732, 31.269150706 ], [ 130.309228217, 31.268983448 ], [ 130.309527287, 31.268885684 ], [ 130.309646472999987, 31.268823563 ], [ 130.309645485, 31.268541134 ], [ 130.309604635, 31.268297716 ], [ 130.309638807999988, 31.268203758 ], [ 130.309712767, 31.268081249 ], [ 130.310001825, 31.267685315 ], [ 130.31007831299999, 31.267633425 ] ] ] } },
{ "type": "Feature", "properties": { "A29_001": "46204", "A29_002": "鹿児島県", "A29_003": "枕崎市", "A29_004": 5, "A29_005": "第一種住居地域", "A29_006": 60, "A29_007": 200, "A29_008": null }, "geometry": { "type": "Polygon", "coordinates": [ [ [ 130.282818451999987, 31.271422129 ], [ 130.282749451, 31.271407903 ], [ 130.2827465, 31.271935222 ], [ 130.282728639, 31.272062083 ], [ 130.28268647199999, 31.272202889 ], [ 130.282621583, 31.272328361 ], [ 130.282534, 31.272469167 ], [ 130.282469111000012, 31.27254025 ], [ 130.282301417000014, 31.272706639 ], [ 130.282279444000011, 31.272728444 ], [ 130.282132917000013, 31.272877639 ], [ 130.282035611, 31.272996833 ], [ 130.281931444, 31.273153361 ], [ 130.281870972, 31.273266556 ], [ 130.281825610999988, 31.273402806 ], [ 130.28180366699999, 31.273468694 ], [ 130.28172708299999, 31.273736472 ], [ 130.281639194, 31.274046889 ], [ 130.28155227799999, 31.274353806 ], [ 130.281369944, 31.274978167 ], [ 130.281441685, 31.274999207 ], [ 130.281506417, 31.275018194 ], [ 130.281700194, 31.275099444 ], [ 130.2817645, 31.275126389 ], [ 130.282012083000012, 31.275224667 ], [ 130.28212061799999, 31.275270085 ], [ 130.282210361000011, 31.275307639 ], [ 130.282224993, 31.275310002 ], [ 130.282240806, 31.275312556 ], [ 130.28229586099999, 31.275315722 ], [ 130.282379278, 31.275326556 ], [ 130.282451138999988, 31.275323389 ], [ 130.28247736099999, 31.275320694 ], [ 130.28259275, 31.275259389 ], [ 130.282727556, 31.2751805 ], [ 130.283201749999989, 31.274908639 ], [ 130.283243722, 31.274895556 ], [ 130.283255774999986, 31.274893441 ], [ 130.283333333, 31.274879833 ], [ 130.283385333000012, 31.274872556 ], [ 130.283449028, 31.274868083 ], [ 130.283455333, 31.274736444 ], [ 130.283514083, 31.274419083 ], [ 130.283604278000013, 31.274107111 ], [ 130.283719694000013, 31.273870889 ], [ 130.28376747199999, 31.273783361 ], [ 130.284082028, 31.273209417 ], [ 130.284110239, 31.273130889 ], [ 130.284144516999987, 31.273068236 ], [ 130.28423006, 31.272962513 ], [ 130.284287387, 31.272913909 ], [ 130.28436104799999, 31.272873522 ], [ 130.284569312, 31.272823666 ], [ 130.285066887999989, 31.27271834 ], [ 130.285043472000012, 31.272406 ], [ 130.285038555999989, 31.272310083 ], [ 130.28504763699999, 31.272273631 ], [ 130.284966591999989, 31.272247594 ], [ 130.28332797499999, 31.271527177 ], [ 130.282818451999987, 31.271422129 ] ] ] } },
{ "type": "Feature", "properties": { "A29_001": "46204", "A29_002": "鹿児島県", "A29_003": "枕崎市", "A29_004": 6, "A29_005": "第二種住居地域", "A29_006": 60, "A29_007": 200, "A29_008": null }, "geometry": { "type": "Polygon", "coordinates": [ [ [ 130.2942205, 31.275244917 ], [ 130.294278861, 31.275242611 ], [ 130.29448777799999, 31.27525225 ], [ 130.294592472, 31.275275861 ], [ 130.294695861, 31.275304528 ], [ 130.295164527999987, 31.275416444 ], [ 130.29558194399999, 31.275500222 ], [ 130.295901249999986, 31.275513722 ], [ 130.29620747199999, 31.275522722 ], [ 130.296484889, 31.275533972 ], [ 130.296600055999988, 31.275531722 ], [ 130.296743278, 31.275491806 ], [ 130.29704097199999, 31.27534225 ], [ 130.297154194, 31.275261167 ], [ 130.29726319400001, 31.275154861 ], [ 130.297356694, 31.275023361 ], [ 130.297373306, 31.275 ], [ 130.297424611, 31.274927833 ], [ 130.297625888999988, 31.274657556 ], [ 130.298001139, 31.274610722 ], [ 130.298020591000011, 31.274560922 ], [ 130.298099667, 31.274358472 ], [ 130.29817094399999, 31.274120639 ], [ 130.298191917, 31.273990889 ], [ 130.29820475599999, 31.273925184 ], [ 130.297840627, 31.273886371 ], [ 130.297769722, 31.273849167 ], [ 130.29778052399999, 31.273623145 ], [ 130.297799889, 31.273217917 ], [ 130.29782358, 31.273075397 ], [ 130.297887944, 31.272688194 ], [ 130.297981222, 31.272223333 ], [ 130.298008735, 31.272079689 ], [ 130.29806291700001, 31.271796806 ], [ 130.298133861, 31.271380278 ], [ 130.298297139, 31.270516583 ], [ 130.298411582999989, 31.269898306 ], [ 130.29838811799999, 31.269850616 ], [ 130.295508114, 31.270198723 ], [ 130.2954964, 31.27031423 ], [ 130.29546549, 31.27052476 ], [ 130.29504429, 31.27145381 ], [ 130.29471344000001, 31.27216593 ], [ 130.29412542, 31.27350313 ], [ 130.293643519999989, 31.2746078 ], [ 130.293315580000012, 31.27553848 ], [ 130.293283437000014, 31.27564198 ], [ 130.29347802800001, 31.275571083 ], [ 130.29376313899999, 31.275423472 ], [ 130.29393586099999, 31.275332667 ], [ 130.294024861, 31.275295556 ], [ 130.294140027999987, 31.275259556 ], [ 130.2942205, 31.275244917 ] ] ] } },
{ "type": "Feature", "properties": { "A29_001": "46204", "A29_002": "鹿児島県", "A29_003": "枕崎市", "A29_004": 5, "A29_005": "第一種住居地域", "A29_006": 60, "A29_007": 200, "A29_008": null }, "geometry": { "type": "Polygon", "coordinates": [ [ [ 130.290593444, 31.272237722 ], [ 130.290620472, 31.27228575 ], [ 130.290668167, 31.272629472 ], [ 130.29067319399999, 31.272696083 ], [ 130.290697916999989, 31.272914583 ], [ 130.29064324399999, 31.273077759 ], [ 130.290631194000014, 31.273113722 ], [ 130.290566250000012, 31.273332639 ], [ 130.290551972, 31.27338575 ], [ 130.290509582999988, 31.273543222 ], [ 130.2904685, 31.273809806 ], [ 130.290410417, 31.274238306 ], [ 130.29038494400001, 31.274531639 ], [ 130.290388422, 31.274550924 ], [ 130.29039251899999, 31.274573638 ], [ 130.290405806, 31.274647306 ], [ 130.290462472, 31.274750806 ], [ 130.290543194, 31.274850611 ], [ 130.290625333, 31.27492 ], [ 130.29077311099999, 31.275 ], [ 130.290805221999989, 31.275017389 ], [ 130.291044583, 31.275123278 ], [ 130.29114930599999, 31.275168278 ], [ 130.291265528, 31.275218222 ], [ 130.291571471999987, 31.275330222 ], [ 130.291666666999987, 31.275361056 ], [ 130.29204619399999, 31.275483944 ], [ 130.292099167, 31.275501111 ], [ 130.29226333299999, 31.275563056 ], [ 130.292506550000013, 31.275644323 ], [ 130.29252563, 31.2756025 ], [ 130.29269038000001, 31.27512148 ], [ 130.2928938, 31.27452859 ], [ 130.2932581, 31.27370907 ], [ 130.29360914, 31.27291862 ], [ 130.29396911, 31.27215175 ], [ 130.29427651, 31.27143839 ], [ 130.29453571, 31.27088616 ], [ 130.29473435, 31.27040644 ], [ 130.29478412, 31.27020721 ], [ 130.29477992299999, 31.270124566 ], [ 130.29468531399999, 31.270145284 ], [ 130.294365070999987, 31.270221977 ], [ 130.293928634999986, 31.270366021 ], [ 130.293607923, 31.27050547 ], [ 130.293290137000014, 31.270660625 ], [ 130.29156559899999, 31.271655301 ], [ 130.291415777999987, 31.271740771 ], [ 130.291242031, 31.271768579 ], [ 130.290533457, 31.271821537 ], [ 130.29058649800001, 31.272189532 ], [ 130.290593444, 31.272237722 ] ] ] } },
{ "type": "Feature", "properties": { "A29_001": "46204", "A29_002": "鹿児島県", "A29_003": "枕崎市", "A29_004": 8, "A29_005": "近隣商業地域", "A29_006": 80, "A29_007": 200, "A29_008": null }, "geometry": { "type": "Polygon", "coordinates": [ [ [ 130.2954964, 31.27031423 ], [ 130.295508114, 31.270198723 ], [ 130.29519446099999, 31.270235633 ], [ 130.29519394, 31.270041742 ], [ 130.29477992299999, 31.270124566 ], [ 130.29478412, 31.27020721 ], [ 130.29473435, 31.27040644 ], [ 130.29453571, 31.27088616 ], [ 130.29427651, 31.27143839 ], [ 130.29396911, 31.27215175 ], [ 130.29360914, 31.27291862 ], [ 130.2932581, 31.27370907 ], [ 130.2928938, 31.27452859 ], [ 130.29269038000001, 31.27512148 ], [ 130.29252563, 31.2756025 ], [ 130.292506550000013, 31.275644323 ], [ 130.29257566699999, 31.275667417 ], [ 130.292780556, 31.275743 ], [ 130.292894139, 31.275761583 ], [ 130.293039639, 31.275730806 ], [ 130.293283437000014, 31.27564198 ], [ 130.293315580000012, 31.27553848 ], [ 130.293643519999989, 31.2746078 ], [ 130.29412542, 31.27350313 ], [ 130.29471344000001, 31.27216593 ], [ 130.29504429, 31.27145381 ], [ 130.29546549, 31.27052476 ], [ 130.2954964, 31.27031423 ] ] ] } },
{ "type": "Feature", "properties": { "A29_001": "46204", "A29_002": "鹿児島県", "A29_003": "枕崎市", "A29_004": 11, "A29_005": "工業地域", "A29_006": 60, "A29_007": 200, "A29_008": null }, "geometry": { "type": "Polygon", "coordinates": [ [ [ 130.28607033, 31.275580428 ], [ 130.286144863, 31.275560485 ], [ 130.286305795, 31.275619458 ], [ 130.28669241099999, 31.275194598 ], [ 130.28735760699999, 31.274394701 ], [ 130.287246366, 31.274248344 ], [ 130.28668195099999, 31.273559096 ], [ 130.286249293999987, 31.272900408 ], [ 130.285925123999988, 31.272323517 ], [ 130.285696389, 31.272366714 ], [ 130.28540416199999, 31.272359859 ], [ 130.285148824, 31.272306138 ], [ 130.28507437499999, 31.272282221 ], [ 130.28504763699999, 31.272273631 ], [ 130.285038555999989, 31.272310083 ], [ 130.285043472000012, 31.272406 ], [ 130.285066887999989, 31.27271834 ], [ 130.284569312, 31.272823666 ], [ 130.28436104799999, 31.272873522 ], [ 130.284287387, 31.272913909 ], [ 130.28423006, 31.272962513 ], [ 130.284144516999987, 31.273068236 ], [ 130.284110239, 31.273130889 ], [ 130.284082028, 31.273209417 ], [ 130.28376747199999, 31.273783361 ], [ 130.283719694000013, 31.273870889 ], [ 130.283604278000013, 31.274107111 ], [ 130.283514083, 31.274419083 ], [ 130.283468746000011, 31.274663986 ], [ 130.283645572000012, 31.274680804 ], [ 130.284083587, 31.274735546 ], [ 130.284325579000011, 31.274824992 ], [ 130.28431404, 31.2750185 ], [ 130.28427356, 31.27528277 ], [ 130.28422765, 31.27565909 ], [ 130.284240165, 31.275788791 ], [ 130.284617098000012, 31.276014301 ], [ 130.28472699299999, 31.276149401 ], [ 130.284805381000012, 31.276267357 ], [ 130.284809259000014, 31.276401097 ], [ 130.284928333000011, 31.276328351 ], [ 130.285257594, 31.276272835 ], [ 130.285539456, 31.27618549 ], [ 130.28567808, 31.27608857 ], [ 130.28578861, 31.27596702 ], [ 130.28589582, 31.27585329 ], [ 130.28595149, 31.27573705 ], [ 130.285981378, 31.275655877 ], [ 130.28607033, 31.275580428 ] ] ] } },
{ "type": "Feature", "properties": { "A29_001": "46204", "A29_002": "鹿児島県", "A29_003": "枕崎市", "A29_004": 5, "A29_005": "第一種住居地域", "A29_006": 60, "A29_007": 200, "A29_008": null }, "geometry": { "type": "Polygon", "coordinates": [ [ [ 130.286375184, 31.277202777 ], [ 130.28648987599999, 31.277157339 ], [ 130.286560646999988, 31.277161045 ], [ 130.286748718000013, 31.277186143 ], [ 130.287209235, 31.277257711 ], [ 130.287321322999986, 31.277248979 ], [ 130.287432036000013, 31.277216186 ], [ 130.287691714, 31.277048744 ], [ 130.287940674, 31.27685418 ], [ 130.288914769, 31.27605808 ], [ 130.287969092999987, 31.27513237 ], [ 130.287576527, 31.274682727 ], [ 130.28735760699999, 31.274394701 ], [ 130.28669241099999, 31.275194598 ], [ 130.286305795, 31.275619458 ], [ 130.286144863, 31.275560485 ], [ 130.28607033, 31.275580428 ], [ 130.285981378, 31.275655877 ], [ 130.28595149, 31.27573705 ], [ 130.28589582, 31.27585329 ], [ 130.28578861, 31.27596702 ], [ 130.28567808, 31.27608857 ], [ 130.285539456, 31.27618549 ], [ 130.285257594, 31.276272835 ], [ 130.284928333000011, 31.276328351 ], [ 130.284809259000014, 31.276401097 ], [ 130.28471456, 31.27658643 ], [ 130.28465882, 31.2767957 ], [ 130.28455980699999, 31.277090089 ], [ 130.28443982499999, 31.277254168 ], [ 130.284349651000014, 31.277307166 ], [ 130.284289968, 31.277342244 ], [ 130.284871396999989, 31.277572231 ], [ 130.285004750000013, 31.277659012 ], [ 130.28539400299999, 31.277700601 ], [ 130.285612068, 31.277668407 ], [ 130.285713816, 31.277632061 ], [ 130.28581785099999, 31.277555057 ], [ 130.285934413, 31.277470259 ], [ 130.286082698, 31.277406941 ], [ 130.28618570399999, 31.277364752 ], [ 130.286285908999986, 31.277281122 ], [ 130.286375184, 31.277202777 ] ] ] } },
{ "type": "Feature", "properties": { "A29_001": "46204", "A29_002": "鹿児島県", "A29_003": "枕崎市", "A29_004": 1, "A29_005": "第一種低層住居専用地域", "A29_006": 50, "A29_007": 80, "A29_008": null }, "geometry": { "type": "Polygon", "coordinates": [ [ [ 130.300069908000012, 31.278132531 ], [ 130.300256170000011, 31.278111058 ], [ 130.300414303, 31.278153812 ], [ 130.300480580999988, 31.278129932 ], [ 130.300552775999989, 31.278042721 ], [ 130.300660177999987, 31.277929552 ], [ 130.300790153, 31.277851808 ], [ 130.300933646, 31.277798981 ], [ 130.301087486, 31.27778805 ], [ 130.301227645000012, 31.27777443 ], [ 130.301352677000011, 31.277747652 ], [ 130.30162456299999, 31.277624916 ], [ 130.301707076000014, 31.277583524 ], [ 130.301844198999987, 31.277568579 ], [ 130.30194785099999, 31.277550837 ], [ 130.30208670799999, 31.277507136 ], [ 130.302169201999988, 31.277468358 ], [ 130.302287295000014, 31.277350016 ], [ 130.302500724, 31.277102746 ], [ 130.302837012, 31.276709702 ], [ 130.302937144, 31.27654942 ], [ 130.303162218000011, 31.276374127 ], [ 130.303322683, 31.276290008 ], [ 130.303473457, 31.276281673 ], [ 130.303630156999986, 31.276295597 ], [ 130.303665731, 31.276313564 ], [ 130.303706162, 31.276362693 ], [ 130.303665986999988, 31.276443541 ], [ 130.303597013, 31.276507236 ], [ 130.30358332, 31.276535836 ], [ 130.303564545, 31.27657505 ], [ 130.303571541999986, 31.276658769 ], [ 130.30372198500001, 31.276902783 ], [ 130.30379858, 31.276982672 ], [ 130.303805202, 31.276989578 ], [ 130.30378474, 31.277063947 ], [ 130.303813107, 31.277139937 ], [ 130.303896611999988, 31.277170462 ], [ 130.303985794999988, 31.277257242 ], [ 130.304071768999989, 31.277366231 ], [ 130.30413672899999, 31.277434574 ], [ 130.304211245, 31.277445438 ], [ 130.30438046099999, 31.277413666 ], [ 130.30444799899999, 31.277338196 ], [ 130.30446512, 31.27716839 ], [ 130.30444547, 31.27686736 ], [ 130.30445323, 31.27634456 ], [ 130.30443093, 31.27609227 ], [ 130.304448439999987, 31.27601727 ], [ 130.30448856000001, 31.27593063 ], [ 130.304503430000011, 31.2758601 ], [ 130.304497988, 31.275772233 ], [ 130.304537944, 31.27574225 ], [ 130.304748369, 31.275749713 ], [ 130.304783861, 31.275750972 ], [ 130.304826972, 31.275744444 ], [ 130.304881429, 31.275697627 ], [ 130.304884, 31.275695417 ], [ 130.304904139, 31.275687101 ], [ 130.304954200999987, 31.275666429 ], [ 130.304981610999988, 31.275655111 ], [ 130.305023444, 31.27565075 ], [ 130.30505513899999, 31.275661639 ], [ 130.305078256, 31.275678762 ], [ 130.30509188900001, 31.275688861 ], [ 130.305138806, 31.275691056 ], [ 130.30517427800001, 31.275679083 ], [ 130.305230056, 31.275626778 ], [ 130.305308453, 31.275529325 ], [ 130.305399789, 31.275633766 ], [ 130.30553508, 31.275764596 ], [ 130.30579605, 31.275883682 ], [ 130.305947186999987, 31.276033556 ], [ 130.30603594199999, 31.276108868 ], [ 130.306071249000013, 31.276138827 ], [ 130.306100343, 31.276219496 ], [ 130.30612794699999, 31.276296035 ], [ 130.306215685000012, 31.276372345 ], [ 130.306328392000012, 31.276365109 ], [ 130.306564009999988, 31.276204248 ], [ 130.306775807, 31.275970038 ], [ 130.306861551999987, 31.27590251 ], [ 130.30697693, 31.27594296 ], [ 130.307018742, 31.276057645 ], [ 130.307085339999986, 31.276110305 ], [ 130.30718885600001, 31.276110863 ], [ 130.30723709099999, 31.276176499 ], [ 130.307331033, 31.276237151 ], [ 130.307394625, 31.276284564 ], [ 130.30751974, 31.276246013 ], [ 130.308263665999988, 31.276106194 ], [ 130.308535014, 31.276055353 ], [ 130.3085154, 31.27582251 ], [ 130.308357969000014, 31.275282965 ], [ 130.308271585999989, 31.275020997 ], [ 130.308173368000013, 31.274711894 ], [ 130.308132214000011, 31.274510315 ], [ 130.308126431, 31.274468443 ], [ 130.308059730999986, 31.274460699 ], [ 130.307569922999988, 31.274377841 ], [ 130.307185585000013, 31.274267246 ], [ 130.30628461, 31.274027032 ], [ 130.305956511, 31.273928504 ], [ 130.305261645, 31.27362049 ], [ 130.30515102699999, 31.273758489 ], [ 130.304816652, 31.274018299 ], [ 130.304447113, 31.274368204 ], [ 130.303660775999987, 31.274355409 ], [ 130.30364774, 31.27421634 ], [ 130.303613288, 31.273860266 ], [ 130.303763847999988, 31.273792716 ], [ 130.30376476, 31.27356357 ], [ 130.30382789, 31.27349554 ], [ 130.303739009999987, 31.27333816 ], [ 130.3037409, 31.27281365 ], [ 130.30368142, 31.27274048 ], [ 130.30364813, 31.27238725 ], [ 130.303724030000012, 31.2723574 ], [ 130.303653489999988, 31.27219002 ], [ 130.303526409999989, 31.27199321 ], [ 130.30346984, 31.27187746 ], [ 130.303430569, 31.271811694 ], [ 130.302792880999988, 31.27220572 ], [ 130.302193044, 31.271593161 ], [ 130.302171175000012, 31.271668879 ], [ 130.30207292599999, 31.271780792 ], [ 130.301956389999987, 31.27189522 ], [ 130.301879721, 31.27197064 ], [ 130.30177502, 31.272126416 ], [ 130.301770581999989, 31.272145376 ], [ 130.301746767999987, 31.272247111 ], [ 130.301767289999987, 31.272354439 ], [ 130.30180927699999, 31.272440963 ], [ 130.30184743, 31.272511279 ], [ 130.301817081, 31.272621443 ], [ 130.301831725999989, 31.272699973 ], [ 130.30194758, 31.272884963 ], [ 130.302034926, 31.273013574 ], [ 130.30208924499999, 31.273079245 ], [ 130.302198479999987, 31.273129524 ], [ 130.302307716, 31.273179802 ], [ 130.302398684, 31.273229982 ], [ 130.30243454399999, 31.273321703 ], [ 130.302628352, 31.273773058 ], [ 130.30263119, 31.273905923 ], [ 130.302621499, 31.273981706 ], [ 130.30255692899999, 31.274067652 ], [ 130.302453070000013, 31.274114159 ], [ 130.302346242999988, 31.274150189 ], [ 130.302260784999987, 31.274178491 ], [ 130.302208258, 31.274282807 ], [ 130.302119428, 31.274355545 ], [ 130.302021465, 31.274428234 ], [ 130.301917932, 31.274430287 ], [ 130.301781102, 31.274406008 ], [ 130.301614136000012, 31.274339725 ], [ 130.301483780000012, 31.27426318 ], [ 130.30123451599999, 31.274209524 ], [ 130.30108931, 31.27415538 ], [ 130.30103657, 31.27427221 ], [ 130.300992259999987, 31.27444233 ], [ 130.301000511000012, 31.274629179 ], [ 130.30100977399999, 31.274752882 ], [ 130.297849570000011, 31.274917463 ], [ 130.297117049, 31.275743291 ], [ 130.297343302, 31.276145461 ], [ 130.297544921, 31.276497378 ], [ 130.297766, 31.27698681 ], [ 130.29802841899999, 31.277872052 ], [ 130.299856522, 31.277816419 ], [ 130.299852038000012, 31.278102973 ], [ 130.299897069999986, 31.278189514 ], [ 130.300069908000012, 31.278132531 ] ] ] } },
{ "type": "Feature", "properties": { "A29_001": "46204", "A29_002": "鹿児島県", "A29_003": "枕崎市", "A29_004": 3, "A29_005": "第一種中高層住居専用地域", "A29_006": 60, "A29_007": 200, "A29_008": null }, "geometry": { "type": "Polygon", "coordinates": [ [ [ 130.280546859, 31.27799178 ], [ 130.280580194, 31.27786525 ], [ 130.280658472, 31.277876889 ], [ 130.280686158, 31.2778786 ], [ 130.281183860999988, 31.277909361 ], [ 130.28140934699999, 31.27792289 ], [ 130.281526917, 31.277929944 ], [ 130.281716902999989, 31.27794105 ], [ 130.282458861, 31.277984417 ], [ 130.282551332999986, 31.27798675 ], [ 130.282596667, 31.27797975 ], [ 130.28277588899999, 31.277917556 ], [ 130.28319180599999, 31.277732333 ], [ 130.283317970000013, 31.277645125 ], [ 130.283458360999987, 31.277548083 ], [ 130.283564417, 31.27748575 ], [ 130.283747556, 31.277430444 ], [ 130.284122693, 31.277317777 ], [ 130.284289968, 31.277342244 ], [ 130.28443982499999, 31.277254168 ], [ 130.28455980699999, 31.277090089 ], [ 130.28465882, 31.2767957 ], [ 130.28471456, 31.27658643 ], [ 130.284809259000014, 31.276401097 ], [ 130.284805381000012, 31.276267357 ], [ 130.28472699299999, 31.276149401 ], [ 130.284617098000012, 31.276014301 ], [ 130.284240165, 31.275788791 ], [ 130.28422765, 31.27565909 ], [ 130.28427356, 31.27528277 ], [ 130.28431404, 31.2750185 ], [ 130.284325579000011, 31.274824992 ], [ 130.284083587, 31.274735546 ], [ 130.283645572000012, 31.274680804 ], [ 130.283468746000011, 31.274663986 ], [ 130.283455333, 31.274736444 ], [ 130.283449028, 31.274868083 ], [ 130.283385333000012, 31.274872556 ], [ 130.283333333, 31.274879833 ], [ 130.283255774999986, 31.274893441 ], [ 130.283243722, 31.274895556 ], [ 130.283201749999989, 31.274908639 ], [ 130.282727556, 31.2751805 ], [ 130.28259275, 31.275259389 ], [ 130.28247736099999, 31.275320694 ], [ 130.282451138999988, 31.275323389 ], [ 130.282379278, 31.275326556 ], [ 130.28229586099999, 31.275315722 ], [ 130.282240806, 31.275312556 ], [ 130.282224993, 31.275310002 ], [ 130.282210361000011, 31.275307639 ], [ 130.28212061799999, 31.275270085 ], [ 130.282012083000012, 31.275224667 ], [ 130.2817645, 31.275126389 ], [ 130.281700194, 31.275099444 ], [ 130.281506417, 31.275018194 ], [ 130.281369944, 31.274978167 ], [ 130.28155227799999, 31.274353806 ], [ 130.281639194, 31.274046889 ], [ 130.28172708299999, 31.273736472 ], [ 130.28180366699999, 31.273468694 ], [ 130.281825610999988, 31.273402806 ], [ 130.281870972, 31.273266556 ], [ 130.281931444, 31.273153361 ], [ 130.282035611, 31.272996833 ], [ 130.282132917000013, 31.272877639 ], [ 130.282279444000011, 31.272728444 ], [ 130.282301417000014, 31.272706639 ], [ 130.282469111000012, 31.27254025 ], [ 130.282534, 31.272469167 ], [ 130.282621583, 31.272328361 ], [ 130.28268647199999, 31.272202889 ], [ 130.282728639, 31.272062083 ], [ 130.2827465, 31.271935222 ], [ 130.282749451, 31.271407903 ], [ 130.280798876, 31.271005731 ], [ 130.2796516, 31.270836345 ], [ 130.277307232999988, 31.270387714 ], [ 130.277222779999988, 31.270489657 ], [ 130.27712157799999, 31.270707338 ], [ 130.277088604, 31.270778264 ], [ 130.277117699, 31.271061824 ], [ 130.277192079, 31.271327739 ], [ 130.277370875, 31.271564411 ], [ 130.277472369, 31.271785104 ], [ 130.27745632, 31.27187447 ], [ 130.277440976, 31.271896878 ], [ 130.277430312, 31.27202517 ], [ 130.277182323, 31.272208728 ], [ 130.277087552000012, 31.272339452 ], [ 130.27662698200001, 31.272617272 ], [ 130.276284787, 31.272856977 ], [ 130.276056208, 31.272772163 ], [ 130.27576995699999, 31.272508036 ], [ 130.273286055, 31.273042904 ], [ 130.273222914, 31.274483389 ], [ 130.27311973, 31.274861008 ], [ 130.275567056, 31.276052 ], [ 130.27568108299999, 31.276097528 ], [ 130.27592936100001, 31.276216444 ], [ 130.27624922199999, 31.276369611 ], [ 130.27693475, 31.276693944 ], [ 130.277178611000011, 31.276813389 ], [ 130.277534333, 31.276987639 ], [ 130.277951777999988, 31.277180528 ], [ 130.278695610999989, 31.277534278 ], [ 130.279303806, 31.277823528 ], [ 130.279596278000014, 31.277962639 ], [ 130.280122221999989, 31.278212778 ], [ 130.280432571, 31.278364593 ], [ 130.28043741499999, 31.278348099 ], [ 130.280546859, 31.27799178 ] ] ] } },
{ "type": "Feature", "properties": { "A29_001": "46204", "A29_002": "鹿児島県", "A29_003": "枕崎市", "A29_004": 1, "A29_005": "第一種低層住居専用地域", "A29_006": 50, "A29_007": 80, "A29_008": null }, "geometry": { "type": "Polygon", "coordinates": [ [ [ 130.280432571, 31.278364593 ], [ 130.280122221999989, 31.278212778 ], [ 130.279596278000014, 31.277962639 ], [ 130.279303806, 31.277823528 ], [ 130.278695610999989, 31.277534278 ], [ 130.277951777999988, 31.277180528 ], [ 130.277534333, 31.276987639 ], [ 130.277178611000011, 31.276813389 ], [ 130.27693475, 31.276693944 ], [ 130.27624922199999, 31.276369611 ], [ 130.27592936100001, 31.276216444 ], [ 130.27568108299999, 31.276097528 ], [ 130.275567056, 31.276052 ], [ 130.275164249999989, 31.276662361 ], [ 130.275012457, 31.276899147 ], [ 130.274984859, 31.27693542 ], [ 130.274435888999989, 31.277789833 ], [ 130.274286778, 31.278033083 ], [ 130.2739554, 31.278540625 ], [ 130.273904499999986, 31.278618583 ], [ 130.274352, 31.278670639 ], [ 130.27528808299999, 31.278823806 ], [ 130.275527055999987, 31.278867944 ], [ 130.276756611, 31.279081472 ], [ 130.277353389000012, 31.279205028 ], [ 130.277672639, 31.279284361 ], [ 130.278072861, 31.279395083 ], [ 130.278225028, 31.27943875 ], [ 130.278370028000012, 31.279479889 ], [ 130.278971917, 31.279647889 ], [ 130.279853, 31.279894083 ], [ 130.279967778000014, 31.279917972 ], [ 130.280132861, 31.279952639 ], [ 130.280119222, 31.279882389 ], [ 130.280121887, 31.279826191 ], [ 130.280098400000014, 31.27968142 ], [ 130.28015539, 31.27930852 ], [ 130.280374169, 31.27856348 ], [ 130.280432571, 31.278364593 ] ] ] } },
{ "type": "Feature", "properties": { "A29_001": "46204", "A29_002": "鹿児島県", "A29_003": "枕崎市", "A29_004": 3, "A29_005": "第一種中高層住居専用地域", "A29_006": 60, "A29_007": 200, "A29_008": null }, "geometry": { "type": "Polygon", "coordinates": [ [ [ 130.29071553, 31.27920419 ], [ 130.290857679999988, 31.27878132 ], [ 130.29094193, 31.2784209 ], [ 130.290966200000014, 31.27822938 ], [ 130.29096529099999, 31.278177528 ], [ 130.290576023, 31.277646639 ], [ 130.289237922000012, 31.276374404 ], [ 130.288914769, 31.27605808 ], [ 130.287940674, 31.27685418 ], [ 130.287691714, 31.277048744 ], [ 130.287432036000013, 31.277216186 ], [ 130.287321322999986, 31.277248979 ], [ 130.287209235, 31.277257711 ], [ 130.286748718000013, 31.277186143 ], [ 130.286560646999988, 31.277161045 ], [ 130.28648987599999, 31.277157339 ], [ 130.286375184, 31.277202777 ], [ 130.286285908999986, 31.277281122 ], [ 130.28618570399999, 31.277364752 ], [ 130.286082698, 31.277406941 ], [ 130.285934413, 31.277470259 ], [ 130.28581785099999, 31.277555057 ], [ 130.285713816, 31.277632061 ], [ 130.285612068, 31.277668407 ], [ 130.28539400299999, 31.277700601 ], [ 130.285004750000013, 31.277659012 ], [ 130.285003139, 31.277673528 ], [ 130.284875778000014, 31.277849611 ], [ 130.284807777999987, 31.277918194 ], [ 130.284747944, 31.277970389 ], [ 130.28464708300001, 31.278053 ], [ 130.284625306, 31.278088833 ], [ 130.284621694, 31.27812 ], [ 130.28463438899999, 31.278164417 ], [ 130.284793654999987, 31.278476701 ], [ 130.284818897, 31.278813933 ], [ 130.28493121599999, 31.279118836 ], [ 130.285159908, 31.279191703 ], [ 130.285389141, 31.279192978 ], [ 130.28582708, 31.27915365 ], [ 130.286493713, 31.279187185 ], [ 130.287205340000014, 31.279241847 ], [ 130.2878804, 31.279078537 ], [ 130.288318943, 31.278958659 ], [ 130.288475439, 31.278932678 ], [ 130.28876010799999, 31.278952152 ], [ 130.288943897, 31.27899195 ], [ 130.289317192, 31.279235648 ], [ 130.28947889, 31.279442377 ], [ 130.28955112700001, 31.279767935 ], [ 130.289773618999988, 31.279973509 ], [ 130.289944856, 31.280298123 ], [ 130.29042060399999, 31.280312684 ], [ 130.29045008, 31.2801492 ], [ 130.2905222, 31.27984084 ], [ 130.29071553, 31.27920419 ] ] ] } },
{ "type": "Feature", "properties": { "A29_001": "46204", "A29_002": "鹿児島県", "A29_003": "枕崎市", "A29_004": 5, "A29_005": "第一種住居地域", "A29_006": 60, "A29_007": 200, "A29_008": null }, "geometry": { "type": "Polygon", "coordinates": [ [ [ 130.300260111, 31.278216333 ], [ 130.300414303, 31.278153812 ], [ 130.300256170000011, 31.278111058 ], [ 130.300069908000012, 31.278132531 ], [ 130.299897069999986, 31.278189514 ], [ 130.299852038000012, 31.278102973 ], [ 130.299856522, 31.277816419 ], [ 130.29802841899999, 31.277872052 ], [ 130.297766, 31.27698681 ], [ 130.297544921, 31.276497378 ], [ 130.297343302, 31.276145461 ], [ 130.297117049, 31.275743291 ], [ 130.297849570000011, 31.274917463 ], [ 130.30100977399999, 31.274752882 ], [ 130.301000511000012, 31.274629179 ], [ 130.300992259999987, 31.27444233 ], [ 130.30103657, 31.27427221 ], [ 130.30108931, 31.27415538 ], [ 130.30123451599999, 31.274209524 ], [ 130.301483780000012, 31.27426318 ], [ 130.301614136000012, 31.274339725 ], [ 130.301781102, 31.274406008 ], [ 130.301917932, 31.274430287 ], [ 130.302021465, 31.274428234 ], [ 130.302119428, 31.274355545 ], [ 130.302208258, 31.274282807 ], [ 130.302260784999987, 31.274178491 ], [ 130.302346242999988, 31.274150189 ], [ 130.302453070000013, 31.274114159 ], [ 130.30255692899999, 31.274067652 ], [ 130.302621499, 31.273981706 ], [ 130.30263119, 31.273905923 ], [ 130.302628352, 31.273773058 ], [ 130.30243454399999, 31.273321703 ], [ 130.302398684, 31.273229982 ], [ 130.302307716, 31.273179802 ], [ 130.302198479999987, 31.273129524 ], [ 130.30208924499999, 31.273079245 ], [ 130.302034926, 31.273013574 ], [ 130.30194758, 31.272884963 ], [ 130.301831725999989, 31.272699973 ], [ 130.301817081, 31.272621443 ], [ 130.30184743, 31.272511279 ], [ 130.30180927699999, 31.272440963 ], [ 130.301767289999987, 31.272354439 ], [ 130.301746767999987, 31.272247111 ], [ 130.301770581999989, 31.272145376 ], [ 130.30177502, 31.272126416 ], [ 130.301879721, 31.27197064 ], [ 130.301956389999987, 31.27189522 ], [ 130.30207292599999, 31.271780792 ], [ 130.302171175000012, 31.271668879 ], [ 130.302193044, 31.271593161 ], [ 130.302792880999988, 31.27220572 ], [ 130.303430569, 31.271811694 ], [ 130.30346984, 31.27187746 ], [ 130.303526409999989, 31.27199321 ], [ 130.303653489999988, 31.27219002 ], [ 130.303724030000012, 31.2723574 ], [ 130.30364813, 31.27238725 ], [ 130.30368142, 31.27274048 ], [ 130.3037409, 31.27281365 ], [ 130.303739009999987, 31.27333816 ], [ 130.30382789, 31.27349554 ], [ 130.30376476, 31.27356357 ], [ 130.303763847999988, 31.273792716 ], [ 130.303613288, 31.273860266 ], [ 130.30364774, 31.27421634 ], [ 130.303660775999987, 31.274355409 ], [ 130.304447113, 31.274368204 ], [ 130.304816652, 31.274018299 ], [ 130.30515102699999, 31.273758489 ], [ 130.305261645, 31.27362049 ], [ 130.305956511, 31.273928504 ], [ 130.30628461, 31.274027032 ], [ 130.307185585000013, 31.274267246 ], [ 130.307569922999988, 31.274377841 ], [ 130.308059730999986, 31.274460699 ], [ 130.308126431, 31.274468443 ], [ 130.30814660199999, 31.274227901 ], [ 130.31061549399999, 31.274562513 ], [ 130.310658928, 31.274321113 ], [ 130.310655884, 31.274138161 ], [ 130.31053065, 31.274127868 ], [ 130.309566558, 31.274048631 ], [ 130.307653816999988, 31.273729765 ], [ 130.306210534, 31.27333234 ], [ 130.305628981000012, 31.273070916 ], [ 130.305541154999986, 31.272980784 ], [ 130.30540715, 31.27282379 ], [ 130.305124234, 31.272491791 ], [ 130.30553925000001, 31.272302306 ], [ 130.305995472, 31.27193525 ], [ 130.306181528, 31.271761861 ], [ 130.306320249, 31.27160415 ], [ 130.30632925, 31.271593917 ], [ 130.30614116699999, 31.27144875 ], [ 130.30575894399999, 31.271102889 ], [ 130.30575131, 31.271097307 ], [ 130.30599593299999, 31.270935155 ], [ 130.305813058000012, 31.270547142 ], [ 130.306003112000013, 31.270273338 ], [ 130.30592594399999, 31.270197806 ], [ 130.305890417, 31.270167917 ], [ 130.305765388999987, 31.270050694 ], [ 130.305721497, 31.269988713 ], [ 130.30565175000001, 31.269890222 ], [ 130.305604613000014, 31.269814485 ], [ 130.305502361, 31.269650194 ], [ 130.305924806, 31.269373889 ], [ 130.305983083, 31.269330167 ], [ 130.30603686399999, 31.269283661 ], [ 130.306068791, 31.269081168 ], [ 130.306176281, 31.268953612 ], [ 130.306123224, 31.268715357 ], [ 130.30734918600001, 31.268429087 ], [ 130.30813611100001, 31.268229353 ], [ 130.308685231999988, 31.268075406 ], [ 130.309207106, 31.26790039 ], [ 130.309811744, 31.267647365 ], [ 130.310147664, 31.267505341 ], [ 130.31023705199999, 31.267354149 ], [ 130.310299593, 31.267126976 ], [ 130.31059591499999, 31.266987354 ], [ 130.310682372, 31.266820456 ], [ 130.310801536000014, 31.266760949 ], [ 130.310848929, 31.266523234 ], [ 130.310874633, 31.266337705 ], [ 130.310829995, 31.266196253 ], [ 130.310772477, 31.266151489 ], [ 130.310664637, 31.266139605 ], [ 130.31065386099999, 31.266129356 ], [ 130.310450288, 31.266080789 ], [ 130.309777794000013, 31.266037953 ], [ 130.309260556, 31.266351278 ], [ 130.309067277999986, 31.266460778 ], [ 130.30899780199999, 31.266495724 ], [ 130.30887725, 31.266556361 ], [ 130.308744417000014, 31.266600917 ], [ 130.308616777999987, 31.266650222 ], [ 130.30848136099999, 31.266708833 ], [ 130.308171582999989, 31.266810972 ], [ 130.307907583, 31.266880472 ], [ 130.307768278, 31.266903083 ], [ 130.307642611, 31.266920667 ], [ 130.30744097199999, 31.266929861 ], [ 130.307327, 31.266922333 ], [ 130.307181832999987, 31.266908944 ], [ 130.306947056000013, 31.266876278 ], [ 130.30678241699999, 31.266859528 ], [ 130.306582722, 31.266866222 ], [ 130.306489618, 31.266876029 ], [ 130.30648725, 31.266876278 ], [ 130.306180874, 31.266869779 ], [ 130.306088386999988, 31.266819594 ], [ 130.306143088, 31.266794893 ], [ 130.30656335899999, 31.26660511 ], [ 130.306358071, 31.266368648 ], [ 130.306249156, 31.266311713 ], [ 130.30618519, 31.26626925 ], [ 130.30592207, 31.26611876 ], [ 130.30568786, 31.26603009 ], [ 130.305172520000013, 31.26584573 ], [ 130.30476601, 31.26562401 ], [ 130.30428701, 31.26543801 ], [ 130.30378782, 31.26526889 ], [ 130.30331744, 31.2651834 ], [ 130.30223829, 31.26502064 ], [ 130.3015374, 31.26487562 ], [ 130.30150004, 31.264869059 ], [ 130.30025974, 31.26465123 ], [ 130.29880642, 31.26445054 ], [ 130.297798160000013, 31.26431952 ], [ 130.2975432, 31.26439097 ], [ 130.29740429, 31.26447426 ], [ 130.29731886, 31.2646464 ], [ 130.296936991, 31.265551667 ], [ 130.297482621, 31.265607327 ], [ 130.297411344000011, 31.266151209 ], [ 130.29812125, 31.266219806 ], [ 130.300177472, 31.2664995 ], [ 130.2999656, 31.267760082 ], [ 130.299948167, 31.267852917 ], [ 130.299785523999986, 31.268825802 ], [ 130.303680283, 31.268325871 ], [ 130.30564769899999, 31.267642515 ], [ 130.305926594999988, 31.268242273 ], [ 130.304070222, 31.26890675 ], [ 130.29965040799999, 31.269570539 ], [ 130.299602310000012, 31.26983905 ], [ 130.299519167, 31.270187167 ], [ 130.299425305999989, 31.270679972 ], [ 130.299335722, 31.271191667 ], [ 130.29927443, 31.27147919 ], [ 130.29897283299999, 31.272439556 ], [ 130.298667193999989, 31.272980194 ], [ 130.298433958, 31.272953663 ], [ 130.29831468, 31.27359781 ], [ 130.298265429999987, 31.27385283 ], [ 130.298250517000014, 31.273930062 ], [ 130.29820475599999, 31.273925184 ], [ 130.298191917, 31.273990889 ], [ 130.29817094399999, 31.274120639 ], [ 130.298099667, 31.274358472 ], [ 130.29805557, 31.27447137 ], [ 130.298020591000011, 31.274560922 ], [ 130.298001139, 31.274610722 ], [ 130.297625888999988, 31.274657556 ], [ 130.297424611, 31.274927833 ], [ 130.297373306, 31.275 ], [ 130.297356694, 31.275023361 ], [ 130.29726319400001, 31.275154861 ], [ 130.297154194, 31.275261167 ], [ 130.29704097199999, 31.27534225 ], [ 130.296743278, 31.275491806 ], [ 130.296600055999988, 31.275531722 ], [ 130.296484889, 31.275533972 ], [ 130.29620747199999, 31.275522722 ], [ 130.295901249999986, 31.275513722 ], [ 130.29558194399999, 31.275500222 ], [ 130.295164527999987, 31.275416444 ], [ 130.294695861, 31.275304528 ], [ 130.294592472, 31.275275861 ], [ 130.29448777799999, 31.27525225 ], [ 130.294278861, 31.275242611 ], [ 130.2942205, 31.275244917 ], [ 130.294140027999987, 31.275259556 ], [ 130.294024861, 31.275295556 ], [ 130.29393586099999, 31.275332667 ], [ 130.29376313899999, 31.275423472 ], [ 130.29347802800001, 31.275571083 ], [ 130.293283437000014, 31.27564198 ], [ 130.293149016, 31.275690956 ], [ 130.293039639, 31.275730806 ], [ 130.292894139, 31.275761583 ], [ 130.292780556, 31.275743 ], [ 130.292082056, 31.276540222 ], [ 130.29153391700001, 31.277109944 ], [ 130.29119277800001, 31.277406111 ], [ 130.29182202199999, 31.278033488 ], [ 130.29233625, 31.278486106 ], [ 130.293071687, 31.278673207 ], [ 130.294272576, 31.278884105 ], [ 130.29579210899999, 31.277249879 ], [ 130.296320861, 31.27672215 ], [ 130.296719029, 31.276250784 ], [ 130.29713960699999, 31.277016675 ], [ 130.29741843299999, 31.278011911 ], [ 130.297718323, 31.278630698 ], [ 130.297964181, 31.279056323 ], [ 130.297961703, 31.279916662 ], [ 130.29801201, 31.280113064 ], [ 130.29813513799999, 31.28034386 ], [ 130.299245281999987, 31.28174373 ], [ 130.300447287, 31.281119405 ], [ 130.300431559, 31.281028116 ], [ 130.30026085599999, 31.280569213 ], [ 130.300129502, 31.280420748 ], [ 130.299889646, 31.280327915 ], [ 130.299781333, 31.280231194 ], [ 130.29976993, 31.280203048 ], [ 130.29973833299999, 31.280125056 ], [ 130.299699056, 31.28003075 ], [ 130.299677556, 31.279991556 ], [ 130.299584278, 31.279851917 ], [ 130.29956597, 31.279829348 ], [ 130.29956016700001, 31.279822194 ], [ 130.299546028, 31.279776694 ], [ 130.299540645, 31.279750244 ], [ 130.29952713899999, 31.279683889 ], [ 130.299507524, 31.279500898 ], [ 130.299590306, 31.279461389 ], [ 130.299816722, 31.279376694 ], [ 130.300073528000013, 31.279273083 ], [ 130.300209278000011, 31.279211833 ], [ 130.300270082999987, 31.279137056 ], [ 130.30028527799999, 31.279063167 ], [ 130.300277943999987, 31.279010917 ], [ 130.300236278, 31.278858 ], [ 130.30014166699999, 31.278510917 ], [ 130.300125944, 31.27843075 ], [ 130.300131068000013, 31.278386694 ], [ 130.300133278, 31.278367694 ], [ 130.300165778, 31.278292 ], [ 130.300205611, 31.278246972 ], [ 130.300260111, 31.278216333 ] ] ] } },
{ "type": "Feature", "properties": { "A29_001": "46204", "A29_002": "鹿児島県", "A29_003": "枕崎市", "A29_004": 1, "A29_005": "第一種低層住居専用地域", "A29_006": 50, "A29_007": 80, "A29_008": null }, "geometry": { "type": "Polygon", "coordinates": [ [ [ 130.295526110999987, 31.282125556 ], [ 130.296129694, 31.282105306 ], [ 130.29644916699999, 31.282114333 ], [ 130.29660947, 31.282123775 ], [ 130.29681183299999, 31.282135694 ], [ 130.297232580000014, 31.282156805 ], [ 130.297310638999988, 31.282160722 ], [ 130.297579332999987, 31.282177444 ], [ 130.29769427799999, 31.282186333 ], [ 130.29794302799999, 31.282190833 ], [ 130.29804297199999, 31.282185583 ], [ 130.298345762, 31.282169826 ], [ 130.298554208000013, 31.282140059 ], [ 130.299245281999987, 31.28174373 ], [ 130.29813513799999, 31.28034386 ], [ 130.29801201, 31.280113064 ], [ 130.297961703, 31.279916662 ], [ 130.297964181, 31.279056323 ], [ 130.297718323, 31.278630698 ], [ 130.29741843299999, 31.278011911 ], [ 130.29713960699999, 31.277016675 ], [ 130.296719029, 31.276250784 ], [ 130.296320861, 31.27672215 ], [ 130.29579210899999, 31.277249879 ], [ 130.294272576, 31.278884105 ], [ 130.294155350000011, 31.27916597 ], [ 130.294021859999987, 31.27956871 ], [ 130.29395252, 31.27994267 ], [ 130.293652329999986, 31.28117386 ], [ 130.29344237, 31.28203121 ], [ 130.293345738, 31.282375709 ], [ 130.29352374199999, 31.282355008 ], [ 130.293813527999987, 31.282321306 ], [ 130.294099278, 31.282288 ], [ 130.29455425, 31.282234944 ], [ 130.294768944, 31.282210194 ], [ 130.29527475, 31.282144694 ], [ 130.295526110999987, 31.282125556 ] ] ] } },
{ "type": "Feature", "properties": { "A29_001": "46204", "A29_002": "鹿児島県", "A29_003": "枕崎市", "A29_004": 10, "A29_005": "準工業地域", "A29_006": 60, "A29_007": 200, "A29_008": null }, "geometry": { "type": "Polygon", "coordinates": [ [ [ 130.290566250000012, 31.273332639 ], [ 130.290631194000014, 31.273113722 ], [ 130.29064324399999, 31.273077759 ], [ 130.290202560000012, 31.273006962 ], [ 130.28911779, 31.273126487 ], [ 130.28904679199999, 31.272890513 ], [ 130.28842680599999, 31.2729825 ], [ 130.288254, 31.272999528 ], [ 130.28753161099999, 31.273098139 ], [ 130.28757975, 31.273211361 ], [ 130.287748111000013, 31.273473389 ], [ 130.287894222, 31.27370075 ], [ 130.288373, 31.274287528 ], [ 130.288912694, 31.274877944 ], [ 130.289271667, 31.275278861 ], [ 130.289596111, 31.275641222 ], [ 130.29119277800001, 31.277406111 ], [ 130.29153391700001, 31.277109944 ], [ 130.292082056, 31.276540222 ], [ 130.292780556, 31.275743 ], [ 130.29257566699999, 31.275667417 ], [ 130.292506550000013, 31.275644323 ], [ 130.29226333299999, 31.275563056 ], [ 130.292099167, 31.275501111 ], [ 130.29204619399999, 31.275483944 ], [ 130.291666666999987, 31.275361056 ], [ 130.291571471999987, 31.275330222 ], [ 130.291265528, 31.275218222 ], [ 130.29114930599999, 31.275168278 ], [ 130.291044583, 31.275123278 ], [ 130.290805221999989, 31.275017389 ], [ 130.29077311099999, 31.275 ], [ 130.290625333, 31.27492 ], [ 130.290543194, 31.274850611 ], [ 130.290462472, 31.274750806 ], [ 130.290405806, 31.274647306 ], [ 130.290388422, 31.274550924 ], [ 130.29038494400001, 31.274531639 ], [ 130.290410417, 31.274238306 ], [ 130.2904685, 31.273809806 ], [ 130.290509582999988, 31.273543222 ], [ 130.290551972, 31.27338575 ], [ 130.290566250000012, 31.273332639 ] ] ] } },
{ "type": "Feature", "properties": { "A29_001": "46204", "A29_002": "鹿児島県", "A29_003": "枕崎市", "A29_004": 10, "A29_005": "準工業地域", "A29_006": 60, "A29_007": 200, "A29_008": null }, "geometry": { "type": "Polygon", "coordinates": [ [ [ 130.29182202199999, 31.278033488 ], [ 130.29119277800001, 31.277406111 ], [ 130.291368154999986, 31.277711028 ], [ 130.291469145, 31.277992888 ], [ 130.29151325, 31.27819093 ], [ 130.29148969, 31.27837573 ], [ 130.291292199999987, 31.27904598 ], [ 130.29106506, 31.27984159 ], [ 130.291020730000014, 31.280098 ], [ 130.29099599, 31.28043858 ], [ 130.29098467, 31.28073103 ], [ 130.29099842, 31.28107406 ], [ 130.29103429, 31.28133764 ], [ 130.291197540000013, 31.28193142 ], [ 130.29131044, 31.28227836 ], [ 130.291411055999987, 31.282514917 ], [ 130.292607167, 31.282430389 ], [ 130.293291167, 31.282382056 ], [ 130.293345738, 31.282375709 ], [ 130.29344237, 31.28203121 ], [ 130.293652329999986, 31.28117386 ], [ 130.29395252, 31.27994267 ], [ 130.294021859999987, 31.27956871 ], [ 130.294155350000011, 31.27916597 ], [ 130.294272576, 31.278884105 ], [ 130.293071687, 31.278673207 ], [ 130.29233625, 31.278486106 ], [ 130.29182202199999, 31.278033488 ] ] ] } }
]
}
