{
"type": "FeatureCollection",
"name": "A29-19_46490",
"features": [
{ "type": "Feature", "properties": { "A29_001": "46490", "A29_002": "鹿児島", "A29_003": "錦江町", "A29_004": 5, "A29_005": "第一種住居地域", "A29_006": 60, "A29_007": 200, "A29_008": null }, "geometry": { "type": "Polygon", "coordinates": [ [ [ 130.778104149, 31.237601288 ], [ 130.778141010000013, 31.237516866 ], [ 130.778034553, 31.237430765 ], [ 130.77784589699999, 31.237575067 ], [ 130.77742847, 31.237202037 ], [ 130.777663933000014, 31.236996243 ], [ 130.777379201, 31.23676185 ], [ 130.777378583, 31.236762333 ], [ 130.777180496999989, 31.23692794 ], [ 130.77689471299999, 31.236691337 ], [ 130.776977562000013, 31.236560063 ], [ 130.776825295, 31.236446353 ], [ 130.77672851, 31.236500599 ], [ 130.776592152, 31.23637435 ], [ 130.776572289, 31.236317038 ], [ 130.77655905099999, 31.23627692 ], [ 130.776246361, 31.236015761 ], [ 130.77615307799999, 31.235998415 ], [ 130.775933552, 31.235806151 ], [ 130.77587204, 31.235743038 ], [ 130.775852143, 31.235700045 ], [ 130.775834035, 31.235605504 ], [ 130.775752654, 31.235487942 ], [ 130.775627667, 31.235487724 ], [ 130.77520857499999, 31.235121844 ], [ 130.774904313, 31.234823466 ], [ 130.774689779, 31.234636937 ], [ 130.774584772999987, 31.234643912 ], [ 130.77439189, 31.234463148 ], [ 130.77422507899999, 31.234531589 ], [ 130.77371141, 31.233996568 ], [ 130.774088471999988, 31.233812509 ], [ 130.773704153000011, 31.23354549 ], [ 130.773448768, 31.233719738 ], [ 130.772941828, 31.233161814 ], [ 130.77259609699999, 31.232788896 ], [ 130.772399841, 31.23262817 ], [ 130.771950733000011, 31.232280841 ], [ 130.771732879000012, 31.232505702 ], [ 130.771745694, 31.232520611 ], [ 130.771852389, 31.232661361 ], [ 130.771955917000014, 31.232801167 ], [ 130.772038337, 31.232887341 ], [ 130.77204401, 31.232893273 ], [ 130.772121778000013, 31.232974583 ], [ 130.772180944000013, 31.233039972 ], [ 130.772285528, 31.233177056 ], [ 130.77232976, 31.233225083 ], [ 130.772330019, 31.233225364 ], [ 130.772635194, 31.233603806 ], [ 130.772792208999988, 31.233791999 ], [ 130.773033199, 31.234063303 ], [ 130.773200769999988, 31.234258105 ], [ 130.77336208700001, 31.234140596 ], [ 130.773594003999989, 31.234374413 ], [ 130.773787660000011, 31.234579523 ], [ 130.77405446099999, 31.234861371 ], [ 130.77427138199999, 31.23509516 ], [ 130.774502426999987, 31.235346873 ], [ 130.77478505, 31.235634475 ], [ 130.77506276599999, 31.235883405 ], [ 130.775339656, 31.236130185 ], [ 130.775609050000014, 31.236376235 ], [ 130.775879327000013, 31.236601523 ], [ 130.77610568899999, 31.23680824 ], [ 130.776168678, 31.236866222 ], [ 130.776417302999988, 31.237087175 ], [ 130.776664262999986, 31.237308125 ], [ 130.7769578, 31.237566386 ], [ 130.777242199, 31.237813175 ], [ 130.77747583499999, 31.238031952 ], [ 130.777703480000014, 31.238229806 ], [ 130.777763408999988, 31.238258549 ], [ 130.77805981, 31.238363593 ], [ 130.778652642999987, 31.238560792 ], [ 130.778709139, 31.238583249 ], [ 130.77870984899999, 31.238583531 ], [ 130.778959605000011, 31.238331625 ], [ 130.778422346000013, 31.238125454 ], [ 130.778380292, 31.238054738 ], [ 130.77802175299999, 31.237915698 ], [ 130.777995163000014, 31.237884149 ], [ 130.778004102000011, 31.237862208 ], [ 130.77809197799999, 31.237817491 ], [ 130.778180418, 31.237768958 ], [ 130.778245567, 31.2377032 ], [ 130.778104149, 31.237601288 ] ] ] } },
{ "type": "Feature", "properties": { "A29_001": "46490", "A29_002": "鹿児島", "A29_003": "錦江町", "A29_004": 6, "A29_005": "第二種住居地域", "A29_006": 60, "A29_007": 200, "A29_008": null }, "geometry": { "type": "Polygon", "coordinates": [ [ [ 130.781979193000012, 31.238872839 ], [ 130.781122837, 31.238279511 ], [ 130.780652492, 31.237961771 ], [ 130.780156936, 31.238489219 ], [ 130.779815312000011, 31.238241384 ], [ 130.77953904899999, 31.238554031 ], [ 130.779435887, 31.238483211 ], [ 130.779560642, 31.238345958 ], [ 130.779189062, 31.238080886 ], [ 130.778959605000011, 31.238331625 ], [ 130.77870984899999, 31.238583531 ], [ 130.778840788999986, 31.238635578 ], [ 130.778992433000013, 31.238691217 ], [ 130.779028598999986, 31.238704487 ], [ 130.779083899, 31.238724777 ], [ 130.77910657699999, 31.238734568 ], [ 130.779260377000014, 31.238800973 ], [ 130.779340262, 31.238848365 ], [ 130.77944479300001, 31.238956142 ], [ 130.779544759, 31.239059212 ], [ 130.779859206999987, 31.239375698 ], [ 130.77989441, 31.239411129 ], [ 130.77998370899999, 31.239501006 ], [ 130.780144315, 31.239659753 ], [ 130.780474226, 31.239985844 ], [ 130.780815104, 31.24032007 ], [ 130.780901852, 31.240405352 ], [ 130.781255751, 31.24075327 ], [ 130.78134878, 31.240845646 ], [ 130.781448984, 31.240945145 ], [ 130.781486879999989, 31.240982775 ], [ 130.78201446700001, 31.240767618 ], [ 130.78227721499999, 31.2406547 ], [ 130.78243428799999, 31.240595301 ], [ 130.78266499099999, 31.24052648 ], [ 130.78293595, 31.24046608 ], [ 130.78323051699999, 31.240406913 ], [ 130.78375153499999, 31.240309176 ], [ 130.783314624000013, 31.239864098 ], [ 130.782855488, 31.239496744 ], [ 130.782504988999989, 31.2392384 ], [ 130.781979193000012, 31.238872839 ] ] ] } },
{ "type": "Feature", "properties": { "A29_001": "46490", "A29_002": "鹿児島", "A29_003": "錦江町", "A29_004": 3, "A29_005": "第一種中高層住居専用地域", "A29_006": 60, "A29_007": 200, "A29_008": null }, "geometry": { "type": "Polygon", "coordinates": [ [ [ 130.77998370899999, 31.239501006 ], [ 130.779544759, 31.239059212 ], [ 130.779340262, 31.238848365 ], [ 130.779260377000014, 31.238800973 ], [ 130.779083899, 31.238724777 ], [ 130.778840788999986, 31.238635578 ], [ 130.778652642999987, 31.238560792 ], [ 130.77805981, 31.238363593 ], [ 130.777763408999988, 31.238258549 ], [ 130.777703480000014, 31.238229806 ], [ 130.77747583499999, 31.238031952 ], [ 130.777242199, 31.237813175 ], [ 130.7769578, 31.237566386 ], [ 130.776664262999986, 31.237308125 ], [ 130.776417302999988, 31.237087175 ], [ 130.776168678, 31.236866222 ], [ 130.77610568899999, 31.23680824 ], [ 130.775879327000013, 31.236601523 ], [ 130.775609050000014, 31.236376235 ], [ 130.775339656, 31.236130185 ], [ 130.77506276599999, 31.235883405 ], [ 130.77478505, 31.235634475 ], [ 130.774502426999987, 31.235346873 ], [ 130.77427138199999, 31.23509516 ], [ 130.77405446099999, 31.234861371 ], [ 130.773787660000011, 31.234579523 ], [ 130.773594003999989, 31.234374413 ], [ 130.77336208700001, 31.234140596 ], [ 130.773200769999988, 31.234258105 ], [ 130.772410551, 31.234849776 ], [ 130.772749323, 31.235249545 ], [ 130.772840167, 31.235207278 ], [ 130.772877713000014, 31.235193033 ], [ 130.772978763, 31.235340031 ], [ 130.772964661, 31.235429503 ], [ 130.77295608099999, 31.235533304 ], [ 130.772971154, 31.235618055 ], [ 130.773135868, 31.235847458 ], [ 130.773220439, 31.235907272 ], [ 130.77327040599999, 31.235919293 ], [ 130.773355142000014, 31.235909896 ], [ 130.773579369, 31.236225321 ], [ 130.773582061000013, 31.236261124 ], [ 130.773565278, 31.236273 ], [ 130.773547288, 31.236283735 ], [ 130.773481984999989, 31.236296747 ], [ 130.773348613, 31.236317991 ], [ 130.77362901699999, 31.236953317 ], [ 130.773714262, 31.237154004 ], [ 130.773731528000013, 31.237149806 ], [ 130.77379705300001, 31.23712682 ], [ 130.77379781799999, 31.237126552 ], [ 130.773926673, 31.237344048 ], [ 130.77393891599999, 31.237451466 ], [ 130.77415192699999, 31.237813408 ], [ 130.77397100499999, 31.237972991 ], [ 130.773787854, 31.238182555 ], [ 130.773639728, 31.238484649 ], [ 130.77368763699999, 31.238578686 ], [ 130.77375404599999, 31.238685006 ], [ 130.773899432, 31.238869029 ], [ 130.774008933, 31.238958718 ], [ 130.774290493, 31.239113147 ], [ 130.774344764, 31.239067898 ], [ 130.774439015000013, 31.23914682 ], [ 130.774974152999988, 31.239543931 ], [ 130.77503819899999, 31.239476026 ], [ 130.77544577899999, 31.239784608 ], [ 130.77599621600001, 31.240175775 ], [ 130.775863448, 31.240309811 ], [ 130.77597901199999, 31.240381051 ], [ 130.776045888999988, 31.240422278 ], [ 130.776165533000011, 31.240501838 ], [ 130.776308389, 31.240596833 ], [ 130.776584361, 31.240764944 ], [ 130.776693653, 31.240831516 ], [ 130.776803167, 31.240898222 ], [ 130.77711505, 31.241088201 ], [ 130.777295167, 31.241197917 ], [ 130.777377636000011, 31.241245049 ], [ 130.777806938, 31.241490402 ], [ 130.777908749, 31.241548587 ], [ 130.778050083000011, 31.241629361 ], [ 130.778116555999986, 31.241666667 ], [ 130.778281916999987, 31.241759472 ], [ 130.77854481899999, 31.241911343 ], [ 130.778709337, 31.24200638 ], [ 130.778733972, 31.242020611 ], [ 130.779031972000013, 31.242192778 ], [ 130.779210408000012, 31.242295849 ], [ 130.779347967, 31.242375308 ], [ 130.779526054, 31.242478177 ], [ 130.77989602, 31.242099848 ], [ 130.780278579, 31.241709579 ], [ 130.780510776999989, 31.241476568 ], [ 130.780696178, 31.241325864 ], [ 130.780819621, 31.241250846 ], [ 130.78097141, 31.241195259 ], [ 130.781486879999989, 31.240982775 ], [ 130.781255751, 31.24075327 ], [ 130.780815104, 31.24032007 ], [ 130.780474226, 31.239985844 ], [ 130.77998370899999, 31.239501006 ] ] ] } },
{ "type": "Feature", "properties": { "A29_001": "46490", "A29_002": "鹿児島", "A29_003": "錦江町", "A29_004": 4, "A29_005": "第二種中高層住居専用地域", "A29_006": 60, "A29_007": 200, "A29_008": null }, "geometry": { "type": "Polygon", "coordinates": [ [ [ 130.789729123, 31.242196181 ], [ 130.789673982000011, 31.242009937 ], [ 130.78963808099999, 31.241915608 ], [ 130.789613328, 31.241804592 ], [ 130.789601092999987, 31.241685242 ], [ 130.789611017999988, 31.241593375 ], [ 130.78965854, 31.241457417 ], [ 130.789710321, 31.241279701 ], [ 130.789768916000014, 31.241160468 ], [ 130.78980670499999, 31.241029267 ], [ 130.78981939499999, 31.240943371 ], [ 130.789825154, 31.240851497 ], [ 130.789811474, 31.240757204 ], [ 130.78977697, 31.240659298 ], [ 130.78972170599999, 31.240529138 ], [ 130.789676165, 31.240397802 ], [ 130.78966803599999, 31.240305905 ], [ 130.789664269000014, 31.240125711 ], [ 130.789686942, 31.239921695 ], [ 130.78971217899999, 31.23981434 ], [ 130.78973734600001, 31.23973801 ], [ 130.789828121, 31.239511433 ], [ 130.78992291099999, 31.23935288 ], [ 130.789953594, 31.239294459 ], [ 130.789958551000012, 31.239230121 ], [ 130.789763916999988, 31.239270139 ], [ 130.78937238899999, 31.239345083 ], [ 130.789348249999989, 31.239350222 ], [ 130.789233032999988, 31.239373202 ], [ 130.789368599, 31.240058403 ], [ 130.789139999000014, 31.240179362 ], [ 130.789121720999987, 31.240182542 ], [ 130.78856953799999, 31.240278615 ], [ 130.78856414099999, 31.240279554 ], [ 130.788630638, 31.240531645 ], [ 130.788745189, 31.240980512 ], [ 130.788897217, 31.241564998 ], [ 130.78868160499999, 31.241593283 ], [ 130.78853265, 31.241625495 ], [ 130.788205858999987, 31.241686054 ], [ 130.787865696000011, 31.241763773 ], [ 130.787536589000013, 31.241866331 ], [ 130.78700952, 31.242052567 ], [ 130.786920412, 31.241756324 ], [ 130.78682221599999, 31.241349645 ], [ 130.786308679, 31.241448075 ], [ 130.785652865, 31.241572995 ], [ 130.78530170499999, 31.241639559 ], [ 130.78564612, 31.241993996 ], [ 130.786063461, 31.242428573 ], [ 130.78630619399999, 31.242662361 ], [ 130.786635464999989, 31.243013759 ], [ 130.78712431299999, 31.243522913 ], [ 130.787510094999988, 31.243915905 ], [ 130.788028833999988, 31.24373204 ], [ 130.78864455199999, 31.243523178 ], [ 130.78901455499999, 31.243402881 ], [ 130.789501535999989, 31.24325762 ], [ 130.789865096999989, 31.24315225 ], [ 130.790397909, 31.243000213 ], [ 130.79039057, 31.242979465 ], [ 130.790344223, 31.242897649 ], [ 130.790271434, 31.242840849 ], [ 130.790162583000011, 31.242761914 ], [ 130.790081492000013, 31.24269078 ], [ 130.78999694399999, 31.242588222 ], [ 130.789977142999987, 31.242460304 ], [ 130.78975917599999, 31.242422956 ], [ 130.789757931999986, 31.242357323 ], [ 130.789751184000011, 31.242269008 ], [ 130.789729123, 31.242196181 ] ] ] } },
{ "type": "Feature", "properties": { "A29_001": "46490", "A29_002": "鹿児島", "A29_003": "錦江町", "A29_004": 8, "A29_005": "近隣商業地域", "A29_006": 80, "A29_007": 300, "A29_008": null }, "geometry": { "type": "Polygon", "coordinates": [ [ [ 130.789395751, 31.245528313 ], [ 130.789941448, 31.245215608 ], [ 130.78971732299999, 31.244820023 ], [ 130.78915773899999, 31.245132823 ], [ 130.788760585, 31.24535126 ], [ 130.788389970999987, 31.244878107 ], [ 130.78806748, 31.244500972 ], [ 130.78761520399999, 31.244029114 ], [ 130.787510094999988, 31.243915905 ], [ 130.786823045, 31.2441612 ], [ 130.786140219, 31.244431182 ], [ 130.78561753299999, 31.244637467 ], [ 130.785663714, 31.244691284 ], [ 130.78548055600001, 31.244774706 ], [ 130.785582557999987, 31.244872249 ], [ 130.785723451, 31.244968902 ], [ 130.78590659, 31.245055124 ], [ 130.785978709, 31.245101067 ], [ 130.786186033, 31.245302839 ], [ 130.78632463400001, 31.245430991 ], [ 130.786544552, 31.245640898 ], [ 130.786571568, 31.245663153 ], [ 130.78678969399999, 31.245482861 ], [ 130.78684427799999, 31.245431028 ], [ 130.786999417, 31.2453125 ], [ 130.78713450399999, 31.245205862 ], [ 130.78716613899999, 31.245180889 ], [ 130.787201111, 31.245152861 ], [ 130.787508876, 31.244955908 ], [ 130.787783667000014, 31.244780056 ], [ 130.787800586, 31.244767965 ], [ 130.788125465, 31.24516812 ], [ 130.788392722, 31.245526548 ], [ 130.788698821, 31.245990447 ], [ 130.78900001, 31.246456803 ], [ 130.789329982, 31.246972846 ], [ 130.789658562999989, 31.247502229 ], [ 130.78997791, 31.247341255 ], [ 130.789604743000012, 31.246735789 ], [ 130.78934564799999, 31.246325827 ], [ 130.789126431, 31.245971776 ], [ 130.788995247, 31.245753904 ], [ 130.789395751, 31.245528313 ] ] ] } },
{ "type": "Feature", "properties": { "A29_001": "46490", "A29_002": "鹿児島", "A29_003": "錦江町", "A29_004": 9, "A29_005": "商業地域", "A29_006": 80, "A29_007": 400, "A29_008": null }, "geometry": { "type": "Polygon", "coordinates": [ [ [ 130.788125465, 31.24516812 ], [ 130.787800586, 31.244767965 ], [ 130.787783667000014, 31.244780056 ], [ 130.787508876, 31.244955908 ], [ 130.787201111, 31.245152861 ], [ 130.78716613899999, 31.245180889 ], [ 130.78713450399999, 31.245205862 ], [ 130.786999417, 31.2453125 ], [ 130.78684427799999, 31.245431028 ], [ 130.78678969399999, 31.245482861 ], [ 130.786571568, 31.245663153 ], [ 130.786717635, 31.245810026 ], [ 130.787012809, 31.246105259 ], [ 130.78722618899999, 31.246333531 ], [ 130.787508812, 31.246652608 ], [ 130.787716596, 31.246899962 ], [ 130.78797707199999, 31.247186782 ], [ 130.788179324, 31.247424581 ], [ 130.78835117, 31.247595505 ], [ 130.78861462399999, 31.247794025 ], [ 130.788789334, 31.247926767 ], [ 130.788962661, 31.248057121 ], [ 130.789093216, 31.248059721 ], [ 130.789044819999987, 31.247961792 ], [ 130.789099058, 31.247930855 ], [ 130.789284032000012, 31.247820183 ], [ 130.789487154, 31.247667774 ], [ 130.789658562999989, 31.247502229 ], [ 130.789329982, 31.246972846 ], [ 130.78900001, 31.246456803 ], [ 130.788698821, 31.245990447 ], [ 130.788392722, 31.245526548 ], [ 130.788125465, 31.24516812 ] ] ] } },
{ "type": "Feature", "properties": { "A29_001": "46490", "A29_002": "鹿児島", "A29_003": "錦江町", "A29_004": 5, "A29_005": "第一種住居地域", "A29_006": 60, "A29_007": 200, "A29_008": null }, "geometry": { "type": "Polygon", "coordinates": [ [ [ 130.78564612, 31.241993996 ], [ 130.78530170499999, 31.241639559 ], [ 130.785083751, 31.241680873 ], [ 130.784762255, 31.241365306 ], [ 130.784383177, 31.240965634 ], [ 130.784077262000011, 31.240640545 ], [ 130.783755799, 31.240313519 ], [ 130.78375153499999, 31.240309176 ], [ 130.78323051699999, 31.240406913 ], [ 130.78293595, 31.24046608 ], [ 130.78266499099999, 31.24052648 ], [ 130.78243428799999, 31.240595301 ], [ 130.78227721499999, 31.2406547 ], [ 130.78201446700001, 31.240767618 ], [ 130.781486879999989, 31.240982775 ], [ 130.78097141, 31.241195259 ], [ 130.780819621, 31.241250846 ], [ 130.780696178, 31.241325864 ], [ 130.780510776999989, 31.241476568 ], [ 130.780278579, 31.241709579 ], [ 130.77989602, 31.242099848 ], [ 130.779526054, 31.242478177 ], [ 130.77956186099999, 31.242498861 ], [ 130.779903104999988, 31.242699191 ], [ 130.77990473700001, 31.242700149 ], [ 130.78031732299999, 31.242965989 ], [ 130.780856847, 31.243287906 ], [ 130.78138528, 31.243602641 ], [ 130.781733438, 31.243797739 ], [ 130.782296798, 31.244109594 ], [ 130.782748752, 31.244384172 ], [ 130.78331192499999, 31.244696572 ], [ 130.78380154199999, 31.244986173 ], [ 130.784300417, 31.245302194 ], [ 130.784332971999987, 31.245331833 ], [ 130.784446444, 31.245413306 ], [ 130.784477083000013, 31.245437583 ], [ 130.784759759999986, 31.245650058 ], [ 130.78506952, 31.245891832 ], [ 130.78554036, 31.246248009 ], [ 130.785827352000013, 31.246475213 ], [ 130.78617404900001, 31.246710868 ], [ 130.78642918700001, 31.246898639 ], [ 130.78666786, 31.247092485 ], [ 130.786940721, 31.247333846 ], [ 130.787163901000014, 31.247528723 ], [ 130.787571582999988, 31.247901667 ], [ 130.787783966, 31.248082242 ], [ 130.787882418, 31.248165949 ], [ 130.788060306, 31.248317194 ], [ 130.788182971999987, 31.248423306 ], [ 130.788229816000012, 31.248501823 ], [ 130.788285601000013, 31.248579914 ], [ 130.788546115, 31.248542889 ], [ 130.788813975000011, 31.248510872 ], [ 130.78894181199999, 31.248486261 ], [ 130.789084198000012, 31.248414897 ], [ 130.789201029999987, 31.248342537 ], [ 130.789093216, 31.248059721 ], [ 130.788962661, 31.248057121 ], [ 130.788789334, 31.247926767 ], [ 130.78861462399999, 31.247794025 ], [ 130.78835117, 31.247595505 ], [ 130.788179324, 31.247424581 ], [ 130.78797707199999, 31.247186782 ], [ 130.787716596, 31.246899962 ], [ 130.787508812, 31.246652608 ], [ 130.78722618899999, 31.246333531 ], [ 130.787012809, 31.246105259 ], [ 130.786717635, 31.245810026 ], [ 130.786571568, 31.245663153 ], [ 130.786544552, 31.245640898 ], [ 130.78632463400001, 31.245430991 ], [ 130.786186033, 31.245302839 ], [ 130.785978709, 31.245101067 ], [ 130.78590659, 31.245055124 ], [ 130.785723451, 31.244968902 ], [ 130.785582557999987, 31.244872249 ], [ 130.78548055600001, 31.244774706 ], [ 130.785663714, 31.244691284 ], [ 130.78561753299999, 31.244637467 ], [ 130.786140219, 31.244431182 ], [ 130.786823045, 31.2441612 ], [ 130.787510094999988, 31.243915905 ], [ 130.78712431299999, 31.243522913 ], [ 130.786635464999989, 31.243013759 ], [ 130.78630619399999, 31.242662361 ], [ 130.786063461, 31.242428573 ], [ 130.78564612, 31.241993996 ] ] ] } },
{ "type": "Feature", "properties": { "A29_001": "46490", "A29_002": "鹿児島", "A29_003": "錦江町", "A29_004": 6, "A29_005": "第二種住居地域", "A29_006": 60, "A29_007": 200, "A29_008": null }, "geometry": { "type": "Polygon", "coordinates": [ [ [ 130.791905230999987, 31.245147752 ], [ 130.791909842, 31.2449449 ], [ 130.791397286, 31.244970321 ], [ 130.791354595, 31.244804384 ], [ 130.79133826899999, 31.24464923 ], [ 130.79133323100001, 31.244414143 ], [ 130.79131538199999, 31.244319844 ], [ 130.79121453, 31.244076249 ], [ 130.79116612199999, 31.243984286 ], [ 130.791103677, 31.243959126 ], [ 130.790995414, 31.243927924 ], [ 130.79093026000001, 31.243871733 ], [ 130.79087549499999, 31.243828686 ], [ 130.79071368699999, 31.243830213 ], [ 130.790612858, 31.24357707 ], [ 130.790519667000012, 31.243324537 ], [ 130.790429217, 31.243088714 ], [ 130.790397909, 31.243000213 ], [ 130.789865096999989, 31.24315225 ], [ 130.789501535999989, 31.24325762 ], [ 130.78901455499999, 31.243402881 ], [ 130.78864455199999, 31.243523178 ], [ 130.788028833999988, 31.24373204 ], [ 130.787510094999988, 31.243915905 ], [ 130.78761520399999, 31.244029114 ], [ 130.78806748, 31.244500972 ], [ 130.788389970999987, 31.244878107 ], [ 130.788760585, 31.24535126 ], [ 130.78915773899999, 31.245132823 ], [ 130.78971732299999, 31.244820023 ], [ 130.789941448, 31.245215608 ], [ 130.789395751, 31.245528313 ], [ 130.788995247, 31.245753904 ], [ 130.789126431, 31.245971776 ], [ 130.78934564799999, 31.246325827 ], [ 130.789604743000012, 31.246735789 ], [ 130.78997791, 31.247341255 ], [ 130.789801942, 31.247429957 ], [ 130.78990736, 31.247589487 ], [ 130.790310427, 31.248218294 ], [ 130.790560610999989, 31.248642559 ], [ 130.79085515, 31.249108899 ], [ 130.790979104, 31.249334395 ], [ 130.79101443, 31.249439462 ], [ 130.791042946, 31.249609433 ], [ 130.79104251699999, 31.249804177 ], [ 130.79100549399999, 31.250072043 ], [ 130.79109445200001, 31.250042594 ], [ 130.791236821000012, 31.24997982 ], [ 130.7913737, 31.249886488 ], [ 130.791470527, 31.249816002 ], [ 130.791542940999989, 31.249730203 ], [ 130.791608712, 31.249633891 ], [ 130.791662255, 31.249539469 ], [ 130.791690214, 31.249457416 ], [ 130.79170086100001, 31.249363639 ], [ 130.791709222, 31.249267528 ], [ 130.791711604, 31.249244307 ], [ 130.791727, 31.249094194 ], [ 130.79177088899999, 31.248990917 ], [ 130.791785357, 31.248974526 ], [ 130.791816861, 31.248938833 ], [ 130.79183219399999, 31.248927984 ], [ 130.791852389000013, 31.248913694 ], [ 130.791948528, 31.2488715 ], [ 130.792088917, 31.248819306 ], [ 130.79205394600001, 31.248704799 ], [ 130.79205247199999, 31.248699972 ], [ 130.792038889, 31.248652361 ], [ 130.79204622200001, 31.2486335 ], [ 130.792124371, 31.248603881 ], [ 130.792175327, 31.248584568 ], [ 130.79210506199999, 31.248395024 ], [ 130.792099825, 31.248249434 ], [ 130.792062622, 31.248113338 ], [ 130.792057252, 31.248028606 ], [ 130.79206199399999, 31.247766089 ], [ 130.792049666999986, 31.247489444 ], [ 130.791981299000014, 31.247396279 ], [ 130.791971167000014, 31.247382472 ], [ 130.79188761099999, 31.247300389 ], [ 130.79196844399999, 31.247225361 ], [ 130.792009194, 31.247181361 ], [ 130.792079194, 31.247079889 ], [ 130.792086705, 31.24707044 ], [ 130.79215130599999, 31.246989167 ], [ 130.792272313000012, 31.246861914 ], [ 130.79235162, 31.246798797 ], [ 130.792396196, 31.246739205 ], [ 130.792432529, 31.246637833 ], [ 130.792452102, 31.246579394 ], [ 130.792479961, 31.246542447 ], [ 130.792513344000014, 31.246519828 ], [ 130.792664983, 31.24640671 ], [ 130.792679146000012, 31.246281437 ], [ 130.793021540000012, 31.246081908 ], [ 130.792938131, 31.245984724 ], [ 130.792734450000012, 31.245761251 ], [ 130.792626133999988, 31.245752723 ], [ 130.79246504, 31.24574411 ], [ 130.79236183099999, 31.24571678 ], [ 130.792252703, 31.245668589 ], [ 130.792157081, 31.245571778 ], [ 130.792078139000012, 31.245470889 ], [ 130.79202693, 31.245386607 ], [ 130.791938316, 31.245261168 ], [ 130.791905230999987, 31.245147752 ] ] ] } },
{ "type": "Feature", "properties": { "A29_001": "46490", "A29_002": "鹿児島", "A29_003": "錦江町", "A29_004": 10, "A29_005": "準工業地域", "A29_006": 60, "A29_007": 200, "A29_008": null }, "geometry": { "type": "Polygon", "coordinates": [ [ [ 130.78990736, 31.247589487 ], [ 130.789801942, 31.247429957 ], [ 130.789658562999989, 31.247502229 ], [ 130.789487154, 31.247667774 ], [ 130.789284032000012, 31.247820183 ], [ 130.789099058, 31.247930855 ], [ 130.789044819999987, 31.247961792 ], [ 130.789093216, 31.248059721 ], [ 130.789201029999987, 31.248342537 ], [ 130.789084198000012, 31.248414897 ], [ 130.78894181199999, 31.248486261 ], [ 130.788813975000011, 31.248510872 ], [ 130.788546115, 31.248542889 ], [ 130.788285601000013, 31.248579914 ], [ 130.78830486199999, 31.248606876 ], [ 130.788536107999988, 31.248924673 ], [ 130.78881302799999, 31.249315334 ], [ 130.789067826, 31.249661807 ], [ 130.789281061999986, 31.24996048 ], [ 130.789454150000012, 31.250200615 ], [ 130.78966452099999, 31.250539854 ], [ 130.789844286, 31.250901715 ], [ 130.789804801, 31.251000995 ], [ 130.78986225, 31.251130556 ], [ 130.789933944000012, 31.251300222 ], [ 130.789947232, 31.251332227 ], [ 130.789976653, 31.251467631 ], [ 130.79002047099999, 31.251752184 ], [ 130.790084683, 31.251859207 ], [ 130.790077682, 31.252010028 ], [ 130.790065786000014, 31.252238882 ], [ 130.789769756, 31.252317155 ], [ 130.789972615000011, 31.252915326 ], [ 130.790262224, 31.253857305 ], [ 130.789999239999986, 31.254064509 ], [ 130.789429152, 31.254517345 ], [ 130.789826877, 31.254935647 ], [ 130.789910402, 31.254853447 ], [ 130.790030120000011, 31.254735507 ], [ 130.790168068000014, 31.254587402 ], [ 130.790312784, 31.254423326 ], [ 130.79040471799999, 31.254306533 ], [ 130.790528663, 31.254160915 ], [ 130.79065343900001, 31.254016014 ], [ 130.790820567999987, 31.253813904 ], [ 130.791065631, 31.253543187 ], [ 130.791163788, 31.253375331 ], [ 130.791237451, 31.253228437 ], [ 130.791288865000013, 31.253092963 ], [ 130.791297968, 31.252995605 ], [ 130.791256041, 31.252859979 ], [ 130.79120975699999, 31.252684252 ], [ 130.79117671099999, 31.252552459 ], [ 130.791086236000012, 31.252260194 ], [ 130.790993539, 31.251967926 ], [ 130.790927368000013, 31.251740615 ], [ 130.790883404999988, 31.251520978 ], [ 130.790870496, 31.251328121 ], [ 130.790881915, 31.251188763 ], [ 130.790888884999987, 31.251051307 ], [ 130.790916159, 31.250776417 ], [ 130.79095922499999, 31.250394634 ], [ 130.79100549399999, 31.250072043 ], [ 130.79104251699999, 31.249804177 ], [ 130.791042946, 31.249609433 ], [ 130.79101443, 31.249439462 ], [ 130.790979104, 31.249334395 ], [ 130.79085515, 31.249108899 ], [ 130.790560610999989, 31.248642559 ], [ 130.790310427, 31.248218294 ], [ 130.78990736, 31.247589487 ] ] ] } }
]
}
