{
"type": "FeatureCollection",
"name": "A29-19_10429",
"features": [
{ "type": "Feature", "properties": { "A29_001": "10429", "A29_002": "群馬県", "A29_003": "東吾妻町", "A29_004": 5, "A29_005": "第一種住居地域", "A29_006": 60, "A29_007": 200, "A29_008": "条件付き公開" }, "geometry": { "type": "Polygon", "coordinates": [ [ [ 138.82193995099999, 36.566306384 ], [ 138.821952423, 36.566281178 ], [ 138.821961761000011, 36.566246153 ], [ 138.82196659600001, 36.566178366 ], [ 138.821958693999989, 36.566119056 ], [ 138.821937056, 36.56598975 ], [ 138.82193138299999, 36.565907848 ], [ 138.821914238, 36.565801354 ], [ 138.821842929000013, 36.565694704 ], [ 138.82183567300001, 36.565655643 ], [ 138.822293255, 36.56547354 ], [ 138.824218642, 36.564934283 ], [ 138.824338641, 36.565025907 ], [ 138.82451765799999, 36.565125183 ], [ 138.824658935, 36.565171682 ], [ 138.825513661, 36.565362512 ], [ 138.82679035699999, 36.565609356 ], [ 138.826993858, 36.565644456 ], [ 138.827105923, 36.565664477 ], [ 138.827570955999988, 36.56581862 ], [ 138.827729167, 36.565927254 ], [ 138.82787016899999, 36.565995207 ], [ 138.828064837, 36.566027846 ], [ 138.828330593, 36.566049163 ], [ 138.828752933, 36.566076566 ], [ 138.82891241199999, 36.566087448 ], [ 138.82949103499999, 36.565915874 ], [ 138.829995738, 36.565733672 ], [ 138.83014650199999, 36.56569131 ], [ 138.830083922999989, 36.565687367 ], [ 138.830062725, 36.565687469 ], [ 138.830054526, 36.565685514 ], [ 138.829950746, 36.565660774 ], [ 138.829749806, 36.56556466 ], [ 138.82957995000001, 36.565442101 ], [ 138.829408730000011, 36.565242275 ], [ 138.829185091, 36.564835516 ], [ 138.829044692999986, 36.564583969 ], [ 138.82900448, 36.56453928 ], [ 138.828848748000013, 36.564376304 ], [ 138.828792576000012, 36.56433148 ], [ 138.828690687, 36.564256228 ], [ 138.828601193, 36.56418251 ], [ 138.828561092, 36.564129238 ], [ 138.828545818, 36.564076175 ], [ 138.828543161, 36.564007481 ], [ 138.828552917, 36.563938892 ], [ 138.82862372400001, 36.56381216 ], [ 138.828569066999989, 36.563787378 ], [ 138.828530405, 36.563824993 ], [ 138.828497559999988, 36.563831126 ], [ 138.828414086, 36.563840437 ], [ 138.828282879999989, 36.5638379 ], [ 138.82820668299999, 36.563832966 ], [ 138.827952199, 36.563763579 ], [ 138.827884906, 36.563755858 ], [ 138.82781753899999, 36.56375386 ], [ 138.82773651, 36.563747747 ], [ 138.82769971, 36.563699354 ], [ 138.827560223, 36.563570691 ], [ 138.82743743899999, 36.563456072 ], [ 138.827411896, 36.563432228 ], [ 138.827391256999988, 36.56340857 ], [ 138.82732517, 36.563332815 ], [ 138.827196988, 36.563162988 ], [ 138.827152802, 36.563115706 ], [ 138.827110411, 36.563056864 ], [ 138.827080343, 36.563025639 ], [ 138.827027772, 36.562971046 ], [ 138.826846421999988, 36.562838809 ], [ 138.82676229899999, 36.562781322 ], [ 138.826758731000012, 36.562778884 ], [ 138.826531907, 36.562626149 ], [ 138.826497631, 36.562603069 ], [ 138.82617352599999, 36.562384827 ], [ 138.825977768, 36.562271603 ], [ 138.825705867000011, 36.562114866 ], [ 138.825683012000013, 36.562171826 ], [ 138.825609219, 36.562315614 ], [ 138.825603288, 36.562327171 ], [ 138.825580161, 36.562372776 ], [ 138.825559004000013, 36.562293707 ], [ 138.825534557, 36.562262861 ], [ 138.825498839, 36.562235226 ], [ 138.825472381, 36.562220483 ], [ 138.825459884999987, 36.56221352 ], [ 138.82537211499999, 36.562164615 ], [ 138.825308188, 36.562128995 ], [ 138.825227711999986, 36.562086588 ], [ 138.825193877, 36.562087522 ], [ 138.8251276, 36.5621269 ], [ 138.82506466000001, 36.562193728 ], [ 138.82503854, 36.562270405 ], [ 138.825017271, 36.562314933 ], [ 138.824971441, 36.562372964 ], [ 138.824910257999989, 36.562418346 ], [ 138.824836545000011, 36.562461239 ], [ 138.82473113, 36.562498498 ], [ 138.824552313, 36.562554807 ], [ 138.824487223, 36.562559621 ], [ 138.824447348, 36.562557495 ], [ 138.82394920199999, 36.562451345 ], [ 138.823830555, 36.562426496 ], [ 138.823764081, 36.562424144 ], [ 138.823593326, 36.562428659 ], [ 138.823548101, 36.562440198 ], [ 138.82352578699999, 36.562451335 ], [ 138.823308454, 36.562741586 ], [ 138.823218778000012, 36.56270506 ], [ 138.82291178, 36.562594683 ], [ 138.822624184, 36.562485043 ], [ 138.822592299, 36.562489563 ], [ 138.822556795, 36.562492243 ], [ 138.82251183299999, 36.562483516 ], [ 138.822140182999988, 36.562310474 ], [ 138.821914012, 36.562144627 ], [ 138.821909057, 36.562127894 ], [ 138.821919842, 36.561924117 ], [ 138.821570169000012, 36.561992683 ], [ 138.82150792600001, 36.562005865 ], [ 138.82141803499999, 36.562042656 ], [ 138.821304889, 36.562049445 ], [ 138.821276246999986, 36.562071674 ], [ 138.821291976999987, 36.562135294 ], [ 138.82134544199999, 36.562351525 ], [ 138.821348366, 36.562409283 ], [ 138.821341714, 36.562448296 ], [ 138.821332584, 36.562475709 ], [ 138.82125469499999, 36.562589002 ], [ 138.821239364, 36.562630982 ], [ 138.82123896499999, 36.562632301 ], [ 138.821218324, 36.562700624 ], [ 138.821087691, 36.562872138 ], [ 138.82101044, 36.562858299 ], [ 138.82089410099999, 36.562843169 ], [ 138.82081083599999, 36.562838289 ], [ 138.820759551, 36.562829053 ], [ 138.82066215, 36.562797435 ], [ 138.82064419400001, 36.562791607 ], [ 138.820573827, 36.562766378 ], [ 138.820502583, 36.562741903 ], [ 138.820452867, 36.562724824 ], [ 138.820231349000011, 36.562645354 ], [ 138.820103778, 36.562599593 ], [ 138.819999593, 36.562561095 ], [ 138.81995217, 36.562543572 ], [ 138.819925434, 36.562533692 ], [ 138.81988970399999, 36.562502865 ], [ 138.81984709, 36.562468476 ], [ 138.81981524599999, 36.562528509 ], [ 138.81980775299999, 36.562542344 ], [ 138.819646893, 36.56283933 ], [ 138.819531807, 36.562827914 ], [ 138.819465207, 36.562829449 ], [ 138.819435344999988, 36.562851349 ], [ 138.81940429299999, 36.562906457 ], [ 138.819385479, 36.562942871 ], [ 138.819253919, 36.563197508 ], [ 138.819102135, 36.563456037 ], [ 138.81900828900001, 36.563596136 ], [ 138.818995011, 36.563617006 ], [ 138.818984179000012, 36.563812436 ], [ 138.819002608, 36.56384979 ], [ 138.81926405499999, 36.564109532 ], [ 138.81945452299999, 36.564281877 ], [ 138.819610224, 36.564400514 ], [ 138.819672021, 36.56446685 ], [ 138.819815936, 36.564673134 ], [ 138.820066325, 36.564965208 ], [ 138.820268271, 36.565164355 ], [ 138.820386367, 36.565265504 ], [ 138.820680353, 36.565569393 ], [ 138.82083400499999, 36.565754775 ], [ 138.82087942699999, 36.565807618 ], [ 138.82089350199999, 36.565816322 ], [ 138.82092300799999, 36.565820387 ], [ 138.820951269, 36.565829211 ], [ 138.82099126599999, 36.565844811 ], [ 138.821011115, 36.565864055 ], [ 138.821023782999987, 36.565889914 ], [ 138.82102204099999, 36.565932819 ], [ 138.821014437, 36.565971859 ], [ 138.820968031, 36.566084964 ], [ 138.820962879, 36.566117348 ], [ 138.821088644000014, 36.566355904 ], [ 138.82112128599999, 36.566391471 ], [ 138.821156355, 36.566422289 ], [ 138.821186895000011, 36.566437809 ], [ 138.821224602, 36.566447667 ], [ 138.821269502, 36.566449956 ], [ 138.821339427999987, 36.566437196 ], [ 138.82138216300001, 36.566424206 ], [ 138.821391783, 36.566411889 ], [ 138.821392119, 36.56638614 ], [ 138.821466660999988, 36.566291396 ], [ 138.821490406, 36.566283967 ], [ 138.821526917999989, 36.566294769 ], [ 138.821542075999986, 36.566311111 ], [ 138.821541790999987, 36.566514262 ], [ 138.821560234, 36.566550662 ], [ 138.82156574699999, 36.566581229 ], [ 138.821555854, 36.566614527 ], [ 138.821509311, 36.566647514 ], [ 138.821484148, 36.566673052 ], [ 138.821484957, 36.566701672 ], [ 138.821490532000013, 36.566727471 ], [ 138.821526995, 36.566742087 ], [ 138.821590687, 36.566754073 ], [ 138.821661411, 36.566770887 ], [ 138.821685839999986, 36.566801615 ], [ 138.82169378, 36.566827434 ], [ 138.82167576, 36.566849218 ], [ 138.82165287399999, 36.566881452 ], [ 138.821667932999986, 36.566905424 ], [ 138.821777634, 36.567016038 ], [ 138.82192508, 36.567133649 ], [ 138.821995367999989, 36.567183841 ], [ 138.82203820399999, 36.567203447 ], [ 138.82199883199999, 36.567142965 ], [ 138.821936203, 36.567044913 ], [ 138.821868168, 36.566925739 ], [ 138.821807713, 36.566809857 ], [ 138.821735616000012, 36.566666667 ], [ 138.821705392000013, 36.56660664 ], [ 138.82169767900001, 36.566536675 ], [ 138.821777179, 36.566506171 ], [ 138.821857889, 36.566429667 ], [ 138.821876833, 36.566402333 ], [ 138.821890243000013, 36.566383355 ], [ 138.821921051, 36.566339758 ], [ 138.821927011000014, 36.566329233 ], [ 138.82193995099999, 36.566306384 ] ] ] } },
{ "type": "Feature", "properties": { "A29_001": "10429", "A29_002": "群馬県", "A29_003": "東吾妻町", "A29_004": 5, "A29_005": "第一種住居地域", "A29_006": 60, "A29_007": 200, "A29_008": "条件付き公開" }, "geometry": { "type": "Polygon", "coordinates": [ [ [ 138.819042537, 36.566867291 ], [ 138.81918575, 36.566487605 ], [ 138.819812428, 36.567028953 ], [ 138.820785577, 36.567840296 ], [ 138.821227668, 36.568212205 ], [ 138.821722107, 36.568559758 ], [ 138.822254756, 36.568879021 ], [ 138.82334605299999, 36.569519666 ], [ 138.82370985599999, 36.56973067 ], [ 138.82396282799999, 36.569372287 ], [ 138.824209505999988, 36.569134026 ], [ 138.824275032, 36.569023387 ], [ 138.82332900599999, 36.568667727 ], [ 138.822988038, 36.56842878 ], [ 138.822644293, 36.568267064 ], [ 138.822580563, 36.56825794 ], [ 138.822307552000012, 36.568248471 ], [ 138.822220842, 36.568233429 ], [ 138.82201408099999, 36.56817588 ], [ 138.821873291, 36.568091708 ], [ 138.82163866, 36.567859381 ], [ 138.821499663, 36.567773793 ], [ 138.821257772, 36.567554281 ], [ 138.82111263499999, 36.567395676 ], [ 138.82107373299999, 36.567386762 ], [ 138.821043529, 36.567390798 ], [ 138.820800518999988, 36.567528938 ], [ 138.820759788, 36.5675243 ], [ 138.820679258000013, 36.567443499 ], [ 138.820690234000011, 36.567417841 ], [ 138.820815734, 36.567314469 ], [ 138.820931825, 36.567252506 ], [ 138.82095342299999, 36.567228369 ], [ 138.820948550999987, 36.567193992 ], [ 138.820915211, 36.567166526 ], [ 138.820553576, 36.566881616 ], [ 138.820481895, 36.566802321 ], [ 138.820468193000011, 36.566765007 ], [ 138.82046194099999, 36.566700575 ], [ 138.820448389, 36.566651817 ], [ 138.820279922, 36.566378562 ], [ 138.82026648199999, 36.566321221 ], [ 138.820071753, 36.566021991 ], [ 138.81949108399999, 36.565398535 ], [ 138.81923971099999, 36.565181799 ], [ 138.819037493, 36.565048935 ], [ 138.819002712000014, 36.564996182 ], [ 138.818841442, 36.564670528 ], [ 138.818786254, 36.564596141 ], [ 138.81861991, 36.564432585 ], [ 138.818373400000013, 36.564070439 ], [ 138.818338433, 36.56403199 ], [ 138.818264827, 36.564009904 ], [ 138.818104887, 36.563808846 ], [ 138.817947862000011, 36.563667424 ], [ 138.817710616, 36.563444844 ], [ 138.81760893, 36.563309854 ], [ 138.817584669000013, 36.563187446 ], [ 138.817534236, 36.563088658 ], [ 138.81744297099999, 36.563004426 ], [ 138.81736963, 36.562962074 ], [ 138.81730309299999, 36.562964487 ], [ 138.817203385999989, 36.562960657 ], [ 138.817008640000012, 36.562878522 ], [ 138.81683555399999, 36.562835319 ], [ 138.816586059, 36.562702048 ], [ 138.816408700000011, 36.562541283 ], [ 138.81584628499999, 36.562961933 ], [ 138.815368134000011, 36.562796903 ], [ 138.815343535000011, 36.562858211 ], [ 138.81525520299999, 36.562922313 ], [ 138.815715028999989, 36.563380232 ], [ 138.815969145, 36.563657087 ], [ 138.816904411, 36.564826755 ], [ 138.817634629, 36.565765765 ], [ 138.81793485, 36.566134569 ], [ 138.81838627, 36.566695414 ], [ 138.81890959899999, 36.567363692 ], [ 138.81934713699999, 36.567891805 ], [ 138.81973700399999, 36.568312394 ], [ 138.820254940000012, 36.568829447 ], [ 138.820934902, 36.569389602 ], [ 138.822007484000011, 36.570161721 ], [ 138.823373607, 36.571094286 ], [ 138.823986155999989, 36.571524681 ], [ 138.82398926499999, 36.571520398 ], [ 138.824536497, 36.571084389 ], [ 138.82399690299999, 36.570751725 ], [ 138.823513394, 36.570471038 ], [ 138.822408044000014, 36.569818829 ], [ 138.821664069, 36.569383322 ], [ 138.82131433699999, 36.569181969 ], [ 138.82103312800001, 36.568985013 ], [ 138.820253404, 36.568390868 ], [ 138.819572652, 36.567824265 ], [ 138.818920010999989, 36.56727888 ], [ 138.819042537, 36.566867291 ] ] ] } },
{ "type": "Feature", "properties": { "A29_001": "10429", "A29_002": "群馬県", "A29_003": "東吾妻町", "A29_004": 11, "A29_005": "工業地域", "A29_006": 60, "A29_007": 200, "A29_008": "条件付き公開" }, "geometry": { "type": "Polygon", "coordinates": [ [ [ 138.83576587499999, 36.572111046 ], [ 138.836035958, 36.571797608 ], [ 138.836250783, 36.571551425 ], [ 138.836482727, 36.571353073 ], [ 138.836531546, 36.571326776 ], [ 138.836727523, 36.57125879 ], [ 138.837066596999989, 36.571189137 ], [ 138.83752742499999, 36.571122409 ], [ 138.837659968, 36.571101752 ], [ 138.837561972, 36.570924636 ], [ 138.837514055000014, 36.570861686 ], [ 138.837414360999986, 36.570684444 ], [ 138.837324376, 36.570518888 ], [ 138.837256954, 36.570398136 ], [ 138.837009892, 36.569962266 ], [ 138.83698027599999, 36.569926575 ], [ 138.836911476000012, 36.569843661 ], [ 138.83676731599999, 36.5697209 ], [ 138.836571424999988, 36.569582412 ], [ 138.83642192799999, 36.569476082 ], [ 138.836211278, 36.569322083 ], [ 138.836064212, 36.569220215 ], [ 138.835682682999987, 36.568947701 ], [ 138.835613889, 36.568901944 ], [ 138.835565924, 36.568862004 ], [ 138.83475971199999, 36.568284683 ], [ 138.834707223, 36.568241814 ], [ 138.834684941, 36.568212598 ], [ 138.83467789, 36.56818631 ], [ 138.834684116, 36.568161922 ], [ 138.83469843899999, 36.568139986 ], [ 138.834722269, 36.568125879 ], [ 138.834756459, 36.568110667 ], [ 138.834806143, 36.568097372 ], [ 138.834175499999986, 36.567843512 ], [ 138.83221052, 36.566915223 ], [ 138.832175396999986, 36.566888222 ], [ 138.832101403, 36.566841797 ], [ 138.832053231, 36.566826155 ], [ 138.831991926, 36.566812287 ], [ 138.831721585, 36.566687934 ], [ 138.83166778899999, 36.566648059 ], [ 138.831619847000013, 36.566606644 ], [ 138.831518186000011, 36.566513274 ], [ 138.831482263, 36.5664567 ], [ 138.831462867, 36.566402172 ], [ 138.831322230000012, 36.566214051 ], [ 138.831220656999989, 36.566114005 ], [ 138.830900285000013, 36.565835672 ], [ 138.83074696599999, 36.565714208 ], [ 138.830683507, 36.565684107 ], [ 138.83060588699999, 36.56565198 ], [ 138.83047377299999, 36.565627978 ], [ 138.83036497099999, 36.565629924 ], [ 138.829995738, 36.565733672 ], [ 138.82949103499999, 36.565915874 ], [ 138.82891241199999, 36.566087448 ], [ 138.828752933, 36.566076566 ], [ 138.828330593, 36.566049163 ], [ 138.828064837, 36.566027846 ], [ 138.82787016899999, 36.565995207 ], [ 138.827729167, 36.565927254 ], [ 138.827570955999988, 36.56581862 ], [ 138.827105923, 36.565664477 ], [ 138.826993858, 36.565644456 ], [ 138.82679035699999, 36.565609356 ], [ 138.825513661, 36.565362512 ], [ 138.824658935, 36.565171682 ], [ 138.82451765799999, 36.565125183 ], [ 138.824338641, 36.565025907 ], [ 138.824218642, 36.564934283 ], [ 138.822293255, 36.56547354 ], [ 138.82183567300001, 36.565655643 ], [ 138.821842929000013, 36.565694704 ], [ 138.821914238, 36.565801354 ], [ 138.82193138299999, 36.565907848 ], [ 138.821937056, 36.56598975 ], [ 138.821958693999989, 36.566119056 ], [ 138.82196659600001, 36.566178366 ], [ 138.821961761000011, 36.566246153 ], [ 138.821952423, 36.566281178 ], [ 138.82193995099999, 36.566306384 ], [ 138.821927011000014, 36.566329233 ], [ 138.821921051, 36.566339758 ], [ 138.821890243000013, 36.566383355 ], [ 138.821876833, 36.566402333 ], [ 138.821857889, 36.566429667 ], [ 138.821777179, 36.566506171 ], [ 138.82169767900001, 36.566536675 ], [ 138.821705392000013, 36.56660664 ], [ 138.821735616000012, 36.566666667 ], [ 138.821807713, 36.566809857 ], [ 138.821868168, 36.566925739 ], [ 138.821936203, 36.567044913 ], [ 138.82199883199999, 36.567142965 ], [ 138.82203820399999, 36.567203447 ], [ 138.82206118900001, 36.567213967 ], [ 138.822248608, 36.567258476 ], [ 138.822339978, 36.567324107 ], [ 138.822437248, 36.567390742 ], [ 138.822493884000011, 36.567399806 ], [ 138.822651037000014, 36.567407815 ], [ 138.822697393, 36.567389133 ], [ 138.822762753, 36.567363935 ], [ 138.822808774, 36.567371001 ], [ 138.822956346000012, 36.567479074 ], [ 138.82310733, 36.567597668 ], [ 138.823263352999987, 36.567692459 ], [ 138.823372744000011, 36.567736305 ], [ 138.823451707, 36.56775605 ], [ 138.82356378599999, 36.567775121 ], [ 138.823655953000014, 36.567779717 ], [ 138.823702024, 36.567782968 ], [ 138.824258401, 36.56791453 ], [ 138.824393092, 36.567922347 ], [ 138.824429866, 36.56791312 ], [ 138.824503514000014, 36.567887038 ], [ 138.82455328099999, 36.567878875 ], [ 138.824575632, 36.567887648 ], [ 138.824604568000012, 36.567935581 ], [ 138.824652496, 36.567977953 ], [ 138.82470421799999, 36.568001281 ], [ 138.825121450000012, 36.568104002 ], [ 138.825287728, 36.568137837 ], [ 138.82555507399999, 36.56821926 ], [ 138.825776622, 36.568276451 ], [ 138.82605810699999, 36.568361808 ], [ 138.826688889, 36.568500664 ], [ 138.826762190000011, 36.568501283 ], [ 138.82681915, 36.56848555 ], [ 138.826894028999988, 36.568455661 ], [ 138.827002773, 36.568458487 ], [ 138.827531838, 36.568508733 ], [ 138.82764849899999, 36.568539284 ], [ 138.827795616, 36.568592028 ], [ 138.828042818, 36.568677091 ], [ 138.828105306, 36.568690971 ], [ 138.828157338000011, 36.568690456 ], [ 138.828319803999989, 36.568653675 ], [ 138.828373328, 36.568629328 ], [ 138.82837956099999, 36.568604583 ], [ 138.828371054, 36.568531071 ], [ 138.82837637599999, 36.568485335 ], [ 138.828438398, 36.568443892 ], [ 138.828579208, 36.568527103 ], [ 138.828966732, 36.568641959 ], [ 138.829137742, 36.568675828 ], [ 138.829257704000014, 36.568725481 ], [ 138.829790566000014, 36.568756673 ], [ 138.83076877100001, 36.568832165 ], [ 138.831108022, 36.568885686 ], [ 138.83122959799999, 36.568913533 ], [ 138.831472904, 36.568957306 ], [ 138.83167964899999, 36.568970965 ], [ 138.831742920000011, 36.56893573 ], [ 138.83179095, 36.568936134 ], [ 138.83190094299999, 36.56900263 ], [ 138.832017863, 36.56910495 ], [ 138.832223762000012, 36.569184173 ], [ 138.83246326, 36.569236853 ], [ 138.832684362, 36.569283417 ], [ 138.832750788999988, 36.569289936 ], [ 138.832813406000014, 36.569305364 ], [ 138.832875446, 36.569365495 ], [ 138.833062912, 36.569441582 ], [ 138.83336129599999, 36.569512637 ], [ 138.833497075999986, 36.569585309 ], [ 138.83362542899999, 36.569660898 ], [ 138.834164945, 36.570231722 ], [ 138.834360062, 36.570287827 ], [ 138.83440541600001, 36.570323973 ], [ 138.834447215000012, 36.570406586 ], [ 138.834531601, 36.570625468 ], [ 138.834577196999987, 36.57098709 ], [ 138.83460240299999, 36.571095792 ], [ 138.834631097999988, 36.571163035 ], [ 138.83466961100001, 36.571202462 ], [ 138.834721226999989, 36.571234369 ], [ 138.83477992600001, 36.571267289 ], [ 138.83481618499999, 36.571298113 ], [ 138.834829955, 36.571330657 ], [ 138.834832385, 36.57141747 ], [ 138.834811707999989, 36.571462124 ], [ 138.834741415, 36.571595063 ], [ 138.83473498699999, 36.571635068 ], [ 138.834750251, 36.571735341 ], [ 138.834779207, 36.571782318 ], [ 138.834835161, 36.571844782 ], [ 138.83491360299999, 36.571905527 ], [ 138.834987586000011, 36.571945251 ], [ 138.835051273, 36.571958183 ], [ 138.835159949, 36.571966723 ], [ 138.835242773, 36.571962648 ], [ 138.83529581799999, 36.571975491 ], [ 138.835357042, 36.571996033 ], [ 138.835408647, 36.572028893 ], [ 138.83548596899999, 36.572084859 ], [ 138.83554102299999, 36.572125378 ], [ 138.835603122, 36.572169771 ], [ 138.83567385399999, 36.572186577 ], [ 138.83576587499999, 36.572111046 ] ] ] } },
{ "type": "Feature", "properties": { "A29_001": "10429", "A29_002": "群馬県", "A29_003": "東吾妻町", "A29_004": 10, "A29_005": "準工業地域", "A29_006": 60, "A29_007": 200, "A29_008": "条件付き公開" }, "geometry": { "type": "Polygon", "coordinates": [ [ [ 138.820934902, 36.569389602 ], [ 138.820254940000012, 36.568829447 ], [ 138.81973700399999, 36.568312394 ], [ 138.81934713699999, 36.567891805 ], [ 138.81890959899999, 36.567363692 ], [ 138.818896654000014, 36.567449421 ], [ 138.818899861, 36.567565808 ], [ 138.818914791999987, 36.567689925 ], [ 138.818932596, 36.567838999 ], [ 138.81895647499999, 36.567938259 ], [ 138.818994801, 36.568081651 ], [ 138.819036165, 36.568173564 ], [ 138.819079695, 36.568280757 ], [ 138.819125813, 36.568370803 ], [ 138.819174546, 36.568441797 ], [ 138.81922407499999, 36.568519712 ], [ 138.81938134399999, 36.568699881 ], [ 138.81914806, 36.568794466 ], [ 138.819082739, 36.568816562 ], [ 138.81888403799999, 36.568866136 ], [ 138.819125952, 36.569330255 ], [ 138.81954371099999, 36.569206339 ], [ 138.820029373000011, 36.569648606 ], [ 138.820228179999987, 36.569987095 ], [ 138.820290304, 36.570074058 ], [ 138.82151563799999, 36.570954301 ], [ 138.822665777999987, 36.571799559 ], [ 138.823306839999987, 36.572254995 ], [ 138.823667115, 36.571923975 ], [ 138.823740264, 36.571754824 ], [ 138.82397, 36.57154694 ], [ 138.823986155999989, 36.571524681 ], [ 138.823373607, 36.571094286 ], [ 138.822007484000011, 36.570161721 ], [ 138.820934902, 36.569389602 ] ] ] } },
{ "type": "Feature", "properties": { "A29_001": "10429", "A29_002": "群馬県", "A29_003": "東吾妻町", "A29_004": 8, "A29_005": "近隣商業地域", "A29_006": 80, "A29_007": 200, "A29_008": "条件付き公開" }, "geometry": { "type": "Polygon", "coordinates": [ [ [ 138.829367186000013, 36.572638407 ], [ 138.830457169, 36.571583491 ], [ 138.83044407, 36.571579408 ], [ 138.830228358999989, 36.571527043 ], [ 138.82991080799999, 36.57148622 ], [ 138.829286843, 36.571305632 ], [ 138.828851515999986, 36.571137439 ], [ 138.828338352, 36.570873808 ], [ 138.828154235, 36.570824567 ], [ 138.827528992999987, 36.570598734 ], [ 138.82737097099999, 36.570531829 ], [ 138.826500278999987, 36.570142971 ], [ 138.826119748, 36.569853626 ], [ 138.825837272, 36.569696251 ], [ 138.82561333000001, 36.569584079 ], [ 138.825029250999989, 36.569319834 ], [ 138.824512027999987, 36.569029328 ], [ 138.824387651, 36.568932898 ], [ 138.824174798, 36.568820817 ], [ 138.824308014, 36.568942119 ], [ 138.824313074, 36.568962191 ], [ 138.824275032, 36.569023387 ], [ 138.824209505999988, 36.569134026 ], [ 138.82396282799999, 36.569372287 ], [ 138.82370985599999, 36.56973067 ], [ 138.82334605299999, 36.569519666 ], [ 138.822254756, 36.568879021 ], [ 138.821722107, 36.568559758 ], [ 138.821227668, 36.568212205 ], [ 138.820785577, 36.567840296 ], [ 138.819812428, 36.567028953 ], [ 138.81918575, 36.566487605 ], [ 138.819042537, 36.566867291 ], [ 138.818920010999989, 36.56727888 ], [ 138.819572652, 36.567824265 ], [ 138.820253404, 36.568390868 ], [ 138.82103312800001, 36.568985013 ], [ 138.82131433699999, 36.569181969 ], [ 138.821664069, 36.569383322 ], [ 138.822408044000014, 36.569818829 ], [ 138.823513394, 36.570471038 ], [ 138.82399690299999, 36.570751725 ], [ 138.824536497, 36.571084389 ], [ 138.82398926499999, 36.571520398 ], [ 138.82397, 36.57154694 ], [ 138.823740264, 36.571754824 ], [ 138.823667115, 36.571923975 ], [ 138.82290596199999, 36.572623314 ], [ 138.823859594, 36.573306662 ], [ 138.824609743, 36.572632701 ], [ 138.824721821, 36.572470555 ], [ 138.824992688, 36.572236789 ], [ 138.825808711, 36.572842062 ], [ 138.825980635, 36.572681519 ], [ 138.825935092, 36.572546414 ], [ 138.826291139, 36.572217988 ], [ 138.826396466, 36.572302332 ], [ 138.826844163, 36.571859034 ], [ 138.82732625, 36.572182616 ], [ 138.828190987, 36.572747865 ], [ 138.82891633700001, 36.57323444 ], [ 138.829776664, 36.573799641 ], [ 138.830296863, 36.57414976 ], [ 138.830746956000013, 36.574434909 ], [ 138.831284576, 36.574810207 ], [ 138.83151426, 36.574994545 ], [ 138.831678375, 36.57522006 ], [ 138.831807128, 36.575208028 ], [ 138.832108772999987, 36.575199832 ], [ 138.832075795, 36.575006417 ], [ 138.832149385, 36.574916427 ], [ 138.832207395000012, 36.574888301 ], [ 138.832256096, 36.574862779 ], [ 138.83227273599999, 36.574851173 ], [ 138.832182619, 36.574792329 ], [ 138.832310739, 36.574623157 ], [ 138.832080472, 36.57446099 ], [ 138.831569155000011, 36.574086155 ], [ 138.831081915, 36.573770177 ], [ 138.830501626, 36.573380451 ], [ 138.83006541899999, 36.573096372 ], [ 138.829367186000013, 36.572638407 ] ] ] } },
{ "type": "Feature", "properties": { "A29_001": "10429", "A29_002": "群馬県", "A29_003": "東吾妻町", "A29_004": 6, "A29_005": "第二種住居地域", "A29_006": 60, "A29_007": 200, "A29_008": "条件付き公開" }, "geometry": { "type": "Polygon", "coordinates": [ [ [ 138.83620331899999, 36.57524823 ], [ 138.836232604, 36.575177896 ], [ 138.836275758, 36.575132476 ], [ 138.836426675000013, 36.574983043 ], [ 138.836449789, 36.574932686 ], [ 138.83644801299999, 36.57488689 ], [ 138.836430768000014, 36.574848595 ], [ 138.836080778, 36.574478467 ], [ 138.835564986, 36.574036371 ], [ 138.834651661, 36.573336286 ], [ 138.833571938, 36.572611909 ], [ 138.83278676899999, 36.572292008 ], [ 138.83169967, 36.572003901 ], [ 138.831338716, 36.57189023 ], [ 138.831230495999989, 36.571846401 ], [ 138.831126315, 36.571947578 ], [ 138.830873386, 36.571755651 ], [ 138.830791264, 36.571705365 ], [ 138.83072083, 36.571665668 ], [ 138.830457169, 36.571583491 ], [ 138.829367186000013, 36.572638407 ], [ 138.83006541899999, 36.573096372 ], [ 138.830501626, 36.573380451 ], [ 138.831081915, 36.573770177 ], [ 138.831569155000011, 36.574086155 ], [ 138.832080472, 36.57446099 ], [ 138.832310739, 36.574623157 ], [ 138.832182619, 36.574792329 ], [ 138.83227273599999, 36.574851173 ], [ 138.832256096, 36.574862779 ], [ 138.832207395000012, 36.574888301 ], [ 138.832553501, 36.574985392 ], [ 138.83310883499999, 36.575134311 ], [ 138.833728552999986, 36.575278037 ], [ 138.833760266000013, 36.575201298 ], [ 138.833779279, 36.575171488 ], [ 138.834411288000013, 36.575312221 ], [ 138.834989205999989, 36.575429608 ], [ 138.835420926000012, 36.575513339 ], [ 138.835685388, 36.575546074 ], [ 138.83627711599999, 36.575537488 ], [ 138.83621127, 36.57536561 ], [ 138.836200305, 36.575298754 ], [ 138.83620331899999, 36.57524823 ] ] ] } },
{ "type": "Feature", "properties": { "A29_001": "10429", "A29_002": "群馬県", "A29_003": "東吾妻町", "A29_004": 11, "A29_005": "工業地域", "A29_006": 60, "A29_007": 200, "A29_008": "条件付き公開" }, "geometry": { "type": "Polygon", "coordinates": [ [ [ 138.836705749, 36.577121937 ], [ 138.83684430299999, 36.57698003 ], [ 138.837003990999989, 36.57676787 ], [ 138.837059935000013, 36.576591384 ], [ 138.837076935999988, 36.576418655 ], [ 138.837027885999987, 36.576209609 ], [ 138.836959213, 36.576089813 ], [ 138.83688223199999, 36.576041481 ], [ 138.83680867699999, 36.576014042 ], [ 138.836753367, 36.576004638 ], [ 138.836557304, 36.576020882 ], [ 138.83647367399999, 36.576018275 ], [ 138.836362873000013, 36.575990643 ], [ 138.836339458, 36.575972325 ], [ 138.836312112, 36.575707902 ], [ 138.836286781000013, 36.575562718 ], [ 138.83627711599999, 36.575537488 ], [ 138.835685388, 36.575546074 ], [ 138.835420926000012, 36.575513339 ], [ 138.834989205999989, 36.575429608 ], [ 138.834411288000013, 36.575312221 ], [ 138.833779279, 36.575171488 ], [ 138.833760266000013, 36.575201298 ], [ 138.833634811, 36.575504878 ], [ 138.833610603000011, 36.575576328 ], [ 138.83361018299999, 36.575584006 ], [ 138.833601367999989, 36.575745391 ], [ 138.83355788899999, 36.575936417 ], [ 138.833528884, 36.575957765 ], [ 138.833515436, 36.575967663 ], [ 138.833522647, 36.575999115 ], [ 138.83360499599999, 36.576032234 ], [ 138.833715452, 36.576086571 ], [ 138.833750259999988, 36.576138366 ], [ 138.83376263, 36.576279628 ], [ 138.833817909, 36.576394543 ], [ 138.833993596999989, 36.576525729 ], [ 138.834189063999986, 36.576590316 ], [ 138.834280554, 36.576648309 ], [ 138.834415274, 36.576655161 ], [ 138.83463845599999, 36.576771483 ], [ 138.834769534, 36.576877496 ], [ 138.834916577, 36.577029423 ], [ 138.834968013, 36.577075635 ], [ 138.835145055, 36.577101915 ], [ 138.835326654999989, 36.577141587 ], [ 138.83534623599999, 36.577090247 ], [ 138.835386389, 36.577094399 ], [ 138.83541890699999, 36.577140452 ], [ 138.835442212, 36.577167352 ], [ 138.835517345999989, 36.577209947 ], [ 138.83554735199999, 36.577267424 ], [ 138.83551145199999, 36.577325807 ], [ 138.835377977, 36.577380459 ], [ 138.835365661999987, 36.577418506 ], [ 138.83538593899999, 36.577496885 ], [ 138.83542279400001, 36.577573495 ], [ 138.835450141, 36.577653841 ], [ 138.835482340999988, 36.577724689 ], [ 138.835587702999987, 36.577807595 ], [ 138.83561334800001, 36.577836423 ], [ 138.835709865000013, 36.577871566 ], [ 138.835803379, 36.57795628 ], [ 138.835837037, 36.578006065 ], [ 138.835837155, 36.577996908 ], [ 138.835886378999987, 36.577904923 ], [ 138.836705749, 36.577121937 ] ] ] } },
{ "type": "Feature", "properties": { "A29_001": "10429", "A29_002": "群馬県", "A29_003": "東吾妻町", "A29_004": 6, "A29_005": "第二種住居地域", "A29_006": 60, "A29_007": 200, "A29_008": "条件付き公開" }, "geometry": { "type": "Polygon", "coordinates": [ [ [ 138.828023581999986, 36.575713349 ], [ 138.82764686199999, 36.57540115 ], [ 138.826126007999989, 36.574320089 ], [ 138.824248075000014, 36.572957639 ], [ 138.823859594, 36.573306662 ], [ 138.82290596199999, 36.572623314 ], [ 138.823306839999987, 36.572254995 ], [ 138.822665777999987, 36.571799559 ], [ 138.82151563799999, 36.570954301 ], [ 138.820290304, 36.570074058 ], [ 138.820228179999987, 36.569987095 ], [ 138.820029373000011, 36.569648606 ], [ 138.81954371099999, 36.569206339 ], [ 138.819125952, 36.569330255 ], [ 138.81913059199999, 36.569339157 ], [ 138.819198212, 36.569480413 ], [ 138.81939005800001, 36.569955353 ], [ 138.81940198699999, 36.570060369 ], [ 138.819454658000012, 36.570214612 ], [ 138.81951440899999, 36.570279499 ], [ 138.819671327, 36.570373826 ], [ 138.81975319899999, 36.570442478 ], [ 138.819925626000014, 36.570594163 ], [ 138.819990108000013, 36.570636438 ], [ 138.820103001, 36.570706546 ], [ 138.820548884, 36.570856977 ], [ 138.820675997, 36.570970125 ], [ 138.820853777, 36.571391293 ], [ 138.82090007299999, 36.571467988 ], [ 138.820962673999986, 36.571541244 ], [ 138.821281836999987, 36.571888503 ], [ 138.821292883000012, 36.571948207 ], [ 138.82128619299999, 36.572007761 ], [ 138.821269672, 36.572027888 ], [ 138.821235647, 36.572174429 ], [ 138.82122762, 36.572245893 ], [ 138.821316817, 36.572478416 ], [ 138.821390482999988, 36.572677902 ], [ 138.821424982999986, 36.572888501 ], [ 138.821476695, 36.573003392 ], [ 138.821607132999986, 36.573201929 ], [ 138.82173591, 36.573391868 ], [ 138.821860636, 36.573484488 ], [ 138.822041667, 36.573611921 ], [ 138.82217328199999, 36.573720337 ], [ 138.822274841, 36.573821344 ], [ 138.82241428099999, 36.574009942 ], [ 138.822487911, 36.574076376 ], [ 138.822634201, 36.574147719 ], [ 138.822794251, 36.574252083 ], [ 138.823452591, 36.573685401 ], [ 138.824870507000014, 36.574721752 ], [ 138.825898464, 36.57546723 ], [ 138.825889139999987, 36.575638829 ], [ 138.82625951899999, 36.575664849 ], [ 138.826401608999987, 36.575650313 ], [ 138.826873064000011, 36.575678615 ], [ 138.827493198000013, 36.576141658 ], [ 138.828396712999989, 36.576911817 ], [ 138.828797982999987, 36.577566146 ], [ 138.829046533, 36.577960238 ], [ 138.829050317999986, 36.577964801 ], [ 138.829489873, 36.577724804 ], [ 138.828975676999988, 36.576886879 ], [ 138.82868844699999, 36.576420927 ], [ 138.828023581999986, 36.575713349 ] ] ] } },
{ "type": "Feature", "properties": { "A29_001": "10429", "A29_002": "群馬県", "A29_003": "東吾妻町", "A29_004": 3, "A29_005": "第一種中高層住居専用地域", "A29_006": 60, "A29_007": 200, "A29_008": "条件付き公開" }, "geometry": { "type": "Polygon", "coordinates": [ [ [ 138.829409817, 36.578398217 ], [ 138.829046533, 36.577960238 ], [ 138.828797982999987, 36.577566146 ], [ 138.828396712999989, 36.576911817 ], [ 138.827493198000013, 36.576141658 ], [ 138.826873064000011, 36.575678615 ], [ 138.826401608999987, 36.575650313 ], [ 138.82625951899999, 36.575664849 ], [ 138.825889139999987, 36.575638829 ], [ 138.825898464, 36.57546723 ], [ 138.824870507000014, 36.574721752 ], [ 138.823452591, 36.573685401 ], [ 138.822794251, 36.574252083 ], [ 138.822634201, 36.574147719 ], [ 138.822487911, 36.574076376 ], [ 138.82241428099999, 36.574009942 ], [ 138.822274841, 36.573821344 ], [ 138.82217328199999, 36.573720337 ], [ 138.822041667, 36.573611921 ], [ 138.821860636, 36.573484488 ], [ 138.82173591, 36.573391868 ], [ 138.821607132999986, 36.573201929 ], [ 138.821476695, 36.573003392 ], [ 138.821424982999986, 36.572888501 ], [ 138.821390482999988, 36.572677902 ], [ 138.821316817, 36.572478416 ], [ 138.82122762, 36.572245893 ], [ 138.821235647, 36.572174429 ], [ 138.821269672, 36.572027888 ], [ 138.821118676999987, 36.572045681 ], [ 138.820907118, 36.572173836 ], [ 138.82086696499999, 36.57219257 ], [ 138.820819484999987, 36.572206473 ], [ 138.820782476, 36.572210928 ], [ 138.82049275899999, 36.572212043 ], [ 138.820469981, 36.572484866 ], [ 138.820456740999987, 36.572593244 ], [ 138.820399987, 36.572751326 ], [ 138.820331923, 36.572869968 ], [ 138.82032745699999, 36.572985575 ], [ 138.82035049699999, 36.573032267 ], [ 138.820410141999986, 36.573105498 ], [ 138.82049247, 36.57313958 ], [ 138.82054253199999, 36.573154312 ], [ 138.82062833, 36.57314908 ], [ 138.82082654300001, 36.573137649 ], [ 138.820911204999987, 36.573106179 ], [ 138.82100111, 36.573239277 ], [ 138.821031694999988, 36.573274111 ], [ 138.821071039, 36.573317365 ], [ 138.821163122, 36.573396833 ], [ 138.821205297, 36.573449648 ], [ 138.821223981, 36.573490342 ], [ 138.821251222, 36.573668212 ], [ 138.821260509000012, 36.573749361 ], [ 138.821249650999988, 36.573788612 ], [ 138.821220512, 36.573869435 ], [ 138.821212126, 36.573945665 ], [ 138.82121601599999, 36.573987426 ], [ 138.82132886799999, 36.574287628 ], [ 138.821332898, 36.57431866 ], [ 138.82131927, 36.574343581 ], [ 138.821287875, 36.574370735 ], [ 138.821088242, 36.574490645 ], [ 138.82090729399999, 36.574537989 ], [ 138.820878932999989, 36.574559208 ], [ 138.820850463, 36.574588771 ], [ 138.820838001, 36.574637546 ], [ 138.820852158, 36.574685355 ], [ 138.821169559999987, 36.575281771 ], [ 138.821657972999986, 36.5751202 ], [ 138.821680173, 36.575118004 ], [ 138.821720078, 36.575118342 ], [ 138.821758366000012, 36.575129397 ], [ 138.821819911, 36.575170455 ], [ 138.821995214999987, 36.575329314 ], [ 138.82210457, 36.575444694 ], [ 138.822628823, 36.575935561 ], [ 138.822672696000012, 36.5759717 ], [ 138.822988912, 36.576206861 ], [ 138.82301512699999, 36.576236889 ], [ 138.823044097, 36.576282438 ], [ 138.82306139799999, 36.576315967 ], [ 138.823060872000013, 36.576469757 ], [ 138.823086001, 36.57658323 ], [ 138.823143738, 36.576689826 ], [ 138.82319336899999, 36.576737935 ], [ 138.823355222, 36.5769086 ], [ 138.82338707, 36.576960135 ], [ 138.823408664999988, 36.57700443 ], [ 138.823455421, 36.577159813 ], [ 138.823470762999989, 36.577230283 ], [ 138.823486462, 36.577273336 ], [ 138.823525530000012, 36.577338046 ], [ 138.823585337, 36.577399356 ], [ 138.823712387, 36.577518461 ], [ 138.823766639000013, 36.577552302 ], [ 138.823872171, 36.577621152 ], [ 138.823910117999986, 36.577658431 ], [ 138.823966923, 36.577723292 ], [ 138.824123896, 36.577928489 ], [ 138.824151590000014, 36.577958528 ], [ 138.824250409, 36.578202576 ], [ 138.82429108, 36.578257762 ], [ 138.82451451899999, 36.578467097 ], [ 138.824745019, 36.578588269 ], [ 138.82480293399999, 36.578587893 ], [ 138.825130331, 36.578512843 ], [ 138.825453812, 36.578417817 ], [ 138.825667562, 36.578349284 ], [ 138.82568731, 36.578422176 ], [ 138.825724236000013, 36.578538132 ], [ 138.825795891000013, 36.578711608 ], [ 138.825913582999988, 36.578868782 ], [ 138.826034373999988, 36.579034225 ], [ 138.826064651, 36.579073927 ], [ 138.82611159199999, 36.579101744 ], [ 138.82621319, 36.579132408 ], [ 138.82629418799999, 36.579155744 ], [ 138.826348489, 36.579186008 ], [ 138.82639530599999, 36.579223362 ], [ 138.826451835, 36.579309679 ], [ 138.826586314, 36.579426459 ], [ 138.82671594199999, 36.579575388 ], [ 138.826664295, 36.579909962 ], [ 138.82685877899999, 36.579962063 ], [ 138.826934225, 36.579849481 ], [ 138.82699213399999, 36.579761269 ], [ 138.827099686, 36.579674908 ], [ 138.827251765999989, 36.579574615 ], [ 138.827421507, 36.579480194 ], [ 138.828255815, 36.579023701 ], [ 138.82844704199999, 36.578913723 ], [ 138.829409817, 36.578398217 ] ] ] } },
{ "type": "Feature", "properties": { "A29_001": "10429", "A29_002": "群馬県", "A29_003": "東吾妻町", "A29_004": 10, "A29_005": "準工業地域", "A29_006": 60, "A29_007": 200, "A29_008": "条件付き公開" }, "geometry": { "type": "Polygon", "coordinates": [ [ [ 138.8285765, 36.579373333 ], [ 138.828656083, 36.579357556 ], [ 138.828823027999988, 36.579359361 ], [ 138.829060083, 36.579366583 ], [ 138.829322988, 36.579387547 ], [ 138.82943088499999, 36.579388456 ], [ 138.829496057999989, 36.579378275 ], [ 138.829548114, 36.579353677 ], [ 138.829580986, 36.579326533 ], [ 138.829602048999988, 36.579298097 ], [ 138.829604361, 36.579233737 ], [ 138.829630629, 36.579145735 ], [ 138.829741597, 36.57890942 ], [ 138.829789342, 36.578875248 ], [ 138.829862291000012, 36.578835327 ], [ 138.82988749399999, 36.578829578 ], [ 138.829971897, 36.578818366 ], [ 138.830042951, 36.578810619 ], [ 138.830083027, 36.578797842 ], [ 138.830135191000011, 36.578764899 ], [ 138.830163613, 36.57873891 ], [ 138.830214853, 36.578663039 ], [ 138.830222279999987, 36.578622993 ], [ 138.830183059, 36.578501057 ], [ 138.830305165999988, 36.578386202 ], [ 138.830328259999987, 36.578383535 ], [ 138.830346983, 36.578033183 ], [ 138.830379685, 36.577973371 ], [ 138.830436848, 36.577942377 ], [ 138.830518694, 36.577923037 ], [ 138.83103295399999, 36.577934516 ], [ 138.831080694, 36.577946362 ], [ 138.831314424, 36.577895381 ], [ 138.831403920000014, 36.577778832 ], [ 138.831418164000013, 36.57777466 ], [ 138.830960651999987, 36.577078378 ], [ 138.830573163, 36.576591558 ], [ 138.830133969, 36.576125762 ], [ 138.829585928, 36.575573209 ], [ 138.82895389, 36.575070018 ], [ 138.82836333099999, 36.574651582 ], [ 138.827291153, 36.573895737 ], [ 138.826227695999989, 36.573152832 ], [ 138.824992688, 36.572236789 ], [ 138.824721821, 36.572470555 ], [ 138.824609743, 36.572632701 ], [ 138.824248075000014, 36.572957639 ], [ 138.826126007999989, 36.574320089 ], [ 138.82764686199999, 36.57540115 ], [ 138.828023581999986, 36.575713349 ], [ 138.82868844699999, 36.576420927 ], [ 138.828975676999988, 36.576886879 ], [ 138.829489873, 36.577724804 ], [ 138.829050317999986, 36.577964801 ], [ 138.829409817, 36.578398217 ], [ 138.82844704199999, 36.578913723 ], [ 138.828255815, 36.579023701 ], [ 138.827421507, 36.579480194 ], [ 138.827251765999989, 36.579574615 ], [ 138.827099686, 36.579674908 ], [ 138.82699213399999, 36.579761269 ], [ 138.826934225, 36.579849481 ], [ 138.82685877899999, 36.579962063 ], [ 138.827280051, 36.580074917 ], [ 138.827559382, 36.580192919 ], [ 138.82760079900001, 36.580190884 ], [ 138.827651057, 36.580172093 ], [ 138.827688461, 36.580157478 ], [ 138.827798277999989, 36.580115667 ], [ 138.827869861000011, 36.580076583 ], [ 138.82788613, 36.580064533 ], [ 138.827947125, 36.580019353 ], [ 138.82800410199999, 36.579962726 ], [ 138.828051354, 36.579914711 ], [ 138.82807804399999, 36.57988759 ], [ 138.828122939, 36.579828874 ], [ 138.828322818, 36.579600736 ], [ 138.828424582999986, 36.579484583 ], [ 138.828472444, 36.579437306 ], [ 138.82851752799999, 36.579403972 ], [ 138.8285765, 36.579373333 ] ] ] } },
{ "type": "Feature", "properties": { "A29_001": "10429", "A29_002": "群馬県", "A29_003": "東吾妻町", "A29_004": 5, "A29_005": "第一種住居地域", "A29_006": 60, "A29_007": 200, "A29_008": "条件付き公開" }, "geometry": { "type": "Polygon", "coordinates": [ [ [ 138.835837037, 36.578006065 ], [ 138.835803379, 36.57795628 ], [ 138.835709865000013, 36.577871566 ], [ 138.83561334800001, 36.577836423 ], [ 138.835587702999987, 36.577807595 ], [ 138.835482340999988, 36.577724689 ], [ 138.835450141, 36.577653841 ], [ 138.83542279400001, 36.577573495 ], [ 138.83538593899999, 36.577496885 ], [ 138.835365661999987, 36.577418506 ], [ 138.835377977, 36.577380459 ], [ 138.83551145199999, 36.577325807 ], [ 138.83554735199999, 36.577267424 ], [ 138.835517345999989, 36.577209947 ], [ 138.835442212, 36.577167352 ], [ 138.83541890699999, 36.577140452 ], [ 138.835386389, 36.577094399 ], [ 138.83534623599999, 36.577090247 ], [ 138.835326654999989, 36.577141587 ], [ 138.835145055, 36.577101915 ], [ 138.834968013, 36.577075635 ], [ 138.834916577, 36.577029423 ], [ 138.834769534, 36.576877496 ], [ 138.83463845599999, 36.576771483 ], [ 138.834415274, 36.576655161 ], [ 138.834280554, 36.576648309 ], [ 138.834189063999986, 36.576590316 ], [ 138.833993596999989, 36.576525729 ], [ 138.833817909, 36.576394543 ], [ 138.83376263, 36.576279628 ], [ 138.833750259999988, 36.576138366 ], [ 138.833715452, 36.576086571 ], [ 138.83360499599999, 36.576032234 ], [ 138.833522647, 36.575999115 ], [ 138.833515436, 36.575967663 ], [ 138.833528884, 36.575957765 ], [ 138.83355788899999, 36.575936417 ], [ 138.833601367999989, 36.575745391 ], [ 138.83361018299999, 36.575584006 ], [ 138.833610603000011, 36.575576328 ], [ 138.833634811, 36.575504878 ], [ 138.833728552999986, 36.575278037 ], [ 138.83310883499999, 36.575134311 ], [ 138.832553501, 36.574985392 ], [ 138.832207395000012, 36.574888301 ], [ 138.832149385, 36.574916427 ], [ 138.832075795, 36.575006417 ], [ 138.832108772999987, 36.575199832 ], [ 138.831807128, 36.575208028 ], [ 138.831678375, 36.57522006 ], [ 138.83151426, 36.574994545 ], [ 138.831284576, 36.574810207 ], [ 138.830746956000013, 36.574434909 ], [ 138.830296863, 36.57414976 ], [ 138.829776664, 36.573799641 ], [ 138.82891633700001, 36.57323444 ], [ 138.828190987, 36.572747865 ], [ 138.82732625, 36.572182616 ], [ 138.826844163, 36.571859034 ], [ 138.826396466, 36.572302332 ], [ 138.826291139, 36.572217988 ], [ 138.825935092, 36.572546414 ], [ 138.825980635, 36.572681519 ], [ 138.825808711, 36.572842062 ], [ 138.826227695999989, 36.573152832 ], [ 138.827291153, 36.573895737 ], [ 138.82836333099999, 36.574651582 ], [ 138.82895389, 36.575070018 ], [ 138.829585928, 36.575573209 ], [ 138.830133969, 36.576125762 ], [ 138.830573163, 36.576591558 ], [ 138.830960651999987, 36.577078378 ], [ 138.831418164000013, 36.57777466 ], [ 138.831403920000014, 36.577778832 ], [ 138.831314424, 36.577895381 ], [ 138.831080694, 36.577946362 ], [ 138.83103295399999, 36.577934516 ], [ 138.830518694, 36.577923037 ], [ 138.830436848, 36.577942377 ], [ 138.830379685, 36.577973371 ], [ 138.830346983, 36.578033183 ], [ 138.830328259999987, 36.578383535 ], [ 138.830305165999988, 36.578386202 ], [ 138.830183059, 36.578501057 ], [ 138.830222279999987, 36.578622993 ], [ 138.830214853, 36.578663039 ], [ 138.830282407999988, 36.578811442 ], [ 138.830507525, 36.579235378 ], [ 138.830693630000013, 36.579589838 ], [ 138.830893925, 36.579929942 ], [ 138.83104119699999, 36.580147139 ], [ 138.831466107000011, 36.58066813 ], [ 138.831950154999987, 36.581142663 ], [ 138.83222483099999, 36.581382081 ], [ 138.832670062, 36.58170414 ], [ 138.833029885, 36.581657087 ], [ 138.833531216000011, 36.581412121 ], [ 138.833606073999988, 36.581338832 ], [ 138.83446276699999, 36.58093351 ], [ 138.834674639000013, 36.580895943 ], [ 138.834799428, 36.580848107 ], [ 138.835158831, 36.580833235 ], [ 138.835203404, 36.580815725 ], [ 138.83522023099999, 36.580771754 ], [ 138.83542536600001, 36.579879314 ], [ 138.835519957, 36.579765654 ], [ 138.83562945599999, 36.579491393 ], [ 138.835657585, 36.579315778 ], [ 138.835748913, 36.579110886 ], [ 138.835767374999989, 36.57882491 ], [ 138.835736035999986, 36.578675621 ], [ 138.835771439000013, 36.578509008 ], [ 138.83576585099999, 36.578368877 ], [ 138.835834049999988, 36.578238304 ], [ 138.835837037, 36.578006065 ] ] ] } }
]
}
