{
"type": "FeatureCollection",
"name": "A29-19_10522",
"features": [
{ "type": "Feature", "properties": { "A29_001": "10522", "A29_002": "群馬県", "A29_003": "明和町", "A29_004": 3, "A29_005": "第一種中高層住居専用地域", "A29_006": 60, "A29_007": 200, "A29_008": null }, "geometry": { "type": "Polygon", "coordinates": [ [ [ 139.522477075000012, 36.20989038 ], [ 139.522634896999989, 36.210310106 ], [ 139.522644455, 36.210334969 ], [ 139.52269413799999, 36.210464203 ], [ 139.52272957, 36.210556366 ], [ 139.522751742999986, 36.210614043 ], [ 139.522650059, 36.211395998 ], [ 139.52263304499999, 36.211523288 ], [ 139.52263086100001, 36.211539322 ], [ 139.522622316, 36.211593837 ], [ 139.522609953, 36.211684591 ], [ 139.522601422, 36.211746832 ], [ 139.522592433, 36.211812417 ], [ 139.522556705, 36.212073078 ], [ 139.522531836000013, 36.212247483 ], [ 139.523691860000014, 36.212341878 ], [ 139.524940926, 36.212446431 ], [ 139.524945938, 36.212447974 ], [ 139.524977196, 36.212397546 ], [ 139.52499445399999, 36.212324904 ], [ 139.525035401, 36.212163744 ], [ 139.525041447, 36.212138251 ], [ 139.52506934199999, 36.211986924 ], [ 139.525087316999986, 36.211891365 ], [ 139.525104051, 36.211808489 ], [ 139.52511265199999, 36.211759411 ], [ 139.525118694000014, 36.211715392 ], [ 139.525122329, 36.21167874 ], [ 139.525125236, 36.211633738 ], [ 139.525126817, 36.211585794 ], [ 139.525127142, 36.211487922 ], [ 139.525769419, 36.211468342 ], [ 139.525769423000014, 36.211466366 ], [ 139.525768843, 36.211329221 ], [ 139.525766368, 36.210946807 ], [ 139.525770031, 36.210792916 ], [ 139.52576399, 36.210622563 ], [ 139.525762152999988, 36.210161937 ], [ 139.52565533, 36.209858776 ], [ 139.525547589000013, 36.209599965 ], [ 139.525525232, 36.209534821 ], [ 139.525481171, 36.209377474 ], [ 139.52537445499999, 36.209081975 ], [ 139.52507060799999, 36.209141395 ], [ 139.525070296, 36.209141466 ], [ 139.524752638, 36.209209095 ], [ 139.524870216000011, 36.209430687 ], [ 139.52397381599999, 36.209569837 ], [ 139.523935212, 36.209457279 ], [ 139.52385847, 36.209226379 ], [ 139.52382625199999, 36.209233421 ], [ 139.52360831199999, 36.209291722 ], [ 139.523389548000011, 36.209348256 ], [ 139.523093017, 36.209424892 ], [ 139.523197758, 36.209707534 ], [ 139.522477075000012, 36.20989038 ] ] ] } },
{ "type": "Feature", "properties": { "A29_001": "10522", "A29_002": "群馬県", "A29_003": "明和町", "A29_004": 3, "A29_005": "第一種中高層住居専用地域", "A29_006": 60, "A29_007": 200, "A29_008": null }, "geometry": { "type": "Polygon", "coordinates": [ [ [ 139.534757641, 36.207012868 ], [ 139.534760045000013, 36.206924932 ], [ 139.53478112799999, 36.206251638 ], [ 139.530660703, 36.206179068 ], [ 139.530631218, 36.206178548 ], [ 139.530619718, 36.206617252 ], [ 139.530614441000012, 36.206862893 ], [ 139.53038697, 36.206872077 ], [ 139.530387964999989, 36.206897317 ], [ 139.530407133000011, 36.207178203 ], [ 139.530406050000011, 36.207178652 ], [ 139.530395199999987, 36.207181069 ], [ 139.530424385, 36.207696687 ], [ 139.530434903000014, 36.207774615 ], [ 139.53045324199999, 36.207864776 ], [ 139.530492446000011, 36.207917806 ], [ 139.53054672, 36.20790081 ], [ 139.53061389199999, 36.207886757 ], [ 139.530851065, 36.207818962 ], [ 139.530913429, 36.20780703 ], [ 139.53112007199999, 36.207782009 ], [ 139.531166875999986, 36.207777095 ], [ 139.531292646999987, 36.207761671 ], [ 139.531399098, 36.207741247 ], [ 139.53143917, 36.207731936 ], [ 139.53152518600001, 36.207706249 ], [ 139.531649256, 36.20766719 ], [ 139.531762286, 36.207629562 ], [ 139.53179297, 36.207620516 ], [ 139.53216355399999, 36.207549806 ], [ 139.532540329, 36.207480419 ], [ 139.53263585900001, 36.207461394 ], [ 139.532775023, 36.207429673 ], [ 139.532870957, 36.207406712 ], [ 139.532909131, 36.207396833 ], [ 139.532989006, 36.207375197 ], [ 139.533386293, 36.207296694 ], [ 139.533437472, 36.207284985 ], [ 139.533991719999989, 36.20716816 ], [ 139.534156273, 36.207134887 ], [ 139.534290556, 36.207105969 ], [ 139.534757641, 36.207012868 ] ] ] } },
{ "type": "Feature", "properties": { "A29_001": "10522", "A29_002": "群馬県", "A29_003": "明和町", "A29_004": 8, "A29_005": "近隣商業地域", "A29_006": 80, "A29_007": 200, "A29_008": null }, "geometry": { "type": "Polygon", "coordinates": [ [ [ 139.526228366, 36.208716205 ], [ 139.526233057000013, 36.208673196 ], [ 139.526232158999989, 36.208646454 ], [ 139.526226165, 36.208625325 ], [ 139.526214552999988, 36.20860152 ], [ 139.526152604, 36.208503423 ], [ 139.526170337999986, 36.208440694 ], [ 139.526188065000014, 36.208365149 ], [ 139.526225632, 36.208164282 ], [ 139.52628995399999, 36.207846337 ], [ 139.526299741, 36.207782107 ], [ 139.526302367, 36.207753579 ], [ 139.526303541, 36.207717356 ], [ 139.526301748, 36.207648161 ], [ 139.526297583, 36.207587431 ], [ 139.526292496, 36.207500237 ], [ 139.526296516, 36.207424933 ], [ 139.52611131099999, 36.207402424 ], [ 139.526035479, 36.207390679 ], [ 139.525965140000011, 36.208315361 ], [ 139.525796754999988, 36.208321652 ], [ 139.525619393999989, 36.208336681 ], [ 139.52546515899999, 36.208377386 ], [ 139.525141743, 36.208473621 ], [ 139.525143465000014, 36.208493775 ], [ 139.525273467, 36.208863352 ], [ 139.525761254, 36.208754904 ], [ 139.526228366, 36.208716205 ] ] ] } },
{ "type": "Feature", "properties": { "A29_001": "10522", "A29_002": "群馬県", "A29_003": "明和町", "A29_004": 12, "A29_005": "工業専用地域", "A29_006": 50, "A29_007": 200, "A29_008": null }, "geometry": { "type": "Polygon", "coordinates": [ [ [ 139.483670966, 36.210053315 ], [ 139.484323854, 36.20996299 ], [ 139.484609170999988, 36.20992705 ], [ 139.484942232, 36.209883497 ], [ 139.485228783, 36.209845125 ], [ 139.485419965, 36.209819363 ], [ 139.485509868, 36.209810161 ], [ 139.485648594999986, 36.209800831 ], [ 139.485867063, 36.209791822 ], [ 139.486185076, 36.209780848 ], [ 139.48693368799999, 36.209751293 ], [ 139.487180525000014, 36.20973993 ], [ 139.487513223, 36.209728094 ], [ 139.48769620499999, 36.209720511 ], [ 139.487892324, 36.209710082 ], [ 139.488413771000012, 36.209688145 ], [ 139.488702319999987, 36.20967674 ], [ 139.489811285, 36.20963561 ], [ 139.489908603, 36.209631762 ], [ 139.491957551000013, 36.209550984 ], [ 139.49210008, 36.209541754 ], [ 139.492116297, 36.209541115 ], [ 139.493311366, 36.209493982 ], [ 139.493349561, 36.20949292 ], [ 139.496091702, 36.209357479 ], [ 139.497830353000012, 36.209449678 ], [ 139.499272674999986, 36.209553468 ], [ 139.499587222, 36.209592034 ], [ 139.499855534, 36.209634982 ], [ 139.500167092, 36.209692367 ], [ 139.500409681, 36.209745349 ], [ 139.50059697099999, 36.209791227 ], [ 139.500634615, 36.209806321 ], [ 139.50103464, 36.209933545 ], [ 139.501180927, 36.209988975 ], [ 139.50131383199999, 36.210074624 ], [ 139.501352085, 36.210102219 ], [ 139.501480444, 36.21020415 ], [ 139.501639356, 36.210339784 ], [ 139.501652764999989, 36.210351177 ], [ 139.501710865, 36.210393338 ], [ 139.501759631999988, 36.21043313 ], [ 139.501825131, 36.21048784 ], [ 139.501900049999989, 36.210550326 ], [ 139.502056108, 36.210677569 ], [ 139.502154553, 36.210752558 ], [ 139.502380475, 36.210928033 ], [ 139.502529675, 36.211046695 ], [ 139.503296530999989, 36.211669225 ], [ 139.50324006299999, 36.211589287 ], [ 139.503217634, 36.211544978 ], [ 139.503210145999986, 36.211517122 ], [ 139.503203015, 36.21148422 ], [ 139.503199067, 36.211450054 ], [ 139.50319879599999, 36.21142315 ], [ 139.503200013, 36.211394413 ], [ 139.503203023999987, 36.211367347 ], [ 139.503211701999987, 36.211330329 ], [ 139.503228801, 36.211291952 ], [ 139.50325686299999, 36.211244757 ], [ 139.50328879, 36.211198952 ], [ 139.50342863899999, 36.211308646 ], [ 139.503436705000013, 36.211314851 ], [ 139.50344479200001, 36.211321038 ], [ 139.50345290300001, 36.211327204 ], [ 139.503461039, 36.211333349 ], [ 139.503469203, 36.21133947 ], [ 139.50347739599999, 36.211345565 ], [ 139.503485619, 36.211351633 ], [ 139.503493873999986, 36.211357673 ], [ 139.503502163, 36.211363682 ], [ 139.503510487, 36.21136966 ], [ 139.50351884599999, 36.211375605 ], [ 139.50352724199999, 36.211381515 ], [ 139.503535676000013, 36.211387391 ], [ 139.50354414899999, 36.211393229 ], [ 139.50355266, 36.211399031 ], [ 139.503561211, 36.211404793 ], [ 139.503569801999987, 36.211410517 ], [ 139.503578433, 36.211416201 ], [ 139.503587105, 36.211421845 ], [ 139.50359581699999, 36.211427447 ], [ 139.503604569, 36.211433008 ], [ 139.50361336099999, 36.211438528 ], [ 139.503622193000012, 36.211444006 ], [ 139.503631065, 36.211449441 ], [ 139.503639974, 36.211454835 ], [ 139.503648922999986, 36.211460188 ], [ 139.503657908, 36.211465499 ], [ 139.50366693, 36.21147077 ], [ 139.503675987, 36.211476 ], [ 139.503685079, 36.211481191 ], [ 139.503694204999988, 36.211486343 ], [ 139.503708421, 36.211494257 ], [ 139.503744804, 36.211513547 ], [ 139.503781997, 36.211531797 ], [ 139.503819951999986, 36.211548983 ], [ 139.50385862499999, 36.211565086 ], [ 139.503897967, 36.211580085 ], [ 139.503937932000014, 36.211593962 ], [ 139.50397847, 36.211606701 ], [ 139.504019531000012, 36.211618285 ], [ 139.504061067, 36.211628701 ], [ 139.504103026, 36.211637936 ], [ 139.504145357, 36.211645978 ], [ 139.504188008, 36.211652819 ], [ 139.504230928, 36.211658449 ], [ 139.504274065, 36.211662861 ], [ 139.50431736499999, 36.211666051 ], [ 139.504360620999989, 36.21166801 ], [ 139.504377412, 36.211668482 ], [ 139.504388529000011, 36.211668737 ], [ 139.504399648, 36.211668944 ], [ 139.504410768000014, 36.211669103 ], [ 139.504421889000014, 36.211669212 ], [ 139.504433010000014, 36.21166927 ], [ 139.504444132, 36.211669277 ], [ 139.50445525399999, 36.211669232 ], [ 139.50446637499999, 36.211669135 ], [ 139.504477495, 36.211668985 ], [ 139.504488614, 36.211668782 ], [ 139.50449973100001, 36.211668526 ], [ 139.504510847, 36.211668218 ], [ 139.504521958999987, 36.211667858 ], [ 139.50453306899999, 36.211667445 ], [ 139.504544177000014, 36.211666982 ], [ 139.50455528, 36.211666468 ], [ 139.50456638, 36.211665904 ], [ 139.504577476, 36.211665292 ], [ 139.504588568, 36.211664632 ], [ 139.504599656000011, 36.211663927 ], [ 139.504610738999986, 36.211663176 ], [ 139.504621816999986, 36.211662382 ], [ 139.504632891, 36.211661547 ], [ 139.50464396000001, 36.211660671 ], [ 139.504655025, 36.211659758 ], [ 139.504666085, 36.211658809 ], [ 139.504677140000013, 36.211657826 ], [ 139.504688191000014, 36.211656812 ], [ 139.504699238, 36.211655768 ], [ 139.504710281, 36.211654697 ], [ 139.504721321, 36.211653603 ], [ 139.50473235699999, 36.211652487 ], [ 139.504743389999987, 36.211651352 ], [ 139.504754421, 36.211650202 ], [ 139.50476545, 36.211649038 ], [ 139.504776477, 36.211647865 ], [ 139.504787502999989, 36.211646685 ], [ 139.504798528, 36.211645502 ], [ 139.50629698099999, 36.211484614 ], [ 139.506308006000012, 36.21148343 ], [ 139.50631903199999, 36.211482247 ], [ 139.506330057000014, 36.211481065 ], [ 139.506341083, 36.211479885 ], [ 139.50635211, 36.211478707 ], [ 139.50636313699999, 36.211477533 ], [ 139.50637416399999, 36.211476362 ], [ 139.50638519200001, 36.211475196 ], [ 139.506396220999989, 36.211474034 ], [ 139.506407251000013, 36.211472878 ], [ 139.506418282, 36.211471728 ], [ 139.506429314, 36.211470585 ], [ 139.50644034699999, 36.21146945 ], [ 139.506451381, 36.211468322 ], [ 139.50646241699999, 36.211467203 ], [ 139.506473454, 36.211466093 ], [ 139.506484492999988, 36.211464993 ], [ 139.50649553299999, 36.211463903 ], [ 139.506506575, 36.211462825 ], [ 139.506517618, 36.211461758 ], [ 139.506528664, 36.211460703 ], [ 139.506539710999988, 36.211459661 ], [ 139.50655076000001, 36.211458633 ], [ 139.506561811000012, 36.211457618 ], [ 139.50657286399999, 36.211456618 ], [ 139.506583919, 36.211455634 ], [ 139.506594976, 36.211454665 ], [ 139.50660603599999, 36.211453713 ], [ 139.50661709799999, 36.211452778 ], [ 139.506628162, 36.211451861 ], [ 139.506639228000012, 36.211450961 ], [ 139.506650296, 36.211450081 ], [ 139.50666136699999, 36.21144922 ], [ 139.506672441, 36.211448379 ], [ 139.50668351600001, 36.211447559 ], [ 139.50669459400001, 36.21144676 ], [ 139.506705673999988, 36.211445983 ], [ 139.50671675699999, 36.211445228 ], [ 139.506727842, 36.211444496 ], [ 139.50673892899999, 36.211443788 ], [ 139.506750019, 36.211443104 ], [ 139.506761111, 36.211442445 ], [ 139.506772205, 36.211441812 ], [ 139.506783302, 36.211441204 ], [ 139.5067944, 36.211440623 ], [ 139.506805501, 36.211440069 ], [ 139.50681660399999, 36.211439542 ], [ 139.506827708, 36.211439045 ], [ 139.506838815, 36.211438576 ], [ 139.50684992399999, 36.211438136 ], [ 139.506861034, 36.211437727 ], [ 139.506872146, 36.211437348 ], [ 139.506883259, 36.211437 ], [ 139.506894374000012, 36.211436685 ], [ 139.50690549, 36.211436401 ], [ 139.506916608000012, 36.211436151 ], [ 139.506927725999986, 36.211435935 ], [ 139.506938846, 36.211435752 ], [ 139.506949966, 36.211435604 ], [ 139.506961087, 36.211435492 ], [ 139.506972208, 36.211435415 ], [ 139.50698333, 36.211435375 ], [ 139.506994451999986, 36.211435372 ], [ 139.507005572999986, 36.211435406 ], [ 139.507016695, 36.211435479 ], [ 139.507027814999987, 36.21143559 ], [ 139.507038935999987, 36.211435741 ], [ 139.507050055, 36.211435931 ], [ 139.507061173000011, 36.211436162 ], [ 139.50707229, 36.211436434 ], [ 139.507083405, 36.211436747 ], [ 139.507094518, 36.211437103 ], [ 139.50710562899999, 36.211437501 ], [ 139.50711673699999, 36.211437942 ], [ 139.507127843, 36.211438427 ], [ 139.507138945, 36.211438957 ], [ 139.507150044000014, 36.211439531 ], [ 139.50716114, 36.21144015 ], [ 139.507172231, 36.211440816 ], [ 139.507183317999989, 36.211441528 ], [ 139.5071944, 36.211442287 ], [ 139.507205477000014, 36.211443093 ], [ 139.50721654899999, 36.211443948 ], [ 139.507227615, 36.211444851 ], [ 139.507238674, 36.211445803 ], [ 139.507249726999987, 36.211446804 ], [ 139.507260773000013, 36.211447856 ], [ 139.50727181100001, 36.211448959 ], [ 139.507282841, 36.211450112 ], [ 139.507293863, 36.211451318 ], [ 139.507304876, 36.211452574 ], [ 139.507317083, 36.211454032 ], [ 139.507369264, 36.211461017 ], [ 139.50743305099999, 36.211471245 ], [ 139.507496358999987, 36.211483271 ], [ 139.507559109999988, 36.21149708 ], [ 139.50762122899999, 36.211512656 ], [ 139.507682639, 36.211529979 ], [ 139.507743266, 36.211549028 ], [ 139.50780303499999, 36.21156978 ], [ 139.507861874000014, 36.211592209 ], [ 139.507919711999989, 36.211616289 ], [ 139.507976477, 36.21164199 ], [ 139.508032101, 36.211669281 ], [ 139.50808651599999, 36.211698128 ], [ 139.508139655, 36.211728497 ], [ 139.508191455, 36.21176035 ], [ 139.508241851, 36.211793649 ], [ 139.508290781999989, 36.211828352 ], [ 139.508338189, 36.211864418 ], [ 139.508384014, 36.211901803 ], [ 139.508428200999987, 36.211940461 ], [ 139.508470695999989, 36.211980345 ], [ 139.508511448, 36.212021407 ], [ 139.508550407, 36.212063596 ], [ 139.508587525, 36.212106862 ], [ 139.508622757000012, 36.21215115 ], [ 139.508656061000011, 36.212196409 ], [ 139.50868739500001, 36.212242581 ], [ 139.508712895, 36.212283237 ], [ 139.508719353, 36.212294035 ], [ 139.508724131, 36.212302174 ], [ 139.508728854, 36.212310334 ], [ 139.508733517, 36.212318516 ], [ 139.508738123, 36.21232672 ], [ 139.508742672000011, 36.212334944 ], [ 139.508747164, 36.212343189 ], [ 139.508751600000011, 36.212351454 ], [ 139.508755979999989, 36.212359738 ], [ 139.50876030500001, 36.212368042 ], [ 139.508764574999987, 36.212376364 ], [ 139.50876879099999, 36.212384704 ], [ 139.508772953, 36.212393062 ], [ 139.508777060999989, 36.212401437 ], [ 139.508781117000012, 36.21240983 ], [ 139.508785120999988, 36.212418238 ], [ 139.508789073, 36.212426663 ], [ 139.508792975, 36.212435103 ], [ 139.50879682499999, 36.212443558 ], [ 139.50880062600001, 36.212452028 ], [ 139.50880437699999, 36.212460513 ], [ 139.50880808, 36.212469012 ], [ 139.508811734, 36.212477524 ], [ 139.508815341, 36.21248605 ], [ 139.5088189, 36.212494589 ], [ 139.50882241299999, 36.21250314 ], [ 139.508875753000012, 36.212658574 ], [ 139.509003879, 36.212603717 ], [ 139.509521591, 36.212382009 ], [ 139.509605173000011, 36.212346215 ], [ 139.509804237999987, 36.212260965 ], [ 139.509845912, 36.212242773 ], [ 139.50996661100001, 36.212190499 ], [ 139.510280706, 36.212058567 ], [ 139.510524887, 36.211956845 ], [ 139.510840671000011, 36.211825284 ], [ 139.510915536999988, 36.211786755 ], [ 139.511606836999988, 36.211489599 ], [ 139.51090561699999, 36.210389299 ], [ 139.510738554999989, 36.21012359 ], [ 139.510667324, 36.210010299 ], [ 139.510615065, 36.209928655 ], [ 139.51059967, 36.209904602 ], [ 139.51050086, 36.209750229 ], [ 139.510455283999988, 36.209679024 ], [ 139.51045067699999, 36.209671828 ], [ 139.510321739, 36.209470549 ], [ 139.510315873, 36.209461322 ], [ 139.510264423, 36.209380403 ], [ 139.510098352999989, 36.209117099 ], [ 139.509981904999989, 36.20893247 ], [ 139.509911262, 36.208819301 ], [ 139.509848213999987, 36.208721017 ], [ 139.509792215, 36.208632086 ], [ 139.50974957599999, 36.208564222 ], [ 139.50971252299999, 36.208500074 ], [ 139.50969704100001, 36.208471264 ], [ 139.509684348, 36.208444492 ], [ 139.509647847999986, 36.208364521 ], [ 139.509625707999987, 36.208316492 ], [ 139.50961379899999, 36.208282387 ], [ 139.509605805, 36.208259233 ], [ 139.509602668000014, 36.208250148 ], [ 139.509584901000011, 36.20818858 ], [ 139.509566048000011, 36.208118691 ], [ 139.509562746, 36.208104629 ], [ 139.50950748, 36.207869274 ], [ 139.509492646000012, 36.207805621 ], [ 139.509437555, 36.207569222 ], [ 139.509374298000012, 36.207298832 ], [ 139.509370459, 36.207282425 ], [ 139.509348963, 36.207190222 ], [ 139.508866175, 36.20515502 ], [ 139.50830525399999, 36.204919653 ], [ 139.508151252, 36.204849444 ], [ 139.50781674000001, 36.204702673 ], [ 139.50760978400001, 36.204612246 ], [ 139.507520206, 36.204576043 ], [ 139.507347423, 36.204508342 ], [ 139.506823746, 36.20432345 ], [ 139.50678608699999, 36.204309535 ], [ 139.506743016, 36.204293387 ], [ 139.50668314, 36.204270094 ], [ 139.506625590999988, 36.204246354 ], [ 139.506544010999988, 36.204212291 ], [ 139.506473854, 36.204182461 ], [ 139.50641079799999, 36.204154815 ], [ 139.506346650000012, 36.204125419 ], [ 139.506310178, 36.204108421 ], [ 139.506257080000012, 36.204082039 ], [ 139.506183709, 36.204045794 ], [ 139.50606498499999, 36.203988947 ], [ 139.506028375, 36.203969643 ], [ 139.50599112899999, 36.2039492 ], [ 139.505955269999987, 36.203928388 ], [ 139.50593582, 36.203917554 ], [ 139.505899967, 36.203896487 ], [ 139.50584807199999, 36.203864846 ], [ 139.505808835000011, 36.203839889 ], [ 139.505743016999986, 36.203796283 ], [ 139.505709071000013, 36.203773751 ], [ 139.505624828, 36.203709355 ], [ 139.505619865999989, 36.20370574 ], [ 139.505535589, 36.203640393 ], [ 139.505503452999989, 36.203613721 ], [ 139.50544381200001, 36.203561987 ], [ 139.505385859, 36.203508583 ], [ 139.505364168999989, 36.203487405 ], [ 139.505280876, 36.203409317 ], [ 139.505197379, 36.203330535 ], [ 139.505123262000012, 36.203261679 ], [ 139.50502064299999, 36.20316847 ], [ 139.504949847, 36.203106916 ], [ 139.504894697999987, 36.203059868 ], [ 139.504801611, 36.202980794 ], [ 139.504722018, 36.202916307 ], [ 139.504658696, 36.202865746 ], [ 139.50459563699999, 36.202816292 ], [ 139.504465849000013, 36.202717411 ], [ 139.504191639, 36.202506109 ], [ 139.504065340000011, 36.202403554 ], [ 139.503992055999987, 36.20234079 ], [ 139.503967219, 36.202319519 ], [ 139.503805019, 36.202163031 ], [ 139.503696853, 36.202091989 ], [ 139.503528872, 36.202339514 ], [ 139.50341291399999, 36.20251038 ], [ 139.503205439, 36.202812334 ], [ 139.50313651499999, 36.20291209 ], [ 139.50306443, 36.203016419 ], [ 139.503004498, 36.203104445 ], [ 139.502945810999989, 36.203196902 ], [ 139.502939163, 36.203211039 ], [ 139.502926038, 36.203234104 ], [ 139.502914651, 36.203257723 ], [ 139.50290736299999, 36.203276049 ], [ 139.502896329, 36.203307312 ], [ 139.50288803, 36.20333709 ], [ 139.502883860999987, 36.203356027 ], [ 139.502881201, 36.203371709 ], [ 139.50287781099999, 36.203394631 ], [ 139.502875589000013, 36.203416883 ], [ 139.502874902, 36.203439712 ], [ 139.502875397, 36.203460091 ], [ 139.502876640000011, 36.203486428 ], [ 139.502878489000011, 36.203507036 ], [ 139.502881499000011, 36.203527421 ], [ 139.502886404, 36.203558524 ], [ 139.502891522999988, 36.203590601 ], [ 139.502904717, 36.203664033 ], [ 139.502927744, 36.203793474 ], [ 139.50295749, 36.203968701 ], [ 139.50297556000001, 36.204081571 ], [ 139.50299160899999, 36.204173296 ], [ 139.503003874, 36.204243397 ], [ 139.503017183, 36.204319706 ], [ 139.49971395599999, 36.20467842 ], [ 139.498829126, 36.204774493 ], [ 139.49870674499999, 36.204060523 ], [ 139.49848720599999, 36.204148517 ], [ 139.495985635000011, 36.203932445 ], [ 139.495823285, 36.205232005 ], [ 139.49581761499999, 36.205280707 ], [ 139.495792744, 36.205542714 ], [ 139.495808589, 36.205805201 ], [ 139.49581160299999, 36.205842939 ], [ 139.495874281999988, 36.206568273 ], [ 139.495910063999986, 36.206595311 ], [ 139.495664849, 36.206612093 ], [ 139.495528876, 36.206620832 ], [ 139.495451179000014, 36.206625825 ], [ 139.49514467099999, 36.206645524 ], [ 139.495100213, 36.206648381 ], [ 139.494544882000014, 36.206684069 ], [ 139.494479907, 36.206688244 ], [ 139.49424827199999, 36.206703129 ], [ 139.49418443799999, 36.206707231 ], [ 139.493830847, 36.206729952 ], [ 139.493736442999989, 36.206736018 ], [ 139.49342000199999, 36.20675635 ], [ 139.493348578, 36.20676094 ], [ 139.49320546199999, 36.206770135 ], [ 139.49305950499999, 36.206779513 ], [ 139.492927629, 36.206787985 ], [ 139.492692138, 36.206803115 ], [ 139.492112643000013, 36.206840344 ], [ 139.491936143, 36.206849554 ], [ 139.491593755999986, 36.20686742 ], [ 139.491072351000014, 36.206902962 ], [ 139.49090709699999, 36.206522643 ], [ 139.490436646, 36.206154404 ], [ 139.490138648999988, 36.205979759 ], [ 139.489738899, 36.205712696 ], [ 139.489382185000011, 36.205560096 ], [ 139.489345320000012, 36.205550504 ], [ 139.489264585, 36.205537185 ], [ 139.48899799599999, 36.205501042 ], [ 139.488981045, 36.205498734 ], [ 139.488992298, 36.205410749 ], [ 139.48851553599999, 36.205350768 ], [ 139.48765135799999, 36.205257818 ], [ 139.48757113100001, 36.205246031 ], [ 139.48713145100001, 36.205139709 ], [ 139.487052049, 36.205109889 ], [ 139.48631224499999, 36.204934555 ], [ 139.485687415, 36.20478769 ], [ 139.48565837699999, 36.204780863 ], [ 139.485679099, 36.204989948 ], [ 139.485721555, 36.205418177 ], [ 139.485708235, 36.205420121 ], [ 139.485780976, 36.206172664 ], [ 139.48461694, 36.206245868 ], [ 139.484718988999987, 36.207287275 ], [ 139.484722447, 36.207322462 ], [ 139.48341847899999, 36.207406993 ], [ 139.483489478, 36.208181838 ], [ 139.483597198000012, 36.209258122 ], [ 139.483666532, 36.210005518 ], [ 139.483670966, 36.210053315 ] ] ] } },
{ "type": "Feature", "properties": { "A29_001": "10522", "A29_002": "群馬県", "A29_003": "明和町", "A29_004": 4, "A29_005": "第二種中高層住居専用地域", "A29_006": 60, "A29_007": 200, "A29_008": null }, "geometry": { "type": "Polygon", "coordinates": [ [ [ 139.534757641, 36.207012868 ], [ 139.534755913, 36.207076071 ], [ 139.534744120999989, 36.207535454 ], [ 139.534726073, 36.208178021 ], [ 139.534818626, 36.208172551 ], [ 139.53477738699999, 36.208808692 ], [ 139.534762163000011, 36.208993708 ], [ 139.534744367, 36.209015115 ], [ 139.534954553, 36.209510633 ], [ 139.535027133999989, 36.209725744 ], [ 139.535198473, 36.210791331 ], [ 139.536323068, 36.210625987 ], [ 139.538599447, 36.210280359 ], [ 139.538611126, 36.209592403 ], [ 139.538789205, 36.208397115 ], [ 139.538892417999989, 36.208402752 ], [ 139.538922711, 36.207221291 ], [ 139.538947803000013, 36.206332068 ], [ 139.53863746799999, 36.206329114 ], [ 139.53828844099999, 36.20631964 ], [ 139.538277185, 36.206319336 ], [ 139.53765694099999, 36.2063072 ], [ 139.53760954099999, 36.206306523 ], [ 139.536891166, 36.206292298 ], [ 139.536262604, 36.206279448 ], [ 139.536121084, 36.206276216 ], [ 139.535522369, 36.20626519 ], [ 139.535478919000013, 36.206264261 ], [ 139.535279659999986, 36.206260883 ], [ 139.534874237999986, 36.206253276 ], [ 139.53478112799999, 36.206251638 ], [ 139.534760045000013, 36.206924932 ], [ 139.534757641, 36.207012868 ] ] ] } },
{ "type": "Feature", "properties": { "A29_001": "10522", "A29_002": "群馬県", "A29_003": "明和町", "A29_004": 1, "A29_005": "第一種低層住居専用地域", "A29_006": 40, "A29_007": 80, "A29_008": null }, "geometry": { "type": "Polygon", "coordinates": [ [ [ 139.53074347, 36.203161088 ], [ 139.52978126299999, 36.203142847 ], [ 139.529247016, 36.203131618 ], [ 139.528583265, 36.20311475 ], [ 139.527949672, 36.203101756 ], [ 139.52682087, 36.20307994 ], [ 139.52681182, 36.202613676 ], [ 139.526378740000013, 36.202618847 ], [ 139.526334528, 36.20262014 ], [ 139.52647172799999, 36.206404335 ], [ 139.526477953000011, 36.206552403 ], [ 139.526497885, 36.206993914 ], [ 139.526520484, 36.20728571 ], [ 139.526550265999987, 36.207401816 ], [ 139.526721903, 36.207424304 ], [ 139.527049414, 36.207405895 ], [ 139.527132814999987, 36.207401772 ], [ 139.527285549999988, 36.207395779 ], [ 139.527538432999989, 36.207387831 ], [ 139.527603091, 36.207386168 ], [ 139.527922776999986, 36.207384104 ], [ 139.52816956699999, 36.207380172 ], [ 139.528735731000012, 36.207358335 ], [ 139.528832670000014, 36.207352727 ], [ 139.529274202000011, 36.207335118 ], [ 139.529310452, 36.20733516 ], [ 139.529368240999986, 36.207337148 ], [ 139.52944496, 36.207337973 ], [ 139.52958934899999, 36.207328627 ], [ 139.529659095, 36.207320886 ], [ 139.529718882999987, 36.207312488 ], [ 139.530016689, 36.207260037 ], [ 139.53032037700001, 36.207197737 ], [ 139.530395199999987, 36.207181069 ], [ 139.530406050000011, 36.207178652 ], [ 139.530407133000011, 36.207178203 ], [ 139.530387964999989, 36.206897317 ], [ 139.53038697, 36.206872077 ], [ 139.530614441000012, 36.206862893 ], [ 139.530619718, 36.206617252 ], [ 139.530631218, 36.206178548 ], [ 139.530660703, 36.206179068 ], [ 139.53071586499999, 36.20423605 ], [ 139.530717067000012, 36.204193692 ], [ 139.53071912499999, 36.204121212 ], [ 139.53074347, 36.203161088 ] ] ] } },
{ "type": "Feature", "properties": { "A29_001": "10522", "A29_002": "群馬県", "A29_003": "明和町", "A29_004": 5, "A29_005": "第一種住居地域", "A29_006": 60, "A29_007": 200, "A29_008": null }, "geometry": { "type": "Polygon", "coordinates": [ [ [ 139.526769758, 36.209785616 ], [ 139.526763458, 36.208829008 ], [ 139.526705385000014, 36.208526628 ], [ 139.526981787000011, 36.208525306 ], [ 139.527045708, 36.209074905 ], [ 139.527101719, 36.20952634 ], [ 139.527151499000013, 36.209927543 ], [ 139.527782811, 36.209877679 ], [ 139.52784557699999, 36.210452484 ], [ 139.527905855, 36.210932468 ], [ 139.528259745000014, 36.210900433 ], [ 139.528470642, 36.21087909 ], [ 139.528655917, 36.210860258 ], [ 139.52924541499999, 36.210814064 ], [ 139.529358591, 36.210801932 ], [ 139.52968368099999, 36.21077655 ], [ 139.52998264199999, 36.210750687 ], [ 139.529986242, 36.210779381 ], [ 139.530064306000014, 36.210772626 ], [ 139.530719178, 36.210717699 ], [ 139.53061974900001, 36.209876559 ], [ 139.531431564, 36.209809814 ], [ 139.533079848999989, 36.209681606 ], [ 139.534189817, 36.20924157 ], [ 139.53474436799999, 36.209015116 ], [ 139.534762163000011, 36.208993708 ], [ 139.534777388, 36.208808692 ], [ 139.534818626, 36.208172552 ], [ 139.534726073, 36.208178021 ], [ 139.534744120999989, 36.207535454 ], [ 139.534755913, 36.207076072 ], [ 139.534757641, 36.207012869 ], [ 139.534290556, 36.207105969 ], [ 139.53415627199999, 36.207134887 ], [ 139.533991721, 36.207168161 ], [ 139.533437472, 36.207284985 ], [ 139.533386293, 36.207296694 ], [ 139.532989006, 36.207375198 ], [ 139.532909131, 36.207396833 ], [ 139.53287095799999, 36.207406713 ], [ 139.532775023, 36.207429674 ], [ 139.53263586, 36.207461395 ], [ 139.532540329999989, 36.20748042 ], [ 139.53216355399999, 36.207549807 ], [ 139.531792970999987, 36.207620516 ], [ 139.531762286, 36.207629562 ], [ 139.531649256, 36.20766719 ], [ 139.53152518600001, 36.207706251 ], [ 139.531439170999988, 36.207731936 ], [ 139.531399098, 36.207741246 ], [ 139.531292646999987, 36.207761671 ], [ 139.531166875999986, 36.207777095 ], [ 139.53112007199999, 36.207782009 ], [ 139.530913429, 36.20780703 ], [ 139.530851066, 36.207818963 ], [ 139.530613891, 36.207886758 ], [ 139.53054672, 36.20790081 ], [ 139.530492447, 36.207917806 ], [ 139.530453243000011, 36.207864778 ], [ 139.530434904, 36.207774615 ], [ 139.530424385, 36.207696689 ], [ 139.530395199999987, 36.20718107 ], [ 139.530320378, 36.207197737 ], [ 139.530016689, 36.207260037 ], [ 139.529718882999987, 36.207312488 ], [ 139.529659095, 36.207320886 ], [ 139.52958935, 36.207328627 ], [ 139.52944496, 36.207337974 ], [ 139.529368240999986, 36.207337148 ], [ 139.52931045299999, 36.207335161 ], [ 139.529274202000011, 36.207335118 ], [ 139.528832670000014, 36.207352728 ], [ 139.528735731000012, 36.207358336 ], [ 139.52816956699999, 36.207380172 ], [ 139.527922778, 36.207384104 ], [ 139.527603091, 36.207386169 ], [ 139.527538434, 36.207387832 ], [ 139.527285549999988, 36.207395779 ], [ 139.527132814999987, 36.207401773 ], [ 139.527049414, 36.207405896 ], [ 139.526721904, 36.207424305 ], [ 139.526550265999987, 36.207401817 ], [ 139.526520484, 36.207285711 ], [ 139.526497885999987, 36.206993913 ], [ 139.526477953000011, 36.206552403 ], [ 139.52647172799999, 36.206404336 ], [ 139.525989814000013, 36.206417938 ], [ 139.525688566000014, 36.206426438 ], [ 139.525628359, 36.206428771 ], [ 139.524852806000013, 36.206449748 ], [ 139.524854715, 36.206425494 ], [ 139.5242278, 36.206418982 ], [ 139.524159277, 36.206418302 ], [ 139.523944897, 36.206416246 ], [ 139.523901736, 36.206414667 ], [ 139.523846615, 36.206410536 ], [ 139.52337031499999, 36.206363751 ], [ 139.52336666299999, 36.206382262 ], [ 139.523166742, 36.206322656 ], [ 139.523033801, 36.206283528 ], [ 139.52275801, 36.206201426 ], [ 139.522741766, 36.205907366 ], [ 139.52201252399999, 36.205929265 ], [ 139.521964749, 36.206262664 ], [ 139.521937549, 36.206474347 ], [ 139.522013672000014, 36.206783605 ], [ 139.522103936, 36.207081265 ], [ 139.522154035, 36.207255252 ], [ 139.522173401, 36.207332108 ], [ 139.52217826, 36.207402097 ], [ 139.522180673, 36.207490698 ], [ 139.52217881199999, 36.208253109 ], [ 139.52203630299999, 36.208235165 ], [ 139.521941631, 36.208223106 ], [ 139.521837264999988, 36.208209813 ], [ 139.521902071999989, 36.2083794 ], [ 139.521940613, 36.208480257 ], [ 139.521966587, 36.208548225 ], [ 139.522024316999989, 36.208698014 ], [ 139.522224197000014, 36.209222867 ], [ 139.522289828999988, 36.209399615 ], [ 139.522376242, 36.209624918 ], [ 139.522471897, 36.209876605 ], [ 139.522477076, 36.20989038 ], [ 139.523197758, 36.209707534 ], [ 139.523093017, 36.209424892 ], [ 139.523389548000011, 36.209348257 ], [ 139.52360831199999, 36.209291722 ], [ 139.52382625199999, 36.209233421 ], [ 139.523858471000011, 36.209226379 ], [ 139.523935212, 36.20945728 ], [ 139.523973817000012, 36.209569838 ], [ 139.524870217, 36.209430687 ], [ 139.524752637, 36.209209096 ], [ 139.525070296, 36.209141467 ], [ 139.52507060799999, 36.209141395 ], [ 139.52537445499999, 36.209081974 ], [ 139.525481172000013, 36.209377475 ], [ 139.525525232, 36.209534821 ], [ 139.52554758799999, 36.209599966 ], [ 139.52565533, 36.209858777 ], [ 139.525762152999988, 36.210161938 ], [ 139.52576399, 36.210622564 ], [ 139.525770031, 36.210792917 ], [ 139.525766368, 36.210946807 ], [ 139.525768843, 36.211329221 ], [ 139.525769424, 36.211466366 ], [ 139.525769419, 36.211468342 ], [ 139.525127142, 36.211487922 ], [ 139.52512681799999, 36.211585795 ], [ 139.525125236, 36.211633738 ], [ 139.525122329999988, 36.211678741 ], [ 139.525118695, 36.211715392 ], [ 139.525112651, 36.211759411 ], [ 139.525104051999989, 36.211808489 ], [ 139.525087316999986, 36.211891366 ], [ 139.52506934199999, 36.211986924 ], [ 139.525041447, 36.21213825 ], [ 139.5250354, 36.212163745 ], [ 139.52499445399999, 36.212324904 ], [ 139.524977196, 36.212397547 ], [ 139.524945938, 36.212447974 ], [ 139.524996139, 36.21248256 ], [ 139.525036914999987, 36.212508025 ], [ 139.525836133000013, 36.212418307 ], [ 139.52670136099999, 36.212330252 ], [ 139.526632303000014, 36.210793883 ], [ 139.526735933, 36.210257356 ], [ 139.526769758, 36.209785616 ] ], [ [ 139.525965140000011, 36.208315362 ], [ 139.526035479, 36.20739068 ], [ 139.526111312000012, 36.207402424 ], [ 139.52629651699999, 36.207424934 ], [ 139.526292496999986, 36.207500237 ], [ 139.526297583, 36.207587432 ], [ 139.526301748, 36.207648162 ], [ 139.526303541, 36.207717357 ], [ 139.526302367999989, 36.20775358 ], [ 139.526299741, 36.207782108 ], [ 139.52628995500001, 36.207846337 ], [ 139.526225632, 36.208164283 ], [ 139.526188065000014, 36.20836515 ], [ 139.526170339, 36.208440695 ], [ 139.526152604, 36.208503422 ], [ 139.526214554, 36.208601521 ], [ 139.526226165999987, 36.208625325 ], [ 139.52623216, 36.208646454 ], [ 139.526233057000013, 36.208673197 ], [ 139.526228366999987, 36.208716205 ], [ 139.525761253000013, 36.208754904 ], [ 139.525273467, 36.208863353 ], [ 139.525143465000014, 36.208493776 ], [ 139.525141743, 36.208473622 ], [ 139.52546516000001, 36.208377387 ], [ 139.525619393999989, 36.208336682 ], [ 139.525796754999988, 36.208321652 ], [ 139.525965140000011, 36.208315362 ] ] ] } },
{ "type": "Feature", "properties": { "A29_001": "10522", "A29_002": "群馬県", "A29_003": "明和町", "A29_004": 11, "A29_005": "工業地域", "A29_006": 60, "A29_007": 200, "A29_008": null }, "geometry": { "type": "Polygon", "coordinates": [ [ [ 139.52698178599999, 36.208525305 ], [ 139.526705385000014, 36.208526627 ], [ 139.526763458, 36.208829007 ], [ 139.526769757000011, 36.209785615 ], [ 139.526735933, 36.210257356 ], [ 139.526632302, 36.210793882 ], [ 139.52670136099999, 36.212330252 ], [ 139.52672849699999, 36.212933939 ], [ 139.527261634000013, 36.212961324 ], [ 139.52850408399999, 36.213023992 ], [ 139.529019204, 36.213049227 ], [ 139.528812656000014, 36.212334286 ], [ 139.528785066000012, 36.212230563 ], [ 139.530136873, 36.211980028 ], [ 139.529986240999989, 36.21077938 ], [ 139.529982641, 36.210750686 ], [ 139.52968368, 36.210776551 ], [ 139.529358591, 36.21080193 ], [ 139.52924541499999, 36.210814063 ], [ 139.528655917, 36.210860258 ], [ 139.528470642, 36.210879089 ], [ 139.528259744, 36.210900433 ], [ 139.527905855, 36.210932467 ], [ 139.527845576, 36.210452483 ], [ 139.527782811, 36.209877679 ], [ 139.527151499000013, 36.209927543 ], [ 139.527101719, 36.209526339 ], [ 139.527045707000013, 36.209074904 ], [ 139.52698178599999, 36.208525305 ] ] ] } },
{ "type": "Feature", "properties": { "A29_001": "10522", "A29_002": "群馬県", "A29_003": "明和町", "A29_004": 10, "A29_005": "準工業地域", "A29_006": 60, "A29_007": 200, "A29_008": null }, "geometry": { "type": "Polygon", "coordinates": [ [ [ 139.50328879, 36.211198952 ], [ 139.50325686299999, 36.211244757 ], [ 139.503228801, 36.211291952 ], [ 139.503211701999987, 36.211330329 ], [ 139.503203023999987, 36.211367347 ], [ 139.503200013, 36.211394413 ], [ 139.50319879599999, 36.21142315 ], [ 139.503199067, 36.211450054 ], [ 139.503203015, 36.21148422 ], [ 139.503210145999986, 36.211517122 ], [ 139.503217634, 36.211544978 ], [ 139.50324006299999, 36.211589287 ], [ 139.503296530999989, 36.211669225 ], [ 139.504074898, 36.21256116 ], [ 139.504216785000011, 36.212502102 ], [ 139.504473542, 36.212394409 ], [ 139.504516489, 36.212389686 ], [ 139.504653944000012, 36.212376274 ], [ 139.504701837999988, 36.212368976 ], [ 139.50477007, 36.212361936 ], [ 139.50502967700001, 36.212335266 ], [ 139.50505555399999, 36.212332504 ], [ 139.505163614999987, 36.212320973 ], [ 139.505196743999988, 36.212317438 ], [ 139.50582873799999, 36.212245944 ], [ 139.50584844799999, 36.212243713 ], [ 139.505874232, 36.212240795 ], [ 139.506260792, 36.212197039 ], [ 139.50656258699999, 36.212162951 ], [ 139.506643489, 36.212154067 ], [ 139.50673607499999, 36.212696944 ], [ 139.506745451, 36.212774819 ], [ 139.50679310699999, 36.213044556 ], [ 139.506802096, 36.213095436 ], [ 139.50680635099999, 36.213119523 ], [ 139.506831287000011, 36.213273725 ], [ 139.50705062599999, 36.213229677 ], [ 139.507512442, 36.213136407 ], [ 139.507547233999986, 36.21312938 ], [ 139.507636553, 36.213111341 ], [ 139.507738585, 36.21308968 ], [ 139.50777858399999, 36.213079481 ], [ 139.507889075, 36.21304908 ], [ 139.507918302, 36.213040751 ], [ 139.507998501, 36.213016152 ], [ 139.508067726, 36.21299342 ], [ 139.50814569100001, 36.212967319 ], [ 139.508200139, 36.212946865 ], [ 139.508247229, 36.212928082 ], [ 139.5082614, 36.212921574 ], [ 139.508370721, 36.212874742 ], [ 139.508764439, 36.212706234 ], [ 139.508875753000012, 36.212658574 ], [ 139.50882241299999, 36.21250314 ], [ 139.5088189, 36.212494589 ], [ 139.508815341, 36.21248605 ], [ 139.508811734, 36.212477524 ], [ 139.50880808, 36.212469012 ], [ 139.50880437699999, 36.212460513 ], [ 139.50880062600001, 36.212452028 ], [ 139.50879682499999, 36.212443558 ], [ 139.508792975, 36.212435103 ], [ 139.508789073, 36.212426663 ], [ 139.508785120999988, 36.212418238 ], [ 139.508781117000012, 36.21240983 ], [ 139.508777060999989, 36.212401437 ], [ 139.508772953, 36.212393062 ], [ 139.50876879099999, 36.212384704 ], [ 139.508764574999987, 36.212376364 ], [ 139.50876030500001, 36.212368042 ], [ 139.508755979999989, 36.212359738 ], [ 139.508751600000011, 36.212351454 ], [ 139.508747164, 36.212343189 ], [ 139.508742672000011, 36.212334944 ], [ 139.508738123, 36.21232672 ], [ 139.508733517, 36.212318516 ], [ 139.508728854, 36.212310334 ], [ 139.508724131, 36.212302174 ], [ 139.508719353, 36.212294035 ], [ 139.508712895, 36.212283237 ], [ 139.50868739500001, 36.212242581 ], [ 139.508656061000011, 36.212196409 ], [ 139.508622757000012, 36.21215115 ], [ 139.508587525, 36.212106862 ], [ 139.508550407, 36.212063596 ], [ 139.508511448, 36.212021407 ], [ 139.508470695999989, 36.211980345 ], [ 139.508428200999987, 36.211940461 ], [ 139.508384014, 36.211901803 ], [ 139.508338189, 36.211864418 ], [ 139.508290781999989, 36.211828352 ], [ 139.508241851, 36.211793649 ], [ 139.508191455, 36.21176035 ], [ 139.508139655, 36.211728497 ], [ 139.50808651599999, 36.211698128 ], [ 139.508032101, 36.211669281 ], [ 139.507976477, 36.21164199 ], [ 139.507919711999989, 36.211616289 ], [ 139.507861874000014, 36.211592209 ], [ 139.50780303499999, 36.21156978 ], [ 139.507743266, 36.211549028 ], [ 139.507682639, 36.211529979 ], [ 139.50762122899999, 36.211512656 ], [ 139.507559109999988, 36.21149708 ], [ 139.507496358999987, 36.211483271 ], [ 139.50743305099999, 36.211471245 ], [ 139.507369264, 36.211461017 ], [ 139.507317083, 36.211454032 ], [ 139.507304876, 36.211452574 ], [ 139.507293863, 36.211451318 ], [ 139.507282841, 36.211450112 ], [ 139.50727181100001, 36.211448959 ], [ 139.507260773000013, 36.211447856 ], [ 139.507249726999987, 36.211446804 ], [ 139.507238674, 36.211445803 ], [ 139.507227615, 36.211444851 ], [ 139.50721654899999, 36.211443948 ], [ 139.507205477000014, 36.211443093 ], [ 139.5071944, 36.211442287 ], [ 139.507183317999989, 36.211441528 ], [ 139.507172231, 36.211440816 ], [ 139.50716114, 36.21144015 ], [ 139.507150044000014, 36.211439531 ], [ 139.507138945, 36.211438957 ], [ 139.507127843, 36.211438427 ], [ 139.50711673699999, 36.211437942 ], [ 139.50710562899999, 36.211437501 ], [ 139.507094518, 36.211437103 ], [ 139.507083405, 36.211436747 ], [ 139.50707229, 36.211436434 ], [ 139.507061173000011, 36.211436162 ], [ 139.507050055, 36.211435931 ], [ 139.507038935999987, 36.211435741 ], [ 139.507027814999987, 36.21143559 ], [ 139.507016695, 36.211435479 ], [ 139.507005572999986, 36.211435406 ], [ 139.506994451999986, 36.211435372 ], [ 139.50698333, 36.211435375 ], [ 139.506972208, 36.211435415 ], [ 139.506961087, 36.211435492 ], [ 139.506949966, 36.211435604 ], [ 139.506938846, 36.211435752 ], [ 139.506927725999986, 36.211435935 ], [ 139.506916608000012, 36.211436151 ], [ 139.50690549, 36.211436401 ], [ 139.506894374000012, 36.211436685 ], [ 139.506883259, 36.211437 ], [ 139.506872146, 36.211437348 ], [ 139.506861034, 36.211437727 ], [ 139.50684992399999, 36.211438136 ], [ 139.506838815, 36.211438576 ], [ 139.506827708, 36.211439045 ], [ 139.50681660399999, 36.211439542 ], [ 139.506805501, 36.211440069 ], [ 139.5067944, 36.211440623 ], [ 139.506783302, 36.211441204 ], [ 139.506772205, 36.211441812 ], [ 139.506761111, 36.211442445 ], [ 139.506750019, 36.211443104 ], [ 139.50673892899999, 36.211443788 ], [ 139.506727842, 36.211444496 ], [ 139.50671675699999, 36.211445228 ], [ 139.506705673999988, 36.211445983 ], [ 139.50669459400001, 36.21144676 ], [ 139.50668351600001, 36.211447559 ], [ 139.506672441, 36.211448379 ], [ 139.50666136699999, 36.21144922 ], [ 139.506650296, 36.211450081 ], [ 139.506639228000012, 36.211450961 ], [ 139.506628162, 36.211451861 ], [ 139.50661709799999, 36.211452778 ], [ 139.50660603599999, 36.211453713 ], [ 139.506594976, 36.211454665 ], [ 139.506583919, 36.211455634 ], [ 139.50657286399999, 36.211456618 ], [ 139.506561811000012, 36.211457618 ], [ 139.50655076000001, 36.211458633 ], [ 139.506539710999988, 36.211459661 ], [ 139.506528664, 36.211460703 ], [ 139.506517618, 36.211461758 ], [ 139.506506575, 36.211462825 ], [ 139.50649553299999, 36.211463903 ], [ 139.506484492999988, 36.211464993 ], [ 139.506473454, 36.211466093 ], [ 139.50646241699999, 36.211467203 ], [ 139.506451381, 36.211468322 ], [ 139.50644034699999, 36.21146945 ], [ 139.506429314, 36.211470585 ], [ 139.506418282, 36.211471728 ], [ 139.506407251000013, 36.211472878 ], [ 139.506396220999989, 36.211474034 ], [ 139.50638519200001, 36.211475196 ], [ 139.50637416399999, 36.211476362 ], [ 139.50636313699999, 36.211477533 ], [ 139.50635211, 36.211478707 ], [ 139.506341083, 36.211479885 ], [ 139.506330057000014, 36.211481065 ], [ 139.50631903199999, 36.211482247 ], [ 139.506308006000012, 36.21148343 ], [ 139.50629698099999, 36.211484614 ], [ 139.504798528, 36.211645502 ], [ 139.504787502999989, 36.211646685 ], [ 139.504776477, 36.211647865 ], [ 139.50476545, 36.211649038 ], [ 139.504754421, 36.211650202 ], [ 139.504743389999987, 36.211651352 ], [ 139.50473235699999, 36.211652487 ], [ 139.504721321, 36.211653603 ], [ 139.504710281, 36.211654697 ], [ 139.504699238, 36.211655768 ], [ 139.504688191000014, 36.211656812 ], [ 139.504677140000013, 36.211657826 ], [ 139.504666085, 36.211658809 ], [ 139.504655025, 36.211659758 ], [ 139.50464396000001, 36.211660671 ], [ 139.504632891, 36.211661547 ], [ 139.504621816999986, 36.211662382 ], [ 139.504610738999986, 36.211663176 ], [ 139.504599656000011, 36.211663927 ], [ 139.504588568, 36.211664632 ], [ 139.504577476, 36.211665292 ], [ 139.50456638, 36.211665904 ], [ 139.50455528, 36.211666468 ], [ 139.504544177000014, 36.211666982 ], [ 139.50453306899999, 36.211667445 ], [ 139.504521958999987, 36.211667858 ], [ 139.504510847, 36.211668218 ], [ 139.50449973100001, 36.211668526 ], [ 139.504488614, 36.211668782 ], [ 139.504477495, 36.211668985 ], [ 139.50446637499999, 36.211669135 ], [ 139.50445525399999, 36.211669232 ], [ 139.504444132, 36.211669277 ], [ 139.504433010000014, 36.21166927 ], [ 139.504421889000014, 36.211669212 ], [ 139.504410768000014, 36.211669103 ], [ 139.504399648, 36.211668944 ], [ 139.504388529000011, 36.211668737 ], [ 139.504377412, 36.211668482 ], [ 139.504360620999989, 36.21166801 ], [ 139.50431736499999, 36.211666051 ], [ 139.504274065, 36.211662861 ], [ 139.504230928, 36.211658449 ], [ 139.504188008, 36.211652819 ], [ 139.504145357, 36.211645978 ], [ 139.504103026, 36.211637936 ], [ 139.504061067, 36.211628701 ], [ 139.504019531000012, 36.211618285 ], [ 139.50397847, 36.211606701 ], [ 139.503937932000014, 36.211593962 ], [ 139.503897967, 36.211580085 ], [ 139.50385862499999, 36.211565086 ], [ 139.503819951999986, 36.211548983 ], [ 139.503781997, 36.211531797 ], [ 139.503744804, 36.211513547 ], [ 139.503708421, 36.211494257 ], [ 139.503694204999988, 36.211486343 ], [ 139.503685079, 36.211481191 ], [ 139.503675987, 36.211476 ], [ 139.50366693, 36.21147077 ], [ 139.503657908, 36.211465499 ], [ 139.503648922999986, 36.211460188 ], [ 139.503639974, 36.211454835 ], [ 139.503631065, 36.211449441 ], [ 139.503622193000012, 36.211444006 ], [ 139.50361336099999, 36.211438528 ], [ 139.503604569, 36.211433008 ], [ 139.50359581699999, 36.211427447 ], [ 139.503587105, 36.211421845 ], [ 139.503578433, 36.211416201 ], [ 139.503569801999987, 36.211410517 ], [ 139.503561211, 36.211404793 ], [ 139.50355266, 36.211399031 ], [ 139.50354414899999, 36.211393229 ], [ 139.503535676000013, 36.211387391 ], [ 139.50352724199999, 36.211381515 ], [ 139.50351884599999, 36.211375605 ], [ 139.503510487, 36.21136966 ], [ 139.503502163, 36.211363682 ], [ 139.503493873999986, 36.211357673 ], [ 139.503485619, 36.211351633 ], [ 139.50347739599999, 36.211345565 ], [ 139.503469203, 36.21133947 ], [ 139.503461039, 36.211333349 ], [ 139.50345290300001, 36.211327204 ], [ 139.50344479200001, 36.211321038 ], [ 139.503436705000013, 36.211314851 ], [ 139.50342863899999, 36.211308646 ], [ 139.50328879, 36.211198952 ] ] ] } }
]
}
