{
"type": "FeatureCollection",
"name": "A29-19_10384",
"features": [
{ "type": "Feature", "properties": { "A29_001": "10384", "A29_002": "群馬県", "A29_003": "甘楽町", "A29_004": 5, "A29_005": "第一種住居地域", "A29_006": 60, "A29_007": 200, "A29_008": null }, "geometry": { "type": "MultiPolygon", "coordinates": [ [ [ [ 138.920500771, 36.256514634 ], [ 138.920500537, 36.256513036 ], [ 138.920499365000012, 36.256513047 ], [ 138.920500771, 36.256514634 ] ] ], [ [ [ 138.933171463, 36.259298829 ], [ 138.933081026, 36.259051754 ], [ 138.933055892, 36.258910037 ], [ 138.933123943999988, 36.258624402 ], [ 138.933605996000011, 36.258718806 ], [ 138.933605629999988, 36.258714329 ], [ 138.93360361500001, 36.258689655 ], [ 138.933602562, 36.258675297 ], [ 138.933584652, 36.258431081 ], [ 138.933581664, 36.258345168 ], [ 138.933581032, 36.258333333 ], [ 138.933578684, 36.258289429 ], [ 138.93356521199999, 36.258037469 ], [ 138.933560688, 36.257950724 ], [ 138.93354203199999, 36.257592954 ], [ 138.933333333, 36.257572129 ], [ 138.93332441699999, 36.257571239 ], [ 138.933147851, 36.25755543 ], [ 138.93274174699999, 36.257292924 ], [ 138.93282059500001, 36.25713965 ], [ 138.93278229, 36.25709531 ], [ 138.93252224599999, 36.256921663 ], [ 138.93233737599999, 36.256867811 ], [ 138.932350275, 36.256770141 ], [ 138.932245168, 36.256693043 ], [ 138.93196303900001, 36.256647995 ], [ 138.931904586, 36.256354153 ], [ 138.931773615999987, 36.256259331 ], [ 138.931236778, 36.256273616 ], [ 138.931178171, 36.256273616 ], [ 138.930645532999989, 36.256283897 ], [ 138.930244304000013, 36.2562912 ], [ 138.930015889, 36.256279029 ], [ 138.929927104, 36.256270185 ], [ 138.929847583999987, 36.256252254 ], [ 138.929733376, 36.256215553 ], [ 138.92970596399999, 36.256207085 ], [ 138.92968495400001, 36.256200594 ], [ 138.929640231, 36.256186777 ], [ 138.929079796, 36.256185712 ], [ 138.928811886, 36.256184935 ], [ 138.92880925599999, 36.256130333 ], [ 138.928777966000013, 36.256026776 ], [ 138.92873872199999, 36.255918639 ], [ 138.928725861, 36.25578625 ], [ 138.928717083, 36.255687972 ], [ 138.92870860299999, 36.255617621 ], [ 138.928694194, 36.2555085 ], [ 138.92866780599999, 36.255438694 ], [ 138.92861, 36.255323824 ], [ 138.92854492399999, 36.255226609 ], [ 138.928478753, 36.255122171 ], [ 138.928434549, 36.255027594 ], [ 138.928395451, 36.25493905 ], [ 138.928381006, 36.254906335 ], [ 138.92829924599999, 36.25470075 ], [ 138.92735627799999, 36.254971778 ], [ 138.92621175799999, 36.255294699 ], [ 138.925489857, 36.255471641 ], [ 138.925215616, 36.255508904 ], [ 138.92503452299999, 36.255511106 ], [ 138.92452159199999, 36.255471143 ], [ 138.924154015, 36.255432582 ], [ 138.923896836000011, 36.255394858 ], [ 138.923507871999988, 36.255296517 ], [ 138.92321444699999, 36.255210825 ], [ 138.922994136999989, 36.255167419 ], [ 138.922729253999989, 36.255159441 ], [ 138.922213860999989, 36.255173401 ], [ 138.922315614000013, 36.256496072 ], [ 138.926230112000013, 36.256459394 ], [ 138.92627335099999, 36.256486119 ], [ 138.92650293299999, 36.25672633 ], [ 138.928910358, 36.256688387 ], [ 138.93134719299999, 36.256672307 ], [ 138.93143280000001, 36.256925371 ], [ 138.93146955, 36.257034008 ], [ 138.9315498, 36.257254643 ], [ 138.931577796, 36.25733161 ], [ 138.93161570699999, 36.257389671 ], [ 138.93163999, 36.257409338 ], [ 138.931672773, 36.257419171 ], [ 138.931879708999986, 36.257453379 ], [ 138.931927062, 36.257475013 ], [ 138.93194406, 36.257499597 ], [ 138.93194770299999, 36.257538931 ], [ 138.931939203000013, 36.257608749 ], [ 138.931877375999989, 36.257929189 ], [ 138.931806848, 36.257911172 ], [ 138.93180275099999, 36.257926352 ], [ 138.931746245, 36.258135694 ], [ 138.931720747000014, 36.258264514 ], [ 138.931728032, 36.258296965 ], [ 138.931723177, 36.258333341 ], [ 138.93170440099999, 36.258437741 ], [ 138.931701162, 36.25850156 ], [ 138.931718432999986, 36.258566253 ], [ 138.931751119000012, 36.258673614 ], [ 138.93184906499999, 36.25883522 ], [ 138.93205399199999, 36.259065683 ], [ 138.930994209, 36.259050538 ], [ 138.930491719, 36.258964479 ], [ 138.929994265, 36.258824803 ], [ 138.929457109, 36.258681248 ], [ 138.92877872299999, 36.258529468 ], [ 138.92836637799999, 36.25839011 ], [ 138.928350214, 36.258545988 ], [ 138.928347003999988, 36.258697972 ], [ 138.92835468199999, 36.258790215 ], [ 138.928362064, 36.258831396 ], [ 138.929082228999988, 36.258655197 ], [ 138.92917659299999, 36.258642557 ], [ 138.929329244, 36.258681864 ], [ 138.929375755, 36.258733722 ], [ 138.929395832000012, 36.258831164 ], [ 138.929444456999988, 36.258904022 ], [ 138.929547495, 36.258956307 ], [ 138.92970496699999, 36.258986112 ], [ 138.929846743000013, 36.258947122 ], [ 138.92998352399999, 36.258932894 ], [ 138.930119514000012, 36.258987335 ], [ 138.930213020999986, 36.259049086 ], [ 138.930335230999987, 36.259072901 ], [ 138.930441174, 36.259077516 ], [ 138.930488257, 36.259079779 ], [ 138.930645357, 36.25914201 ], [ 138.930794996, 36.259238522 ], [ 138.931218468999987, 36.259487803 ], [ 138.93167026399999, 36.259527455 ], [ 138.931794305000011, 36.259597066 ], [ 138.931787883999988, 36.259745814 ], [ 138.932330497, 36.260081835 ], [ 138.932483327999989, 36.260105878 ], [ 138.932760957, 36.260338794 ], [ 138.93333295299999, 36.260167596 ], [ 138.93361938699999, 36.260043846 ], [ 138.93361337799999, 36.259746207 ], [ 138.933398946000011, 36.259548105 ], [ 138.933240823, 36.259369504 ], [ 138.933171463, 36.259298829 ] ] ] ] } },
{ "type": "Feature", "properties": { "A29_001": "10384", "A29_002": "群馬県", "A29_003": "甘楽町", "A29_004": 3, "A29_005": "第一種中高層住居専用地域", "A29_006": 60, "A29_007": 200, "A29_008": null }, "geometry": { "type": "Polygon", "coordinates": [ [ [ 138.93180275099999, 36.257926352 ], [ 138.931806848, 36.257911172 ], [ 138.931877375999989, 36.257929189 ], [ 138.931939203000013, 36.257608749 ], [ 138.93194770299999, 36.257538931 ], [ 138.93194406, 36.257499597 ], [ 138.931927062, 36.257475013 ], [ 138.931879708999986, 36.257453379 ], [ 138.931672773, 36.257419171 ], [ 138.93163999, 36.257409338 ], [ 138.93161570699999, 36.257389671 ], [ 138.931577796, 36.25733161 ], [ 138.93146955, 36.257034008 ], [ 138.93143280000001, 36.256925371 ], [ 138.93134719299999, 36.256672307 ], [ 138.928910358, 36.256688387 ], [ 138.92650293299999, 36.25672633 ], [ 138.926512822, 36.256736677 ], [ 138.92669688399999, 36.257114834 ], [ 138.92672835799999, 36.257193763 ], [ 138.926640502, 36.257407708 ], [ 138.926579363, 36.257602779 ], [ 138.926577764, 36.257741071 ], [ 138.92662751, 36.257767679 ], [ 138.926755582999988, 36.257803278 ], [ 138.926809573000014, 36.257885914 ], [ 138.926827027, 36.257918514 ], [ 138.927105705, 36.257916761 ], [ 138.927447652000012, 36.257881198 ], [ 138.927787673000012, 36.257859451 ], [ 138.927871074, 36.257878205 ], [ 138.928090319, 36.257963801 ], [ 138.928275226000011, 36.258065352 ], [ 138.928393604, 36.258114893 ], [ 138.928406558, 36.258114991 ], [ 138.928405649000013, 36.258135135 ], [ 138.928397, 36.258208917 ], [ 138.92838301399999, 36.258300977 ], [ 138.928377944, 36.258332806 ], [ 138.928377837999989, 36.258333333 ], [ 138.92836637799999, 36.25839011 ], [ 138.92877872299999, 36.258529468 ], [ 138.929457109, 36.258681248 ], [ 138.929994265, 36.258824803 ], [ 138.930491719, 36.258964479 ], [ 138.930994209, 36.259050538 ], [ 138.93205399199999, 36.259065683 ], [ 138.93184906499999, 36.25883522 ], [ 138.931751119000012, 36.258673614 ], [ 138.931718432999986, 36.258566253 ], [ 138.931701162, 36.25850156 ], [ 138.93170440099999, 36.258437741 ], [ 138.931723177, 36.258333341 ], [ 138.931728032, 36.258296965 ], [ 138.931720747000014, 36.258264514 ], [ 138.931746245, 36.258135694 ], [ 138.93180275099999, 36.257926352 ] ] ] } },
{ "type": "Feature", "properties": { "A29_001": "10384", "A29_002": "群馬県", "A29_003": "甘楽町", "A29_004": 10, "A29_005": "準工業地域", "A29_006": 60, "A29_007": 200, "A29_008": null }, "geometry": { "type": "Polygon", "coordinates": [ [ [ 138.933511192, 36.256342459 ], [ 138.933505629, 36.256180229 ], [ 138.933337693999988, 36.256133111 ], [ 138.933333333, 36.256131417 ], [ 138.933017497, 36.25600356 ], [ 138.93305457400001, 36.255561004 ], [ 138.93294165899999, 36.25545881 ], [ 138.932906878000011, 36.255282686 ], [ 138.932524167, 36.255279805 ], [ 138.93242645699999, 36.254587914 ], [ 138.93182995399999, 36.254579342 ], [ 138.931185527, 36.254549445 ], [ 138.93095602599999, 36.254536983 ], [ 138.930391455, 36.254475493 ], [ 138.930029356, 36.254472759 ], [ 138.929525043000012, 36.25454764 ], [ 138.929549189999989, 36.254751703 ], [ 138.929623197000012, 36.255227983 ], [ 138.929658038000014, 36.255653891 ], [ 138.929688578999986, 36.255686314 ], [ 138.929718872, 36.255740195 ], [ 138.929709339999988, 36.25580093 ], [ 138.929668979000013, 36.255854277 ], [ 138.92968495400001, 36.256200594 ], [ 138.92970596399999, 36.256207085 ], [ 138.929733376, 36.256215553 ], [ 138.929847583999987, 36.256252254 ], [ 138.929927104, 36.256270185 ], [ 138.930015889, 36.256279029 ], [ 138.930244304000013, 36.2562912 ], [ 138.930645532999989, 36.256283897 ], [ 138.931178171, 36.256273616 ], [ 138.931236778, 36.256273616 ], [ 138.931773615999987, 36.256259331 ], [ 138.931904586, 36.256354153 ], [ 138.933511192, 36.256342459 ] ] ] } },
{ "type": "Feature", "properties": { "A29_001": "10384", "A29_002": "群馬県", "A29_003": "甘楽町", "A29_004": 8, "A29_005": "近隣商業地域", "A29_006": 80, "A29_007": 200, "A29_008": null }, "geometry": { "type": "Polygon", "coordinates": [ [ [ 138.92968495400001, 36.256200594 ], [ 138.929668979000013, 36.255854277 ], [ 138.929709339999988, 36.25580093 ], [ 138.929718872, 36.255740195 ], [ 138.929688578999986, 36.255686314 ], [ 138.929658038000014, 36.255653891 ], [ 138.929623197000012, 36.255227983 ], [ 138.929549189999989, 36.254751703 ], [ 138.929525043000012, 36.25454764 ], [ 138.930029356, 36.254472759 ], [ 138.930391455, 36.254475493 ], [ 138.93095602599999, 36.254536983 ], [ 138.931185527, 36.254549445 ], [ 138.93182995399999, 36.254579342 ], [ 138.93242645699999, 36.254587914 ], [ 138.93239143, 36.254339882 ], [ 138.932734974, 36.254330427 ], [ 138.932725815999987, 36.254247862 ], [ 138.93270773899999, 36.254139885 ], [ 138.932695196999987, 36.254058621 ], [ 138.932671927, 36.253940417 ], [ 138.932198985000014, 36.253925125 ], [ 138.93169852599999, 36.253921353 ], [ 138.930981298, 36.253886138 ], [ 138.930598972000013, 36.253850465 ], [ 138.929892407000011, 36.253848111 ], [ 138.92921786299999, 36.253941378 ], [ 138.928325518, 36.254092607 ], [ 138.92725585299999, 36.254315749 ], [ 138.92726292, 36.254433089 ], [ 138.927284410999988, 36.254554015 ], [ 138.92731314400001, 36.254642098 ], [ 138.927332435000011, 36.25468123 ], [ 138.927251218, 36.254701485 ], [ 138.92735627799999, 36.254971778 ], [ 138.92829924599999, 36.25470075 ], [ 138.928381006, 36.254906335 ], [ 138.928395451, 36.25493905 ], [ 138.928434549, 36.255027594 ], [ 138.928478753, 36.255122171 ], [ 138.92854492399999, 36.255226609 ], [ 138.92861, 36.255323824 ], [ 138.92866780599999, 36.255438694 ], [ 138.928694194, 36.2555085 ], [ 138.92870860299999, 36.255617621 ], [ 138.928717083, 36.255687972 ], [ 138.928725861, 36.25578625 ], [ 138.92873872199999, 36.255918639 ], [ 138.928777966000013, 36.256026776 ], [ 138.92880925599999, 36.256130333 ], [ 138.928811886, 36.256184935 ], [ 138.929079796, 36.256185712 ], [ 138.929640231, 36.256186777 ], [ 138.92968495400001, 36.256200594 ] ] ] } },
{ "type": "Feature", "properties": { "A29_001": "10384", "A29_002": "群馬県", "A29_003": "甘楽町", "A29_004": 10, "A29_005": "準工業地域", "A29_006": 60, "A29_007": 200, "A29_008": null }, "geometry": { "type": "Polygon", "coordinates": [ [ [ 138.922213860999989, 36.255173401 ], [ 138.922729253999989, 36.255159441 ], [ 138.922994136999989, 36.255167419 ], [ 138.92321444699999, 36.255210825 ], [ 138.923507871999988, 36.255296517 ], [ 138.923896836000011, 36.255394858 ], [ 138.924154015, 36.255432582 ], [ 138.92452159199999, 36.255471143 ], [ 138.92503452299999, 36.255511106 ], [ 138.925215616, 36.255508904 ], [ 138.925489857, 36.255471641 ], [ 138.92621175799999, 36.255294699 ], [ 138.92735627799999, 36.254971778 ], [ 138.927251218, 36.254701485 ], [ 138.927332435000011, 36.25468123 ], [ 138.92731314400001, 36.254642098 ], [ 138.927284410999988, 36.254554015 ], [ 138.92726292, 36.254433089 ], [ 138.92725585299999, 36.254315749 ], [ 138.927253871, 36.254282847 ], [ 138.927249346999986, 36.254240706 ], [ 138.927259526, 36.254219636 ], [ 138.927271969, 36.254174746 ], [ 138.92729289799999, 36.253995243 ], [ 138.92730628699999, 36.253817609 ], [ 138.927310811000012, 36.253735159 ], [ 138.92731522, 36.253680411 ], [ 138.927322006, 36.253611703 ], [ 138.927342366, 36.253546659 ], [ 138.927367326, 36.253469236 ], [ 138.927382029, 36.253417936 ], [ 138.926882713, 36.253286054 ], [ 138.926870071, 36.253282714 ], [ 138.926636046, 36.253198504 ], [ 138.926359875, 36.253148719 ], [ 138.926071709000013, 36.253117919 ], [ 138.925281610000013, 36.252972454 ], [ 138.925282786, 36.25298931 ], [ 138.925284014999988, 36.253131315 ], [ 138.92530822099999, 36.253552312 ], [ 138.925316728000013, 36.25362572 ], [ 138.925349694, 36.25387925 ], [ 138.925354999, 36.253906719 ], [ 138.925386417, 36.254093667 ], [ 138.92541563899999, 36.254246898 ], [ 138.925412905, 36.254384018 ], [ 138.925410951, 36.254474278 ], [ 138.92507449199999, 36.254490263 ], [ 138.925, 36.254482167 ], [ 138.92483324299999, 36.254463328 ], [ 138.924815889, 36.254659917 ], [ 138.924819894, 36.254768075 ], [ 138.924826625, 36.25494985 ], [ 138.924829698999986, 36.25503505 ], [ 138.924818644, 36.255066064 ], [ 138.92477985, 36.255133589 ], [ 138.924735711000011, 36.255092143 ], [ 138.924649554000013, 36.254972882 ], [ 138.924613525000012, 36.254924671 ], [ 138.924485073999989, 36.254847278 ], [ 138.924422416, 36.254811754 ], [ 138.924409884, 36.254793992 ], [ 138.924140032, 36.254672296 ], [ 138.924071313000013, 36.254504854 ], [ 138.923900788, 36.254484481 ], [ 138.923764513, 36.25439501 ], [ 138.923786643999989, 36.254388239 ], [ 138.923854518000013, 36.254365235 ], [ 138.923915443999988, 36.254352778 ], [ 138.924015056, 36.254347361 ], [ 138.924118666999988, 36.254339139 ], [ 138.924149124, 36.254330698 ], [ 138.924169717000012, 36.254321802 ], [ 138.924182072, 36.254309571 ], [ 138.924191681999986, 36.254292337 ], [ 138.924212065, 36.254252636 ], [ 138.924275556, 36.254137444 ], [ 138.92429669399999, 36.254109056 ], [ 138.923486958000012, 36.25411888 ], [ 138.923388082, 36.254013207 ], [ 138.92315227, 36.254012518 ], [ 138.923145865, 36.254071466 ], [ 138.92314500099999, 36.254179697 ], [ 138.922939703, 36.25412497 ], [ 138.922810859, 36.254099323 ], [ 138.922743083, 36.254079583 ], [ 138.922633466, 36.254042867 ], [ 138.922593887, 36.254028978 ], [ 138.922537414, 36.254021756 ], [ 138.92239125, 36.254007278 ], [ 138.92224019299999, 36.253988054 ], [ 138.92208266599999, 36.25397361 ], [ 138.921992014000011, 36.253974814 ], [ 138.92194, 36.253978425 ], [ 138.921847750000012, 36.253981387 ], [ 138.92170222199999, 36.253976665 ], [ 138.921548957, 36.253966202 ], [ 138.921431555, 36.253958981 ], [ 138.921318815, 36.25395764 ], [ 138.921205629000013, 36.253960829 ], [ 138.921205656000012, 36.253714934 ], [ 138.921204046000014, 36.253602846 ], [ 138.921214104, 36.253483848 ], [ 138.921258912000013, 36.253111602 ], [ 138.921343963, 36.253076482 ], [ 138.921335176000014, 36.252882669 ], [ 138.92136287400001, 36.25271596 ], [ 138.921440288000014, 36.252704628 ], [ 138.921484193999987, 36.252409873 ], [ 138.921638839, 36.252086154 ], [ 138.921514628000011, 36.252007709 ], [ 138.92161224099999, 36.251841534 ], [ 138.921897035, 36.251718514 ], [ 138.921916576, 36.2516203 ], [ 138.921855704, 36.251388195 ], [ 138.921556083000013, 36.251549639 ], [ 138.921358964, 36.251631314 ], [ 138.921290332000012, 36.251658955 ], [ 138.921140380999987, 36.251761486 ], [ 138.920988281, 36.251956441 ], [ 138.92092090700001, 36.252018501 ], [ 138.920870291, 36.25202664 ], [ 138.920852956, 36.252091983 ], [ 138.920814455, 36.252232038 ], [ 138.92071382099999, 36.252598521 ], [ 138.920690044999986, 36.252682772 ], [ 138.920672212, 36.252761005 ], [ 138.920664783, 36.252840442 ], [ 138.920651408999987, 36.252987279 ], [ 138.92064663299999, 36.253240137 ], [ 138.920644194, 36.25342575 ], [ 138.920650125, 36.253572177 ], [ 138.920655861, 36.253653667 ], [ 138.920657215, 36.253665559 ], [ 138.920669444, 36.253772972 ], [ 138.920681472000012, 36.253855944 ], [ 138.920712318999989, 36.253993016 ], [ 138.92072545, 36.254054716 ], [ 138.920731429, 36.254096744 ], [ 138.920728724000014, 36.25413415 ], [ 138.920719861, 36.254195111 ], [ 138.920683972, 36.254460889 ], [ 138.920631633, 36.254795001 ], [ 138.92062545499999, 36.254815472 ], [ 138.92060982000001, 36.254867275 ], [ 138.92057898600001, 36.254999158 ], [ 138.920570254000012, 36.255036506 ], [ 138.920567338000012, 36.255118278 ], [ 138.920565111, 36.255180722 ], [ 138.920573166999986, 36.255241111 ], [ 138.920588861, 36.255274722 ], [ 138.920622556000012, 36.255320944 ], [ 138.92068075, 36.255373833 ], [ 138.92072502799999, 36.255448417 ], [ 138.920728889, 36.255535043 ], [ 138.920735955999987, 36.255693562 ], [ 138.920741635000013, 36.255820942 ], [ 138.920502059, 36.256203692 ], [ 138.920463949, 36.256263259 ], [ 138.920500537, 36.256513036 ], [ 138.922315614000013, 36.256496072 ], [ 138.922213860999989, 36.255173401 ] ] ] } },
{ "type": "Feature", "properties": { "A29_001": "10384", "A29_002": "群馬県", "A29_003": "甘楽町", "A29_004": 3, "A29_005": "第一種中高層住居専用地域", "A29_006": 60, "A29_007": 200, "A29_008": null }, "geometry": { "type": "Polygon", "coordinates": [ [ [ 138.924815889, 36.254659917 ], [ 138.92483324299999, 36.254463328 ], [ 138.925, 36.254482167 ], [ 138.92507449199999, 36.254490263 ], [ 138.925410951, 36.254474278 ], [ 138.925412905, 36.254384018 ], [ 138.92541563899999, 36.254246898 ], [ 138.925386417, 36.254093667 ], [ 138.925354999, 36.253906719 ], [ 138.925349694, 36.25387925 ], [ 138.925316728000013, 36.25362572 ], [ 138.92530822099999, 36.253552312 ], [ 138.925284014999988, 36.253131315 ], [ 138.925282786, 36.25298931 ], [ 138.925281610000013, 36.252972454 ], [ 138.926071709000013, 36.253117919 ], [ 138.926359875, 36.253148719 ], [ 138.926636046, 36.253198504 ], [ 138.926870071, 36.253282714 ], [ 138.926882713, 36.253286054 ], [ 138.927382029, 36.253417936 ], [ 138.927367326, 36.253469236 ], [ 138.927342366, 36.253546659 ], [ 138.927322006, 36.253611703 ], [ 138.92731522, 36.253680411 ], [ 138.927310811000012, 36.253735159 ], [ 138.92730628699999, 36.253817609 ], [ 138.92729289799999, 36.253995243 ], [ 138.927271969, 36.254174746 ], [ 138.927259526, 36.254219636 ], [ 138.927249346999986, 36.254240706 ], [ 138.927253871, 36.254282847 ], [ 138.92725585299999, 36.254315749 ], [ 138.928325518, 36.254092607 ], [ 138.928676356000011, 36.25403315 ], [ 138.928617261999989, 36.253804378 ], [ 138.92835788, 36.252936818 ], [ 138.92815256599999, 36.252359392 ], [ 138.92804568, 36.25205455 ], [ 138.927887292, 36.251620553 ], [ 138.92767501, 36.251264837 ], [ 138.927562474000013, 36.251067259 ], [ 138.92725048, 36.250611632 ], [ 138.925240086, 36.25049076 ], [ 138.925240167, 36.250503694 ], [ 138.925242833, 36.250690972 ], [ 138.925243943999988, 36.250867528 ], [ 138.925234404, 36.25102122 ], [ 138.92522787499999, 36.251126395 ], [ 138.92521836099999, 36.25127475 ], [ 138.92520761099999, 36.251471406 ], [ 138.925197072, 36.251664182 ], [ 138.925203135, 36.25176663 ], [ 138.92522280599999, 36.252099056 ], [ 138.925244083, 36.252224167 ], [ 138.925256838, 36.252349825 ], [ 138.925258613000011, 36.252367314 ], [ 138.925259845, 36.252410413 ], [ 138.925, 36.252410052 ], [ 138.924895228999986, 36.252409906 ], [ 138.924813015000012, 36.252387344 ], [ 138.92472807199999, 36.252380243 ], [ 138.92461916900001, 36.252377264 ], [ 138.924401337, 36.252373456 ], [ 138.92432434, 36.251805775 ], [ 138.924406307, 36.251784652 ], [ 138.92451809799999, 36.251751791 ], [ 138.924601094, 36.25170976 ], [ 138.924685654, 36.251655539 ], [ 138.924789591, 36.251582769 ], [ 138.924831078000011, 36.251552883 ], [ 138.924780406999986, 36.251302453 ], [ 138.924857602, 36.251290127 ], [ 138.924846011999989, 36.251143698 ], [ 138.924984462, 36.251118924 ], [ 138.924976592, 36.250421594 ], [ 138.92489418400001, 36.250425272 ], [ 138.924896131, 36.250286668 ], [ 138.924452398999989, 36.250361943 ], [ 138.924335463, 36.250384417 ], [ 138.924194744, 36.250403681 ], [ 138.923533709, 36.250425418 ], [ 138.923404984, 36.250428879 ], [ 138.923309139, 36.250438583 ], [ 138.92328230699999, 36.250441992 ], [ 138.923279283999989, 36.250442376 ], [ 138.92324856, 36.250279334 ], [ 138.923379764, 36.250279081 ], [ 138.923375735, 36.24985204 ], [ 138.92280248599999, 36.249796028 ], [ 138.922478692, 36.249765586 ], [ 138.922133621, 36.249737133 ], [ 138.921757019000012, 36.24967831 ], [ 138.92151884099999, 36.249596868 ], [ 138.921333748, 36.249520134 ], [ 138.92109898699999, 36.249493065 ], [ 138.921094167, 36.249515222 ], [ 138.92102834100001, 36.249662791 ], [ 138.920963596, 36.249809361 ], [ 138.920901769000011, 36.249906356 ], [ 138.920870573, 36.249950578 ], [ 138.920846441, 36.249994232 ], [ 138.92084282499999, 36.25 ], [ 138.920819896000012, 36.250036582 ], [ 138.920790377, 36.250098174 ], [ 138.920710496999988, 36.250084145 ], [ 138.920580988000012, 36.250077629 ], [ 138.92056213399999, 36.25 ], [ 138.920561682, 36.249998141 ], [ 138.920531054, 36.24986416 ], [ 138.92052446400001, 36.249753112 ], [ 138.92051781699999, 36.249641094 ], [ 138.920520583000012, 36.249439111 ], [ 138.920532638999987, 36.249195517 ], [ 138.920533667, 36.249174759 ], [ 138.920490212, 36.24916968 ], [ 138.920305867, 36.249148132 ], [ 138.920315695999989, 36.248996872 ], [ 138.920323990000014, 36.248548303 ], [ 138.920324091999987, 36.248542767 ], [ 138.920325321, 36.248432308 ], [ 138.920325916, 36.248374042 ], [ 138.919896154000014, 36.24838509 ], [ 138.919696929, 36.248302494 ], [ 138.91931425300001, 36.24829957 ], [ 138.919059987, 36.24839301 ], [ 138.918971121999988, 36.248440022 ], [ 138.918800444999988, 36.248433948 ], [ 138.918594500000012, 36.248422835 ], [ 138.918445506000012, 36.248437549 ], [ 138.918471054, 36.248470741 ], [ 138.91848878, 36.248513562 ], [ 138.918504611, 36.248551806 ], [ 138.918551944, 36.248656194 ], [ 138.918564417999988, 36.248698271 ], [ 138.918574135, 36.248760993 ], [ 138.918593296000012, 36.248842174 ], [ 138.918617125, 36.248937758 ], [ 138.918717292999986, 36.249506367 ], [ 138.918733839999987, 36.250107404 ], [ 138.918778992999989, 36.250311533 ], [ 138.91884213099999, 36.250420948 ], [ 138.91885975, 36.250486358 ], [ 138.918867092, 36.250547012 ], [ 138.918874906000013, 36.250625771 ], [ 138.918874906000013, 36.250683649 ], [ 138.91992467099999, 36.251499551 ], [ 138.919912673999988, 36.251518536 ], [ 138.92000682, 36.251524024 ], [ 138.920033482, 36.251762684 ], [ 138.920300755999989, 36.251959115 ], [ 138.920010679, 36.252067537 ], [ 138.920240834999987, 36.252665633 ], [ 138.920561993, 36.252897002 ], [ 138.920651408999987, 36.252987279 ], [ 138.920664783, 36.252840442 ], [ 138.920672212, 36.252761005 ], [ 138.920690044999986, 36.252682772 ], [ 138.92071382099999, 36.252598521 ], [ 138.920814455, 36.252232038 ], [ 138.920852956, 36.252091983 ], [ 138.920870291, 36.25202664 ], [ 138.92092090700001, 36.252018501 ], [ 138.920988281, 36.251956441 ], [ 138.921140380999987, 36.251761486 ], [ 138.921290332000012, 36.251658955 ], [ 138.921358964, 36.251631314 ], [ 138.921556083000013, 36.251549639 ], [ 138.921855704, 36.251388195 ], [ 138.921916576, 36.2516203 ], [ 138.921897035, 36.251718514 ], [ 138.92161224099999, 36.251841534 ], [ 138.921514628000011, 36.252007709 ], [ 138.921638839, 36.252086154 ], [ 138.921484193999987, 36.252409873 ], [ 138.921440288000014, 36.252704628 ], [ 138.92136287400001, 36.25271596 ], [ 138.921335176000014, 36.252882669 ], [ 138.921343963, 36.253076482 ], [ 138.921258912000013, 36.253111602 ], [ 138.921214104, 36.253483848 ], [ 138.921204046000014, 36.253602846 ], [ 138.921205656000012, 36.253714934 ], [ 138.921205629000013, 36.253960829 ], [ 138.921213636, 36.253960603 ], [ 138.921318815, 36.25395764 ], [ 138.921431555, 36.253958981 ], [ 138.921548957, 36.253966202 ], [ 138.92170222199999, 36.253976665 ], [ 138.921847750000012, 36.253981387 ], [ 138.92194, 36.253978425 ], [ 138.921992014000011, 36.253974814 ], [ 138.92208266599999, 36.25397361 ], [ 138.92224019299999, 36.253988054 ], [ 138.92239125, 36.254007278 ], [ 138.922537414, 36.254021756 ], [ 138.922593887, 36.254028978 ], [ 138.922633466, 36.254042867 ], [ 138.922743083, 36.254079583 ], [ 138.922810859, 36.254099323 ], [ 138.922939703, 36.25412497 ], [ 138.92314500099999, 36.254179697 ], [ 138.923145865, 36.254071466 ], [ 138.92315227, 36.254012518 ], [ 138.923388082, 36.254013207 ], [ 138.923486958000012, 36.25411888 ], [ 138.92429669399999, 36.254109056 ], [ 138.924275556, 36.254137444 ], [ 138.924212065, 36.254252636 ], [ 138.924191681999986, 36.254292337 ], [ 138.924182072, 36.254309571 ], [ 138.924169717000012, 36.254321802 ], [ 138.924149124, 36.254330698 ], [ 138.924118666999988, 36.254339139 ], [ 138.924015056, 36.254347361 ], [ 138.923915443999988, 36.254352778 ], [ 138.923854518000013, 36.254365235 ], [ 138.923786643999989, 36.254388239 ], [ 138.923764513, 36.25439501 ], [ 138.923900788, 36.254484481 ], [ 138.924071313000013, 36.254504854 ], [ 138.924140032, 36.254672296 ], [ 138.924409884, 36.254793992 ], [ 138.924422416, 36.254811754 ], [ 138.924485073999989, 36.254847278 ], [ 138.924613525000012, 36.254924671 ], [ 138.924649554000013, 36.254972882 ], [ 138.924735711000011, 36.255092143 ], [ 138.92477985, 36.255133589 ], [ 138.924818644, 36.255066064 ], [ 138.924829698999986, 36.25503505 ], [ 138.924826625, 36.25494985 ], [ 138.924819894, 36.254768075 ], [ 138.924815889, 36.254659917 ] ] ] } },
{ "type": "Feature", "properties": { "A29_001": "10384", "A29_002": "群馬県", "A29_003": "甘楽町", "A29_004": 3, "A29_005": "第一種中高層住居専用地域", "A29_006": 60, "A29_007": 200, "A29_008": null }, "geometry": { "type": "Polygon", "coordinates": [ [ [ 138.932664167000013, 36.253901 ], [ 138.932646083, 36.253818389 ], [ 138.932636472000013, 36.253765444 ], [ 138.932624333, 36.253702083 ], [ 138.93261050000001, 36.253646528 ], [ 138.932582083, 36.253592389 ], [ 138.932559219000012, 36.253564253 ], [ 138.932538111000014, 36.253538278 ], [ 138.932460506000012, 36.253459084 ], [ 138.932374513000013, 36.253374772 ], [ 138.932329648, 36.253308371 ], [ 138.932448101, 36.253301711 ], [ 138.932373031, 36.252788463 ], [ 138.932373582999986, 36.252746028 ], [ 138.932261681999989, 36.252763177 ], [ 138.932088639, 36.252783861 ], [ 138.931811528, 36.252821694 ], [ 138.931728056, 36.252851417 ], [ 138.931593111000012, 36.252868778 ], [ 138.931498083, 36.252877333 ], [ 138.931416797999987, 36.252878326 ], [ 138.931344771999989, 36.252869448 ], [ 138.931324416, 36.252867546 ], [ 138.931282923, 36.252866912 ], [ 138.930906321, 36.252929335 ], [ 138.930778475000011, 36.25273496 ], [ 138.930740422000014, 36.252590639 ], [ 138.930713457, 36.252509442 ], [ 138.930711771, 36.25249805 ], [ 138.93114744, 36.252452676 ], [ 138.931348264, 36.252445707 ], [ 138.931346246, 36.252415076 ], [ 138.931334889, 36.252243306 ], [ 138.931348250000013, 36.252111694 ], [ 138.93141225, 36.251821694 ], [ 138.931447345, 36.251688694 ], [ 138.931488175, 36.251618709 ], [ 138.93154905899999, 36.251589764 ], [ 138.931629797, 36.251572611 ], [ 138.932248139, 36.251451543 ], [ 138.932635511, 36.251360589 ], [ 138.93264662199999, 36.251412177 ], [ 138.932666476, 36.251593359 ], [ 138.932664112999987, 36.251799658 ], [ 138.932652759, 36.251907647 ], [ 138.93285381199999, 36.251915275 ], [ 138.932983854000014, 36.251920209 ], [ 138.933261151000011, 36.251907997 ], [ 138.933333333, 36.251902683 ], [ 138.93342395499999, 36.251895133 ], [ 138.933435577000012, 36.252024459 ], [ 138.933453899, 36.252228335 ], [ 138.933811612999989, 36.252198775 ], [ 138.933978614000011, 36.252194253 ], [ 138.934031954, 36.252191165 ], [ 138.93423385, 36.252179477 ], [ 138.934433805999987, 36.252168023 ], [ 138.93453302099999, 36.252159095 ], [ 138.93470278699999, 36.252128737 ], [ 138.934839482, 36.252098379 ], [ 138.934912306, 36.2520785 ], [ 138.934918853999989, 36.252009091 ], [ 138.934871654, 36.251894009 ], [ 138.934934368, 36.251886072 ], [ 138.935108050999986, 36.251864441 ], [ 138.935146643, 36.251825142 ], [ 138.93528537, 36.251800598 ], [ 138.935475962999988, 36.251776584 ], [ 138.93565235299999, 36.251763091 ], [ 138.93569743, 36.251762297 ], [ 138.935713109, 36.251868654 ], [ 138.935756227000013, 36.251864686 ], [ 138.93585567299999, 36.251859135 ], [ 138.935958567, 36.25184961 ], [ 138.935993845000013, 36.25184842 ], [ 138.93603849499999, 36.251825615 ], [ 138.936037072, 36.251787718 ], [ 138.936028252, 36.25168771 ], [ 138.936022372999986, 36.251565081 ], [ 138.935988565, 36.251465079 ], [ 138.93596093299999, 36.251399597 ], [ 138.935948876999987, 36.251371024 ], [ 138.93590147099999, 36.251249229 ], [ 138.935862066, 36.251175527 ], [ 138.935955428, 36.251136706 ], [ 138.93604312299999, 36.251070635 ], [ 138.936124697, 36.250990277 ], [ 138.93627241199999, 36.250811705 ], [ 138.936353986, 36.250688489 ], [ 138.93638475, 36.250618389 ], [ 138.93639475, 36.250520194 ], [ 138.936394670999988, 36.250518744 ], [ 138.936391444, 36.250458944 ], [ 138.93637475, 36.250360722 ], [ 138.93639747200001, 36.250276861 ], [ 138.936404449, 36.250064584 ], [ 138.93678928, 36.249879684 ], [ 138.93678938, 36.249548826 ], [ 138.936644204, 36.249371876 ], [ 138.936668868999988, 36.249145527 ], [ 138.936784265999989, 36.249030144 ], [ 138.937106045, 36.249008373 ], [ 138.936878482, 36.248887532 ], [ 138.936862579, 36.248782952 ], [ 138.93681916700001, 36.248633028 ], [ 138.936726693999987, 36.248460333 ], [ 138.936571883, 36.248249555 ], [ 138.93626683299999, 36.248303083 ], [ 138.93620013899999, 36.248310417 ], [ 138.935822301, 36.248367492 ], [ 138.935576035, 36.248414084 ], [ 138.935318794000011, 36.248461758 ], [ 138.93518813099999, 36.248393294 ], [ 138.935104591, 36.248425034 ], [ 138.935045787, 36.248483792 ], [ 138.934921943, 36.248474441 ], [ 138.934859751, 36.248457567 ], [ 138.934779905999989, 36.248446106 ], [ 138.934685910000013, 36.248426458 ], [ 138.934633354, 36.248416634 ], [ 138.93459292599999, 36.248400261 ], [ 138.93440751, 36.248486628 ], [ 138.934426996000013, 36.248841598 ], [ 138.934551983, 36.248827276 ], [ 138.93454508799999, 36.24901799 ], [ 138.934514959000012, 36.249066333 ], [ 138.93434262, 36.249085994 ], [ 138.93425645100001, 36.249093858 ], [ 138.93409056199999, 36.249109032 ], [ 138.934136932, 36.24928581 ], [ 138.93414794200001, 36.24935266 ], [ 138.934122307, 36.249364486 ], [ 138.93410771500001, 36.249369156 ], [ 138.933868440999987, 36.249445747 ], [ 138.93371883899999, 36.249487351 ], [ 138.933513221, 36.249530956 ], [ 138.933491249000014, 36.249545569 ], [ 138.93344464399999, 36.24958608 ], [ 138.933434414, 36.249610018 ], [ 138.93343611899999, 36.249634417 ], [ 138.933416227, 36.249644084 ], [ 138.933355414, 36.24965191 ], [ 138.933333333, 36.249654369 ], [ 138.933331, 36.249654629 ], [ 138.933219011, 36.249667101 ], [ 138.93310660099999, 36.249701846 ], [ 138.933051295000013, 36.249719041 ], [ 138.933022203, 36.249728086 ], [ 138.932996628000012, 36.249729467 ], [ 138.93273675399999, 36.249716883 ], [ 138.93264948, 36.249715329 ], [ 138.932570838, 36.249693579 ], [ 138.932518066, 36.249671589 ], [ 138.932379964, 36.249671589 ], [ 138.932357136, 36.249669723 ], [ 138.932290962, 36.24965574 ], [ 138.932194433, 36.249651247 ], [ 138.932165809, 36.249649914 ], [ 138.932116898, 36.249654575 ], [ 138.931958658000013, 36.249676714 ], [ 138.931911186, 36.249682539 ], [ 138.931835188, 36.249670448 ], [ 138.931753514, 36.249657453 ], [ 138.931687700999987, 36.249619002 ], [ 138.931636993000012, 36.249602399 ], [ 138.931595995, 36.249602399 ], [ 138.93154167, 36.24960945 ], [ 138.9314737, 36.249629768 ], [ 138.931423134999989, 36.249641176 ], [ 138.931334128, 36.249643798 ], [ 138.93125240399999, 36.249645108 ], [ 138.931094839999986, 36.249627265 ], [ 138.930963378, 36.249590028 ], [ 138.930731579, 36.249458744 ], [ 138.930694246, 36.249441108 ], [ 138.93083789100001, 36.249238073 ], [ 138.930847859000011, 36.249190457 ], [ 138.930816314999987, 36.249066221 ], [ 138.930606073, 36.248711719 ], [ 138.930037344999988, 36.247992055 ], [ 138.930038739999986, 36.248054811 ], [ 138.930033634000011, 36.248058577 ], [ 138.929956143999988, 36.248115732 ], [ 138.929892999, 36.248220796 ], [ 138.929744983, 36.248393213 ], [ 138.929565376, 36.248278453 ], [ 138.929449215, 36.248344343 ], [ 138.92931078, 36.248299421 ], [ 138.92927541200001, 36.248302969 ], [ 138.929185682, 36.248323275 ], [ 138.929115001000014, 36.248348472 ], [ 138.92896705699999, 36.248257951 ], [ 138.928747472, 36.248132367 ], [ 138.928726243, 36.248120226 ], [ 138.928629257000011, 36.248076583 ], [ 138.928583757000013, 36.248062035 ], [ 138.928501708, 36.248055402 ], [ 138.928409512, 36.248062191 ], [ 138.928325163000011, 36.248054113 ], [ 138.928250131, 36.248044415 ], [ 138.92820942099999, 36.24805088 ], [ 138.92818533799999, 36.248067983 ], [ 138.928155056, 36.248089489 ], [ 138.928073340999987, 36.248147676 ], [ 138.928009586, 36.248172406 ], [ 138.927946729000013, 36.248177498 ], [ 138.92787230799999, 36.248157814 ], [ 138.927858729, 36.248154222 ], [ 138.92778697899999, 36.248129727 ], [ 138.927679842, 36.248048638 ], [ 138.927580658000011, 36.247974939 ], [ 138.927434568, 36.24784113 ], [ 138.927390304999989, 36.247804281 ], [ 138.927360627000013, 36.247786182 ], [ 138.927285794999989, 36.247740542 ], [ 138.927236614, 36.247693734 ], [ 138.927226203, 36.247682738 ], [ 138.927133317, 36.247584637 ], [ 138.927036186, 36.247513929 ], [ 138.92698260899999, 36.247482496 ], [ 138.926973065999988, 36.247476898 ], [ 138.926899297, 36.247454988 ], [ 138.926851347, 36.247436066 ], [ 138.926813232, 36.247398222 ], [ 138.92675287599999, 36.24733822 ], [ 138.92671048599999, 36.247309869 ], [ 138.926659414999989, 36.247292105 ], [ 138.92641706, 36.247136406 ], [ 138.926285181, 36.247064067 ], [ 138.926179638, 36.246961679 ], [ 138.926150675, 36.246954691 ], [ 138.926067977, 36.246910831 ], [ 138.926003984, 36.246862186 ], [ 138.925931874000014, 36.246793339 ], [ 138.92588702, 36.246716057 ], [ 138.925832781999986, 36.246649645 ], [ 138.925770975, 36.246595494 ], [ 138.925658274, 36.246500355 ], [ 138.927823114, 36.250038503 ], [ 138.929079538, 36.250095699 ], [ 138.929101765000013, 36.249955177 ], [ 138.929187106, 36.249958207 ], [ 138.929189248, 36.249772227 ], [ 138.92952408299999, 36.249751333 ], [ 138.929546, 36.24979475 ], [ 138.929556056, 36.249819167 ], [ 138.929573693, 36.249875803 ], [ 138.929586102, 36.249951888 ], [ 138.92959191700001, 36.25 ], [ 138.929594438, 36.250040218 ], [ 138.92959643099999, 36.250072007 ], [ 138.92961413899999, 36.250102486 ], [ 138.92965766899999, 36.250133561 ], [ 138.929712943999988, 36.250173417 ], [ 138.929755806, 36.250254944 ], [ 138.92992878199999, 36.250542994 ], [ 138.929929949000012, 36.250544937 ], [ 138.929594099000013, 36.250662345 ], [ 138.929325887, 36.250688933 ], [ 138.92905803299999, 36.250684524 ], [ 138.928572312999989, 36.250680851 ], [ 138.92814201499999, 36.25066016 ], [ 138.928493793, 36.251218236 ], [ 138.92886081099999, 36.251942343 ], [ 138.929051961, 36.252599544 ], [ 138.929286448999989, 36.253328609 ], [ 138.929404521, 36.253915569 ], [ 138.929892407000011, 36.253848111 ], [ 138.930598972000013, 36.253850465 ], [ 138.930981298, 36.253886138 ], [ 138.93169852599999, 36.253921353 ], [ 138.932198985000014, 36.253925125 ], [ 138.932671927, 36.253940417 ], [ 138.932664167000013, 36.253901 ] ] ] } },
{ "type": "Feature", "properties": { "A29_001": "10384", "A29_002": "群馬県", "A29_003": "甘楽町", "A29_004": 10, "A29_005": "準工業地域", "A29_006": 60, "A29_007": 200, "A29_008": null }, "geometry": { "type": "Polygon", "coordinates": [ [ [ 138.930906321, 36.252929335 ], [ 138.931282923, 36.252866912 ], [ 138.931324416, 36.252867546 ], [ 138.931344771999989, 36.252869448 ], [ 138.931416797999987, 36.252878326 ], [ 138.931498083, 36.252877333 ], [ 138.931593111000012, 36.252868778 ], [ 138.931728056, 36.252851417 ], [ 138.931811528, 36.252821694 ], [ 138.932088639, 36.252783861 ], [ 138.932261681999989, 36.252763177 ], [ 138.932373582999986, 36.252746028 ], [ 138.932869903000011, 36.252709207 ], [ 138.93321920299999, 36.252679963 ], [ 138.933333333, 36.252673052 ], [ 138.933360835, 36.252671386 ], [ 138.933446873, 36.252663882 ], [ 138.933793594, 36.252677775 ], [ 138.93425024699999, 36.252715888 ], [ 138.934630137, 36.252744139 ], [ 138.93470363599999, 36.252690562 ], [ 138.934913843, 36.252526259 ], [ 138.935075541, 36.252382196 ], [ 138.935293946, 36.252241113 ], [ 138.935670714999986, 36.252118751 ], [ 138.93593347800001, 36.251989572 ], [ 138.935923393, 36.251906036 ], [ 138.935908863, 36.251854211 ], [ 138.93585567299999, 36.251859135 ], [ 138.935756227000013, 36.251864686 ], [ 138.935713109, 36.251868654 ], [ 138.93569743, 36.251762297 ], [ 138.93565235299999, 36.251763091 ], [ 138.935475962999988, 36.251776584 ], [ 138.93528537, 36.251800598 ], [ 138.935146643, 36.251825142 ], [ 138.935108050999986, 36.251864441 ], [ 138.934934368, 36.251886072 ], [ 138.934871654, 36.251894009 ], [ 138.934918853999989, 36.252009091 ], [ 138.934912306, 36.2520785 ], [ 138.934839482, 36.252098379 ], [ 138.93470278699999, 36.252128737 ], [ 138.93453302099999, 36.252159095 ], [ 138.934433805999987, 36.252168023 ], [ 138.93423385, 36.252179477 ], [ 138.934031954, 36.252191165 ], [ 138.933978614000011, 36.252194253 ], [ 138.933811612999989, 36.252198775 ], [ 138.933453899, 36.252228335 ], [ 138.933435577000012, 36.252024459 ], [ 138.93342395499999, 36.251895133 ], [ 138.933333333, 36.251902683 ], [ 138.933261151000011, 36.251907997 ], [ 138.932983854000014, 36.251920209 ], [ 138.93285381199999, 36.251915275 ], [ 138.932652759, 36.251907647 ], [ 138.932664112999987, 36.251799658 ], [ 138.932666476, 36.251593359 ], [ 138.93264662199999, 36.251412177 ], [ 138.932635511, 36.251360589 ], [ 138.932248139, 36.251451543 ], [ 138.931629797, 36.251572611 ], [ 138.93154905899999, 36.251589764 ], [ 138.931488175, 36.251618709 ], [ 138.931447345, 36.251688694 ], [ 138.93141225, 36.251821694 ], [ 138.931348250000013, 36.252111694 ], [ 138.931334889, 36.252243306 ], [ 138.931346246, 36.252415076 ], [ 138.931348264, 36.252445707 ], [ 138.93114744, 36.252452676 ], [ 138.930711771, 36.25249805 ], [ 138.930713457, 36.252509442 ], [ 138.930740422000014, 36.252590639 ], [ 138.930778475000011, 36.25273496 ], [ 138.930906321, 36.252929335 ] ] ] } },
{ "type": "Feature", "properties": { "A29_001": "10384", "A29_002": "群馬県", "A29_003": "甘楽町", "A29_004": 5, "A29_005": "第一種住居地域", "A29_006": 60, "A29_007": 200, "A29_008": null }, "geometry": { "type": "Polygon", "coordinates": [ [ [ 138.928042685, 36.250655383 ], [ 138.92725048, 36.250611632 ], [ 138.927562474000013, 36.251067259 ], [ 138.92767501, 36.251264837 ], [ 138.927887292, 36.251620553 ], [ 138.92804568, 36.25205455 ], [ 138.92815256599999, 36.252359392 ], [ 138.92835788, 36.252936818 ], [ 138.928617261999989, 36.253804378 ], [ 138.928676356000011, 36.25403315 ], [ 138.92921786299999, 36.253941378 ], [ 138.929404521, 36.253915569 ], [ 138.929286448999989, 36.253328609 ], [ 138.929051961, 36.252599544 ], [ 138.92886081099999, 36.251942343 ], [ 138.928493793, 36.251218236 ], [ 138.92814201499999, 36.25066016 ], [ 138.928042685, 36.250655383 ] ] ] } },
{ "type": "Feature", "properties": { "A29_001": "10384", "A29_002": "群馬県", "A29_003": "甘楽町", "A29_004": 10, "A29_005": "準工業地域", "A29_006": 60, "A29_007": 200, "A29_008": null }, "geometry": { "type": "Polygon", "coordinates": [ [ [ 138.923996878999986, 36.249089538 ], [ 138.924018972, 36.249147272 ], [ 138.923996407, 36.249265375 ], [ 138.92395244299999, 36.249265041 ], [ 138.92389029, 36.249510514 ], [ 138.92384403299999, 36.249458363 ], [ 138.923769878, 36.249401179 ], [ 138.923658799, 36.249332473 ], [ 138.923585245, 36.249287137 ], [ 138.923474166, 36.249231517 ], [ 138.923407518, 36.249216794 ], [ 138.923239889, 36.24915136 ], [ 138.923061042, 36.249072366 ], [ 138.923035292, 36.249056417 ], [ 138.922988336, 36.249024517 ], [ 138.922812631999989, 36.248852754 ], [ 138.922632, 36.248688583 ], [ 138.922558742, 36.24864006 ], [ 138.922440846, 36.248565181 ], [ 138.922315876, 36.248456706 ], [ 138.922250307000013, 36.248389473 ], [ 138.922020537, 36.248482369 ], [ 138.921874738000014, 36.24836203 ], [ 138.921819465, 36.248051615 ], [ 138.921611082999988, 36.248089917 ], [ 138.92161452799999, 36.248371472 ], [ 138.921397167, 36.248393167 ], [ 138.921197325, 36.248402382 ], [ 138.920943056, 36.248419306 ], [ 138.920791149, 36.24843864 ], [ 138.92075183, 36.248450583 ], [ 138.920707596, 36.248520914 ], [ 138.920669916, 36.248532857 ], [ 138.920602745999986, 36.248534184 ], [ 138.920529611, 36.248534611 ], [ 138.920324091999987, 36.248542767 ], [ 138.920323990000014, 36.248548303 ], [ 138.920315695999989, 36.248996872 ], [ 138.920305867, 36.249148132 ], [ 138.920490212, 36.24916968 ], [ 138.920533667, 36.249174759 ], [ 138.920532638999987, 36.249195517 ], [ 138.920520583000012, 36.249439111 ], [ 138.92051781699999, 36.249641094 ], [ 138.92052446400001, 36.249753112 ], [ 138.920531054, 36.24986416 ], [ 138.920561682, 36.249998141 ], [ 138.92056213399999, 36.25 ], [ 138.920580988000012, 36.250077629 ], [ 138.920710496999988, 36.250084145 ], [ 138.920790377, 36.250098174 ], [ 138.920819896000012, 36.250036582 ], [ 138.92084282499999, 36.25 ], [ 138.920846441, 36.249994232 ], [ 138.920870573, 36.249950578 ], [ 138.920901769000011, 36.249906356 ], [ 138.920963596, 36.249809361 ], [ 138.92102834100001, 36.249662791 ], [ 138.921094167, 36.249515222 ], [ 138.92109898699999, 36.249493065 ], [ 138.921333748, 36.249520134 ], [ 138.92151884099999, 36.249596868 ], [ 138.921757019000012, 36.24967831 ], [ 138.922133621, 36.249737133 ], [ 138.922478692, 36.249765586 ], [ 138.92280248599999, 36.249796028 ], [ 138.923375735, 36.24985204 ], [ 138.923379764, 36.250279081 ], [ 138.92324856, 36.250279334 ], [ 138.923279283999989, 36.250442376 ], [ 138.92328230699999, 36.250441992 ], [ 138.923309139, 36.250438583 ], [ 138.923404984, 36.250428879 ], [ 138.923533709, 36.250425418 ], [ 138.924194744, 36.250403681 ], [ 138.924335463, 36.250384417 ], [ 138.924452398999989, 36.250361943 ], [ 138.924896131, 36.250286668 ], [ 138.92489418400001, 36.250425272 ], [ 138.924976592, 36.250421594 ], [ 138.924984462, 36.251118924 ], [ 138.924846011999989, 36.251143698 ], [ 138.924857602, 36.251290127 ], [ 138.924780406999986, 36.251302453 ], [ 138.924831078000011, 36.251552883 ], [ 138.924789591, 36.251582769 ], [ 138.924685654, 36.251655539 ], [ 138.924601094, 36.25170976 ], [ 138.92451809799999, 36.251751791 ], [ 138.924406307, 36.251784652 ], [ 138.92432434, 36.251805775 ], [ 138.924401337, 36.252373456 ], [ 138.92461916900001, 36.252377264 ], [ 138.92472807199999, 36.252380243 ], [ 138.924813015000012, 36.252387344 ], [ 138.924895228999986, 36.252409906 ], [ 138.925, 36.252410052 ], [ 138.925259845, 36.252410413 ], [ 138.925258613000011, 36.252367314 ], [ 138.925256838, 36.252349825 ], [ 138.925244083, 36.252224167 ], [ 138.92522280599999, 36.252099056 ], [ 138.925203135, 36.25176663 ], [ 138.925197072, 36.251664182 ], [ 138.92520761099999, 36.251471406 ], [ 138.92521836099999, 36.25127475 ], [ 138.92522787499999, 36.251126395 ], [ 138.925234404, 36.25102122 ], [ 138.925243943999988, 36.250867528 ], [ 138.925242833, 36.250690972 ], [ 138.925240167, 36.250503694 ], [ 138.925240086, 36.25049076 ], [ 138.92725048, 36.250611632 ], [ 138.928042685, 36.250655383 ], [ 138.928572312999989, 36.250680851 ], [ 138.92905803299999, 36.250684524 ], [ 138.929325887, 36.250688933 ], [ 138.929594099000013, 36.250662345 ], [ 138.929929949000012, 36.250544937 ], [ 138.92992878199999, 36.250542994 ], [ 138.929755806, 36.250254944 ], [ 138.929712943999988, 36.250173417 ], [ 138.92965766899999, 36.250133561 ], [ 138.92961413899999, 36.250102486 ], [ 138.92959643099999, 36.250072007 ], [ 138.929594438, 36.250040218 ], [ 138.92959191700001, 36.25 ], [ 138.929586102, 36.249951888 ], [ 138.929573693, 36.249875803 ], [ 138.929556056, 36.249819167 ], [ 138.929546, 36.24979475 ], [ 138.92952408299999, 36.249751333 ], [ 138.929189248, 36.249772227 ], [ 138.929187106, 36.249958207 ], [ 138.929101765000013, 36.249955177 ], [ 138.929079538, 36.250095699 ], [ 138.927823114, 36.250038503 ], [ 138.926367562, 36.247659632 ], [ 138.926296962, 36.247650773 ], [ 138.92628363599999, 36.247647829 ], [ 138.926152683, 36.2476189 ], [ 138.926062327000011, 36.247576403 ], [ 138.92598217299999, 36.247532726 ], [ 138.925853531, 36.24748964 ], [ 138.925353333, 36.246634222 ], [ 138.925268941000013, 36.246654451 ], [ 138.925227318, 36.246665689 ], [ 138.92517182200001, 36.246683057 ], [ 138.925045864999987, 36.24677105 ], [ 138.925004277999989, 36.246886528 ], [ 138.92500013899999, 36.246896472 ], [ 138.925, 36.246897 ], [ 138.92498527399999, 36.246951483 ], [ 138.924972333, 36.246999361 ], [ 138.9249515, 36.24710675 ], [ 138.924943761, 36.24722936 ], [ 138.924917389, 36.247555972 ], [ 138.924915027999987, 36.247584083 ], [ 138.924872861000011, 36.247924528 ], [ 138.924869389, 36.247949611 ], [ 138.924837083, 36.248182917 ], [ 138.924801261, 36.248323664 ], [ 138.92478689699999, 36.248426921 ], [ 138.92478488899999, 36.248584111 ], [ 138.92478602700001, 36.248604036 ], [ 138.924637861, 36.248594889 ], [ 138.924394352, 36.248581156 ], [ 138.924383600999988, 36.248815111 ], [ 138.924071792, 36.248793665 ], [ 138.923996878999986, 36.249089538 ] ] ] } },
{ "type": "Feature", "properties": { "A29_001": "10384", "A29_002": "群馬県", "A29_003": "甘楽町", "A29_004": 10, "A29_005": "準工業地域", "A29_006": 60, "A29_007": 200, "A29_008": null }, "geometry": { "type": "Polygon", "coordinates": [ [ [ 138.92154300199999, 36.241933871 ], [ 138.921767456, 36.24182526 ], [ 138.921779681, 36.241832833 ], [ 138.92181419799999, 36.241848561 ], [ 138.921837208999989, 36.241851473 ], [ 138.921858781999987, 36.241844483 ], [ 138.921927148, 36.241804376 ], [ 138.921942210999987, 36.241789356 ], [ 138.921596313, 36.241525927 ], [ 138.921590844, 36.241388534 ], [ 138.921608539, 36.241081536 ], [ 138.921561306, 36.241036775 ], [ 138.92151336500001, 36.241057687 ], [ 138.921460507, 36.241066649 ], [ 138.921408879000012, 36.241064657 ], [ 138.921305620999988, 36.241035779 ], [ 138.921233096, 36.240997939 ], [ 138.92120728099999, 36.240992961 ], [ 138.92106430699999, 36.240899975 ], [ 138.920971804, 36.240754288 ], [ 138.920803951000011, 36.240608026 ], [ 138.920699896, 36.240443174 ], [ 138.920801299, 36.240228382 ], [ 138.920809448999989, 36.240134969 ], [ 138.920864361000014, 36.240070528 ], [ 138.921006395, 36.240006751 ], [ 138.92105792699999, 36.239827824 ], [ 138.921092488999989, 36.239690736 ], [ 138.921109054999988, 36.23948102 ], [ 138.920774295, 36.239443103 ], [ 138.92076172, 36.239365711 ], [ 138.920659973999989, 36.239368459 ], [ 138.92056388, 36.23936388 ], [ 138.920419173999989, 36.2393419 ], [ 138.92030047, 36.239326331 ], [ 138.920244811, 36.239314216 ], [ 138.92003392399999, 36.239319171 ], [ 138.919939422999988, 36.239338927 ], [ 138.920098098000011, 36.239677076 ], [ 138.920192832999987, 36.239852944 ], [ 138.920481400999989, 36.240362975 ], [ 138.920523944, 36.240438167 ], [ 138.92066986099999, 36.240699306 ], [ 138.92086111099999, 36.241029444 ], [ 138.920907591, 36.241113083 ], [ 138.920629972, 36.241185004 ], [ 138.920656345, 36.241239573 ], [ 138.920986555000013, 36.241970911 ], [ 138.92099120099999, 36.241984106 ], [ 138.921023208, 36.242075008 ], [ 138.921162618000011, 36.242427319 ], [ 138.921184957, 36.242494347 ], [ 138.92122075899999, 36.242614496 ], [ 138.92129080399999, 36.24288815 ], [ 138.921347989999987, 36.242874163 ], [ 138.921474928, 36.242774704 ], [ 138.921709861000011, 36.242663444 ], [ 138.922043785999989, 36.242505571 ], [ 138.921826011, 36.242256826 ], [ 138.92154300199999, 36.241933871 ] ] ] } },
{ "type": "Feature", "properties": { "A29_001": "10384", "A29_002": "群馬県", "A29_003": "甘楽町", "A29_004": 12, "A29_005": "工業専用地域", "A29_006": 50, "A29_007": 200, "A29_008": null }, "geometry": { "type": "Polygon", "coordinates": [ [ [ 138.917892849, 36.244544978 ], [ 138.917921592, 36.244612781 ], [ 138.918014696, 36.244740659 ], [ 138.918468209, 36.244608946 ], [ 138.918601056, 36.244576578 ], [ 138.91882476399999, 36.244578289 ], [ 138.918937728, 36.24448377 ], [ 138.918989434999986, 36.244088327 ], [ 138.91898452, 36.244004829 ], [ 138.91891415399999, 36.243980446 ], [ 138.918868753999988, 36.243581876 ], [ 138.918777618, 36.243318876 ], [ 138.918763124, 36.243046925 ], [ 138.918742632, 36.242784466 ], [ 138.918645055000013, 36.242569108 ], [ 138.91859618399999, 36.242468583 ], [ 138.918613179, 36.242273178 ], [ 138.918646279, 36.242211433 ], [ 138.918720908000012, 36.242159475 ], [ 138.918717921, 36.242155966 ], [ 138.918694372, 36.242128305 ], [ 138.918503402999988, 36.241917653 ], [ 138.918424678, 36.241666667 ], [ 138.918392673999989, 36.241564634 ], [ 138.918364392, 36.241477923 ], [ 138.91840520299999, 36.24142745 ], [ 138.918517358, 36.241402078 ], [ 138.918549762999987, 36.241399941 ], [ 138.918557510999989, 36.241240234 ], [ 138.918594087, 36.241190342 ], [ 138.91861916799999, 36.241108031 ], [ 138.918647596999989, 36.241054976 ], [ 138.918642452, 36.240882022 ], [ 138.91860644, 36.240769497 ], [ 138.918534681000011, 36.240601791 ], [ 138.91842922399999, 36.240357352 ], [ 138.91833205099999, 36.240038506 ], [ 138.918110171, 36.239609821 ], [ 138.917645356, 36.239081659 ], [ 138.917470998999988, 36.239196139 ], [ 138.917278384000014, 36.239022798 ], [ 138.917072897, 36.238841095 ], [ 138.916986971999989, 36.238823806 ], [ 138.916826187999987, 36.238805578 ], [ 138.916730795, 36.238794308 ], [ 138.916685086, 36.238783844 ], [ 138.916666666999987, 36.238774713 ], [ 138.916618508999989, 36.23875084 ], [ 138.916474978999986, 36.238690971 ], [ 138.916363190999988, 36.238655955 ], [ 138.91631675, 36.238701222 ], [ 138.916204806, 36.238806972 ], [ 138.915999556, 36.238960167 ], [ 138.915921325999989, 36.239021843 ], [ 138.915822701, 36.23908526 ], [ 138.915937566999986, 36.239229616 ], [ 138.915941565999987, 36.239234642 ], [ 138.916106500000012, 36.239504282 ], [ 138.91645434599999, 36.240057864 ], [ 138.916571011, 36.240243531 ], [ 138.916666666999987, 36.240401296 ], [ 138.91672417699999, 36.240496147 ], [ 138.916728484, 36.240504703 ], [ 138.916857262, 36.240760548 ], [ 138.91695751099999, 36.241038368 ], [ 138.916997540000011, 36.241262866 ], [ 138.917029764, 36.241514632 ], [ 138.917041864999987, 36.241666667 ], [ 138.917065629, 36.241965217 ], [ 138.917074570000011, 36.242025574 ], [ 138.917118789, 36.242248665 ], [ 138.91717847699999, 36.242426037 ], [ 138.91719109600001, 36.242463537 ], [ 138.917426314000011, 36.24322313 ], [ 138.91775689, 36.244011933 ], [ 138.917893115, 36.244447165 ], [ 138.917892849, 36.244544978 ] ] ] } },
{ "type": "Feature", "properties": { "A29_001": "10384", "A29_002": "群馬県", "A29_003": "甘楽町", "A29_004": 11, "A29_005": "工業地域", "A29_006": 60, "A29_007": 200, "A29_008": null }, "geometry": { "type": "Polygon", "coordinates": [ [ [ 138.920425767000012, 36.241425566 ], [ 138.92042481199999, 36.241302205 ], [ 138.920656345, 36.241239573 ], [ 138.920629972, 36.241185004 ], [ 138.920907591, 36.241113083 ], [ 138.92086111099999, 36.241029444 ], [ 138.92066986099999, 36.240699306 ], [ 138.920523944, 36.240438167 ], [ 138.920481400999989, 36.240362975 ], [ 138.920192832999987, 36.239852944 ], [ 138.920098098000011, 36.239677076 ], [ 138.919939422999988, 36.239338927 ], [ 138.919650076000011, 36.238725726 ], [ 138.91952739300001, 36.238749877 ], [ 138.91908527699999, 36.23880821 ], [ 138.918790094, 36.238852167 ], [ 138.91847537699999, 36.238896123 ], [ 138.918357981000014, 36.238927295 ], [ 138.91837719599999, 36.239226408 ], [ 138.918415504, 36.239448644 ], [ 138.918456674, 36.239721903 ], [ 138.918460917, 36.239824972 ], [ 138.918451583, 36.239847639 ], [ 138.918368944, 36.239888639 ], [ 138.918354306, 36.239909139 ], [ 138.918342306, 36.239962 ], [ 138.91833205099999, 36.240038506 ], [ 138.91842922399999, 36.240357352 ], [ 138.918534681000011, 36.240601791 ], [ 138.91860644, 36.240769497 ], [ 138.918642452, 36.240882022 ], [ 138.918647596999989, 36.241054976 ], [ 138.918683261000012, 36.241124617 ], [ 138.91871605899999, 36.24119651 ], [ 138.918863929, 36.241469111 ], [ 138.91905855499999, 36.241439599 ], [ 138.91913463899999, 36.241478334 ], [ 138.91958872699999, 36.241412651 ], [ 138.919802218, 36.241429829 ], [ 138.92002522199999, 36.241456265 ], [ 138.92015168399999, 36.241473339 ], [ 138.920301881, 36.241509771 ], [ 138.920362982, 36.241466161 ], [ 138.920425767000012, 36.241425566 ] ] ] } },
{ "type": "Feature", "properties": { "A29_001": "10384", "A29_002": "群馬県", "A29_003": "甘楽町", "A29_004": 5, "A29_005": "第一種住居地域", "A29_006": 60, "A29_007": 200, "A29_008": null }, "geometry": { "type": "Polygon", "coordinates": [ [ [ 138.916099601000013, 36.231242079 ], [ 138.91593819799999, 36.231263972 ], [ 138.91594354, 36.231272667 ], [ 138.916005109, 36.231425988 ], [ 138.916039626000014, 36.231467896 ], [ 138.91610772199999, 36.231548167 ], [ 138.916174250000012, 36.231611639 ], [ 138.916268167, 36.231689333 ], [ 138.91639161099999, 36.231779194 ], [ 138.916462639, 36.231826667 ], [ 138.91657444399999, 36.231914278 ], [ 138.916601023, 36.231953104 ], [ 138.916666666999987, 36.232048994 ], [ 138.916679698, 36.232068031 ], [ 138.916666666999987, 36.232073684 ], [ 138.916765733, 36.232249158 ], [ 138.91689072599999, 36.232383652 ], [ 138.916524915999986, 36.232707536 ], [ 138.91668578299999, 36.232794613 ], [ 138.916858896, 36.232841246 ], [ 138.916934247, 36.232941975 ], [ 138.916646179999987, 36.233161533 ], [ 138.91648491399999, 36.233360602 ], [ 138.91635747, 36.233435931 ], [ 138.916211634, 36.23344148 ], [ 138.91629100099999, 36.233891521 ], [ 138.916357627, 36.23423541 ], [ 138.916360692000012, 36.234462342 ], [ 138.916497641, 36.234472118 ], [ 138.916666666999987, 36.234501385 ], [ 138.917052708999989, 36.234568229 ], [ 138.917092473, 36.234582601 ], [ 138.917124895, 36.234596973 ], [ 138.917164046000011, 36.234623735 ], [ 138.917205806, 36.234664389 ], [ 138.917225583, 36.234684222 ], [ 138.917241389, 36.234695583 ], [ 138.917218093, 36.234849522 ], [ 138.917218496, 36.234852597 ], [ 138.917228814, 36.234931313 ], [ 138.91723423, 36.234952082 ], [ 138.917254307, 36.235029069 ], [ 138.917258167, 36.235117653 ], [ 138.917259453000014, 36.235196858 ], [ 138.91722214699999, 36.235340676 ], [ 138.917184213000013, 36.235447463 ], [ 138.917128467, 36.235539175 ], [ 138.917107474, 36.235566626 ], [ 138.917079583, 36.235603095 ], [ 138.917053613, 36.235659629 ], [ 138.917045037, 36.235697148 ], [ 138.916944696, 36.235829771 ], [ 138.916867505, 36.235886409 ], [ 138.91668948899999, 36.235935786 ], [ 138.91671467899999, 36.236041271 ], [ 138.916740315, 36.23613335 ], [ 138.916762, 36.236217639 ], [ 138.916805638999989, 36.236333333 ], [ 138.91691359699999, 36.236570957 ], [ 138.916962399999989, 36.236671444 ], [ 138.917007136, 36.236762048 ], [ 138.91706204, 36.23689713 ], [ 138.917111296, 36.237036869 ], [ 138.917141120999986, 36.237170853 ], [ 138.917166877999989, 36.237310328 ], [ 138.917184502, 36.237400383 ], [ 138.917179213999987, 36.237453167 ], [ 138.917153154, 36.237586251 ], [ 138.91711571, 36.237755064 ], [ 138.917088901999989, 36.237824083 ], [ 138.917079134, 36.237912446 ], [ 138.917092766, 36.237960523 ], [ 138.917106194000013, 36.237998697 ], [ 138.91711270499999, 36.238077821 ], [ 138.917108364, 36.238137604 ], [ 138.917098457, 36.238204956 ], [ 138.917100772, 36.238251848 ], [ 138.91720143500001, 36.238255741 ], [ 138.917500663, 36.23834095 ], [ 138.917620354, 36.238344623 ], [ 138.917776315999987, 36.238318179 ], [ 138.918077358, 36.238259414 ], [ 138.918298822999986, 36.238219868 ], [ 138.919452444, 36.238013861 ], [ 138.919503875, 36.238229079 ], [ 138.919544389, 36.238398611 ], [ 138.919632541999988, 36.238671457 ], [ 138.919650076000011, 36.238725726 ], [ 138.919939422999988, 36.239338927 ], [ 138.92003392399999, 36.239319171 ], [ 138.920244811, 36.239314216 ], [ 138.92030047, 36.239326331 ], [ 138.920419173999989, 36.2393419 ], [ 138.92056388, 36.23936388 ], [ 138.920659973999989, 36.239368459 ], [ 138.92076172, 36.239365711 ], [ 138.920774295, 36.239443103 ], [ 138.921109054999988, 36.23948102 ], [ 138.921253769, 36.239186437 ], [ 138.921279332000012, 36.239013035 ], [ 138.92126173599999, 36.238906072 ], [ 138.92119911399999, 36.238823566 ], [ 138.921101837, 36.238683565 ], [ 138.92099123, 36.238474787 ], [ 138.920998843, 36.238224942 ], [ 138.921006057, 36.238009432 ], [ 138.921062318999986, 36.237904583 ], [ 138.921071383, 36.237859225 ], [ 138.920932549000014, 36.237850536 ], [ 138.920889222, 36.237841768 ], [ 138.920885473, 36.237726622 ], [ 138.920896785, 36.237673564 ], [ 138.920891269, 36.237588779 ], [ 138.920889483, 36.237513895 ], [ 138.92089216299999, 36.237475188 ], [ 138.920902762, 36.237414951 ], [ 138.920923108000011, 36.237302853 ], [ 138.920945436000011, 36.237206989 ], [ 138.920954087000013, 36.237158064 ], [ 138.920958541, 36.237104477 ], [ 138.92096242, 36.236995252 ], [ 138.920949417, 36.236904492 ], [ 138.920919414, 36.236775412 ], [ 138.920815573999988, 36.236695631 ], [ 138.920558838, 36.236625116 ], [ 138.92047470599999, 36.236582744 ], [ 138.920439614, 36.236436421 ], [ 138.920404418, 36.236299039 ], [ 138.920176860999987, 36.235970417 ], [ 138.920156886, 36.235853222 ], [ 138.920156813, 36.235852791 ], [ 138.920130833, 36.235700361 ], [ 138.920131110999989, 36.235594972 ], [ 138.92014111099999, 36.235534611 ], [ 138.920189528, 36.235224694 ], [ 138.920215793000011, 36.234893494 ], [ 138.920238288, 36.234757916 ], [ 138.92025938899999, 36.23467297 ], [ 138.920273881000014, 36.234624477 ], [ 138.920172438, 36.23448155 ], [ 138.920124528, 36.23439475 ], [ 138.920130083, 36.234362306 ], [ 138.920188389, 36.234303972 ], [ 138.920216944, 36.234265 ], [ 138.920319861, 36.234077639 ], [ 138.920334333, 36.234037083 ], [ 138.920334333, 36.234004639 ], [ 138.920333889, 36.233975611 ], [ 138.920352138999988, 36.233934389 ], [ 138.92054744399999, 36.233705556 ], [ 138.92057638899999, 36.233672222 ], [ 138.92061758299999, 36.233618167 ], [ 138.92064872200001, 36.233559611 ], [ 138.920811504, 36.233561481 ], [ 138.920822203, 36.233532503 ], [ 138.920909791000014, 36.233418497 ], [ 138.920909833, 36.233418437 ], [ 138.920969977, 36.233333333 ], [ 138.92097376800001, 36.23332797 ], [ 138.920999284, 36.233255234 ], [ 138.921024055, 36.23315543 ], [ 138.921023349, 36.23311335 ], [ 138.921005143, 36.233056096 ], [ 138.92100926, 36.232996618 ], [ 138.921013649, 36.232933211 ], [ 138.921015066, 36.232863155 ], [ 138.921032336, 36.232812569 ], [ 138.921063522999987, 36.232745959 ], [ 138.92106635799999, 36.232691983 ], [ 138.92107486399999, 36.232615036 ], [ 138.92108347300001, 36.232541809 ], [ 138.921117493999986, 36.232452231 ], [ 138.921134615999989, 36.232404972 ], [ 138.921212316, 36.232232074 ], [ 138.921260956, 36.23211647 ], [ 138.92126574, 36.232044121 ], [ 138.921241818999988, 36.231943348 ], [ 138.921240454000014, 36.231915816 ], [ 138.921309903, 36.231866269 ], [ 138.92138669799999, 36.231792456 ], [ 138.921405039, 36.23177597 ], [ 138.921404388000013, 36.231768862 ], [ 138.92140115699999, 36.231733548 ], [ 138.921394568000011, 36.231661553 ], [ 138.92140892, 36.231525901 ], [ 138.921432839, 36.231410919 ], [ 138.9214743, 36.231292062 ], [ 138.921502263, 36.231217239 ], [ 138.92153765399999, 36.2311162 ], [ 138.921553329, 36.231069412 ], [ 138.921567950999986, 36.231025766 ], [ 138.921566504999987, 36.230997638 ], [ 138.921563168, 36.230932748 ], [ 138.92149504299999, 36.230766734 ], [ 138.921423475000012, 36.230651685 ], [ 138.921247706, 36.230464998 ], [ 138.92112622799999, 36.230461034 ], [ 138.921054637999987, 36.230188326 ], [ 138.920900464999988, 36.229684836 ], [ 138.92080928199999, 36.22933714 ], [ 138.920749074000014, 36.229115548 ], [ 138.920715730000012, 36.229041384 ], [ 138.920683837000013, 36.229020984 ], [ 138.920617533000012, 36.228991064 ], [ 138.920583961, 36.228984944 ], [ 138.92052269199999, 36.228983584 ], [ 138.92046813799999, 36.228981544 ], [ 138.920426174, 36.228972024 ], [ 138.920335427999987, 36.228946024 ], [ 138.920274823, 36.228928659 ], [ 138.920227243, 36.228850945 ], [ 138.92022309399999, 36.228549622 ], [ 138.92021508, 36.228479455 ], [ 138.92015837400001, 36.228344532 ], [ 138.920013074, 36.228116872 ], [ 138.91984496, 36.22814983 ], [ 138.919391829, 36.228203004 ], [ 138.919119263999988, 36.228230728 ], [ 138.918662385, 36.228289832 ], [ 138.91836372099999, 36.228347162 ], [ 138.918046247, 36.228440117 ], [ 138.917725163, 36.228527082 ], [ 138.917393667999988, 36.228560313 ], [ 138.917180408, 36.22859847 ], [ 138.917199286, 36.228855928 ], [ 138.917217056, 36.228924861 ], [ 138.917324694, 36.229378139 ], [ 138.917343799, 36.229457561 ], [ 138.917358060999987, 36.229516851 ], [ 138.917371908, 36.229574417 ], [ 138.917431611000012, 36.229822611 ], [ 138.91745638899999, 36.229930472 ], [ 138.91748965799999, 36.230071698 ], [ 138.917484941, 36.230081476 ], [ 138.917407875, 36.230118145 ], [ 138.917416839999987, 36.230232673 ], [ 138.9175091, 36.231028634 ], [ 138.917103518, 36.23110422 ], [ 138.91646324300001, 36.231240005 ], [ 138.916099601000013, 36.231242079 ] ] ] } },
{ "type": "Feature", "properties": { "A29_001": "10384", "A29_002": "群馬県", "A29_003": "甘楽町", "A29_004": 12, "A29_005": "工業専用地域", "A29_006": 50, "A29_007": 200, "A29_008": null }, "geometry": { "type": "Polygon", "coordinates": [ [ [ 138.916298184, 36.234479919 ], [ 138.916307264000011, 36.234458528 ], [ 138.916360692000012, 36.234462342 ], [ 138.916357627, 36.23423541 ], [ 138.91629100099999, 36.233891521 ], [ 138.916211634, 36.23344148 ], [ 138.915992331000012, 36.233449824 ], [ 138.915996121, 36.233511567 ], [ 138.916010973999988, 36.233576987 ], [ 138.916030955999986, 36.233676206 ], [ 138.91604434199999, 36.233720443 ], [ 138.91584186099999, 36.233732434 ], [ 138.91574469299999, 36.233483694 ], [ 138.91512008699999, 36.233536131 ], [ 138.91513661799999, 36.233884406 ], [ 138.915076766999988, 36.234220171 ], [ 138.914874696999988, 36.23463592 ], [ 138.914482365, 36.235212358 ], [ 138.91441327699999, 36.235331056 ], [ 138.914346044000013, 36.235542766 ], [ 138.914306332, 36.235666458 ], [ 138.914262699, 36.235873581 ], [ 138.914251637, 36.236064262 ], [ 138.914169601999987, 36.236283012 ], [ 138.914028480000013, 36.236520384 ], [ 138.914001265, 36.236582174 ], [ 138.914010889, 36.23676586 ], [ 138.913962876, 36.236844182 ], [ 138.913868208, 36.236897174 ], [ 138.913873079000012, 36.236966557 ], [ 138.913883991, 36.237018792 ], [ 138.91390085399999, 36.237100761 ], [ 138.913910864, 36.237200229 ], [ 138.91397232700001, 36.237545318 ], [ 138.914325405, 36.237557569 ], [ 138.914336566, 36.237106971 ], [ 138.914414959999988, 36.236947807 ], [ 138.914724334, 36.236418424 ], [ 138.915031610999989, 36.236067866 ], [ 138.915731566, 36.235362635 ], [ 138.91581262, 36.235227336 ], [ 138.915922074, 36.235180484 ], [ 138.916038584, 36.235033534 ], [ 138.916155651, 36.234838897 ], [ 138.916270053, 36.234620393 ], [ 138.916298184, 36.234479919 ] ] ] } },
{ "type": "Feature", "properties": { "A29_001": "10384", "A29_002": "群馬県", "A29_003": "甘楽町", "A29_004": 3, "A29_005": "第一種中高層住居専用地域", "A29_006": 60, "A29_007": 200, "A29_008": null }, "geometry": { "type": "Polygon", "coordinates": [ [ [ 138.915468627, 36.22809709 ], [ 138.915465844000011, 36.228110405 ], [ 138.915501139000014, 36.228192454 ], [ 138.91550874399999, 36.228231651 ], [ 138.91550734899999, 36.228306762 ], [ 138.91550874399999, 36.22836945 ], [ 138.915514352, 36.228397038 ], [ 138.915518502, 36.228417453 ], [ 138.915519896, 36.22848127 ], [ 138.915511802, 36.228538488 ], [ 138.915504827, 36.228587799 ], [ 138.91550235, 36.228600644 ], [ 138.915487401, 36.228678158 ], [ 138.915483292, 36.228758267 ], [ 138.915485738, 36.22878751 ], [ 138.915463273, 36.22885308 ], [ 138.915339224, 36.228890281 ], [ 138.91531901799999, 36.229358292 ], [ 138.915246722, 36.229358333 ], [ 138.915168083, 36.229364806 ], [ 138.914973472000014, 36.229376667 ], [ 138.91487091, 36.229382959 ], [ 138.914898249, 36.229602269 ], [ 138.91478558, 36.229672941 ], [ 138.914631961, 36.229721838 ], [ 138.914313926, 36.229736087 ], [ 138.914645881000013, 36.230041478 ], [ 138.914945856, 36.230313237 ], [ 138.915115601, 36.230395616 ], [ 138.91528837300001, 36.230470863 ], [ 138.91549271, 36.230615505 ], [ 138.915663755999987, 36.230838583 ], [ 138.915834412, 36.231095041 ], [ 138.91593819799999, 36.231263972 ], [ 138.916099601000013, 36.231242079 ], [ 138.91646324300001, 36.231240005 ], [ 138.917103518, 36.23110422 ], [ 138.9175091, 36.231028634 ], [ 138.917416839999987, 36.230232673 ], [ 138.917407875, 36.230118145 ], [ 138.917484941, 36.230081476 ], [ 138.91748965799999, 36.230071698 ], [ 138.91745638899999, 36.229930472 ], [ 138.917431611000012, 36.229822611 ], [ 138.917371908, 36.229574417 ], [ 138.917358060999987, 36.229516851 ], [ 138.917343799, 36.229457561 ], [ 138.917324694, 36.229378139 ], [ 138.917217056, 36.228924861 ], [ 138.917199286, 36.228855928 ], [ 138.917154528, 36.228245507 ], [ 138.91716534, 36.22801417 ], [ 138.917170621, 36.227969297 ], [ 138.917162786, 36.227742894 ], [ 138.917163914000014, 36.227635733 ], [ 138.91716471699999, 36.227567761 ], [ 138.917174511000013, 36.227361434 ], [ 138.91718038799999, 36.22723605 ], [ 138.917210657999988, 36.227162831 ], [ 138.917260703000011, 36.227078924 ], [ 138.917323212000014, 36.227030666 ], [ 138.917430126, 36.225493714 ], [ 138.916967723999988, 36.225477402 ], [ 138.916957532, 36.225612793 ], [ 138.916946239, 36.225762796 ], [ 138.916944539000013, 36.225962059 ], [ 138.916944539000013, 36.226116462 ], [ 138.916951426, 36.226199244 ], [ 138.916982673, 36.226428952 ], [ 138.91702282899999, 36.226724154 ], [ 138.917023347999987, 36.226727973 ], [ 138.917025946, 36.226747069 ], [ 138.917026041000014, 36.226747767 ], [ 138.917041540000014, 36.226898916 ], [ 138.91705876, 36.227009139 ], [ 138.91673963400001, 36.226948779 ], [ 138.916666666999987, 36.226934631 ], [ 138.916510442, 36.22690434 ], [ 138.916478469999987, 36.226921955 ], [ 138.916461469000012, 36.226931321 ], [ 138.916416333, 36.227025841 ], [ 138.916346065, 36.227172989 ], [ 138.91613734399999, 36.227591077 ], [ 138.916113857, 36.227638123 ], [ 138.91604673099999, 36.227627728 ], [ 138.915982379000013, 36.227631142 ], [ 138.91590129299999, 36.227635444 ], [ 138.91574942299999, 36.22764237 ], [ 138.91563071600001, 36.227647222 ], [ 138.915595278000012, 36.227645939 ], [ 138.915563185, 36.227644777 ], [ 138.915484644, 36.228020474 ], [ 138.915468627, 36.22809709 ] ] ] } },
{ "type": "Feature", "properties": { "A29_001": "10384", "A29_002": "群馬県", "A29_003": "甘楽町", "A29_004": 10, "A29_005": "準工業地域", "A29_006": 60, "A29_007": 200, "A29_008": null }, "geometry": { "type": "Polygon", "coordinates": [ [ [ 138.919408572, 36.223685195 ], [ 138.91937901099999, 36.223672385 ], [ 138.919166259, 36.224024399 ], [ 138.91892488799999, 36.224331596 ], [ 138.918688567, 36.224571347 ], [ 138.918371116, 36.224663707 ], [ 138.918087887000013, 36.22472354 ], [ 138.917851297999988, 36.224821882 ], [ 138.917431255999986, 36.225004664 ], [ 138.917430126, 36.225493714 ], [ 138.917323212000014, 36.227030666 ], [ 138.917260703000011, 36.227078924 ], [ 138.917210657999988, 36.227162831 ], [ 138.91718038799999, 36.22723605 ], [ 138.917174511000013, 36.227361434 ], [ 138.91716471699999, 36.227567761 ], [ 138.917163914000014, 36.227635733 ], [ 138.917162786, 36.227742894 ], [ 138.917170621, 36.227969297 ], [ 138.91716534, 36.22801417 ], [ 138.917154528, 36.228245507 ], [ 138.917180408, 36.22859847 ], [ 138.917393667999988, 36.228560313 ], [ 138.917725163, 36.228527082 ], [ 138.918046247, 36.228440117 ], [ 138.91836372099999, 36.228347162 ], [ 138.918662385, 36.228289832 ], [ 138.919119263999988, 36.228230728 ], [ 138.919391829, 36.228203004 ], [ 138.91984496, 36.22814983 ], [ 138.920013074, 36.228116872 ], [ 138.91998494399999, 36.228072797 ], [ 138.919809332999989, 36.227836814 ], [ 138.919767302999986, 36.227654789 ], [ 138.919483982, 36.227114665 ], [ 138.919351318999986, 36.226982023 ], [ 138.919245124000014, 36.226699355 ], [ 138.919158853, 36.226373917 ], [ 138.919115591, 36.226237865 ], [ 138.91901660100001, 36.225994952 ], [ 138.918971037, 36.225375318 ], [ 138.918988883999987, 36.225317559 ], [ 138.919003245999988, 36.225197156 ], [ 138.919015142, 36.22509036 ], [ 138.919035572000013, 36.225004521 ], [ 138.919035799, 36.225 ], [ 138.919039486, 36.224926594 ], [ 138.919049556, 36.224809306 ], [ 138.919064889, 36.224752139 ], [ 138.919093186, 36.224704383 ], [ 138.91911299899999, 36.224642718 ], [ 138.919097900999986, 36.224585633 ], [ 138.919204876, 36.224231804 ], [ 138.919488086, 36.223734011 ], [ 138.919477273000012, 36.223727373 ], [ 138.919408572, 36.223685195 ] ] ] } },
{ "type": "Feature", "properties": { "A29_001": "10384", "A29_002": "群馬県", "A29_003": "甘楽町", "A29_004": 1, "A29_005": "第一種低層住居専用地域", "A29_006": 40, "A29_007": 80, "A29_008": null }, "geometry": { "type": "Polygon", "coordinates": [ [ [ 138.915465844000011, 36.228110405 ], [ 138.915050966, 36.228120237 ], [ 138.91501527599999, 36.228403727 ], [ 138.914831604, 36.228757619 ], [ 138.91484867599999, 36.228807826 ], [ 138.915485738, 36.22878751 ], [ 138.915483292, 36.228758267 ], [ 138.915487401, 36.228678158 ], [ 138.915504827, 36.228587799 ], [ 138.915511802, 36.228538488 ], [ 138.915519896, 36.22848127 ], [ 138.915518502, 36.228417453 ], [ 138.915514352, 36.228397038 ], [ 138.91550874399999, 36.22836945 ], [ 138.91550734899999, 36.228306762 ], [ 138.91550874399999, 36.228231651 ], [ 138.915501139000014, 36.228192454 ], [ 138.915465844000011, 36.228110405 ] ] ] } },
{ "type": "Feature", "properties": { "A29_001": "10384", "A29_002": "群馬県", "A29_003": "甘楽町", "A29_004": 1, "A29_005": "第一種低層住居専用地域", "A29_006": 40, "A29_007": 80, "A29_008": null }, "geometry": { "type": "Polygon", "coordinates": [ [ [ 138.915982379000013, 36.227631142 ], [ 138.91604673099999, 36.227627728 ], [ 138.916113857, 36.227638123 ], [ 138.91613734399999, 36.227591077 ], [ 138.916346065, 36.227172989 ], [ 138.916416333, 36.227025841 ], [ 138.916461469000012, 36.226931321 ], [ 138.916478469999987, 36.226921955 ], [ 138.916510442, 36.22690434 ], [ 138.916666666999987, 36.226934631 ], [ 138.91673963400001, 36.226948779 ], [ 138.91705876, 36.227009139 ], [ 138.917041540000014, 36.226898916 ], [ 138.917026041000014, 36.226747767 ], [ 138.917025946, 36.226747069 ], [ 138.917023347999987, 36.226727973 ], [ 138.91702282899999, 36.226724154 ], [ 138.916982673, 36.226428952 ], [ 138.916951426, 36.226199244 ], [ 138.916944539000013, 36.226116462 ], [ 138.916944539000013, 36.225962059 ], [ 138.916946239, 36.225762796 ], [ 138.916957532, 36.225612793 ], [ 138.916967723999988, 36.225477402 ], [ 138.917430126, 36.225493714 ], [ 138.917431255999986, 36.225004664 ], [ 138.917851297999988, 36.224821882 ], [ 138.918087887000013, 36.22472354 ], [ 138.918371116, 36.224663707 ], [ 138.918688567, 36.224571347 ], [ 138.91892488799999, 36.224331596 ], [ 138.919166259, 36.224024399 ], [ 138.91937901099999, 36.223672385 ], [ 138.919267862999988, 36.223624219 ], [ 138.919073615, 36.223625119 ], [ 138.919290987000011, 36.223407399 ], [ 138.918411279, 36.223386368 ], [ 138.918290627, 36.223385446 ], [ 138.917774842, 36.223703418 ], [ 138.91713629099999, 36.22394891 ], [ 138.916825077999988, 36.224137293 ], [ 138.916530935, 36.224375882 ], [ 138.916207501, 36.224602322 ], [ 138.915916882, 36.22479086 ], [ 138.915725955, 36.225011162 ], [ 138.91558144199999, 36.225289048 ], [ 138.915527413, 36.225379248 ], [ 138.91548365, 36.225598293 ], [ 138.91547428199999, 36.225896293 ], [ 138.915436394000011, 36.226368148 ], [ 138.915386633, 36.226596685 ], [ 138.915329184, 36.226719932 ], [ 138.915226633, 36.226794256 ], [ 138.91506899699999, 36.226955349 ], [ 138.914840814, 36.227158435 ], [ 138.914768286, 36.227226599 ], [ 138.914735388999986, 36.227244806 ], [ 138.914709863000013, 36.227258154 ], [ 138.914842383, 36.227378016 ], [ 138.914946117, 36.227396295 ], [ 138.91510105099999, 36.227411982 ], [ 138.915217248, 36.227483676 ], [ 138.915304842000012, 36.227541611 ], [ 138.915376380999987, 36.227586739 ], [ 138.915471166, 36.227631975 ], [ 138.915563185, 36.227644777 ], [ 138.915595278000012, 36.227645939 ], [ 138.91563071600001, 36.227647222 ], [ 138.91574942299999, 36.22764237 ], [ 138.91590129299999, 36.227635444 ], [ 138.915982379000013, 36.227631142 ] ] ] } },
{ "type": "Feature", "properties": { "A29_001": "10384", "A29_002": "群馬県", "A29_003": "甘楽町", "A29_004": 5, "A29_005": "第一種住居地域", "A29_006": 60, "A29_007": 200, "A29_008": null }, "geometry": { "type": "Polygon", "coordinates": [ [ [ 138.926367562, 36.247659632 ], [ 138.925658274, 36.246500355 ], [ 138.925603889, 36.246454444 ], [ 138.926088797, 36.246071687 ], [ 138.92610779, 36.246058477 ], [ 138.926084143, 36.246045321 ], [ 138.926001086000014, 36.245990285 ], [ 138.925940543, 36.245905996 ], [ 138.92586297299999, 36.245827838 ], [ 138.925793046, 36.2457601 ], [ 138.925771602999987, 36.245754991 ], [ 138.9257159, 36.245733111 ], [ 138.925529807, 36.245533303 ], [ 138.92537201, 36.245534013 ], [ 138.925225574, 36.245366935 ], [ 138.925151476999986, 36.245257636 ], [ 138.924942515, 36.245202635 ], [ 138.924863179, 36.24513908 ], [ 138.924821431999987, 36.245083441 ], [ 138.924808363000011, 36.244991775 ], [ 138.924614854999987, 36.244822431 ], [ 138.924559311, 36.244738072 ], [ 138.924391186, 36.244410586 ], [ 138.924350037000011, 36.244303445 ], [ 138.92434586600001, 36.24405351 ], [ 138.923926642999987, 36.243649716 ], [ 138.923620962, 36.243609239 ], [ 138.92310956599999, 36.243031145 ], [ 138.92251737699999, 36.242313174 ], [ 138.922443840999989, 36.242156187 ], [ 138.922395142999989, 36.242090955 ], [ 138.922209495, 36.242057112 ], [ 138.922125544000011, 36.241985889 ], [ 138.922117055, 36.241905703 ], [ 138.92200187200001, 36.241887656 ], [ 138.921958128999989, 36.241801479 ], [ 138.921942210999987, 36.241789356 ], [ 138.921927148, 36.241804376 ], [ 138.921858781999987, 36.241844483 ], [ 138.921837208999989, 36.241851473 ], [ 138.92181419799999, 36.241848561 ], [ 138.921779681, 36.241832833 ], [ 138.921767456, 36.24182526 ], [ 138.92154300199999, 36.241933871 ], [ 138.921826011, 36.242256826 ], [ 138.922043785999989, 36.242505571 ], [ 138.921709861000011, 36.242663444 ], [ 138.921474928, 36.242774704 ], [ 138.921349134, 36.242873267 ], [ 138.921347989999987, 36.242874163 ], [ 138.92129080399999, 36.24288815 ], [ 138.92129802299999, 36.242914975 ], [ 138.921420496, 36.243370052 ], [ 138.921473493, 36.243875984 ], [ 138.921717494, 36.243806207 ], [ 138.921727882, 36.243815269 ], [ 138.921792818, 36.243871917 ], [ 138.921889169999986, 36.243963172 ], [ 138.921918723, 36.244005526 ], [ 138.922107627, 36.24402389 ], [ 138.922464967, 36.24382485 ], [ 138.922493758, 36.243842035 ], [ 138.92265322099999, 36.243968046 ], [ 138.922771418999986, 36.244055199 ], [ 138.922920374, 36.244144499 ], [ 138.923047666, 36.244205876 ], [ 138.923155764, 36.244259068 ], [ 138.923214238000014, 36.244296047 ], [ 138.923325878000014, 36.244370603 ], [ 138.923400891999989, 36.244398223 ], [ 138.92355219699999, 36.244439594 ], [ 138.92324058299999, 36.2446585 ], [ 138.923402755000012, 36.244820198 ], [ 138.923485078999988, 36.244923979 ], [ 138.92381586799999, 36.245358719 ], [ 138.923827539, 36.245386457 ], [ 138.92399544, 36.245694143 ], [ 138.924027128, 36.245698524 ], [ 138.924124146999986, 36.245685606 ], [ 138.924300906000013, 36.245642544 ], [ 138.924393938, 36.245624243 ], [ 138.924415202, 36.245629626 ], [ 138.924425834, 36.245668381 ], [ 138.924453742999987, 36.245737279 ], [ 138.924549641, 36.245899657 ], [ 138.92468994699999, 36.246088268 ], [ 138.924690526, 36.246089046 ], [ 138.924718700999989, 36.246126306 ], [ 138.924790373, 36.246256452 ], [ 138.92481419500001, 36.246287255 ], [ 138.924886656000012, 36.246362537 ], [ 138.924984249, 36.246422631 ], [ 138.925, 36.24642959 ], [ 138.925053561, 36.246453255 ], [ 138.92511657099999, 36.246523434 ], [ 138.925141774999986, 36.246577025 ], [ 138.925151922999987, 36.246612837 ], [ 138.92517182200001, 36.246683057 ], [ 138.925227318, 36.246665689 ], [ 138.925268941000013, 36.246654451 ], [ 138.925353333, 36.246634222 ], [ 138.925853531, 36.24748964 ], [ 138.92598217299999, 36.247532726 ], [ 138.926062327000011, 36.247576403 ], [ 138.926152683, 36.2476189 ], [ 138.92628363599999, 36.247647829 ], [ 138.926296962, 36.247650773 ], [ 138.926367562, 36.247659632 ] ] ] } },
{ "type": "Feature", "properties": { "A29_001": "10384", "A29_002": "群馬県", "A29_003": "甘楽町", "A29_004": 10, "A29_005": "準工業地域", "A29_006": 60, "A29_007": 200, "A29_008": null }, "geometry": { "type": "Polygon", "coordinates": [ [ [ 138.91837719599999, 36.239226408 ], [ 138.918357981000014, 36.238927295 ], [ 138.91847537699999, 36.238896123 ], [ 138.918790094, 36.238852167 ], [ 138.91908527699999, 36.23880821 ], [ 138.91952739300001, 36.238749877 ], [ 138.919650076000011, 36.238725726 ], [ 138.919632541999988, 36.238671457 ], [ 138.919544389, 36.238398611 ], [ 138.919503875, 36.238229079 ], [ 138.919452444, 36.238013861 ], [ 138.918298822999986, 36.238219868 ], [ 138.918077358, 36.238259414 ], [ 138.917776315999987, 36.238318179 ], [ 138.917620354, 36.238344623 ], [ 138.917500663, 36.23834095 ], [ 138.91720143500001, 36.238255741 ], [ 138.917100772, 36.238251848 ], [ 138.917062433000012, 36.23826483 ], [ 138.916970937, 36.238297052 ], [ 138.916815923, 36.238363462 ], [ 138.91669668099999, 36.238410554 ], [ 138.916666666999987, 36.238428607 ], [ 138.91662597199999, 36.238453083 ], [ 138.91651930899999, 36.238513188 ], [ 138.916411992, 36.238595295 ], [ 138.916363190999988, 36.238655955 ], [ 138.916474978999986, 36.238690971 ], [ 138.916618508999989, 36.23875084 ], [ 138.916666666999987, 36.238774713 ], [ 138.916685086, 36.238783844 ], [ 138.916730795, 36.238794308 ], [ 138.916826187999987, 36.238805578 ], [ 138.916986971999989, 36.238823806 ], [ 138.917072897, 36.238841095 ], [ 138.917278384000014, 36.239022798 ], [ 138.917470998999988, 36.239196139 ], [ 138.917645356, 36.239081659 ], [ 138.918110171, 36.239609821 ], [ 138.91833205099999, 36.240038506 ], [ 138.918342306, 36.239962 ], [ 138.918354306, 36.239909139 ], [ 138.918368944, 36.239888639 ], [ 138.918451583, 36.239847639 ], [ 138.918460917, 36.239824972 ], [ 138.918456674, 36.239721903 ], [ 138.918415504, 36.239448644 ], [ 138.91837719599999, 36.239226408 ] ] ] } }
]
}
