{
"type": "FeatureCollection",
"name": "A29-19_45441",
"features": [
{ "type": "Feature", "properties": { "A29_001": "45441", "A29_002": "宮崎県", "A29_003": "高千穂町", "A29_004": 2, "A29_005": "第二種低層住居専用地域", "A29_006": 60, "A29_007": 150, "A29_008": null }, "geometry": { "type": "Polygon", "coordinates": [ [ [ 131.303786137, 32.701161453 ], [ 131.304063988, 32.700904555 ], [ 131.303835033000013, 32.700935674 ], [ 131.303727955999989, 32.700961345 ], [ 131.303661369, 32.700985724 ], [ 131.30354108, 32.701022095 ], [ 131.303429736, 32.701084112 ], [ 131.303190664999988, 32.701236049 ], [ 131.303063208999987, 32.701358514 ], [ 131.302929078, 32.701471166 ], [ 131.302766719, 32.70158529 ], [ 131.302619197000013, 32.701667084 ], [ 131.302408111, 32.701786306 ], [ 131.302154602, 32.701951123 ], [ 131.30202784299999, 32.702112205 ], [ 131.301979972999987, 32.70219797 ], [ 131.30194377, 32.702296345 ], [ 131.301915236000013, 32.70245297 ], [ 131.301867574999989, 32.702601218 ], [ 131.30181083799999, 32.702766336 ], [ 131.301760683999987, 32.702913887 ], [ 131.301761805000012, 32.703000237 ], [ 131.30178530500001, 32.703074597 ], [ 131.30185122200001, 32.703169918 ], [ 131.301939526000012, 32.703255355 ], [ 131.302007053000011, 32.703335226 ], [ 131.302026309000013, 32.703382217 ], [ 131.302816330000013, 32.70381856 ], [ 131.30332862, 32.704112746 ], [ 131.30323705399999, 32.703822086 ], [ 131.303192387, 32.703588178 ], [ 131.303193735, 32.703312678 ], [ 131.303224269999987, 32.70299574 ], [ 131.303241453999988, 32.702680901 ], [ 131.303310922, 32.702193983 ], [ 131.303467180000013, 32.701669633 ], [ 131.303560182000012, 32.701466118 ], [ 131.303631861000014, 32.701343472 ], [ 131.303667867, 32.701299457 ], [ 131.303760203, 32.701186581 ], [ 131.303786137, 32.701161453 ] ] ] } },
{ "type": "Feature", "properties": { "A29_001": "45441", "A29_002": "宮崎県", "A29_003": "高千穂町", "A29_004": 2, "A29_005": "第二種低層住居専用地域", "A29_006": 60, "A29_007": 150, "A29_008": null }, "geometry": { "type": "Polygon", "coordinates": [ [ [ 131.309850874, 32.700330275 ], [ 131.30978005, 32.70024346 ], [ 131.309687348000011, 32.700103215 ], [ 131.309642913, 32.700050394 ], [ 131.309550616, 32.699940677 ], [ 131.309417462, 32.699852547 ], [ 131.30919131499999, 32.699764646 ], [ 131.308990333, 32.6997511 ], [ 131.308626944, 32.699770944 ], [ 131.308346164, 32.699794809 ], [ 131.308050494000014, 32.699771665 ], [ 131.307752778, 32.69968675 ], [ 131.30758182400001, 32.699661892 ], [ 131.30739238000001, 32.699623041 ], [ 131.307199693, 32.699606664 ], [ 131.30695724, 32.699605854 ], [ 131.30674152099999, 32.699652717 ], [ 131.30655585, 32.699745841 ], [ 131.30643394099999, 32.699836018 ], [ 131.306423177999989, 32.699868037 ], [ 131.30636254800001, 32.700035558 ], [ 131.306397693, 32.700084967 ], [ 131.306493003000014, 32.700276394 ], [ 131.306529049, 32.700376699 ], [ 131.306598567, 32.700552744 ], [ 131.30662645000001, 32.700693788 ], [ 131.306656034000014, 32.700846762 ], [ 131.30669079, 32.701055186 ], [ 131.306727849999987, 32.70117969 ], [ 131.306768573999989, 32.701219978 ], [ 131.306898948, 32.701223871 ], [ 131.306954423, 32.701178102 ], [ 131.30700556799999, 32.701080392 ], [ 131.307081419000014, 32.700922947 ], [ 131.30717222199999, 32.700877139 ], [ 131.307241361, 32.700847722 ], [ 131.307394824, 32.700870761 ], [ 131.307395931, 32.700870927 ], [ 131.307398967000012, 32.700872451 ], [ 131.307466, 32.700906111 ], [ 131.307609659, 32.70096869 ], [ 131.307731775, 32.700985942 ], [ 131.307851244, 32.700957567 ], [ 131.307978819999988, 32.700872305 ], [ 131.30807228399999, 32.700766768 ], [ 131.30815335, 32.700678111 ], [ 131.308214496, 32.700591608 ], [ 131.308345094, 32.700419285 ], [ 131.308463526, 32.700331238 ], [ 131.30856890199999, 32.700309917 ], [ 131.30871591499999, 32.700323596 ], [ 131.308806522, 32.700353561 ], [ 131.308913772000011, 32.700394016 ], [ 131.308983629000011, 32.700426138 ], [ 131.309114249, 32.700501638 ], [ 131.30919954699999, 32.700587075 ], [ 131.309214231999988, 32.700601785 ], [ 131.309220942, 32.700640363 ], [ 131.309228633, 32.700684591 ], [ 131.30920145799999, 32.700749949 ], [ 131.30914518599999, 32.700804847 ], [ 131.30899588, 32.700848742 ], [ 131.308786645999987, 32.700850662 ], [ 131.30865383, 32.700860817 ], [ 131.308489544, 32.70089492 ], [ 131.308380160000013, 32.700958373 ], [ 131.30835711899999, 32.701018806 ], [ 131.308360701, 32.701094619 ], [ 131.308377963999988, 32.701285534 ], [ 131.308341802, 32.701393739 ], [ 131.308290757, 32.701520233 ], [ 131.30822317799999, 32.70166783 ], [ 131.308185374, 32.701781655 ], [ 131.308177476, 32.701899619 ], [ 131.30819931, 32.701971174 ], [ 131.30826294100001, 32.702124065 ], [ 131.30829316099999, 32.702219469 ], [ 131.308325258999986, 32.702378054 ], [ 131.30834579, 32.702553516 ], [ 131.308385867999988, 32.702618006 ], [ 131.308485706, 32.702675328 ], [ 131.308685308, 32.702768912 ], [ 131.308846644, 32.702841528 ], [ 131.3090147, 32.702936593 ], [ 131.30912302499999, 32.70304725 ], [ 131.30921986199999, 32.70319725 ], [ 131.30931833, 32.703338821 ], [ 131.309411711, 32.703449515 ], [ 131.309543321, 32.703569942 ], [ 131.30963494400001, 32.703652558 ], [ 131.309680063, 32.703733885 ], [ 131.309717068999987, 32.703869991 ], [ 131.30970766199999, 32.704031486 ], [ 131.309704708999988, 32.704138204 ], [ 131.309715028, 32.704240678 ], [ 131.309762658000011, 32.704327615 ], [ 131.30982357100001, 32.704413816 ], [ 131.309834948, 32.704427318 ], [ 131.309892711, 32.70450946 ], [ 131.309969325, 32.704630242 ], [ 131.310001035999989, 32.70474183 ], [ 131.310015029999988, 32.704855517 ], [ 131.310023967, 32.704855262 ], [ 131.310256769, 32.70485258 ], [ 131.31025143, 32.704749392 ], [ 131.310271091, 32.704672118 ], [ 131.31030956, 32.704585708 ], [ 131.310412393, 32.704416362 ], [ 131.310438737999988, 32.704298171 ], [ 131.31043837199999, 32.703715633 ], [ 131.31043702, 32.703671988 ], [ 131.31045655, 32.703556804 ], [ 131.310490772, 32.703368569 ], [ 131.310503469, 32.703198642 ], [ 131.310459772, 32.703048511 ], [ 131.310351493000013, 32.702951897 ], [ 131.310199989000012, 32.702841347 ], [ 131.31003016, 32.702713994 ], [ 131.309930224, 32.702628591 ], [ 131.30988284099999, 32.702540068 ], [ 131.309857701, 32.70245137 ], [ 131.30974530200001, 32.701977546 ], [ 131.309634133, 32.701524296 ], [ 131.309640159999987, 32.70134596 ], [ 131.309721114000013, 32.701225008 ], [ 131.309886575, 32.701050491 ], [ 131.30998076, 32.70091406 ], [ 131.309993432999988, 32.700737112 ], [ 131.309956244, 32.70054765 ], [ 131.309909374, 32.700439651 ], [ 131.309850874, 32.700330275 ] ] ] } },
{ "type": "Feature", "properties": { "A29_001": "45441", "A29_002": "宮崎県", "A29_003": "高千穂町", "A29_004": 4, "A29_005": "第二種中高層住居専用地域", "A29_006": 60, "A29_007": 200, "A29_008": null }, "geometry": { "type": "Polygon", "coordinates": [ [ [ 131.30486395299999, 32.705168037 ], [ 131.30493951, 32.70515678 ], [ 131.30530941, 32.70522348 ], [ 131.305644019999988, 32.70529341 ], [ 131.305792700000012, 32.70531191 ], [ 131.305948699999988, 32.70529896 ], [ 131.306011417, 32.705293861 ], [ 131.306108633, 32.705250957 ], [ 131.306281299, 32.705145628 ], [ 131.306396478000011, 32.705075142 ], [ 131.30652585499999, 32.70502849 ], [ 131.306630391999988, 32.70501452 ], [ 131.306729198999989, 32.705001315 ], [ 131.306877882, 32.705015695 ], [ 131.30703994000001, 32.705056017 ], [ 131.30709396200001, 32.705089211 ], [ 131.307104794999987, 32.705095867 ], [ 131.307127352, 32.70511099 ], [ 131.30743063599999, 32.704868275 ], [ 131.307491801999987, 32.704856932 ], [ 131.307660515, 32.704900747 ], [ 131.30781274899999, 32.704981811 ], [ 131.307988217, 32.705073146 ], [ 131.307956103, 32.704828846 ], [ 131.307920872000011, 32.704658435 ], [ 131.30787741099999, 32.704225545 ], [ 131.307840551999988, 32.704131561 ], [ 131.307727346, 32.704050401 ], [ 131.307566135, 32.70401429 ], [ 131.30755828, 32.704014704 ], [ 131.307426662000012, 32.704021652 ], [ 131.30726400099999, 32.704047325 ], [ 131.30709736899999, 32.704095336 ], [ 131.30709643599999, 32.704095474 ], [ 131.307095530999987, 32.704095866 ], [ 131.306870804, 32.704160615 ], [ 131.306883105999987, 32.704358563 ], [ 131.306655554, 32.704347887 ], [ 131.30632835899999, 32.704337454 ], [ 131.30604275499999, 32.70434798 ], [ 131.305706679999986, 32.70432091 ], [ 131.30558256899999, 32.704299852 ], [ 131.305526079, 32.704290267 ], [ 131.305498496000013, 32.704276366 ], [ 131.305417948000013, 32.704235771 ], [ 131.305328027, 32.70416438 ], [ 131.30519153099999, 32.704070638 ], [ 131.30502375, 32.70397514 ], [ 131.30471399000001, 32.703825792 ], [ 131.304689959, 32.703814205 ], [ 131.304676691, 32.70380988 ], [ 131.304510405, 32.703755669 ], [ 131.304337491000013, 32.703712846 ], [ 131.303812249, 32.703602714 ], [ 131.303192387, 32.703588178 ], [ 131.30323705399999, 32.703822086 ], [ 131.30332862, 32.704112746 ], [ 131.303512015, 32.70461616 ], [ 131.303758461, 32.705114346 ], [ 131.304010513, 32.705217848 ], [ 131.304205225, 32.705338128 ], [ 131.30434667599999, 32.705423435 ], [ 131.30451131, 32.705489028 ], [ 131.30460537, 32.70550109 ], [ 131.304762049, 32.705479994 ], [ 131.304821548, 32.705395604 ], [ 131.304821237999988, 32.705304338 ], [ 131.304839176, 32.705207412 ], [ 131.30486395299999, 32.705168037 ] ] ] } },
{ "type": "Feature", "properties": { "A29_001": "45441", "A29_002": "宮崎県", "A29_003": "高千穂町", "A29_004": 10, "A29_005": "準工業地域", "A29_006": 60, "A29_007": 200, "A29_008": null }, "geometry": { "type": "Polygon", "coordinates": [ [ [ 131.312654141, 32.705702865 ], [ 131.313544275, 32.705572811 ], [ 131.313599151, 32.705565695 ], [ 131.313639016, 32.705558925 ], [ 131.313777084, 32.705542984 ], [ 131.313861, 32.705530844 ], [ 131.313979396, 32.705492967 ], [ 131.31407534499999, 32.705492131 ], [ 131.314188997, 32.705509741 ], [ 131.314287306000011, 32.705508601 ], [ 131.314340777000012, 32.70548998 ], [ 131.31442647, 32.70541395 ], [ 131.31446345, 32.70536355 ], [ 131.314538865, 32.70528245 ], [ 131.314704729, 32.705223062 ], [ 131.314858982, 32.705167915 ], [ 131.31496042, 32.70511076 ], [ 131.31499725, 32.70501949 ], [ 131.315019978, 32.704904944 ], [ 131.31503597299999, 32.704730796 ], [ 131.31508038699999, 32.704609931 ], [ 131.31516273299999, 32.704473501 ], [ 131.315280347999987, 32.704437107 ], [ 131.315425081, 32.704465972 ], [ 131.315438497, 32.704470524 ], [ 131.315809699, 32.704637821 ], [ 131.31598137200001, 32.704692398 ], [ 131.316098692999986, 32.70475056 ], [ 131.31632095399999, 32.704956391 ], [ 131.316390187, 32.704982463 ], [ 131.316734856000011, 32.704959597 ], [ 131.316983767000011, 32.704904208 ], [ 131.317210641, 32.70473476 ], [ 131.31738926599999, 32.704750136 ], [ 131.317598468999989, 32.70473697 ], [ 131.317794166999988, 32.704662057 ], [ 131.317983088, 32.70454925 ], [ 131.318253053, 32.704343567 ], [ 131.31859923799999, 32.70408995 ], [ 131.318855197, 32.703915893 ], [ 131.319249302, 32.703595459 ], [ 131.319264678, 32.703582985 ], [ 131.319272344000012, 32.703576798 ], [ 131.319159893, 32.703233779 ], [ 131.31881501, 32.703151815 ], [ 131.3183114, 32.703032341 ], [ 131.31798226, 32.702940505 ], [ 131.317641556000012, 32.702865547 ], [ 131.317412241, 32.702825409 ], [ 131.31707338699999, 32.7028038 ], [ 131.316849233, 32.702814196 ], [ 131.316558831, 32.702875305 ], [ 131.31634266, 32.70294985 ], [ 131.316154227, 32.703024303 ], [ 131.316086105000011, 32.703047698 ], [ 131.316021143, 32.702980564 ], [ 131.315888261, 32.702972475 ], [ 131.315801615, 32.702889851 ], [ 131.315676946, 32.702856466 ], [ 131.31557685199999, 32.702727541 ], [ 131.315487028, 32.702685644 ], [ 131.315357428, 32.702666313 ], [ 131.31514655399999, 32.702675267 ], [ 131.314970643, 32.702709407 ], [ 131.314786542, 32.702775862 ], [ 131.314754678000014, 32.702806931 ], [ 131.31471868700001, 32.702842025 ], [ 131.314648912, 32.702843862 ], [ 131.314600789999986, 32.702845129 ], [ 131.314388455999989, 32.702911654 ], [ 131.314312817, 32.702946091 ], [ 131.314220995, 32.702987895 ], [ 131.314005272, 32.703034771 ], [ 131.314015313999988, 32.703057211 ], [ 131.314126928, 32.703156623 ], [ 131.314256715999989, 32.703229311 ], [ 131.31439990199999, 32.70333426 ], [ 131.314473330999988, 32.703436575 ], [ 131.314525226, 32.703554389 ], [ 131.314477141999987, 32.703561658 ], [ 131.3142571, 32.70359492 ], [ 131.314281736999988, 32.703734724 ], [ 131.314267032, 32.703803562 ], [ 131.314210677, 32.703834593 ], [ 131.31383868, 32.703834121 ], [ 131.313838510000011, 32.703852053 ], [ 131.313837467000013, 32.703961897 ], [ 131.313816468, 32.704130441 ], [ 131.313723837999987, 32.70423598 ], [ 131.313660958000014, 32.704300726 ], [ 131.313558699999987, 32.70439762 ], [ 131.31351792000001, 32.70442131 ], [ 131.31347154, 32.70443872 ], [ 131.313434410000013, 32.7044451 ], [ 131.313281077999989, 32.704421024 ], [ 131.31311331399999, 32.704411614 ], [ 131.312947132, 32.704379735 ], [ 131.312830703, 32.704328073 ], [ 131.31275076899999, 32.704265088 ], [ 131.31268230399999, 32.704157143 ], [ 131.312627099999986, 32.704042145 ], [ 131.312550273, 32.703917371 ], [ 131.31245518899999, 32.703795452 ], [ 131.312320414, 32.70372137 ], [ 131.312250828, 32.70371894 ], [ 131.311963158999987, 32.703745147 ], [ 131.311717286, 32.703795602 ], [ 131.311606758000011, 32.70384811 ], [ 131.311502482, 32.70394806 ], [ 131.311459743, 32.704074535 ], [ 131.311448445, 32.704168638 ], [ 131.311486855, 32.704230323 ], [ 131.311561942, 32.704332636 ], [ 131.31161876199999, 32.704434994 ], [ 131.311614536, 32.704497615 ], [ 131.31161402399999, 32.704505211 ], [ 131.311580693, 32.704550699 ], [ 131.311330711000011, 32.704610869 ], [ 131.31132388, 32.70461305 ], [ 131.31128862, 32.704621 ], [ 131.3112107, 32.70465106 ], [ 131.311151380000013, 32.70468579 ], [ 131.311101777, 32.704767645 ], [ 131.311052292, 32.70486465 ], [ 131.310996085999989, 32.705278787 ], [ 131.310954608, 32.70542934 ], [ 131.310887013000013, 32.705555455 ], [ 131.310762970000013, 32.70570385 ], [ 131.310973929999989, 32.70565209 ], [ 131.31105929, 32.70562673 ], [ 131.311119039, 32.705609727 ], [ 131.311160639, 32.705597889 ], [ 131.31121764400001, 32.705583987 ], [ 131.31127974, 32.705586696 ], [ 131.31133055699999, 32.705592296 ], [ 131.311440991000012, 32.705640672 ], [ 131.311619048000011, 32.705739335 ], [ 131.31163292799999, 32.705747026 ], [ 131.31241546699999, 32.705724934 ], [ 131.312654141, 32.705702865 ] ] ] } },
{ "type": "Feature", "properties": { "A29_001": "45441", "A29_002": "宮崎県", "A29_003": "高千穂町", "A29_004": 7, "A29_005": "準住居地域", "A29_006": 60, "A29_007": 200, "A29_008": null }, "geometry": { "type": "Polygon", "coordinates": [ [ [ 131.320181701, 32.706160827 ], [ 131.320107788, 32.705460371 ], [ 131.320110403, 32.705262386 ], [ 131.32010432300001, 32.704954904 ], [ 131.320118186, 32.704651583 ], [ 131.320110406, 32.704332873 ], [ 131.32009880199999, 32.704103634 ], [ 131.320097898, 32.704085783 ], [ 131.32005991, 32.70383099 ], [ 131.31999038, 32.70360638 ], [ 131.319945499999989, 32.70352474 ], [ 131.31990307, 32.703472689 ], [ 131.319755, 32.703397245 ], [ 131.319597011000013, 32.703334463 ], [ 131.319384251, 32.703280245 ], [ 131.319159893, 32.703233779 ], [ 131.319272344000012, 32.703576798 ], [ 131.31934318, 32.703764083 ], [ 131.319425337000013, 32.703829495 ], [ 131.319515239, 32.70389245 ], [ 131.319538908999988, 32.703964744 ], [ 131.319563929, 32.704041161 ], [ 131.319584343, 32.704177306 ], [ 131.319593822, 32.704507245 ], [ 131.319597834, 32.704701001 ], [ 131.319582454, 32.705045044 ], [ 131.319578653, 32.705376421 ], [ 131.319574547, 32.705622149 ], [ 131.31959548899999, 32.705823855 ], [ 131.31960034299999, 32.705870609 ], [ 131.319601129, 32.705883924 ], [ 131.31961094799999, 32.706050306 ], [ 131.319666713, 32.706319751 ], [ 131.319708837, 32.70648954 ], [ 131.31975454799999, 32.706620331 ], [ 131.319784341, 32.706705578 ], [ 131.31982413899999, 32.706792281 ], [ 131.31993497900001, 32.707033753 ], [ 131.319990851999989, 32.70712944 ], [ 131.32014680899999, 32.707086217 ], [ 131.320320900000013, 32.707005739 ], [ 131.320448451, 32.706914147 ], [ 131.320461188, 32.706892239 ], [ 131.320468295000012, 32.706867167 ], [ 131.320467321, 32.706821072 ], [ 131.320321003, 32.706626746 ], [ 131.320181701, 32.706160827 ] ] ] } },
{ "type": "Feature", "properties": { "A29_001": "45441", "A29_002": "宮崎県", "A29_003": "高千穂町", "A29_004": 6, "A29_005": "第二種住居地域", "A29_006": 60, "A29_007": 200, "A29_008": null }, "geometry": { "type": "Polygon", "coordinates": [ [ [ 131.30767385199999, 32.708457044 ], [ 131.307686722999989, 32.708429157 ], [ 131.307688404, 32.708429882 ], [ 131.307712169000013, 32.708374027 ], [ 131.30778702399999, 32.708198095 ], [ 131.3079842, 32.707776079 ], [ 131.308151468, 32.707778307 ], [ 131.308646329, 32.70786201 ], [ 131.308803469, 32.707904817 ], [ 131.308941471, 32.707950812 ], [ 131.30905114, 32.70799793 ], [ 131.309046405, 32.707828748 ], [ 131.309077480000013, 32.707689666 ], [ 131.309108565, 32.707553391 ], [ 131.309210839, 32.707352353 ], [ 131.30928276899999, 32.707261611 ], [ 131.30937003299999, 32.70728316 ], [ 131.309443168, 32.707301233 ], [ 131.309534543000012, 32.707310836 ], [ 131.309634037, 32.707267063 ], [ 131.309706795000011, 32.707175617 ], [ 131.309732886, 32.707036547 ], [ 131.30975575299999, 32.706925566 ], [ 131.309805267, 32.706836284 ], [ 131.309883082, 32.706766589 ], [ 131.309793140000011, 32.70669099 ], [ 131.309693113, 32.706580313 ], [ 131.309657888, 32.706479305 ], [ 131.309669318, 32.706378592 ], [ 131.30989846899999, 32.705960436 ], [ 131.309991122000014, 32.705832596 ], [ 131.31010515299999, 32.705670843 ], [ 131.310249639, 32.705443528 ], [ 131.310321326, 32.705271544 ], [ 131.310327483, 32.705131119 ], [ 131.310302062, 32.704983751 ], [ 131.310256769, 32.70485258 ], [ 131.310023967, 32.704855262 ], [ 131.310015029999988, 32.704855517 ], [ 131.309916447, 32.704858335 ], [ 131.309746237000013, 32.704862266 ], [ 131.309745975999988, 32.704877475 ], [ 131.309744163, 32.704983024 ], [ 131.309757866000012, 32.705103743 ], [ 131.309794753, 32.705205449 ], [ 131.309833357, 32.705323298 ], [ 131.30983545699999, 32.705450363 ], [ 131.30980013300001, 32.705560673 ], [ 131.309741481, 32.705648574 ], [ 131.309629683, 32.705735904 ], [ 131.30953466, 32.70576415 ], [ 131.309475240000012, 32.70577058 ], [ 131.30937075, 32.70577656 ], [ 131.309264385, 32.705772462 ], [ 131.309233721999988, 32.705771281 ], [ 131.309050903000013, 32.705731013 ], [ 131.308923689000011, 32.705682183 ], [ 131.308735772, 32.705608228 ], [ 131.308610132000013, 32.70553412 ], [ 131.308518600000014, 32.705478181 ], [ 131.308384553, 32.705373906 ], [ 131.308269652, 32.705283624 ], [ 131.308105633999986, 32.705156254 ], [ 131.3080074, 32.705083131 ], [ 131.307988217, 32.705073146 ], [ 131.30781274899999, 32.704981811 ], [ 131.307660515, 32.704900747 ], [ 131.307491801999987, 32.704856932 ], [ 131.30743063599999, 32.704868275 ], [ 131.307127352, 32.70511099 ], [ 131.307104794999987, 32.705095867 ], [ 131.30709396200001, 32.705089211 ], [ 131.30703994000001, 32.705056017 ], [ 131.306877882, 32.705015695 ], [ 131.306729198999989, 32.705001315 ], [ 131.306630391999988, 32.70501452 ], [ 131.30652585499999, 32.70502849 ], [ 131.306396478000011, 32.705075142 ], [ 131.306281299, 32.705145628 ], [ 131.306108633, 32.705250957 ], [ 131.306011417, 32.705293861 ], [ 131.305948699999988, 32.70529896 ], [ 131.305792700000012, 32.70531191 ], [ 131.305644019999988, 32.70529341 ], [ 131.30530941, 32.70522348 ], [ 131.30493951, 32.70515678 ], [ 131.30486395299999, 32.705168037 ], [ 131.304839176, 32.705207412 ], [ 131.304821237999988, 32.705304338 ], [ 131.304821548, 32.705395604 ], [ 131.304762049, 32.705479994 ], [ 131.30460537, 32.70550109 ], [ 131.30451131, 32.705489028 ], [ 131.30434667599999, 32.705423435 ], [ 131.304205225, 32.705338128 ], [ 131.304010513, 32.705217848 ], [ 131.303758461, 32.705114346 ], [ 131.303512015, 32.70461616 ], [ 131.30332862, 32.704112746 ], [ 131.302816330000013, 32.70381856 ], [ 131.302026309000013, 32.703382217 ], [ 131.301941742, 32.703420332 ], [ 131.301850472000012, 32.703440209 ], [ 131.30168441399999, 32.703443417 ], [ 131.30152908299999, 32.703452028 ], [ 131.301395641, 32.703498871 ], [ 131.301299492, 32.703549649 ], [ 131.30120042199999, 32.703719783 ], [ 131.301045834, 32.703924451 ], [ 131.300940829000012, 32.704058093 ], [ 131.300838857, 32.704106077 ], [ 131.300764206, 32.704130125 ], [ 131.30068045499999, 32.704164025 ], [ 131.300576064000012, 32.704233778 ], [ 131.30046346200001, 32.70433093 ], [ 131.300394587999989, 32.704344434 ], [ 131.300349469999986, 32.70432776 ], [ 131.300298833, 32.704265332 ], [ 131.300220741, 32.704253584 ], [ 131.300216451000011, 32.704254302 ], [ 131.30015269, 32.70426498 ], [ 131.300031628999989, 32.704315817 ], [ 131.299858263, 32.704368885 ], [ 131.299701588, 32.704447187 ], [ 131.299695136, 32.704504069 ], [ 131.299705394999989, 32.704592503 ], [ 131.299664931, 32.704659294 ], [ 131.299595360000012, 32.704712816 ], [ 131.29950157799999, 32.704727081 ], [ 131.29932309099999, 32.70473874 ], [ 131.299171317, 32.704791425 ], [ 131.299106763, 32.704897757 ], [ 131.29909723599999, 32.705002765 ], [ 131.299135787000012, 32.705094424 ], [ 131.299225772, 32.705186178 ], [ 131.29935984799999, 32.705302398 ], [ 131.299463073999988, 32.705380782 ], [ 131.299614572, 32.705492046 ], [ 131.299833404, 32.705625614 ], [ 131.299976574999988, 32.705729877 ], [ 131.300058258, 32.705821651 ], [ 131.30009173799999, 32.705900902 ], [ 131.300122061, 32.706029305 ], [ 131.300136525, 32.706133173 ], [ 131.300165872, 32.706218051 ], [ 131.300216841, 32.706312706 ], [ 131.300263266, 32.706368542 ], [ 131.30035371, 32.706408888 ], [ 131.300434204999988, 32.706427783 ], [ 131.300531532, 32.706416813 ], [ 131.300576439, 32.706348767 ], [ 131.30057764599999, 32.70628792 ], [ 131.300543299999987, 32.706193912 ], [ 131.300540340999987, 32.706178893 ], [ 131.300489921, 32.706000693 ], [ 131.300486143, 32.705864504 ], [ 131.300522317, 32.705756302 ], [ 131.300606848, 32.705706956 ], [ 131.30081414, 32.70564854 ], [ 131.300837247, 32.70557512 ], [ 131.300864467999986, 32.705520997 ], [ 131.300925664, 32.705446433 ], [ 131.300986929, 32.705392228 ], [ 131.301053309999986, 32.705378028 ], [ 131.301135461, 32.705361683 ], [ 131.301205141999986, 32.705341156 ], [ 131.30129697699999, 32.705241245 ], [ 131.30139723, 32.705175713 ], [ 131.30150343, 32.705150184 ], [ 131.301580129, 32.705151921 ], [ 131.301615537, 32.705152723 ], [ 131.301750177, 32.705188906 ], [ 131.301834996, 32.705225208 ], [ 131.302040419, 32.705321596 ], [ 131.302089513999988, 32.705352368 ], [ 131.302160184, 32.705378876 ], [ 131.302295691000012, 32.705425587 ], [ 131.30241877, 32.70546706 ], [ 131.302535044, 32.705487492 ], [ 131.302691971, 32.705484305 ], [ 131.30283392699999, 32.705497807 ], [ 131.302843145999987, 32.705498683 ], [ 131.302856039, 32.705501623 ], [ 131.303025966, 32.705540365 ], [ 131.303076936999986, 32.70555018 ], [ 131.303220398, 32.705577806 ], [ 131.30329768499999, 32.705596574 ], [ 131.303399957000011, 32.705637046 ], [ 131.303473982000014, 32.705673373 ], [ 131.303497396000012, 32.705721758 ], [ 131.303549268000012, 32.705836769 ], [ 131.303592763000012, 32.705930036 ], [ 131.30367041400001, 32.706056217 ], [ 131.303728806, 32.706134705 ], [ 131.303808831999987, 32.70622648 ], [ 131.30389548, 32.70631192 ], [ 131.304024512000012, 32.706407788 ], [ 131.30408283, 32.70644874 ], [ 131.30426424, 32.70653084 ], [ 131.30435542, 32.70657935 ], [ 131.30446039099999, 32.706632791 ], [ 131.304566257, 32.706753286 ], [ 131.304621338, 32.70683459 ], [ 131.304753893999987, 32.706989421 ], [ 131.30485145599999, 32.707109234 ], [ 131.304961442, 32.707219891 ], [ 131.305070488000013, 32.707298255 ], [ 131.305215326, 32.707401806 ], [ 131.305316909999988, 32.70744795 ], [ 131.305428124, 32.707466579 ], [ 131.305524397, 32.707451601 ], [ 131.30561637, 32.707393107 ], [ 131.305683475, 32.70734731 ], [ 131.305749389999988, 32.70733998 ], [ 131.30585965, 32.707386897 ], [ 131.305934603999987, 32.707451303 ], [ 131.30606280500001, 32.707545767 ], [ 131.30615684599999, 32.707606616 ], [ 131.306279932, 32.707665495 ], [ 131.30628826099999, 32.707669479 ], [ 131.306450180000013, 32.70774308 ], [ 131.306593506000013, 32.707814058 ], [ 131.306781519, 32.707915395 ], [ 131.30692632, 32.708007009 ], [ 131.307103541, 32.708109075 ], [ 131.30717928199999, 32.708160139 ], [ 131.307337386, 32.708256634 ], [ 131.307463055999989, 32.708330117 ], [ 131.30767385199999, 32.708457044 ] ] ] } },
{ "type": "Feature", "properties": { "A29_001": "45441", "A29_002": "宮崎県", "A29_003": "高千穂町", "A29_004": 5, "A29_005": "第一種住居地域", "A29_006": 60, "A29_007": 200, "A29_008": null }, "geometry": { "type": "Polygon", "coordinates": [ [ [ 131.318084907000014, 32.708790423 ], [ 131.318148701000013, 32.708637677 ], [ 131.318357193999987, 32.708730667 ], [ 131.318549002, 32.708822241 ], [ 131.318527015, 32.708554712 ], [ 131.318521550000014, 32.70844412 ], [ 131.31850512, 32.70826258 ], [ 131.3185159, 32.7081588 ], [ 131.31854912, 32.7080974 ], [ 131.31858607, 32.70803915 ], [ 131.31862930599999, 32.707965444 ], [ 131.318671639, 32.707935778 ], [ 131.31875836099999, 32.7079105 ], [ 131.31912263000001, 32.70769743 ], [ 131.319322770000014, 32.70756173 ], [ 131.319598930000012, 32.7073881 ], [ 131.319628832, 32.70736906 ], [ 131.319696577, 32.707272005 ], [ 131.31973795799999, 32.707233286 ], [ 131.319860194, 32.707188972 ], [ 131.319990851999989, 32.70712944 ], [ 131.31993497900001, 32.707033753 ], [ 131.31982413899999, 32.706792281 ], [ 131.319784341, 32.706705578 ], [ 131.31975454799999, 32.706620331 ], [ 131.319708837, 32.70648954 ], [ 131.319666713, 32.706319751 ], [ 131.31961094799999, 32.706050306 ], [ 131.319601129, 32.705883924 ], [ 131.31960034299999, 32.705870609 ], [ 131.31959548899999, 32.705823855 ], [ 131.319574547, 32.705622149 ], [ 131.319578653, 32.705376421 ], [ 131.319582454, 32.705045044 ], [ 131.319597834, 32.704701001 ], [ 131.319593822, 32.704507245 ], [ 131.319584343, 32.704177306 ], [ 131.319563929, 32.704041161 ], [ 131.319538908999988, 32.703964744 ], [ 131.319515239, 32.70389245 ], [ 131.319425337000013, 32.703829495 ], [ 131.31934318, 32.703764083 ], [ 131.319272344000012, 32.703576798 ], [ 131.319264678, 32.703582985 ], [ 131.319249302, 32.703595459 ], [ 131.318855197, 32.703915893 ], [ 131.31859923799999, 32.70408995 ], [ 131.318253053, 32.704343567 ], [ 131.317983088, 32.70454925 ], [ 131.317794166999988, 32.704662057 ], [ 131.317598468999989, 32.70473697 ], [ 131.31738926599999, 32.704750136 ], [ 131.317210641, 32.70473476 ], [ 131.316983767000011, 32.704904208 ], [ 131.316734856000011, 32.704959597 ], [ 131.316390187, 32.704982463 ], [ 131.31632095399999, 32.704956391 ], [ 131.316098692999986, 32.70475056 ], [ 131.31598137200001, 32.704692398 ], [ 131.315809699, 32.704637821 ], [ 131.315438497, 32.704470524 ], [ 131.315425081, 32.704465972 ], [ 131.315280347999987, 32.704437107 ], [ 131.31516273299999, 32.704473501 ], [ 131.31508038699999, 32.704609931 ], [ 131.31503597299999, 32.704730796 ], [ 131.315019978, 32.704904944 ], [ 131.31499725, 32.70501949 ], [ 131.31496042, 32.70511076 ], [ 131.314858982, 32.705167915 ], [ 131.314704729, 32.705223062 ], [ 131.314538865, 32.70528245 ], [ 131.31446345, 32.70536355 ], [ 131.31442647, 32.70541395 ], [ 131.314340777000012, 32.70548998 ], [ 131.314287306000011, 32.705508601 ], [ 131.314188997, 32.705509741 ], [ 131.31407534499999, 32.705492131 ], [ 131.313979396, 32.705492967 ], [ 131.313861, 32.705530844 ], [ 131.313777084, 32.705542984 ], [ 131.313639016, 32.705558925 ], [ 131.313599151, 32.705565695 ], [ 131.313544275, 32.705572811 ], [ 131.312654141, 32.705702865 ], [ 131.31241546699999, 32.705724934 ], [ 131.31163292799999, 32.705747026 ], [ 131.311667144000012, 32.705765986 ], [ 131.311675932000014, 32.705771224 ], [ 131.311930717, 32.705923117 ], [ 131.312074515, 32.705973917 ], [ 131.312166303999987, 32.70599397 ], [ 131.312285806, 32.706012167 ], [ 131.31237052, 32.70601747 ], [ 131.312487604000012, 32.706007634 ], [ 131.31264415199999, 32.705984577 ], [ 131.312712949, 32.705970323 ], [ 131.31283495400001, 32.705926967 ], [ 131.312902286, 32.705896956 ], [ 131.313048935000012, 32.705867957 ], [ 131.313204614999989, 32.705838936 ], [ 131.313387153, 32.70585687 ], [ 131.313481961, 32.705899803 ], [ 131.31375597499999, 32.706032137 ], [ 131.313901463, 32.706083681 ], [ 131.31401283, 32.70611301 ], [ 131.314151412, 32.706118098 ], [ 131.314236052000012, 32.706111205 ], [ 131.31438718699999, 32.706073604 ], [ 131.314583787, 32.706015979 ], [ 131.314711697, 32.706025487 ], [ 131.314807386000012, 32.706081411 ], [ 131.315005180000014, 32.70621585 ], [ 131.315212827000011, 32.706380869 ], [ 131.315645593, 32.706727717 ], [ 131.31563709400001, 32.706837539 ], [ 131.315651655000011, 32.706963871 ], [ 131.31568194799999, 32.707077527 ], [ 131.31574702899999, 32.707165821 ], [ 131.315865425999988, 32.707303125 ], [ 131.31593287699999, 32.707382371 ], [ 131.316099365000014, 32.707536566 ], [ 131.31624357199999, 32.707614942 ], [ 131.316489721000011, 32.707731205 ], [ 131.316637622, 32.707757509 ], [ 131.316804674, 32.707798508 ], [ 131.316945041999986, 32.707807982 ], [ 131.316971061, 32.707811299 ], [ 131.317020641, 32.70781762 ], [ 131.31708404, 32.70782988 ], [ 131.31716688, 32.70788234 ], [ 131.317209819999988, 32.70794197 ], [ 131.31728130499999, 32.708151949 ], [ 131.317412166, 32.708405938 ], [ 131.31748697899999, 32.708572134 ], [ 131.317713817999987, 32.708739308 ], [ 131.31782462000001, 32.708801964 ], [ 131.318021053, 32.708931696 ], [ 131.318084907000014, 32.708790423 ] ] ] } },
{ "type": "Feature", "properties": { "A29_001": "45441", "A29_002": "宮崎県", "A29_003": "高千穂町", "A29_004": 1, "A29_005": "第一種低層住居専用地域", "A29_006": 50, "A29_007": 100, "A29_008": null }, "geometry": { "type": "Polygon", "coordinates": [ [ [ 131.312225270999988, 32.70938046 ], [ 131.31245005400001, 32.709142273 ], [ 131.31216582, 32.70914901 ], [ 131.31192791, 32.7091103 ], [ 131.311763025, 32.709058333 ], [ 131.311732457, 32.709043666 ], [ 131.311670846999988, 32.708997484 ], [ 131.311594144, 32.708909216 ], [ 131.311542358, 32.708822291 ], [ 131.311498895, 32.708740961 ], [ 131.31144351899999, 32.708576819 ], [ 131.31141160300001, 32.708472995 ], [ 131.311324926, 32.708381944 ], [ 131.311266550999989, 32.70831048 ], [ 131.311253040999986, 32.708245925 ], [ 131.311297501000013, 32.708195969 ], [ 131.311362401999986, 32.708174044 ], [ 131.311491824, 32.708140024 ], [ 131.31162957399999, 32.708113004 ], [ 131.311735672999987, 32.708057981 ], [ 131.311851421999989, 32.707913071 ], [ 131.311964401000012, 32.707797918 ], [ 131.311983604, 32.707717572 ], [ 131.311984601, 32.707715201 ], [ 131.31199225200001, 32.707697014 ], [ 131.312006663, 32.707662755 ], [ 131.31200135899999, 32.707570098 ], [ 131.311984375, 32.707462025 ], [ 131.311880823, 32.70729379 ], [ 131.311757615, 32.707204234 ], [ 131.311636185999987, 32.707148372 ], [ 131.311391691000011, 32.707043672 ], [ 131.311253601, 32.706972406 ], [ 131.311136965, 32.706861771 ], [ 131.311115083, 32.70677758 ], [ 131.311132942, 32.706659591 ], [ 131.311220600000013, 32.70655547 ], [ 131.311353223999987, 32.706487744 ], [ 131.311507799, 32.706463003 ], [ 131.311522524999987, 32.706460646 ], [ 131.31157653, 32.706470098 ], [ 131.31172027400001, 32.706495257 ], [ 131.31187500499999, 32.70657631 ], [ 131.31203149000001, 32.706684037 ], [ 131.31230324, 32.70686808 ], [ 131.31237764, 32.70689619 ], [ 131.312481670000011, 32.70689908 ], [ 131.312581912000013, 32.706889068 ], [ 131.312729639, 32.706866235 ], [ 131.312963200000013, 32.70674932 ], [ 131.313099448, 32.706712265 ], [ 131.31325400899999, 32.706744174 ], [ 131.313367037, 32.706771973 ], [ 131.313509947999989, 32.70679689 ], [ 131.31366553, 32.70679473 ], [ 131.31381538, 32.706755407 ], [ 131.313956528, 32.706750841 ], [ 131.31409179799999, 32.706787009 ], [ 131.314139489000013, 32.706830417 ], [ 131.314162892000013, 32.706873885 ], [ 131.314150044, 32.706998882 ], [ 131.31411041699999, 32.707064974 ], [ 131.314104084, 32.707153448 ], [ 131.314142699, 32.7072727 ], [ 131.314208658000013, 32.707375034 ], [ 131.314268454, 32.707436664 ], [ 131.3143561, 32.70746033 ], [ 131.31461431, 32.70745969 ], [ 131.314872638999987, 32.707473083 ], [ 131.31519218299999, 32.707561732 ], [ 131.31561485, 32.70778573 ], [ 131.315994530000012, 32.70799228 ], [ 131.31631454, 32.7081361 ], [ 131.316555993, 32.708274073 ], [ 131.316658694000012, 32.708374908 ], [ 131.316657916999986, 32.708448625 ], [ 131.31663727, 32.70852358 ], [ 131.31660803, 32.70865884 ], [ 131.316589365, 32.70878859 ], [ 131.316590561999988, 32.708892491 ], [ 131.316631629999989, 32.7089998 ], [ 131.316705989000013, 32.709128088 ], [ 131.316764992, 32.709199548 ], [ 131.316807860000011, 32.70922192 ], [ 131.31685614, 32.70921865 ], [ 131.31692482, 32.70920118 ], [ 131.317010219999986, 32.70918681 ], [ 131.317072336, 32.709168583 ], [ 131.317162838, 32.709165546 ], [ 131.317294952, 32.709188379 ], [ 131.3174024, 32.70925028 ], [ 131.31748796, 32.70927835 ], [ 131.31759018, 32.70929382 ], [ 131.31768494, 32.7092983 ], [ 131.31774898, 32.70928633 ], [ 131.317808394, 32.709260794 ], [ 131.31789937, 32.709157363 ], [ 131.317971203000013, 32.709041342 ], [ 131.318021053, 32.708931696 ], [ 131.31782462000001, 32.708801964 ], [ 131.317713817999987, 32.708739308 ], [ 131.31748697899999, 32.708572134 ], [ 131.317412166, 32.708405938 ], [ 131.31728130499999, 32.708151949 ], [ 131.317209819999988, 32.70794197 ], [ 131.31716688, 32.70788234 ], [ 131.31708404, 32.70782988 ], [ 131.317020641, 32.70781762 ], [ 131.316971061, 32.707811299 ], [ 131.316945041999986, 32.707807982 ], [ 131.316804674, 32.707798508 ], [ 131.316637622, 32.707757509 ], [ 131.316489721000011, 32.707731205 ], [ 131.31624357199999, 32.707614942 ], [ 131.316099365000014, 32.707536566 ], [ 131.31593287699999, 32.707382371 ], [ 131.315865425999988, 32.707303125 ], [ 131.31574702899999, 32.707165821 ], [ 131.31568194799999, 32.707077527 ], [ 131.315651655000011, 32.706963871 ], [ 131.31563709400001, 32.706837539 ], [ 131.315645593, 32.706727717 ], [ 131.315212827000011, 32.706380869 ], [ 131.315005180000014, 32.70621585 ], [ 131.314807386000012, 32.706081411 ], [ 131.314711697, 32.706025487 ], [ 131.314583787, 32.706015979 ], [ 131.31438718699999, 32.706073604 ], [ 131.314236052000012, 32.706111205 ], [ 131.314151412, 32.706118098 ], [ 131.31401283, 32.70611301 ], [ 131.313901463, 32.706083681 ], [ 131.31375597499999, 32.706032137 ], [ 131.313481961, 32.705899803 ], [ 131.313387153, 32.70585687 ], [ 131.313204614999989, 32.705838936 ], [ 131.313048935000012, 32.705867957 ], [ 131.312902286, 32.705896956 ], [ 131.31283495400001, 32.705926967 ], [ 131.312712949, 32.705970323 ], [ 131.31264415199999, 32.705984577 ], [ 131.312487604000012, 32.706007634 ], [ 131.31237052, 32.70601747 ], [ 131.312285806, 32.706012167 ], [ 131.312166303999987, 32.70599397 ], [ 131.312074515, 32.705973917 ], [ 131.311930717, 32.705923117 ], [ 131.311675932000014, 32.705771224 ], [ 131.311667144000012, 32.705765986 ], [ 131.31163292799999, 32.705747026 ], [ 131.311619048000011, 32.705739335 ], [ 131.311440991000012, 32.705640672 ], [ 131.31133055699999, 32.705592296 ], [ 131.31127974, 32.705586696 ], [ 131.31121764400001, 32.705583987 ], [ 131.311160639, 32.705597889 ], [ 131.311119039, 32.705609727 ], [ 131.31105929, 32.70562673 ], [ 131.310973929999989, 32.70565209 ], [ 131.310762970000013, 32.70570385 ], [ 131.310685236000012, 32.705811923 ], [ 131.310605852, 32.705907598 ], [ 131.31050496200001, 32.706027197 ], [ 131.310425743, 32.706170611 ], [ 131.310397583, 32.7062675 ], [ 131.310369083000012, 32.7063965 ], [ 131.310342295999988, 32.706771772 ], [ 131.310413094000012, 32.706804242 ], [ 131.310526197, 32.706853807 ], [ 131.31062269899999, 32.70690552 ], [ 131.310672689, 32.706953838 ], [ 131.310709440000011, 32.707015527 ], [ 131.31072805299999, 32.707115172 ], [ 131.310711575, 32.707152421 ], [ 131.310643633000012, 32.707195415 ], [ 131.310551690000011, 32.707261635 ], [ 131.310565027, 32.707276345 ], [ 131.31066741399999, 32.707348402 ], [ 131.310796356999987, 32.707416182 ], [ 131.310859768, 32.707503079 ], [ 131.31087674299999, 32.707609046 ], [ 131.310872281, 32.707759296 ], [ 131.310867034000012, 32.707922184 ], [ 131.310908087, 32.70802739 ], [ 131.310989145, 32.708174619 ], [ 131.311073943999986, 32.708311944 ], [ 131.311171910000013, 32.708436732 ], [ 131.311225322000013, 32.708513825 ], [ 131.31126065699999, 32.708645723 ], [ 131.311262054999986, 32.708809297 ], [ 131.311216621999989, 32.709076324 ], [ 131.311325704000012, 32.70920369 ], [ 131.311474605, 32.70927844 ], [ 131.311664979, 32.709339747 ], [ 131.312225270999988, 32.70938046 ] ] ] } },
{ "type": "Feature", "properties": { "A29_001": "45441", "A29_002": "宮崎県", "A29_003": "高千穂町", "A29_004": 5, "A29_005": "第一種住居地域", "A29_006": 60, "A29_007": 200, "A29_008": null }, "geometry": { "type": "Polygon", "coordinates": [ [ [ 131.31112332, 32.7104709 ], [ 131.311274371, 32.710442935 ], [ 131.311474076, 32.710320984 ], [ 131.311561770999987, 32.710226692 ], [ 131.311625375, 32.710129651 ], [ 131.311693985, 32.710039618 ], [ 131.31155846499999, 32.709753519 ], [ 131.31179238499999, 32.709680627 ], [ 131.312006394, 32.7096134 ], [ 131.312126618, 32.709560447 ], [ 131.312225270999988, 32.70938046 ], [ 131.311664979, 32.709339747 ], [ 131.311474605, 32.70927844 ], [ 131.311325704000012, 32.70920369 ], [ 131.311216621999989, 32.709076324 ], [ 131.311262054999986, 32.708809297 ], [ 131.31126065699999, 32.708645723 ], [ 131.311225322000013, 32.708513825 ], [ 131.311171910000013, 32.708436732 ], [ 131.311073943999986, 32.708311944 ], [ 131.310989145, 32.708174619 ], [ 131.310908087, 32.70802739 ], [ 131.310867034000012, 32.707922184 ], [ 131.310872281, 32.707759296 ], [ 131.31087674299999, 32.707609046 ], [ 131.310859768, 32.707503079 ], [ 131.310796356999987, 32.707416182 ], [ 131.31066741399999, 32.707348402 ], [ 131.310565027, 32.707276345 ], [ 131.310551690000011, 32.707261635 ], [ 131.310453061, 32.707315235 ], [ 131.310327937000011, 32.707391366 ], [ 131.310245981, 32.70746388 ], [ 131.310241284999989, 32.707546733 ], [ 131.310264088999986, 32.707657601 ], [ 131.310251048999987, 32.70772854 ], [ 131.310209981000014, 32.707784322 ], [ 131.310100139000014, 32.7077715 ], [ 131.309861082999987, 32.707793083 ], [ 131.309789139, 32.707814667 ], [ 131.309781218000012, 32.707820239 ], [ 131.309727778, 32.707857833 ], [ 131.309612815, 32.708024847 ], [ 131.309595046, 32.708068173 ], [ 131.309587975, 32.708085415 ], [ 131.309595962, 32.70823423 ], [ 131.309625419000014, 32.708347889 ], [ 131.309700271999986, 32.708539081 ], [ 131.30970680199999, 32.708589895 ], [ 131.309725476000011, 32.708707092 ], [ 131.309485, 32.708902694 ], [ 131.309453434, 32.708937999 ], [ 131.309620333, 32.709064111 ], [ 131.309721889, 32.709174222 ], [ 131.309780889, 32.709245833 ], [ 131.309855426000013, 32.709376882 ], [ 131.30988641, 32.709522831 ], [ 131.309911655, 32.709967523 ], [ 131.3099291, 32.710115414 ], [ 131.309944016, 32.710190684 ], [ 131.310010742, 32.710275467 ], [ 131.310088928, 32.710312482 ], [ 131.310196389, 32.71036575 ], [ 131.31028516500001, 32.710387818 ], [ 131.310425519, 32.710392385 ], [ 131.310621596, 32.710423539 ], [ 131.310655020000013, 32.71042647 ], [ 131.31082421, 32.71046221 ], [ 131.310887400000013, 32.71047148 ], [ 131.31095056, 32.71047133 ], [ 131.310998860000012, 32.71046964 ], [ 131.31108432, 32.71047256 ], [ 131.31112332, 32.7104709 ] ] ] } },
{ "type": "Feature", "properties": { "A29_001": "45441", "A29_002": "宮崎県", "A29_003": "高千穂町", "A29_004": 9, "A29_005": "商業地域", "A29_006": 80, "A29_007": 400, "A29_008": null }, "geometry": { "type": "Polygon", "coordinates": [ [ [ 131.307686722999989, 32.708429157 ], [ 131.30767385199999, 32.708457044 ], [ 131.307463055999989, 32.708330117 ], [ 131.307337386, 32.708256634 ], [ 131.30717928199999, 32.708160139 ], [ 131.307103541, 32.708109075 ], [ 131.30692632, 32.708007009 ], [ 131.306781519, 32.707915395 ], [ 131.306593506000013, 32.707814058 ], [ 131.306450180000013, 32.70774308 ], [ 131.30628826099999, 32.707669479 ], [ 131.306279932, 32.707665495 ], [ 131.30615684599999, 32.707606616 ], [ 131.30606280500001, 32.707545767 ], [ 131.305934603999987, 32.707451303 ], [ 131.30585965, 32.707386897 ], [ 131.305749389999988, 32.70733998 ], [ 131.305683475, 32.70734731 ], [ 131.30561637, 32.707393107 ], [ 131.305524397, 32.707451601 ], [ 131.305428124, 32.707466579 ], [ 131.305316909999988, 32.70744795 ], [ 131.305215326, 32.707401806 ], [ 131.305070488000013, 32.707298255 ], [ 131.304961442, 32.707219891 ], [ 131.30485145599999, 32.707109234 ], [ 131.304753893999987, 32.706989421 ], [ 131.304621338, 32.70683459 ], [ 131.304566257, 32.706753286 ], [ 131.30446039099999, 32.706632791 ], [ 131.30435542, 32.70657935 ], [ 131.30426424, 32.70653084 ], [ 131.30408283, 32.70644874 ], [ 131.304024512000012, 32.706407788 ], [ 131.30389548, 32.70631192 ], [ 131.303808831999987, 32.70622648 ], [ 131.303728806, 32.706134705 ], [ 131.30367041400001, 32.706056217 ], [ 131.303592763000012, 32.705930036 ], [ 131.303549268000012, 32.705836769 ], [ 131.303497396000012, 32.705721758 ], [ 131.303473982000014, 32.705673373 ], [ 131.303399957000011, 32.705637046 ], [ 131.30329768499999, 32.705596574 ], [ 131.303220398, 32.705577806 ], [ 131.303076936999986, 32.70555018 ], [ 131.303025966, 32.705540365 ], [ 131.302856039, 32.705501623 ], [ 131.302843145999987, 32.705498683 ], [ 131.30283392699999, 32.705497807 ], [ 131.302691971, 32.705484305 ], [ 131.302535044, 32.705487492 ], [ 131.30241877, 32.70546706 ], [ 131.302295691000012, 32.705425587 ], [ 131.302160184, 32.705378876 ], [ 131.302089513999988, 32.705352368 ], [ 131.302040419, 32.705321596 ], [ 131.301834996, 32.705225208 ], [ 131.301750177, 32.705188906 ], [ 131.301615537, 32.705152723 ], [ 131.301580129, 32.705151921 ], [ 131.30150343, 32.705150184 ], [ 131.30139723, 32.705175713 ], [ 131.30129697699999, 32.705241245 ], [ 131.301205141999986, 32.705341156 ], [ 131.301135461, 32.705361683 ], [ 131.301053309999986, 32.705378028 ], [ 131.300986929, 32.705392228 ], [ 131.300925664, 32.705446433 ], [ 131.300864467999986, 32.705520997 ], [ 131.300837247, 32.70557512 ], [ 131.30081414, 32.70564854 ], [ 131.300967737, 32.705642555 ], [ 131.30119195, 32.705646931 ], [ 131.30162565, 32.70571987 ], [ 131.30196417, 32.70584953 ], [ 131.30240887, 32.70606697 ], [ 131.30283406, 32.70628995 ], [ 131.302912275000011, 32.70632869 ], [ 131.303042248999986, 32.706457554 ], [ 131.30305265199999, 32.706534709 ], [ 131.30306131099999, 32.706596859 ], [ 131.302981695, 32.70683804 ], [ 131.302836659, 32.70705058 ], [ 131.302757238, 32.707137826 ], [ 131.30266303, 32.707272847 ], [ 131.302573808, 32.707408558 ], [ 131.302956094, 32.707498938 ], [ 131.30338666099999, 32.707686291 ], [ 131.3034026, 32.70769469 ], [ 131.30403519699999, 32.707934528 ], [ 131.304097363000011, 32.707964364 ], [ 131.304454031, 32.708119618 ], [ 131.304736518999988, 32.708229283 ], [ 131.304902801, 32.708202546 ], [ 131.305015024999989, 32.708132669 ], [ 131.30515924299999, 32.708372706 ], [ 131.30530238099999, 32.708636491 ], [ 131.305427052999988, 32.708789646 ], [ 131.305432983, 32.70879633 ], [ 131.305450295000014, 32.708818197 ], [ 131.305549410999987, 32.708943395 ], [ 131.305740883999988, 32.709084743 ], [ 131.306062042, 32.709267896 ], [ 131.306489602, 32.709483083 ], [ 131.30652475299999, 32.709505608 ], [ 131.306523765, 32.709522234 ], [ 131.306482327999987, 32.710088724 ], [ 131.306459073000013, 32.710530453 ], [ 131.30645000199999, 32.710530637 ], [ 131.306298868999988, 32.710531007 ], [ 131.306285894000013, 32.710622305 ], [ 131.306126457, 32.710622694 ], [ 131.306128804999986, 32.710744968 ], [ 131.306098646, 32.710746328 ], [ 131.306091595999987, 32.710746653 ], [ 131.305940893000013, 32.710753728 ], [ 131.30580016499999, 32.710883248 ], [ 131.305666051, 32.711004328 ], [ 131.305636510999989, 32.711108303 ], [ 131.30565837899999, 32.711189687 ], [ 131.30572752, 32.71126074 ], [ 131.30584085000001, 32.71126518 ], [ 131.306093774, 32.711265149 ], [ 131.306239911, 32.71126058 ], [ 131.306521336, 32.71123532 ], [ 131.306662780000011, 32.71123566 ], [ 131.30676682, 32.71124012 ], [ 131.30688758, 32.71123982 ], [ 131.30702317, 32.71123477 ], [ 131.3071142, 32.71123613 ], [ 131.30715507, 32.71123603 ], [ 131.307224440999988, 32.71123743 ], [ 131.30725280199999, 32.711293996 ], [ 131.30728280400001, 32.711401294 ], [ 131.307294238999987, 32.711499123 ], [ 131.307293004, 32.711539525 ], [ 131.307277507, 32.711656778 ], [ 131.307457757, 32.711665788 ], [ 131.307546024, 32.711464488 ], [ 131.30762335599999, 32.711370851 ], [ 131.307767731000013, 32.711186344 ], [ 131.30808353399999, 32.711511261 ], [ 131.30876004000001, 32.711375916 ], [ 131.309315755, 32.711289719 ], [ 131.309448844, 32.711320801 ], [ 131.309456419000014, 32.711322313 ], [ 131.309525294999986, 32.711336058 ], [ 131.309531547, 32.711224439 ], [ 131.309532335, 32.711210374 ], [ 131.309584225, 32.711225284 ], [ 131.309617121, 32.711234736 ], [ 131.309643716000011, 32.711240989 ], [ 131.30967480699999, 32.711147353 ], [ 131.309679878, 32.711132082 ], [ 131.309817046, 32.71117527 ], [ 131.309983996999989, 32.711252442 ], [ 131.310020772, 32.7112548 ], [ 131.310298018999987, 32.711222522 ], [ 131.310424661000013, 32.711204911 ], [ 131.310565284, 32.711185354 ], [ 131.31079521699999, 32.711158809 ], [ 131.310986140000011, 32.711137976 ], [ 131.31118226000001, 32.71112863 ], [ 131.311251846, 32.711130296 ], [ 131.311260326, 32.711266872 ], [ 131.311645335, 32.71126589 ], [ 131.311748669999986, 32.711277087 ], [ 131.311885942, 32.711308241 ], [ 131.312295998, 32.711461174 ], [ 131.312369932, 32.711468712 ], [ 131.312470381999987, 32.711460037 ], [ 131.312616466, 32.711440016 ], [ 131.31267136, 32.71143305 ], [ 131.312838809999988, 32.711380489 ], [ 131.31301872899999, 32.711300007 ], [ 131.313137977, 32.711204933 ], [ 131.313185069000014, 32.711136014 ], [ 131.313202872, 32.71100258 ], [ 131.313193235, 32.710858685 ], [ 131.313197134, 32.710786364 ], [ 131.313276605, 32.710715258 ], [ 131.313331097, 32.710680837 ], [ 131.31337636, 32.710667 ], [ 131.313477489, 32.710642397 ], [ 131.313543573, 32.710638941 ], [ 131.313562682, 32.710622921 ], [ 131.313562749999988, 32.710622917 ], [ 131.313570223999989, 32.710616598 ], [ 131.31363936, 32.710558146 ], [ 131.313735318, 32.710452598 ], [ 131.313783201, 32.710372445 ], [ 131.31382754099999, 32.710229116 ], [ 131.31385357799999, 32.710076004 ], [ 131.313832760999986, 32.709822617 ], [ 131.31377522599999, 32.709754662 ], [ 131.31366874599999, 32.70970087 ], [ 131.31363206099999, 32.709658839 ], [ 131.31364485099999, 32.709639656 ], [ 131.31364940899999, 32.70963282 ], [ 131.313709647, 32.709624806 ], [ 131.313783871, 32.709614932 ], [ 131.31376524800001, 32.709513884 ], [ 131.31373323599999, 32.709383383 ], [ 131.313716989999989, 32.709249332 ], [ 131.31373000799999, 32.709172776 ], [ 131.313776045999987, 32.709085375 ], [ 131.313815365000011, 32.709030398 ], [ 131.314031774999989, 32.708934684 ], [ 131.314073672, 32.708901627 ], [ 131.314183606, 32.708815702 ], [ 131.31421084199999, 32.708708922 ], [ 131.314198823, 32.708596624 ], [ 131.31403269399999, 32.708279389 ], [ 131.313962511, 32.708208521 ], [ 131.31388319199999, 32.708157932 ], [ 131.313808641, 32.708151098 ], [ 131.313791898, 32.708162826 ], [ 131.313752313, 32.708190554 ], [ 131.31368437899999, 32.708235655 ], [ 131.313623111999988, 32.70828776 ], [ 131.31353537199999, 32.708368013 ], [ 131.313465831, 32.708428563 ], [ 131.313374734, 32.708498995 ], [ 131.313270528, 32.708620008 ], [ 131.313099822999988, 32.708781204 ], [ 131.313028787, 32.708829822 ], [ 131.312940908, 32.70887076 ], [ 131.312844672000011, 32.708896274 ], [ 131.31275351, 32.708948453 ], [ 131.31263755, 32.709032988 ], [ 131.312508279000014, 32.709110536 ], [ 131.31245005400001, 32.709142273 ], [ 131.312225270999988, 32.70938046 ], [ 131.312126618, 32.709560447 ], [ 131.312006394, 32.7096134 ], [ 131.31179238499999, 32.709680627 ], [ 131.31155846499999, 32.709753519 ], [ 131.311693985, 32.710039618 ], [ 131.311625375, 32.710129651 ], [ 131.311561770999987, 32.710226692 ], [ 131.311474076, 32.710320984 ], [ 131.311274371, 32.710442935 ], [ 131.31112332, 32.7104709 ], [ 131.31108432, 32.71047256 ], [ 131.310998860000012, 32.71046964 ], [ 131.31095056, 32.71047133 ], [ 131.310887400000013, 32.71047148 ], [ 131.31082421, 32.71046221 ], [ 131.310655020000013, 32.71042647 ], [ 131.310621596, 32.710423539 ], [ 131.310425519, 32.710392385 ], [ 131.31028516500001, 32.710387818 ], [ 131.310196389, 32.71036575 ], [ 131.310088928, 32.710312482 ], [ 131.310010742, 32.710275467 ], [ 131.309944016, 32.710190684 ], [ 131.3099291, 32.710115414 ], [ 131.309911655, 32.709967523 ], [ 131.30988641, 32.709522831 ], [ 131.309855426000013, 32.709376882 ], [ 131.309780889, 32.709245833 ], [ 131.309734502, 32.709189531 ], [ 131.309721889, 32.709174222 ], [ 131.309620333, 32.709064111 ], [ 131.309453434, 32.708937999 ], [ 131.309485, 32.708902694 ], [ 131.309725476000011, 32.708707092 ], [ 131.30970680199999, 32.708589895 ], [ 131.309700271999986, 32.708539081 ], [ 131.309625419000014, 32.708347889 ], [ 131.309595962, 32.70823423 ], [ 131.309587975, 32.708085415 ], [ 131.309612815, 32.708024847 ], [ 131.309727778, 32.707857833 ], [ 131.309789139, 32.707814667 ], [ 131.309861082999987, 32.707793083 ], [ 131.310100139000014, 32.7077715 ], [ 131.310209981000014, 32.707784322 ], [ 131.310251048999987, 32.70772854 ], [ 131.310264088999986, 32.707657601 ], [ 131.310241284999989, 32.707546733 ], [ 131.310245981, 32.70746388 ], [ 131.310327937000011, 32.707391366 ], [ 131.310453061, 32.707315235 ], [ 131.310551690000011, 32.707261635 ], [ 131.310643633000012, 32.707195415 ], [ 131.310711575, 32.707152421 ], [ 131.31072805299999, 32.707115172 ], [ 131.310709440000011, 32.707015527 ], [ 131.310672689, 32.706953838 ], [ 131.31062269899999, 32.70690552 ], [ 131.310526197, 32.706853807 ], [ 131.310413094000012, 32.706804242 ], [ 131.310342295999988, 32.706771772 ], [ 131.31030612699999, 32.706877871 ], [ 131.310256747000011, 32.707005766 ], [ 131.310184763, 32.707080361 ], [ 131.31013588499999, 32.707113478 ], [ 131.310103639, 32.707153575 ], [ 131.310090693, 32.707251894 ], [ 131.310076098, 32.707353727 ], [ 131.31002737599999, 32.707431775 ], [ 131.30992776299999, 32.707441148 ], [ 131.309869725999988, 32.707467267 ], [ 131.309792778, 32.707547491 ], [ 131.30969179499999, 32.707641113 ], [ 131.309488071, 32.707800279 ], [ 131.309379624, 32.707896727 ], [ 131.30924296, 32.707998159 ], [ 131.30915758099999, 32.708041897 ], [ 131.309099411, 32.708029403 ], [ 131.30905114, 32.70799793 ], [ 131.308941471, 32.707950812 ], [ 131.308803469, 32.707904817 ], [ 131.308646329, 32.70786201 ], [ 131.308151468, 32.707778307 ], [ 131.3079842, 32.707776079 ], [ 131.30778702399999, 32.708198095 ], [ 131.307712169000013, 32.708374027 ], [ 131.307688404, 32.708429882 ], [ 131.307686722999989, 32.708429157 ] ] ] } },
{ "type": "Feature", "properties": { "A29_001": "45441", "A29_002": "宮崎県", "A29_003": "高千穂町", "A29_004": 5, "A29_005": "第一種住居地域", "A29_006": 60, "A29_007": 200, "A29_008": null }, "geometry": { "type": "Polygon", "coordinates": [ [ [ 131.312118704, 32.715122732 ], [ 131.312242876999989, 32.715118844 ], [ 131.312360111, 32.715148378 ], [ 131.312663972, 32.715277659 ], [ 131.312764221, 32.715292918 ], [ 131.31284208299999, 32.715278139 ], [ 131.312872277999986, 32.715272059 ], [ 131.313038884, 32.715134208 ], [ 131.31310536, 32.715095866 ], [ 131.31339322299999, 32.715033071 ], [ 131.313362982, 32.715190366 ], [ 131.313356674, 32.715215268 ], [ 131.313403064999989, 32.71520099 ], [ 131.313405851, 32.715201729 ], [ 131.313435547000012, 32.715190993 ], [ 131.315155879, 32.714569009 ], [ 131.31531174, 32.7144942 ], [ 131.315298, 32.714424381 ], [ 131.315295786, 32.714267128 ], [ 131.315307305, 32.714215925 ], [ 131.31531459199999, 32.714183537 ], [ 131.31541984399999, 32.714122896 ], [ 131.315503404999987, 32.714098207 ], [ 131.315531972, 32.714077488 ], [ 131.315545987, 32.71398529 ], [ 131.315536458, 32.713844061 ], [ 131.31549632, 32.713666642 ], [ 131.315436377999987, 32.713559101 ], [ 131.315635681, 32.713412169 ], [ 131.315650833, 32.713375778 ], [ 131.31564653, 32.713320926 ], [ 131.315648143, 32.713177761 ], [ 131.315653563000012, 32.713113921 ], [ 131.315712311, 32.71296584 ], [ 131.31572071799999, 32.712923476 ], [ 131.31571937199999, 32.712566759 ], [ 131.315699376, 32.712512168 ], [ 131.31555408299999, 32.712291167 ], [ 131.315392022, 32.712094371 ], [ 131.315313073, 32.712035874 ], [ 131.315006342, 32.711891097 ], [ 131.314780156000012, 32.711777136 ], [ 131.314581303000011, 32.711655215 ], [ 131.314494583, 32.711587611 ], [ 131.31435725, 32.7114985 ], [ 131.314242167, 32.711443278 ], [ 131.314198556, 32.711410167 ], [ 131.314014222999987, 32.711228265 ], [ 131.313888103000011, 32.711099917 ], [ 131.313620278, 32.710769933 ], [ 131.313606162000013, 32.710756853 ], [ 131.313548333, 32.710683985 ], [ 131.313543573, 32.710638941 ], [ 131.313477489, 32.710642397 ], [ 131.31337636, 32.710667 ], [ 131.313331097, 32.710680837 ], [ 131.313276605, 32.710715258 ], [ 131.313197134, 32.710786364 ], [ 131.313193235, 32.710858685 ], [ 131.313202872, 32.71100258 ], [ 131.313185069000014, 32.711136014 ], [ 131.313137977, 32.711204933 ], [ 131.31301872899999, 32.711300007 ], [ 131.312838809999988, 32.711380489 ], [ 131.31267136, 32.71143305 ], [ 131.312616466, 32.711440016 ], [ 131.312470381999987, 32.711460037 ], [ 131.312369932, 32.711468712 ], [ 131.312295998, 32.711461174 ], [ 131.311885942, 32.711308241 ], [ 131.311748669999986, 32.711277087 ], [ 131.311645335, 32.71126589 ], [ 131.311260326, 32.711266872 ], [ 131.311251846, 32.711130296 ], [ 131.31118226000001, 32.71112863 ], [ 131.310986140000011, 32.711137976 ], [ 131.31079521699999, 32.711158809 ], [ 131.310565284, 32.711185354 ], [ 131.310424661000013, 32.711204911 ], [ 131.310298018999987, 32.711222522 ], [ 131.310020772, 32.7112548 ], [ 131.309983996999989, 32.711252442 ], [ 131.309817046, 32.71117527 ], [ 131.309679878, 32.711132082 ], [ 131.30967480699999, 32.711147353 ], [ 131.309643716000011, 32.711240989 ], [ 131.309617121, 32.711234736 ], [ 131.309584225, 32.711225284 ], [ 131.309532335, 32.711210374 ], [ 131.309531547, 32.711224439 ], [ 131.309525294999986, 32.711336058 ], [ 131.309456419000014, 32.711322313 ], [ 131.309448844, 32.711320801 ], [ 131.309315755, 32.711289719 ], [ 131.309467285000011, 32.711726982 ], [ 131.30970424099999, 32.712431549 ], [ 131.309713542, 32.712463084 ], [ 131.309725205, 32.712493881 ], [ 131.309810758, 32.712719793 ], [ 131.309918159, 32.713039662 ], [ 131.310045545, 32.713374927 ], [ 131.310150563, 32.713485591 ], [ 131.31005238, 32.713510611 ], [ 131.309961390000012, 32.713533798 ], [ 131.309736582999989, 32.7135925 ], [ 131.309387184, 32.713665797 ], [ 131.30932855899999, 32.713522723 ], [ 131.309259994, 32.713386695 ], [ 131.309216365999987, 32.713257626 ], [ 131.309139574999989, 32.713144083 ], [ 131.30896643, 32.713023757 ], [ 131.308906344, 32.712938255 ], [ 131.308811042, 32.712754553 ], [ 131.308744158, 32.712624137 ], [ 131.30857940199999, 32.71252766 ], [ 131.308542421999988, 32.712570998 ], [ 131.30850496299999, 32.712614897 ], [ 131.30846298099999, 32.712622312 ], [ 131.308392094, 32.712634832 ], [ 131.307983734, 32.712696212 ], [ 131.307971740999989, 32.712696594 ], [ 131.30802327699999, 32.713299557 ], [ 131.30803532199999, 32.713847836 ], [ 131.30802020199999, 32.714125494 ], [ 131.307953934000011, 32.7141421 ], [ 131.307675034999988, 32.714211991 ], [ 131.307620947, 32.714905748 ], [ 131.307560685, 32.715141926 ], [ 131.30749736300001, 32.715244333 ], [ 131.307456351000013, 32.715341421 ], [ 131.30737736099999, 32.715555038 ], [ 131.307341293, 32.715692728 ], [ 131.30732190099999, 32.715850034 ], [ 131.307320944, 32.716017417 ], [ 131.308205713, 32.715909645 ], [ 131.30930246, 32.715760636 ], [ 131.310648813, 32.715599607 ], [ 131.31073917, 32.715591683 ], [ 131.31171286099999, 32.715472333 ], [ 131.311768406999988, 32.715368254 ], [ 131.311795124000014, 32.715328598 ], [ 131.311880749000011, 32.715225239 ], [ 131.311911806000012, 32.715204278 ], [ 131.311932051000014, 32.715192168 ], [ 131.311939626999987, 32.715187637 ], [ 131.312008166999988, 32.715146639 ], [ 131.312118704, 32.715122732 ] ] ] } },
{ "type": "Feature", "properties": { "A29_001": "45441", "A29_002": "宮崎県", "A29_003": "高千穂町", "A29_004": 7, "A29_005": "準住居地域", "A29_006": 60, "A29_007": 200, "A29_008": null }, "geometry": { "type": "Polygon", "coordinates": [ [ [ 131.313403064999989, 32.71520099 ], [ 131.313356674, 32.715215268 ], [ 131.31332884299999, 32.715325131 ], [ 131.31332658299999, 32.715384944 ], [ 131.31341261, 32.715531324 ], [ 131.313661169, 32.715841007 ], [ 131.313836291, 32.716048376 ], [ 131.31406411099999, 32.716224278 ], [ 131.314270334000014, 32.716203143 ], [ 131.314454325000014, 32.716097375 ], [ 131.314628454, 32.716021117 ], [ 131.314791227, 32.716022112 ], [ 131.31505367, 32.71602707 ], [ 131.315191362, 32.715980388 ], [ 131.315305638000012, 32.715887431 ], [ 131.315321783, 32.715755405 ], [ 131.315354581, 32.715635974 ], [ 131.315415392, 32.715453289 ], [ 131.315484704, 32.715326746 ], [ 131.315552297000011, 32.715183358 ], [ 131.315584277, 32.715008818 ], [ 131.31555476299999, 32.714940443 ], [ 131.31545637100001, 32.714826959 ], [ 131.31530142, 32.714688343 ], [ 131.315155879, 32.714569009 ], [ 131.313435547000012, 32.715190993 ], [ 131.313405851, 32.715201729 ], [ 131.313403064999989, 32.71520099 ] ] ] } },
{ "type": "Feature", "properties": { "A29_001": "45441", "A29_002": "宮崎県", "A29_003": "高千穂町", "A29_004": 8, "A29_005": "近隣商業地域", "A29_006": 80, "A29_007": 200, "A29_008": null }, "geometry": { "type": "Polygon", "coordinates": [ [ [ 131.307560685, 32.715141926 ], [ 131.307620947, 32.714905748 ], [ 131.307675034999988, 32.714211991 ], [ 131.307953934000011, 32.7141421 ], [ 131.30802020199999, 32.714125494 ], [ 131.30803532199999, 32.713847836 ], [ 131.30802327699999, 32.713299557 ], [ 131.307971740999989, 32.712696594 ], [ 131.307983734, 32.712696212 ], [ 131.308392094, 32.712634832 ], [ 131.30846298099999, 32.712622312 ], [ 131.30850496299999, 32.712614897 ], [ 131.308542421999988, 32.712570998 ], [ 131.30857940199999, 32.71252766 ], [ 131.308744158, 32.712624137 ], [ 131.308811042, 32.712754553 ], [ 131.308906344, 32.712938255 ], [ 131.30896643, 32.713023757 ], [ 131.309139574999989, 32.713144083 ], [ 131.309216365999987, 32.713257626 ], [ 131.309259994, 32.713386695 ], [ 131.30932855899999, 32.713522723 ], [ 131.309387184, 32.713665797 ], [ 131.309736582999989, 32.7135925 ], [ 131.309961390000012, 32.713533798 ], [ 131.31005238, 32.713510611 ], [ 131.310150563, 32.713485591 ], [ 131.310045545, 32.713374927 ], [ 131.309918159, 32.713039662 ], [ 131.309810758, 32.712719793 ], [ 131.309725205, 32.712493881 ], [ 131.309713542, 32.712463084 ], [ 131.30970424099999, 32.712431549 ], [ 131.309467285000011, 32.711726982 ], [ 131.309315755, 32.711289719 ], [ 131.30876004000001, 32.711375916 ], [ 131.30808353399999, 32.711511261 ], [ 131.307767731000013, 32.711186344 ], [ 131.30762335599999, 32.711370851 ], [ 131.307546024, 32.711464488 ], [ 131.307457757, 32.711665788 ], [ 131.307277507, 32.711656778 ], [ 131.307257072, 32.711958737 ], [ 131.307252619, 32.712113198 ], [ 131.307269738, 32.712261991 ], [ 131.307277204, 32.712502073 ], [ 131.30723105199999, 32.712604685 ], [ 131.30714844799999, 32.712732661 ], [ 131.307128826, 32.712822571 ], [ 131.30714425, 32.712961539 ], [ 131.307207909999988, 32.71312145 ], [ 131.30728642299999, 32.713253243 ], [ 131.307366976999987, 32.713495954 ], [ 131.30737769800001, 32.713716371 ], [ 131.307419407999987, 32.714255443 ], [ 131.30733924099999, 32.714283717 ], [ 131.307323193, 32.714289377 ], [ 131.30710475, 32.714348333 ], [ 131.30691375, 32.714403056 ], [ 131.30667127800001, 32.714482417 ], [ 131.306389083, 32.714555389 ], [ 131.306201488999989, 32.714598214 ], [ 131.306009222, 32.714655694 ], [ 131.305932727999988, 32.714687328 ], [ 131.305512956, 32.71481472 ], [ 131.305516253, 32.714829353 ], [ 131.30555343, 32.714994346 ], [ 131.305618751, 32.715154254 ], [ 131.305688446, 32.715135831 ], [ 131.30593408499999, 32.715084684 ], [ 131.306159788, 32.715032182 ], [ 131.306367279, 32.714996573 ], [ 131.30639742, 32.715068108 ], [ 131.306451019, 32.715199962 ], [ 131.30648463599999, 32.71531642 ], [ 131.30652504, 32.715474984 ], [ 131.30661018699999, 32.715603953 ], [ 131.306655232999987, 32.715626103 ], [ 131.306759164, 32.715673073 ], [ 131.306746713, 32.715700502 ], [ 131.306716526, 32.715817272 ], [ 131.306706256000012, 32.715909159 ], [ 131.306713045, 32.716037392 ], [ 131.30676648299999, 32.716147018 ], [ 131.307001281, 32.716316278 ], [ 131.307082079, 32.7164149 ], [ 131.307084556, 32.716496597 ], [ 131.307092415999989, 32.716495779 ], [ 131.307282582999989, 32.716474056 ], [ 131.307265167, 32.716393194 ], [ 131.307201222, 32.716190472 ], [ 131.307179972, 32.716095861 ], [ 131.3071774, 32.716051219 ], [ 131.307224563, 32.71604123 ], [ 131.307320944, 32.716017417 ], [ 131.30732190099999, 32.715850034 ], [ 131.307341293, 32.715692728 ], [ 131.30737736099999, 32.715555038 ], [ 131.307456351000013, 32.715341421 ], [ 131.30749736300001, 32.715244333 ], [ 131.307560685, 32.715141926 ] ] ] } },
{ "type": "Feature", "properties": { "A29_001": "45441", "A29_002": "宮崎県", "A29_003": "高千穂町", "A29_004": 5, "A29_005": "第一種住居地域", "A29_006": 60, "A29_007": 200, "A29_008": null }, "geometry": { "type": "Polygon", "coordinates": [ [ [ 131.306451019, 32.715199962 ], [ 131.30639742, 32.715068108 ], [ 131.306367279, 32.714996573 ], [ 131.306159788, 32.715032182 ], [ 131.30593408499999, 32.715084684 ], [ 131.305688446, 32.715135831 ], [ 131.305618751, 32.715154254 ], [ 131.30555343, 32.714994346 ], [ 131.305516253, 32.714829353 ], [ 131.305512956, 32.71481472 ], [ 131.305932727999988, 32.714687328 ], [ 131.306009222, 32.714655694 ], [ 131.306201488999989, 32.714598214 ], [ 131.306389083, 32.714555389 ], [ 131.30667127800001, 32.714482417 ], [ 131.30691375, 32.714403056 ], [ 131.30710475, 32.714348333 ], [ 131.307323193, 32.714289377 ], [ 131.30733924099999, 32.714283717 ], [ 131.307419407999987, 32.714255443 ], [ 131.30737769800001, 32.713716371 ], [ 131.307366976999987, 32.713495954 ], [ 131.30728642299999, 32.713253243 ], [ 131.307207909999988, 32.71312145 ], [ 131.30714425, 32.712961539 ], [ 131.307128826, 32.712822571 ], [ 131.30714844799999, 32.712732661 ], [ 131.30723105199999, 32.712604685 ], [ 131.307277204, 32.712502073 ], [ 131.307269738, 32.712261991 ], [ 131.307252619, 32.712113198 ], [ 131.307257072, 32.711958737 ], [ 131.307277507, 32.711656778 ], [ 131.307293004, 32.711539525 ], [ 131.307294238999987, 32.711499123 ], [ 131.30728280400001, 32.711401294 ], [ 131.30725280199999, 32.711293996 ], [ 131.307224440999988, 32.71123743 ], [ 131.30715507, 32.71123603 ], [ 131.3071142, 32.71123613 ], [ 131.30702317, 32.71123477 ], [ 131.30688758, 32.71123982 ], [ 131.30676682, 32.71124012 ], [ 131.306662780000011, 32.71123566 ], [ 131.306521336, 32.71123532 ], [ 131.306239911, 32.71126058 ], [ 131.306093774, 32.711265149 ], [ 131.30584085000001, 32.71126518 ], [ 131.30572752, 32.71126074 ], [ 131.30565837899999, 32.711189687 ], [ 131.305636510999989, 32.711108303 ], [ 131.305666051, 32.711004328 ], [ 131.30580016499999, 32.710883248 ], [ 131.305940893000013, 32.710753728 ], [ 131.306098646, 32.710746325 ], [ 131.306128804999986, 32.710744968 ], [ 131.306126457, 32.710622694 ], [ 131.306285894000013, 32.710622305 ], [ 131.306298868999988, 32.710531007 ], [ 131.30645000199999, 32.710530637 ], [ 131.306459073000013, 32.710530453 ], [ 131.306482327999987, 32.710088724 ], [ 131.306523765, 32.709522234 ], [ 131.30652475299999, 32.709505608 ], [ 131.306489602, 32.709483083 ], [ 131.306062042, 32.709267896 ], [ 131.305740883999988, 32.709084743 ], [ 131.305549410999987, 32.708943395 ], [ 131.305432983, 32.70879633 ], [ 131.305427052999988, 32.708789646 ], [ 131.30530238099999, 32.708636491 ], [ 131.30515924299999, 32.708372706 ], [ 131.305015024999989, 32.708132669 ], [ 131.304902801, 32.708202546 ], [ 131.304736518999988, 32.708229283 ], [ 131.304454031, 32.708119618 ], [ 131.304097363000011, 32.707964364 ], [ 131.30403519699999, 32.707934528 ], [ 131.3034026, 32.70769469 ], [ 131.30338666099999, 32.707686291 ], [ 131.302956094, 32.707498938 ], [ 131.302573808, 32.707408558 ], [ 131.302555622, 32.707433173 ], [ 131.302443033, 32.70753454 ], [ 131.302336958000012, 32.70759798 ], [ 131.302230798000011, 32.707636147 ], [ 131.30212290099999, 32.707651852 ], [ 131.302013315000011, 32.707659136 ], [ 131.301933736, 32.707700047 ], [ 131.301890788, 32.707768951 ], [ 131.301760288, 32.708165619 ], [ 131.301697926, 32.70819907 ], [ 131.301594808, 32.708154386 ], [ 131.301543183, 32.708112388 ], [ 131.301453165999988, 32.708012913 ], [ 131.301370952000013, 32.707926915 ], [ 131.301329699, 32.707839159 ], [ 131.301281377, 32.70779569 ], [ 131.30117971199999, 32.707689223 ], [ 131.30109847599999, 32.707672851 ], [ 131.301083323, 32.707669797 ], [ 131.300973750999987, 32.707681293 ], [ 131.300887538000012, 32.707725027 ], [ 131.300779956000014, 32.707834805 ], [ 131.30064908599999, 32.707933405 ], [ 131.300534927, 32.708062856 ], [ 131.300500441999986, 32.708179479 ], [ 131.300588994, 32.70833793 ], [ 131.300670593, 32.708403727 ], [ 131.300797136, 32.708500306 ], [ 131.30088713399999, 32.708594165 ], [ 131.301076560000013, 32.70870803 ], [ 131.30112127000001, 32.70874566 ], [ 131.30124601, 32.70882868 ], [ 131.30135658399999, 32.708924405 ], [ 131.30145844, 32.70902625 ], [ 131.301569754000013, 32.709099405 ], [ 131.301646236000011, 32.709146223 ], [ 131.301704556, 32.709181923 ], [ 131.301797459999989, 32.70930211 ], [ 131.301962776000011, 32.709418594 ], [ 131.302120648999988, 32.7094477 ], [ 131.30231817, 32.70947063 ], [ 131.302439676, 32.709493266 ], [ 131.302617755, 32.709603761 ], [ 131.30278716, 32.70972417 ], [ 131.302923889999988, 32.709765897 ], [ 131.3031147, 32.70971208 ], [ 131.30322623699999, 32.70970133 ], [ 131.303234239, 32.709700558 ], [ 131.303272875, 32.70971941 ], [ 131.303408912, 32.709785786 ], [ 131.303662322, 32.710071609 ], [ 131.303860852000014, 32.710335098 ], [ 131.303927622, 32.710434628 ], [ 131.304046058000011, 32.710587387 ], [ 131.30425539, 32.71074794 ], [ 131.30441531, 32.71079471 ], [ 131.304611614, 32.710845773 ], [ 131.304761345, 32.710921231 ], [ 131.30480816299999, 32.711013787 ], [ 131.304848342000014, 32.711107764 ], [ 131.304956901999986, 32.711285821 ], [ 131.305085549000012, 32.711510164 ], [ 131.304835558, 32.711743852 ], [ 131.30451928, 32.712021227 ], [ 131.304330478999987, 32.712178945 ], [ 131.304128472, 32.712360564 ], [ 131.30394451399999, 32.71247755 ], [ 131.303790537, 32.712619737 ], [ 131.303697957999987, 32.71274633 ], [ 131.303646971, 32.712893883 ], [ 131.30364747499999, 32.713042717 ], [ 131.303731032, 32.713194157 ], [ 131.303832886, 32.713353977 ], [ 131.30400113799999, 32.713624685 ], [ 131.30389746099999, 32.713756064 ], [ 131.30443169099999, 32.715494046 ], [ 131.30452047899999, 32.715708572 ], [ 131.3045784, 32.715809361 ], [ 131.304616743, 32.715880132 ], [ 131.304735849999986, 32.71604591 ], [ 131.304871917000014, 32.716194556 ], [ 131.304921575, 32.716234069 ], [ 131.305013056, 32.716306861 ], [ 131.305043106999989, 32.716325055 ], [ 131.305232278, 32.716439583 ], [ 131.305439471999989, 32.716511083 ], [ 131.305625666999987, 32.716567222 ], [ 131.305898944, 32.71659275 ], [ 131.306128889, 32.716605278 ], [ 131.306828086, 32.716523279 ], [ 131.307084556, 32.716496597 ], [ 131.307082079, 32.7164149 ], [ 131.307001281, 32.716316278 ], [ 131.30676648299999, 32.716147018 ], [ 131.306713045, 32.716037392 ], [ 131.306706256000012, 32.715909159 ], [ 131.306716526, 32.715817272 ], [ 131.306746713, 32.715700502 ], [ 131.306759164, 32.715673073 ], [ 131.306655232999987, 32.715626103 ], [ 131.30661018699999, 32.715603953 ], [ 131.30652504, 32.715474984 ], [ 131.30648463599999, 32.71531642 ], [ 131.306451019, 32.715199962 ] ] ] } },
{ "type": "Feature", "properties": { "A29_001": "45441", "A29_002": "宮崎県", "A29_003": "高千穂町", "A29_004": 7, "A29_005": "準住居地域", "A29_006": 60, "A29_007": 200, "A29_008": null }, "geometry": { "type": "Polygon", "coordinates": [ [ [ 131.31003541199999, 32.717148218 ], [ 131.31024083299999, 32.716984083 ], [ 131.310329204, 32.716824954 ], [ 131.310405241000012, 32.716748536 ], [ 131.310628347, 32.716623433 ], [ 131.310869644, 32.716535268 ], [ 131.311072628, 32.716467956 ], [ 131.311254327, 32.716367292 ], [ 131.31144566399999, 32.716197409 ], [ 131.31149460899999, 32.716068442 ], [ 131.311612002, 32.715737686 ], [ 131.31171286099999, 32.715472333 ], [ 131.31073917, 32.715591683 ], [ 131.310648813, 32.715599607 ], [ 131.30930246, 32.715760636 ], [ 131.308205713, 32.715909645 ], [ 131.307320944, 32.716017417 ], [ 131.307224563, 32.71604123 ], [ 131.3071774, 32.716051219 ], [ 131.307179972, 32.716095861 ], [ 131.307201222, 32.716190472 ], [ 131.307265167, 32.716393194 ], [ 131.307282582999989, 32.716474056 ], [ 131.307092415999989, 32.716495779 ], [ 131.307084556, 32.716496597 ], [ 131.306828086, 32.716523279 ], [ 131.306128889, 32.716605278 ], [ 131.305898944, 32.71659275 ], [ 131.305625666999987, 32.716567222 ], [ 131.305439471999989, 32.716511083 ], [ 131.305232278, 32.716439583 ], [ 131.305043106999989, 32.716325055 ], [ 131.305013056, 32.716306861 ], [ 131.304921575, 32.716234069 ], [ 131.304871917000014, 32.716194556 ], [ 131.304735849999986, 32.71604591 ], [ 131.304616743, 32.715880132 ], [ 131.3045784, 32.715809361 ], [ 131.30452047899999, 32.715708572 ], [ 131.30443169099999, 32.715494046 ], [ 131.30389746099999, 32.713756064 ], [ 131.303800623, 32.713880592 ], [ 131.30366835800001, 32.714059233 ], [ 131.303579214, 32.714219516 ], [ 131.303534973000012, 32.714422972 ], [ 131.303535454000013, 32.714539756 ], [ 131.30356113799999, 32.714767158 ], [ 131.303573511, 32.714987571 ], [ 131.30362233299999, 32.715181218 ], [ 131.303638861, 32.715338278 ], [ 131.303656749999988, 32.715521472 ], [ 131.30369930399999, 32.715839554 ], [ 131.303670203, 32.716074108 ], [ 131.303556399, 32.716310272 ], [ 131.303480439999987, 32.716441037 ], [ 131.303333341000013, 32.716654816 ], [ 131.303158161999988, 32.716914997 ], [ 131.302962935000011, 32.717171366 ], [ 131.303004724, 32.717249894 ], [ 131.303994732, 32.71727558 ], [ 131.304535861, 32.717291111 ], [ 131.30466695699999, 32.717292717 ], [ 131.305918663999989, 32.71733783 ], [ 131.306146218, 32.717407895 ], [ 131.306629484000013, 32.717420808 ], [ 131.306947194, 32.71742375 ], [ 131.307154569, 32.717486919 ], [ 131.307342412999986, 32.717532794 ], [ 131.307470454, 32.717576007 ], [ 131.307691556, 32.717596 ], [ 131.30773147, 32.71758311 ], [ 131.30787991, 32.7175293 ], [ 131.308060602000012, 32.717422916 ], [ 131.308201405, 32.717313051 ], [ 131.308358671, 32.717161022 ], [ 131.308447136000012, 32.717085989 ], [ 131.308459699, 32.717126829 ], [ 131.308506916999988, 32.7172705 ], [ 131.308537409, 32.71736236 ], [ 131.308654659000013, 32.717478032 ], [ 131.308787032, 32.717559308 ], [ 131.30888810799999, 32.717590288 ], [ 131.308990368, 32.717593166 ], [ 131.309152869, 32.717571291 ], [ 131.309449898999986, 32.71745881 ], [ 131.309758246, 32.717312107 ], [ 131.31003541199999, 32.717148218 ] ] ] } },
{ "type": "Feature", "properties": { "A29_001": "45441", "A29_002": "宮崎県", "A29_003": "高千穂町", "A29_004": 1, "A29_005": "第一種低層住居専用地域", "A29_006": 50, "A29_007": 100, "A29_008": null }, "geometry": { "type": "Polygon", "coordinates": [ [ [ 131.309833357, 32.705323298 ], [ 131.309794753, 32.705205449 ], [ 131.309757866000012, 32.705103743 ], [ 131.309744163, 32.704983024 ], [ 131.309745975999988, 32.704877475 ], [ 131.309746237000013, 32.704862266 ], [ 131.309916447, 32.704858335 ], [ 131.310015029999988, 32.704855517 ], [ 131.310001035999989, 32.70474183 ], [ 131.309969325, 32.704630242 ], [ 131.309892711, 32.70450946 ], [ 131.309834948, 32.704427318 ], [ 131.30982357100001, 32.704413816 ], [ 131.309762658000011, 32.704327615 ], [ 131.309715028, 32.704240678 ], [ 131.309704708999988, 32.704138204 ], [ 131.30970766199999, 32.704031486 ], [ 131.309717068999987, 32.703869991 ], [ 131.309680063, 32.703733885 ], [ 131.30963494400001, 32.703652558 ], [ 131.309543321, 32.703569942 ], [ 131.309411711, 32.703449515 ], [ 131.30931833, 32.703338821 ], [ 131.30921986199999, 32.70319725 ], [ 131.30912302499999, 32.70304725 ], [ 131.3090147, 32.702936593 ], [ 131.308846644, 32.702841528 ], [ 131.308685308, 32.702768912 ], [ 131.308485706, 32.702675328 ], [ 131.308385867999988, 32.702618006 ], [ 131.30834579, 32.702553516 ], [ 131.308325258999986, 32.702378054 ], [ 131.30829316099999, 32.702219469 ], [ 131.30826294100001, 32.702124065 ], [ 131.30819931, 32.701971174 ], [ 131.308177476, 32.701899619 ], [ 131.308185374, 32.701781655 ], [ 131.30822317799999, 32.70166783 ], [ 131.308290757, 32.701520233 ], [ 131.308341802, 32.701393739 ], [ 131.308377963999988, 32.701285534 ], [ 131.308360701, 32.701094619 ], [ 131.30835711899999, 32.701018806 ], [ 131.308380160000013, 32.700958373 ], [ 131.308489544, 32.70089492 ], [ 131.30865383, 32.700860817 ], [ 131.308786645999987, 32.700850662 ], [ 131.30899588, 32.700848742 ], [ 131.30914518599999, 32.700804847 ], [ 131.30920145799999, 32.700749949 ], [ 131.309228633, 32.700684591 ], [ 131.309220942, 32.700640363 ], [ 131.309214231999988, 32.700601785 ], [ 131.30919954699999, 32.700587075 ], [ 131.309114249, 32.700501638 ], [ 131.308983629000011, 32.700426138 ], [ 131.308913772000011, 32.700394016 ], [ 131.308806522, 32.700353561 ], [ 131.30871591499999, 32.700323596 ], [ 131.30856890199999, 32.700309917 ], [ 131.308463526, 32.700331238 ], [ 131.308345094, 32.700419285 ], [ 131.308214496, 32.700591608 ], [ 131.30815335, 32.700678111 ], [ 131.30807228399999, 32.700766768 ], [ 131.307978819999988, 32.700872305 ], [ 131.307851244, 32.700957567 ], [ 131.307731775, 32.700985942 ], [ 131.307609659, 32.70096869 ], [ 131.307466, 32.700906111 ], [ 131.307398967000012, 32.700872451 ], [ 131.307395931, 32.700870927 ], [ 131.307394824, 32.700870761 ], [ 131.307241361, 32.700847722 ], [ 131.30717222199999, 32.700877139 ], [ 131.307081419000014, 32.700922947 ], [ 131.30700556799999, 32.701080392 ], [ 131.306954423, 32.701178102 ], [ 131.306898948, 32.701223871 ], [ 131.306768573999989, 32.701219978 ], [ 131.306727849999987, 32.70117969 ], [ 131.30669079, 32.701055186 ], [ 131.306656034000014, 32.700846762 ], [ 131.30662645000001, 32.700693788 ], [ 131.306598567, 32.700552744 ], [ 131.306529049, 32.700376699 ], [ 131.306493003000014, 32.700276394 ], [ 131.306397693, 32.700084967 ], [ 131.30636254800001, 32.700035558 ], [ 131.306309660000011, 32.700109403 ], [ 131.30626938899999, 32.700142847 ], [ 131.306170358, 32.700188495 ], [ 131.30608247699999, 32.700204032 ], [ 131.305947257000014, 32.700214599 ], [ 131.305842770999988, 32.700192783 ], [ 131.305755121, 32.700141646 ], [ 131.305738074, 32.700137523 ], [ 131.305617176, 32.700108284 ], [ 131.305456235, 32.700149395 ], [ 131.30524227399999, 32.700225737 ], [ 131.304948723, 32.700337375 ], [ 131.30474303599999, 32.700405272 ], [ 131.304575562, 32.700478692 ], [ 131.30444791799999, 32.700544994 ], [ 131.304335325000011, 32.70064215 ], [ 131.304212877, 32.700771625 ], [ 131.304063988, 32.700904555 ], [ 131.303786137, 32.701161453 ], [ 131.303760203, 32.701186581 ], [ 131.303667867, 32.701299457 ], [ 131.303631861000014, 32.701343472 ], [ 131.303560182000012, 32.701466118 ], [ 131.303467180000013, 32.701669633 ], [ 131.303310922, 32.702193983 ], [ 131.303241453999988, 32.702680901 ], [ 131.303224269999987, 32.70299574 ], [ 131.303193735, 32.703312678 ], [ 131.303192387, 32.703588178 ], [ 131.303812249, 32.703602714 ], [ 131.304337491000013, 32.703712846 ], [ 131.304510405, 32.703755669 ], [ 131.304676691, 32.70380988 ], [ 131.304689959, 32.703814205 ], [ 131.30471399000001, 32.703825792 ], [ 131.30502375, 32.70397514 ], [ 131.30519153099999, 32.704070638 ], [ 131.305328027, 32.70416438 ], [ 131.305417948000013, 32.704235771 ], [ 131.305498496000013, 32.704276366 ], [ 131.305526079, 32.704290267 ], [ 131.30558256899999, 32.704299852 ], [ 131.305706679999986, 32.70432091 ], [ 131.30604275499999, 32.70434798 ], [ 131.30632835899999, 32.704337454 ], [ 131.306655554, 32.704347887 ], [ 131.306883105999987, 32.704358563 ], [ 131.306870804, 32.704160615 ], [ 131.307095530999987, 32.704095866 ], [ 131.30709643599999, 32.704095474 ], [ 131.30709736899999, 32.704095336 ], [ 131.30726400099999, 32.704047325 ], [ 131.307426662000012, 32.704021652 ], [ 131.30755828, 32.704014704 ], [ 131.307566135, 32.70401429 ], [ 131.307727346, 32.704050401 ], [ 131.307840551999988, 32.704131561 ], [ 131.30787741099999, 32.704225545 ], [ 131.307920872000011, 32.704658435 ], [ 131.307956103, 32.704828846 ], [ 131.307988217, 32.705073146 ], [ 131.3080074, 32.705083131 ], [ 131.308105633999986, 32.705156254 ], [ 131.308269652, 32.705283624 ], [ 131.308384553, 32.705373906 ], [ 131.308518600000014, 32.705478181 ], [ 131.308610132000013, 32.70553412 ], [ 131.308735772, 32.705608228 ], [ 131.308923689000011, 32.705682183 ], [ 131.309050903000013, 32.705731013 ], [ 131.309233721999988, 32.705771281 ], [ 131.309264385, 32.705772462 ], [ 131.30937075, 32.70577656 ], [ 131.309475240000012, 32.70577058 ], [ 131.30953466, 32.70576415 ], [ 131.309629683, 32.705735904 ], [ 131.309741481, 32.705648574 ], [ 131.30980013300001, 32.705560673 ], [ 131.30983545699999, 32.705450363 ], [ 131.309833357, 32.705323298 ] ], [ [ 131.308226386, 32.704292085 ], [ 131.308114131, 32.70400452 ], [ 131.308053946, 32.703888128 ], [ 131.307917201, 32.70372278 ], [ 131.30772432, 32.70358572 ], [ 131.307564488, 32.703534092 ], [ 131.307328648, 32.703527649 ], [ 131.307126455, 32.703533523 ], [ 131.30701969099999, 32.703507344 ], [ 131.306928223999989, 32.703469658 ], [ 131.306845017, 32.703419314 ], [ 131.306756853, 32.703376002 ], [ 131.306595667000011, 32.70334691 ], [ 131.306489456, 32.703368231 ], [ 131.306315239000014, 32.703413588 ], [ 131.306223993, 32.703440489 ], [ 131.306144453, 32.703491231 ], [ 131.306069944, 32.703556001 ], [ 131.30599037499999, 32.703598318 ], [ 131.305877449, 32.703598594 ], [ 131.30581092, 32.70356839 ], [ 131.30574768, 32.70354654 ], [ 131.30564727, 32.70351848 ], [ 131.30556913, 32.70348094 ], [ 131.30550956, 32.7034465 ], [ 131.30551966199999, 32.70338183 ], [ 131.305599193, 32.703328281 ], [ 131.305798079999988, 32.70321266 ], [ 131.30596386, 32.703128009 ], [ 131.306104858, 32.70308133 ], [ 131.306343821000013, 32.703030199 ], [ 131.30652962799999, 32.702974985 ], [ 131.30665887699999, 32.702891827 ], [ 131.30674149699999, 32.702770873 ], [ 131.307067112999988, 32.702322168 ], [ 131.30715226, 32.70225946 ], [ 131.30720433, 32.70227348 ], [ 131.307246329, 32.702282414 ], [ 131.30737872200001, 32.702429667 ], [ 131.30743507, 32.702599278 ], [ 131.307500476, 32.702785863 ], [ 131.30752593, 32.702944464 ], [ 131.307564625999987, 32.703090396 ], [ 131.307639798999986, 32.703219389 ], [ 131.307697915, 32.703266085 ], [ 131.307753037999987, 32.703310377 ], [ 131.30806647, 32.70341903 ], [ 131.30813043, 32.703431607 ], [ 131.30825533699999, 32.703535204 ], [ 131.308400516, 32.703738441 ], [ 131.308499095, 32.703912307 ], [ 131.30860479099999, 32.704223758 ], [ 131.308663534, 32.704403338 ], [ 131.30872218499999, 32.70455624 ], [ 131.308825796, 32.704744134 ], [ 131.308904289, 32.704871714 ], [ 131.309061227, 32.705112833 ], [ 131.30914645499999, 32.705267074 ], [ 131.309115023, 32.705302254 ], [ 131.30904077, 32.7052953 ], [ 131.30899245, 32.7052907 ], [ 131.308912490000012, 32.70526732 ], [ 131.30877670000001, 32.70521105 ], [ 131.308646071, 32.705119471 ], [ 131.308557807, 32.70504808 ], [ 131.308409415, 32.704877144 ], [ 131.308347443, 32.70472425 ], [ 131.30828677, 32.704466045 ], [ 131.308226386, 32.704292085 ] ] ] } }
]
}
