{
"type": "FeatureCollection",
"name": "A29-19_45208",
"features": [
{ "type": "Feature", "properties": { "A29_001": "45208", "A29_002": "宮崎県", "A29_003": "西都市", "A29_004": 2, "A29_005": "第二種低層住居専用地域", "A29_006": 60, "A29_007": 150, "A29_008": null }, "geometry": { "type": "Polygon", "coordinates": [ [ [ 131.400547424, 32.120507236 ], [ 131.400718313999988, 32.120328343 ], [ 131.40081291300001, 32.120292942 ], [ 131.401273444, 32.119612777 ], [ 131.40127418, 32.11961169 ], [ 131.40107283, 32.11945365 ], [ 131.401389169999987, 32.11862245 ], [ 131.40144679, 32.11838207 ], [ 131.401462220000013, 32.11825312 ], [ 131.401453839999988, 32.1181657 ], [ 131.40135711, 32.11769299 ], [ 131.40133524, 32.11757097 ], [ 131.40130643, 32.11738877 ], [ 131.401275629999986, 32.11705044 ], [ 131.401273389000011, 32.117050464 ], [ 131.40015176, 32.117063628 ], [ 131.40012151, 32.11654643 ], [ 131.40006917, 32.11554831 ], [ 131.40005188, 32.11525308 ], [ 131.400066079999988, 32.11484304 ], [ 131.400085069999989, 32.11430693 ], [ 131.40011339, 32.11346074 ], [ 131.400195450000012, 32.11342658 ], [ 131.400464199999988, 32.11330991 ], [ 131.40116273000001, 32.11302212 ], [ 131.401508830000012, 32.11291315 ], [ 131.401864319999987, 32.11281948 ], [ 131.40157894, 32.11218109 ], [ 131.401213430000013, 32.11150776 ], [ 131.40059655499999, 32.110361653 ], [ 131.400596455999988, 32.110361498 ], [ 131.400334590999989, 32.109949439 ], [ 131.400354600000014, 32.11024152 ], [ 131.39904049, 32.11031721 ], [ 131.39893891, 32.11025563 ], [ 131.398837469999989, 32.11022983 ], [ 131.3987028, 32.11022117 ], [ 131.39893604, 32.11082177 ], [ 131.39913106, 32.11122033 ], [ 131.39913574, 32.1116814 ], [ 131.39922250699999, 32.112587547 ], [ 131.39877137799999, 32.112569896 ], [ 131.398791203, 32.1129211 ], [ 131.398587948999989, 32.112924723 ], [ 131.39836033099999, 32.112967198 ], [ 131.398170541000013, 32.113062442 ], [ 131.398134693, 32.113466036 ], [ 131.397949012, 32.113481534 ], [ 131.397504093, 32.113521708 ], [ 131.397279938, 32.113555222 ], [ 131.39710299, 32.11359174 ], [ 131.39707805, 32.11368267 ], [ 131.39710846, 32.11393412 ], [ 131.39710661, 32.11412207 ], [ 131.397061119999989, 32.1143925 ], [ 131.396980039999988, 32.11475616 ], [ 131.3968788, 32.11477352 ], [ 131.39710971, 32.11514474 ], [ 131.39703741, 32.11538232 ], [ 131.39700764, 32.11558854 ], [ 131.39630791, 32.11563333 ], [ 131.396200459999989, 32.11606864 ], [ 131.39590399, 32.11719047 ], [ 131.395819249999988, 32.11721857 ], [ 131.39566603, 32.11724063 ], [ 131.395506110000014, 32.11725248 ], [ 131.39538613, 32.11724945 ], [ 131.39528868, 32.11722136 ], [ 131.3951844, 32.11715242 ], [ 131.39513919, 32.11717755 ], [ 131.39501816, 32.11724492 ], [ 131.39479329, 32.11734158 ], [ 131.39468279, 32.11737599 ], [ 131.39437625, 32.11740343 ], [ 131.39432491, 32.11755574 ], [ 131.39415625, 32.118011 ], [ 131.39400185, 32.11837085 ], [ 131.393771705, 32.118676302 ], [ 131.393866352, 32.118814086 ], [ 131.39381368, 32.119142435 ], [ 131.39376599799999, 32.119508404 ], [ 131.3937636, 32.119526808 ], [ 131.393686296, 32.119577339 ], [ 131.393603055999989, 32.11963175 ], [ 131.393718153, 32.119895157 ], [ 131.394433060000011, 32.119912944 ], [ 131.394818705, 32.119915744 ], [ 131.395655599, 32.119867106 ], [ 131.395712690000011, 32.12023387 ], [ 131.395787539999986, 32.12058509 ], [ 131.395823861, 32.120658917 ], [ 131.396049065999989, 32.120592286 ], [ 131.396789332999987, 32.120428611 ], [ 131.397205695999986, 32.120528629 ], [ 131.39736828299999, 32.120562679 ], [ 131.397375153000013, 32.120564117 ], [ 131.39736449599999, 32.120587373 ], [ 131.39720678899999, 32.120931529 ], [ 131.397184141, 32.120980952 ], [ 131.396846923, 32.12130219 ], [ 131.396485756, 32.121523445 ], [ 131.396255524, 32.121572193 ], [ 131.396043228999986, 32.122110833 ], [ 131.395999667000012, 32.12222136 ], [ 131.39694384, 32.12254879 ], [ 131.397131314, 32.123221745 ], [ 131.397321295000012, 32.123072205 ], [ 131.397544611, 32.122897895 ], [ 131.397719032, 32.122759788 ], [ 131.397850196, 32.122672098 ], [ 131.397949118000014, 32.12260443 ], [ 131.398299221, 32.122362364 ], [ 131.398630348000012, 32.122114664 ], [ 131.39898584, 32.121830837 ], [ 131.39917927, 32.121706898 ], [ 131.399423614999989, 32.121499315 ], [ 131.39959419499999, 32.121248324 ], [ 131.399847529999988, 32.121057788 ], [ 131.400096711, 32.120937466 ], [ 131.400260973, 32.120771876 ], [ 131.400547424, 32.120507236 ] ] ] } },
{ "type": "Feature", "properties": { "A29_001": "45208", "A29_002": "宮崎県", "A29_003": "西都市", "A29_004": 3, "A29_005": "第一種中高層住居専用地域", "A29_006": 60, "A29_007": 200, "A29_008": null }, "geometry": { "type": "Polygon", "coordinates": [ [ [ 131.39710299, 32.11359174 ], [ 131.397060790000012, 32.11354591 ], [ 131.39701717, 32.11347791 ], [ 131.39698016, 32.11339682 ], [ 131.39694835, 32.11328875 ], [ 131.39693738, 32.11321781 ], [ 131.39689632, 32.11312678 ], [ 131.396863489999987, 32.11308657 ], [ 131.39681599, 32.11304527 ], [ 131.3967125, 32.11300555 ], [ 131.396627630000012, 32.11295812 ], [ 131.396553399999988, 32.11290241 ], [ 131.3965093, 32.1128787 ], [ 131.396458599999988, 32.11286977 ], [ 131.39638932, 32.11287794 ], [ 131.39629614, 32.11291231 ], [ 131.39620677, 32.11320673 ], [ 131.39619241, 32.11340135 ], [ 131.39615612, 32.1136399 ], [ 131.39612463, 32.11375695 ], [ 131.39608639, 32.11385131 ], [ 131.39606158, 32.11397118 ], [ 131.39602889, 32.11411775 ], [ 131.39596296, 32.11428316 ], [ 131.395897530000013, 32.11441252 ], [ 131.395808640000013, 32.11450818 ], [ 131.39568137, 32.11466668 ], [ 131.39561188, 32.11478158 ], [ 131.39553333, 32.11495583 ], [ 131.39549237, 32.11503998 ], [ 131.39542293, 32.11531893 ], [ 131.395402069999989, 32.11542913 ], [ 131.39541465, 32.11587473 ], [ 131.39533867, 32.11587156 ], [ 131.39526002, 32.11586954 ], [ 131.395147900000012, 32.11583412 ], [ 131.39503391, 32.11598321 ], [ 131.39479932, 32.11628994 ], [ 131.394655269999987, 32.1165805 ], [ 131.39450395, 32.11703572 ], [ 131.39437625, 32.11740343 ], [ 131.39468279, 32.11737599 ], [ 131.39479329, 32.11734158 ], [ 131.39501816, 32.11724492 ], [ 131.39513919, 32.11717755 ], [ 131.3951844, 32.11715242 ], [ 131.39528868, 32.11722136 ], [ 131.39538613, 32.11724945 ], [ 131.395506110000014, 32.11725248 ], [ 131.39566603, 32.11724063 ], [ 131.395819249999988, 32.11721857 ], [ 131.39590399, 32.11719047 ], [ 131.396200459999989, 32.11606864 ], [ 131.39630791, 32.11563333 ], [ 131.39700764, 32.11558854 ], [ 131.39703741, 32.11538232 ], [ 131.39710971, 32.11514474 ], [ 131.3968788, 32.11477352 ], [ 131.396980039999988, 32.11475616 ], [ 131.397061119999989, 32.1143925 ], [ 131.39710661, 32.11412207 ], [ 131.39710846, 32.11393412 ], [ 131.39707805, 32.11368267 ], [ 131.39710299, 32.11359174 ] ] ] } },
{ "type": "Feature", "properties": { "A29_001": "45208", "A29_002": "宮崎県", "A29_003": "西都市", "A29_004": 4, "A29_005": "第二種中高層住居専用地域", "A29_006": 60, "A29_007": 200, "A29_008": null }, "geometry": { "type": "Polygon", "coordinates": [ [ [ 131.40002851, 32.10939094 ], [ 131.399717900000013, 32.1087691 ], [ 131.39932542, 32.10801806 ], [ 131.39895734000001, 32.10735553 ], [ 131.39883494, 32.10709929 ], [ 131.39879148, 32.10691264 ], [ 131.398614619999989, 32.10516622 ], [ 131.3993403, 32.10408238 ], [ 131.39927144399999, 32.102918528 ], [ 131.39836336499999, 32.102952752 ], [ 131.39819792, 32.102815625 ], [ 131.397871941, 32.102820918 ], [ 131.397786994, 32.10289376 ], [ 131.397536151999986, 32.102877471 ], [ 131.397521347, 32.102933016 ], [ 131.39742433, 32.10300056 ], [ 131.397295930000013, 32.10319797 ], [ 131.397232050000014, 32.10322088 ], [ 131.397154949999987, 32.10326544 ], [ 131.39710044, 32.10329513 ], [ 131.39703136, 32.10334872 ], [ 131.39695322, 32.10346194 ], [ 131.3969124, 32.10357448 ], [ 131.396862700000014, 32.10379094 ], [ 131.39684868399999, 32.103956667 ], [ 131.396564360000013, 32.103735402 ], [ 131.39615226699999, 32.103544583 ], [ 131.395990012999988, 32.103717988 ], [ 131.39564399599999, 32.103729742 ], [ 131.39548851, 32.10377844 ], [ 131.39549967, 32.10389422 ], [ 131.395480420000013, 32.10406573 ], [ 131.3954665, 32.10423665 ], [ 131.39546052, 32.10439564 ], [ 131.39547708, 32.10452559 ], [ 131.395529610000011, 32.10465487 ], [ 131.395548467999987, 32.104838936 ], [ 131.395484941, 32.105227622 ], [ 131.39551588099999, 32.105423903 ], [ 131.39543366699999, 32.105892472 ], [ 131.39548738900001, 32.106185389 ], [ 131.39524554499999, 32.106705473 ], [ 131.395772271999988, 32.106725174 ], [ 131.396329, 32.106723433 ], [ 131.396646917, 32.106742139 ], [ 131.396916111, 32.107321417 ], [ 131.396865080999987, 32.107746334 ], [ 131.396820752999986, 32.107934313 ], [ 131.39691653, 32.108045009 ], [ 131.397079964, 32.108142686 ], [ 131.397263982, 32.108186017 ], [ 131.397448556, 32.108246167 ], [ 131.397671171000013, 32.108572008 ], [ 131.397951471999988, 32.108892139 ], [ 131.398240832999988, 32.109351583 ], [ 131.398189660000014, 32.10951143 ], [ 131.39826954, 32.10949188 ], [ 131.39867464, 32.10947186 ], [ 131.40002851, 32.10939094 ] ] ] } },
{ "type": "Feature", "properties": { "A29_001": "45208", "A29_002": "宮崎県", "A29_003": "西都市", "A29_004": 9, "A29_005": "商業地域", "A29_006": 80, "A29_007": 400, "A29_008": null }, "geometry": { "type": "Polygon", "coordinates": [ [ [ 131.405714146, 32.111393535 ], [ 131.40623389699999, 32.110924925 ], [ 131.406235121, 32.110925836 ], [ 131.406236138999986, 32.110924917 ], [ 131.407059010000012, 32.11153719 ], [ 131.407131150999987, 32.111630173 ], [ 131.407489809999987, 32.111056518 ], [ 131.407493663, 32.111059306 ], [ 131.408046171, 32.111459157 ], [ 131.408047469, 32.11145602 ], [ 131.40918531, 32.108704907 ], [ 131.409035714, 32.1086362 ], [ 131.408728677, 32.108495181 ], [ 131.408729212999987, 32.108493726 ], [ 131.408569497, 32.108448468 ], [ 131.40807336, 32.10828629 ], [ 131.406186913, 32.107927033 ], [ 131.406180721999988, 32.107726611 ], [ 131.40610288, 32.107639139 ], [ 131.40543961099999, 32.107804889 ], [ 131.405448114, 32.107763494 ], [ 131.405566708, 32.1071862 ], [ 131.40545375799999, 32.107164149 ], [ 131.405859611000011, 32.105884306 ], [ 131.406204167, 32.104078222 ], [ 131.406439833, 32.102866778 ], [ 131.40513517799999, 32.10264812 ], [ 131.40498342, 32.10306183 ], [ 131.404917124, 32.104000695 ], [ 131.404527597, 32.103623414 ], [ 131.40388120099999, 32.104519139 ], [ 131.403507138, 32.105044362 ], [ 131.40336528099999, 32.105291353 ], [ 131.403253643, 32.105567065 ], [ 131.40320634599999, 32.105932222 ], [ 131.403211303, 32.10620436 ], [ 131.403197635, 32.106518182 ], [ 131.403199253999986, 32.106886385 ], [ 131.40316162799999, 32.106885809 ], [ 131.402853150999988, 32.106881083 ], [ 131.40283356, 32.10707408 ], [ 131.402655290000013, 32.10776398 ], [ 131.40255959000001, 32.10782788 ], [ 131.402629139999988, 32.10848747 ], [ 131.402682, 32.10898812 ], [ 131.402795125000011, 32.110194946 ], [ 131.402844359999989, 32.11075291 ], [ 131.40393377800001, 32.110769824 ], [ 131.40440183699999, 32.110760427 ], [ 131.404916257999986, 32.110728687 ], [ 131.405013950000011, 32.110726371 ], [ 131.405013954999987, 32.110726417 ], [ 131.40501619299999, 32.110726364 ], [ 131.405055667, 32.111146475 ], [ 131.40506256, 32.111955768 ], [ 131.40571053299999, 32.111932825 ], [ 131.405714146, 32.111393535 ] ] ] } },
{ "type": "Feature", "properties": { "A29_001": "45208", "A29_002": "宮崎県", "A29_003": "西都市", "A29_004": 5, "A29_005": "第一種住居地域", "A29_006": 60, "A29_007": 200, "A29_008": null }, "geometry": { "type": "Polygon", "coordinates": [ [ [ 131.40514643, 32.101410049 ], [ 131.405052055999988, 32.100619889 ], [ 131.405990953000014, 32.100653633 ], [ 131.40599652899999, 32.100653833 ], [ 131.406015973, 32.100514314 ], [ 131.40805169699999, 32.100405314 ], [ 131.408046911000014, 32.100080879 ], [ 131.408088541000012, 32.099668066 ], [ 131.40808295, 32.099667912 ], [ 131.406794448999989, 32.099632384 ], [ 131.405882639, 32.099628972 ], [ 131.404892222, 32.099661056 ], [ 131.404833389, 32.099418389 ], [ 131.404739525999986, 32.099175059 ], [ 131.404471210999986, 32.09898523 ], [ 131.404115268999988, 32.099396199 ], [ 131.40371267899999, 32.099084416 ], [ 131.403238949000013, 32.099322148 ], [ 131.40302499, 32.09916535 ], [ 131.402953932, 32.099135215 ], [ 131.402613901, 32.099363981 ], [ 131.402280280000014, 32.099530113 ], [ 131.40190343099999, 32.099750456 ], [ 131.40221910599999, 32.100066789 ], [ 131.402474089, 32.100266626 ], [ 131.402667806000011, 32.100399722 ], [ 131.40306163, 32.100701859 ], [ 131.403150610000012, 32.10076679 ], [ 131.403428530000014, 32.10093902 ], [ 131.40382521, 32.10114834 ], [ 131.40423666800001, 32.101338958 ], [ 131.40452172, 32.10153158 ], [ 131.404688459999988, 32.10171376 ], [ 131.405206260999989, 32.10208722 ], [ 131.40514643, 32.101410049 ] ] ] } },
{ "type": "Feature", "properties": { "A29_001": "45208", "A29_002": "宮崎県", "A29_003": "西都市", "A29_004": 5, "A29_005": "第一種住居地域", "A29_006": 60, "A29_007": 200, "A29_008": null }, "geometry": { "type": "Polygon", "coordinates": [ [ [ 131.3969124, 32.10357448 ], [ 131.39695322, 32.10346194 ], [ 131.39703136, 32.10334872 ], [ 131.39710044, 32.10329513 ], [ 131.397154949999987, 32.10326544 ], [ 131.397232050000014, 32.10322088 ], [ 131.397295930000013, 32.10319797 ], [ 131.39742433, 32.10300056 ], [ 131.397521347, 32.102933016 ], [ 131.397536151999986, 32.102877471 ], [ 131.397786994, 32.10289376 ], [ 131.397871941, 32.102820918 ], [ 131.39819792, 32.102815625 ], [ 131.39836336499999, 32.102952752 ], [ 131.39927144399999, 32.102918528 ], [ 131.399227795, 32.102056754 ], [ 131.39819508299999, 32.101204167 ], [ 131.39820746, 32.10102836 ], [ 131.39823657, 32.10098057 ], [ 131.39827764, 32.10092594 ], [ 131.398351960000014, 32.10085417 ], [ 131.398435479999989, 32.10075342 ], [ 131.398551770000012, 32.1005271 ], [ 131.39911414, 32.10113507 ], [ 131.399699629999986, 32.10108705 ], [ 131.39967045, 32.10019769 ], [ 131.39961249000001, 32.09912735 ], [ 131.399554959999989, 32.0981569 ], [ 131.39951081000001, 32.09719549 ], [ 131.39946131, 32.09622729 ], [ 131.39941821, 32.09550882 ], [ 131.399388320000014, 32.09537496 ], [ 131.39925663, 32.09511994 ], [ 131.39917101, 32.09491493 ], [ 131.39908355, 32.09483242 ], [ 131.39899151, 32.09472472 ], [ 131.39890148, 32.09456705 ], [ 131.39886304, 32.0944587 ], [ 131.398838860000012, 32.09429179 ], [ 131.398838500000011, 32.09420902 ], [ 131.39885154000001, 32.09412619 ], [ 131.398822310000014, 32.09408061 ], [ 131.39872705, 32.09400051 ], [ 131.39862631, 32.09394944 ], [ 131.398503409999989, 32.09393651 ], [ 131.398394020000012, 32.09394732 ], [ 131.398126069999989, 32.09396149 ], [ 131.398096790000011, 32.09390639 ], [ 131.397623399999986, 32.09392834 ], [ 131.39643, 32.09401818 ], [ 131.39517964, 32.09410822 ], [ 131.39486814, 32.09495445 ], [ 131.394316706000012, 32.096273635 ], [ 131.3946555, 32.096437667 ], [ 131.394861083, 32.096546056 ], [ 131.395182944, 32.096721889 ], [ 131.395251889, 32.096788639 ], [ 131.395279667000011, 32.096889556 ], [ 131.395260388999986, 32.097003972 ], [ 131.39520732, 32.09716584 ], [ 131.39510691000001, 32.09744922 ], [ 131.39513482000001, 32.09770556 ], [ 131.39551852, 32.09785328 ], [ 131.3954908, 32.09789999 ], [ 131.39525763, 32.09795496 ], [ 131.39499307, 32.09798289 ], [ 131.394827338999988, 32.098030737 ], [ 131.394547472, 32.09797125 ], [ 131.394240271, 32.097958123 ], [ 131.393914443999989, 32.097965611 ], [ 131.39393074, 32.09859318 ], [ 131.39390565, 32.09895769 ], [ 131.3938487, 32.09935014 ], [ 131.393839820000011, 32.09945575 ], [ 131.39385834, 32.09973669 ], [ 131.393850969999988, 32.0998809 ], [ 131.39384135, 32.10012219 ], [ 131.39383381, 32.10022894 ], [ 131.39380877, 32.10029146 ], [ 131.39377436, 32.1003472 ], [ 131.392352495000011, 32.101067531 ], [ 131.392649172, 32.101248048 ], [ 131.392962444, 32.101336056 ], [ 131.393421440999987, 32.101226441 ], [ 131.393711360999987, 32.101145194 ], [ 131.393807056000014, 32.101151694 ], [ 131.39405969399999, 32.101246056 ], [ 131.394303721999989, 32.101322361 ], [ 131.39439923, 32.10140365 ], [ 131.3944354, 32.10144669 ], [ 131.394473049999988, 32.10152377 ], [ 131.39452431, 32.10167064 ], [ 131.39454361, 32.10182044 ], [ 131.39457621, 32.1019634 ], [ 131.39461123000001, 32.10205014 ], [ 131.394902194, 32.102250833 ], [ 131.394920711999987, 32.102318931 ], [ 131.395365728, 32.102586496 ], [ 131.395591841, 32.102683979 ], [ 131.39559767, 32.1027419 ], [ 131.39560579, 32.10277139 ], [ 131.39560623, 32.10287357 ], [ 131.39558747, 32.10292825 ], [ 131.395554370000013, 32.10297831 ], [ 131.395497330000012, 32.10304207 ], [ 131.395427070000011, 32.10312632 ], [ 131.3953807, 32.10319232 ], [ 131.39535303, 32.10326507 ], [ 131.39535332, 32.1033332 ], [ 131.395361619999989, 32.103403 ], [ 131.39542083, 32.10353567 ], [ 131.39548851, 32.10377844 ], [ 131.39564399599999, 32.103729742 ], [ 131.395990012999988, 32.103717988 ], [ 131.39615226699999, 32.103544583 ], [ 131.396564360000013, 32.103735402 ], [ 131.39684868399999, 32.103956667 ], [ 131.396862700000014, 32.10379094 ], [ 131.3969124, 32.10357448 ] ] ] } },
{ "type": "Feature", "properties": { "A29_001": "45208", "A29_002": "宮崎県", "A29_003": "西都市", "A29_004": 5, "A29_005": "第一種住居地域", "A29_006": 60, "A29_007": 200, "A29_008": null }, "geometry": { "type": "Polygon", "coordinates": [ [ [ 131.408729212999987, 32.108493726 ], [ 131.409052038, 32.107616841 ], [ 131.408510024, 32.107544949 ], [ 131.408598622, 32.107166849 ], [ 131.40869926, 32.106958407 ], [ 131.408941986, 32.106557397 ], [ 131.408606528, 32.106407994 ], [ 131.408889289, 32.105705885 ], [ 131.408872973, 32.105420976 ], [ 131.408771632999986, 32.104627254 ], [ 131.40861311899999, 32.102050162 ], [ 131.407687833000011, 32.102063167 ], [ 131.407687829999986, 32.102063106 ], [ 131.40768222599999, 32.102063185 ], [ 131.40765078199999, 32.101535851 ], [ 131.407651628, 32.101458269 ], [ 131.407390260999989, 32.101477917 ], [ 131.406727749999988, 32.101500028 ], [ 131.406439833, 32.102866778 ], [ 131.406204167, 32.104078222 ], [ 131.405859611000011, 32.105884306 ], [ 131.40545375799999, 32.107164149 ], [ 131.405566708, 32.1071862 ], [ 131.405448114, 32.107763494 ], [ 131.40543961099999, 32.107804889 ], [ 131.40610288, 32.107639139 ], [ 131.406180721999988, 32.107726611 ], [ 131.406186913, 32.107927033 ], [ 131.40807336, 32.10828629 ], [ 131.408569497, 32.108448468 ], [ 131.408729212999987, 32.108493726 ] ] ] } },
{ "type": "Feature", "properties": { "A29_001": "45208", "A29_002": "宮崎県", "A29_003": "西都市", "A29_004": 5, "A29_005": "第一種住居地域", "A29_006": 60, "A29_007": 200, "A29_008": null }, "geometry": { "type": "Polygon", "coordinates": [ [ [ 131.41160573, 32.10771653 ], [ 131.41143495, 32.10729089 ], [ 131.411383, 32.10729559 ], [ 131.41129466000001, 32.10691326 ], [ 131.41128753000001, 32.10680712 ], [ 131.411266430000012, 32.10656082 ], [ 131.41120668, 32.10631294 ], [ 131.41116585, 32.10612119 ], [ 131.411146620000011, 32.1056972 ], [ 131.411127639999989, 32.10502911 ], [ 131.41113471, 32.10452385 ], [ 131.41109635, 32.10399547 ], [ 131.41104539, 32.10332974 ], [ 131.41100151, 32.1027571 ], [ 131.41099337, 32.10242673 ], [ 131.41095292, 32.1020255 ], [ 131.411294989999988, 32.101933 ], [ 131.411383072, 32.101890853 ], [ 131.411182239999988, 32.100722843 ], [ 131.410109691, 32.100604651 ], [ 131.41008108599999, 32.100095655 ], [ 131.410005485999989, 32.100012652 ], [ 131.409996948000014, 32.099785351 ], [ 131.40989433199999, 32.099548749 ], [ 131.409769035000011, 32.099286605 ], [ 131.409424333, 32.099307998 ], [ 131.40941868199999, 32.099307634 ], [ 131.409418727, 32.099308017 ], [ 131.40961664299999, 32.100842198 ], [ 131.409928005000012, 32.10202499 ], [ 131.410054753999987, 32.102828102 ], [ 131.41030106, 32.103968157 ], [ 131.410469670999987, 32.106097518 ], [ 131.410227365, 32.106141268 ], [ 131.410469726, 32.106439519 ], [ 131.409929449, 32.106647575 ], [ 131.410112225, 32.107476135 ], [ 131.41032331, 32.107728574 ], [ 131.40988381, 32.108007075 ], [ 131.41019656, 32.108560796 ], [ 131.409973087, 32.108802574 ], [ 131.409698041000013, 32.109494616 ], [ 131.409427133, 32.109903724 ], [ 131.409136975, 32.110388101 ], [ 131.409031949, 32.110466602 ], [ 131.408712199, 32.110934657 ], [ 131.408508141999988, 32.111305657 ], [ 131.408801043000011, 32.111337998 ], [ 131.409152041999988, 32.111435659 ], [ 131.40944304199999, 32.111529549 ], [ 131.40971926200001, 32.111596778 ], [ 131.409900703, 32.111630828 ], [ 131.410338303, 32.111720259 ], [ 131.410645093, 32.111764099 ], [ 131.411257346000014, 32.111924317 ], [ 131.411239961, 32.111943704 ], [ 131.41126295399999, 32.111924298 ], [ 131.411362735000012, 32.11180444 ], [ 131.411039974, 32.111415578 ], [ 131.412091221999987, 32.110598528 ], [ 131.412285327, 32.110241802 ], [ 131.41242825, 32.109973528 ], [ 131.412420139, 32.109887917 ], [ 131.412115949999986, 32.10914886 ], [ 131.41183812, 32.10841801 ], [ 131.41160573, 32.10771653 ] ] ] } },
{ "type": "Feature", "properties": { "A29_001": "45208", "A29_002": "宮崎県", "A29_003": "西都市", "A29_004": 5, "A29_005": "第一種住居地域", "A29_006": 60, "A29_007": 200, "A29_008": null }, "geometry": { "type": "Polygon", "coordinates": [ [ [ 131.398791203, 32.1129211 ], [ 131.39877137799999, 32.112569896 ], [ 131.39922250699999, 32.112587547 ], [ 131.39913574, 32.1116814 ], [ 131.39913106, 32.11122033 ], [ 131.39893604, 32.11082177 ], [ 131.3987028, 32.11022117 ], [ 131.398837469999989, 32.11022983 ], [ 131.39893891, 32.11025563 ], [ 131.39904049, 32.11031721 ], [ 131.400354600000014, 32.11024152 ], [ 131.400334590999989, 32.109949439 ], [ 131.40016848, 32.10969198 ], [ 131.40002851, 32.10939094 ], [ 131.39867464, 32.10947186 ], [ 131.39826954, 32.10949188 ], [ 131.398189660000014, 32.10951143 ], [ 131.39806877, 32.10960492 ], [ 131.397823319999986, 32.10986629 ], [ 131.397745210000011, 32.1099869 ], [ 131.39766715, 32.11012114 ], [ 131.39754991, 32.11044115 ], [ 131.397389229999987, 32.11089074 ], [ 131.39735446, 32.11102037 ], [ 131.39722993, 32.11120134 ], [ 131.39705113, 32.11146822 ], [ 131.396828994, 32.111508961 ], [ 131.396714546, 32.11153875 ], [ 131.396560521, 32.111579798 ], [ 131.396437428000013, 32.111642226 ], [ 131.39633681699999, 32.111716515 ], [ 131.396278435, 32.111831237 ], [ 131.396177905, 32.111924615 ], [ 131.396038949, 32.111981133 ], [ 131.396101750000014, 32.11204243 ], [ 131.39626181, 32.11206123 ], [ 131.39633122, 32.11208145 ], [ 131.39638993, 32.1120949 ], [ 131.39643937, 32.11212087 ], [ 131.39647018, 32.1121537 ], [ 131.396504889999989, 32.11216496 ], [ 131.39658225, 32.11217607 ], [ 131.39666367, 32.11219852 ], [ 131.396624050000014, 32.11228325 ], [ 131.39632788, 32.11285088 ], [ 131.39629614, 32.11291231 ], [ 131.39638932, 32.11287794 ], [ 131.396458599999988, 32.11286977 ], [ 131.3965093, 32.1128787 ], [ 131.396553399999988, 32.11290241 ], [ 131.396627630000012, 32.11295812 ], [ 131.3967125, 32.11300555 ], [ 131.39681599, 32.11304527 ], [ 131.396863489999987, 32.11308657 ], [ 131.39689632, 32.11312678 ], [ 131.39693738, 32.11321781 ], [ 131.39694835, 32.11328875 ], [ 131.39698016, 32.11339682 ], [ 131.39701717, 32.11347791 ], [ 131.397060790000012, 32.11354591 ], [ 131.39710299, 32.11359174 ], [ 131.397279938, 32.113555222 ], [ 131.397504093, 32.113521708 ], [ 131.397949012, 32.113481534 ], [ 131.398134693, 32.113466036 ], [ 131.398170541000013, 32.113062442 ], [ 131.39836033099999, 32.112967198 ], [ 131.398587948999989, 32.112924723 ], [ 131.398791203, 32.1129211 ] ] ] } },
{ "type": "Feature", "properties": { "A29_001": "45208", "A29_002": "宮崎県", "A29_003": "西都市", "A29_004": 5, "A29_005": "第一種住居地域", "A29_006": 60, "A29_007": 200, "A29_008": null }, "geometry": { "type": "Polygon", "coordinates": [ [ [ 131.403228627, 32.117701077 ], [ 131.403330817000011, 32.117594567 ], [ 131.40333263299999, 32.117595005 ], [ 131.40333306, 32.11759456 ], [ 131.40382431399999, 32.117712962 ], [ 131.40382715199999, 32.117713646 ], [ 131.404270978, 32.117128362 ], [ 131.404443934, 32.116891676 ], [ 131.404799389, 32.116450292 ], [ 131.405290296, 32.115800355 ], [ 131.405146475, 32.115709957 ], [ 131.405050589000012, 32.115649688 ], [ 131.405271156999987, 32.115132948 ], [ 131.40527338199999, 32.115132983 ], [ 131.405811422999989, 32.11514157 ], [ 131.405811467, 32.115141527 ], [ 131.405813666, 32.115141563 ], [ 131.40590146, 32.11505735 ], [ 131.40585669399999, 32.114640853 ], [ 131.40633517099999, 32.114661547 ], [ 131.406313368000013, 32.113346313 ], [ 131.406835693, 32.11328198 ], [ 131.4068633, 32.11239004 ], [ 131.40689814699999, 32.112028201 ], [ 131.407132007, 32.111634174 ], [ 131.40713014799999, 32.111631777 ], [ 131.407131150999987, 32.111630173 ], [ 131.407059010000012, 32.11153719 ], [ 131.406236138999986, 32.110924917 ], [ 131.406235121, 32.110925836 ], [ 131.40623389699999, 32.110924925 ], [ 131.405714146, 32.111393535 ], [ 131.40571053299999, 32.111932825 ], [ 131.40506256, 32.111955768 ], [ 131.405055667, 32.111146476 ], [ 131.405016194000012, 32.110726364 ], [ 131.405013954999987, 32.110726417 ], [ 131.405013950000011, 32.110726371 ], [ 131.404916257999986, 32.110728687 ], [ 131.40440183699999, 32.110760427 ], [ 131.40393377800001, 32.110769824 ], [ 131.403932599, 32.110769848 ], [ 131.40393128, 32.111538287 ], [ 131.40395718900001, 32.112082512 ], [ 131.40392807399999, 32.113153422 ], [ 131.403928063, 32.113153785 ], [ 131.40386439, 32.113143616 ], [ 131.403863108, 32.113143411 ], [ 131.40333643, 32.113259494 ], [ 131.403334229, 32.113259979 ], [ 131.40327275199999, 32.112561127 ], [ 131.403272737, 32.112560962 ], [ 131.40323905, 32.112563563 ], [ 131.403058722, 32.112577488 ], [ 131.403049927000012, 32.112501106 ], [ 131.402974527999987, 32.111846251 ], [ 131.40289481799999, 32.111176731 ], [ 131.402844359999989, 32.11075291 ], [ 131.402795126, 32.110194947 ], [ 131.402792897000012, 32.110195116 ], [ 131.402792882999989, 32.110194953 ], [ 131.400596455999988, 32.110361498 ], [ 131.40059655499999, 32.110361653 ], [ 131.401213430000013, 32.11150776 ], [ 131.40157894, 32.11218109 ], [ 131.401864319999987, 32.11281948 ], [ 131.401508830000012, 32.11291315 ], [ 131.40116273000001, 32.11302212 ], [ 131.400464199999988, 32.11330991 ], [ 131.400195450000012, 32.11342658 ], [ 131.40011339, 32.11346074 ], [ 131.400085069999989, 32.11430693 ], [ 131.400066079999988, 32.11484304 ], [ 131.40005188, 32.11525308 ], [ 131.40006917, 32.11554831 ], [ 131.40012151, 32.11654643 ], [ 131.400151759000011, 32.117063622 ], [ 131.40127338799999, 32.117050456 ], [ 131.401275629999986, 32.11705044 ], [ 131.40130643, 32.11738877 ], [ 131.40133524, 32.11757097 ], [ 131.40135711, 32.11769299 ], [ 131.401453839999988, 32.1181657 ], [ 131.401462220000013, 32.11825312 ], [ 131.40144679, 32.11838207 ], [ 131.401389169999987, 32.11862245 ], [ 131.40107283, 32.11945365 ], [ 131.40127418, 32.11961169 ], [ 131.401369036, 32.119679623 ], [ 131.401927677, 32.118964607 ], [ 131.40223703699999, 32.118675747 ], [ 131.403228627, 32.117701077 ] ] ] } },
{ "type": "Feature", "properties": { "A29_001": "45208", "A29_002": "宮崎県", "A29_003": "西都市", "A29_004": 5, "A29_005": "第一種住居地域", "A29_006": 60, "A29_007": 200, "A29_008": null }, "geometry": { "type": "Polygon", "coordinates": [ [ [ 131.410080155, 32.12061523 ], [ 131.410340553999987, 32.120513826 ], [ 131.41042084899999, 32.120521155 ], [ 131.41035064, 32.12042973 ], [ 131.40980972, 32.11932868 ], [ 131.40980676, 32.11926282 ], [ 131.40982207, 32.1191083 ], [ 131.409856170000012, 32.11898099 ], [ 131.409919480000013, 32.11882633 ], [ 131.410159529999987, 32.11824064 ], [ 131.410319963, 32.117905014 ], [ 131.410596168000012, 32.117351985 ], [ 131.410820269999988, 32.1169222 ], [ 131.41089958, 32.1167709 ], [ 131.41094683, 32.11660266 ], [ 131.410978160000013, 32.11645491 ], [ 131.41099276, 32.11614141 ], [ 131.411048833, 32.115362833 ], [ 131.410816872, 32.115359033 ], [ 131.409281861000011, 32.115383889 ], [ 131.4096233, 32.114668463 ], [ 131.41015954, 32.113938138 ], [ 131.410529860999986, 32.113376944 ], [ 131.410490947999989, 32.113269191 ], [ 131.410184372, 32.113010245 ], [ 131.41051305900001, 32.112730267 ], [ 131.410508353000012, 32.112729143 ], [ 131.408390892, 32.112223342 ], [ 131.408152855999987, 32.112889529 ], [ 131.40779644599999, 32.113842593 ], [ 131.407243630000011, 32.115230973 ], [ 131.40711298799999, 32.115234256 ], [ 131.40674569399999, 32.116428806 ], [ 131.406740264, 32.116428255 ], [ 131.40637606300001, 32.1163913 ], [ 131.406376153, 32.116391896 ], [ 131.40641740699999, 32.116665337 ], [ 131.406769722, 32.117995611 ], [ 131.407217651, 32.120038204 ], [ 131.407237605, 32.120129191 ], [ 131.407606320000014, 32.12012318 ], [ 131.40771693100001, 32.120125751 ], [ 131.407711, 32.120240417 ], [ 131.407740192, 32.120407787 ], [ 131.407756502000012, 32.120501303 ], [ 131.408295970000012, 32.12055294 ], [ 131.408436693999988, 32.120544647 ], [ 131.408430299, 32.120591225 ], [ 131.408421578, 32.120654743 ], [ 131.408865776999988, 32.120772844 ], [ 131.409164112000013, 32.120678909 ], [ 131.40960325099999, 32.12066231 ], [ 131.40992864399999, 32.120636591 ], [ 131.410080155, 32.12061523 ] ] ] } },
{ "type": "Feature", "properties": { "A29_001": "45208", "A29_002": "宮崎県", "A29_003": "西都市", "A29_004": 5, "A29_005": "第一種住居地域", "A29_006": 60, "A29_007": 200, "A29_008": null }, "geometry": { "type": "Polygon", "coordinates": [ [ [ 131.39720678899999, 32.120931529 ], [ 131.39736449599999, 32.120587373 ], [ 131.397375153000013, 32.120564117 ], [ 131.39736828299999, 32.120562679 ], [ 131.397205695999986, 32.120528629 ], [ 131.396789332999987, 32.120428611 ], [ 131.396049065999989, 32.120592286 ], [ 131.395823861, 32.120658917 ], [ 131.395787539999986, 32.12058509 ], [ 131.395712690000011, 32.12023387 ], [ 131.395655599, 32.119867106 ], [ 131.394818705, 32.119915744 ], [ 131.394433060000011, 32.119912944 ], [ 131.393718153, 32.119895157 ], [ 131.393603055999989, 32.11963175 ], [ 131.393686296, 32.119577339 ], [ 131.3937636, 32.119526808 ], [ 131.39376599799999, 32.119508404 ], [ 131.39381368, 32.119142435 ], [ 131.393866352, 32.118814086 ], [ 131.393771705, 32.118676302 ], [ 131.39371395, 32.11875476 ], [ 131.39364089, 32.11881176 ], [ 131.39358791, 32.11889026 ], [ 131.39356023, 32.11895904 ], [ 131.393549940000014, 32.11904649 ], [ 131.39353677, 32.119084 ], [ 131.39347036, 32.11913984 ], [ 131.39339999, 32.11920364 ], [ 131.393180021, 32.119426564 ], [ 131.393256449, 32.119702482 ], [ 131.393243285000011, 32.119922648 ], [ 131.393188689999988, 32.12027893 ], [ 131.393171630000012, 32.12034029 ], [ 131.393177189999989, 32.12039591 ], [ 131.393124906999986, 32.120831528 ], [ 131.393108326, 32.121351873 ], [ 131.393019243999987, 32.122512805 ], [ 131.392993393000012, 32.123065197 ], [ 131.39280386499999, 32.123834219 ], [ 131.39255805499999, 32.124515464 ], [ 131.392775457, 32.124605863 ], [ 131.392687411, 32.124871768 ], [ 131.392652421, 32.125031255 ], [ 131.39263809799999, 32.12515779 ], [ 131.392778556, 32.125329383 ], [ 131.392945542, 32.125447766 ], [ 131.393151045, 32.125535672 ], [ 131.39330880899999, 32.125583249 ], [ 131.39334183599999, 32.125659041 ], [ 131.39345515, 32.125739643 ], [ 131.393633701999988, 32.125782095 ], [ 131.393912755, 32.125690153 ], [ 131.39410842699999, 32.125565583 ], [ 131.394229865999989, 32.125461482 ], [ 131.394555867, 32.125226458 ], [ 131.394816851, 32.125081445 ], [ 131.395055391999989, 32.124902348 ], [ 131.395414138, 32.124678604 ], [ 131.395612898, 32.12458185 ], [ 131.395733758, 32.124571385 ], [ 131.395762357, 32.124427064 ], [ 131.395795338, 32.124405921 ], [ 131.39611661, 32.124196375 ], [ 131.396289762, 32.124021275 ], [ 131.396527513, 32.123832692 ], [ 131.39656684, 32.12371173 ], [ 131.39674026899999, 32.123536036 ], [ 131.396946969, 32.123385496 ], [ 131.397131314, 32.123221745 ], [ 131.39694384, 32.12254879 ], [ 131.395999667000012, 32.12222136 ], [ 131.396043228999986, 32.122110833 ], [ 131.396255524, 32.121572193 ], [ 131.396485756, 32.121523445 ], [ 131.396846923, 32.12130219 ], [ 131.397184141, 32.120980952 ], [ 131.39720678899999, 32.120931529 ] ] ] } },
{ "type": "Feature", "properties": { "A29_001": "45208", "A29_002": "宮崎県", "A29_003": "西都市", "A29_004": 6, "A29_005": "第二種住居地域", "A29_006": 60, "A29_007": 200, "A29_008": null }, "geometry": { "type": "Polygon", "coordinates": [ [ [ 131.40283356, 32.10707408 ], [ 131.402853150999988, 32.106881083 ], [ 131.40316162799999, 32.106885809 ], [ 131.403199253999986, 32.106886385 ], [ 131.403197635, 32.106518182 ], [ 131.403211303, 32.10620436 ], [ 131.402262651, 32.105185998 ], [ 131.401612824000011, 32.104541294 ], [ 131.401138, 32.104089917 ], [ 131.40089552, 32.10376217 ], [ 131.400440948000011, 32.103982929 ], [ 131.400511916, 32.104828141 ], [ 131.400626300999988, 32.106041267 ], [ 131.400660820000013, 32.10709913 ], [ 131.40085887, 32.10910292 ], [ 131.402682, 32.10898812 ], [ 131.402629139999988, 32.10848747 ], [ 131.40255959000001, 32.10782788 ], [ 131.402655290000013, 32.10776398 ], [ 131.40283356, 32.10707408 ] ] ] } },
{ "type": "Feature", "properties": { "A29_001": "45208", "A29_002": "宮崎県", "A29_003": "西都市", "A29_004": 6, "A29_005": "第二種住居地域", "A29_006": 60, "A29_007": 200, "A29_008": null }, "geometry": { "type": "Polygon", "coordinates": [ [ [ 131.40382715199999, 32.117713646 ], [ 131.40382431399999, 32.117712962 ], [ 131.403823963, 32.117713426 ], [ 131.403826801, 32.117714109 ], [ 131.40382715199999, 32.117713646 ] ] ] } },
{ "type": "Feature", "properties": { "A29_001": "45208", "A29_002": "宮崎県", "A29_003": "西都市", "A29_004": 6, "A29_005": "第二種住居地域", "A29_006": 60, "A29_007": 200, "A29_008": null }, "geometry": { "type": "Polygon", "coordinates": [ [ [ 131.406198802, 32.11617053 ], [ 131.406226679000014, 32.116144173 ], [ 131.406370455, 32.116391318 ], [ 131.406376153, 32.116391896 ], [ 131.40637606300001, 32.1163913 ], [ 131.406740265, 32.116428255 ], [ 131.40674569399999, 32.116428806 ], [ 131.40711298799999, 32.115234256 ], [ 131.407243630000011, 32.115230973 ], [ 131.40779644599999, 32.113842593 ], [ 131.408152855999987, 32.112889529 ], [ 131.408390892, 32.112223342 ], [ 131.410508353000012, 32.112729143 ], [ 131.410661516, 32.112535305 ], [ 131.41085806800001, 32.112369596 ], [ 131.411257346000014, 32.111924316 ], [ 131.410645093, 32.111764098 ], [ 131.410338303, 32.111720258 ], [ 131.409900703, 32.111630828 ], [ 131.409719263, 32.111596778 ], [ 131.40944304300001, 32.111529548 ], [ 131.409152043, 32.111435658 ], [ 131.408801043000011, 32.111337998 ], [ 131.408508141999988, 32.111305657 ], [ 131.408712199, 32.110934657 ], [ 131.409031949, 32.110466601 ], [ 131.409136975, 32.110388101 ], [ 131.409427133, 32.109903723 ], [ 131.409698041000013, 32.109494616 ], [ 131.409973087, 32.108802574 ], [ 131.410196559000013, 32.108560796 ], [ 131.409883809, 32.108007074 ], [ 131.41032331, 32.107728574 ], [ 131.410112225, 32.107476135 ], [ 131.409929449, 32.106647574 ], [ 131.410469726, 32.106439518 ], [ 131.410227365, 32.106141268 ], [ 131.410469670999987, 32.106097519 ], [ 131.41030106, 32.103968157 ], [ 131.410054753999987, 32.102828102 ], [ 131.40992800399999, 32.10202499 ], [ 131.40961664299999, 32.100842198 ], [ 131.409418727, 32.099308016 ], [ 131.40935271399999, 32.098750402 ], [ 131.40882063399999, 32.098738958 ], [ 131.40882359299999, 32.098706821 ], [ 131.408842161, 32.098505155 ], [ 131.408801195, 32.098504665 ], [ 131.408210214, 32.098497588 ], [ 131.408182524000011, 32.098553388 ], [ 131.40808295, 32.099667912 ], [ 131.408088541000012, 32.099668066 ], [ 131.408046911000014, 32.100080879 ], [ 131.40805169699999, 32.100405314 ], [ 131.406015973, 32.100514314 ], [ 131.40599652899999, 32.100653833 ], [ 131.405990953000014, 32.100653633 ], [ 131.405990922, 32.100653851 ], [ 131.406080143999986, 32.100669518 ], [ 131.40605312, 32.101109021 ], [ 131.406014685, 32.101490516 ], [ 131.406400794, 32.101497578 ], [ 131.406722143, 32.101500046 ], [ 131.406723631, 32.101499996 ], [ 131.406727751, 32.101500028 ], [ 131.407390260999989, 32.101477917 ], [ 131.407651628, 32.101458269 ], [ 131.40765078199999, 32.101535851 ], [ 131.40768222599999, 32.102063185 ], [ 131.407687829999986, 32.102063107 ], [ 131.407687833000011, 32.102063167 ], [ 131.40861311899999, 32.102050162 ], [ 131.408771632999986, 32.104627254 ], [ 131.408872973, 32.105420976 ], [ 131.408889289, 32.105705885 ], [ 131.408606528, 32.106407994 ], [ 131.408941986, 32.106557397 ], [ 131.40869926, 32.106958407 ], [ 131.408598622, 32.107166849 ], [ 131.408510024, 32.107544949 ], [ 131.409052038, 32.107616841 ], [ 131.408729212999987, 32.108493726 ], [ 131.408728677, 32.108495181 ], [ 131.409035714, 32.1086362 ], [ 131.40918531, 32.108704907 ], [ 131.408047468, 32.11145602 ], [ 131.408046171, 32.111459157 ], [ 131.407493662, 32.111059306 ], [ 131.407489809999987, 32.111056518 ], [ 131.407131150999987, 32.111630173 ], [ 131.40713014799999, 32.111631777 ], [ 131.407132007, 32.111634174 ], [ 131.40689814699999, 32.112028201 ], [ 131.4068633, 32.11239004 ], [ 131.406835693, 32.11328198 ], [ 131.406313368000013, 32.113346313 ], [ 131.40633517099999, 32.114661547 ], [ 131.40585669399999, 32.114640853 ], [ 131.40590146, 32.11505735 ], [ 131.405813666, 32.115141562 ], [ 131.405811467, 32.115141527 ], [ 131.405811422999989, 32.11514157 ], [ 131.40527338199999, 32.115132983 ], [ 131.405271158, 32.115132948 ], [ 131.405050589000012, 32.115649689 ], [ 131.405146475, 32.115709957 ], [ 131.405290296, 32.115800355 ], [ 131.404799389, 32.116450292 ], [ 131.404443934, 32.116891676 ], [ 131.404270978, 32.117128362 ], [ 131.40382715199999, 32.117713646 ], [ 131.403829045, 32.117714102 ], [ 131.404702077, 32.117988067 ], [ 131.405093305, 32.117468372 ], [ 131.40548790599999, 32.116962409 ], [ 131.40559845300001, 32.116753344 ], [ 131.405697843000013, 32.116542418 ], [ 131.405795289999986, 32.116396009 ], [ 131.406140095000012, 32.116226037 ], [ 131.406198802, 32.11617053 ] ] ] } },
{ "type": "Feature", "properties": { "A29_001": "45208", "A29_002": "宮崎県", "A29_003": "西都市", "A29_004": 8, "A29_005": "近隣商業地域", "A29_006": 80, "A29_007": 300, "A29_008": null }, "geometry": { "type": "Polygon", "coordinates": [ [ [ 131.400596455999988, 32.110361498 ], [ 131.402792882999989, 32.110194953 ], [ 131.402792897000012, 32.110195115 ], [ 131.402795125000011, 32.110194946 ], [ 131.402682, 32.10898812 ], [ 131.40085887, 32.10910292 ], [ 131.400660820000013, 32.10709913 ], [ 131.400626300999988, 32.106041267 ], [ 131.400511916, 32.104828141 ], [ 131.400440948000011, 32.103982929 ], [ 131.40089552, 32.10376217 ], [ 131.401138, 32.104089917 ], [ 131.401612824000011, 32.104541294 ], [ 131.402262651, 32.105185998 ], [ 131.403211303, 32.10620436 ], [ 131.40320634599999, 32.105932222 ], [ 131.403253643, 32.105567065 ], [ 131.40336528099999, 32.105291353 ], [ 131.403507138, 32.105044362 ], [ 131.40388120099999, 32.104519139 ], [ 131.403699010999986, 32.104528258 ], [ 131.403307219, 32.104395741 ], [ 131.402878191000013, 32.104159461 ], [ 131.40248419, 32.10405597 ], [ 131.40215827, 32.10388048 ], [ 131.40176009000001, 32.10362972 ], [ 131.40127199, 32.10323222 ], [ 131.40055787, 32.10264247 ], [ 131.400184599999989, 32.10229853 ], [ 131.40001726, 32.10212025 ], [ 131.39986577, 32.10190617 ], [ 131.39977965, 32.10171402 ], [ 131.39974315, 32.10159379 ], [ 131.399699629999986, 32.10108705 ], [ 131.39911414, 32.10113507 ], [ 131.398551770000012, 32.1005271 ], [ 131.398435479999989, 32.10075342 ], [ 131.398351960000014, 32.10085417 ], [ 131.39827764, 32.10092594 ], [ 131.39823657, 32.10098057 ], [ 131.39820746, 32.10102836 ], [ 131.39819508299999, 32.101204167 ], [ 131.399227795, 32.102056754 ], [ 131.39927144399999, 32.102918528 ], [ 131.3993403, 32.10408238 ], [ 131.398614619999989, 32.10516622 ], [ 131.39879148, 32.10691264 ], [ 131.39883494, 32.10709929 ], [ 131.39895734000001, 32.10735553 ], [ 131.39932542, 32.10801806 ], [ 131.399717900000013, 32.1087691 ], [ 131.40002851, 32.10939094 ], [ 131.40016848, 32.10969198 ], [ 131.400334590999989, 32.109949439 ], [ 131.400596455999988, 32.110361498 ] ] ] } },
{ "type": "Feature", "properties": { "A29_001": "45208", "A29_002": "宮崎県", "A29_003": "西都市", "A29_004": 8, "A29_005": "近隣商業地域", "A29_006": 80, "A29_007": 300, "A29_008": null }, "geometry": { "type": "Polygon", "coordinates": [ [ [ 131.40333643, 32.113259494 ], [ 131.403863108, 32.113143411 ], [ 131.40386439, 32.113143616 ], [ 131.403928064000013, 32.113153786 ], [ 131.40392807399999, 32.113153422 ], [ 131.40395718900001, 32.112082512 ], [ 131.40393128, 32.111538287 ], [ 131.403932599, 32.110769848 ], [ 131.40393377800001, 32.110769824 ], [ 131.402844359999989, 32.11075291 ], [ 131.40289481799999, 32.111176731 ], [ 131.402974527999987, 32.11184625 ], [ 131.403049927000012, 32.112501106 ], [ 131.403058722, 32.112577488 ], [ 131.40323905, 32.112563563 ], [ 131.403272737, 32.112560962 ], [ 131.40327275199999, 32.112561127 ], [ 131.403334229, 32.113259979 ], [ 131.40333643, 32.113259494 ] ] ] } },
{ "type": "Feature", "properties": { "A29_001": "45208", "A29_002": "宮崎県", "A29_003": "西都市", "A29_004": 10, "A29_005": "準工業地域", "A29_006": 60, "A29_007": 200, "A29_008": null }, "geometry": { "type": "Polygon", "coordinates": [ [ [ 131.39486814, 32.09495445 ], [ 131.39517964, 32.09410822 ], [ 131.39431559, 32.09417942 ], [ 131.39384659000001, 32.09418705 ], [ 131.39341993, 32.09417411 ], [ 131.3930881, 32.09413471 ], [ 131.39302106, 32.0941254 ], [ 131.39318228, 32.09526721 ], [ 131.393253308, 32.095727281 ], [ 131.394316706000012, 32.096273635 ], [ 131.39486814, 32.09495445 ] ] ] } },
{ "type": "Feature", "properties": { "A29_001": "45208", "A29_002": "宮崎県", "A29_003": "西都市", "A29_004": 10, "A29_005": "準工業地域", "A29_006": 60, "A29_007": 200, "A29_008": null }, "geometry": { "type": "Polygon", "coordinates": [ [ [ 131.40388120099999, 32.104519139 ], [ 131.404527597, 32.103623414 ], [ 131.404917124, 32.104000695 ], [ 131.40498342, 32.10306183 ], [ 131.40513517799999, 32.10264812 ], [ 131.406439833, 32.102866778 ], [ 131.406727749999988, 32.101500028 ], [ 131.406723631, 32.101499996 ], [ 131.406722143, 32.101500046 ], [ 131.406400794, 32.101497578 ], [ 131.406014685, 32.101490516 ], [ 131.40605312, 32.101109021 ], [ 131.406080143999986, 32.100669518 ], [ 131.405990922, 32.100653851 ], [ 131.405990953000014, 32.100653633 ], [ 131.405052055999988, 32.100619889 ], [ 131.40514643, 32.101410049 ], [ 131.405206260999989, 32.10208722 ], [ 131.404688459999988, 32.10171376 ], [ 131.40440323199999, 32.101981351 ], [ 131.40477581, 32.102284974 ], [ 131.40472587, 32.10233802 ], [ 131.403882079999988, 32.10316888 ], [ 131.402878191000013, 32.104159461 ], [ 131.403307219, 32.104395741 ], [ 131.403699010999986, 32.104528258 ], [ 131.40388120099999, 32.104519139 ] ] ] } },
{ "type": "Feature", "properties": { "A29_001": "45208", "A29_002": "宮崎県", "A29_003": "西都市", "A29_004": 10, "A29_005": "準工業地域", "A29_006": 60, "A29_007": 200, "A29_008": null }, "geometry": { "type": "Polygon", "coordinates": [ [ [ 131.411748918, 32.117382394 ], [ 131.410596168000012, 32.117351985 ], [ 131.410319963, 32.117905014 ], [ 131.411720006, 32.117894777 ], [ 131.411748918, 32.117382394 ] ] ] } },
{ "type": "Feature", "properties": { "A29_001": "45208", "A29_002": "宮崎県", "A29_003": "西都市", "A29_004": 10, "A29_005": "準工業地域", "A29_006": 60, "A29_007": 200, "A29_008": null }, "geometry": { "type": "Polygon", "coordinates": [ [ [ 131.416636191, 32.117463174 ], [ 131.413806864, 32.11742312 ], [ 131.413784816, 32.118960059 ], [ 131.415702111, 32.118949984 ], [ 131.415717556, 32.118422466 ], [ 131.416455485, 32.118418143 ], [ 131.416627124, 32.118411887 ], [ 131.416636191, 32.117463174 ] ] ] } },
{ "type": "Feature", "properties": { "A29_001": "45208", "A29_002": "宮崎県", "A29_003": "西都市", "A29_004": 10, "A29_005": "準工業地域", "A29_006": 60, "A29_007": 200, "A29_008": null }, "geometry": { "type": "Polygon", "coordinates": [ [ [ 131.402778046, 32.12050775 ], [ 131.403873215, 32.119098313 ], [ 131.40458483, 32.11818151 ], [ 131.40468097199999, 32.118042028 ], [ 131.40470660299999, 32.117989487 ], [ 131.404702077, 32.117988067 ], [ 131.403829045, 32.117714102 ], [ 131.40382715199999, 32.117713646 ], [ 131.403826801, 32.117714109 ], [ 131.403823963, 32.117713426 ], [ 131.40382431399999, 32.117712962 ], [ 131.40333306, 32.11759456 ], [ 131.40333263299999, 32.117595005 ], [ 131.403330817000011, 32.117594567 ], [ 131.403228627, 32.117701077 ], [ 131.40223703699999, 32.118675748 ], [ 131.401927677, 32.118964608 ], [ 131.401369036, 32.119679623 ], [ 131.40127418, 32.11961169 ], [ 131.401273444, 32.119612777 ], [ 131.40081291300001, 32.120292942 ], [ 131.40084966, 32.12033914 ], [ 131.400879049999986, 32.12157322 ], [ 131.400907361, 32.121699139 ], [ 131.401239263, 32.121939455 ], [ 131.401509707, 32.122092285 ], [ 131.401922234000011, 32.12159766 ], [ 131.402778046, 32.12050775 ] ] ] } },
{ "type": "Feature", "properties": { "A29_001": "45208", "A29_002": "宮崎県", "A29_003": "西都市", "A29_004": 12, "A29_005": "工業専用地域", "A29_006": 60, "A29_007": 200, "A29_008": null }, "geometry": { "type": "Polygon", "coordinates": [ [ [ 131.417563874, 32.117353344 ], [ 131.41675601, 32.117337553 ], [ 131.416765462, 32.117455159 ], [ 131.416636191, 32.117463174 ], [ 131.416627124, 32.118411887 ], [ 131.416455485, 32.118418143 ], [ 131.41646470399999, 32.118484521 ], [ 131.4170288, 32.118494048 ], [ 131.417411070000014, 32.117741432 ], [ 131.417524444, 32.117551833 ], [ 131.417563874, 32.117353344 ] ] ] } },
{ "type": "Feature", "properties": { "A29_001": "45208", "A29_002": "宮崎県", "A29_003": "西都市", "A29_004": 12, "A29_005": "工業専用地域", "A29_006": 60, "A29_007": 200, "A29_008": null }, "geometry": { "type": "Polygon", "coordinates": [ [ [ 131.413806864, 32.11742312 ], [ 131.411748918, 32.117382394 ], [ 131.411720006, 32.117894777 ], [ 131.41172434399999, 32.118860999 ], [ 131.411724666, 32.118932621 ], [ 131.413784816, 32.118960059 ], [ 131.413806864, 32.11742312 ] ] ] } }
]
}
