{
"type": "FeatureCollection",
"name": "A29-19_07303",
"features": [
{ "type": "Feature", "properties": { "A29_001": "07303", "A29_002": "福島県", "A29_003": "国見町", "A29_004": 1, "A29_005": "第一種低層住居専用地域", "A29_006": 60, "A29_007": 100, "A29_008": null }, "geometry": { "type": "Polygon", "coordinates": [ [ [ 140.537072816, 37.874340682 ], [ 140.536990046999989, 37.874342254 ], [ 140.536948192000011, 37.874305315 ], [ 140.537084047, 37.874187022 ], [ 140.537098673, 37.874085593 ], [ 140.537015340000011, 37.874058434 ], [ 140.53659773199999, 37.874168926 ], [ 140.536586011999987, 37.874202896 ], [ 140.53662707399999, 37.874327755 ], [ 140.536638751, 37.874479373 ], [ 140.536630975, 37.874610537 ], [ 140.536567846999986, 37.874771831 ], [ 140.536446461, 37.874974001 ], [ 140.536436173999988, 37.874999094 ], [ 140.53648270799999, 37.874990472 ], [ 140.536474615, 37.875088263 ], [ 140.536465029999988, 37.875187254 ], [ 140.53651462799999, 37.875184574 ], [ 140.536569248, 37.875235503 ], [ 140.53660574, 37.875205584 ], [ 140.536648331, 37.875170664 ], [ 140.536670477, 37.875177886 ], [ 140.536856496000013, 37.875238555 ], [ 140.53689783199999, 37.875180929 ], [ 140.536993031, 37.875048214 ], [ 140.53707807399999, 37.875049469 ], [ 140.53714259, 37.874990359 ], [ 140.53735730299999, 37.874769819 ], [ 140.537490635000012, 37.874553699 ], [ 140.537072816, 37.874340682 ] ] ] } },
{ "type": "Feature", "properties": { "A29_001": "07303", "A29_002": "福島県", "A29_003": "国見町", "A29_004": 8, "A29_005": "近隣商業地域", "A29_006": 80, "A29_007": 200, "A29_008": null }, "geometry": { "type": "Polygon", "coordinates": [ [ [ 140.54610223, 37.87564864 ], [ 140.545708872, 37.875420877 ], [ 140.54566531399999, 37.875396262 ], [ 140.545592792, 37.875360827 ], [ 140.545521154999989, 37.8753198 ], [ 140.54533510600001, 37.875213249 ], [ 140.545273404999989, 37.875175712 ], [ 140.545275253999989, 37.875175162 ], [ 140.545190625, 37.875 ], [ 140.54518948099999, 37.874997632 ], [ 140.54513954699999, 37.874908402 ], [ 140.545061984, 37.874784013 ], [ 140.545044549000011, 37.874784934 ], [ 140.54502373299999, 37.874786034 ], [ 140.544942526, 37.874726149 ], [ 140.544911694, 37.874703412 ], [ 140.544878619, 37.874663738 ], [ 140.544787721, 37.874555718 ], [ 140.544538659000011, 37.874252431 ], [ 140.544535757, 37.874249606 ], [ 140.544469725, 37.874217786 ], [ 140.544439374, 37.874190409 ], [ 140.544372159, 37.874096111 ], [ 140.544321376, 37.874021978 ], [ 140.544302012, 37.8739814 ], [ 140.544225124, 37.873820284 ], [ 140.544149189, 37.873715148 ], [ 140.54410373499999, 37.873640406 ], [ 140.544053528, 37.873591614 ], [ 140.544039594, 37.873578074 ], [ 140.544006152, 37.873540421 ], [ 140.54395653099999, 37.873492729 ], [ 140.54387775699999, 37.873447004 ], [ 140.543688667, 37.873351965 ], [ 140.543673117, 37.873371624 ], [ 140.543243424, 37.873231389 ], [ 140.542840162, 37.873077475 ], [ 140.542834742999986, 37.873075636 ], [ 140.542535222999987, 37.873008114 ], [ 140.542394803, 37.873019315 ], [ 140.54182831599999, 37.873106395 ], [ 140.54186586, 37.873572233 ], [ 140.54112345199999, 37.873752194 ], [ 140.540702501, 37.873865434 ], [ 140.540221532, 37.874037546 ], [ 140.539738002, 37.874235268 ], [ 140.540109346, 37.874390375 ], [ 140.540360531, 37.874471049 ], [ 140.54081818899999, 37.874717588 ], [ 140.541123668000012, 37.874851808 ], [ 140.541415105, 37.875012025 ], [ 140.541558979, 37.875160304 ], [ 140.541679033, 37.875291263 ], [ 140.541666666999987, 37.875489436 ], [ 140.54216026, 37.875644651 ], [ 140.542413571999987, 37.875663618 ], [ 140.54284848099999, 37.875662038 ], [ 140.543620909, 37.87573816 ], [ 140.543652087, 37.875604929 ], [ 140.54387039, 37.875574418 ], [ 140.543906869000011, 37.875572707 ], [ 140.543915860999988, 37.875646222 ], [ 140.543920359, 37.875738692 ], [ 140.54392938399999, 37.875801574 ], [ 140.543940614, 37.875843464 ], [ 140.543967646, 37.875902423 ], [ 140.54400632299999, 37.875971003 ], [ 140.544085173000013, 37.876114363 ], [ 140.544155769000014, 37.876199759 ], [ 140.544216586, 37.876269003 ], [ 140.544271278, 37.876326841 ], [ 140.544351086, 37.876369271 ], [ 140.544436343, 37.876415481 ], [ 140.544525091, 37.876449274 ], [ 140.544604760999988, 37.8764774 ], [ 140.54473851, 37.876499478 ], [ 140.54483082499999, 37.876528958 ], [ 140.54489622599999, 37.876574335 ], [ 140.54496199799999, 37.876658329 ], [ 140.545031846, 37.876790932 ], [ 140.54509844, 37.876920372 ], [ 140.54516208199999, 37.877010422 ], [ 140.545256736999988, 37.877135696 ], [ 140.545510981, 37.877012345 ], [ 140.545833087, 37.876861254 ], [ 140.546367597999989, 37.876770771 ], [ 140.54644074399999, 37.876763306 ], [ 140.546425254000013, 37.876542519 ], [ 140.54642001900001, 37.87641881 ], [ 140.546437786000013, 37.876416344 ], [ 140.546422903, 37.876157122 ], [ 140.54636176299999, 37.875925263 ], [ 140.546318977999988, 37.875815252 ], [ 140.546246477000011, 37.875746372 ], [ 140.546177607, 37.87569971 ], [ 140.54610223, 37.87564864 ] ] ] } },
{ "type": "Feature", "properties": { "A29_001": "07303", "A29_002": "福島県", "A29_003": "国見町", "A29_004": 5, "A29_005": "第一種住居地域", "A29_006": 60, "A29_007": 200, "A29_008": null }, "geometry": { "type": "Polygon", "coordinates": [ [ [ 140.550831523999989, 37.876812629 ], [ 140.550836913000012, 37.876683549 ], [ 140.55062428799999, 37.87668747 ], [ 140.550194616999988, 37.876222595 ], [ 140.549704874000014, 37.87625344 ], [ 140.549692083999986, 37.87630487 ], [ 140.550505402999988, 37.877203896 ], [ 140.551536199999987, 37.878248802 ], [ 140.55153137100001, 37.878349572 ], [ 140.551966666999988, 37.878796374 ], [ 140.552047028, 37.878773494 ], [ 140.552234621999986, 37.878714743 ], [ 140.55233877500001, 37.878678869 ], [ 140.55255483799999, 37.878668846 ], [ 140.55190908, 37.878002655 ], [ 140.551317407999989, 37.877381318 ], [ 140.55072192099999, 37.876818569 ], [ 140.550831523999989, 37.876812629 ] ] ] } },
{ "type": "Feature", "properties": { "A29_001": "07303", "A29_002": "福島県", "A29_003": "国見町", "A29_004": 10, "A29_005": "準工業地域", "A29_006": 60, "A29_007": 200, "A29_008": null }, "geometry": { "type": "Polygon", "coordinates": [ [ [ 140.540665748, 37.8776513 ], [ 140.540679546, 37.877445111 ], [ 140.54006274299999, 37.877487674 ], [ 140.53916709399999, 37.877560869 ], [ 140.538310215, 37.877648644 ], [ 140.53808150099999, 37.877794215 ], [ 140.538051131, 37.877817806 ], [ 140.538042749999988, 37.877844915 ], [ 140.53801512199999, 37.877881063 ], [ 140.537974272000014, 37.877919735 ], [ 140.538724886000011, 37.878301866 ], [ 140.539188338, 37.87832769 ], [ 140.539080309000013, 37.878433818 ], [ 140.539358505, 37.878608705 ], [ 140.53986781899999, 37.8789645 ], [ 140.540247013, 37.87834188 ], [ 140.540665748, 37.8776513 ] ] ] } },
{ "type": "Feature", "properties": { "A29_001": "07303", "A29_002": "福島県", "A29_003": "国見町", "A29_004": 10, "A29_005": "準工業地域", "A29_006": 60, "A29_007": 200, "A29_008": null }, "geometry": { "type": "Polygon", "coordinates": [ [ [ 140.551882393, 37.878919062 ], [ 140.55141379, 37.878424733 ], [ 140.550780282, 37.878712917 ], [ 140.550648016999986, 37.878783061 ], [ 140.550294173, 37.878840117 ], [ 140.550264703000011, 37.878885077 ], [ 140.55006899599999, 37.878988504 ], [ 140.550291592, 37.879114985 ], [ 140.550343254000012, 37.8791565 ], [ 140.550648782, 37.879394967 ], [ 140.55080781699999, 37.879517786 ], [ 140.550936209000014, 37.879624334 ], [ 140.551236748, 37.879802912 ], [ 140.551503055000012, 37.87993627 ], [ 140.55171529099999, 37.880062709 ], [ 140.5521886, 37.880339774 ], [ 140.55286448199999, 37.879912215 ], [ 140.55250354899999, 37.879574441 ], [ 140.551882393, 37.878919062 ] ] ] } },
{ "type": "Feature", "properties": { "A29_001": "07303", "A29_002": "福島県", "A29_003": "国見町", "A29_004": 6, "A29_005": "第二種住居地域", "A29_006": 60, "A29_007": 200, "A29_008": null }, "geometry": { "type": "Polygon", "coordinates": [ [ [ 140.544444613, 37.880623429 ], [ 140.544731004999988, 37.880610894 ], [ 140.544799457000011, 37.880645373 ], [ 140.544997798999987, 37.880785964 ], [ 140.54510177099999, 37.880851891 ], [ 140.544903076999987, 37.880558243 ], [ 140.543874871000014, 37.88015359 ], [ 140.54319261, 37.879925808 ], [ 140.54275481900001, 37.879752641 ], [ 140.54250696, 37.879659892 ], [ 140.54229673099999, 37.879566753 ], [ 140.54209124799999, 37.879459957 ], [ 140.541726739000012, 37.87926166 ], [ 140.541354519, 37.879039703 ], [ 140.541232259, 37.878950283 ], [ 140.541032177, 37.878806522 ], [ 140.54090799299999, 37.878720683 ], [ 140.54076966, 37.878632294 ], [ 140.540247013, 37.87834188 ], [ 140.53986781899999, 37.8789645 ], [ 140.540079936000012, 37.87913994 ], [ 140.540115909, 37.879117456 ], [ 140.54041252799999, 37.8793227 ], [ 140.54030998799999, 37.879450857 ], [ 140.541898804999988, 37.880506864 ], [ 140.54257687099999, 37.880994222 ], [ 140.542810038999988, 37.880962197 ], [ 140.54303167399999, 37.880901276 ], [ 140.543443792, 37.880778614 ], [ 140.543783209, 37.880697222 ], [ 140.544069654999987, 37.880636561 ], [ 140.544444613, 37.880623429 ] ] ] } },
{ "type": "Feature", "properties": { "A29_001": "07303", "A29_002": "福島県", "A29_003": "国見町", "A29_004": 10, "A29_005": "準工業地域", "A29_006": 60, "A29_007": 200, "A29_008": null }, "geometry": { "type": "Polygon", "coordinates": [ [ [ 140.535945246000011, 37.880717689 ], [ 140.536014396000013, 37.880556359 ], [ 140.536299592, 37.879955038 ], [ 140.536341494999988, 37.879845179 ], [ 140.536434557, 37.879679727 ], [ 140.536951034999987, 37.879042557 ], [ 140.53738869099999, 37.878504626 ], [ 140.537878696, 37.877898816 ], [ 140.537961220999989, 37.877787517 ], [ 140.537822105, 37.877696756 ], [ 140.536984017, 37.877117128 ], [ 140.536874488, 37.877215686 ], [ 140.535373685, 37.878916237 ], [ 140.535246543, 37.878998648 ], [ 140.535120651, 37.879126478 ], [ 140.53452324599999, 37.879795641 ], [ 140.533755482, 37.880704752 ], [ 140.53357294, 37.880612387 ], [ 140.534035346, 37.880025898 ], [ 140.534069138, 37.879962413 ], [ 140.53406082699999, 37.879873573 ], [ 140.534027344, 37.879796149 ], [ 140.53400852499999, 37.879789389 ], [ 140.534007352, 37.879789442 ], [ 140.533981194, 37.879784484 ], [ 140.533927173, 37.879770962 ], [ 140.533850975, 37.879761948 ], [ 140.533788993, 37.879761497 ], [ 140.533701847, 37.879769723 ], [ 140.533546108, 37.879784089 ], [ 140.533333333, 37.879785035 ], [ 140.533330519, 37.879785047 ], [ 140.533259665, 37.879783906 ], [ 140.53286087399999, 37.879727917 ], [ 140.53253607, 37.879695848 ], [ 140.532457384, 37.879690887 ], [ 140.532384957, 37.879688761 ], [ 140.532282052999989, 37.879693781 ], [ 140.53218667499999, 37.879703231 ], [ 140.53212467899999, 37.879715043 ], [ 140.532073413, 37.879729218 ], [ 140.532002476, 37.879755677 ], [ 140.53192095599999, 37.879792176 ], [ 140.531865517, 37.879834701 ], [ 140.531832318, 37.879877667 ], [ 140.531818011000013, 37.879901764 ], [ 140.531792079000013, 37.879950668 ], [ 140.531763465000012, 37.88003997 ], [ 140.53176435899999, 37.880112262 ], [ 140.531785146, 37.880179061 ], [ 140.53183611599999, 37.880256316 ], [ 140.531902288, 37.880332153 ], [ 140.531967565, 37.880383183 ], [ 140.532029265, 37.880417912 ], [ 140.532165184, 37.880470359 ], [ 140.53227718299999, 37.880496406 ], [ 140.532330011, 37.880507246 ], [ 140.532453344, 37.880532553 ], [ 140.532611451, 37.880579509 ], [ 140.53332482, 37.88087145 ], [ 140.533333333, 37.880875477 ], [ 140.53344266, 37.880927187 ], [ 140.533473891999989, 37.880941052 ], [ 140.534890429, 37.881600203 ], [ 140.53510429, 37.881505954 ], [ 140.535283033000013, 37.88139062 ], [ 140.53555777, 37.881089514 ], [ 140.535711291000013, 37.880944369 ], [ 140.535766376999987, 37.880885633 ], [ 140.5358693, 37.880796812 ], [ 140.535945246000011, 37.880717689 ] ] ] } },
{ "type": "Feature", "properties": { "A29_001": "07303", "A29_002": "福島県", "A29_003": "国見町", "A29_004": 6, "A29_005": "第二種住居地域", "A29_006": 60, "A29_007": 200, "A29_008": null }, "geometry": { "type": "Polygon", "coordinates": [ [ [ 140.553279457, 37.879437412 ], [ 140.55255483799999, 37.878668846 ], [ 140.55233877500001, 37.878678869 ], [ 140.552234621999986, 37.878714743 ], [ 140.552047028, 37.878773494 ], [ 140.551966666999988, 37.878796374 ], [ 140.55153137100001, 37.878349572 ], [ 140.551536199999987, 37.878248802 ], [ 140.550505402999988, 37.877203896 ], [ 140.549692083999986, 37.87630487 ], [ 140.549704874000014, 37.87625344 ], [ 140.550194616999988, 37.876222595 ], [ 140.54985376799999, 37.875859397 ], [ 140.549899047999986, 37.875730057 ], [ 140.549742904999988, 37.875733648 ], [ 140.54924958, 37.875244686 ], [ 140.548639028999986, 37.874620225 ], [ 140.54826256199999, 37.87425419 ], [ 140.547751330000011, 37.873801394 ], [ 140.54754365, 37.873618461 ], [ 140.547293646000014, 37.873419964 ], [ 140.547088339999988, 37.873246464 ], [ 140.546683167999987, 37.872958554 ], [ 140.54621801, 37.872624756 ], [ 140.545905761, 37.872429255 ], [ 140.545429700999989, 37.872134704 ], [ 140.545181507, 37.871984499 ], [ 140.545019399000012, 37.871889643 ], [ 140.544811328, 37.871768842 ], [ 140.5441566, 37.871417935 ], [ 140.543287338, 37.871029432 ], [ 140.542934037, 37.870894592 ], [ 140.54207889700001, 37.870562441 ], [ 140.542098646999989, 37.870808226 ], [ 140.541653595000014, 37.870811858 ], [ 140.541561099, 37.870967472 ], [ 140.540416271999987, 37.870507633 ], [ 140.54016169799999, 37.871023212 ], [ 140.541523452, 37.87151587 ], [ 140.542511147, 37.871933132 ], [ 140.543363239, 37.872296261 ], [ 140.543736682, 37.872476142 ], [ 140.544187634, 37.872709909 ], [ 140.544781965, 37.873060575 ], [ 140.54530494, 37.87343199 ], [ 140.545742784999987, 37.873707933 ], [ 140.546044023, 37.873935251 ], [ 140.54656871200001, 37.874342361 ], [ 140.547102297, 37.874802006 ], [ 140.547884275, 37.875611958 ], [ 140.550780282, 37.878712917 ], [ 140.55141379, 37.878424733 ], [ 140.551882393, 37.878919062 ], [ 140.55250354899999, 37.879574441 ], [ 140.55286448199999, 37.879912215 ], [ 140.5521886, 37.880339774 ], [ 140.552649406, 37.880610751 ], [ 140.552893412, 37.880758069 ], [ 140.55311038799999, 37.880901267 ], [ 140.553408256000012, 37.881118044 ], [ 140.553653543, 37.881312102 ], [ 140.553924881, 37.88157612 ], [ 140.554018224, 37.881659909 ], [ 140.554301986000013, 37.881197919 ], [ 140.55432474700001, 37.881146429 ], [ 140.55437095799999, 37.881044673 ], [ 140.554338731, 37.880947605 ], [ 140.554294456, 37.880848704 ], [ 140.55425587900001, 37.880717346 ], [ 140.55433956499999, 37.880539467 ], [ 140.55431820199999, 37.880446147 ], [ 140.554282804, 37.880393917 ], [ 140.554259357, 37.880336101 ], [ 140.554183591999987, 37.879966366 ], [ 140.553682248, 37.879853967 ], [ 140.553279457, 37.879437412 ] ] ] } },
{ "type": "Feature", "properties": { "A29_001": "07303", "A29_002": "福島県", "A29_003": "国見町", "A29_004": 5, "A29_005": "第一種住居地域", "A29_006": 60, "A29_007": 200, "A29_008": null }, "geometry": { "type": "Polygon", "coordinates": [ [ [ 140.55024880799999, 37.882210119 ], [ 140.550212528, 37.881503162 ], [ 140.549181334999986, 37.881479818 ], [ 140.548832607, 37.88147848 ], [ 140.548392578, 37.881506173 ], [ 140.54760180299999, 37.881561127 ], [ 140.54760598199999, 37.880554816 ], [ 140.54763954500001, 37.880043445 ], [ 140.547692813999987, 37.879579681 ], [ 140.54773939099999, 37.878921426 ], [ 140.54794570199999, 37.878424946 ], [ 140.54898516, 37.87870025 ], [ 140.54977058899999, 37.878912084 ], [ 140.55006899599999, 37.878988504 ], [ 140.550264703000011, 37.878885077 ], [ 140.550294173, 37.878840117 ], [ 140.550648016999986, 37.878783061 ], [ 140.550780282, 37.878712917 ], [ 140.547884275, 37.875611958 ], [ 140.547102297, 37.874802006 ], [ 140.54656871200001, 37.874342361 ], [ 140.546044023, 37.873935251 ], [ 140.545742784999987, 37.873707933 ], [ 140.54530494, 37.87343199 ], [ 140.544781965, 37.873060575 ], [ 140.544187634, 37.872709909 ], [ 140.543736682, 37.872476142 ], [ 140.543363239, 37.872296261 ], [ 140.542511147, 37.871933132 ], [ 140.541523452, 37.87151587 ], [ 140.54016169799999, 37.871023212 ], [ 140.539839124, 37.871639474 ], [ 140.539669411, 37.871973483 ], [ 140.540529996, 37.872307198 ], [ 140.540645078000011, 37.872358118 ], [ 140.540420903000012, 37.872691312 ], [ 140.540448201, 37.872715464 ], [ 140.540498887000012, 37.872732324 ], [ 140.540297536999987, 37.872999583 ], [ 140.540172996, 37.87299604 ], [ 140.540041277, 37.872996831 ], [ 140.539989033000012, 37.873005727 ], [ 140.53996948599999, 37.873037312 ], [ 140.53994705400001, 37.873144725 ], [ 140.539815143999988, 37.873125491 ], [ 140.539685053, 37.873107677 ], [ 140.539558761, 37.873109865 ], [ 140.539499681, 37.873158852 ], [ 140.53944299299999, 37.873269331 ], [ 140.539404171, 37.873361108 ], [ 140.539397772, 37.873446969 ], [ 140.539206755, 37.873473861 ], [ 140.539073640999987, 37.87351757 ], [ 140.538953471000013, 37.8735941 ], [ 140.53887823299999, 37.873651766 ], [ 140.53874550099999, 37.873735524 ], [ 140.538522215, 37.873582833 ], [ 140.537889412, 37.873181438 ], [ 140.537732984, 37.87305078 ], [ 140.537661851, 37.872971104 ], [ 140.537632245999987, 37.872894041 ], [ 140.53758462799999, 37.872853205 ], [ 140.537528853, 37.872837444 ], [ 140.537398722, 37.872815337 ], [ 140.537227022, 37.872786326 ], [ 140.537152703, 37.87275101 ], [ 140.537121635, 37.872709715 ], [ 140.537048862, 37.872647214 ], [ 140.536963527000012, 37.872591939 ], [ 140.536698492, 37.872614978 ], [ 140.53668004299999, 37.872759121 ], [ 140.53650415199999, 37.873196313 ], [ 140.53658767499999, 37.873330802 ], [ 140.53712915700001, 37.873190237 ], [ 140.537109815, 37.873078418 ], [ 140.5373419, 37.873025677 ], [ 140.537710874999988, 37.873571569 ], [ 140.53783031099999, 37.873417804 ], [ 140.537923396, 37.873528816 ], [ 140.538026379, 37.873483583 ], [ 140.538452525999986, 37.873829325 ], [ 140.538203872999986, 37.874115975 ], [ 140.53886047899999, 37.874545503 ], [ 140.538126855, 37.875375562 ], [ 140.537898079, 37.875253144 ], [ 140.537656414, 37.875492689 ], [ 140.537706719999989, 37.875618865 ], [ 140.537715767, 37.87572477 ], [ 140.53775511, 37.875747418 ], [ 140.537754971999988, 37.875788436 ], [ 140.537572097, 37.875913534 ], [ 140.537249062, 37.876273004 ], [ 140.536577822, 37.877009325 ], [ 140.536874488, 37.877215686 ], [ 140.536984017, 37.877117128 ], [ 140.537822105, 37.877696756 ], [ 140.537961220999989, 37.877787517 ], [ 140.537878696, 37.877898816 ], [ 140.53793813499999, 37.877919503 ], [ 140.537974272000014, 37.877919735 ], [ 140.53801512199999, 37.877881063 ], [ 140.538042749999988, 37.877844915 ], [ 140.538051131, 37.877817806 ], [ 140.53808150099999, 37.877794215 ], [ 140.538310215, 37.877648644 ], [ 140.53916709399999, 37.877560869 ], [ 140.54006274299999, 37.877487674 ], [ 140.540679546, 37.877445111 ], [ 140.540665748, 37.8776513 ], [ 140.540247013, 37.87834188 ], [ 140.54076966, 37.878632294 ], [ 140.54090799299999, 37.878720683 ], [ 140.541032177, 37.878806522 ], [ 140.541232259, 37.878950283 ], [ 140.541354519, 37.879039703 ], [ 140.541726739000012, 37.87926166 ], [ 140.54209124799999, 37.879459957 ], [ 140.54229673099999, 37.879566753 ], [ 140.54250696, 37.879659892 ], [ 140.54275481900001, 37.879752641 ], [ 140.54319261, 37.879925808 ], [ 140.543874871000014, 37.88015359 ], [ 140.544903076999987, 37.880558243 ], [ 140.54510177099999, 37.880851891 ], [ 140.54516719099999, 37.880907793 ], [ 140.545261484, 37.880951333 ], [ 140.545491539000011, 37.880987801 ], [ 140.545627012000011, 37.88099291 ], [ 140.545908188, 37.880989559 ], [ 140.545977959999988, 37.880988478 ], [ 140.546042881, 37.881001248 ], [ 140.54612316399999, 37.881055417 ], [ 140.54633335, 37.881272415 ], [ 140.54643309299999, 37.881363335 ], [ 140.546503225, 37.881399784 ], [ 140.546604277, 37.881411353 ], [ 140.546754851, 37.881433482 ], [ 140.546915704000014, 37.881442721 ], [ 140.54704892699999, 37.881474831 ], [ 140.54716567, 37.88152021 ], [ 140.547322408000014, 37.881586933 ], [ 140.547432111, 37.881676482 ], [ 140.547527803, 37.881692361 ], [ 140.547576265, 37.881721031 ], [ 140.547627446, 37.88177274 ], [ 140.54774568, 37.881930369 ], [ 140.547814742000014, 37.882026088 ], [ 140.547875744, 37.882063907 ], [ 140.54794237199999, 37.882114683 ], [ 140.548102516, 37.882138402 ], [ 140.54824886899999, 37.882152651 ], [ 140.548535316, 37.882178229 ], [ 140.54861858000001, 37.882190674 ], [ 140.548650479, 37.882223379 ], [ 140.548727516000014, 37.882351644 ], [ 140.548839807, 37.882672795 ], [ 140.548852247000013, 37.882747986 ], [ 140.548832382, 37.883123237 ], [ 140.549437331, 37.883156204 ], [ 140.550152408, 37.883152209 ], [ 140.55014882399999, 37.883066663 ], [ 140.550213019000012, 37.883051538 ], [ 140.550263339999987, 37.883031487 ], [ 140.550258183000011, 37.882632831 ], [ 140.55024880799999, 37.882210119 ] ], [ [ 140.54396343799999, 37.877481072 ], [ 140.544146493, 37.877398003 ], [ 140.544322951999987, 37.87740825 ], [ 140.544503609, 37.877301291 ], [ 140.54470693499999, 37.877239987 ], [ 140.544688423, 37.877191466 ], [ 140.544753969, 37.877192566 ], [ 140.54480945899999, 37.877205039 ], [ 140.54494720299999, 37.877267143 ], [ 140.545112442, 37.877373422 ], [ 140.54529068299999, 37.877518242 ], [ 140.545479752, 37.877662997 ], [ 140.54569630200001, 37.877850496 ], [ 140.545878050999988, 37.87803223 ], [ 140.54603883199999, 37.878061452 ], [ 140.546119342999987, 37.878094011 ], [ 140.54631158399999, 37.878228153 ], [ 140.546446194, 37.878360932 ], [ 140.546481930999988, 37.878390235 ], [ 140.546505346, 37.8784254 ], [ 140.54654971, 37.878562149 ], [ 140.546632276, 37.878633453 ], [ 140.546706523000012, 37.878676187 ], [ 140.546816201000013, 37.878731865 ], [ 140.54695669099999, 37.878815868 ], [ 140.547004751, 37.87885787 ], [ 140.547049117, 37.878895966 ], [ 140.547093894, 37.878944454 ], [ 140.54716718200001, 37.879023818 ], [ 140.547229624000011, 37.87911694 ], [ 140.547258379, 37.87918727 ], [ 140.547236751000014, 37.879298751 ], [ 140.547183768, 37.87935369 ], [ 140.547105714999987, 37.879425324 ], [ 140.547055597999986, 37.879560779 ], [ 140.546946276999989, 37.879723002 ], [ 140.546858312000012, 37.879813592 ], [ 140.546813648000011, 37.879806557 ], [ 140.546744647, 37.879801718 ], [ 140.546599103, 37.879785479 ], [ 140.546465829999988, 37.879790569 ], [ 140.546308917, 37.87980073 ], [ 140.54614058300001, 37.879833361 ], [ 140.54600087, 37.879860212 ], [ 140.545785276, 37.879902343 ], [ 140.545452649, 37.879910615 ], [ 140.545228384000012, 37.879914606 ], [ 140.54507856, 37.879927697 ], [ 140.544835525, 37.879965378 ], [ 140.544436187, 37.88003462 ], [ 140.54429432399999, 37.880055901 ], [ 140.544175551, 37.880058592 ], [ 140.544065759, 37.880044102 ], [ 140.543926344999988, 37.880015643 ], [ 140.543757351000011, 37.879979134 ], [ 140.54372018, 37.879915495 ], [ 140.543648088, 37.879804985 ], [ 140.543612927, 37.879776876 ], [ 140.543537644999986, 37.879722686 ], [ 140.54338716, 37.879580378 ], [ 140.543317978, 37.879557098 ], [ 140.543083532999987, 37.87949497 ], [ 140.54287770799999, 37.879428391 ], [ 140.542865713999987, 37.879002123 ], [ 140.542848461, 37.878590034 ], [ 140.54254275299999, 37.878372957 ], [ 140.542778446, 37.878132186 ], [ 140.542796938, 37.87811264 ], [ 140.542957309, 37.877943126 ], [ 140.543153812000014, 37.877773705 ], [ 140.543277554000014, 37.877684075 ], [ 140.543373925999987, 37.877641015 ], [ 140.54358177, 37.877571944 ], [ 140.543814225, 37.877514243 ], [ 140.54396343799999, 37.877481072 ] ], [ [ 140.545256736999988, 37.877135696 ], [ 140.54516208199999, 37.877010422 ], [ 140.54509844, 37.876920372 ], [ 140.545031846, 37.876790932 ], [ 140.54496199799999, 37.876658329 ], [ 140.54489622599999, 37.876574335 ], [ 140.54483082499999, 37.876528958 ], [ 140.54473851, 37.876499478 ], [ 140.544604760999988, 37.8764774 ], [ 140.544525091, 37.876449274 ], [ 140.544436343, 37.876415481 ], [ 140.544351086, 37.876369271 ], [ 140.544271278, 37.876326841 ], [ 140.544216586, 37.876269003 ], [ 140.544155769000014, 37.876199759 ], [ 140.544085173000013, 37.876114363 ], [ 140.54400632299999, 37.875971003 ], [ 140.543967646, 37.875902423 ], [ 140.543940614, 37.875843464 ], [ 140.54392938399999, 37.875801574 ], [ 140.543920359, 37.875738692 ], [ 140.543915860999988, 37.875646222 ], [ 140.543906869000011, 37.875572707 ], [ 140.54387039, 37.875574418 ], [ 140.543652087, 37.875604929 ], [ 140.543620909, 37.87573816 ], [ 140.54284848099999, 37.875662038 ], [ 140.542413571999987, 37.875663618 ], [ 140.54216026, 37.875644651 ], [ 140.541666666999987, 37.875489436 ], [ 140.541679033, 37.875291263 ], [ 140.541558979, 37.875160304 ], [ 140.541415105, 37.875012025 ], [ 140.541123668000012, 37.874851808 ], [ 140.54081818899999, 37.874717588 ], [ 140.540360531, 37.874471049 ], [ 140.540109346, 37.874390375 ], [ 140.539738002, 37.874235268 ], [ 140.540221532, 37.874037546 ], [ 140.540702501, 37.873865434 ], [ 140.54112345199999, 37.873752194 ], [ 140.54186586, 37.873572233 ], [ 140.54182831599999, 37.873106395 ], [ 140.542394803, 37.873019315 ], [ 140.542535222999987, 37.873008114 ], [ 140.542834742999986, 37.873075636 ], [ 140.542840162, 37.873077475 ], [ 140.543243424, 37.873231389 ], [ 140.543673117, 37.873371624 ], [ 140.543688667, 37.873351965 ], [ 140.54387775699999, 37.873447004 ], [ 140.54395653099999, 37.873492729 ], [ 140.544006152, 37.873540421 ], [ 140.544039594, 37.873578074 ], [ 140.544053528, 37.873591614 ], [ 140.54410373499999, 37.873640406 ], [ 140.544149189, 37.873715148 ], [ 140.544225124, 37.873820284 ], [ 140.544302012, 37.8739814 ], [ 140.544321376, 37.874021978 ], [ 140.544372159, 37.874096111 ], [ 140.544439374, 37.874190409 ], [ 140.544469725, 37.874217786 ], [ 140.544535757, 37.874249606 ], [ 140.544538659000011, 37.874252431 ], [ 140.544787721, 37.874555718 ], [ 140.544878619, 37.874663738 ], [ 140.544911694, 37.874703412 ], [ 140.544942526, 37.874726149 ], [ 140.54502373299999, 37.874786034 ], [ 140.545044549000011, 37.874784934 ], [ 140.545061984, 37.874784013 ], [ 140.54513954699999, 37.874908402 ], [ 140.54518948099999, 37.874997632 ], [ 140.545190625, 37.875 ], [ 140.545275253999989, 37.875175162 ], [ 140.545273404999989, 37.875175712 ], [ 140.54533510600001, 37.875213249 ], [ 140.545521154999989, 37.8753198 ], [ 140.545592792, 37.875360827 ], [ 140.54566531399999, 37.875396262 ], [ 140.545708872, 37.875420877 ], [ 140.54610223, 37.87564864 ], [ 140.546177607, 37.87569971 ], [ 140.546246477000011, 37.875746372 ], [ 140.546318977999988, 37.875815252 ], [ 140.54636176299999, 37.875925263 ], [ 140.546422903, 37.876157122 ], [ 140.546437786000013, 37.876416344 ], [ 140.54642001900001, 37.87641881 ], [ 140.546425254000013, 37.876542519 ], [ 140.54644074399999, 37.876763306 ], [ 140.546367597999989, 37.876770771 ], [ 140.545833087, 37.876861254 ], [ 140.545510981, 37.877012345 ], [ 140.545256736999988, 37.877135696 ] ] ] } },
{ "type": "Feature", "properties": { "A29_001": "07303", "A29_002": "福島県", "A29_003": "国見町", "A29_004": 11, "A29_005": "工業地域", "A29_006": 60, "A29_007": 200, "A29_008": null }, "geometry": { "type": "Polygon", "coordinates": [ [ [ 140.55181272499999, 37.884348821 ], [ 140.55253196699999, 37.88387808 ], [ 140.552994254999987, 37.883573688 ], [ 140.55248509399999, 37.883531941 ], [ 140.552170606, 37.883486463 ], [ 140.551830228, 37.883424665 ], [ 140.551677211, 37.883365201 ], [ 140.55182083599999, 37.883197002 ], [ 140.551284603, 37.88301845 ], [ 140.551079578000014, 37.882951222 ], [ 140.550938335000012, 37.882907633 ], [ 140.55079118099999, 37.882896684 ], [ 140.55061006, 37.882922868 ], [ 140.550419846000011, 37.882969129 ], [ 140.550213019000012, 37.883051538 ], [ 140.55014882399999, 37.883066663 ], [ 140.550152408, 37.883152209 ], [ 140.549437331, 37.883156204 ], [ 140.548832382, 37.883123237 ], [ 140.548852247000013, 37.882747986 ], [ 140.548839807, 37.882672795 ], [ 140.548727516000014, 37.882351644 ], [ 140.548650479, 37.882223379 ], [ 140.54861858000001, 37.882190674 ], [ 140.548535316, 37.882178229 ], [ 140.54824886899999, 37.882152651 ], [ 140.548102516, 37.882138402 ], [ 140.54794237199999, 37.882114683 ], [ 140.547875744, 37.882063907 ], [ 140.547814742000014, 37.882026088 ], [ 140.54774568, 37.881930369 ], [ 140.547627446, 37.88177274 ], [ 140.547576265, 37.881721031 ], [ 140.547527803, 37.881692361 ], [ 140.547432111, 37.881676482 ], [ 140.547322408000014, 37.881586933 ], [ 140.54716567, 37.88152021 ], [ 140.54704892699999, 37.881474831 ], [ 140.546915704000014, 37.881442721 ], [ 140.546754851, 37.881433482 ], [ 140.546604277, 37.881411353 ], [ 140.546503225, 37.881399784 ], [ 140.54643309299999, 37.881363335 ], [ 140.54633335, 37.881272415 ], [ 140.54612316399999, 37.881055417 ], [ 140.546042881, 37.881001248 ], [ 140.545977959999988, 37.880988478 ], [ 140.545908188, 37.880989559 ], [ 140.545627012000011, 37.88099291 ], [ 140.545491539000011, 37.880987801 ], [ 140.545261484, 37.880951333 ], [ 140.54516719099999, 37.880907793 ], [ 140.54510177099999, 37.880851891 ], [ 140.544997798999987, 37.880785964 ], [ 140.544799457000011, 37.880645373 ], [ 140.544731004999988, 37.880610894 ], [ 140.544444613, 37.880623429 ], [ 140.544069654999987, 37.880636561 ], [ 140.543783209, 37.880697222 ], [ 140.543443792, 37.880778614 ], [ 140.54303167399999, 37.880901276 ], [ 140.542810038999988, 37.880962197 ], [ 140.54257687099999, 37.880994222 ], [ 140.542756293, 37.881127796 ], [ 140.543693983, 37.881766984 ], [ 140.544429965, 37.882306253 ], [ 140.544718757999988, 37.882565585 ], [ 140.545113371000014, 37.882966616 ], [ 140.545321532, 37.88322355 ], [ 140.54555646899999, 37.883549367 ], [ 140.545852747, 37.884014741 ], [ 140.546126705, 37.883974357 ], [ 140.54643985199999, 37.883969165 ], [ 140.546711068, 37.884008344 ], [ 140.546994995, 37.884073122 ], [ 140.547168489, 37.8841445 ], [ 140.547296503000013, 37.884237879 ], [ 140.547442037, 37.884339708 ], [ 140.547695514, 37.884519236 ], [ 140.547839248, 37.884606605 ], [ 140.548145154999986, 37.884709433 ], [ 140.548720349, 37.884825119 ], [ 140.549413574999988, 37.884945345 ], [ 140.549745593000011, 37.885000613 ], [ 140.549944062, 37.885015321 ], [ 140.55015061099999, 37.884997206 ], [ 140.550454898, 37.884932804 ], [ 140.550728923, 37.884853327 ], [ 140.55118999199999, 37.884679974 ], [ 140.551514768, 37.884516562 ], [ 140.55181272499999, 37.884348821 ] ] ] } },
{ "type": "Feature", "properties": { "A29_001": "07303", "A29_002": "福島県", "A29_003": "国見町", "A29_004": 3, "A29_005": "第一種中高層住居専用地域", "A29_006": 60, "A29_007": 200, "A29_008": null }, "geometry": { "type": "Polygon", "coordinates": [ [ [ 140.546465829999988, 37.879790569 ], [ 140.546599103, 37.879785479 ], [ 140.546744647, 37.879801718 ], [ 140.546813648000011, 37.879806557 ], [ 140.546858312000012, 37.879813592 ], [ 140.546946276999989, 37.879723002 ], [ 140.547055597999986, 37.879560779 ], [ 140.547105714999987, 37.879425324 ], [ 140.547183768, 37.87935369 ], [ 140.547236751000014, 37.879298751 ], [ 140.547258379, 37.87918727 ], [ 140.547229624000011, 37.87911694 ], [ 140.54716718200001, 37.879023818 ], [ 140.547093894, 37.878944454 ], [ 140.54681369299999, 37.879198916 ], [ 140.546688437, 37.879122434 ], [ 140.546720669, 37.879096492 ], [ 140.54670194799999, 37.879026518 ], [ 140.546661711000013, 37.878970977 ], [ 140.546614229, 37.878912619 ], [ 140.54653804, 37.8788716 ], [ 140.546190338, 37.87911973 ], [ 140.545962984, 37.879122537 ], [ 140.546022494, 37.879492643 ], [ 140.545557218, 37.879525497 ], [ 140.545435489999988, 37.879440411 ], [ 140.544968479, 37.879480425 ], [ 140.54484674599999, 37.878668502 ], [ 140.54483173599999, 37.878409806 ], [ 140.544632067, 37.878413873 ], [ 140.54461151699999, 37.878278589 ], [ 140.544393922000012, 37.878295161 ], [ 140.544361678, 37.878034773 ], [ 140.544168466, 37.8780698 ], [ 140.543804279999989, 37.878069938 ], [ 140.543737314999987, 37.878065493 ], [ 140.543723297000014, 37.878059877 ], [ 140.543720492, 37.878058752 ], [ 140.54362903099999, 37.878321711 ], [ 140.54345490899999, 37.878355183 ], [ 140.543013475, 37.87836452 ], [ 140.542976068, 37.878227429 ], [ 140.542796938, 37.87811264 ], [ 140.542778446, 37.878132186 ], [ 140.54254275299999, 37.878372957 ], [ 140.542848461, 37.878590034 ], [ 140.542865713999987, 37.879002123 ], [ 140.54287770799999, 37.879428391 ], [ 140.543083532999987, 37.87949497 ], [ 140.543317978, 37.879557098 ], [ 140.54338716, 37.879580378 ], [ 140.543537644999986, 37.879722686 ], [ 140.543612927, 37.879776876 ], [ 140.543648088, 37.879804985 ], [ 140.54372018, 37.879915495 ], [ 140.543757351000011, 37.879979134 ], [ 140.543926344999988, 37.880015643 ], [ 140.544065759, 37.880044102 ], [ 140.544175551, 37.880058592 ], [ 140.54429432399999, 37.880055901 ], [ 140.544436187, 37.88003462 ], [ 140.544835525, 37.879965378 ], [ 140.54507856, 37.879927697 ], [ 140.545228384000012, 37.879914606 ], [ 140.545452649, 37.879910615 ], [ 140.545785276, 37.879902343 ], [ 140.54600087, 37.879860212 ], [ 140.54614058300001, 37.879833361 ], [ 140.546308917, 37.87980073 ], [ 140.546465829999988, 37.879790569 ] ] ] } },
{ "type": "Feature", "properties": { "A29_001": "07303", "A29_002": "福島県", "A29_003": "国見町", "A29_004": 3, "A29_005": "第一種中高層住居専用地域", "A29_006": 60, "A29_007": 200, "A29_008": null }, "geometry": { "type": "Polygon", "coordinates": [ [ [ 140.553370889, 37.883007748 ], [ 140.553373638000011, 37.882862218 ], [ 140.553389528, 37.882788378 ], [ 140.553475819, 37.882692378 ], [ 140.55369746299999, 37.882589617 ], [ 140.554003978999987, 37.882414576 ], [ 140.55407637, 37.882340376 ], [ 140.55411196, 37.882242716 ], [ 140.55410758799999, 37.882049817 ], [ 140.554056186, 37.881890788 ], [ 140.554018224, 37.881659909 ], [ 140.553924881, 37.88157612 ], [ 140.553653543, 37.881312102 ], [ 140.553408256000012, 37.881118044 ], [ 140.55311038799999, 37.880901267 ], [ 140.552893412, 37.880758069 ], [ 140.552649406, 37.880610751 ], [ 140.5521886, 37.880339774 ], [ 140.55171529099999, 37.880062709 ], [ 140.551503055000012, 37.87993627 ], [ 140.551236748, 37.879802912 ], [ 140.550936209000014, 37.879624334 ], [ 140.55080781699999, 37.879517786 ], [ 140.550648782, 37.879394967 ], [ 140.550343254000012, 37.8791565 ], [ 140.550291592, 37.879114985 ], [ 140.55006899599999, 37.878988504 ], [ 140.54977058899999, 37.878912084 ], [ 140.54898516, 37.87870025 ], [ 140.54794570199999, 37.878424946 ], [ 140.54773939099999, 37.878921426 ], [ 140.547692813999987, 37.879579681 ], [ 140.54763954500001, 37.880043445 ], [ 140.54760598199999, 37.880554816 ], [ 140.54760180299999, 37.881561127 ], [ 140.548392578, 37.881506173 ], [ 140.548832607, 37.88147848 ], [ 140.549181334999986, 37.881479818 ], [ 140.550212528, 37.881503162 ], [ 140.55024880799999, 37.882210119 ], [ 140.550258183000011, 37.882632831 ], [ 140.550263339999987, 37.883031487 ], [ 140.550419846000011, 37.882969129 ], [ 140.55061006, 37.882922868 ], [ 140.55079118099999, 37.882896684 ], [ 140.550938335000012, 37.882907633 ], [ 140.551079578000014, 37.882951222 ], [ 140.551284603, 37.88301845 ], [ 140.55182083599999, 37.883197002 ], [ 140.551677211, 37.883365201 ], [ 140.551830228, 37.883424665 ], [ 140.552170606, 37.883486463 ], [ 140.55248509399999, 37.883531941 ], [ 140.552994254999987, 37.883573688 ], [ 140.553157628, 37.883459427 ], [ 140.5533199, 37.883316877 ], [ 140.553370840000014, 37.883172367 ], [ 140.553370889, 37.883007748 ] ] ] } },
{ "type": "Feature", "properties": { "A29_001": "07303", "A29_002": "福島県", "A29_003": "国見町", "A29_004": 1, "A29_005": "第一種低層住居専用地域", "A29_006": 50, "A29_007": 80, "A29_008": null }, "geometry": { "type": "Polygon", "coordinates": [ [ [ 140.537656414, 37.875492689 ], [ 140.537898079, 37.875253144 ], [ 140.538126855, 37.875375562 ], [ 140.53886047899999, 37.874545503 ], [ 140.538203872999986, 37.874115975 ], [ 140.538452525999986, 37.873829325 ], [ 140.538026379, 37.873483583 ], [ 140.537923396, 37.873528816 ], [ 140.53783031099999, 37.873417804 ], [ 140.537710874999988, 37.873571569 ], [ 140.5373419, 37.873025677 ], [ 140.537109815, 37.873078418 ], [ 140.53712915700001, 37.873190237 ], [ 140.53658767499999, 37.873330802 ], [ 140.53650415199999, 37.873196313 ], [ 140.53668004299999, 37.872759121 ], [ 140.536698492, 37.872614978 ], [ 140.536963527000012, 37.872591939 ], [ 140.53687816499999, 37.872533804 ], [ 140.536707998999987, 37.872476175 ], [ 140.53657761, 37.872426891 ], [ 140.53653402, 37.872397113 ], [ 140.536454466, 37.872380424 ], [ 140.53582509200001, 37.872610181 ], [ 140.53585236, 37.872631473 ], [ 140.535920616, 37.872788408 ], [ 140.535971816999989, 37.872859621 ], [ 140.536052173, 37.872960698 ], [ 140.536117945, 37.873046128 ], [ 140.536176622, 37.873144473 ], [ 140.536204395, 37.873218687 ], [ 140.53618321799999, 37.873268877 ], [ 140.53610605099999, 37.873313679 ], [ 140.536085092, 37.873386753 ], [ 140.536097031999986, 37.873503973 ], [ 140.536039034999988, 37.873525122 ], [ 140.535933296, 37.873553583 ], [ 140.535847203, 37.873608451 ], [ 140.53580603, 37.873667122 ], [ 140.535600953999989, 37.873710046 ], [ 140.53545513899999, 37.873746675 ], [ 140.535347229, 37.873784509 ], [ 140.53526983099999, 37.873804995 ], [ 140.53522103099999, 37.873796704 ], [ 140.535163087, 37.873775594 ], [ 140.535071144999989, 37.873784724 ], [ 140.535051487, 37.873804867 ], [ 140.535024924, 37.873857949 ], [ 140.53498596, 37.873935421 ], [ 140.534933985, 37.873972921 ], [ 140.53487990799999, 37.873978965 ], [ 140.534809456, 37.873970802 ], [ 140.53476202600001, 37.873980144 ], [ 140.534651027, 37.874009413 ], [ 140.53450073, 37.87401746 ], [ 140.534398255000013, 37.87399423 ], [ 140.534311065999987, 37.873997133 ], [ 140.534221344, 37.874050115 ], [ 140.53410442, 37.874088954 ], [ 140.53371365699999, 37.874209821 ], [ 140.53328389, 37.874460965 ], [ 140.53301745600001, 37.874591283 ], [ 140.533175699, 37.874733162 ], [ 140.53356999, 37.875006128 ], [ 140.53395, 37.875246125 ], [ 140.533990001, 37.875276125 ], [ 140.534420012999988, 37.875556122 ], [ 140.534930027, 37.875906118 ], [ 140.536430067999987, 37.876916106 ], [ 140.536530070999987, 37.876976106 ], [ 140.536577822, 37.877009325 ], [ 140.537249062, 37.876273004 ], [ 140.537572097, 37.875913534 ], [ 140.537754971999988, 37.875788436 ], [ 140.53775511, 37.875747418 ], [ 140.537715767, 37.87572477 ], [ 140.537706719999989, 37.875618865 ], [ 140.537656414, 37.875492689 ] ], [ [ 140.536856496000013, 37.875238555 ], [ 140.536670477, 37.875177886 ], [ 140.536648331, 37.875170664 ], [ 140.53660574, 37.875205584 ], [ 140.536569248, 37.875235503 ], [ 140.53651462799999, 37.875184574 ], [ 140.536465029999988, 37.875187254 ], [ 140.536474615, 37.875088263 ], [ 140.53648270799999, 37.874990472 ], [ 140.536436173999988, 37.874999094 ], [ 140.536446461, 37.874974001 ], [ 140.536567846999986, 37.874771831 ], [ 140.536630975, 37.874610537 ], [ 140.536638751, 37.874479373 ], [ 140.53662707399999, 37.874327755 ], [ 140.536586011999987, 37.874202896 ], [ 140.53659773199999, 37.874168926 ], [ 140.537015340000011, 37.874058434 ], [ 140.537098673, 37.874085593 ], [ 140.537084047, 37.874187022 ], [ 140.536948192000011, 37.874305315 ], [ 140.536990046999989, 37.874342254 ], [ 140.537072816, 37.874340682 ], [ 140.537490635000012, 37.874553699 ], [ 140.53735730299999, 37.874769819 ], [ 140.53714259, 37.874990359 ], [ 140.53707807399999, 37.875049469 ], [ 140.536993031, 37.875048214 ], [ 140.53689783199999, 37.875180929 ], [ 140.536856496000013, 37.875238555 ] ] ] } },
{ "type": "Feature", "properties": { "A29_001": "07303", "A29_002": "福島県", "A29_003": "国見町", "A29_004": 1, "A29_005": "第一種低層住居専用地域", "A29_006": 40, "A29_007": 60, "A29_008": null }, "geometry": { "type": "Polygon", "coordinates": [ [ [ 140.546022494, 37.879492643 ], [ 140.545962984, 37.879122537 ], [ 140.546190338, 37.87911973 ], [ 140.54653804, 37.8788716 ], [ 140.546614229, 37.878912619 ], [ 140.546661711000013, 37.878970977 ], [ 140.54670194799999, 37.879026518 ], [ 140.546720669, 37.879096492 ], [ 140.546688437, 37.879122434 ], [ 140.54681369299999, 37.879198916 ], [ 140.547093894, 37.878944454 ], [ 140.547049117, 37.878895966 ], [ 140.547004751, 37.87885787 ], [ 140.54695669099999, 37.878815868 ], [ 140.546816201000013, 37.878731865 ], [ 140.546706523000012, 37.878676187 ], [ 140.546632276, 37.878633453 ], [ 140.54654971, 37.878562149 ], [ 140.546505346, 37.8784254 ], [ 140.546481930999988, 37.878390235 ], [ 140.546446194, 37.878360932 ], [ 140.54631158399999, 37.878228153 ], [ 140.546119342999987, 37.878094011 ], [ 140.54603883199999, 37.878061452 ], [ 140.545878050999988, 37.87803223 ], [ 140.54569630200001, 37.877850496 ], [ 140.545479752, 37.877662997 ], [ 140.54529068299999, 37.877518242 ], [ 140.545112442, 37.877373422 ], [ 140.54494720299999, 37.877267143 ], [ 140.54480945899999, 37.877205039 ], [ 140.544753969, 37.877192566 ], [ 140.544688423, 37.877191466 ], [ 140.54470693499999, 37.877239987 ], [ 140.544503609, 37.877301291 ], [ 140.544322951999987, 37.87740825 ], [ 140.544146493, 37.877398003 ], [ 140.54396343799999, 37.877481072 ], [ 140.543814225, 37.877514243 ], [ 140.54358177, 37.877571944 ], [ 140.543373925999987, 37.877641015 ], [ 140.543277554000014, 37.877684075 ], [ 140.543153812000014, 37.877773705 ], [ 140.542957309, 37.877943126 ], [ 140.542796938, 37.87811264 ], [ 140.542976068, 37.878227429 ], [ 140.543013475, 37.87836452 ], [ 140.54345490899999, 37.878355183 ], [ 140.54362903099999, 37.878321711 ], [ 140.543720492, 37.878058752 ], [ 140.543723297000014, 37.878059877 ], [ 140.543737314999987, 37.878065493 ], [ 140.543804279999989, 37.878069938 ], [ 140.544168466, 37.8780698 ], [ 140.544361678, 37.878034773 ], [ 140.544393922000012, 37.878295161 ], [ 140.54461151699999, 37.878278589 ], [ 140.544632067, 37.878413873 ], [ 140.54483173599999, 37.878409806 ], [ 140.54484674599999, 37.878668502 ], [ 140.544968479, 37.879480425 ], [ 140.545435489999988, 37.879440411 ], [ 140.545557218, 37.879525497 ], [ 140.546022494, 37.879492643 ] ] ] } }
]
}
