{
"type": "FeatureCollection",
"name": "A29-19_07447",
"features": [
{ "type": "Feature", "properties": { "A29_001": "07447", "A29_002": "福島県", "A29_003": "会津美里町", "A29_004": 2, "A29_005": "第二種低層住居専用地域", "A29_006": 50, "A29_007": 80, "A29_008": null }, "geometry": { "type": "Polygon", "coordinates": [ [ [ 139.885663498000014, 37.449244275 ], [ 139.885176272, 37.449179748 ], [ 139.883857182000014, 37.448726133 ], [ 139.883588056, 37.448744129 ], [ 139.88309194499999, 37.448567469 ], [ 139.882987543000013, 37.448539409 ], [ 139.882732624999989, 37.448486999 ], [ 139.882150169999989, 37.448496145 ], [ 139.882101634, 37.448465804 ], [ 139.88178196199999, 37.44846021 ], [ 139.881813596, 37.448252969 ], [ 139.882140572999987, 37.448242554 ], [ 139.883243834000012, 37.448257903 ], [ 139.883300612999989, 37.448200659 ], [ 139.883273373, 37.447709531 ], [ 139.88321951, 37.447654717 ], [ 139.881762336, 37.447011516 ], [ 139.881388444, 37.446859082 ], [ 139.881353280000013, 37.447986811 ], [ 139.881255388, 37.448530522 ], [ 139.881285324, 37.448580578 ], [ 139.88180871899999, 37.448692421 ], [ 139.881719162, 37.448933259 ], [ 139.881564354, 37.448919196 ], [ 139.881527858, 37.449064467 ], [ 139.88172525600001, 37.449109686 ], [ 139.88172275, 37.44916803 ], [ 139.882254673, 37.44927636 ], [ 139.882225382, 37.449352113 ], [ 139.88231691199999, 37.449411734 ], [ 139.882861007, 37.449530331 ], [ 139.883281302, 37.449620929 ], [ 139.88345785199999, 37.449631849 ], [ 139.88392525899999, 37.449700266 ], [ 139.884096513, 37.449755399 ], [ 139.88411808399999, 37.44981404 ], [ 139.883976436000012, 37.449962873 ], [ 139.883963696, 37.450072313 ], [ 139.883981682000012, 37.450136678 ], [ 139.885006648, 37.450323034 ], [ 139.885187812999988, 37.450238555 ], [ 139.885442395000013, 37.450155712 ], [ 139.885672314, 37.449654934 ], [ 139.885533149999986, 37.449612916 ], [ 139.885663498000014, 37.449244275 ] ] ] } },
{ "type": "Feature", "properties": { "A29_001": "07447", "A29_002": "福島県", "A29_003": "会津美里町", "A29_004": 5, "A29_005": "第一種住居地域", "A29_006": 60, "A29_007": 150, "A29_008": null }, "geometry": { "type": "Polygon", "coordinates": [ [ [ 139.881776233000011, 37.455674284 ], [ 139.88155229899999, 37.455280624 ], [ 139.88158483, 37.455280614 ], [ 139.881761020999988, 37.455202003 ], [ 139.881935413, 37.455145012 ], [ 139.881983510999987, 37.454760611 ], [ 139.882028682, 37.45472673 ], [ 139.882072942, 37.45468059 ], [ 139.882106341999986, 37.45462294 ], [ 139.88214012200001, 37.454453249 ], [ 139.882781666999989, 37.454247635 ], [ 139.88310479099999, 37.454268034 ], [ 139.883199327999989, 37.453373171 ], [ 139.882959805000013, 37.453357922 ], [ 139.88229119799999, 37.453310475 ], [ 139.88172023199999, 37.453271628 ], [ 139.881113086, 37.45323027 ], [ 139.880920814, 37.453217561 ], [ 139.880698810000013, 37.455166588 ], [ 139.880632542, 37.4557749 ], [ 139.881776233000011, 37.455674284 ] ] ] } },
{ "type": "Feature", "properties": { "A29_001": "07447", "A29_002": "福島県", "A29_003": "会津美里町", "A29_004": 10, "A29_005": "準工業地域", "A29_006": 60, "A29_007": 200, "A29_008": null }, "geometry": { "type": "Polygon", "coordinates": [ [ [ 139.88992218199999, 37.455644751 ], [ 139.88988987499999, 37.455619029 ], [ 139.889659142999989, 37.455672204 ], [ 139.889262029, 37.455798835 ], [ 139.88914952799999, 37.455833116 ], [ 139.88908356799999, 37.455851876 ], [ 139.888903965999987, 37.455890326 ], [ 139.888608463, 37.455950267 ], [ 139.888333751, 37.456003718 ], [ 139.888149849, 37.456039468 ], [ 139.887926657, 37.456091449 ], [ 139.887702555, 37.456155669 ], [ 139.88751576199999, 37.455932049 ], [ 139.887494032, 37.455882349 ], [ 139.887474991, 37.455800929 ], [ 139.88745867099999, 37.455729618 ], [ 139.887455941000013, 37.455693588 ], [ 139.887465391, 37.455655758 ], [ 139.88752313099999, 37.455505147 ], [ 139.88749592, 37.455365377 ], [ 139.88749227, 37.455319997 ], [ 139.887505299, 37.455213706 ], [ 139.887522859, 37.455120406 ], [ 139.88754964899999, 37.455000605 ], [ 139.887586849, 37.454874325 ], [ 139.887677228, 37.454579774 ], [ 139.887683087999989, 37.454554924 ], [ 139.887691668, 37.454541584 ], [ 139.887869819, 37.454378843 ], [ 139.887852169000013, 37.454350042 ], [ 139.887467294, 37.454221433 ], [ 139.887093490000012, 37.454097314 ], [ 139.886767178000014, 37.454332527 ], [ 139.886360133000011, 37.454176178 ], [ 139.886248932, 37.454131918 ], [ 139.886159891, 37.454094859 ], [ 139.88608124000001, 37.454070759 ], [ 139.885984068999988, 37.454041259 ], [ 139.88587039699999, 37.45401339 ], [ 139.885343182000014, 37.453890602 ], [ 139.884830666, 37.453776444 ], [ 139.884815745999987, 37.453775734 ], [ 139.884805816000011, 37.453779524 ], [ 139.884794066000012, 37.453789074 ], [ 139.884787526, 37.453798264 ], [ 139.884775896, 37.453819794 ], [ 139.884682336, 37.454100646 ], [ 139.884560346, 37.454459688 ], [ 139.884467677, 37.454750989 ], [ 139.884461816999988, 37.454778729 ], [ 139.884462727, 37.454790619 ], [ 139.884467257000011, 37.454797819 ], [ 139.884480817, 37.454804299 ], [ 139.884643979, 37.454840258 ], [ 139.884871041, 37.454825207 ], [ 139.88546693699999, 37.454941485 ], [ 139.885927611999989, 37.454874093 ], [ 139.886054613, 37.454913292 ], [ 139.885984393, 37.454977283 ], [ 139.886224395999989, 37.455062902 ], [ 139.886688771, 37.4551342 ], [ 139.886728952, 37.455392311 ], [ 139.88689209399999, 37.45539439 ], [ 139.88688495400001, 37.45552517 ], [ 139.886715943000013, 37.455528491 ], [ 139.88671713299999, 37.455607561 ], [ 139.886721193999989, 37.455918263 ], [ 139.88672492500001, 37.456067053 ], [ 139.88672934600001, 37.456260684 ], [ 139.886547244000013, 37.456280945 ], [ 139.886271392, 37.456323756 ], [ 139.886307243, 37.456525117 ], [ 139.886405294000014, 37.456512826 ], [ 139.88642296399999, 37.456581986 ], [ 139.88645404499999, 37.456595746 ], [ 139.88651054499999, 37.456618066 ], [ 139.886558906, 37.456628126 ], [ 139.886586016, 37.456632796 ], [ 139.886595066000012, 37.456635316 ], [ 139.886602756, 37.456644316 ], [ 139.88660546599999, 37.456653326 ], [ 139.88660546599999, 37.456661606 ], [ 139.886599606, 37.456668096 ], [ 139.88651693599999, 37.456706676 ], [ 139.886360844, 37.456775017 ], [ 139.886273194000012, 37.456803158 ], [ 139.885805779, 37.45691216 ], [ 139.885726809, 37.457078271 ], [ 139.885854321000011, 37.457186291 ], [ 139.885955572, 37.457221551 ], [ 139.886020443, 37.45725016 ], [ 139.886068814, 37.45726707 ], [ 139.886119893999989, 37.45727713 ], [ 139.88616688499999, 37.45728107 ], [ 139.886212984999986, 37.45728177 ], [ 139.886287106, 37.457281739 ], [ 139.886456337999988, 37.457271399 ], [ 139.88663526900001, 37.457254028 ], [ 139.886828441, 37.457227817 ], [ 139.887029512999987, 37.457190616 ], [ 139.887205064999989, 37.457161535 ], [ 139.887269225000011, 37.457153585 ], [ 139.887301306000012, 37.457153574 ], [ 139.887344696000014, 37.457157144 ], [ 139.887419727, 37.457176564 ], [ 139.887508548, 37.457206964 ], [ 139.887563698, 37.457220634 ], [ 139.887598039000011, 37.457223144 ], [ 139.88761667899999, 37.457223404 ], [ 139.88764401899999, 37.457219424 ], [ 139.887693719999987, 37.457200493 ], [ 139.887714499999987, 37.457192733 ], [ 139.887819331, 37.457175753 ], [ 139.888309795, 37.457084562 ], [ 139.88837282599999, 37.457069592 ], [ 139.888407175999987, 37.457056952 ], [ 139.888443306, 37.457038572 ], [ 139.88848078699999, 37.457006851 ], [ 139.88852007700001, 37.456972601 ], [ 139.88873252799999, 37.4567396 ], [ 139.88901408000001, 37.456446058 ], [ 139.889263561, 37.456186737 ], [ 139.889439501999988, 37.456083076 ], [ 139.889508603, 37.456037656 ], [ 139.889543382999989, 37.456007736 ], [ 139.889571823000011, 37.455978906 ], [ 139.88959507300001, 37.455945215 ], [ 139.889670462999987, 37.455837095 ], [ 139.889695964, 37.455805925 ], [ 139.889751074, 37.455765184 ], [ 139.88992218199999, 37.455644751 ] ] ] } },
{ "type": "Feature", "properties": { "A29_001": "07447", "A29_002": "福島県", "A29_003": "会津美里町", "A29_004": 8, "A29_005": "近隣商業地域", "A29_006": 80, "A29_007": 200, "A29_008": null }, "geometry": { "type": "Polygon", "coordinates": [ [ [ 139.89600482099999, 37.457264541 ], [ 139.89614767399999, 37.456935555 ], [ 139.89223452499999, 37.455828183 ], [ 139.89205549499999, 37.455300338 ], [ 139.891983513000014, 37.455123487 ], [ 139.891916522, 37.454985907 ], [ 139.891864011, 37.454881457 ], [ 139.891654526999986, 37.454547615 ], [ 139.891368132999986, 37.454091314 ], [ 139.891174029000013, 37.453777633 ], [ 139.890861363999988, 37.453249302 ], [ 139.89063196, 37.4528535 ], [ 139.890546898, 37.45270873 ], [ 139.890490766999989, 37.45259995 ], [ 139.890455927, 37.452532599 ], [ 139.890429676, 37.452474259 ], [ 139.890384425, 37.452380609 ], [ 139.890216522, 37.452042418 ], [ 139.890080289999986, 37.451765457 ], [ 139.88994134699999, 37.451482006 ], [ 139.889967922000011, 37.451043881 ], [ 139.889991821, 37.451010491 ], [ 139.89002438599999, 37.450571787 ], [ 139.888717259, 37.450193323 ], [ 139.88860381, 37.450450867 ], [ 139.888738409000013, 37.450486567 ], [ 139.888541264, 37.450796602 ], [ 139.889208285, 37.450982254 ], [ 139.889175490000014, 37.451578559 ], [ 139.889344303, 37.45193116 ], [ 139.889519446, 37.452280881 ], [ 139.889643449, 37.452530831 ], [ 139.889897323000014, 37.453015243 ], [ 139.890028996000012, 37.453256193 ], [ 139.890128557, 37.453435544 ], [ 139.890361590999987, 37.453845765 ], [ 139.890459773, 37.454017556 ], [ 139.890489644000013, 37.454067256 ], [ 139.890533984, 37.454142876 ], [ 139.890653426, 37.454327987 ], [ 139.890902721, 37.454723788 ], [ 139.891055193, 37.454964718 ], [ 139.891124864, 37.455075639 ], [ 139.89116921499999, 37.455159199 ], [ 139.891209946, 37.455238429 ], [ 139.891253397000014, 37.45532559 ], [ 139.891308188000011, 37.45545417 ], [ 139.89138334, 37.455646501 ], [ 139.891429541, 37.455769691 ], [ 139.89153413299999, 37.456040902 ], [ 139.89160297399999, 37.456231083 ], [ 139.891630115, 37.456273573 ], [ 139.891655445, 37.456303823 ], [ 139.891770337, 37.456433464 ], [ 139.891819518, 37.456489724 ], [ 139.89183128799999, 37.456504484 ], [ 139.891852558000011, 37.456548434 ], [ 139.891899582, 37.456740912 ], [ 139.891972941, 37.456850547 ], [ 139.892025512, 37.456969912 ], [ 139.892134414, 37.457019449 ], [ 139.892207447, 37.457093799 ], [ 139.892502846000014, 37.456982072 ], [ 139.892638035, 37.456990587 ], [ 139.892743263999989, 37.456933314 ], [ 139.892874772999988, 37.456941536 ], [ 139.89297894, 37.456939871 ], [ 139.895257267, 37.457584654 ], [ 139.895232131, 37.457615818 ], [ 139.895249855, 37.457668871 ], [ 139.895170044999986, 37.45781564 ], [ 139.895686977, 37.457965094 ], [ 139.89600482099999, 37.457264541 ] ] ] } },
{ "type": "Feature", "properties": { "A29_001": "07447", "A29_002": "福島県", "A29_003": "会津美里町", "A29_004": 5, "A29_005": "第一種住居地域", "A29_006": 60, "A29_007": 200, "A29_008": null }, "geometry": { "type": "Polygon", "coordinates": [ [ [ 139.898592065, 37.456901178 ], [ 139.89846818, 37.456822569 ], [ 139.89645744, 37.456251959 ], [ 139.89657744199999, 37.455896903 ], [ 139.896731921999987, 37.45554323 ], [ 139.89687150200001, 37.455217678 ], [ 139.897013351999988, 37.454892836 ], [ 139.897166012000014, 37.454540244 ], [ 139.89730921200001, 37.454211802 ], [ 139.898112641000012, 37.453524082 ], [ 139.896575113000011, 37.4531053 ], [ 139.896519641, 37.452861051 ], [ 139.896343115, 37.452835178 ], [ 139.89613731899999, 37.45278379 ], [ 139.896223381, 37.452703636 ], [ 139.89640524699999, 37.452749315 ], [ 139.896766558, 37.452806342 ], [ 139.896859898, 37.452846346 ], [ 139.897055732000013, 37.452436162 ], [ 139.89707717499999, 37.452331247 ], [ 139.89707708, 37.452218714 ], [ 139.89734970399999, 37.452083146 ], [ 139.897507517, 37.451980064 ], [ 139.897550526, 37.451915191 ], [ 139.897548065, 37.451835084 ], [ 139.897562333, 37.451733987 ], [ 139.897583765, 37.451617628 ], [ 139.89738509599999, 37.451503295 ], [ 139.897093259, 37.451549229 ], [ 139.896402002, 37.451734612 ], [ 139.896071909999989, 37.451811081 ], [ 139.895916424, 37.451837867 ], [ 139.895801573, 37.451820761 ], [ 139.895722535, 37.451715899 ], [ 139.895642829, 37.451567411 ], [ 139.89518391499999, 37.451687382 ], [ 139.894975536, 37.451922179 ], [ 139.895004835, 37.452116627 ], [ 139.894941431, 37.452111414 ], [ 139.894537944, 37.452404878 ], [ 139.894364591999988, 37.452528944 ], [ 139.894262942000012, 37.452564759 ], [ 139.893946139, 37.452810492 ], [ 139.893408083, 37.453123094 ], [ 139.893321320000013, 37.453077838 ], [ 139.89318976199999, 37.453113668 ], [ 139.892974435000014, 37.453109008 ], [ 139.89285178099999, 37.453059002 ], [ 139.8925288, 37.453063933 ], [ 139.892304472, 37.45302113 ], [ 139.891877674, 37.452921207 ], [ 139.89158461, 37.452939829 ], [ 139.891281877000011, 37.452829948 ], [ 139.89106178099999, 37.452843407 ], [ 139.890832163999988, 37.452776286 ], [ 139.89083671, 37.452610822 ], [ 139.890941938999987, 37.452559272 ], [ 139.890981474, 37.452490112 ], [ 139.89129603399999, 37.45257245 ], [ 139.891370169, 37.45253236 ], [ 139.891473029999986, 37.452513236 ], [ 139.89151366499999, 37.452465533 ], [ 139.891463359999989, 37.452383542 ], [ 139.891130636000014, 37.452013204 ], [ 139.891120862, 37.451893523 ], [ 139.891163906, 37.451868707 ], [ 139.89112539300001, 37.451563551 ], [ 139.891221599, 37.451414008 ], [ 139.891223319, 37.451351789 ], [ 139.891103611, 37.451239314 ], [ 139.891366629, 37.451046544 ], [ 139.89146456200001, 37.450846225 ], [ 139.891545916000013, 37.450861444 ], [ 139.89158895700001, 37.450832813 ], [ 139.89166207, 37.450689322 ], [ 139.89172278699999, 37.450645827 ], [ 139.89178012, 37.450537081 ], [ 139.89213884599999, 37.45036715 ], [ 139.892148375, 37.450315647 ], [ 139.892224887, 37.450258388 ], [ 139.892296729, 37.450347997 ], [ 139.89286841, 37.450221826 ], [ 139.893042931999986, 37.450067244 ], [ 139.89308110799999, 37.449939433 ], [ 139.89311913099999, 37.44961898 ], [ 139.893133414, 37.449529328 ], [ 139.893322200999989, 37.44926602 ], [ 139.893441776, 37.449212553 ], [ 139.89351574299999, 37.448968376 ], [ 139.893496543, 37.448892092 ], [ 139.89342474099999, 37.448852075 ], [ 139.893247718, 37.448865516 ], [ 139.893099435000011, 37.448918996 ], [ 139.893037283000012, 37.448980063 ], [ 139.892870445, 37.449769786 ], [ 139.89281549899999, 37.449868995 ], [ 139.89269595799999, 37.449968237 ], [ 139.89233479699999, 37.450080951 ], [ 139.892272533000011, 37.450000874 ], [ 139.89227966499999, 37.44994365 ], [ 139.892213034, 37.449872873 ], [ 139.89146537100001, 37.449813639 ], [ 139.890736526000012, 37.449675832 ], [ 139.890428695, 37.44959118 ], [ 139.890452417, 37.44926315 ], [ 139.89035012299999, 37.44923602 ], [ 139.890367864000012, 37.448969937 ], [ 139.8903712, 37.448636628 ], [ 139.890172029000013, 37.44862528 ], [ 139.890125426999987, 37.448689675 ], [ 139.889971126, 37.448695471 ], [ 139.889947768000013, 37.448453822 ], [ 139.88666071599999, 37.448468345 ], [ 139.886668334, 37.449195415 ], [ 139.886128332999988, 37.448960978 ], [ 139.88607991500001, 37.449337299 ], [ 139.885663498000014, 37.449244275 ], [ 139.885533149999986, 37.449612916 ], [ 139.885672314, 37.449654934 ], [ 139.885442395000013, 37.450155712 ], [ 139.885187812999988, 37.450238555 ], [ 139.885006648, 37.450323034 ], [ 139.885083887, 37.450334561 ], [ 139.88486985, 37.450842789 ], [ 139.88510502599999, 37.450936493 ], [ 139.885707212, 37.451027726 ], [ 139.885599472, 37.451516396 ], [ 139.885801437, 37.451709622 ], [ 139.88605263, 37.451942782 ], [ 139.886117961, 37.451998042 ], [ 139.88613605099999, 37.452011002 ], [ 139.88615684199999, 37.452021802 ], [ 139.886196172000012, 37.452037281 ], [ 139.88625402299999, 37.452054541 ], [ 139.886713449000013, 37.452189442 ], [ 139.88681739399999, 37.452010582 ], [ 139.886864003999989, 37.45195191 ], [ 139.886917796, 37.451897526 ], [ 139.886984184, 37.451894635 ], [ 139.886998017, 37.452167632 ], [ 139.887059762, 37.452197868 ], [ 139.887035626, 37.45244309 ], [ 139.887157634, 37.452493998 ], [ 139.887361481999989, 37.452573953 ], [ 139.887323154, 37.452670849 ], [ 139.887620000999988, 37.45275837 ], [ 139.8874791, 37.453043049 ], [ 139.887499999, 37.453063122 ], [ 139.887428483, 37.453422211 ], [ 139.887252819999986, 37.453679783 ], [ 139.887001884, 37.454066133 ], [ 139.886894837999989, 37.454014365 ], [ 139.886802847000013, 37.453977845 ], [ 139.886747256, 37.453959495 ], [ 139.886653235000011, 37.453937566 ], [ 139.886611665, 37.453931456 ], [ 139.886581374, 37.453927506 ], [ 139.886466582999986, 37.453902347 ], [ 139.886504972000012, 37.453560265 ], [ 139.885846315, 37.453514638 ], [ 139.885272179, 37.453474361 ], [ 139.884970976, 37.453450902 ], [ 139.884954725999989, 37.453477562 ], [ 139.884936665999987, 37.453499193 ], [ 139.884904596000013, 37.453522983 ], [ 139.884862594999987, 37.453552543 ], [ 139.884814935, 37.453579403 ], [ 139.884793245, 37.453587334 ], [ 139.884771574000013, 37.453591664 ], [ 139.884749424, 37.453591674 ], [ 139.884726384, 37.453591684 ], [ 139.884682543999986, 37.453585944 ], [ 139.88463598300001, 37.453570464 ], [ 139.884155378, 37.453528717 ], [ 139.883711373000011, 37.453493419 ], [ 139.88340338, 37.45342781 ], [ 139.883294439, 37.45337922 ], [ 139.883199327999989, 37.453373171 ], [ 139.88310479099999, 37.454268034 ], [ 139.882781666999989, 37.454247635 ], [ 139.88214012200001, 37.454453249 ], [ 139.882106341999986, 37.45462294 ], [ 139.882072942, 37.45468059 ], [ 139.882028682, 37.45472673 ], [ 139.881983510999987, 37.454760611 ], [ 139.881935413, 37.455145012 ], [ 139.881761020999988, 37.455202003 ], [ 139.88158483, 37.455280614 ], [ 139.88155229899999, 37.455280624 ], [ 139.881776233000011, 37.455674284 ], [ 139.88214248700001, 37.455644413 ], [ 139.882200361, 37.456389014 ], [ 139.882221101999988, 37.456667665 ], [ 139.882225632, 37.456678465 ], [ 139.882238293, 37.456692515 ], [ 139.882252303, 37.456701155 ], [ 139.88228213299999, 37.456703665 ], [ 139.88262059600001, 37.456682623 ], [ 139.88280382799999, 37.456666883 ], [ 139.882867099, 37.456662892 ], [ 139.883035881000012, 37.456654712 ], [ 139.883171452, 37.456650331 ], [ 139.883248723, 37.456643451 ], [ 139.883377274, 37.45662773 ], [ 139.883435445, 37.4567763 ], [ 139.883471476000011, 37.456944341 ], [ 139.883482367, 37.456994411 ], [ 139.88384136, 37.456927429 ], [ 139.883999501, 37.456899268 ], [ 139.884163992999987, 37.456882627 ], [ 139.884432624999988, 37.456850266 ], [ 139.88454016599999, 37.456836175 ], [ 139.88492538, 37.456788274 ], [ 139.885712528, 37.45668453 ], [ 139.885805779, 37.45691216 ], [ 139.886273194000012, 37.456803158 ], [ 139.886360844, 37.456775017 ], [ 139.88651693599999, 37.456706676 ], [ 139.886599606, 37.456668096 ], [ 139.88660546599999, 37.456661606 ], [ 139.88660546599999, 37.456653326 ], [ 139.886602756, 37.456644316 ], [ 139.886595066000012, 37.456635316 ], [ 139.886586016, 37.456632796 ], [ 139.886558906, 37.456628126 ], [ 139.88651054499999, 37.456618066 ], [ 139.88645404499999, 37.456595746 ], [ 139.88642296399999, 37.456581986 ], [ 139.886405294000014, 37.456512826 ], [ 139.886307243, 37.456525117 ], [ 139.886271392, 37.456323756 ], [ 139.886547244000013, 37.456280945 ], [ 139.88672934600001, 37.456260684 ], [ 139.88672492500001, 37.456067053 ], [ 139.886721193999989, 37.455918263 ], [ 139.88671713299999, 37.455607561 ], [ 139.886715943000013, 37.455528491 ], [ 139.88688495400001, 37.45552517 ], [ 139.88689209399999, 37.45539439 ], [ 139.886728952, 37.455392311 ], [ 139.886688771, 37.4551342 ], [ 139.886224395999989, 37.455062902 ], [ 139.885984393, 37.454977283 ], [ 139.886054613, 37.454913292 ], [ 139.885927611999989, 37.454874093 ], [ 139.88546693699999, 37.454941485 ], [ 139.884871041, 37.454825207 ], [ 139.884643979, 37.454840258 ], [ 139.884480817, 37.454804299 ], [ 139.884467257000011, 37.454797819 ], [ 139.884462727, 37.454790619 ], [ 139.884461816999988, 37.454778729 ], [ 139.884467677, 37.454750989 ], [ 139.884560346, 37.454459688 ], [ 139.884682336, 37.454100646 ], [ 139.884775896, 37.453819794 ], [ 139.884787526, 37.453798264 ], [ 139.884794066000012, 37.453789074 ], [ 139.884805816000011, 37.453779524 ], [ 139.884815745999987, 37.453775734 ], [ 139.884830666, 37.453776444 ], [ 139.885343182000014, 37.453890602 ], [ 139.88587039699999, 37.45401339 ], [ 139.885984068999988, 37.454041259 ], [ 139.88608124000001, 37.454070759 ], [ 139.886159891, 37.454094859 ], [ 139.886248932, 37.454131918 ], [ 139.886360133000011, 37.454176178 ], [ 139.886767178000014, 37.454332527 ], [ 139.887093490000012, 37.454097314 ], [ 139.887467294, 37.454221433 ], [ 139.887852169000013, 37.454350042 ], [ 139.887869819, 37.454378843 ], [ 139.887691668, 37.454541584 ], [ 139.887683087999989, 37.454554924 ], [ 139.887677228, 37.454579774 ], [ 139.887586849, 37.454874325 ], [ 139.88754964899999, 37.455000605 ], [ 139.887522859, 37.455120406 ], [ 139.887505299, 37.455213706 ], [ 139.88749227, 37.455319997 ], [ 139.88749592, 37.455365377 ], [ 139.88752313099999, 37.455505147 ], [ 139.887465391, 37.455655758 ], [ 139.887455941000013, 37.455693588 ], [ 139.88745867099999, 37.455729618 ], [ 139.887474991, 37.455800929 ], [ 139.887494032, 37.455882349 ], [ 139.88751576199999, 37.455932049 ], [ 139.887702555, 37.456155669 ], [ 139.887926657, 37.456091449 ], [ 139.888149849, 37.456039468 ], [ 139.888333751, 37.456003718 ], [ 139.888608463, 37.455950267 ], [ 139.888903965999987, 37.455890326 ], [ 139.88908356799999, 37.455851876 ], [ 139.88914952799999, 37.455833116 ], [ 139.889262029, 37.455798835 ], [ 139.889659142999989, 37.455672204 ], [ 139.88988987499999, 37.455619029 ], [ 139.88992218199999, 37.455644751 ], [ 139.890105846000012, 37.455516983 ], [ 139.890217127, 37.455365452 ], [ 139.890307158000013, 37.455515272 ], [ 139.890430009999989, 37.455717493 ], [ 139.890518922000012, 37.455870373 ], [ 139.890592233, 37.455994264 ], [ 139.890659484999986, 37.456183534 ], [ 139.890763867, 37.456464665 ], [ 139.890889969999989, 37.456786487 ], [ 139.890936361, 37.456899047 ], [ 139.89120611300001, 37.456843426 ], [ 139.891331713999989, 37.456799786 ], [ 139.891406925000013, 37.456770376 ], [ 139.891479655000012, 37.456732525 ], [ 139.891533856, 37.456698275 ], [ 139.89159345600001, 37.456635915 ], [ 139.891636576, 37.456582765 ], [ 139.891686247, 37.456535534 ], [ 139.891715597, 37.456516074 ], [ 139.891746777, 37.456502004 ], [ 139.89177749699999, 37.456496954 ], [ 139.891819518, 37.456489724 ], [ 139.891770337, 37.456433464 ], [ 139.891655445, 37.456303823 ], [ 139.891630115, 37.456273573 ], [ 139.89160297399999, 37.456231083 ], [ 139.89153413299999, 37.456040902 ], [ 139.891429541, 37.455769691 ], [ 139.89138334, 37.455646501 ], [ 139.891308188000011, 37.45545417 ], [ 139.891253397000014, 37.45532559 ], [ 139.891209946, 37.455238429 ], [ 139.89116921499999, 37.455159199 ], [ 139.891124864, 37.455075639 ], [ 139.891055193, 37.454964718 ], [ 139.890902721, 37.454723788 ], [ 139.890653426, 37.454327987 ], [ 139.890533984, 37.454142876 ], [ 139.890489644000013, 37.454067256 ], [ 139.890459773, 37.454017556 ], [ 139.890361590999987, 37.453845765 ], [ 139.890128557, 37.453435544 ], [ 139.890028996000012, 37.453256193 ], [ 139.889897323000014, 37.453015243 ], [ 139.889643449, 37.452530831 ], [ 139.889519446, 37.452280881 ], [ 139.889344303, 37.45193116 ], [ 139.889175490000014, 37.451578559 ], [ 139.889208285, 37.450982254 ], [ 139.888541264, 37.450796602 ], [ 139.888738409000013, 37.450486567 ], [ 139.88860381, 37.450450867 ], [ 139.888717259, 37.450193323 ], [ 139.89002438599999, 37.450571787 ], [ 139.889991821, 37.451010491 ], [ 139.889967922000011, 37.451043881 ], [ 139.88994134699999, 37.451482006 ], [ 139.890080289999986, 37.451765457 ], [ 139.890216522, 37.452042418 ], [ 139.890384425, 37.452380609 ], [ 139.890429676, 37.452474259 ], [ 139.890455927, 37.452532599 ], [ 139.890490766999989, 37.45259995 ], [ 139.890546898, 37.45270873 ], [ 139.89063196, 37.4528535 ], [ 139.890861363999988, 37.453249302 ], [ 139.891174029000013, 37.453777633 ], [ 139.891368132999986, 37.454091314 ], [ 139.891654526999986, 37.454547615 ], [ 139.891864011, 37.454881457 ], [ 139.891916522, 37.454985907 ], [ 139.891983513000014, 37.455123487 ], [ 139.89205549499999, 37.455300338 ], [ 139.89209896599999, 37.455417028 ], [ 139.89223452499999, 37.455828183 ], [ 139.89614767399999, 37.456935555 ], [ 139.89600482099999, 37.457264541 ], [ 139.899962541, 37.458364553 ], [ 139.90039396899999, 37.458382409 ], [ 139.90222765499999, 37.458731828 ], [ 139.902352791999988, 37.458212005 ], [ 139.901551106, 37.458045579 ], [ 139.900869145, 37.457979214 ], [ 139.900178208, 37.457908081 ], [ 139.89936455, 37.457722573 ], [ 139.89909536799999, 37.457708418 ], [ 139.898413306, 37.457520446 ], [ 139.898495227000012, 37.456972757 ], [ 139.898592065, 37.456901178 ] ] ] } },
{ "type": "Feature", "properties": { "A29_001": "07447", "A29_002": "福島県", "A29_003": "会津美里町", "A29_004": 5, "A29_005": "第一種住居地域", "A29_006": 60, "A29_007": 200, "A29_008": null }, "geometry": { "type": "Polygon", "coordinates": [ [ [ 139.895686977, 37.457965094 ], [ 139.895170044999986, 37.45781564 ], [ 139.895249855, 37.457668871 ], [ 139.895232131, 37.457615818 ], [ 139.895257267, 37.457584654 ], [ 139.89297894, 37.456939871 ], [ 139.892855723, 37.456941841 ], [ 139.892743263999989, 37.456933314 ], [ 139.892638035, 37.456990587 ], [ 139.892502846000014, 37.456982072 ], [ 139.892207447, 37.457093799 ], [ 139.892134414, 37.457019449 ], [ 139.892025512, 37.456969912 ], [ 139.891809048999988, 37.457056804 ], [ 139.891897631, 37.457219192 ], [ 139.891815106, 37.457244982 ], [ 139.891908572, 37.457442346 ], [ 139.891793759, 37.457483887 ], [ 139.892034354, 37.45765972 ], [ 139.89208639099999, 37.457655402 ], [ 139.892217506, 37.45780697 ], [ 139.892259185, 37.457848159 ], [ 139.89211449699999, 37.45792544 ], [ 139.891981015999988, 37.45799126 ], [ 139.891937756, 37.4580074 ], [ 139.891707943, 37.458086171 ], [ 139.89183020199999, 37.45838747 ], [ 139.891874425999987, 37.458376362 ], [ 139.891990748000012, 37.458692564 ], [ 139.89264214100001, 37.458530045 ], [ 139.892886291999986, 37.459158059 ], [ 139.89376575, 37.458603889 ], [ 139.893817651, 37.45867846 ], [ 139.893957268, 37.45860303 ], [ 139.89408013900001, 37.45853957 ], [ 139.89417974, 37.4584835 ], [ 139.894267821, 37.458428329 ], [ 139.89432653099999, 37.458388679 ], [ 139.894418065999986, 37.458382037 ], [ 139.89449466, 37.458417283 ], [ 139.894767581999986, 37.458613597 ], [ 139.894866037000014, 37.458551049 ], [ 139.894933328, 37.458508869 ], [ 139.895026609000013, 37.458462518 ], [ 139.895088509, 37.458440158 ], [ 139.89541703399999, 37.458428246 ], [ 139.89548521099999, 37.458411044 ], [ 139.895669037, 37.45804248 ], [ 139.895686977, 37.457965094 ] ] ] } },
{ "type": "Feature", "properties": { "A29_001": "07447", "A29_002": "福島県", "A29_003": "会津美里町", "A29_004": 11, "A29_005": "工業地域", "A29_006": 60, "A29_007": 200, "A29_008": null }, "geometry": { "type": "Polygon", "coordinates": [ [ [ 139.897910263999989, 37.458831838 ], [ 139.901810942, 37.459943467 ], [ 139.902097351, 37.459163677 ], [ 139.90222765499999, 37.458731828 ], [ 139.90039396899999, 37.458382409 ], [ 139.899962541, 37.458364553 ], [ 139.89600482099999, 37.457264541 ], [ 139.895686977, 37.457965094 ], [ 139.895669037, 37.45804248 ], [ 139.89591776899999, 37.458106214 ], [ 139.89615227499999, 37.458246227 ], [ 139.896472519000014, 37.458410617 ], [ 139.897910263999989, 37.458831838 ] ] ] } },
{ "type": "Feature", "properties": { "A29_001": "07447", "A29_002": "福島県", "A29_003": "会津美里町", "A29_004": 10, "A29_005": "準工業地域", "A29_006": 60, "A29_007": 200, "A29_008": null }, "geometry": { "type": "Polygon", "coordinates": [ [ [ 139.89615227499999, 37.458246227 ], [ 139.89591776899999, 37.458106214 ], [ 139.895669037, 37.45804248 ], [ 139.89548521099999, 37.458411044 ], [ 139.89541703399999, 37.458428246 ], [ 139.895088509, 37.458440158 ], [ 139.895026609000013, 37.458462518 ], [ 139.894933328, 37.458508869 ], [ 139.894866037000014, 37.458551049 ], [ 139.894767581999986, 37.458613597 ], [ 139.89449466, 37.458417283 ], [ 139.894418065999986, 37.458382037 ], [ 139.89432653099999, 37.458388679 ], [ 139.894267821, 37.458428329 ], [ 139.89417974, 37.4584835 ], [ 139.89408013900001, 37.45853957 ], [ 139.893957268, 37.45860303 ], [ 139.893817651, 37.45867846 ], [ 139.89376575, 37.458603889 ], [ 139.892886291999986, 37.459158059 ], [ 139.89202631399999, 37.459707728 ], [ 139.893040216, 37.460003708 ], [ 139.894396543, 37.460444665 ], [ 139.894453852999987, 37.460303016 ], [ 139.894398039, 37.460077025 ], [ 139.894607736000012, 37.459755054 ], [ 139.894684473000012, 37.459708931 ], [ 139.895136685000011, 37.459591522 ], [ 139.895360226, 37.459267952 ], [ 139.895470356, 37.459099301 ], [ 139.895541226, 37.45899516 ], [ 139.895626986, 37.458875509 ], [ 139.895749327, 37.458710089 ], [ 139.895807987000012, 37.458616388 ], [ 139.895835307, 37.458577648 ], [ 139.895885857, 37.458514937 ], [ 139.895942287999986, 37.458450787 ], [ 139.89615227499999, 37.458246227 ] ] ] } },
{ "type": "Feature", "properties": { "A29_001": "07447", "A29_002": "福島県", "A29_003": "会津美里町", "A29_004": 10, "A29_005": "準工業地域", "A29_006": 60, "A29_007": 200, "A29_008": null }, "geometry": { "type": "Polygon", "coordinates": [ [ [ 139.838091638, 37.451250873 ], [ 139.837158527000014, 37.449924114 ], [ 139.835144402, 37.448182521 ], [ 139.833960194000014, 37.447213366 ], [ 139.832792461999986, 37.446459013 ], [ 139.832517349, 37.446697429 ], [ 139.832605742999988, 37.446869488 ], [ 139.832586921, 37.447053983 ], [ 139.832512159, 37.447266174 ], [ 139.832467301, 37.447504591 ], [ 139.833962495, 37.449029967 ], [ 139.83471643499999, 37.449783686 ], [ 139.834819117, 37.449891355 ], [ 139.835300244, 37.450564305 ], [ 139.835901381000014, 37.451361567 ], [ 139.836001263000014, 37.451301007 ], [ 139.836203124, 37.451318883 ], [ 139.83632423899999, 37.451286694 ], [ 139.83651713399999, 37.451426163 ], [ 139.837001611, 37.451647877 ], [ 139.838091638, 37.451250873 ] ] ] } },
{ "type": "Feature", "properties": { "A29_001": "07447", "A29_002": "福島県", "A29_003": "会津美里町", "A29_004": 1, "A29_005": "第一種低層住居専用地域", "A29_006": 50, "A29_007": 100, "A29_008": null }, "geometry": { "type": "Polygon", "coordinates": [ [ [ 139.839025314, 37.454529556 ], [ 139.83829716, 37.455017393 ], [ 139.838964678999986, 37.455924801 ], [ 139.839461703000012, 37.45553568 ], [ 139.839548395, 37.455470247 ], [ 139.839599859, 37.455371164 ], [ 139.839589084000011, 37.455266738 ], [ 139.839504736, 37.455135136 ], [ 139.839025314, 37.454529556 ] ] ] } },
{ "type": "Feature", "properties": { "A29_001": "07447", "A29_002": "福島県", "A29_003": "会津美里町", "A29_004": 5, "A29_005": "第一種住居地域", "A29_006": 30, "A29_007": 50, "A29_008": null }, "geometry": { "type": "Polygon", "coordinates": [ [ [ 139.841215455, 37.455332039 ], [ 139.84000899599999, 37.455993983 ], [ 139.839575394, 37.456607932 ], [ 139.839465385000011, 37.456677221 ], [ 139.839734381999989, 37.457141101 ], [ 139.839920197999987, 37.457521316 ], [ 139.840165438000014, 37.45748554 ], [ 139.840479476000013, 37.45755943 ], [ 139.84076061799999, 37.45765478 ], [ 139.840958019, 37.45774775 ], [ 139.841149449, 37.457931319 ], [ 139.842883029, 37.457965711 ], [ 139.84263654099999, 37.457589985 ], [ 139.84215589499999, 37.456760569 ], [ 139.841215455, 37.455332039 ] ] ] } },
{ "type": "Feature", "properties": { "A29_001": "07447", "A29_002": "福島県", "A29_003": "会津美里町", "A29_004": 1, "A29_005": "第一種低層住居専用地域", "A29_006": 50, "A29_007": 100, "A29_008": null }, "geometry": { "type": "Polygon", "coordinates": [ [ [ 139.836459311999988, 37.457944426 ], [ 139.83637275000001, 37.457665885 ], [ 139.836211367, 37.457129875 ], [ 139.83608225399999, 37.456809204 ], [ 139.835436783, 37.455460993 ], [ 139.835187069, 37.455002679 ], [ 139.835098546000012, 37.455078974 ], [ 139.834990884, 37.455174342 ], [ 139.834684649, 37.455737011 ], [ 139.834490856, 37.456042187 ], [ 139.834387978, 37.456251996 ], [ 139.834318595000013, 37.45641412 ], [ 139.834349702, 37.456616298 ], [ 139.834387986, 37.456789865 ], [ 139.834447802999989, 37.456988228 ], [ 139.83504120500001, 37.458554145 ], [ 139.836459311999988, 37.457944426 ] ] ] } },
{ "type": "Feature", "properties": { "A29_001": "07447", "A29_002": "福島県", "A29_003": "会津美里町", "A29_004": 1, "A29_005": "第一種低層住居専用地域", "A29_006": 50, "A29_007": 100, "A29_008": null }, "geometry": { "type": "Polygon", "coordinates": [ [ [ 139.83334573499999, 37.452307874 ], [ 139.832686998000014, 37.454032027 ], [ 139.832983071, 37.45399865 ], [ 139.833004002, 37.454761586 ], [ 139.833072742000013, 37.454925902 ], [ 139.833001007, 37.455646114 ], [ 139.833118270999989, 37.455757928 ], [ 139.833129606999989, 37.455865458 ], [ 139.833060819999986, 37.455927447 ], [ 139.833069791000014, 37.456308914 ], [ 139.83315054, 37.456704687 ], [ 139.83324768899999, 37.457294293 ], [ 139.832785664, 37.45736987 ], [ 139.833105675000013, 37.457880084 ], [ 139.833300076, 37.458061281 ], [ 139.833039877, 37.458161416 ], [ 139.83346158099999, 37.459310587 ], [ 139.83405077399999, 37.458910044 ], [ 139.833751686, 37.457913462 ], [ 139.83391272899999, 37.457827472 ], [ 139.833733279, 37.457326797 ], [ 139.833568786, 37.456906587 ], [ 139.833512708, 37.45639697 ], [ 139.83363233599999, 37.456054245 ], [ 139.833778131, 37.45572344 ], [ 139.83404729, 37.455255545 ], [ 139.834436071, 37.454695261 ], [ 139.83463419899999, 37.454534327 ], [ 139.834843543, 37.454409156 ], [ 139.83417436799999, 37.452925014 ], [ 139.834014658, 37.452508302 ], [ 139.833893606, 37.452259235 ], [ 139.83334573499999, 37.452307874 ] ] ] } },
{ "type": "Feature", "properties": { "A29_001": "07447", "A29_002": "福島県", "A29_003": "会津美里町", "A29_004": 5, "A29_005": "第一種住居地域", "A29_006": 60, "A29_007": 200, "A29_008": null }, "geometry": { "type": "Polygon", "coordinates": [ [ [ 139.839920197999987, 37.457521316 ], [ 139.839734381999989, 37.457141101 ], [ 139.838668453999986, 37.457656396 ], [ 139.838884097, 37.457895115 ], [ 139.838982388, 37.458033195 ], [ 139.839029329, 37.458132675 ], [ 139.83908362, 37.458312895 ], [ 139.839142321999987, 37.458594934 ], [ 139.839227445, 37.459121553 ], [ 139.839324287000011, 37.459554542 ], [ 139.83935950899999, 37.459746471 ], [ 139.83944754, 37.459966471 ], [ 139.83960305299999, 37.460252009 ], [ 139.839893710000013, 37.460714483 ], [ 139.84094687699999, 37.460409081 ], [ 139.840785342, 37.460142064 ], [ 139.840164805, 37.459297047 ], [ 139.83999754199999, 37.458985779 ], [ 139.83988897, 37.4587213 ], [ 139.839847889, 37.4585247 ], [ 139.83984639799999, 37.4583749 ], [ 139.839852248, 37.4581818 ], [ 139.839920197999987, 37.457521316 ] ] ] } },
{ "type": "Feature", "properties": { "A29_001": "07447", "A29_002": "福島県", "A29_003": "会津美里町", "A29_004": 1, "A29_005": "第一種低層住居専用地域", "A29_006": 50, "A29_007": 100, "A29_008": null }, "geometry": { "type": "Polygon", "coordinates": [ [ [ 139.835263766, 37.462025376 ], [ 139.835488857, 37.461913323 ], [ 139.835634559999988, 37.461740063 ], [ 139.835708133999987, 37.461632774 ], [ 139.83549326, 37.461053938 ], [ 139.834800078, 37.461246553 ], [ 139.834165705, 37.459658554 ], [ 139.833642809, 37.459810397 ], [ 139.834198930000014, 37.461198607 ], [ 139.833370640999988, 37.461407792 ], [ 139.832826293000011, 37.461212289 ], [ 139.832494297000011, 37.461510308 ], [ 139.833191183999986, 37.462077744 ], [ 139.833370866, 37.462606493 ], [ 139.83384702399999, 37.462492873 ], [ 139.833942142000012, 37.462563577 ], [ 139.834852981000012, 37.462220714 ], [ 139.835263766, 37.462025376 ] ] ] } },
{ "type": "Feature", "properties": { "A29_001": "07447", "A29_002": "福島県", "A29_003": "会津美里町", "A29_004": 8, "A29_005": "近隣商業地域", "A29_006": 80, "A29_007": 200, "A29_008": null }, "geometry": { "type": "Polygon", "coordinates": [ [ [ 139.841039438, 37.463095668 ], [ 139.840957245999988, 37.462707139 ], [ 139.840848654000013, 37.462391179 ], [ 139.840698981, 37.462105641 ], [ 139.840473046999989, 37.461663292 ], [ 139.840241233, 37.461267764 ], [ 139.839877387, 37.460688497 ], [ 139.83960305299999, 37.460252009 ], [ 139.83944754, 37.459966471 ], [ 139.83935950899999, 37.459746471 ], [ 139.839324287000011, 37.459554542 ], [ 139.839227445, 37.459121553 ], [ 139.839142321999987, 37.458594934 ], [ 139.83908362, 37.458312895 ], [ 139.839029329, 37.458132675 ], [ 139.838982388, 37.458033195 ], [ 139.838884097, 37.457895115 ], [ 139.838668453999986, 37.457656396 ], [ 139.839734381999989, 37.457141101 ], [ 139.839465385000011, 37.456677221 ], [ 139.83917374399999, 37.456238136 ], [ 139.838945612, 37.456340972 ], [ 139.83760637, 37.456758831 ], [ 139.83734630399999, 37.456748774 ], [ 139.836500328999989, 37.456870054 ], [ 139.836743874, 37.457601515 ], [ 139.83637275000001, 37.457665885 ], [ 139.836459311999988, 37.457944426 ], [ 139.836919959, 37.458602135 ], [ 139.837216313999988, 37.459105364 ], [ 139.837456908, 37.459517313 ], [ 139.837691632, 37.459842651 ], [ 139.837792873000012, 37.45999245 ], [ 139.837855955, 37.460132889 ], [ 139.837957206999988, 37.460483978 ], [ 139.838021768, 37.460694638 ], [ 139.838159690999987, 37.461131166 ], [ 139.838274133999988, 37.461438955 ], [ 139.838369515000011, 37.461649614 ], [ 139.83848984799999, 37.462074433 ], [ 139.838640981999987, 37.462574171 ], [ 139.838790655, 37.4630821 ], [ 139.838887567, 37.463326319 ], [ 139.83889809199999, 37.463429613 ], [ 139.839802926, 37.463149914 ], [ 139.839905638, 37.463402703 ], [ 139.839970189000013, 37.463412053 ], [ 139.840188770999987, 37.463354702 ], [ 139.841039438, 37.463095668 ] ] ] } },
{ "type": "Feature", "properties": { "A29_001": "07447", "A29_002": "福島県", "A29_003": "会津美里町", "A29_004": 1, "A29_005": "第一種低層住居専用地域", "A29_006": 50, "A29_007": 100, "A29_008": null }, "geometry": { "type": "Polygon", "coordinates": [ [ [ 139.83889809199999, 37.463429613 ], [ 139.838887567, 37.463326319 ], [ 139.838337523, 37.463888051 ], [ 139.83824215199999, 37.463707852 ], [ 139.83782977199999, 37.462906453 ], [ 139.837616636, 37.462423666 ], [ 139.837410992, 37.462158434 ], [ 139.83766559, 37.462033327 ], [ 139.837589286999986, 37.461498539 ], [ 139.836867610000013, 37.46166473 ], [ 139.83692976099999, 37.461919445 ], [ 139.836651988999989, 37.46200292 ], [ 139.836606921, 37.462117928 ], [ 139.836977845, 37.463047744 ], [ 139.837369394, 37.463957135 ], [ 139.83762579, 37.464725939 ], [ 139.839498174999989, 37.464477903 ], [ 139.839417395, 37.464218629 ], [ 139.839386365, 37.464001485 ], [ 139.83927193299999, 37.463818946 ], [ 139.839134030999986, 37.463655137 ], [ 139.83901295699999, 37.463559307 ], [ 139.83889809199999, 37.463429613 ] ] ] } },
{ "type": "Feature", "properties": { "A29_001": "07447", "A29_002": "福島県", "A29_003": "会津美里町", "A29_004": 3, "A29_005": "第一種中高層住居専用地域", "A29_006": 50, "A29_007": 200, "A29_008": null }, "geometry": { "type": "Polygon", "coordinates": [ [ [ 139.843508987, 37.464875236 ], [ 139.84446495200001, 37.464629642 ], [ 139.843953661, 37.463170145 ], [ 139.845304819, 37.46287002 ], [ 139.845390089, 37.463041672 ], [ 139.84661035799999, 37.462719678 ], [ 139.847090474, 37.46306652 ], [ 139.84723401799999, 37.462937758 ], [ 139.846848112, 37.46255872 ], [ 139.845403256, 37.46121778 ], [ 139.844869295, 37.460692124 ], [ 139.844245609000012, 37.460116405 ], [ 139.843778965000013, 37.459637229 ], [ 139.843482816, 37.459236714 ], [ 139.843227039999988, 37.45879328 ], [ 139.842883029, 37.457965711 ], [ 139.841149449, 37.457931319 ], [ 139.840958019, 37.45774775 ], [ 139.84076061799999, 37.45765478 ], [ 139.840479476000013, 37.45755943 ], [ 139.840165438000014, 37.45748554 ], [ 139.839920197999987, 37.457521316 ], [ 139.839852248, 37.4581818 ], [ 139.83984639799999, 37.4583749 ], [ 139.839847889, 37.4585247 ], [ 139.83988897, 37.4587213 ], [ 139.83999754199999, 37.458985779 ], [ 139.840164805, 37.459297047 ], [ 139.840785342, 37.460142064 ], [ 139.84094687699999, 37.460409081 ], [ 139.839893710000013, 37.460714483 ], [ 139.840241233, 37.461267764 ], [ 139.840473046999989, 37.461663292 ], [ 139.840698981, 37.462105641 ], [ 139.840848654000013, 37.462391179 ], [ 139.840957245999988, 37.462707139 ], [ 139.841039438, 37.463095668 ], [ 139.84119645199999, 37.463618756 ], [ 139.841349086, 37.464304515 ], [ 139.841626287999986, 37.465495052 ], [ 139.842146727, 37.465394879 ], [ 139.842801753, 37.465223168 ], [ 139.84316963500001, 37.465058631 ], [ 139.843508987, 37.464875236 ] ] ] } },
{ "type": "Feature", "properties": { "A29_001": "07447", "A29_002": "福島県", "A29_003": "会津美里町", "A29_004": 5, "A29_005": "第一種住居地域", "A29_006": 60, "A29_007": 200, "A29_008": null }, "geometry": { "type": "Polygon", "coordinates": [ [ [ 139.848023762, 37.463869014 ], [ 139.847090474, 37.46306652 ], [ 139.84661035799999, 37.462719678 ], [ 139.845390089, 37.463041672 ], [ 139.84585265199999, 37.464330601 ], [ 139.845733015, 37.464357317 ], [ 139.84687363099999, 37.467565456 ], [ 139.847636943999987, 37.467386077 ], [ 139.846478058, 37.464208702 ], [ 139.848023762, 37.463869014 ] ] ] } },
{ "type": "Feature", "properties": { "A29_001": "07447", "A29_002": "福島県", "A29_003": "会津美里町", "A29_004": 10, "A29_005": "準工業地域", "A29_006": 60, "A29_007": 200, "A29_008": null }, "geometry": { "type": "Polygon", "coordinates": [ [ [ 139.84687363099999, 37.467565456 ], [ 139.845733015, 37.464357317 ], [ 139.84585265199999, 37.464330601 ], [ 139.845390089, 37.463041672 ], [ 139.845304819, 37.46287002 ], [ 139.843953661, 37.463170145 ], [ 139.844442869, 37.464566328 ], [ 139.845593457, 37.467865048 ], [ 139.84687363099999, 37.467565456 ] ] ] } },
{ "type": "Feature", "properties": { "A29_001": "07447", "A29_002": "福島県", "A29_003": "会津美里町", "A29_004": 1, "A29_005": "第一種低層住居専用地域", "A29_006": 50, "A29_007": 100, "A29_008": null }, "geometry": { "type": "Polygon", "coordinates": [ [ [ 139.843508987, 37.464875236 ], [ 139.84316963500001, 37.465058631 ], [ 139.842801753, 37.465223168 ], [ 139.842146727, 37.465394879 ], [ 139.841626287999986, 37.465495052 ], [ 139.841666693, 37.465723929 ], [ 139.841792355, 37.466038631 ], [ 139.841861289, 37.46636294 ], [ 139.841986021999986, 37.466790069 ], [ 139.842065294, 37.467180928 ], [ 139.842170966999987, 37.467653697 ], [ 139.842493991999987, 37.468866202 ], [ 139.845191989, 37.468303299 ], [ 139.844559331, 37.466513247 ], [ 139.844159303999987, 37.466769583 ], [ 139.843508987, 37.464875236 ] ] ] } },
{ "type": "Feature", "properties": { "A29_001": "07447", "A29_002": "福島県", "A29_003": "会津美里町", "A29_004": 1, "A29_005": "第一種低層住居専用地域", "A29_006": 50, "A29_007": 100, "A29_008": null }, "geometry": { "type": "Polygon", "coordinates": [ [ [ 139.839274382000013, 37.469141223 ], [ 139.840758005, 37.468826429 ], [ 139.84076841000001, 37.468683855 ], [ 139.840401065, 37.467165933 ], [ 139.840019579999989, 37.465911287 ], [ 139.83967926599999, 37.465017242 ], [ 139.837761257000011, 37.465294489 ], [ 139.838486824, 37.46717696 ], [ 139.838690258000014, 37.467677626 ], [ 139.83869401699999, 37.468240035 ], [ 139.838873486000011, 37.468187575 ], [ 139.83902308099999, 37.468659634 ], [ 139.839274382000013, 37.469141223 ] ] ] } },
{ "type": "Feature", "properties": { "A29_001": "07447", "A29_002": "福島県", "A29_003": "会津美里町", "A29_004": 1, "A29_005": "第一種低層住居専用地域", "A29_006": 50, "A29_007": 100, "A29_008": null }, "geometry": { "type": "Polygon", "coordinates": [ [ [ 139.849489728, 37.46868587 ], [ 139.849302706, 37.468536883 ], [ 139.848609952, 37.468004987 ], [ 139.847745992, 37.465617122 ], [ 139.849579447999986, 37.465218728 ], [ 139.849295254, 37.465023264 ], [ 139.849064903999988, 37.464844483 ], [ 139.848023762, 37.463869014 ], [ 139.846478058, 37.464208702 ], [ 139.847636943999987, 37.467386077 ], [ 139.84687363099999, 37.467565456 ], [ 139.84745578499999, 37.469145083 ], [ 139.849489728, 37.46868587 ] ] ] } },
{ "type": "Feature", "properties": { "A29_001": "07447", "A29_002": "福島県", "A29_003": "会津美里町", "A29_004": 5, "A29_005": "第一種住居地域", "A29_006": 60, "A29_007": 200, "A29_008": null }, "geometry": { "type": "Polygon", "coordinates": [ [ [ 139.838999451, 37.471328616 ], [ 139.840187250000014, 37.471035181 ], [ 139.840396631, 37.470918941 ], [ 139.842127801, 37.470495635 ], [ 139.842191375, 37.470570135 ], [ 139.842561534999987, 37.47047176 ], [ 139.84264145899999, 37.470470225 ], [ 139.849500983000013, 37.468861701 ], [ 139.849489728, 37.46868587 ], [ 139.84745578499999, 37.469145083 ], [ 139.84687363099999, 37.467565456 ], [ 139.845593457, 37.467865048 ], [ 139.84446495200001, 37.464629642 ], [ 139.843508987, 37.464875236 ], [ 139.844159303999987, 37.466769583 ], [ 139.844559331, 37.466513247 ], [ 139.845191989, 37.468303299 ], [ 139.842493991999987, 37.468866202 ], [ 139.842170966999987, 37.467653697 ], [ 139.842065294, 37.467180928 ], [ 139.841986021999986, 37.466790069 ], [ 139.841861289, 37.46636294 ], [ 139.841792355, 37.466038631 ], [ 139.841666693, 37.465723929 ], [ 139.841626287999986, 37.465495052 ], [ 139.841349086, 37.464304515 ], [ 139.84119645199999, 37.463618756 ], [ 139.841039438, 37.463095668 ], [ 139.840188770999987, 37.463354702 ], [ 139.839970189000013, 37.463412053 ], [ 139.839905638, 37.463402703 ], [ 139.839802926, 37.463149914 ], [ 139.83889809199999, 37.463429613 ], [ 139.83901295699999, 37.463559307 ], [ 139.839134030999986, 37.463655137 ], [ 139.83927193299999, 37.463818946 ], [ 139.839386365, 37.464001485 ], [ 139.839417395, 37.464218629 ], [ 139.839498174999989, 37.464477903 ], [ 139.83762579, 37.464725939 ], [ 139.837369394, 37.463957135 ], [ 139.836977845, 37.463047744 ], [ 139.836606921, 37.462117928 ], [ 139.836651988999989, 37.46200292 ], [ 139.83692976099999, 37.461919445 ], [ 139.836867610000013, 37.46166473 ], [ 139.837589286999986, 37.461498539 ], [ 139.83766559, 37.462033327 ], [ 139.837410992, 37.462158434 ], [ 139.837616636, 37.462423666 ], [ 139.83782977199999, 37.462906453 ], [ 139.83824215199999, 37.463707852 ], [ 139.838337523, 37.463888051 ], [ 139.838887567, 37.463326319 ], [ 139.838790655, 37.4630821 ], [ 139.838640981999987, 37.462574171 ], [ 139.83848984799999, 37.462074433 ], [ 139.838369515000011, 37.461649614 ], [ 139.838274133999988, 37.461438955 ], [ 139.838159690999987, 37.461131166 ], [ 139.838021768, 37.460694638 ], [ 139.837957206999988, 37.460483978 ], [ 139.837855955, 37.460132889 ], [ 139.837792873000012, 37.45999245 ], [ 139.837691632, 37.459842651 ], [ 139.837456908, 37.459517313 ], [ 139.837216313999988, 37.459105364 ], [ 139.836919959, 37.458602135 ], [ 139.836459311999988, 37.457944426 ], [ 139.83504120500001, 37.458554145 ], [ 139.834447802999989, 37.456988228 ], [ 139.834387986, 37.456789865 ], [ 139.834349702, 37.456616298 ], [ 139.834318595000013, 37.45641412 ], [ 139.834387978, 37.456251996 ], [ 139.834490856, 37.456042187 ], [ 139.834684649, 37.455737011 ], [ 139.834990884, 37.455174342 ], [ 139.835098546000012, 37.455078974 ], [ 139.835187069, 37.455002679 ], [ 139.835436783, 37.455460993 ], [ 139.83608225399999, 37.456809204 ], [ 139.836211367, 37.457129875 ], [ 139.83637275000001, 37.457665885 ], [ 139.836743874, 37.457601515 ], [ 139.836500328999989, 37.456870054 ], [ 139.83734630399999, 37.456748774 ], [ 139.83760637, 37.456758831 ], [ 139.838945612, 37.456340972 ], [ 139.83917374399999, 37.456238136 ], [ 139.838964678999986, 37.455924801 ], [ 139.83829716, 37.455017393 ], [ 139.838996775999988, 37.454580838 ], [ 139.839977197, 37.453874725 ], [ 139.838504390999987, 37.452018916 ], [ 139.838091638, 37.451250873 ], [ 139.837001611, 37.451647877 ], [ 139.83651713399999, 37.451426163 ], [ 139.83632423899999, 37.451286694 ], [ 139.836203124, 37.451318883 ], [ 139.836001263000014, 37.451301007 ], [ 139.835901381000014, 37.451361567 ], [ 139.835300244, 37.450564305 ], [ 139.834819117, 37.449891355 ], [ 139.83471643499999, 37.449783686 ], [ 139.833962495, 37.449029967 ], [ 139.832467301, 37.447504591 ], [ 139.832512159, 37.447266174 ], [ 139.832586921, 37.447053983 ], [ 139.832605742999988, 37.446869488 ], [ 139.832517349, 37.446697429 ], [ 139.832792461999986, 37.446459013 ], [ 139.832409703, 37.44621344 ], [ 139.831910310000012, 37.446656892 ], [ 139.831303259, 37.447076498 ], [ 139.830902536999986, 37.447508027 ], [ 139.830576575, 37.447808426 ], [ 139.830815800000011, 37.447975323 ], [ 139.83045096, 37.448297179 ], [ 139.82981698399999, 37.448495048 ], [ 139.829972473, 37.448785922 ], [ 139.830349270999989, 37.44867626 ], [ 139.830397108999989, 37.448909911 ], [ 139.83038215, 37.449072034 ], [ 139.830241597999986, 37.449122098 ], [ 139.83037133799999, 37.449280642 ], [ 139.83094734, 37.449179335 ], [ 139.831054988, 37.449417755 ], [ 139.831093861999989, 37.44950597 ], [ 139.83136599299999, 37.44949167 ], [ 139.831647092999987, 37.449639493 ], [ 139.83168297099999, 37.449963741 ], [ 139.831638112, 37.450040034 ], [ 139.831910238, 37.450454884 ], [ 139.83223919400001, 37.45031899 ], [ 139.832406658999986, 37.450564561 ], [ 139.832589079, 37.450519263 ], [ 139.833086677000011, 37.451211981 ], [ 139.83328287399999, 37.451141535 ], [ 139.833354687, 37.451289702 ], [ 139.83341040799999, 37.451335332 ], [ 139.833467608, 37.451397342 ], [ 139.83347652099999, 37.451683617 ], [ 139.833443625, 37.45183382 ], [ 139.83339278599999, 37.451960182 ], [ 139.83322232399999, 37.452260587 ], [ 139.83335052000001, 37.452258283 ], [ 139.83334573499999, 37.452307874 ], [ 139.833893606, 37.452259235 ], [ 139.834014658, 37.452508302 ], [ 139.834035198, 37.452557452 ], [ 139.83417436799999, 37.452925014 ], [ 139.834843543, 37.454409156 ], [ 139.83463419899999, 37.454534327 ], [ 139.834436071, 37.454695261 ], [ 139.83404729, 37.455255545 ], [ 139.833778131, 37.45572344 ], [ 139.83363233599999, 37.456054245 ], [ 139.833512708, 37.45639697 ], [ 139.833568786, 37.456906587 ], [ 139.83391272899999, 37.457827472 ], [ 139.833751686, 37.457913462 ], [ 139.83405077399999, 37.458910044 ], [ 139.83346158099999, 37.459310587 ], [ 139.833642809, 37.459810397 ], [ 139.834165705, 37.459658554 ], [ 139.834800078, 37.461246553 ], [ 139.83549326, 37.461053938 ], [ 139.835708133999987, 37.461632774 ], [ 139.835488857, 37.461913323 ], [ 139.835263766, 37.462025376 ], [ 139.83642917099999, 37.4651777 ], [ 139.83670135700001, 37.465125241 ], [ 139.83788153099999, 37.468316173 ], [ 139.838074494000011, 37.468809688 ], [ 139.838146319, 37.469360428 ], [ 139.83817704399999, 37.469833183 ], [ 139.83818225499999, 37.469993423 ], [ 139.83802451299999, 37.470057854 ], [ 139.837980356, 37.470186549 ], [ 139.83852129600001, 37.47144725 ], [ 139.838999451, 37.471328616 ] ], [ [ 139.839274382000013, 37.469141223 ], [ 139.83902308099999, 37.468659634 ], [ 139.838873486000011, 37.468187575 ], [ 139.83869401699999, 37.468240035 ], [ 139.838690258000014, 37.467677626 ], [ 139.838486824, 37.46717696 ], [ 139.837761257000011, 37.465294489 ], [ 139.83967926599999, 37.465017242 ], [ 139.840019579999989, 37.465911287 ], [ 139.840401065, 37.467165933 ], [ 139.84076841000001, 37.468683855 ], [ 139.840758005, 37.468826429 ], [ 139.839274382000013, 37.469141223 ] ] ] } },
{ "type": "Feature", "properties": { "A29_001": "07447", "A29_002": "福島県", "A29_003": "会津美里町", "A29_004": 10, "A29_005": "準工業地域", "A29_006": 60, "A29_007": 200, "A29_008": null }, "geometry": { "type": "Polygon", "coordinates": [ [ [ 139.84264007499999, 37.470620764 ], [ 139.84264145899999, 37.470470225 ], [ 139.842561534999987, 37.47047176 ], [ 139.842191375, 37.470570135 ], [ 139.842127801, 37.470495635 ], [ 139.840396631, 37.470918941 ], [ 139.840187250000014, 37.471035181 ], [ 139.838999451, 37.471328616 ], [ 139.83935848199999, 37.472217415 ], [ 139.840052477, 37.472209748 ], [ 139.84005253399999, 37.471261024 ], [ 139.840377964, 37.471225903 ], [ 139.841907236, 37.470871157 ], [ 139.84264007499999, 37.470620764 ] ] ] } },
{ "type": "Feature", "properties": { "A29_001": "07447", "A29_002": "福島県", "A29_003": "会津美里町", "A29_004": 11, "A29_005": "工業地域", "A29_006": 60, "A29_007": 200, "A29_008": null }, "geometry": { "type": "Polygon", "coordinates": [ [ [ 139.85961696199999, 37.473868197 ], [ 139.859785714, 37.473897416 ], [ 139.859907494999987, 37.473889195 ], [ 139.860092357000013, 37.473849364 ], [ 139.860688033, 37.47367952 ], [ 139.860812734, 37.473613949 ], [ 139.861003415, 37.473444198 ], [ 139.861145676, 37.473284987 ], [ 139.861261516000013, 37.473091846 ], [ 139.861346535, 37.472854235 ], [ 139.861377284000014, 37.472696225 ], [ 139.861391913, 37.472555774 ], [ 139.861383042, 37.472391924 ], [ 139.861262557, 37.471928475 ], [ 139.861003957, 37.470989896 ], [ 139.860842412000011, 37.470613066 ], [ 139.86071615899999, 37.470414137 ], [ 139.860704399000014, 37.470353277 ], [ 139.86067499699999, 37.470208167 ], [ 139.86057367399999, 37.469957728 ], [ 139.860489961000013, 37.469710788 ], [ 139.86046936, 37.469565678 ], [ 139.860448768, 37.469399468 ], [ 139.860457518, 37.469274238 ], [ 139.860554216, 37.468890327 ], [ 139.860844434, 37.468127174 ], [ 139.861036473000013, 37.467653123 ], [ 139.861124412, 37.467442432 ], [ 139.86116953199999, 37.467315035 ], [ 139.86112464499999, 37.467261402 ], [ 139.861032365999989, 37.467121155 ], [ 139.861050225000014, 37.466882734 ], [ 139.861038138999987, 37.466553721 ], [ 139.860984194999986, 37.466272402 ], [ 139.860472697, 37.466404466 ], [ 139.858393865000011, 37.466904691 ], [ 139.85560229399999, 37.467539433 ], [ 139.85631695399999, 37.468757906 ], [ 139.857062753, 37.470134162 ], [ 139.85735637, 37.47064439 ], [ 139.857685177, 37.471068018 ], [ 139.858031614999987, 37.471515036 ], [ 139.858201939, 37.471845055 ], [ 139.858472096000014, 37.472331894 ], [ 139.858610129999988, 37.472647873 ], [ 139.858780454999987, 37.472973212 ], [ 139.85897427, 37.473359411 ], [ 139.859110783, 37.47353025 ], [ 139.859235555, 37.47365195 ], [ 139.859410209, 37.473782988 ], [ 139.85948653, 37.473821598 ], [ 139.85961696199999, 37.473868197 ] ] ] } },
{ "type": "Feature", "properties": { "A29_001": "07447", "A29_002": "福島県", "A29_003": "会津美里町", "A29_004": 1, "A29_005": "第一種低層住居専用地域", "A29_006": 30, "A29_007": 50, "A29_008": null }, "geometry": { "type": "Polygon", "coordinates": [ [ [ 139.841215455, 37.455332039 ], [ 139.839977197, 37.453874725 ], [ 139.839025314, 37.454529556 ], [ 139.839504736, 37.455135136 ], [ 139.839589084000011, 37.455266738 ], [ 139.839599859, 37.455371164 ], [ 139.839548395, 37.455470247 ], [ 139.839461703000012, 37.45553568 ], [ 139.838964678999986, 37.455924801 ], [ 139.83917374399999, 37.456238136 ], [ 139.839465385000011, 37.456677221 ], [ 139.839575394, 37.456607932 ], [ 139.84000899599999, 37.455993983 ], [ 139.841215455, 37.455332039 ] ] ] } }
]
}
