{
"type": "FeatureCollection",
"name": "A29-19_23234",
"features": [
{ "type": "Feature", "properties": { "A29_001": "23234", "A29_002": "愛知県", "A29_003": "北名古屋市", "A29_004": 9, "A29_005": "商業地域", "A29_006": 80, "A29_007": 400, "A29_008": null }, "geometry": { "type": "Polygon", "coordinates": [ [ [ 136.87127867699999, 35.244732684 ], [ 136.871111694, 35.244738607 ], [ 136.871045842, 35.244175258 ], [ 136.871159260000013, 35.244157812 ], [ 136.87101006, 35.24326005 ], [ 136.870673492, 35.242050436 ], [ 136.870482904, 35.242128801 ], [ 136.869791545999988, 35.242144476 ], [ 136.869854221999987, 35.243046722 ], [ 136.8698855, 35.24318185 ], [ 136.869933755, 35.24330277 ], [ 136.86988817, 35.2440182 ], [ 136.86987870199999, 35.244026381 ], [ 136.869789739999987, 35.24410324 ], [ 136.867777, 35.244078833 ], [ 136.867321167, 35.244064111 ], [ 136.867248343, 35.244994018 ], [ 136.867684166, 35.245023544 ], [ 136.86837576100001, 35.245035132 ], [ 136.869506121, 35.244929651 ], [ 136.86997391700001, 35.244950667 ], [ 136.869889973, 35.24650918 ], [ 136.86995767, 35.247044756 ], [ 136.871166042, 35.247011819 ], [ 136.871170806, 35.247104028 ], [ 136.871631138999987, 35.247084556 ], [ 136.871478395999986, 35.245978095 ], [ 136.87144996, 35.24567002 ], [ 136.87133006, 35.24498004 ], [ 136.87127867699999, 35.244732684 ] ] ] } },
{ "type": "Feature", "properties": { "A29_001": "23234", "A29_002": "愛知県", "A29_003": "北名古屋市", "A29_004": 1, "A29_005": "第一種低層住居専用地域", "A29_006": 30, "A29_007": 50, "A29_008": null }, "geometry": { "type": "Polygon", "coordinates": [ [ [ 136.85635033299999, 35.251896083 ], [ 136.856529591, 35.243126872 ], [ 136.856576045999986, 35.241329368 ], [ 136.855152629, 35.241392119 ], [ 136.855155411999988, 35.241306347 ], [ 136.853775657999989, 35.241370389 ], [ 136.852323643, 35.241429652 ], [ 136.852310391, 35.24670049 ], [ 136.854132851, 35.246629187 ], [ 136.85410909699999, 35.249252331 ], [ 136.85437631100001, 35.249255969 ], [ 136.85437003199999, 35.250234585 ], [ 136.854328736000014, 35.250235194 ], [ 136.854324823000013, 35.251886657 ], [ 136.85635033299999, 35.251896083 ] ] ] } },
{ "type": "Feature", "properties": { "A29_001": "23234", "A29_002": "愛知県", "A29_003": "北名古屋市", "A29_004": 1, "A29_005": "第一種低層住居専用地域", "A29_006": 30, "A29_007": 50, "A29_008": null }, "geometry": { "type": "Polygon", "coordinates": [ [ [ 136.860719163999988, 35.260440292 ], [ 136.860737658, 35.259862239 ], [ 136.859232026, 35.259850698 ], [ 136.859224735, 35.25999129 ], [ 136.858468796000011, 35.260013608 ], [ 136.858412256, 35.259986462 ], [ 136.858302624, 35.259976847 ], [ 136.858107537, 35.25999918 ], [ 136.857800707, 35.260007663 ], [ 136.85767728499999, 35.260003139 ], [ 136.85754796, 35.260021781 ], [ 136.85728376, 35.260071575 ], [ 136.85704506799999, 35.260096984 ], [ 136.856546726, 35.260154686 ], [ 136.8565868, 35.260453595 ], [ 136.85662619499999, 35.260589364 ], [ 136.852179389000014, 35.260854412 ], [ 136.852180487, 35.261040746 ], [ 136.852227392, 35.261053534 ], [ 136.85236161099999, 35.262582306 ], [ 136.854147914, 35.262474281 ], [ 136.85520600800001, 35.262312327 ], [ 136.856324859000011, 35.262131175 ], [ 136.856221355, 35.261560237 ], [ 136.860719163999988, 35.260440292 ] ] ] } },
{ "type": "Feature", "properties": { "A29_001": "23234", "A29_002": "愛知県", "A29_003": "北名古屋市", "A29_004": 3, "A29_005": "第一種中高層住居専用地域", "A29_006": 60, "A29_007": 200, "A29_008": null }, "geometry": { "type": "Polygon", "coordinates": [ [ [ 136.871044936, 35.231227965 ], [ 136.871101885, 35.231166669 ], [ 136.870849865, 35.231183412 ], [ 136.870741958, 35.231025123 ], [ 136.870672331, 35.230888199 ], [ 136.870473464000014, 35.230807634 ], [ 136.870296903, 35.230816533 ], [ 136.870052635, 35.230807512 ], [ 136.869861622, 35.230832311 ], [ 136.869762009999988, 35.23080801 ], [ 136.869584661, 35.230781098 ], [ 136.869430771999987, 35.230758822 ], [ 136.869239534, 35.230690703 ], [ 136.86923438, 35.230569681 ], [ 136.869050144, 35.23058143 ], [ 136.869063331, 35.230693549 ], [ 136.869014556, 35.231355088 ], [ 136.868978349, 35.231787286 ], [ 136.868978242, 35.231788563 ], [ 136.870987973000013, 35.231900292 ], [ 136.871044936, 35.231227965 ] ] ] } },
{ "type": "Feature", "properties": { "A29_001": "23234", "A29_002": "愛知県", "A29_003": "北名古屋市", "A29_004": 3, "A29_005": "第一種中高層住居専用地域", "A29_006": 60, "A29_007": 200, "A29_008": null }, "geometry": { "type": "Polygon", "coordinates": [ [ [ 136.867149833000013, 35.232574889 ], [ 136.86730401, 35.23079301 ], [ 136.8673105, 35.230607463 ], [ 136.866809861, 35.230567333 ], [ 136.86657388899999, 35.230593167 ], [ 136.866262021000011, 35.230592605 ], [ 136.865511532999989, 35.230591207 ], [ 136.86516053299999, 35.230581246 ], [ 136.864801171000011, 35.230592728 ], [ 136.864417495, 35.230611649 ], [ 136.864349334999986, 35.230590871 ], [ 136.86380001, 35.23067301 ], [ 136.86363841799999, 35.230698658 ], [ 136.86319746, 35.23065796 ], [ 136.863043917999988, 35.23065181 ], [ 136.86287301199999, 35.23200411 ], [ 136.863942966, 35.231987129 ], [ 136.864028031, 35.232031197 ], [ 136.86523896700001, 35.231855351 ], [ 136.865347117999988, 35.232336956 ], [ 136.86614037699999, 35.232443347 ], [ 136.867149833000013, 35.232574889 ] ] ] } },
{ "type": "Feature", "properties": { "A29_001": "23234", "A29_002": "愛知県", "A29_003": "北名古屋市", "A29_004": 3, "A29_005": "第一種中高層住居専用地域", "A29_006": 60, "A29_007": 200, "A29_008": null }, "geometry": { "type": "Polygon", "coordinates": [ [ [ 136.899626933, 35.236395225 ], [ 136.899696067, 35.236367055 ], [ 136.899942186, 35.236368107 ], [ 136.900443728, 35.236361248 ], [ 136.900806318, 35.236323288 ], [ 136.900922675, 35.236299693 ], [ 136.900517028, 35.2357895 ], [ 136.900268111, 35.235647889 ], [ 136.899517972000012, 35.235314556 ], [ 136.898065621, 35.234634798 ], [ 136.89714010899999, 35.234310759 ], [ 136.89688238, 35.236426914 ], [ 136.898569444, 35.236424722 ], [ 136.899626933, 35.236395225 ] ] ] } },
{ "type": "Feature", "properties": { "A29_001": "23234", "A29_002": "愛知県", "A29_003": "北名古屋市", "A29_004": 3, "A29_005": "第一種中高層住居専用地域", "A29_006": 60, "A29_007": 200, "A29_008": null }, "geometry": { "type": "Polygon", "coordinates": [ [ [ 136.866515472, 35.240575333 ], [ 136.866702556, 35.238165472 ], [ 136.866902388999989, 35.235654722 ], [ 136.863987882, 35.235495907 ], [ 136.863922374, 35.235886438 ], [ 136.86230887, 35.235800387 ], [ 136.862264127, 35.236368033 ], [ 136.861294361, 35.236314139 ], [ 136.861238101, 35.23689761 ], [ 136.86117646299999, 35.237645199 ], [ 136.859827818000014, 35.237639002 ], [ 136.859412612999989, 35.237666184 ], [ 136.8591385, 35.237723639 ], [ 136.85890284199999, 35.237791789 ], [ 136.858485511, 35.237934233 ], [ 136.858561095999988, 35.237149722 ], [ 136.85860393199999, 35.236588292 ], [ 136.857908686, 35.236548614 ], [ 136.857998345, 35.237352942 ], [ 136.858024472000011, 35.237670472 ], [ 136.857977556, 35.237725444 ], [ 136.857991994, 35.237963439 ], [ 136.857227039, 35.238003311 ], [ 136.857206010999988, 35.238996403 ], [ 136.857212592, 35.239047707 ], [ 136.857204977, 35.239380358 ], [ 136.85717521399999, 35.239489869 ], [ 136.85718445099999, 35.239716646 ], [ 136.857340877000013, 35.239735004 ], [ 136.85857285099999, 35.23982454 ], [ 136.858541811, 35.240057999 ], [ 136.858980556, 35.240115083 ], [ 136.859448160999989, 35.240102615 ], [ 136.86002795600001, 35.240023478 ], [ 136.861500691, 35.240002845 ], [ 136.863044667, 35.240052472 ], [ 136.863846026, 35.240002865 ], [ 136.863767134999989, 35.240427976 ], [ 136.866515472, 35.240575333 ] ] ] } },
{ "type": "Feature", "properties": { "A29_001": "23234", "A29_002": "愛知県", "A29_003": "北名古屋市", "A29_004": 3, "A29_005": "第一種中高層住居専用地域", "A29_006": 60, "A29_007": 200, "A29_008": null }, "geometry": { "type": "Polygon", "coordinates": [ [ [ 136.89476969399999, 35.24264256 ], [ 136.894757860999988, 35.242156528 ], [ 136.894951916999986, 35.242157886 ], [ 136.894940794, 35.241679361 ], [ 136.894789967, 35.24168424 ], [ 136.894791878, 35.241111833 ], [ 136.895249795000012, 35.24110019 ], [ 136.895230214, 35.240433079 ], [ 136.895397373, 35.240433454 ], [ 136.89538871, 35.239874808 ], [ 136.89566814599999, 35.239873575 ], [ 136.89567143799999, 35.238883788 ], [ 136.89574408499999, 35.238892895 ], [ 136.895737512000011, 35.238684189 ], [ 136.895753455, 35.238260879 ], [ 136.895829735, 35.238269993 ], [ 136.89583860799999, 35.237787041 ], [ 136.89577662, 35.23778609 ], [ 136.89576994399999, 35.236778583 ], [ 136.895738972, 35.236483583 ], [ 136.895667083, 35.236274583 ], [ 136.896413048, 35.236257325 ], [ 136.896477432000012, 35.235559432 ], [ 136.89631346199999, 35.23514839 ], [ 136.896307565, 35.235049509 ], [ 136.89601468399999, 35.234225293 ], [ 136.893470603999987, 35.234246214 ], [ 136.891798111000014, 35.2342615 ], [ 136.89184792899999, 35.232625599 ], [ 136.891848194, 35.232051031 ], [ 136.89010423900001, 35.231304811 ], [ 136.888760663999989, 35.230653867 ], [ 136.888761980999988, 35.233253636 ], [ 136.88876428099999, 35.233414189 ], [ 136.88798146799999, 35.233416926 ], [ 136.888389563, 35.235068619 ], [ 136.8884516, 35.23818414 ], [ 136.88851376, 35.24028345 ], [ 136.89043557, 35.240255043 ], [ 136.890405437999988, 35.242049369 ], [ 136.890944265, 35.242111435 ], [ 136.89110385, 35.242108473 ], [ 136.891348389, 35.242030278 ], [ 136.891702806000012, 35.242031389 ], [ 136.891998120000011, 35.241966377 ], [ 136.89234327599999, 35.241988029 ], [ 136.89270092000001, 35.24211029 ], [ 136.892975639000014, 35.242155083 ], [ 136.893386865, 35.242168983 ], [ 136.893409917000014, 35.242649194 ], [ 136.89476969399999, 35.24264256 ] ] ] } },
{ "type": "Feature", "properties": { "A29_001": "23234", "A29_002": "愛知県", "A29_003": "北名古屋市", "A29_004": 3, "A29_005": "第一種中高層住居専用地域", "A29_006": 60, "A29_007": 200, "A29_008": null }, "geometry": { "type": "Polygon", "coordinates": [ [ [ 136.90062676, 35.24356378 ], [ 136.90058478899999, 35.242105557 ], [ 136.900651481000011, 35.241713662 ], [ 136.900780314, 35.241210104 ], [ 136.901026991, 35.240228305 ], [ 136.901079157999988, 35.239920907 ], [ 136.901129035999986, 35.239580095 ], [ 136.901157777, 35.239124018 ], [ 136.90118469, 35.238670918 ], [ 136.901268044, 35.238182166 ], [ 136.901319965999988, 35.237860299 ], [ 136.901362764, 35.237550337 ], [ 136.901374583, 35.237275278 ], [ 136.901291875, 35.23700162 ], [ 136.900882816, 35.237081218 ], [ 136.900352192000014, 35.237109865 ], [ 136.899723504, 35.237123387 ], [ 136.89964730299999, 35.237090424 ], [ 136.898459038, 35.237096741 ], [ 136.897176285, 35.237105817 ], [ 136.89680200399999, 35.237106474 ], [ 136.896515126999986, 35.23924045 ], [ 136.896515849999986, 35.241214076 ], [ 136.89651831399999, 35.241276587 ], [ 136.896518915, 35.241660558 ], [ 136.896347205000012, 35.241660896 ], [ 136.89630924299999, 35.242149745 ], [ 136.896342377, 35.243115762 ], [ 136.8985985, 35.243096611 ], [ 136.89858189, 35.24359487 ], [ 136.90062676, 35.24356378 ] ] ] } },
{ "type": "Feature", "properties": { "A29_001": "23234", "A29_002": "愛知県", "A29_003": "北名古屋市", "A29_004": 3, "A29_005": "第一種中高層住居専用地域", "A29_006": 60, "A29_007": 200, "A29_008": null }, "geometry": { "type": "Polygon", "coordinates": [ [ [ 136.899657655, 35.245271052 ], [ 136.899850052, 35.245149656 ], [ 136.900014773, 35.24501021 ], [ 136.89808476499999, 35.245096328 ], [ 136.898062019, 35.244544655 ], [ 136.89746602, 35.244546312 ], [ 136.89745397199999, 35.244151833 ], [ 136.89626569399999, 35.244168222 ], [ 136.896266257, 35.244459524 ], [ 136.895382, 35.24448525 ], [ 136.895783649, 35.244479951 ], [ 136.895790729, 35.245289858 ], [ 136.89628366, 35.245247993 ], [ 136.896282804, 35.246994006 ], [ 136.89641039599999, 35.246924997 ], [ 136.89664255400001, 35.2468 ], [ 136.898631439000013, 35.245736723 ], [ 136.899657655, 35.245271052 ] ] ] } },
{ "type": "Feature", "properties": { "A29_001": "23234", "A29_002": "愛知県", "A29_003": "北名古屋市", "A29_004": 3, "A29_005": "第一種中高層住居専用地域", "A29_006": 60, "A29_007": 200, "A29_008": null }, "geometry": { "type": "Polygon", "coordinates": [ [ [ 136.894807829, 35.244498632 ], [ 136.894756344, 35.243592199 ], [ 136.891952742, 35.243620103 ], [ 136.891943096, 35.243159603 ], [ 136.889457141, 35.243182381 ], [ 136.889451839, 35.24270746 ], [ 136.887977772, 35.242711901 ], [ 136.88798067, 35.242794266 ], [ 136.887754492, 35.242800915 ], [ 136.887753204, 35.242796186 ], [ 136.88771948499999, 35.242382918 ], [ 136.88553535, 35.242410659 ], [ 136.885073565, 35.242487099 ], [ 136.884598583000013, 35.242489861 ], [ 136.88445675, 35.242793917 ], [ 136.88446711099999, 35.243907972 ], [ 136.884039583, 35.243954528 ], [ 136.88397663, 35.24614713 ], [ 136.88404762, 35.250674346 ], [ 136.886541646000012, 35.250429715 ], [ 136.888541694, 35.25009446 ], [ 136.890890761, 35.249718229 ], [ 136.894685278, 35.249637389 ], [ 136.89471162000001, 35.24539217 ], [ 136.894682996, 35.244879958 ], [ 136.894770255, 35.244868229 ], [ 136.894749644, 35.244510426 ], [ 136.894807829, 35.244498632 ] ] ] } },
{ "type": "Feature", "properties": { "A29_001": "23234", "A29_002": "愛知県", "A29_003": "北名古屋市", "A29_004": 3, "A29_005": "第一種中高層住居専用地域", "A29_006": 60, "A29_007": 200, "A29_008": null }, "geometry": { "type": "Polygon", "coordinates": [ [ [ 136.882416833, 35.244986972 ], [ 136.882423807, 35.244048603 ], [ 136.88070913199999, 35.244089124 ], [ 136.876786318, 35.244081034 ], [ 136.875699497, 35.24407332 ], [ 136.87442908599999, 35.244180997 ], [ 136.874394779, 35.243107915 ], [ 136.874376031, 35.242173023 ], [ 136.87354882, 35.242157382 ], [ 136.873556889000014, 35.244197361 ], [ 136.873572782, 35.245991094 ], [ 136.87352509499999, 35.247417585 ], [ 136.873577418999986, 35.249253244 ], [ 136.873981491, 35.251884677 ], [ 136.875770026, 35.251574263 ], [ 136.878029864000013, 35.251387515 ], [ 136.882748944000014, 35.250856135 ], [ 136.882658539, 35.248116066 ], [ 136.882657658999989, 35.247559811 ], [ 136.882628071999989, 35.246088421 ], [ 136.882561278, 35.246073917 ], [ 136.88255967399999, 35.245748421 ], [ 136.882505012, 35.245699474 ], [ 136.882425106999989, 35.245692233 ], [ 136.882416833, 35.244986972 ] ] ] } },
{ "type": "Feature", "properties": { "A29_001": "23234", "A29_002": "愛知県", "A29_003": "北名古屋市", "A29_004": 3, "A29_005": "第一種中高層住居専用地域", "A29_006": 60, "A29_007": 200, "A29_008": null }, "geometry": { "type": "Polygon", "coordinates": [ [ [ 136.86994192899999, 35.250786077 ], [ 136.869855175, 35.250216234 ], [ 136.869905902, 35.249653431 ], [ 136.86997105399999, 35.248733439 ], [ 136.86996073, 35.24868239 ], [ 136.86995767, 35.247044756 ], [ 136.869889973, 35.24650918 ], [ 136.868380917, 35.246541893 ], [ 136.868416048, 35.247920586 ], [ 136.868149863000014, 35.247927633 ], [ 136.86815791699999, 35.248148778 ], [ 136.868214889, 35.248483167 ], [ 136.86826861099999, 35.248749333 ], [ 136.868365735, 35.249102982 ], [ 136.868385768, 35.249281811 ], [ 136.868212527999987, 35.249576389 ], [ 136.868052576999986, 35.249606651 ], [ 136.86809102699999, 35.250016626 ], [ 136.86826111, 35.250009055 ], [ 136.868326209, 35.250388198 ], [ 136.867729187, 35.250365959 ], [ 136.867835455, 35.25106025 ], [ 136.867589391, 35.251064273 ], [ 136.86750332, 35.25248381 ], [ 136.87038616000001, 35.25241275 ], [ 136.870446507, 35.252406073 ], [ 136.87038877099999, 35.252079064 ], [ 136.87013513799999, 35.251412778 ], [ 136.869976893, 35.251001972 ], [ 136.86994192899999, 35.250786077 ] ] ] } },
{ "type": "Feature", "properties": { "A29_001": "23234", "A29_002": "愛知県", "A29_003": "北名古屋市", "A29_004": 3, "A29_005": "第一種中高層住居専用地域", "A29_006": 60, "A29_007": 200, "A29_008": null }, "geometry": { "type": "Polygon", "coordinates": [ [ [ 136.866023657, 35.254646719 ], [ 136.86627449, 35.25046183 ], [ 136.866272611, 35.2492965 ], [ 136.866079222, 35.249292556 ], [ 136.866073938, 35.248721443 ], [ 136.866098808, 35.248219753 ], [ 136.866105760000011, 35.248171086 ], [ 136.865838851, 35.248138039 ], [ 136.865799111, 35.247607389 ], [ 136.866563015, 35.247556061 ], [ 136.86655522699999, 35.247390612 ], [ 136.866542325000012, 35.246805958 ], [ 136.86653279699999, 35.246069397 ], [ 136.866056563, 35.246067799 ], [ 136.866175819, 35.244884108 ], [ 136.866398056, 35.241938111 ], [ 136.864533220999988, 35.241838131 ], [ 136.86445421900001, 35.242773768 ], [ 136.86278895, 35.24267368 ], [ 136.862432195, 35.242726667 ], [ 136.861835727999988, 35.242835195 ], [ 136.861469032, 35.24298784 ], [ 136.861011649, 35.243085313 ], [ 136.86100944399999, 35.243520806 ], [ 136.86100825, 35.244399389 ], [ 136.861731944000013, 35.244377694 ], [ 136.861735528, 35.245428806 ], [ 136.86268494399999, 35.245416 ], [ 136.86279258799999, 35.246307765 ], [ 136.861076915000012, 35.246373713 ], [ 136.861056248000011, 35.246653204 ], [ 136.86111619499999, 35.246657828 ], [ 136.861105748, 35.246948216 ], [ 136.862805611, 35.246959083 ], [ 136.8627414, 35.24923301 ], [ 136.86256228, 35.24923256 ], [ 136.8625328, 35.25247845 ], [ 136.86253652799999, 35.252922472 ], [ 136.86285155600001, 35.252921556 ], [ 136.863981185, 35.252932386 ], [ 136.86392027799999, 35.253496917 ], [ 136.86396249500001, 35.253880541 ], [ 136.86405657899999, 35.254636871 ], [ 136.86454598, 35.254627516 ], [ 136.865348778, 35.25464725 ], [ 136.866023657, 35.254646719 ] ] ] } },
{ "type": "Feature", "properties": { "A29_001": "23234", "A29_002": "愛知県", "A29_003": "北名古屋市", "A29_004": 3, "A29_005": "第一種中高層住居専用地域", "A29_006": 60, "A29_007": 200, "A29_008": null }, "geometry": { "type": "Polygon", "coordinates": [ [ [ 136.901022250000011, 35.24803558 ], [ 136.90089219399999, 35.247057944 ], [ 136.89691499599999, 35.247080815 ], [ 136.89662152299999, 35.247141158 ], [ 136.896256907, 35.247417836 ], [ 136.8957168, 35.248188543 ], [ 136.89558751199999, 35.248506451 ], [ 136.895540831, 35.250829582 ], [ 136.89553212199999, 35.253622455 ], [ 136.895574587, 35.254458464 ], [ 136.895610577000014, 35.254799861 ], [ 136.895599041999986, 35.254901298 ], [ 136.897561110999987, 35.254899147 ], [ 136.89752567799999, 35.252336588 ], [ 136.89868507, 35.25233618 ], [ 136.898661111, 35.249488139 ], [ 136.900602916999986, 35.249483306 ], [ 136.901022250000011, 35.24803558 ] ] ] } },
{ "type": "Feature", "properties": { "A29_001": "23234", "A29_002": "愛知県", "A29_003": "北名古屋市", "A29_004": 3, "A29_005": "第一種中高層住居専用地域", "A29_006": 60, "A29_007": 200, "A29_008": null }, "geometry": { "type": "Polygon", "coordinates": [ [ [ 136.871248914, 35.253755582 ], [ 136.871023253, 35.253221968 ], [ 136.86964752099999, 35.253364093 ], [ 136.869294368, 35.253394073 ], [ 136.867496222, 35.253430861 ], [ 136.86744862, 35.25489906 ], [ 136.871193760000011, 35.254985755 ], [ 136.87123953599999, 35.254336912 ], [ 136.871248914, 35.253755582 ] ] ] } },
{ "type": "Feature", "properties": { "A29_001": "23234", "A29_002": "愛知県", "A29_003": "北名古屋市", "A29_004": 3, "A29_005": "第一種中高層住居専用地域", "A29_006": 60, "A29_007": 200, "A29_008": null }, "geometry": { "type": "Polygon", "coordinates": [ [ [ 136.892242904, 35.255060066 ], [ 136.89385063899999, 35.254908229 ], [ 136.894428191, 35.254832336 ], [ 136.894435786, 35.254616637 ], [ 136.89442225799999, 35.254523113 ], [ 136.894369727, 35.254370837 ], [ 136.89461818, 35.254286128 ], [ 136.894573528, 35.254160028 ], [ 136.89471705, 35.25413031 ], [ 136.894950233, 35.254100235 ], [ 136.894966541, 35.2535696 ], [ 136.89479522900001, 35.253518049 ], [ 136.894860583, 35.253133 ], [ 136.894788839, 35.252364755 ], [ 136.894619212, 35.252391078 ], [ 136.89462644, 35.25184606 ], [ 136.894791865, 35.251458447 ], [ 136.89491684699999, 35.251035383 ], [ 136.894889065, 35.250647751 ], [ 136.89471133, 35.250645 ], [ 136.89471553199999, 35.250373082 ], [ 136.892825695999989, 35.250362858 ], [ 136.890935778999989, 35.250376454 ], [ 136.889146648, 35.250676457 ], [ 136.887081067, 35.251041384 ], [ 136.884066921999988, 35.251395866 ], [ 136.88414276, 35.25181772 ], [ 136.884499174000013, 35.253800243 ], [ 136.884854988, 35.253743174 ], [ 136.884946133, 35.254170658 ], [ 136.884982352, 35.254591766 ], [ 136.88507535799999, 35.254581499 ], [ 136.885428033000011, 35.254542694 ], [ 136.88541945599999, 35.254470709 ], [ 136.88579726899999, 35.254450509 ], [ 136.88644944399999, 35.25437707 ], [ 136.886465694, 35.254435306 ], [ 136.88745168, 35.2543933 ], [ 136.88746017, 35.25444786 ], [ 136.88769985, 35.25444841 ], [ 136.88786168199999, 35.254453792 ], [ 136.887847654000012, 35.254304695 ], [ 136.88796907, 35.25429498 ], [ 136.88895993700001, 35.254271477 ], [ 136.888992892, 35.254586135 ], [ 136.88967016, 35.25435225 ], [ 136.889783556999987, 35.254825504 ], [ 136.890889937999987, 35.254807835 ], [ 136.89089846499999, 35.254955646 ], [ 136.891184831, 35.254923575 ], [ 136.891217861, 35.255087551 ], [ 136.89204507, 35.25504473 ], [ 136.892031678, 35.255184802 ], [ 136.892257121, 35.2551555 ], [ 136.892242904, 35.255060066 ] ] ] } },
{ "type": "Feature", "properties": { "A29_001": "23234", "A29_002": "愛知県", "A29_003": "北名古屋市", "A29_004": 3, "A29_005": "第一種中高層住居専用地域", "A29_006": 60, "A29_007": 200, "A29_008": null }, "geometry": { "type": "Polygon", "coordinates": [ [ [ 136.878407485999986, 35.255174729 ], [ 136.8789693, 35.25514731 ], [ 136.879596026, 35.255165629 ], [ 136.879589619, 35.254921148 ], [ 136.879895099, 35.25487119 ], [ 136.879905761, 35.254939785 ], [ 136.88009012, 35.25490045 ], [ 136.880502108, 35.254860702 ], [ 136.880508780000014, 35.255030652 ], [ 136.880843238000011, 35.254986974 ], [ 136.881091, 35.254981953 ], [ 136.881640045000012, 35.254917659 ], [ 136.8825473, 35.254794578 ], [ 136.882659939, 35.254803787 ], [ 136.883216757000014, 35.254738952 ], [ 136.883208797, 35.254689527 ], [ 136.883399911999987, 35.254664355 ], [ 136.883378663, 35.253874698 ], [ 136.883375139, 35.253783389 ], [ 136.883224361, 35.253788639 ], [ 136.883212001, 35.253723752 ], [ 136.88285065, 35.251556991 ], [ 136.882146361, 35.251626861 ], [ 136.880919889000012, 35.251764917 ], [ 136.87886050099999, 35.251989532 ], [ 136.877476938, 35.252131585 ], [ 136.875975575000012, 35.25222637 ], [ 136.87573197899999, 35.252244492 ], [ 136.874124575, 35.252523021 ], [ 136.874224658, 35.253081222 ], [ 136.874599861, 35.254825333 ], [ 136.87481597199999, 35.255792639 ], [ 136.87618533599999, 35.255599071 ], [ 136.877132972, 35.255459194 ], [ 136.878421454, 35.255335753 ], [ 136.878407485999986, 35.255174729 ] ] ] } },
{ "type": "Feature", "properties": { "A29_001": "23234", "A29_002": "愛知県", "A29_003": "北名古屋市", "A29_004": 3, "A29_005": "第一種中高層住居専用地域", "A29_006": 60, "A29_007": 200, "A29_008": null }, "geometry": { "type": "Polygon", "coordinates": [ [ [ 136.892188194, 35.263357083 ], [ 136.892766222, 35.263307833 ], [ 136.892818, 35.263312333 ], [ 136.892850079, 35.263319097 ], [ 136.892868556, 35.263241583 ], [ 136.891036293000013, 35.262857036 ], [ 136.891029465, 35.26188746 ], [ 136.891043833, 35.261015167 ], [ 136.891652861000011, 35.26102875 ], [ 136.891645167, 35.26003325 ], [ 136.891645167, 35.259127833 ], [ 136.894055963, 35.259102748 ], [ 136.894193188, 35.258218687 ], [ 136.894338162, 35.257256054 ], [ 136.89446758299999, 35.256580722 ], [ 136.894732111, 35.256043417 ], [ 136.894606028, 35.256044139 ], [ 136.89441446399999, 35.256176996 ], [ 136.89434940000001, 35.256069523 ], [ 136.892855532, 35.256081058 ], [ 136.89284903399999, 35.255851484 ], [ 136.892325664, 35.255847317 ], [ 136.89200212599999, 35.255864471 ], [ 136.892016463, 35.255924129 ], [ 136.891613054, 35.255914269 ], [ 136.891621671, 35.256306363 ], [ 136.89101503, 35.256309763 ], [ 136.89099758099999, 35.255722762 ], [ 136.888619111, 35.255731222 ], [ 136.88778737199999, 35.255964009 ], [ 136.887801266, 35.255756155 ], [ 136.887347944, 35.255725 ], [ 136.88717231199999, 35.255226914 ], [ 136.88667147000001, 35.25533863 ], [ 136.885593056, 35.255555694 ], [ 136.88565288, 35.255742566 ], [ 136.885272155, 35.255794687 ], [ 136.88528532399999, 35.255875871 ], [ 136.885317917, 35.256198639 ], [ 136.885487583000014, 35.25617975 ], [ 136.886035642, 35.259391629 ], [ 136.887110541999988, 35.259265606 ], [ 136.887666341, 35.259202841 ], [ 136.888512502999987, 35.259171703 ], [ 136.889260371, 35.259168009 ], [ 136.88926972199999, 35.260967222 ], [ 136.88927234499999, 35.262752773 ], [ 136.888705321, 35.262771329 ], [ 136.888713886, 35.263800317 ], [ 136.889276481, 35.263686491 ], [ 136.889863458, 35.263577273 ], [ 136.890005992, 35.263566575 ], [ 136.890468451, 35.263509922 ], [ 136.890700506, 35.26349661 ], [ 136.890896852, 35.26347917 ], [ 136.891048108, 35.263460679 ], [ 136.891351369, 35.263435485 ], [ 136.891673278000013, 35.263400944 ], [ 136.892188194, 35.263357083 ] ] ] } },
{ "type": "Feature", "properties": { "A29_001": "23234", "A29_002": "愛知県", "A29_003": "北名古屋市", "A29_004": 3, "A29_005": "第一種中高層住居専用地域", "A29_006": 60, "A29_007": 200, "A29_008": null }, "geometry": { "type": "Polygon", "coordinates": [ [ [ 136.883284839999988, 35.264010376 ], [ 136.882984193999988, 35.263003917 ], [ 136.881273885000013, 35.263199995 ], [ 136.881023731999989, 35.261719239 ], [ 136.883089281999986, 35.261413661 ], [ 136.88225022200001, 35.256549306 ], [ 136.883662906000012, 35.256388584 ], [ 136.883549828000014, 35.255842035 ], [ 136.882737271, 35.255948414 ], [ 136.882732817, 35.255792513 ], [ 136.881593844, 35.255915913 ], [ 136.88158147199999, 35.255496944 ], [ 136.881053971999989, 35.255561528 ], [ 136.880577665, 35.255614639 ], [ 136.880611007999988, 35.255934226 ], [ 136.879956572999987, 35.255992304 ], [ 136.879948842, 35.256123462 ], [ 136.87926539099999, 35.256163579 ], [ 136.87925689, 35.25608422 ], [ 136.878960232999987, 35.256121116 ], [ 136.878908716000012, 35.256299871 ], [ 136.877794529999989, 35.25628924 ], [ 136.87781105, 35.25652618 ], [ 136.875650688, 35.256691574 ], [ 136.875032275, 35.256765988 ], [ 136.87496537199999, 35.257505756 ], [ 136.874884255000012, 35.257572192 ], [ 136.874586171, 35.257583398 ], [ 136.87432948, 35.25756979 ], [ 136.874427489999988, 35.25763637 ], [ 136.874620254, 35.25771771 ], [ 136.874583707, 35.257773521 ], [ 136.874657944, 35.257839963 ], [ 136.874612896, 35.257995698 ], [ 136.874719105999986, 35.258043153 ], [ 136.875, 35.25815923 ], [ 136.875061972, 35.258190233 ], [ 136.87515489399999, 35.258260285 ], [ 136.87522536099999, 35.258333333 ], [ 136.875317528000011, 35.258448139 ], [ 136.875787, 35.2594235 ], [ 136.876450817, 35.259319041 ], [ 136.876369813999986, 35.259012166 ], [ 136.878955365, 35.258583084 ], [ 136.879212478, 35.260108621 ], [ 136.87951788, 35.261900931 ], [ 136.88009622199999, 35.263434861 ], [ 136.879515333, 35.263615972 ], [ 136.878664902, 35.263887581 ], [ 136.87917016, 35.264516898 ], [ 136.87941033300001, 35.264909417 ], [ 136.879500694, 35.265098611 ], [ 136.879723278, 35.265474056 ], [ 136.879877556, 35.265674056 ], [ 136.880212527999987, 35.266027194 ], [ 136.880563274, 35.266431489 ], [ 136.88143190400001, 35.265827592 ], [ 136.881552889, 35.265822917 ], [ 136.88218568799999, 35.265447761 ], [ 136.881160754, 35.264887845 ], [ 136.881430521, 35.264666375 ], [ 136.881718455999987, 35.264446438 ], [ 136.88207183, 35.264223673 ], [ 136.882221071, 35.264164398 ], [ 136.88263925699999, 35.264117679 ], [ 136.883284839999988, 35.264010376 ] ] ] } },
{ "type": "Feature", "properties": { "A29_001": "23234", "A29_002": "愛知県", "A29_003": "北名古屋市", "A29_004": 4, "A29_005": "第二種中高層住居専用地域", "A29_006": 60, "A29_007": 200, "A29_008": null }, "geometry": { "type": "Polygon", "coordinates": [ [ [ 136.894730798000012, 35.233282036 ], [ 136.893535, 35.232763444 ], [ 136.893470603999987, 35.234246214 ], [ 136.89601468399999, 35.234225293 ], [ 136.896543486000013, 35.234175573 ], [ 136.896726429000012, 35.234142884 ], [ 136.894730798000012, 35.233282036 ] ] ] } },
{ "type": "Feature", "properties": { "A29_001": "23234", "A29_002": "愛知県", "A29_003": "北名古屋市", "A29_004": 4, "A29_005": "第二種中高層住居専用地域", "A29_006": 60, "A29_007": 200, "A29_008": null }, "geometry": { "type": "Polygon", "coordinates": [ [ [ 136.900352192000014, 35.237109865 ], [ 136.900882816, 35.237081218 ], [ 136.901291875, 35.23700162 ], [ 136.901254056, 35.23680475 ], [ 136.90110585, 35.23654932 ], [ 136.900922675, 35.236299693 ], [ 136.900806318, 35.236323288 ], [ 136.900443728, 35.236361248 ], [ 136.899942186, 35.236368107 ], [ 136.899696067, 35.236367055 ], [ 136.899626933, 35.236395225 ], [ 136.898569444, 35.236424722 ], [ 136.89688238, 35.236426914 ], [ 136.89680200399999, 35.237106474 ], [ 136.897176285, 35.237105817 ], [ 136.898459038, 35.237096741 ], [ 136.89964730299999, 35.237090424 ], [ 136.899723504, 35.237123387 ], [ 136.900352192000014, 35.237109865 ] ] ] } },
{ "type": "Feature", "properties": { "A29_001": "23234", "A29_002": "愛知県", "A29_003": "北名古屋市", "A29_004": 4, "A29_005": "第二種中高層住居専用地域", "A29_006": 60, "A29_007": 200, "A29_008": null }, "geometry": { "type": "Polygon", "coordinates": [ [ [ 136.890935778999989, 35.250376454 ], [ 136.892825695999989, 35.250362858 ], [ 136.89471553199999, 35.250373082 ], [ 136.894685278, 35.249637389 ], [ 136.890890761, 35.249718229 ], [ 136.888541694, 35.25009446 ], [ 136.886541646000012, 35.250429715 ], [ 136.88404762, 35.250674346 ], [ 136.88403207499999, 35.251167874 ], [ 136.884060981, 35.251362055 ], [ 136.884066921999988, 35.251395866 ], [ 136.887081067, 35.251041384 ], [ 136.889146648, 35.250676457 ], [ 136.890935778999989, 35.250376454 ] ] ] } },
{ "type": "Feature", "properties": { "A29_001": "23234", "A29_002": "愛知県", "A29_003": "北名古屋市", "A29_004": 4, "A29_005": "第二種中高層住居専用地域", "A29_006": 60, "A29_007": 200, "A29_008": null }, "geometry": { "type": "Polygon", "coordinates": [ [ [ 136.882756064, 35.251091031 ], [ 136.882748944000014, 35.250856135 ], [ 136.878029864000013, 35.251387515 ], [ 136.875770026, 35.251574263 ], [ 136.873981491, 35.251884677 ], [ 136.874124575, 35.252523021 ], [ 136.87573197899999, 35.252244492 ], [ 136.875975575000012, 35.25222637 ], [ 136.877476938, 35.252131585 ], [ 136.87886050099999, 35.251989532 ], [ 136.880919889000012, 35.251764917 ], [ 136.882146361, 35.251626861 ], [ 136.88285065, 35.251556991 ], [ 136.882756064, 35.251091031 ] ] ] } },
{ "type": "Feature", "properties": { "A29_001": "23234", "A29_002": "愛知県", "A29_003": "北名古屋市", "A29_004": 5, "A29_005": "第一種住居地域", "A29_006": 60, "A29_007": 200, "A29_008": null }, "geometry": { "type": "Polygon", "coordinates": [ [ [ 136.862796032, 35.232924508 ], [ 136.86242801, 35.232893555 ], [ 136.862410159, 35.234214766 ], [ 136.862817594, 35.23421235 ], [ 136.862816888999987, 35.23418263 ], [ 136.86281258599999, 35.233913224 ], [ 136.862796032, 35.232924508 ] ] ] } },
{ "type": "Feature", "properties": { "A29_001": "23234", "A29_002": "愛知県", "A29_003": "北名古屋市", "A29_004": 5, "A29_005": "第一種住居地域", "A29_006": 60, "A29_007": 200, "A29_008": null }, "geometry": { "type": "Polygon", "coordinates": [ [ [ 136.86748036899999, 35.234806565 ], [ 136.867701186, 35.230587999 ], [ 136.8673105, 35.230607463 ], [ 136.86730401, 35.23079301 ], [ 136.867149833000013, 35.232574889 ], [ 136.86614037699999, 35.232443347 ], [ 136.865347117999988, 35.232336956 ], [ 136.86523896700001, 35.231855351 ], [ 136.864028031, 35.232031197 ], [ 136.863942966, 35.231987129 ], [ 136.86287301199999, 35.23200411 ], [ 136.862657254999988, 35.23200804 ], [ 136.862796032, 35.232924508 ], [ 136.864073072999986, 35.232816425 ], [ 136.86409694, 35.233145865 ], [ 136.86546209799999, 35.23309539 ], [ 136.865408511, 35.234337734 ], [ 136.864092305000014, 35.234265873 ], [ 136.863989972000013, 35.235495694 ], [ 136.866902388999989, 35.235654722 ], [ 136.866702556, 35.238165472 ], [ 136.866515472, 35.240575333 ], [ 136.86720271199999, 35.240615344 ], [ 136.867234276, 35.240182414 ], [ 136.867334704, 35.238861684 ], [ 136.867321618, 35.238354093 ], [ 136.867333503, 35.236556875 ], [ 136.86748036899999, 35.234806565 ] ] ] } },
{ "type": "Feature", "properties": { "A29_001": "23234", "A29_002": "愛知県", "A29_003": "北名古屋市", "A29_004": 5, "A29_005": "第一種住居地域", "A29_006": 60, "A29_007": 200, "A29_008": null }, "geometry": { "type": "Polygon", "coordinates": [ [ [ 136.872428727, 35.240808392 ], [ 136.872425935, 35.240609549 ], [ 136.874388376000013, 35.240589306 ], [ 136.87439061399999, 35.235473562 ], [ 136.8733468, 35.235492995 ], [ 136.87244358800001, 35.235485313 ], [ 136.871460049, 35.235488408 ], [ 136.870887266000011, 35.235576306 ], [ 136.870942703999987, 35.235227172 ], [ 136.87103058299999, 35.234718194 ], [ 136.871158333000011, 35.234208944 ], [ 136.871313278, 35.233696333 ], [ 136.871452167, 35.233333333 ], [ 136.87151533299999, 35.233168222 ], [ 136.87166133299999, 35.232828306 ], [ 136.871779124, 35.232591321 ], [ 136.871852649, 35.232455098 ], [ 136.871882113, 35.232372617 ], [ 136.872192444, 35.231816139 ], [ 136.872255722, 35.231720639 ], [ 136.87231640600001, 35.231612845 ], [ 136.87288855599999, 35.230638667 ], [ 136.873484222, 35.229633806 ], [ 136.876196518, 35.22960703 ], [ 136.876177203, 35.228687861 ], [ 136.878114, 35.228673694 ], [ 136.878105639000012, 35.227159498 ], [ 136.878077615, 35.226957296 ], [ 136.877791401, 35.226623091 ], [ 136.876918417000013, 35.226318196 ], [ 136.87682926299999, 35.226268896 ], [ 136.876247568, 35.226075318 ], [ 136.876017432999987, 35.225992649 ], [ 136.875415972000013, 35.225763902 ], [ 136.87514718, 35.225641151 ], [ 136.874818471, 35.22545158 ], [ 136.874747421, 35.225515418 ], [ 136.873774072, 35.226317816 ], [ 136.873890929999988, 35.226366351 ], [ 136.87391265799999, 35.22641819 ], [ 136.874020582000014, 35.226420335 ], [ 136.874093808, 35.226421791 ], [ 136.87413824, 35.226469827 ], [ 136.87417444, 35.226508964 ], [ 136.874233886000013, 35.226694072 ], [ 136.874111078999988, 35.226865658 ], [ 136.87440098, 35.226986931 ], [ 136.874199632999989, 35.227359417 ], [ 136.873858223000013, 35.227195166 ], [ 136.873838639000013, 35.22727348 ], [ 136.87374114799999, 35.22726819 ], [ 136.87370790599999, 35.227378442 ], [ 136.873673586, 35.227503008 ], [ 136.873468742999989, 35.227950577 ], [ 136.873355876, 35.228509543 ], [ 136.873280462999986, 35.22892879 ], [ 136.873218699, 35.229262184 ], [ 136.873184586, 35.229445998 ], [ 136.873115847, 35.229605541 ], [ 136.872988969, 35.230063405 ], [ 136.872824955999988, 35.230002367 ], [ 136.87274439399999, 35.230140297 ], [ 136.872590639, 35.230080967 ], [ 136.872522559, 35.230173447 ], [ 136.87237206, 35.230281163 ], [ 136.8722177, 35.230415278 ], [ 136.872146828000012, 35.230588023 ], [ 136.87207577699999, 35.230810172 ], [ 136.87199820399999, 35.230985645 ], [ 136.871887269000013, 35.231136334 ], [ 136.871823613, 35.231163626 ], [ 136.871659720999986, 35.231157737 ], [ 136.871405442, 35.231170841 ], [ 136.871318459, 35.231173374 ], [ 136.871101885, 35.231166669 ], [ 136.871044936, 35.231227965 ], [ 136.870987973000013, 35.231900292 ], [ 136.868978242, 35.231788563 ], [ 136.868978349, 35.231787286 ], [ 136.869014556, 35.231355088 ], [ 136.869063331, 35.230693549 ], [ 136.86879341, 35.230678284 ], [ 136.868640884, 35.230757594 ], [ 136.868637799, 35.23088667 ], [ 136.868438188, 35.233507671 ], [ 136.868411385, 35.234401734 ], [ 136.868333217000014, 35.237009119 ], [ 136.86810523299999, 35.240235284 ], [ 136.868100733, 35.240508314 ], [ 136.868100701, 35.240510314 ], [ 136.86809822399999, 35.240663401 ], [ 136.869075944, 35.240712842 ], [ 136.869065847, 35.240637283 ], [ 136.87000482, 35.2406812 ], [ 136.870489850000013, 35.24064255 ], [ 136.870572028999987, 35.24065363 ], [ 136.87061864899999, 35.240912514 ], [ 136.87124688899999, 35.240892694 ], [ 136.871243693999986, 35.240837361 ], [ 136.872428727, 35.240808392 ] ] ] } },
{ "type": "Feature", "properties": { "A29_001": "23234", "A29_002": "愛知県", "A29_003": "北名古屋市", "A29_004": 5, "A29_005": "第一種住居地域", "A29_006": 60, "A29_007": 200, "A29_008": null }, "geometry": { "type": "Polygon", "coordinates": [ [ [ 136.857939499999986, 35.240620917 ], [ 136.858214661, 35.240585042 ], [ 136.85836354, 35.24062128 ], [ 136.858498102999988, 35.240653494 ], [ 136.860085043, 35.240590721 ], [ 136.861534041, 35.240524696 ], [ 136.862000083, 35.240520583 ], [ 136.862319687, 35.240423612 ], [ 136.862488893, 35.240427559 ], [ 136.862502213999988, 35.24054083 ], [ 136.863755391000012, 35.240479913 ], [ 136.863767134999989, 35.240427975 ], [ 136.863846026, 35.240002865 ], [ 136.863044667, 35.240052472 ], [ 136.861500691, 35.240002845 ], [ 136.86002795600001, 35.240023478 ], [ 136.859448160999989, 35.240102615 ], [ 136.858980556, 35.240115083 ], [ 136.858541811, 35.240057999 ], [ 136.85857285099999, 35.23982454 ], [ 136.857340877000013, 35.239735004 ], [ 136.85718445099999, 35.239716646 ], [ 136.85717521399999, 35.239489869 ], [ 136.857204977, 35.239380358 ], [ 136.857212592, 35.239047707 ], [ 136.857206010999988, 35.238996403 ], [ 136.857227039, 35.238003311 ], [ 136.857991994, 35.237963439 ], [ 136.857977556, 35.237725444 ], [ 136.858024472000011, 35.237670472 ], [ 136.857998345, 35.237352942 ], [ 136.857908686, 35.236548614 ], [ 136.85676325099999, 35.236474373 ], [ 136.856680942, 35.236979472 ], [ 136.856669227, 35.23739248 ], [ 136.856651086, 35.238031965 ], [ 136.85527894399999, 35.237998611 ], [ 136.855260302, 35.238488745 ], [ 136.855242806, 35.238973417 ], [ 136.85516863699999, 35.240898786 ], [ 136.856283617, 35.240920078 ], [ 136.856578979, 35.240931349 ], [ 136.85658213100001, 35.240780722 ], [ 136.85736712100001, 35.240764843 ], [ 136.857359916, 35.240706391 ], [ 136.857939499999986, 35.240620917 ] ] ] } },
{ "type": "Feature", "properties": { "A29_001": "23234", "A29_002": "愛知県", "A29_003": "北名古屋市", "A29_004": 5, "A29_005": "第一種住居地域", "A29_006": 60, "A29_007": 200, "A29_008": null }, "geometry": { "type": "Polygon", "coordinates": [ [ [ 136.896342377, 35.243115762 ], [ 136.89630924299999, 35.242149745 ], [ 136.896347205000012, 35.241660896 ], [ 136.896518915, 35.241660558 ], [ 136.89651831399999, 35.241276588 ], [ 136.896515849999986, 35.241214076 ], [ 136.896515126999986, 35.23924045 ], [ 136.89680200399999, 35.237106474 ], [ 136.89688238, 35.236426914 ], [ 136.89714010899999, 35.234310759 ], [ 136.896726429000012, 35.234142884 ], [ 136.896543486000013, 35.234175573 ], [ 136.89601468399999, 35.234225293 ], [ 136.896307565, 35.235049509 ], [ 136.89631346199999, 35.23514839 ], [ 136.896477432000012, 35.235559432 ], [ 136.896413048, 35.236257325 ], [ 136.895667083, 35.236274583 ], [ 136.895738972, 35.236483583 ], [ 136.89576994399999, 35.236778583 ], [ 136.89577662, 35.23778609 ], [ 136.89583860799999, 35.237787041 ], [ 136.895829735, 35.238269993 ], [ 136.895753455, 35.238260879 ], [ 136.895737512000011, 35.238684189 ], [ 136.89574408499999, 35.238892895 ], [ 136.89567143799999, 35.238883788 ], [ 136.89566814599999, 35.239873575 ], [ 136.89538871, 35.239874808 ], [ 136.895397373, 35.240433454 ], [ 136.895230214, 35.240433079 ], [ 136.895249795000012, 35.24110019 ], [ 136.894791878, 35.241111833 ], [ 136.894789967, 35.24168424 ], [ 136.894940794, 35.241679361 ], [ 136.894951916999986, 35.242157886 ], [ 136.894757860999988, 35.242156528 ], [ 136.89476969399999, 35.24264256 ], [ 136.895669639, 35.242638167 ], [ 136.8955915, 35.243122806 ], [ 136.896342377, 35.243115762 ] ] ] } },
{ "type": "Feature", "properties": { "A29_001": "23234", "A29_002": "愛知県", "A29_003": "北名古屋市", "A29_004": 5, "A29_005": "第一種住居地域", "A29_006": 60, "A29_007": 200, "A29_008": null }, "geometry": { "type": "Polygon", "coordinates": [ [ [ 136.873556889000014, 35.244197361 ], [ 136.87354882, 35.242157382 ], [ 136.874376031, 35.242173023 ], [ 136.874442767, 35.242174351 ], [ 136.874439109, 35.241582102 ], [ 136.872421083, 35.241591972 ], [ 136.872425025000013, 35.241407883 ], [ 136.872137525999989, 35.241432528 ], [ 136.87127313900001, 35.241505722 ], [ 136.870752985, 35.241530857 ], [ 136.87078874, 35.241746315 ], [ 136.870028287, 35.24175787 ], [ 136.869343390000012, 35.24175895 ], [ 136.869329056, 35.241675389 ], [ 136.86924718, 35.24162477 ], [ 136.86843846299999, 35.241599251 ], [ 136.868010252, 35.241570628 ], [ 136.867777, 35.244078833 ], [ 136.869789739999987, 35.24410324 ], [ 136.86987870199999, 35.24402638 ], [ 136.86988817, 35.2440182 ], [ 136.869933755, 35.24330277 ], [ 136.8698855, 35.24318185 ], [ 136.869854221999987, 35.243046722 ], [ 136.869791545999988, 35.242144476 ], [ 136.870482904, 35.242128801 ], [ 136.870673492, 35.242050436 ], [ 136.87101006, 35.24326005 ], [ 136.871159260000013, 35.244157812 ], [ 136.871983187000012, 35.244162611 ], [ 136.873556889000014, 35.244197361 ] ] ] } },
{ "type": "Feature", "properties": { "A29_001": "23234", "A29_002": "愛知県", "A29_003": "北名古屋市", "A29_004": 5, "A29_005": "第一種住居地域", "A29_006": 60, "A29_007": 200, "A29_008": null }, "geometry": { "type": "Polygon", "coordinates": [ [ [ 136.86669785399999, 35.246060253 ], [ 136.86703065, 35.241515106 ], [ 136.863621569, 35.241336343 ], [ 136.863586556, 35.241787222 ], [ 136.862638002000011, 35.241736641 ], [ 136.861753505, 35.241780975 ], [ 136.860887518, 35.2418158 ], [ 136.86095847199999, 35.242278833 ], [ 136.861011649, 35.243085313 ], [ 136.861469032, 35.24298784 ], [ 136.861835727999988, 35.242835195 ], [ 136.862432195, 35.242726667 ], [ 136.86278895, 35.24267368 ], [ 136.86445421900001, 35.242773768 ], [ 136.864533220999988, 35.241838131 ], [ 136.866398056, 35.241938111 ], [ 136.866175819, 35.244884108 ], [ 136.866056563, 35.246067799 ], [ 136.86653279699999, 35.246069397 ], [ 136.86669785399999, 35.246060253 ] ] ] } },
{ "type": "Feature", "properties": { "A29_001": "23234", "A29_002": "愛知県", "A29_003": "北名古屋市", "A29_004": 5, "A29_005": "第一種住居地域", "A29_006": 60, "A29_007": 200, "A29_008": null }, "geometry": { "type": "Polygon", "coordinates": [ [ [ 136.843963556, 35.247389 ], [ 136.844072194, 35.246977972 ], [ 136.843967107999987, 35.246470296 ], [ 136.844218, 35.246460472 ], [ 136.844326583, 35.246087944 ], [ 136.844574346, 35.245157312 ], [ 136.84486455199999, 35.243979042 ], [ 136.845291814, 35.243971693 ], [ 136.84551180599999, 35.243469278 ], [ 136.84539190699999, 35.243300014 ], [ 136.845036182, 35.242746905 ], [ 136.845299, 35.242808278 ], [ 136.845650417, 35.241956694 ], [ 136.844154083, 35.241394472 ], [ 136.84278913899999, 35.240898806 ], [ 136.842760528000014, 35.240881591 ], [ 136.84226535900001, 35.242456525 ], [ 136.842015194, 35.246114971 ], [ 136.840734016999988, 35.246181257 ], [ 136.840136389, 35.246200661 ], [ 136.84001236099999, 35.246208056 ], [ 136.840011010000012, 35.24627701 ], [ 136.84001201, 35.24632601 ], [ 136.84003001, 35.24681101 ], [ 136.840059595000014, 35.247127284 ], [ 136.840043192, 35.247331228 ], [ 136.84017371600001, 35.247321973 ], [ 136.840336008, 35.247316922 ], [ 136.840449787000011, 35.247311739 ], [ 136.84068562600001, 35.247321981 ], [ 136.840688083, 35.247424778 ], [ 136.840673556000013, 35.247710667 ], [ 136.840852934999987, 35.247735509 ], [ 136.841424698999987, 35.247828995 ], [ 136.841457474, 35.247833281 ], [ 136.841440580000011, 35.247900936 ], [ 136.841874722, 35.247963249 ], [ 136.841955278, 35.247837722 ], [ 136.842533035, 35.247822019 ], [ 136.843366156, 35.24782013 ], [ 136.843875222, 35.247820694 ], [ 136.843963556, 35.247389 ] ] ] } },
{ "type": "Feature", "properties": { "A29_001": "23234", "A29_002": "愛知県", "A29_003": "北名古屋市", "A29_004": 5, "A29_005": "第一種住居地域", "A29_006": 60, "A29_007": 200, "A29_008": null }, "geometry": { "type": "Polygon", "coordinates": [ [ [ 136.866623194, 35.247742528 ], [ 136.866563015, 35.247556061 ], [ 136.865799111, 35.247607389 ], [ 136.865838851, 35.248138039 ], [ 136.866105760000011, 35.248171086 ], [ 136.866098808, 35.248219753 ], [ 136.866073938, 35.248721443 ], [ 136.866079222, 35.249292556 ], [ 136.866272611, 35.2492965 ], [ 136.86648475199999, 35.249263699 ], [ 136.866520396, 35.248670931 ], [ 136.86656216899999, 35.248202653 ], [ 136.866623194, 35.247742528 ] ] ] } },
{ "type": "Feature", "properties": { "A29_001": "23234", "A29_002": "愛知県", "A29_003": "北名古屋市", "A29_004": 5, "A29_005": "第一種住居地域", "A29_006": 60, "A29_007": 200, "A29_008": null }, "geometry": { "type": "Polygon", "coordinates": [ [ [ 136.867835455, 35.25106025 ], [ 136.867729187, 35.250365959 ], [ 136.868326208000013, 35.250388198 ], [ 136.86826111, 35.250009055 ], [ 136.86809102699999, 35.250016626 ], [ 136.868052576999986, 35.249606651 ], [ 136.868212527999987, 35.249576389 ], [ 136.868385768, 35.249281811 ], [ 136.868365735, 35.249102982 ], [ 136.86826861099999, 35.248749333 ], [ 136.868214889, 35.248483167 ], [ 136.86815791699999, 35.248148778 ], [ 136.868149863000014, 35.247927633 ], [ 136.868416048, 35.247920586 ], [ 136.868380917, 35.246541893 ], [ 136.869889973, 35.24650918 ], [ 136.86997391700001, 35.244950667 ], [ 136.869506121, 35.244929651 ], [ 136.86837576100001, 35.245035132 ], [ 136.867684166, 35.245023544 ], [ 136.86737481099999, 35.250374697 ], [ 136.867341388, 35.251060858 ], [ 136.867589392000014, 35.251064272 ], [ 136.867835455, 35.25106025 ] ] ] } },
{ "type": "Feature", "properties": { "A29_001": "23234", "A29_002": "愛知県", "A29_003": "北名古屋市", "A29_004": 5, "A29_005": "第一種住居地域", "A29_006": 60, "A29_007": 200, "A29_008": null }, "geometry": { "type": "Polygon", "coordinates": [ [ [ 136.847770064, 35.243807307 ], [ 136.846799471999987, 35.243606389 ], [ 136.84634519299999, 35.244951944 ], [ 136.84621594, 35.245489564 ], [ 136.845805278, 35.2469174 ], [ 136.84580378699999, 35.246922581 ], [ 136.845520166999989, 35.246933278 ], [ 136.845129371000013, 35.249101458 ], [ 136.84508761699999, 35.249507563 ], [ 136.845066306, 35.252170472 ], [ 136.84482404, 35.253162389 ], [ 136.84470697899999, 35.253687763 ], [ 136.844570569000012, 35.254231513 ], [ 136.844427773, 35.254761965 ], [ 136.847367983, 35.254788924 ], [ 136.84736966, 35.25477311 ], [ 136.847363832000013, 35.25426 ], [ 136.847384147000014, 35.25318841 ], [ 136.847400321, 35.251845862 ], [ 136.84760439499999, 35.251844821 ], [ 136.847585688, 35.251745589 ], [ 136.847606783, 35.250190923 ], [ 136.847616273, 35.249724226 ], [ 136.84761646699999, 35.249214973 ], [ 136.847620941, 35.248640694 ], [ 136.84763116799999, 35.247862459 ], [ 136.847635340000011, 35.247477685 ], [ 136.84772933799999, 35.245135256 ], [ 136.847754521000013, 35.244690922 ], [ 136.847768718999987, 35.24424687 ], [ 136.847771838999989, 35.244003855 ], [ 136.847770064, 35.243807307 ] ] ] } },
{ "type": "Feature", "properties": { "A29_001": "23234", "A29_002": "愛知県", "A29_003": "北名古屋市", "A29_004": 5, "A29_005": "第一種住居地域", "A29_006": 60, "A29_007": 200, "A29_008": null }, "geometry": { "type": "Polygon", "coordinates": [ [ [ 136.891621671, 35.256306363 ], [ 136.891613054, 35.255914269 ], [ 136.892016463, 35.255924129 ], [ 136.89200212599999, 35.255864471 ], [ 136.892325664, 35.255847317 ], [ 136.89284903399999, 35.255851484 ], [ 136.892855532, 35.256081058 ], [ 136.89434940000001, 35.256069523 ], [ 136.89441446399999, 35.256176996 ], [ 136.894606028, 35.256044139 ], [ 136.894732111, 35.256043417 ], [ 136.895072167, 35.255388333 ], [ 136.897552555, 35.255365722 ], [ 136.897561110999987, 35.254899147 ], [ 136.895599041999986, 35.254901298 ], [ 136.895610577000014, 35.254799861 ], [ 136.895574587, 35.254458464 ], [ 136.89553212199999, 35.253622455 ], [ 136.895540831, 35.250829582 ], [ 136.89558751199999, 35.248506451 ], [ 136.8957168, 35.248188543 ], [ 136.896256907, 35.247417836 ], [ 136.89662152299999, 35.247141158 ], [ 136.89641039599999, 35.246924997 ], [ 136.896282804, 35.246994006 ], [ 136.89628366, 35.245247993 ], [ 136.895790729, 35.245289858 ], [ 136.895783649, 35.244479951 ], [ 136.895382, 35.24448525 ], [ 136.895519995, 35.243582294 ], [ 136.891952742, 35.243620103 ], [ 136.894756344, 35.243592199 ], [ 136.894807829, 35.244498632 ], [ 136.894749644, 35.244510426 ], [ 136.894770255, 35.244868229 ], [ 136.894682996, 35.244879958 ], [ 136.89471162000001, 35.24539217 ], [ 136.894685278, 35.249637389 ], [ 136.89471553199999, 35.250373082 ], [ 136.89471133, 35.250645 ], [ 136.894889065, 35.250647751 ], [ 136.89491684699999, 35.251035383 ], [ 136.894791865, 35.251458447 ], [ 136.89462644, 35.25184606 ], [ 136.894619212, 35.252391078 ], [ 136.894788839, 35.252364755 ], [ 136.894860583, 35.253133 ], [ 136.89479522900001, 35.253518049 ], [ 136.894966541, 35.2535696 ], [ 136.894950233, 35.254100235 ], [ 136.89471705, 35.25413031 ], [ 136.894573528, 35.254160028 ], [ 136.89461818, 35.254286128 ], [ 136.894369727, 35.254370837 ], [ 136.89442225799999, 35.254523113 ], [ 136.894435786, 35.254616637 ], [ 136.894428191, 35.254832336 ], [ 136.89385063899999, 35.254908229 ], [ 136.892242904, 35.255060066 ], [ 136.892257121, 35.2551555 ], [ 136.892031678, 35.255184802 ], [ 136.89204507, 35.25504473 ], [ 136.891217861, 35.255087551 ], [ 136.891184831, 35.254923575 ], [ 136.89089846499999, 35.254955646 ], [ 136.890889937999987, 35.254807835 ], [ 136.889783556999987, 35.254825504 ], [ 136.88967016, 35.25435225 ], [ 136.888992892, 35.254586135 ], [ 136.88895993700001, 35.254271477 ], [ 136.88796907, 35.25429498 ], [ 136.887847654000012, 35.254304695 ], [ 136.88786168199999, 35.254453792 ], [ 136.88769985, 35.25444841 ], [ 136.88746017, 35.25444786 ], [ 136.88745168, 35.2543933 ], [ 136.886465694, 35.254435306 ], [ 136.88644944399999, 35.25437707 ], [ 136.88579726899999, 35.254450509 ], [ 136.88541945599999, 35.254470709 ], [ 136.885428033000011, 35.254542694 ], [ 136.88507535799999, 35.254581499 ], [ 136.885272155, 35.255794687 ], [ 136.88565288, 35.255742566 ], [ 136.885593056, 35.255555694 ], [ 136.88667147000001, 35.25533863 ], [ 136.88717231199999, 35.255226914 ], [ 136.887347944, 35.255725 ], [ 136.887801266, 35.255756155 ], [ 136.88778737199999, 35.255964009 ], [ 136.888619111, 35.255731222 ], [ 136.89099758099999, 35.255722762 ], [ 136.89101503, 35.256309763 ], [ 136.891621671, 35.256306363 ] ] ] } },
{ "type": "Feature", "properties": { "A29_001": "23234", "A29_002": "愛知県", "A29_003": "北名古屋市", "A29_004": 5, "A29_005": "第一種住居地域", "A29_006": 60, "A29_007": 200, "A29_008": null }, "geometry": { "type": "Polygon", "coordinates": [ [ [ 136.874427489999988, 35.25763637 ], [ 136.87432948, 35.25756979 ], [ 136.874586171, 35.257583398 ], [ 136.874884255000012, 35.257572192 ], [ 136.87496537199999, 35.257505756 ], [ 136.875032275, 35.256765988 ], [ 136.875650688, 35.256691574 ], [ 136.87781105, 35.25652618 ], [ 136.877794529999989, 35.25628924 ], [ 136.878908716000012, 35.256299871 ], [ 136.878960232999987, 35.256121116 ], [ 136.87925689, 35.25608422 ], [ 136.87926539099999, 35.256163579 ], [ 136.879948842, 35.256123462 ], [ 136.879956572999987, 35.255992304 ], [ 136.880611007999988, 35.255934226 ], [ 136.880577665, 35.255614639 ], [ 136.881053971999989, 35.255561528 ], [ 136.88158147199999, 35.255496944 ], [ 136.881593844, 35.255915913 ], [ 136.882732817, 35.255792513 ], [ 136.882737271, 35.255948414 ], [ 136.883549828000014, 35.255842035 ], [ 136.883473111, 35.255276278 ], [ 136.883315278, 35.255295833 ], [ 136.883216757000014, 35.254738952 ], [ 136.882659939, 35.254803787 ], [ 136.8825473, 35.254794578 ], [ 136.881640045000012, 35.254917659 ], [ 136.881091, 35.254981953 ], [ 136.880843238000011, 35.254986974 ], [ 136.880508780000014, 35.255030652 ], [ 136.880502108, 35.254860702 ], [ 136.88009012, 35.25490045 ], [ 136.879905761, 35.254939785 ], [ 136.879895099, 35.25487119 ], [ 136.879589619, 35.254921148 ], [ 136.879596026, 35.255165629 ], [ 136.8789693, 35.25514731 ], [ 136.878407485999986, 35.255174729 ], [ 136.878421454, 35.255335753 ], [ 136.877132972, 35.255459194 ], [ 136.87618533599999, 35.255599071 ], [ 136.87481597199999, 35.255792639 ], [ 136.874599861, 35.254825333 ], [ 136.874224658, 35.253081222 ], [ 136.874124575, 35.252523021 ], [ 136.873981491, 35.251884677 ], [ 136.873577418999986, 35.249253244 ], [ 136.87352509499999, 35.247417585 ], [ 136.873572782, 35.245991094 ], [ 136.871478395999986, 35.245978095 ], [ 136.871631138999987, 35.247084556 ], [ 136.871170806, 35.247104028 ], [ 136.871166042, 35.247011819 ], [ 136.86995767, 35.247044756 ], [ 136.86996073, 35.24868239 ], [ 136.86997105399999, 35.248733439 ], [ 136.869905902, 35.249653431 ], [ 136.869855175, 35.250216234 ], [ 136.86994192899999, 35.250786077 ], [ 136.869976893, 35.251001972 ], [ 136.87013513799999, 35.251412778 ], [ 136.87038877099999, 35.252079064 ], [ 136.870446507, 35.252406073 ], [ 136.87038616000001, 35.25241275 ], [ 136.86750332, 35.25248381 ], [ 136.867496222, 35.253430861 ], [ 136.869294368, 35.253394073 ], [ 136.86964752099999, 35.253364093 ], [ 136.871023253, 35.253221968 ], [ 136.871248914, 35.253755582 ], [ 136.87123953599999, 35.254336912 ], [ 136.871193760000011, 35.254985755 ], [ 136.86744862, 35.25489906 ], [ 136.867396848, 35.25628432 ], [ 136.867152447, 35.256289283 ], [ 136.866963610999989, 35.261711066 ], [ 136.8671957, 35.2616659 ], [ 136.867651443999989, 35.261574396 ], [ 136.868029831, 35.261437206 ], [ 136.868350959999987, 35.261232495 ], [ 136.868492010000011, 35.26108801 ], [ 136.86868401000001, 35.26096001 ], [ 136.86891401, 35.26069001 ], [ 136.86922601, 35.26028401 ], [ 136.86955101, 35.25990101 ], [ 136.87002843499999, 35.259534003 ], [ 136.8703563, 35.259332079 ], [ 136.870604112, 35.259153807 ], [ 136.87093907, 35.258999599 ], [ 136.87112201, 35.25890701 ], [ 136.871565538999988, 35.258643373 ], [ 136.87183496, 35.258518815 ], [ 136.872096809, 35.258477715 ], [ 136.87243888, 35.258365258 ], [ 136.872962640999987, 35.258265166 ], [ 136.87350061699999, 35.258254546 ], [ 136.873755217, 35.258207462 ], [ 136.874053347, 35.258184332 ], [ 136.87451142399999, 35.258155626 ], [ 136.87462087099999, 35.258042601 ], [ 136.874612896, 35.257995698 ], [ 136.874657944, 35.257839963 ], [ 136.874583707, 35.257773521 ], [ 136.874620254, 35.25771771 ], [ 136.874427489999988, 35.25763637 ] ] ] } },
{ "type": "Feature", "properties": { "A29_001": "23234", "A29_002": "愛知県", "A29_003": "北名古屋市", "A29_004": 5, "A29_005": "第一種住居地域", "A29_006": 60, "A29_007": 200, "A29_008": null }, "geometry": { "type": "Polygon", "coordinates": [ [ [ 136.860622721, 35.264819592 ], [ 136.860477221999986, 35.264103278 ], [ 136.860211240000012, 35.26417993 ], [ 136.859872389, 35.262687083 ], [ 136.859083333, 35.262809167 ], [ 136.858938082, 35.262182874 ], [ 136.861222153999989, 35.261841726 ], [ 136.861398662999989, 35.262737069 ], [ 136.862008083, 35.262622722 ], [ 136.862035217, 35.263092989 ], [ 136.862190602, 35.263767273 ], [ 136.862240947, 35.264040407 ], [ 136.86290470099999, 35.26393764 ], [ 136.863176036, 35.263874312 ], [ 136.863313782, 35.263835915 ], [ 136.863457783, 35.263772267 ], [ 136.86361006199999, 35.263691795 ], [ 136.86383601, 35.26354101 ], [ 136.864066009999988, 35.26332901 ], [ 136.86418301, 35.26322101 ], [ 136.86441785299999, 35.262961082 ], [ 136.864644500999987, 35.262762884 ], [ 136.86494701, 35.26258901 ], [ 136.86541001, 35.26230401 ], [ 136.865471359, 35.262239521 ], [ 136.865459187999988, 35.262090426 ], [ 136.8652981, 35.261911148 ], [ 136.865119987000014, 35.261912195 ], [ 136.8645199, 35.262001627 ], [ 136.86438560900001, 35.261947629 ], [ 136.864253440999988, 35.261811649 ], [ 136.864186751, 35.261662418 ], [ 136.864223659, 35.261511955 ], [ 136.864434346, 35.261548257 ], [ 136.86448633399999, 35.261251748 ], [ 136.86438124, 35.261166519 ], [ 136.864554303, 35.261056643 ], [ 136.86497230099999, 35.261059177 ], [ 136.865284712, 35.261109147 ], [ 136.865941604999989, 35.261383569 ], [ 136.866055870999986, 35.26144646 ], [ 136.866078034, 35.260757046 ], [ 136.866091388, 35.260395872 ], [ 136.86607563699999, 35.259732968 ], [ 136.86606901, 35.259112526 ], [ 136.866069278, 35.258552361 ], [ 136.866000917, 35.258380861 ], [ 136.866023657, 35.254646719 ], [ 136.865348778, 35.25464725 ], [ 136.865336883, 35.256106137 ], [ 136.865313859999986, 35.25689765 ], [ 136.865305017, 35.259305709 ], [ 136.864347048000013, 35.259540034 ], [ 136.863174783, 35.259822549 ], [ 136.860890493, 35.260379462 ], [ 136.860719163999988, 35.260440292 ], [ 136.856221355, 35.261560237 ], [ 136.856324859000011, 35.262131175 ], [ 136.85520600800001, 35.262312327 ], [ 136.854147914, 35.262474281 ], [ 136.85236161099999, 35.262582306 ], [ 136.852227392, 35.261053534 ], [ 136.851643376, 35.260922888 ], [ 136.851822722, 35.263105167 ], [ 136.85316862799999, 35.263026177 ], [ 136.853296333, 35.263026444 ], [ 136.854024806000012, 35.262936694 ], [ 136.857980333, 35.262326528 ], [ 136.85805083299999, 35.262619361 ], [ 136.85823263899999, 35.263490028 ], [ 136.858200234, 35.264286209 ], [ 136.85856901, 35.26434001 ], [ 136.858754010000013, 35.26440901 ], [ 136.859148010000013, 35.26456101 ], [ 136.85957051599999, 35.264722597 ], [ 136.859771582, 35.264777009 ], [ 136.86010411, 35.264826701 ], [ 136.86026014699999, 35.264840572 ], [ 136.86049842599999, 35.264830226 ], [ 136.860622721, 35.264819592 ] ] ] } },
{ "type": "Feature", "properties": { "A29_001": "23234", "A29_002": "愛知県", "A29_003": "北名古屋市", "A29_004": 6, "A29_005": "第二種住居地域", "A29_006": 60, "A29_007": 200, "A29_008": null }, "geometry": { "type": "Polygon", "coordinates": [ [ [ 136.8444175, 35.240878917 ], [ 136.842966235, 35.240330963 ], [ 136.84290393500001, 35.240437773 ], [ 136.842760528000014, 35.240881591 ], [ 136.84278913899999, 35.240898806 ], [ 136.844154083, 35.241394472 ], [ 136.845650417, 35.241956694 ], [ 136.845895861, 35.241384222 ], [ 136.845510751, 35.241265651 ], [ 136.845105456, 35.241128707 ], [ 136.8444175, 35.240878917 ] ] ] } },
{ "type": "Feature", "properties": { "A29_001": "23234", "A29_002": "愛知県", "A29_003": "北名古屋市", "A29_004": 6, "A29_005": "第二種住居地域", "A29_006": 60, "A29_007": 200, "A29_008": null }, "geometry": { "type": "Polygon", "coordinates": [ [ [ 136.900409591999988, 35.244584501 ], [ 136.90053781, 35.244297137 ], [ 136.900543172, 35.244072911 ], [ 136.900556927999986, 35.244004536 ], [ 136.900591920000011, 35.243987751 ], [ 136.900614041000011, 35.243929851 ], [ 136.900627336000014, 35.24381131 ], [ 136.90062676, 35.24356378 ], [ 136.89858189, 35.24359487 ], [ 136.8985985, 35.243096611 ], [ 136.896342378000014, 35.243115762 ], [ 136.8955915, 35.243122806 ], [ 136.895669639, 35.242638167 ], [ 136.89476969399999, 35.24264256 ], [ 136.893409917000014, 35.242649194 ], [ 136.893386865, 35.242168983 ], [ 136.892975639000014, 35.242155083 ], [ 136.89270092000001, 35.24211029 ], [ 136.89234327599999, 35.241988029 ], [ 136.891998120000011, 35.241966377 ], [ 136.891702806000012, 35.242031389 ], [ 136.891348389, 35.242030278 ], [ 136.89110385, 35.242108473 ], [ 136.890944265, 35.242111435 ], [ 136.890405437999988, 35.242049369 ], [ 136.88848719399999, 35.242034833 ], [ 136.88847855899999, 35.242117285 ], [ 136.887210858, 35.241918269 ], [ 136.88664625199999, 35.241863196 ], [ 136.884808235, 35.241814136 ], [ 136.884598583000013, 35.242489861 ], [ 136.885073565, 35.242487099 ], [ 136.885535349, 35.242410659 ], [ 136.88771948499999, 35.242382918 ], [ 136.887753202999988, 35.242796186 ], [ 136.887754492, 35.242800915 ], [ 136.88798067, 35.242794266 ], [ 136.887977772, 35.242711901 ], [ 136.889451839, 35.24270746 ], [ 136.889457141, 35.243182381 ], [ 136.891943096, 35.243159603 ], [ 136.891952742, 35.243620103 ], [ 136.895519995, 35.243582294 ], [ 136.895382, 35.24448525 ], [ 136.896266257, 35.244459524 ], [ 136.89626569399999, 35.244168222 ], [ 136.89745397199999, 35.244151833 ], [ 136.89746602, 35.244546312 ], [ 136.898062019, 35.244544655 ], [ 136.89808476499999, 35.245096328 ], [ 136.900014773, 35.24501021 ], [ 136.900226884, 35.244820334 ], [ 136.900409591999988, 35.244584501 ] ] ] } },
{ "type": "Feature", "properties": { "A29_001": "23234", "A29_002": "愛知県", "A29_003": "北名古屋市", "A29_004": 6, "A29_005": "第二種住居地域", "A29_006": 60, "A29_007": 200, "A29_008": null }, "geometry": { "type": "Polygon", "coordinates": [ [ [ 136.873572782, 35.245991094 ], [ 136.873556889000014, 35.244197361 ], [ 136.871983187000012, 35.244162611 ], [ 136.871159260000013, 35.244157812 ], [ 136.871045842, 35.244175258 ], [ 136.871111694, 35.244738607 ], [ 136.87127867699999, 35.244732684 ], [ 136.87133006, 35.24498004 ], [ 136.87144996, 35.24567002 ], [ 136.871478395999986, 35.245978095 ], [ 136.873572782, 35.245991094 ] ] ] } },
{ "type": "Feature", "properties": { "A29_001": "23234", "A29_002": "愛知県", "A29_003": "北名古屋市", "A29_004": 6, "A29_005": "第二種住居地域", "A29_006": 60, "A29_007": 200, "A29_008": null }, "geometry": { "type": "Polygon", "coordinates": [ [ [ 136.885272155, 35.255794687 ], [ 136.88507535799999, 35.254581499 ], [ 136.884982352, 35.254591766 ], [ 136.884946133, 35.254170658 ], [ 136.884854988, 35.253743174 ], [ 136.884499174000013, 35.253800243 ], [ 136.88414276, 35.25181772 ], [ 136.884066923, 35.251395865 ], [ 136.884060981, 35.251362055 ], [ 136.88403207499999, 35.251167874 ], [ 136.88404762, 35.250674346 ], [ 136.88397663, 35.24614713 ], [ 136.884039583, 35.243954528 ], [ 136.883359818, 35.24402434 ], [ 136.882423807, 35.244048603 ], [ 136.882416833, 35.244986972 ], [ 136.882425106999989, 35.245692233 ], [ 136.882505012, 35.245699474 ], [ 136.88255967399999, 35.245748421 ], [ 136.882561278, 35.246073917 ], [ 136.882628071999989, 35.246088421 ], [ 136.882657658999989, 35.247559811 ], [ 136.882658539, 35.248116066 ], [ 136.882748944000014, 35.250856135 ], [ 136.882756064, 35.251091031 ], [ 136.88285065, 35.251556991 ], [ 136.883212001, 35.253723752 ], [ 136.883224361, 35.253788639 ], [ 136.883375139, 35.253783389 ], [ 136.883378663, 35.253874698 ], [ 136.883399911999987, 35.254664355 ], [ 136.883208797, 35.254689527 ], [ 136.883216757000014, 35.254738952 ], [ 136.883315278, 35.255295833 ], [ 136.883473111, 35.255276278 ], [ 136.883549828000014, 35.255842035 ], [ 136.883662906000012, 35.256388584 ], [ 136.885171466, 35.256218455 ], [ 136.885317917, 35.256198639 ], [ 136.88528532399999, 35.255875871 ], [ 136.885272155, 35.255794687 ] ] ] } },
{ "type": "Feature", "properties": { "A29_001": "23234", "A29_002": "愛知県", "A29_003": "北名古屋市", "A29_004": 6, "A29_005": "第二種住居地域", "A29_006": 60, "A29_007": 200, "A29_008": null }, "geometry": { "type": "Polygon", "coordinates": [ [ [ 136.867248343, 35.244994018 ], [ 136.867321167, 35.244064111 ], [ 136.867777, 35.244078833 ], [ 136.868010252, 35.241570628 ], [ 136.86843846299999, 35.241599251 ], [ 136.86924718, 35.24162477 ], [ 136.869329056, 35.241675389 ], [ 136.869343390000012, 35.24175895 ], [ 136.870028287, 35.24175787 ], [ 136.87078874, 35.241746315 ], [ 136.870752986000014, 35.241530857 ], [ 136.87127313900001, 35.241505722 ], [ 136.872137525999989, 35.241432528 ], [ 136.872425025000013, 35.241407883 ], [ 136.872421083, 35.241591972 ], [ 136.874439109, 35.241582102 ], [ 136.874428988, 35.241179409 ], [ 136.874409082999989, 35.240884625 ], [ 136.874388376000013, 35.240589306 ], [ 136.872425935, 35.240609549 ], [ 136.872428727, 35.240808392 ], [ 136.871243693999986, 35.240837361 ], [ 136.87124688899999, 35.240892694 ], [ 136.87061864899999, 35.240912514 ], [ 136.870572028999987, 35.24065363 ], [ 136.870489850000013, 35.24064255 ], [ 136.87000482, 35.2406812 ], [ 136.869065847, 35.240637283 ], [ 136.869075944, 35.240712842 ], [ 136.86809822399999, 35.240663401 ], [ 136.868100701, 35.240510314 ], [ 136.868100733, 35.240508314 ], [ 136.86810523299999, 35.240235284 ], [ 136.868333217000014, 35.23700912 ], [ 136.868411385, 35.234401734 ], [ 136.86843818700001, 35.233507671 ], [ 136.868637799, 35.23088667 ], [ 136.868640884, 35.230757594 ], [ 136.868492946, 35.230845661 ], [ 136.86815589, 35.230861397 ], [ 136.868076037, 35.230864328 ], [ 136.868016936, 35.230605151 ], [ 136.867701186, 35.230587999 ], [ 136.86748036899999, 35.234806565 ], [ 136.867333503, 35.236556875 ], [ 136.867321618, 35.238354093 ], [ 136.867334704, 35.238861684 ], [ 136.867234276, 35.240182414 ], [ 136.86720271199999, 35.240615344 ], [ 136.866515472, 35.240575333 ], [ 136.863767134999989, 35.240427976 ], [ 136.863755391000012, 35.240479914 ], [ 136.862502213999988, 35.24054083 ], [ 136.862488893, 35.240427559 ], [ 136.862319687, 35.240423612 ], [ 136.862000083, 35.240520583 ], [ 136.861534041, 35.240524696 ], [ 136.860085043, 35.240590721 ], [ 136.858498102999988, 35.240653494 ], [ 136.85836354, 35.24062128 ], [ 136.858214661, 35.240585042 ], [ 136.857939499999986, 35.240620917 ], [ 136.857359916, 35.240706391 ], [ 136.85736712100001, 35.240764843 ], [ 136.85658213100001, 35.240780722 ], [ 136.856578979, 35.240931349 ], [ 136.856283617, 35.240920078 ], [ 136.85516863699999, 35.240898786 ], [ 136.85515659, 35.241306292 ], [ 136.855155411999988, 35.241306347 ], [ 136.855152629, 35.241392119 ], [ 136.856576045999986, 35.241329368 ], [ 136.857378944, 35.241297833 ], [ 136.858531056, 35.241252222 ], [ 136.860145131, 35.241174758 ], [ 136.860821523, 35.241152818 ], [ 136.86083714899999, 35.241514186 ], [ 136.860887518, 35.2418158 ], [ 136.861753505, 35.241780975 ], [ 136.862638002000011, 35.241736641 ], [ 136.863586556, 35.241787222 ], [ 136.863621569, 35.241336343 ], [ 136.86703065, 35.241515106 ], [ 136.86669785399999, 35.246060253 ], [ 136.86653279699999, 35.246069397 ], [ 136.866542325000012, 35.246805958 ], [ 136.86655522699999, 35.247390612 ], [ 136.866563015, 35.247556061 ], [ 136.866623194, 35.247742528 ], [ 136.86656216899999, 35.248202653 ], [ 136.866520396, 35.248670931 ], [ 136.86648475199999, 35.249263699 ], [ 136.866272611, 35.2492965 ], [ 136.86627449, 35.25046183 ], [ 136.866023657, 35.254646719 ], [ 136.866000917, 35.258380861 ], [ 136.866069278, 35.258552361 ], [ 136.86606901, 35.259112526 ], [ 136.86607563699999, 35.259732968 ], [ 136.866091388, 35.260395872 ], [ 136.866078034, 35.260757046 ], [ 136.866055870999986, 35.26144646 ], [ 136.866231797000012, 35.26154528 ], [ 136.866364979, 35.261591246 ], [ 136.86651736799999, 35.261689499 ], [ 136.86659877299999, 35.261729495 ], [ 136.866665963, 35.261744568 ], [ 136.866783621, 35.261728508 ], [ 136.866963610999989, 35.261711066 ], [ 136.867152447, 35.256289283 ], [ 136.867396848, 35.25628432 ], [ 136.86744862, 35.25489906 ], [ 136.867496222, 35.253430861 ], [ 136.86750332, 35.25248381 ], [ 136.867589391, 35.251064273 ], [ 136.867341388, 35.251060858 ], [ 136.86737481099999, 35.250374697 ], [ 136.867684166, 35.245023544 ], [ 136.867248343, 35.244994018 ] ] ] } },
{ "type": "Feature", "properties": { "A29_001": "23234", "A29_002": "愛知県", "A29_003": "北名古屋市", "A29_004": 10, "A29_005": "準工業地域", "A29_006": 60, "A29_007": 200, "A29_008": null }, "geometry": { "type": "Polygon", "coordinates": [ [ [ 136.85862061099999, 35.23066125 ], [ 136.858675806, 35.230577194 ], [ 136.857938515, 35.230580316 ], [ 136.857889956, 35.231011137 ], [ 136.85833333299999, 35.231016468 ], [ 136.858358743, 35.230989772 ], [ 136.858411667000013, 35.230935111 ], [ 136.85846566699999, 35.230878361 ], [ 136.858532106000013, 35.230790063 ], [ 136.85862061099999, 35.23066125 ] ] ] } },
{ "type": "Feature", "properties": { "A29_001": "23234", "A29_002": "愛知県", "A29_003": "北名古屋市", "A29_004": 10, "A29_005": "準工業地域", "A29_006": 60, "A29_007": 200, "A29_008": null }, "geometry": { "type": "Polygon", "coordinates": [ [ [ 136.883348833000014, 35.233462278 ], [ 136.883520737, 35.232939637 ], [ 136.883757909, 35.232483755 ], [ 136.883888113000012, 35.232237583 ], [ 136.884554552, 35.231035749 ], [ 136.88474363200001, 35.230690723 ], [ 136.885502444, 35.229344833 ], [ 136.883240120000011, 35.228424223 ], [ 136.877791401, 35.226623091 ], [ 136.878077615, 35.226957296 ], [ 136.878105639000012, 35.227159498 ], [ 136.878114, 35.228673694 ], [ 136.87813986099999, 35.229595056 ], [ 136.88169647, 35.229572579 ], [ 136.88173002799999, 35.231528639 ], [ 136.881138743, 35.231529802 ], [ 136.881176076, 35.232964429 ], [ 136.881856074000012, 35.232955774 ], [ 136.881863054, 35.233474658 ], [ 136.883348833000014, 35.233462278 ] ] ] } },
{ "type": "Feature", "properties": { "A29_001": "23234", "A29_002": "愛知県", "A29_003": "北名古屋市", "A29_004": 10, "A29_005": "準工業地域", "A29_006": 60, "A29_007": 200, "A29_008": null }, "geometry": { "type": "Polygon", "coordinates": [ [ [ 136.89270620799999, 35.232400965 ], [ 136.891848194, 35.232051031 ], [ 136.89184792899999, 35.232625599 ], [ 136.891798111000014, 35.2342615 ], [ 136.893470603999987, 35.234246214 ], [ 136.893535, 35.232763444 ], [ 136.89270620799999, 35.232400965 ] ] ] } },
{ "type": "Feature", "properties": { "A29_001": "23234", "A29_002": "愛知県", "A29_003": "北名古屋市", "A29_004": 10, "A29_005": "準工業地域", "A29_006": 60, "A29_007": 200, "A29_008": null }, "geometry": { "type": "Polygon", "coordinates": [ [ [ 136.865408511, 35.234337734 ], [ 136.86546209799999, 35.23309539 ], [ 136.86409694, 35.233145865 ], [ 136.864073074, 35.232816425 ], [ 136.862796032, 35.232924508 ], [ 136.86281258599999, 35.233913224 ], [ 136.862816888999987, 35.23418263 ], [ 136.863286219, 35.234216786 ], [ 136.865408511, 35.234337734 ] ] ] } },
{ "type": "Feature", "properties": { "A29_001": "23234", "A29_002": "愛知県", "A29_003": "北名古屋市", "A29_004": 10, "A29_005": "準工業地域", "A29_006": 60, "A29_007": 200, "A29_008": null }, "geometry": { "type": "Polygon", "coordinates": [ [ [ 136.90326048, 35.240344499 ], [ 136.902215551000012, 35.23989656 ], [ 136.90225108300001, 35.240320222 ], [ 136.902338332999989, 35.240894722 ], [ 136.902403510999989, 35.241374951 ], [ 136.90242470199999, 35.241473732 ], [ 136.902578971999986, 35.241222333 ], [ 136.903189860999987, 35.2404625 ], [ 136.90326048, 35.240344499 ] ] ] } },
{ "type": "Feature", "properties": { "A29_001": "23234", "A29_002": "愛知県", "A29_003": "北名古屋市", "A29_004": 10, "A29_005": "準工業地域", "A29_006": 60, "A29_007": 200, "A29_008": null }, "geometry": { "type": "Polygon", "coordinates": [ [ [ 136.86083714899999, 35.241514186 ], [ 136.860821523, 35.241152818 ], [ 136.860145131, 35.241174758 ], [ 136.858531056, 35.241252222 ], [ 136.857378944, 35.241297833 ], [ 136.856576045999986, 35.241329368 ], [ 136.856530670000012, 35.243098602 ], [ 136.856584269, 35.243099485 ], [ 136.858272236, 35.243111251 ], [ 136.86053621, 35.24311998 ], [ 136.860957743, 35.243124027 ], [ 136.860990522, 35.243104731 ], [ 136.861011649, 35.243085313 ], [ 136.86095847199999, 35.242278833 ], [ 136.860887518, 35.2418158 ], [ 136.86083714899999, 35.241514186 ] ] ] } },
{ "type": "Feature", "properties": { "A29_001": "23234", "A29_002": "愛知県", "A29_003": "北名古屋市", "A29_004": 10, "A29_005": "準工業地域", "A29_006": 60, "A29_007": 200, "A29_008": null }, "geometry": { "type": "Polygon", "coordinates": [ [ [ 136.90169968699999, 35.239589131 ], [ 136.90144722, 35.239435159 ], [ 136.901309113, 35.240634382 ], [ 136.901080681, 35.241593861 ], [ 136.90097111099999, 35.241956944 ], [ 136.90096167199999, 35.242428366 ], [ 136.90098841599999, 35.243422124 ], [ 136.901084102999988, 35.243871688 ], [ 136.90110676099999, 35.243982552 ], [ 136.90111108100001, 35.244083791 ], [ 136.901055445, 35.244363782 ], [ 136.90101307399999, 35.244488819 ], [ 136.900971774999988, 35.24470659 ], [ 136.900936292000011, 35.244952517 ], [ 136.900926975, 35.245050516 ], [ 136.90093722899999, 35.245056842 ], [ 136.90093237100001, 35.245096553 ], [ 136.900935069000013, 35.245256799 ], [ 136.900932755000014, 35.245316326 ], [ 136.90097195300001, 35.245657611 ], [ 136.901023552, 35.245998016 ], [ 136.901048534000012, 35.246072996 ], [ 136.90251985, 35.246063611 ], [ 136.90250004699999, 35.245923648 ], [ 136.90226, 35.245534775 ], [ 136.902218025, 35.245444149 ], [ 136.901957321, 35.244995298 ], [ 136.901864453, 35.244909016 ], [ 136.90163660499999, 35.244520385 ], [ 136.901466852999988, 35.244070397 ], [ 136.901455778000013, 35.243785639 ], [ 136.901477906999986, 35.243385402 ], [ 136.901489083, 35.243190028 ], [ 136.901513193999989, 35.242995417 ], [ 136.901570443999987, 35.242778639 ], [ 136.901841639, 35.241879472 ], [ 136.901859722000012, 35.241726722 ], [ 136.901865750000013, 35.241460667 ], [ 136.90185066699999, 35.241266056 ], [ 136.90179947199999, 35.241012333 ], [ 136.90169968699999, 35.239589131 ] ] ] } },
{ "type": "Feature", "properties": { "A29_001": "23234", "A29_002": "愛知県", "A29_003": "北名古屋市", "A29_004": 10, "A29_005": "準工業地域", "A29_006": 60, "A29_007": 200, "A29_008": null }, "geometry": { "type": "Polygon", "coordinates": [ [ [ 136.84990309299999, 35.258889328 ], [ 136.849973355, 35.25749808 ], [ 136.85, 35.255679917 ], [ 136.85001919199999, 35.254718127 ], [ 136.84961426000001, 35.25474764 ], [ 136.847367983, 35.254788924 ], [ 136.844427773, 35.254761965 ], [ 136.844570569000012, 35.254231513 ], [ 136.84470697899999, 35.253687763 ], [ 136.84482404, 35.253162389 ], [ 136.845066306, 35.252170472 ], [ 136.84508761699999, 35.249507563 ], [ 136.845129371000013, 35.249101458 ], [ 136.845520166999989, 35.246933278 ], [ 136.84580378699999, 35.246922581 ], [ 136.845805277000011, 35.2469174 ], [ 136.846215941, 35.245489564 ], [ 136.84634519299999, 35.244951944 ], [ 136.846799471999987, 35.243606389 ], [ 136.847770064, 35.243807307 ], [ 136.847771838999989, 35.244003855 ], [ 136.850152884000011, 35.244023273 ], [ 136.85013913899999, 35.243419611 ], [ 136.850175871, 35.241708887 ], [ 136.850190457999986, 35.2415998 ], [ 136.850415688999988, 35.240101773 ], [ 136.849642882000012, 35.240099751 ], [ 136.849563627, 35.240262854 ], [ 136.849449849, 35.24027079 ], [ 136.84938699, 35.240089474 ], [ 136.849320406, 35.240005586 ], [ 136.84923699399999, 35.239947729 ], [ 136.849239517, 35.239729531 ], [ 136.849201268, 35.239671792 ], [ 136.849185010000014, 35.23955601 ], [ 136.849127108, 35.239386148 ], [ 136.849077685999987, 35.239191144 ], [ 136.848951046, 35.239065927 ], [ 136.848842557000012, 35.238873655 ], [ 136.848725406999989, 35.238843603 ], [ 136.848746143, 35.238763548 ], [ 136.848722968, 35.238663478 ], [ 136.848733665, 35.238617969 ], [ 136.848781615, 35.238335531 ], [ 136.848778571, 35.238282514 ], [ 136.848750517000013, 35.238182441 ], [ 136.848782884, 35.2380074 ], [ 136.848833606, 35.237868926 ], [ 136.84886426, 35.237729026 ], [ 136.84886805799999, 35.237601309 ], [ 136.848872634, 35.237563141 ], [ 136.84863932799999, 35.23752079 ], [ 136.848206877, 35.237528596 ], [ 136.848072253, 35.237572962 ], [ 136.847770652, 35.237641064 ], [ 136.84745797299999, 35.237616063 ], [ 136.84714925599999, 35.237576491 ], [ 136.846776909999988, 35.237542401 ], [ 136.84636275, 35.238394111 ], [ 136.84703919099999, 35.238646849 ], [ 136.846462147000011, 35.240031304 ], [ 136.845081443999987, 35.239535639 ], [ 136.843730889, 35.239022667 ], [ 136.843344910000013, 35.239686481 ], [ 136.842966235, 35.240330963 ], [ 136.8444175, 35.240878917 ], [ 136.845105456, 35.241128707 ], [ 136.845510751, 35.241265651 ], [ 136.845895861, 35.241384222 ], [ 136.845650417, 35.241956694 ], [ 136.845299, 35.242808278 ], [ 136.845036182, 35.242746905 ], [ 136.84539190699999, 35.243300014 ], [ 136.84551180599999, 35.243469278 ], [ 136.845291814, 35.243971693 ], [ 136.84486455199999, 35.243979042 ], [ 136.844574346, 35.245157312 ], [ 136.844326583, 35.246087944 ], [ 136.844218, 35.246460472 ], [ 136.843967107999987, 35.246470296 ], [ 136.844072194, 35.246977972 ], [ 136.843963556, 35.247389 ], [ 136.843875222, 35.247820694 ], [ 136.843366156, 35.24782013 ], [ 136.842533035, 35.247822019 ], [ 136.841955278, 35.247837722 ], [ 136.841874722, 35.247963249 ], [ 136.841849126, 35.248222767 ], [ 136.842178495000013, 35.248212189 ], [ 136.842344118, 35.248211261 ], [ 136.842340855, 35.248400636 ], [ 136.842343088, 35.248679916 ], [ 136.84238865099999, 35.249001168 ], [ 136.842402889, 35.24913219 ], [ 136.842568715999988, 35.249155354 ], [ 136.84264227, 35.249169275 ], [ 136.84306602800001, 35.249239389 ], [ 136.843106084999988, 35.249066217 ], [ 136.843148417, 35.248892611 ], [ 136.84337001, 35.24891901 ], [ 136.84360102799999, 35.248941389 ], [ 136.843749714000012, 35.248969813 ], [ 136.84397875, 35.249009536 ], [ 136.843858082, 35.24936269 ], [ 136.844373109, 35.249438938 ], [ 136.84435652499999, 35.249550023 ], [ 136.844322339, 35.249670567 ], [ 136.84428634, 35.24983604 ], [ 136.844031357, 35.250899684 ], [ 136.843961064000013, 35.251212533 ], [ 136.84345842499999, 35.251127058 ], [ 136.84340695099999, 35.251450795 ], [ 136.84362196699999, 35.251476702 ], [ 136.843614196, 35.251523072 ], [ 136.84318262299999, 35.251450777 ], [ 136.843145443999987, 35.2515995 ], [ 136.84313533299999, 35.251637333 ], [ 136.843251293, 35.251889532 ], [ 136.843307466, 35.252068087 ], [ 136.843350517, 35.252180735 ], [ 136.843569456000012, 35.252658898 ], [ 136.843189287, 35.252758064 ], [ 136.84304169399999, 35.252787222 ], [ 136.84268927799999, 35.252861972 ], [ 136.842579774, 35.252892296 ], [ 136.842750827, 35.253211139 ], [ 136.84279555099999, 35.253323792 ], [ 136.842873233, 35.253562789 ], [ 136.842939499000011, 35.253727648 ], [ 136.842981009999988, 35.25386401 ], [ 136.843022037, 35.254007828 ], [ 136.842987464, 35.254287695 ], [ 136.8430061, 35.254650046 ], [ 136.84299005299999, 35.25531971 ], [ 136.842981419000012, 35.255808243 ], [ 136.842970587999986, 35.256101399 ], [ 136.842781003, 35.256139816 ], [ 136.842499927, 35.256139063 ], [ 136.842545156, 35.2565454 ], [ 136.842511366, 35.25662765 ], [ 136.842510274, 35.256902117 ], [ 136.842516616000012, 35.256989965 ], [ 136.842579151, 35.257038534 ], [ 136.84266194599999, 35.257047993 ], [ 136.842692265000011, 35.257417236 ], [ 136.84284954200001, 35.257416285 ], [ 136.84284911099999, 35.257524699 ], [ 136.842748304, 35.2576301 ], [ 136.842767393, 35.257878547 ], [ 136.842492714, 35.257950546 ], [ 136.84211124, 35.257950895 ], [ 136.841934011, 35.257920228 ], [ 136.841722010000012, 35.25783901 ], [ 136.841604929, 35.257788971 ], [ 136.841512139, 35.257853583 ], [ 136.841408809, 35.257880392 ], [ 136.841239441, 35.257976001 ], [ 136.841920307, 35.258419727 ], [ 136.842104218, 35.258453157 ], [ 136.842400951, 35.258725677 ], [ 136.842450664000012, 35.258846577 ], [ 136.842593526, 35.259104962 ], [ 136.842756509999987, 35.259352421 ], [ 136.842668491000012, 35.259607442 ], [ 136.843032548, 35.259781332 ], [ 136.843399877, 35.259974443 ], [ 136.843911459, 35.260077363 ], [ 136.844573462, 35.260221851 ], [ 136.84500151899999, 35.260291607 ], [ 136.84504496299999, 35.260116878 ], [ 136.8451207, 35.259770431 ], [ 136.845131032000012, 35.259658831 ], [ 136.845268189, 35.259644333 ], [ 136.845497249, 35.259324045 ], [ 136.845545089000012, 35.259107446 ], [ 136.845749861, 35.258999139 ], [ 136.847338998999987, 35.258908787 ], [ 136.849029386000012, 35.258895525 ], [ 136.849609031999989, 35.258892992 ], [ 136.84990309299999, 35.258889328 ] ] ] } },
{ "type": "Feature", "properties": { "A29_001": "23234", "A29_002": "愛知県", "A29_003": "北名古屋市", "A29_004": 10, "A29_005": "準工業地域", "A29_006": 60, "A29_007": 200, "A29_008": null }, "geometry": { "type": "Polygon", "coordinates": [ [ [ 136.883310822999988, 35.262772037 ], [ 136.883089281999986, 35.261413661 ], [ 136.881023731999989, 35.261719239 ], [ 136.881273885000013, 35.263199995 ], [ 136.882984193999988, 35.263003917 ], [ 136.883309228, 35.262978161 ], [ 136.883305411, 35.262894772 ], [ 136.883310822999988, 35.262772037 ] ] ] } },
{ "type": "Feature", "properties": { "A29_001": "23234", "A29_002": "愛知県", "A29_003": "北名古屋市", "A29_004": 10, "A29_005": "準工業地域", "A29_006": 60, "A29_007": 200, "A29_008": null }, "geometry": { "type": "Polygon", "coordinates": [ [ [ 136.89628665699999, 35.261979197 ], [ 136.896267580999989, 35.259096906 ], [ 136.894418341, 35.259126763 ], [ 136.894055963, 35.259102748 ], [ 136.891645167, 35.259127833 ], [ 136.891645167, 35.26003325 ], [ 136.891652861000011, 35.26102875 ], [ 136.891043833, 35.261015167 ], [ 136.891029465, 35.26188746 ], [ 136.891036293000013, 35.262857036 ], [ 136.892868556, 35.263241583 ], [ 136.892850079, 35.263319097 ], [ 136.89322352799999, 35.2634015 ], [ 136.893272, 35.263418639 ], [ 136.89330836100001, 35.263445667 ], [ 136.89333811099999, 35.263485306 ], [ 136.893377778, 35.263582583 ], [ 136.893405333, 35.263608722 ], [ 136.893474219000012, 35.263630181 ], [ 136.893504, 35.263375917 ], [ 136.89369113, 35.262005678 ], [ 136.89448608, 35.262005648 ], [ 136.894486007000012, 35.261980518 ], [ 136.89628665699999, 35.261979197 ] ] ] } },
{ "type": "Feature", "properties": { "A29_001": "23234", "A29_002": "愛知県", "A29_003": "北名古屋市", "A29_004": 10, "A29_005": "準工業地域", "A29_006": 60, "A29_007": 200, "A29_008": null }, "geometry": { "type": "Polygon", "coordinates": [ [ [ 136.86186476899999, 35.26413042 ], [ 136.862119009999986, 35.26407001 ], [ 136.862240947, 35.264040407 ], [ 136.862190602, 35.263767273 ], [ 136.862035217, 35.263092989 ], [ 136.862008083, 35.262622722 ], [ 136.861398662999989, 35.262737069 ], [ 136.861222153999989, 35.261841726 ], [ 136.858938082, 35.262182874 ], [ 136.859083333, 35.262809167 ], [ 136.859872389, 35.262687083 ], [ 136.860211240000012, 35.26417993 ], [ 136.860477221999986, 35.264103278 ], [ 136.860622721, 35.264819592 ], [ 136.86073701, 35.26479901 ], [ 136.86077301, 35.264788 ], [ 136.860848010000012, 35.26476701 ], [ 136.86112501, 35.26463801 ], [ 136.86129401, 35.26454101 ], [ 136.86149501, 35.26440101 ], [ 136.86167124799999, 35.264254582 ], [ 136.86186476899999, 35.26413042 ] ] ] } },
{ "type": "Feature", "properties": { "A29_001": "23234", "A29_002": "愛知県", "A29_003": "北名古屋市", "A29_004": 10, "A29_005": "準工業地域", "A29_006": 60, "A29_007": 200, "A29_008": null }, "geometry": { "type": "Polygon", "coordinates": [ [ [ 136.853764087, 35.263478077 ], [ 136.854072093000013, 35.263462784 ], [ 136.85470805599999, 35.263469722 ], [ 136.85598467299999, 35.263277326 ], [ 136.85651982600001, 35.263240086 ], [ 136.856937498, 35.263212539 ], [ 136.85702757199999, 35.263597633 ], [ 136.857165914, 35.264349261 ], [ 136.85767801, 35.26428601 ], [ 136.858029749999986, 35.26429167 ], [ 136.858200234, 35.264286209 ], [ 136.85823263899999, 35.263490028 ], [ 136.85805083299999, 35.262619361 ], [ 136.857980333, 35.262326528 ], [ 136.854024806000012, 35.262936694 ], [ 136.853296333, 35.263026444 ], [ 136.85316862799999, 35.263026177 ], [ 136.851822722, 35.263105167 ], [ 136.851643376, 35.260922888 ], [ 136.851152197, 35.260814132 ], [ 136.851206076000011, 35.261485721 ], [ 136.849930997, 35.26154682 ], [ 136.849940812, 35.261647659 ], [ 136.850035837, 35.262714717 ], [ 136.850083411000014, 35.26320778 ], [ 136.849809579, 35.263260618 ], [ 136.84936226, 35.263423924 ], [ 136.84952602199999, 35.264037227 ], [ 136.849648788, 35.26415546 ], [ 136.849788122, 35.264238363 ], [ 136.850037493, 35.264370126 ], [ 136.850302647, 35.264421502 ], [ 136.850639609000012, 35.264452829 ], [ 136.85055202, 35.26464601 ], [ 136.850574843, 35.264735647 ], [ 136.850630118999987, 35.264781271 ], [ 136.850781974, 35.264813672 ], [ 136.85109317300001, 35.264801009 ], [ 136.851329953, 35.264781939 ], [ 136.851522722, 35.264752628 ], [ 136.85174817, 35.264732346 ], [ 136.852319677999986, 35.26452216 ], [ 136.85247989199999, 35.264451025 ], [ 136.852447098999988, 35.264142243 ], [ 136.852411318, 35.263551593 ], [ 136.853321412000014, 35.263501355 ], [ 136.853764087, 35.263478077 ] ] ] } },
{ "type": "Feature", "properties": { "A29_001": "23234", "A29_002": "愛知県", "A29_003": "北名古屋市", "A29_004": 11, "A29_005": "工業地域", "A29_006": 60, "A29_007": 200, "A29_008": null }, "geometry": { "type": "Polygon", "coordinates": [ [ [ 136.855260302, 35.238488745 ], [ 136.85527894399999, 35.237998611 ], [ 136.856651086, 35.238031965 ], [ 136.856669227, 35.23739248 ], [ 136.856680942, 35.236979472 ], [ 136.85676325099999, 35.236474373 ], [ 136.856766652, 35.236448957 ], [ 136.856871555999987, 35.235914639 ], [ 136.856954917, 35.235474972 ], [ 136.85733189699999, 35.233465327 ], [ 136.85763279599999, 35.231926131 ], [ 136.855511963, 35.233879075 ], [ 136.855016397000014, 35.234338398 ], [ 136.854482639, 35.234826297 ], [ 136.853989466, 35.23529022 ], [ 136.853517984, 35.23571228 ], [ 136.85298555599999, 35.236211056 ], [ 136.852428964000012, 35.23671829 ], [ 136.851868090000011, 35.237228028 ], [ 136.851609958000012, 35.237468332 ], [ 136.851436404, 35.237638056 ], [ 136.851268721999986, 35.237818806 ], [ 136.85121022300001, 35.237895423 ], [ 136.851180932, 35.237939103 ], [ 136.851104558, 35.238037843 ], [ 136.851000860999989, 35.238175222 ], [ 136.850872528, 35.238401833 ], [ 136.850751694, 35.238629444 ], [ 136.850654676, 35.238866876 ], [ 136.850588031, 35.239096616 ], [ 136.850535191, 35.239327818 ], [ 136.850448417, 35.239830639 ], [ 136.850415688999988, 35.240101773 ], [ 136.850190457999986, 35.2415998 ], [ 136.852323643, 35.241429652 ], [ 136.853775657999989, 35.241370389 ], [ 136.855155411999988, 35.241306347 ], [ 136.85515659, 35.241306292 ], [ 136.855168636, 35.240898786 ], [ 136.855242806, 35.238973416 ], [ 136.855260302, 35.238488745 ] ] ] } },
{ "type": "Feature", "properties": { "A29_001": "23234", "A29_002": "愛知県", "A29_003": "北名古屋市", "A29_004": 11, "A29_005": "工業地域", "A29_006": 60, "A29_007": 200, "A29_008": null }, "geometry": { "type": "Polygon", "coordinates": [ [ [ 136.851152197, 35.260814132 ], [ 136.85115483199999, 35.259740957 ], [ 136.849892944, 35.259815111 ], [ 136.84990309299999, 35.258889328 ], [ 136.849609031999989, 35.258892992 ], [ 136.849029386000012, 35.258895525 ], [ 136.847338998999987, 35.258908787 ], [ 136.845749861, 35.258999139 ], [ 136.845545089000012, 35.259107446 ], [ 136.84582928, 35.25941058 ], [ 136.84588980800001, 35.259696993 ], [ 136.845865529, 35.25991376 ], [ 136.846086288, 35.259939047 ], [ 136.846234759999987, 35.26010344 ], [ 136.846203890999988, 35.260666704 ], [ 136.84623398799999, 35.261009143 ], [ 136.84665466300001, 35.261254722 ], [ 136.84716601, 35.26165101 ], [ 136.847777670999989, 35.262122807 ], [ 136.847905201, 35.26230136 ], [ 136.848146735, 35.262507498 ], [ 136.84872611, 35.26287889 ], [ 136.849129010000013, 35.26318301 ], [ 136.84936226, 35.263423924 ], [ 136.849809579, 35.263260618 ], [ 136.850083411000014, 35.26320778 ], [ 136.850035837, 35.262714717 ], [ 136.849940812, 35.261647659 ], [ 136.849930997, 35.26154682 ], [ 136.851206076000011, 35.261485721 ], [ 136.851152197, 35.260814132 ] ] ] } },
{ "type": "Feature", "properties": { "A29_001": "23234", "A29_002": "愛知県", "A29_003": "北名古屋市", "A29_004": 11, "A29_005": "工業地域", "A29_006": 60, "A29_007": 200, "A29_008": null }, "geometry": { "type": "Polygon", "coordinates": [ [ [ 136.857165914, 35.264349261 ], [ 136.85702757199999, 35.263597633 ], [ 136.856937498, 35.263212539 ], [ 136.85651982600001, 35.263240086 ], [ 136.85598467299999, 35.263277326 ], [ 136.85470805599999, 35.263469722 ], [ 136.854072093000013, 35.263462784 ], [ 136.853764087, 35.263478077 ], [ 136.853321412000014, 35.263501355 ], [ 136.852411318, 35.263551593 ], [ 136.852447098999988, 35.264142243 ], [ 136.85247989199999, 35.264451025 ], [ 136.85320701, 35.26407901 ], [ 136.85355101, 35.26398201 ], [ 136.85367182499999, 35.26397138 ], [ 136.85399017, 35.263968834 ], [ 136.854152378, 35.26397936 ], [ 136.854289908, 35.263998244 ], [ 136.85479901, 35.26412601 ], [ 136.85538746899999, 35.264314379 ], [ 136.85571979299999, 35.2644163 ], [ 136.855959856, 35.264476715 ], [ 136.856222725, 35.264480758 ], [ 136.856549223, 35.264495071 ], [ 136.856816415, 35.264442696 ], [ 136.857165914, 35.264349261 ] ] ] } }
]
}
