{
"type": "FeatureCollection",
"name": "A29-19_23361",
"features": [
{ "type": "Feature", "properties": { "A29_001": "23361", "A29_002": "愛知県", "A29_003": "大口町", "A29_004": 5, "A29_005": "第一種住居地域", "A29_006": 60, "A29_007": 200, "A29_008": null }, "geometry": { "type": "Polygon", "coordinates": [ [ [ 136.918626789, 35.34124871 ], [ 136.918483893, 35.342065581 ], [ 136.917884664000013, 35.344981929 ], [ 136.917611211, 35.346750599 ], [ 136.918035151, 35.346707293 ], [ 136.918104957, 35.346258891 ], [ 136.918453207999988, 35.344271301 ], [ 136.918639985, 35.343439268 ], [ 136.91877887199999, 35.342775342 ], [ 136.919008953, 35.34155091 ], [ 136.91866763199999, 35.341282804 ], [ 136.918626789, 35.34124871 ] ] ] } },
{ "type": "Feature", "properties": { "A29_001": "23361", "A29_002": "愛知県", "A29_003": "大口町", "A29_004": 5, "A29_005": "第一種住居地域", "A29_006": 60, "A29_007": 200, "A29_008": null }, "geometry": { "type": "Polygon", "coordinates": [ [ [ 136.911397603000012, 35.348065481 ], [ 136.9126422, 35.34748968 ], [ 136.912884678000012, 35.347386689 ], [ 136.91338529699999, 35.347223843 ], [ 136.91371190000001, 35.347151205 ], [ 136.913890974, 35.347121382 ], [ 136.914296443000012, 35.347079106 ], [ 136.914420146, 35.347066068 ], [ 136.914405883, 35.346936577 ], [ 136.914394253000012, 35.346820026 ], [ 136.91438774400001, 35.346709093 ], [ 136.914383487, 35.346669773 ], [ 136.913785297, 35.346723266 ], [ 136.913367018, 35.34609759 ], [ 136.913121507999989, 35.345746116 ], [ 136.913001215, 35.345555764 ], [ 136.91287860599999, 35.34533218 ], [ 136.91279157299999, 35.34514854 ], [ 136.912724002, 35.344964941 ], [ 136.912661320000012, 35.344773384 ], [ 136.912468655999987, 35.344124264 ], [ 136.911980578, 35.342490802 ], [ 136.91192196099999, 35.34229526 ], [ 136.91186422199999, 35.342082448 ], [ 136.911802722, 35.341697962 ], [ 136.91176507099999, 35.341660825 ], [ 136.911465899, 35.341476142 ], [ 136.911358492, 35.34141388 ], [ 136.911060534, 35.341270564 ], [ 136.910969889, 35.341237146 ], [ 136.910879246, 35.341206901 ], [ 136.910682517999987, 35.341138455 ], [ 136.91070273299999, 35.341729775 ], [ 136.910766345000013, 35.342182512 ], [ 136.910896457, 35.34259489 ], [ 136.911056902000013, 35.343164187 ], [ 136.910822990000014, 35.343254086 ], [ 136.911341959999987, 35.344091349 ], [ 136.911418962, 35.344370673 ], [ 136.91161621399999, 35.345104898 ], [ 136.911706157999987, 35.345397544 ], [ 136.911757641, 35.345535904 ], [ 136.911859967, 35.345760789 ], [ 136.911943803000014, 35.345928458 ], [ 136.912040657, 35.346088187 ], [ 136.912124611, 35.346218646 ], [ 136.912354771999986, 35.346555458 ], [ 136.912648673, 35.34700007 ], [ 136.912040959, 35.347285948 ], [ 136.911414005000012, 35.347566039 ], [ 136.911069661999989, 35.347719454 ], [ 136.91112180799999, 35.347790578 ], [ 136.91117117499999, 35.34785343 ], [ 136.911337352, 35.348020814 ], [ 136.911397603000012, 35.348065481 ] ] ] } },
{ "type": "Feature", "properties": { "A29_001": "23361", "A29_002": "愛知県", "A29_003": "大口町", "A29_004": 5, "A29_005": "第一種住居地域", "A29_006": 60, "A29_007": 200, "A29_008": null }, "geometry": { "type": "Polygon", "coordinates": [ [ [ 136.931542145, 35.34729568 ], [ 136.932326636, 35.34734533 ], [ 136.932862543999988, 35.347373203 ], [ 136.93289416799999, 35.347761397 ], [ 136.933068851, 35.347749214 ], [ 136.933264855, 35.347729915 ], [ 136.933439792, 35.347724889 ], [ 136.933481276, 35.347726763 ], [ 136.933577308999986, 35.347735881 ], [ 136.93354817299999, 35.347996984 ], [ 136.933945402, 35.348037097 ], [ 136.933952878000014, 35.348000541 ], [ 136.933977528000014, 35.347876012 ], [ 136.93399485, 35.347790104 ], [ 136.93404462, 35.347795239 ], [ 136.93408083700001, 35.347818844 ], [ 136.934347204, 35.347851564 ], [ 136.934384947000012, 35.34786898 ], [ 136.93440001799999, 35.347885109 ], [ 136.93441640099999, 35.347973083 ], [ 136.93442972, 35.348036126 ], [ 136.93445007, 35.348106918 ], [ 136.934472848000013, 35.348151744 ], [ 136.934306437, 35.348291 ], [ 136.934128281, 35.348458943 ], [ 136.934089089999986, 35.348509456 ], [ 136.934072523999987, 35.348573434 ], [ 136.934058568000012, 35.34883983 ], [ 136.934064553000013, 35.348840031 ], [ 136.93457675499999, 35.348851048 ], [ 136.93457401, 35.349018337 ], [ 136.934719207, 35.349022339 ], [ 136.934705331, 35.349111535 ], [ 136.93474210799999, 35.349113039 ], [ 136.935070724000013, 35.349121196 ], [ 136.935164636, 35.349311395 ], [ 136.935167639000014, 35.349388751 ], [ 136.93548382, 35.349394314 ], [ 136.936089474999989, 35.349375946 ], [ 136.936190219999986, 35.349373461 ], [ 136.936235707, 35.349372331 ], [ 136.936937551999989, 35.349354999 ], [ 136.937006424, 35.34935201 ], [ 136.937083425, 35.349400482 ], [ 136.93715590299999, 35.349445231 ], [ 136.937240269, 35.34949185 ], [ 136.937345273, 35.349267127 ], [ 136.937835398, 35.349390685 ], [ 136.937831109, 35.349370197 ], [ 136.937804734999986, 35.349238269 ], [ 136.937766606, 35.349072462 ], [ 136.937737422, 35.348918679 ], [ 136.937702014, 35.348736534 ], [ 136.937677016, 35.348611784 ], [ 136.937874499, 35.348614538 ], [ 136.93779046099999, 35.348213851 ], [ 136.93766702100001, 35.347911885 ], [ 136.937512607, 35.347685382 ], [ 136.937366161, 35.347524624 ], [ 136.937143612999989, 35.347336968 ], [ 136.93685579699999, 35.347135819 ], [ 136.936502706, 35.346934546 ], [ 136.93576933599999, 35.34652749 ], [ 136.935275093, 35.346223407 ], [ 136.93421614499999, 35.345517042 ], [ 136.93388491799999, 35.345289048 ], [ 136.933598389, 35.345123554 ], [ 136.933234354, 35.344946769 ], [ 136.932845679, 35.344830113 ], [ 136.93271246, 35.344803101 ], [ 136.93239427899999, 35.344764598 ], [ 136.932165781, 35.344761929 ], [ 136.931896415000011, 35.344777 ], [ 136.931922162, 35.345042293 ], [ 136.931910268, 35.345058018 ], [ 136.931911867999986, 35.345341535 ], [ 136.931795599999987, 35.345368505 ], [ 136.931612980000011, 35.3453837 ], [ 136.931542145, 35.34729568 ] ] ] } },
{ "type": "Feature", "properties": { "A29_001": "23361", "A29_002": "愛知県", "A29_003": "大口町", "A29_004": 5, "A29_005": "第一種住居地域", "A29_006": 60, "A29_007": 200, "A29_008": null }, "geometry": { "type": "Polygon", "coordinates": [ [ [ 136.904903507, 35.339718539 ], [ 136.905237822, 35.340062235 ], [ 136.90553312099999, 35.340350417 ], [ 136.90561285199999, 35.340430653 ], [ 136.905820457, 35.340351037 ], [ 136.906342271, 35.340156392 ], [ 136.906338272, 35.339736322 ], [ 136.907312432, 35.339627442 ], [ 136.907123345, 35.339008779 ], [ 136.907016191999986, 35.338741684 ], [ 136.906863152, 35.338197068 ], [ 136.90685659, 35.338171256 ], [ 136.90683099899999, 35.337759919 ], [ 136.907289693, 35.337733897 ], [ 136.90790769899999, 35.337701463 ], [ 136.907931797, 35.337892787 ], [ 136.908505545, 35.337868062 ], [ 136.908775028, 35.337862084 ], [ 136.908783609000011, 35.337796262 ], [ 136.908783910000011, 35.337701713 ], [ 136.908782554999988, 35.337601671 ], [ 136.908779707, 35.337445439 ], [ 136.90877660699999, 35.337368686 ], [ 136.908763626, 35.337243956 ], [ 136.908757388999987, 35.337098678 ], [ 136.90875434899999, 35.337002743 ], [ 136.90874624599999, 35.336921868 ], [ 136.90873971799999, 35.336871131 ], [ 136.908733471, 35.336829256 ], [ 136.906498252, 35.336921189 ], [ 136.90550365499999, 35.336973932 ], [ 136.904469307, 35.336973802 ], [ 136.904457056000012, 35.337142702 ], [ 136.904443691000012, 35.337255098 ], [ 136.904373771, 35.337306002 ], [ 136.904278231, 35.337397524 ], [ 136.90422127299999, 35.337443949 ], [ 136.904197380999989, 35.337463855 ], [ 136.905754218999988, 35.337500433 ], [ 136.905763381000014, 35.33826428 ], [ 136.905775772999988, 35.33897788 ], [ 136.905785971, 35.339138698 ], [ 136.904903507, 35.339718539 ] ] ] } },
{ "type": "Feature", "properties": { "A29_001": "23361", "A29_002": "愛知県", "A29_003": "大口町", "A29_004": 6, "A29_005": "第二種住居地域", "A29_006": 60, "A29_007": 200, "A29_008": null }, "geometry": { "type": "Polygon", "coordinates": [ [ [ 136.904903507, 35.339718539 ], [ 136.904324648999989, 35.340094763 ], [ 136.903936979, 35.340346959 ], [ 136.902946628, 35.340989146 ], [ 136.90172472099999, 35.34178524 ], [ 136.901898225999986, 35.341976433 ], [ 136.90155781499999, 35.342191018 ], [ 136.901483238999987, 35.342129575 ], [ 136.901036298, 35.342421817 ], [ 136.900563236000011, 35.342741015 ], [ 136.900420899000011, 35.34284852 ], [ 136.900493675, 35.342901819 ], [ 136.900662227, 35.343070007 ], [ 136.90078748799999, 35.343188351 ], [ 136.900875213, 35.343309532 ], [ 136.90092029600001, 35.343360363 ], [ 136.90096413, 35.343406035 ], [ 136.902952058000011, 35.342118059 ], [ 136.90376659899999, 35.341581389 ], [ 136.904194746, 35.341302969 ], [ 136.904631513999988, 35.341024567 ], [ 136.904739597, 35.340964685 ], [ 136.905383511999986, 35.340686729 ], [ 136.905319283000011, 35.340531005 ], [ 136.90561285199999, 35.340430653 ], [ 136.90553312099999, 35.340350417 ], [ 136.905237822, 35.340062235 ], [ 136.904903507, 35.339718539 ] ] ] } },
{ "type": "Feature", "properties": { "A29_001": "23361", "A29_002": "愛知県", "A29_003": "大口町", "A29_004": 5, "A29_005": "第一種住居地域", "A29_006": 60, "A29_007": 200, "A29_008": null }, "geometry": { "type": "Polygon", "coordinates": [ [ [ 136.90659516, 35.331834798 ], [ 136.905976686, 35.331704698 ], [ 136.90547064099999, 35.331620098 ], [ 136.905386983999989, 35.331593613 ], [ 136.904878016999987, 35.331498007 ], [ 136.90476377499999, 35.33147655 ], [ 136.90417656, 35.33136624 ], [ 136.904139246, 35.331370432 ], [ 136.903368131, 35.33139047 ], [ 136.901844446000013, 35.331427283 ], [ 136.900651532000012, 35.331459368 ], [ 136.900674372999987, 35.33192457 ], [ 136.90069266399999, 35.332287946 ], [ 136.900707047999987, 35.332547506 ], [ 136.900716996999989, 35.332854957 ], [ 136.90113856799999, 35.332823946 ], [ 136.901455328, 35.332806676 ], [ 136.901834837, 35.332781547 ], [ 136.90218612000001, 35.332634591 ], [ 136.902556839, 35.332507643 ], [ 136.90288085, 35.332506359 ], [ 136.90310258299999, 35.332494862 ], [ 136.903243812999989, 35.332515137 ], [ 136.903360600000013, 35.332559317 ], [ 136.903777071, 35.332594162 ], [ 136.903847649, 35.332614273 ], [ 136.903898327, 35.332630933 ], [ 136.90396442299999, 35.332618331 ], [ 136.904103512, 35.332623816 ], [ 136.904243658000013, 35.332629295 ], [ 136.904330603, 35.332632503 ], [ 136.904442818, 35.332641824 ], [ 136.904521837, 35.33265366 ], [ 136.904726731000011, 35.332672042 ], [ 136.904773084999988, 35.332685979 ], [ 136.904878967, 35.332714738 ], [ 136.904990677, 35.332737462 ], [ 136.905093894, 35.332777447 ], [ 136.905253891, 35.332869413 ], [ 136.905359583, 35.332878719 ], [ 136.90558704899999, 35.332986416 ], [ 136.905776499000012, 35.333107868 ], [ 136.90589446199999, 35.333156547 ], [ 136.906074151000013, 35.333234871 ], [ 136.906079677, 35.333226996 ], [ 136.906162238, 35.333276671 ], [ 136.90643458299999, 35.332754136 ], [ 136.906662474, 35.332310676 ], [ 136.90678890699999, 35.332005267 ], [ 136.90682092599999, 35.331909578 ], [ 136.906742935000011, 35.331882395 ], [ 136.90659516, 35.331834798 ] ] ] } },
{ "type": "Feature", "properties": { "A29_001": "23361", "A29_002": "愛知県", "A29_003": "大口町", "A29_004": 11, "A29_005": "工業地域", "A29_006": 60, "A29_007": 200, "A29_008": null }, "geometry": { "type": "Polygon", "coordinates": [ [ [ 136.90682092599999, 35.331909578 ], [ 136.90695927499999, 35.331496177 ], [ 136.907262741000011, 35.330332355 ], [ 136.906677648, 35.330052117 ], [ 136.905081254, 35.329271378 ], [ 136.904509587, 35.328969651 ], [ 136.904166311000012, 35.330133669 ], [ 136.90393029399999, 35.330944805 ], [ 136.903999951, 35.331085722 ], [ 136.904139246, 35.331370432 ], [ 136.90417656, 35.33136624 ], [ 136.90476377499999, 35.33147655 ], [ 136.904878016999987, 35.331498007 ], [ 136.905386983999989, 35.331593613 ], [ 136.90547064099999, 35.331620098 ], [ 136.905976686, 35.331704698 ], [ 136.90659516, 35.331834798 ], [ 136.906742935000011, 35.331882395 ], [ 136.90682092599999, 35.331909578 ] ] ] } },
{ "type": "Feature", "properties": { "A29_001": "23361", "A29_002": "愛知県", "A29_003": "大口町", "A29_004": 11, "A29_005": "工業地域", "A29_006": 60, "A29_007": 200, "A29_008": null }, "geometry": { "type": "Polygon", "coordinates": [ [ [ 136.931612980000011, 35.3453837 ], [ 136.93149209399999, 35.345367915 ], [ 136.931323729000013, 35.34537342 ], [ 136.931238377, 35.345369368 ], [ 136.931198658999989, 35.3451653 ], [ 136.93090704799999, 35.345141565 ], [ 136.930458197, 35.345107679 ], [ 136.929721937000011, 35.345228083 ], [ 136.929848657, 35.34134066 ], [ 136.928687252, 35.341356056 ], [ 136.927991103000011, 35.341370936 ], [ 136.92782840699999, 35.341396612 ], [ 136.926752666, 35.341680484 ], [ 136.926680683, 35.341547085 ], [ 136.926516885000012, 35.341275387 ], [ 136.926413727000011, 35.341119173 ], [ 136.926280744, 35.340937146 ], [ 136.926131465, 35.340726755 ], [ 136.925883951, 35.340392665 ], [ 136.92577325, 35.340261793 ], [ 136.92573060699999, 35.34039236 ], [ 136.925417923, 35.341516907 ], [ 136.92539183400001, 35.342458613 ], [ 136.923755132999986, 35.342241104 ], [ 136.923330751, 35.342187229 ], [ 136.922456165999989, 35.342058202 ], [ 136.922463531, 35.342191844 ], [ 136.92248343599999, 35.342461264 ], [ 136.922479162, 35.342536344 ], [ 136.92250497, 35.342832936 ], [ 136.922533676, 35.343153827 ], [ 136.922547363, 35.343285102 ], [ 136.92251172499999, 35.343300823 ], [ 136.922574464, 35.34340061 ], [ 136.922175419000013, 35.343418031 ], [ 136.922188027, 35.343662323 ], [ 136.922213725, 35.344356883 ], [ 136.922224355999987, 35.344662783 ], [ 136.92224224899999, 35.345110617 ], [ 136.922257005, 35.345325086 ], [ 136.922270707, 35.345564792 ], [ 136.92231454, 35.346660096 ], [ 136.92594436499999, 35.346914233 ], [ 136.92666029, 35.34696216 ], [ 136.927280115, 35.347020621 ], [ 136.9279655, 35.34706848 ], [ 136.928904065000012, 35.347131149 ], [ 136.929564217, 35.347166474 ], [ 136.92976668099999, 35.347180041 ], [ 136.929863129000012, 35.347174965 ], [ 136.930768151, 35.347245712 ], [ 136.931510277, 35.347293662 ], [ 136.931542145, 35.34729568 ], [ 136.931612980000011, 35.3453837 ] ] ] } },
{ "type": "Feature", "properties": { "A29_001": "23361", "A29_002": "愛知県", "A29_003": "大口町", "A29_004": 3, "A29_005": "第一種中高層住居専用地域", "A29_006": 60, "A29_007": 200, "A29_008": null }, "geometry": { "type": "Polygon", "coordinates": [ [ [ 136.904197380999989, 35.337463855 ], [ 136.904144214000013, 35.337508152 ], [ 136.904029049, 35.337602876 ], [ 136.903935241999989, 35.337682069 ], [ 136.903864938, 35.337725725 ], [ 136.903808027999986, 35.337757079 ], [ 136.903747783, 35.337792545 ], [ 136.903628833999989, 35.337893588 ], [ 136.90349479599999, 35.338013753 ], [ 136.903389397000012, 35.338061425 ], [ 136.90327394900001, 35.338117296 ], [ 136.903205356, 35.338148633 ], [ 136.903155166, 35.338170428 ], [ 136.90310161299999, 35.338197688 ], [ 136.90304795099999, 35.338261905 ], [ 136.902982509, 35.338349371 ], [ 136.902895433999987, 35.338414886 ], [ 136.90278482799999, 35.338524149 ], [ 136.90268260900001, 35.338625254 ], [ 136.902642393, 35.338664883 ], [ 136.902596695999989, 35.338718616 ], [ 136.90254302, 35.338786935 ], [ 136.90248435699999, 35.338849762 ], [ 136.902373815, 35.338942583 ], [ 136.90227332, 35.339027222 ], [ 136.902191273, 35.339088628 ], [ 136.902079165, 35.339148607 ], [ 136.902008865, 35.339193614 ], [ 136.901901697, 35.339276869 ], [ 136.901828071000011, 35.339316397 ], [ 136.901712642, 35.339372266 ], [ 136.901620648, 35.339410384 ], [ 136.901552078, 35.33943761 ], [ 136.901391491999988, 35.339509804 ], [ 136.901304514, 35.339547932 ], [ 136.901220827, 35.339602501 ], [ 136.901148849, 35.339648874 ], [ 136.90110197199999, 35.339682989 ], [ 136.90105345500001, 35.339707518 ], [ 136.900974776999988, 35.339760736 ], [ 136.900743776000013, 35.339912145 ], [ 136.900601505999987, 35.340000793 ], [ 136.900554631, 35.340030806 ], [ 136.90047765599999, 35.340074427 ], [ 136.900402359999987, 35.340119459 ], [ 136.900240078, 35.340208089 ], [ 136.90015541599999, 35.340260987 ], [ 136.90008268, 35.340306899 ], [ 136.900033357000012, 35.340338412 ], [ 136.900084622, 35.340338525 ], [ 136.89979779399999, 35.340517788 ], [ 136.899713963000011, 35.340565414 ], [ 136.899656095000012, 35.340596106 ], [ 136.89962235199999, 35.340613438 ], [ 136.89957038599999, 35.340635904 ], [ 136.899480613, 35.34067361 ], [ 136.899383500999988, 35.34070197 ], [ 136.89940122199999, 35.340739274 ], [ 136.89946133399999, 35.340858845 ], [ 136.899516517, 35.340975503 ], [ 136.899545381, 35.341039991 ], [ 136.899591189, 35.341190999 ], [ 136.899653142, 35.341346459 ], [ 136.899753382, 35.341648503 ], [ 136.899785315, 35.34176683 ], [ 136.899815058, 35.341892211 ], [ 136.899838476000014, 35.341976988 ], [ 136.899844712, 35.3420476 ], [ 136.899883120999988, 35.342157118 ], [ 136.899913043, 35.342231316 ], [ 136.899979583, 35.342303829 ], [ 136.900074087, 35.342386995 ], [ 136.900166417, 35.342475448 ], [ 136.900258665, 35.342595675 ], [ 136.900344041000011, 35.342778545 ], [ 136.90040814599999, 35.34283918 ], [ 136.900420899000011, 35.34284852 ], [ 136.900563236000011, 35.342741015 ], [ 136.901036298, 35.342421817 ], [ 136.901483238999987, 35.342129575 ], [ 136.90155781499999, 35.342191018 ], [ 136.901898225999986, 35.341976433 ], [ 136.90172472099999, 35.34178524 ], [ 136.902946628, 35.340989146 ], [ 136.903936979, 35.340346959 ], [ 136.904324648999989, 35.340094763 ], [ 136.904903507, 35.339718539 ], [ 136.905785971, 35.339138698 ], [ 136.905775772999988, 35.33897788 ], [ 136.905763381000014, 35.33826428 ], [ 136.905754218999988, 35.337500433 ], [ 136.904197380999989, 35.337463855 ] ] ] } },
{ "type": "Feature", "properties": { "A29_001": "23361", "A29_002": "愛知県", "A29_003": "大口町", "A29_004": 5, "A29_005": "第一種住居地域", "A29_006": 60, "A29_007": 200, "A29_008": null }, "geometry": { "type": "Polygon", "coordinates": [ [ [ 136.90268505899999, 35.344825854 ], [ 136.902799015999989, 35.344937329 ], [ 136.902865580999986, 35.344976496 ], [ 136.902977701999987, 35.345057039 ], [ 136.903076432, 35.345145143 ], [ 136.903153545, 35.345225925 ], [ 136.903207976, 35.345291911 ], [ 136.903286046, 35.34539011 ], [ 136.903388358, 35.345526943 ], [ 136.903474437, 35.345696417 ], [ 136.903511286, 35.345718942 ], [ 136.90357090099999, 35.345696636 ], [ 136.903692178, 35.345678321 ], [ 136.903774728, 35.345667233 ], [ 136.90391093, 35.345650628 ], [ 136.904009986, 35.345638449 ], [ 136.904040251999987, 35.345635134 ], [ 136.90405125, 35.345636285 ], [ 136.904085616, 35.345640866 ], [ 136.904119982, 35.345645448 ], [ 136.904124695, 35.345643989 ], [ 136.90268505899999, 35.344825854 ] ] ] } },
{ "type": "Feature", "properties": { "A29_001": "23361", "A29_002": "愛知県", "A29_003": "大口町", "A29_004": 3, "A29_005": "第一種中高層住居専用地域", "A29_006": 60, "A29_007": 200, "A29_008": null }, "geometry": { "type": "Polygon", "coordinates": [ [ [ 136.90096413, 35.343406035 ], [ 136.901001003, 35.343444454 ], [ 136.901060382999987, 35.343493369 ], [ 136.901326633, 35.343644211 ], [ 136.901447725999986, 35.343755703 ], [ 136.90151423899999, 35.343810493 ], [ 136.901621213, 35.343869266 ], [ 136.901711546, 35.343920205 ], [ 136.90178753699999, 35.343986725 ], [ 136.90198220799999, 35.34417644 ], [ 136.902041571000012, 35.344231205 ], [ 136.90207729299999, 35.344231283 ], [ 136.902158168999989, 35.344260729 ], [ 136.90223645899999, 35.344354567 ], [ 136.902328942999986, 35.344481617 ], [ 136.902412035, 35.344563756 ], [ 136.902571103000014, 35.34471437 ], [ 136.90268505899999, 35.344825854 ], [ 136.904124695, 35.345643989 ], [ 136.904148889999988, 35.345636497 ], [ 136.904213588, 35.345617482 ], [ 136.904263117999989, 35.345610829 ], [ 136.90431676599999, 35.345606438 ], [ 136.904415873, 35.345578484 ], [ 136.904538376, 35.345544947 ], [ 136.904651242, 35.345514768 ], [ 136.904772356, 35.345485735 ], [ 136.904923731999986, 35.345454513 ], [ 136.90508337, 35.345419929 ], [ 136.905154917, 35.345408816 ], [ 136.905359944999987, 35.345372075 ], [ 136.905490673, 35.345346442 ], [ 136.905608957, 35.345342191 ], [ 136.90577399899999, 35.345316974 ], [ 136.905926515, 35.345289981 ], [ 136.90605476499999, 35.345268786 ], [ 136.906246028999988, 35.345235395 ], [ 136.90648981699999, 35.345187279 ], [ 136.906649165, 35.34517429 ], [ 136.90682929, 35.345162634 ], [ 136.906841157, 35.34517436 ], [ 136.906844095, 35.345284006 ], [ 136.906846538999986, 35.345379787 ], [ 136.906859916, 35.345497 ], [ 136.906882650999989, 35.345601803 ], [ 136.906910208, 35.345681899 ], [ 136.90693341299999, 35.345736034 ], [ 136.90695190400001, 35.345822926 ], [ 136.906967153000011, 35.345895162 ], [ 136.907003726999989, 35.346000617 ], [ 136.907012267, 35.346020151 ], [ 136.907037323, 35.346059948 ], [ 136.90714535399999, 35.346165556 ], [ 136.907208250999986, 35.346231278 ], [ 136.907350810999986, 35.346376938 ], [ 136.90726949899999, 35.346430848 ], [ 136.907379143000014, 35.346548268 ], [ 136.907494289, 35.3466657 ], [ 136.907465333, 35.3466893 ], [ 136.907446026, 35.34670616 ], [ 136.907581736, 35.346843917 ], [ 136.907692789, 35.346951199 ], [ 136.907753261000011, 35.347015212 ], [ 136.907855253, 35.347145198 ], [ 136.907931179, 35.347238045 ], [ 136.90794191099999, 35.347233191 ], [ 136.907957237, 35.347257121 ], [ 136.908018860999988, 35.347339507 ], [ 136.908077738, 35.347420761 ], [ 136.908102402999987, 35.347448983 ], [ 136.908168203, 35.347515603 ], [ 136.908189834000012, 35.347632834 ], [ 136.908229505, 35.347699398 ], [ 136.908280123999987, 35.347782888 ], [ 136.90830475300001, 35.347822377 ], [ 136.908362248, 35.347905881 ], [ 136.90848018299999, 35.348077827 ], [ 136.908533535, 35.348146421 ], [ 136.908630155, 35.348101557 ], [ 136.908748745, 35.34826183 ], [ 136.908995506, 35.348555065 ], [ 136.909052444, 35.34862739 ], [ 136.909121199999987, 35.348727053 ], [ 136.90905916299999, 35.348760093 ], [ 136.90911573299999, 35.348823556 ], [ 136.909180135000014, 35.34889806 ], [ 136.909262340999987, 35.348996265 ], [ 136.909329472, 35.349077535 ], [ 136.909604917, 35.348955303 ], [ 136.909862476, 35.348835286 ], [ 136.910173148000013, 35.348695631 ], [ 136.910342498, 35.348617936 ], [ 136.910467720000014, 35.348560637 ], [ 136.910748046, 35.348434906 ], [ 136.910994582, 35.348320497 ], [ 136.911230088999986, 35.348213951 ], [ 136.911445535000013, 35.348115737 ], [ 136.911397603000012, 35.348065481 ], [ 136.911337352, 35.348020814 ], [ 136.91117117499999, 35.34785343 ], [ 136.91112180799999, 35.347790578 ], [ 136.911069661999989, 35.347719454 ], [ 136.911414005000012, 35.347566039 ], [ 136.912040959, 35.347285948 ], [ 136.912648673, 35.34700007 ], [ 136.912354771999986, 35.346555458 ], [ 136.912124611, 35.346218646 ], [ 136.912040657, 35.346088187 ], [ 136.911943803000014, 35.345928458 ], [ 136.911859967, 35.345760789 ], [ 136.911757641, 35.345535904 ], [ 136.911706157999987, 35.345397544 ], [ 136.91161621399999, 35.345104898 ], [ 136.911418962, 35.344370673 ], [ 136.911341959999987, 35.344091349 ], [ 136.910822990000014, 35.343254086 ], [ 136.911056902000013, 35.343164187 ], [ 136.910896457, 35.34259489 ], [ 136.910766345000013, 35.342182512 ], [ 136.91070273299999, 35.341729775 ], [ 136.910682517999987, 35.341138455 ], [ 136.910879246, 35.341206901 ], [ 136.910969889, 35.341237146 ], [ 136.911060534, 35.341270564 ], [ 136.911358492, 35.34141388 ], [ 136.911465899, 35.341476142 ], [ 136.91176507099999, 35.341660825 ], [ 136.911802722, 35.341697962 ], [ 136.91186422199999, 35.342082448 ], [ 136.91192196099999, 35.34229526 ], [ 136.911980578, 35.342490802 ], [ 136.912468655999987, 35.344124264 ], [ 136.912661320000012, 35.344773384 ], [ 136.912724002, 35.344964941 ], [ 136.91279157299999, 35.34514854 ], [ 136.91287860599999, 35.34533218 ], [ 136.913001215, 35.345555764 ], [ 136.913121507999989, 35.345746116 ], [ 136.913367018, 35.34609759 ], [ 136.913785297, 35.346723266 ], [ 136.914383487, 35.346669773 ], [ 136.91438774400001, 35.346709093 ], [ 136.914394253000012, 35.346820026 ], [ 136.914405883, 35.346936577 ], [ 136.914420146, 35.347066068 ], [ 136.915676063, 35.346948262 ], [ 136.917611211, 35.346750599 ], [ 136.917884664000013, 35.344981929 ], [ 136.918483893, 35.342065581 ], [ 136.918626789, 35.34124871 ], [ 136.918200184, 35.340892512 ], [ 136.917785743, 35.340542161 ], [ 136.917600553999989, 35.340375882 ], [ 136.917224156, 35.339976624 ], [ 136.917068339, 35.339775475 ], [ 136.91689903299999, 35.339503798 ], [ 136.916763299, 35.339554791 ], [ 136.916339228999988, 35.339673559 ], [ 136.915728833, 35.339759875 ], [ 136.915298459000013, 35.339810254 ], [ 136.914750712999989, 35.33987535 ], [ 136.914295525999989, 35.339551935 ], [ 136.914008832, 35.339349545 ], [ 136.913577331999988, 35.339034524 ], [ 136.913570791000012, 35.338846105 ], [ 136.913550937, 35.338693642 ], [ 136.91360233, 35.338447473 ], [ 136.913636204, 35.338443163 ], [ 136.913634917, 35.338415081 ], [ 136.913626862, 35.338249996 ], [ 136.913513303, 35.338256248 ], [ 136.913456931000013, 35.337908011 ], [ 136.913925967000011, 35.337803715 ], [ 136.913804113999987, 35.337601777 ], [ 136.91377612, 35.337565526 ], [ 136.91375494499999, 35.337490916 ], [ 136.91371715299999, 35.336842725 ], [ 136.911081725, 35.336947994 ], [ 136.911121366, 35.336320653 ], [ 136.910948321, 35.336308613 ], [ 136.91086355499999, 35.336066475 ], [ 136.910893813, 35.336057299 ], [ 136.911130507, 35.336016839 ], [ 136.91114338, 35.335886873 ], [ 136.911151897, 35.335714755 ], [ 136.911059593, 35.335260244 ], [ 136.91062988199999, 35.335347584 ], [ 136.910578797999989, 35.335287892 ], [ 136.91052213, 35.335062615 ], [ 136.91044549599999, 35.334823666 ], [ 136.91001037, 35.334926668 ], [ 136.909986792000012, 35.334743521 ], [ 136.909966024999989, 35.334624706 ], [ 136.90993906599999, 35.334557845 ], [ 136.909878889, 35.334493382 ], [ 136.90980061499999, 35.334418984 ], [ 136.90958364299999, 35.334287393 ], [ 136.909239973000012, 35.334113463 ], [ 136.90900483199999, 35.333991712 ], [ 136.908532568999988, 35.333749629 ], [ 136.907750531, 35.333321341 ], [ 136.907181777, 35.333025817 ], [ 136.907546696999987, 35.332787299 ], [ 136.908013352000012, 35.333019396 ], [ 136.908088069, 35.333049122 ], [ 136.908597433000011, 35.332356197 ], [ 136.90757929099999, 35.331853064 ], [ 136.907550428, 35.331887193 ], [ 136.907375253, 35.332128353 ], [ 136.907063556, 35.33198764 ], [ 136.90682092599999, 35.331909578 ], [ 136.90678890699999, 35.332005267 ], [ 136.906662474, 35.332310676 ], [ 136.90643458299999, 35.332754136 ], [ 136.906162238, 35.333276671 ], [ 136.906166136, 35.333279014 ], [ 136.906329437000011, 35.333380775 ], [ 136.906469396, 35.333472346 ], [ 136.906520167, 35.333505131 ], [ 136.906640962000012, 35.333569618 ], [ 136.906728783, 35.333626145 ], [ 136.90682072199999, 35.333684935 ], [ 136.906835814, 35.333695109 ], [ 136.9068756, 35.333723363 ], [ 136.906985335, 35.333806981 ], [ 136.90712663, 35.333910947 ], [ 136.907226766, 35.333986656 ], [ 136.907347386, 35.334106353 ], [ 136.907462517999988, 35.334222658 ], [ 136.907570771, 35.334340075 ], [ 136.907608180000011, 35.334358129 ], [ 136.907728117, 35.334544377 ], [ 136.907996243000014, 35.334947191 ], [ 136.90816099599999, 35.335161316 ], [ 136.90826285, 35.335361279 ], [ 136.90829269, 35.335414608 ], [ 136.90832497, 35.335482265 ], [ 136.908358494, 35.335552999 ], [ 136.908420553000013, 35.335686263 ], [ 136.90847226599999, 35.335804009 ], [ 136.908499330000012, 35.335872043 ], [ 136.90857883000001, 35.336125061 ], [ 136.90866168299999, 35.33636123 ], [ 136.908657444999989, 35.336379609 ], [ 136.908677723000011, 35.33648895 ], [ 136.908698009, 35.336596037 ], [ 136.90871425200001, 35.336677199 ], [ 136.908728967, 35.336754645 ], [ 136.908733471, 35.336829256 ], [ 136.90873971799999, 35.336871131 ], [ 136.90874624599999, 35.336921868 ], [ 136.90875434899999, 35.337002743 ], [ 136.908757388999987, 35.337098678 ], [ 136.908763626, 35.337243956 ], [ 136.90877660699999, 35.337368686 ], [ 136.908779707, 35.337445439 ], [ 136.908782554999988, 35.337601671 ], [ 136.908783910000011, 35.337701713 ], [ 136.908783609000011, 35.337796262 ], [ 136.908775028, 35.337862084 ], [ 136.908505545, 35.337868062 ], [ 136.907931797, 35.337892787 ], [ 136.90790769899999, 35.337701463 ], [ 136.907289693, 35.337733897 ], [ 136.90683099899999, 35.337759919 ], [ 136.90685659, 35.338171256 ], [ 136.906863152, 35.338197068 ], [ 136.907016191999986, 35.338741684 ], [ 136.907123345, 35.339008779 ], [ 136.907312432, 35.339627442 ], [ 136.906338272, 35.339736322 ], [ 136.906342271, 35.340156392 ], [ 136.905820457, 35.340351037 ], [ 136.90561285199999, 35.340430653 ], [ 136.905319283000011, 35.340531005 ], [ 136.905383511999986, 35.340686729 ], [ 136.904739597, 35.340964685 ], [ 136.904631513999988, 35.341024567 ], [ 136.904194746, 35.341302969 ], [ 136.90376659899999, 35.341581389 ], [ 136.902952058000011, 35.342118059 ], [ 136.90096413, 35.343406035 ] ] ] } },
{ "type": "Feature", "properties": { "A29_001": "23361", "A29_002": "愛知県", "A29_003": "大口町", "A29_004": 11, "A29_005": "工業地域", "A29_006": 60, "A29_007": 200, "A29_008": null }, "geometry": { "type": "Polygon", "coordinates": [ [ [ 136.900737252, 35.311537202 ], [ 136.900618298000012, 35.311368121 ], [ 136.900486075, 35.311114134 ], [ 136.900407597, 35.310752625 ], [ 136.900409986, 35.310694759 ], [ 136.900502867, 35.310536953 ], [ 136.90039349, 35.310261913 ], [ 136.900307758999986, 35.309972637 ], [ 136.90017124100001, 35.309983 ], [ 136.90003110399999, 35.309987009 ], [ 136.899854621, 35.310004694 ], [ 136.899756645999986, 35.310008984 ], [ 136.89965300599999, 35.310010198 ], [ 136.899596226999989, 35.310027245 ], [ 136.89941105, 35.310063632 ], [ 136.898987038, 35.310123729 ], [ 136.89868005400001, 35.310187673 ], [ 136.898661105, 35.310164428 ], [ 136.898583906, 35.310077891 ], [ 136.89838415700001, 35.309767782 ], [ 136.897995756, 35.309577882 ], [ 136.898019858, 35.30947886 ], [ 136.898035649, 35.30945599 ], [ 136.89809870900001, 35.309391714 ], [ 136.89816525, 35.309328871 ], [ 136.898179336999988, 35.309288825 ], [ 136.898191872000012, 35.309129724 ], [ 136.89821058699999, 35.308917174 ], [ 136.89818439699999, 35.308915682 ], [ 136.898119761, 35.308918045 ], [ 136.898013623, 35.308926769 ], [ 136.89787216, 35.308923354 ], [ 136.8978363, 35.308929728 ], [ 136.897394066, 35.308997956 ], [ 136.89729821099999, 35.309009767 ], [ 136.89723701599999, 35.309015364 ], [ 136.897098854, 35.309024729 ], [ 136.89701674299999, 35.309033731 ], [ 136.896859704, 35.309054636 ], [ 136.89671259299999, 35.309082982 ], [ 136.896594912000012, 35.309100288 ], [ 136.896506979, 35.309110837 ], [ 136.896372219999989, 35.309131683 ], [ 136.896354624, 35.309164969 ], [ 136.896087566, 35.309293141 ], [ 136.895908666, 35.309366414 ], [ 136.895833885, 35.30932085 ], [ 136.895773623999986, 35.309290599 ], [ 136.895710522, 35.309324162 ], [ 136.895669340000012, 35.309343432 ], [ 136.89563431900001, 35.309351962 ], [ 136.895492174, 35.309358188 ], [ 136.895474661, 35.309353353 ], [ 136.89534302199999, 35.309266251 ], [ 136.89525493799999, 35.309196842 ], [ 136.895221251, 35.309151668 ], [ 136.895189671, 35.309104759 ], [ 136.895312673, 35.309044946 ], [ 136.89535101199999, 35.308954763 ], [ 136.895384554, 35.308878677 ], [ 136.895576127999988, 35.308806732 ], [ 136.89564874199999, 35.308776561 ], [ 136.895551866, 35.308642744 ], [ 136.89544021399999, 35.308495021 ], [ 136.895332679, 35.308381993 ], [ 136.89524005199999, 35.308234322 ], [ 136.895189576, 35.308142272 ], [ 136.895224374, 35.307861331 ], [ 136.895186502, 35.307795334 ], [ 136.89521226299999, 35.307687843 ], [ 136.895261374, 35.30755612 ], [ 136.895272283, 35.307457267 ], [ 136.89555119799999, 35.306947903 ], [ 136.89564536099999, 35.3067733 ], [ 136.895844081, 35.30675651 ], [ 136.895956202, 35.306753309 ], [ 136.89571589799999, 35.306643311 ], [ 136.895585509999989, 35.306577828 ], [ 136.895428304, 35.306495283 ], [ 136.895053846, 35.3062761 ], [ 136.894972454999987, 35.306205498 ], [ 136.89488296799999, 35.30584625 ], [ 136.894422623999986, 35.305941388 ], [ 136.893390525, 35.305851081 ], [ 136.893359010000012, 35.305827987 ], [ 136.892898059, 35.305785939 ], [ 136.89267526899999, 35.305763845 ], [ 136.892613304, 35.30621384 ], [ 136.892576133, 35.306237409 ], [ 136.89236368499999, 35.306304516 ], [ 136.891922943999987, 35.306402357 ], [ 136.891644234000012, 35.306569001 ], [ 136.89150228299999, 35.306659082 ], [ 136.891155518, 35.306691366 ], [ 136.89112277000001, 35.306700918 ], [ 136.891037501, 35.306717698 ], [ 136.889408465, 35.306232334 ], [ 136.88922166399999, 35.306172321 ], [ 136.888886348999989, 35.305760241 ], [ 136.888389846, 35.3051059 ], [ 136.887916222, 35.304868843 ], [ 136.88891999099999, 35.306521427 ], [ 136.889044283, 35.306792338 ], [ 136.889100675, 35.30694644 ], [ 136.889128699, 35.307077147 ], [ 136.889178073000011, 35.307618512 ], [ 136.889690003999988, 35.307501599 ], [ 136.890166365999988, 35.308061698 ], [ 136.890343443, 35.308276101 ], [ 136.890796353000013, 35.309119389 ], [ 136.89099172600001, 35.309419964 ], [ 136.891325552000012, 35.309866821 ], [ 136.891825476, 35.309678335 ], [ 136.89187838, 35.309659345 ], [ 136.89249557299999, 35.309506377 ], [ 136.89252185, 35.30955688 ], [ 136.892604694, 35.309696068 ], [ 136.89264098699999, 35.309760421 ], [ 136.89273478199999, 35.309936015 ], [ 136.89277599, 35.310003706 ], [ 136.892829424000013, 35.310079078 ], [ 136.89284812599999, 35.310106406 ], [ 136.892853988000013, 35.310119184 ], [ 136.892846979000012, 35.310130174 ], [ 136.892870471, 35.31016852 ], [ 136.892877992, 35.310165454 ], [ 136.89309300299999, 35.310509392 ], [ 136.89315728599999, 35.310651566 ], [ 136.893175766000013, 35.310702511 ], [ 136.89319703000001, 35.310759304 ], [ 136.89322945699999, 35.310848663 ], [ 136.893284302000012, 35.310975464 ], [ 136.893303972000012, 35.311028729 ], [ 136.893340698, 35.311118558 ], [ 136.893360373, 35.311170497 ], [ 136.893381672, 35.31122025 ], [ 136.89340386, 35.311280227 ], [ 136.893432768999986, 35.311346628 ], [ 136.893460274, 35.311418074 ], [ 136.893498615999988, 35.311504805 ], [ 136.893559, 35.31165593 ], [ 136.894993457, 35.311501304 ], [ 136.895112383, 35.311497514 ], [ 136.89527098, 35.311485683 ], [ 136.895534795, 35.311863981 ], [ 136.895739545999987, 35.312126402 ], [ 136.895904343000012, 35.312297348 ], [ 136.895992446, 35.312388895 ], [ 136.896427851, 35.31235283 ], [ 136.897375847, 35.312305258 ], [ 136.897822348, 35.312265597 ], [ 136.898291007000012, 35.312189855 ], [ 136.898859054000013, 35.312055594 ], [ 136.899750643, 35.311836239 ], [ 136.89994740099999, 35.311780803 ], [ 136.900572899, 35.311587203 ], [ 136.900737252, 35.311537202 ] ] ] } },
{ "type": "Feature", "properties": { "A29_001": "23361", "A29_002": "愛知県", "A29_003": "大口町", "A29_004": 5, "A29_005": "第一種住居地域", "A29_006": 60, "A29_007": 200, "A29_008": null }, "geometry": { "type": "Polygon", "coordinates": [ [ [ 136.895992446, 35.312388895 ], [ 136.89605123199999, 35.312449981 ], [ 136.896335219, 35.312726785 ], [ 136.89639947500001, 35.312773641 ], [ 136.896730843, 35.312957145 ], [ 136.896901487, 35.31305094 ], [ 136.897119148, 35.313157018 ], [ 136.897245319, 35.31321417 ], [ 136.897321992, 35.313250894 ], [ 136.897422016, 35.313289977 ], [ 136.897603129, 35.313354282 ], [ 136.897822418, 35.313437592 ], [ 136.898139635, 35.313575755 ], [ 136.898491674000013, 35.313752774 ], [ 136.899100232, 35.314053719 ], [ 136.899742354000011, 35.314359143 ], [ 136.899920602, 35.314443504 ], [ 136.90006767700001, 35.314532637 ], [ 136.900405299, 35.314668369 ], [ 136.90055889300001, 35.314748645 ], [ 136.900943829999989, 35.314890808 ], [ 136.901126495, 35.314680925 ], [ 136.901261204, 35.314765368 ], [ 136.901316493, 35.314717182 ], [ 136.90139851699999, 35.314759964 ], [ 136.901507638999988, 35.314812684 ], [ 136.901626601, 35.314870059 ], [ 136.901770054, 35.314775661 ], [ 136.901872002, 35.314708277 ], [ 136.901938836, 35.31466072 ], [ 136.901793507, 35.31454804 ], [ 136.902343393, 35.314333586 ], [ 136.90268089700001, 35.314208656 ], [ 136.90266494799999, 35.314178946 ], [ 136.902183145, 35.313300484 ], [ 136.901909063, 35.312805318 ], [ 136.901530779000012, 35.312948843 ], [ 136.901280238999988, 35.312496788 ], [ 136.901256144, 35.312506858 ], [ 136.900985834000011, 35.312007597 ], [ 136.900737252, 35.311537202 ], [ 136.900572899, 35.311587203 ], [ 136.89994740099999, 35.311780803 ], [ 136.899750643, 35.311836239 ], [ 136.898859054000013, 35.312055594 ], [ 136.898291007000012, 35.312189855 ], [ 136.897822348, 35.312265597 ], [ 136.897375847, 35.312305258 ], [ 136.896427851, 35.31235283 ], [ 136.895992446, 35.312388895 ] ] ] } }
]
}
