{
"type": "FeatureCollection",
"name": "A29-19_23446",
"features": [
{ "type": "Feature", "properties": { "A29_001": "23446", "A29_002": "愛知県", "A29_003": "美浜町", "A29_004": 11, "A29_005": "工業地域", "A29_006": 60, "A29_007": 200, "A29_008": "条件付き公開" }, "geometry": { "type": "Polygon", "coordinates": [ [ [ 136.922946145999987, 34.758323229 ], [ 136.92254208899999, 34.760910147 ], [ 136.922733806, 34.760911944 ], [ 136.924185130000012, 34.7608905 ], [ 136.925338856, 34.76092567 ], [ 136.925327968, 34.76144148 ], [ 136.92532759, 34.761479525 ], [ 136.926809638, 34.761479031 ], [ 136.926803877999987, 34.760872215 ], [ 136.9269866, 34.760872758 ], [ 136.926994866, 34.759063975 ], [ 136.927026167, 34.758556556 ], [ 136.927080249999989, 34.758333333 ], [ 136.922946145999987, 34.758323229 ] ] ] } },
{ "type": "Feature", "properties": { "A29_001": "23446", "A29_002": "愛知県", "A29_003": "美浜町", "A29_004": 1, "A29_005": "第一種低層住居専用地域", "A29_006": 30, "A29_007": 50, "A29_008": "条件付き公開" }, "geometry": { "type": "Polygon", "coordinates": [ [ [ 136.916546333000014, 34.764004639 ], [ 136.91921158299999, 34.762839639 ], [ 136.919669306, 34.761935528 ], [ 136.919681889, 34.761889278 ], [ 136.919716861000012, 34.761760694 ], [ 136.919741667000011, 34.761608528 ], [ 136.919565444, 34.761538278 ], [ 136.919418917, 34.761479361 ], [ 136.919340444, 34.761431667 ], [ 136.919244166999988, 34.761435556 ], [ 136.919097528, 34.761426611 ], [ 136.918999250000013, 34.76142725 ], [ 136.918905611000014, 34.761443222 ], [ 136.918682749999988, 34.76143875 ], [ 136.918625472, 34.7615985 ], [ 136.918576281000014, 34.761652265 ], [ 136.918544222, 34.761687306 ], [ 136.91851405599999, 34.761714778 ], [ 136.91849083299999, 34.7617525 ], [ 136.918382278, 34.761927556 ], [ 136.918235751, 34.762167874 ], [ 136.918235403000011, 34.762168445 ], [ 136.918066216999989, 34.76220782 ], [ 136.917924892, 34.76249376 ], [ 136.91774784399999, 34.762547782 ], [ 136.917506446, 34.762663211 ], [ 136.91728561799999, 34.762858825 ], [ 136.916955914, 34.762928275 ], [ 136.916684632, 34.763176738 ], [ 136.916481962, 34.763100471 ], [ 136.916171337, 34.763168527 ], [ 136.916314596, 34.763393511 ], [ 136.916361896000012, 34.763810071 ], [ 136.916546333000014, 34.764004639 ] ] ] } },
{ "type": "Feature", "properties": { "A29_001": "23446", "A29_002": "愛知県", "A29_003": "美浜町", "A29_004": 10, "A29_005": "準工業地域", "A29_006": 60, "A29_007": 200, "A29_008": "条件付き公開" }, "geometry": { "type": "Polygon", "coordinates": [ [ [ 136.9269866, 34.760872758 ], [ 136.926803877999987, 34.760872215 ], [ 136.926809638, 34.761479031 ], [ 136.92532759, 34.761479525 ], [ 136.925327968, 34.76144148 ], [ 136.924238597, 34.761428495 ], [ 136.92421647099999, 34.762471755 ], [ 136.922691267, 34.762470855 ], [ 136.922695283, 34.764249536 ], [ 136.922847694000012, 34.764254778 ], [ 136.923476222, 34.764225389 ], [ 136.923602722, 34.764231833 ], [ 136.923712056, 34.764251194 ], [ 136.923720623, 34.764254083 ], [ 136.92382294399999, 34.764288583 ], [ 136.92399319399999, 34.764360806 ], [ 136.924100944, 34.764399472 ], [ 136.924189944, 34.764418833 ], [ 136.924266472, 34.764425278 ], [ 136.924330742, 34.764420274 ], [ 136.92434925, 34.764418833 ], [ 136.92480595699999, 34.764350894 ], [ 136.925, 34.764322028 ], [ 136.925373721999989, 34.764266028 ], [ 136.92544288799999, 34.764256006 ], [ 136.925965694000013, 34.76418025 ], [ 136.926058590999986, 34.764167528 ], [ 136.926466457, 34.764111672 ], [ 136.926954306, 34.764044861 ], [ 136.926959694, 34.763740003 ], [ 136.92696361099999, 34.763518333 ], [ 136.92696227, 34.763454845 ], [ 136.926954306, 34.763077722 ], [ 136.926960248, 34.762743928 ], [ 136.926966649, 34.762384313 ], [ 136.9269715, 34.762111833 ], [ 136.926976075999988, 34.761750746 ], [ 136.92697984, 34.761453706 ], [ 136.92698611099999, 34.760958861 ], [ 136.9269866, 34.760872758 ] ] ] } },
{ "type": "Feature", "properties": { "A29_001": "23446", "A29_002": "愛知県", "A29_003": "美浜町", "A29_004": 2, "A29_005": "第二種低層住居専用地域", "A29_006": 60, "A29_007": 150, "A29_008": "条件付き公開" }, "geometry": { "type": "Polygon", "coordinates": [ [ [ 136.918541306, 34.763754556 ], [ 136.919252674, 34.762862858 ], [ 136.919315334, 34.762898266 ], [ 136.920241973, 34.761725766 ], [ 136.920216111, 34.761678556 ], [ 136.92015311099999, 34.761677694 ], [ 136.920029806, 34.761668833 ], [ 136.919883548, 34.761641158 ], [ 136.919741667000011, 34.761608528 ], [ 136.919716861000012, 34.761760694 ], [ 136.919681889, 34.761889278 ], [ 136.919669306, 34.761935528 ], [ 136.91921158299999, 34.762839639 ], [ 136.916546333000014, 34.764004639 ], [ 136.916296222999989, 34.764136662 ], [ 136.916184167000011, 34.764212556 ], [ 136.916045, 34.764350861 ], [ 136.917475943999989, 34.765107333 ], [ 136.918541306, 34.763754556 ] ] ] } },
{ "type": "Feature", "properties": { "A29_001": "23446", "A29_002": "愛知県", "A29_003": "美浜町", "A29_004": 2, "A29_005": "第二種低層住居専用地域", "A29_006": 60, "A29_007": 150, "A29_008": "条件付き公開" }, "geometry": { "type": "Polygon", "coordinates": [ [ [ 136.921872103999988, 34.764445929 ], [ 136.921773472000012, 34.763924139 ], [ 136.92165094399999, 34.763511611 ], [ 136.921488638999989, 34.763080694 ], [ 136.921293639, 34.762664417 ], [ 136.920926393, 34.762163308 ], [ 136.920736889000011, 34.7624135 ], [ 136.918802559999989, 34.76487896 ], [ 136.918282556, 34.765536778 ], [ 136.918958444, 34.765912278 ], [ 136.91905872000001, 34.765968015 ], [ 136.91906958300001, 34.765959389 ], [ 136.919305694, 34.765789917 ], [ 136.919311463000014, 34.765785821 ], [ 136.919542971999988, 34.765621444 ], [ 136.919658056, 34.765545028 ], [ 136.919768389000012, 34.765470583 ], [ 136.920212111000012, 34.765249194 ], [ 136.920247297, 34.765232149 ], [ 136.92084513899999, 34.764942528 ], [ 136.921186556, 34.764771028 ], [ 136.921542167000013, 34.764566083 ], [ 136.92153533199999, 34.764503465 ], [ 136.921872103999988, 34.764445929 ] ] ] } },
{ "type": "Feature", "properties": { "A29_001": "23446", "A29_002": "愛知県", "A29_003": "美浜町", "A29_004": 10, "A29_005": "準工業地域", "A29_006": 60, "A29_007": 200, "A29_008": "条件付き公開" }, "geometry": { "type": "Polygon", "coordinates": [ [ [ 136.916815335, 34.767052592 ], [ 136.91657715299999, 34.766933118 ], [ 136.916459194, 34.767066833 ], [ 136.915701028, 34.767951611 ], [ 136.91556209699999, 34.768108069 ], [ 136.915163944, 34.768482917 ], [ 136.915786278000013, 34.769029583 ], [ 136.915984388999988, 34.768959861 ], [ 136.91621963899999, 34.768894806 ], [ 136.916374972, 34.768843694 ], [ 136.916475166999987, 34.768801861 ], [ 136.91651614, 34.768775666 ], [ 136.916544944, 34.76875725 ], [ 136.91663275, 34.768677333 ], [ 136.916666666999987, 34.768643833 ], [ 136.916914139, 34.768399444 ], [ 136.917184278, 34.768095528 ], [ 136.917271715999988, 34.767983983 ], [ 136.917075293000011, 34.767412754 ], [ 136.916971855000014, 34.767207411 ], [ 136.916815335, 34.767052592 ] ] ] } },
{ "type": "Feature", "properties": { "A29_001": "23446", "A29_002": "愛知県", "A29_003": "美浜町", "A29_004": 8, "A29_005": "近隣商業地域", "A29_006": 80, "A29_007": 200, "A29_008": "条件付き公開" }, "geometry": { "type": "Polygon", "coordinates": [ [ [ 136.84374961099999, 34.766189472 ], [ 136.843944193999988, 34.766634528 ], [ 136.843958861, 34.766666667 ], [ 136.844014929999986, 34.766802873 ], [ 136.844044472, 34.766874639 ], [ 136.844235360999988, 34.767274556 ], [ 136.844320361, 34.767470972 ], [ 136.84441883299999, 34.767696139 ], [ 136.844523470000013, 34.767919836 ], [ 136.844532496, 34.767939132 ], [ 136.84458125, 34.768043361 ], [ 136.844614306000011, 34.768153111 ], [ 136.844631889, 34.768350611 ], [ 136.844643416999986, 34.768395111 ], [ 136.844692694, 34.768506972 ], [ 136.844753716000014, 34.768640886 ], [ 136.844847342, 34.768846353 ], [ 136.845105389, 34.769412639 ], [ 136.84521855599999, 34.769656611 ], [ 136.84531669399999, 34.769868194 ], [ 136.845355476, 34.769952057 ], [ 136.845432139, 34.770117833 ], [ 136.84552936099999, 34.770332083 ], [ 136.845588944000013, 34.770519833 ], [ 136.845737582999988, 34.770842361 ], [ 136.84664916700001, 34.770495306 ], [ 136.846610360999989, 34.770424583 ], [ 136.846921667, 34.770259361 ], [ 136.847427667, 34.769876528 ], [ 136.847671420000012, 34.769696395 ], [ 136.84685549299999, 34.768756974 ], [ 136.84653405, 34.76834157 ], [ 136.84609620399999, 34.767873591 ], [ 136.84600337, 34.76759657 ], [ 136.845598472, 34.765980639 ], [ 136.845407028000011, 34.766022361 ], [ 136.845258333, 34.766036806 ], [ 136.844980772000014, 34.766044214 ], [ 136.844549417, 34.766099444 ], [ 136.84374961099999, 34.766189472 ] ] ] } },
{ "type": "Feature", "properties": { "A29_001": "23446", "A29_002": "愛知県", "A29_003": "美浜町", "A29_004": 2, "A29_005": "第二種低層住居専用地域", "A29_006": 60, "A29_007": 150, "A29_008": "条件付き公開" }, "geometry": { "type": "Polygon", "coordinates": [ [ [ 136.905830619999989, 34.7696439 ], [ 136.905545101, 34.769510091 ], [ 136.905351962999987, 34.76934271 ], [ 136.905312489000011, 34.769027774 ], [ 136.90541729099999, 34.768791861 ], [ 136.904467428, 34.768439189 ], [ 136.90414389899999, 34.768374091 ], [ 136.903816927, 34.768483106 ], [ 136.903660879, 34.768470843 ], [ 136.90332902, 34.768298389 ], [ 136.902972186999989, 34.769616652 ], [ 136.902647728, 34.769842546 ], [ 136.902624072, 34.770009461 ], [ 136.902548652, 34.770092781 ], [ 136.902548295, 34.770204886 ], [ 136.902770296999989, 34.77038426 ], [ 136.90275494799999, 34.770665685 ], [ 136.902665007, 34.77077044 ], [ 136.90264377, 34.771085245 ], [ 136.902787775, 34.771250138 ], [ 136.90279030799999, 34.77136225 ], [ 136.90261622, 34.771567002 ], [ 136.902643743, 34.772001175 ], [ 136.90241649, 34.772561212 ], [ 136.902366634, 34.772785316 ], [ 136.902386146, 34.773011955 ], [ 136.902523917, 34.773319949 ], [ 136.902760371999989, 34.77350174 ], [ 136.902956284, 34.773707295 ], [ 136.903502672, 34.77369178 ], [ 136.903877671, 34.773940655 ], [ 136.903961122999988, 34.774060096 ], [ 136.904018029000014, 34.774346447 ], [ 136.904234242, 34.774532962 ], [ 136.904303097, 34.774697691 ], [ 136.904404136000011, 34.774740843 ], [ 136.904629497, 34.774960231 ], [ 136.90486148799999, 34.774819371 ], [ 136.905830619999989, 34.7696439 ] ] ] } },
{ "type": "Feature", "properties": { "A29_001": "23446", "A29_002": "愛知県", "A29_003": "美浜町", "A29_004": 5, "A29_005": "第一種住居地域", "A29_006": 60, "A29_007": 200, "A29_008": "条件付き公開" }, "geometry": { "type": "Polygon", "coordinates": [ [ [ 136.851061208, 34.774816035 ], [ 136.850988333, 34.774759167 ], [ 136.850867389, 34.77466 ], [ 136.850679917, 34.774488917 ], [ 136.850813944, 34.774350444 ], [ 136.850933027999986, 34.774262972 ], [ 136.851012, 34.774204056 ], [ 136.851064333000011, 34.774156139 ], [ 136.851109056000013, 34.774101139 ], [ 136.851120694, 34.774083833 ], [ 136.851152832999986, 34.774035944 ], [ 136.851242250000013, 34.773885111 ], [ 136.851341194000014, 34.773720139 ], [ 136.851398278, 34.773648639 ], [ 136.85143919399999, 34.773617222 ], [ 136.851484889, 34.773592083 ], [ 136.851540056, 34.7735725 ], [ 136.85161330599999, 34.7735465 ], [ 136.852138528000012, 34.773405889 ], [ 136.852199417, 34.773384694 ], [ 136.852200278, 34.773384111 ], [ 136.852259333, 34.773343833 ], [ 136.852309778, 34.773309278 ], [ 136.852563806, 34.773050806 ], [ 136.85268844399999, 34.772914917 ], [ 136.852841082999987, 34.7727255 ], [ 136.852972943999987, 34.772743556 ], [ 136.853163360999986, 34.772759583 ], [ 136.853326611, 34.772766194 ], [ 136.853387833, 34.772767639 ], [ 136.85343536100001, 34.772764056 ], [ 136.853532, 34.772747083 ], [ 136.853630444, 34.77273025 ], [ 136.853672472, 34.772717806 ], [ 136.853701167, 34.77270575 ], [ 136.853744806, 34.77268025 ], [ 136.853910611, 34.772523833 ], [ 136.854081971999989, 34.772441972 ], [ 136.85461755599999, 34.772190167 ], [ 136.85450458299999, 34.771996611 ], [ 136.854383833000014, 34.771796111 ], [ 136.85487620399999, 34.771840195 ], [ 136.854868677000013, 34.771613298 ], [ 136.855078255, 34.771610853 ], [ 136.85520886899999, 34.771468074 ], [ 136.855162712, 34.771179973 ], [ 136.854913729, 34.771163201 ], [ 136.854878068, 34.771037885 ], [ 136.854171603, 34.77116722 ], [ 136.854167686000011, 34.771160021 ], [ 136.854069417, 34.770979417 ], [ 136.853989417, 34.770818528 ], [ 136.85394233299999, 34.770706528 ], [ 136.853806193999986, 34.770301611 ], [ 136.85348212299999, 34.770316967 ], [ 136.853471336000013, 34.770204095 ], [ 136.853358027000013, 34.770203804 ], [ 136.853349167, 34.770100739 ], [ 136.85317789699999, 34.77014037 ], [ 136.85308330399999, 34.770082881 ], [ 136.852914352999989, 34.770120609 ], [ 136.852914656, 34.770040466 ], [ 136.852521466000013, 34.770060442 ], [ 136.852514753, 34.770001271 ], [ 136.852243933000011, 34.770071175 ], [ 136.852176007999986, 34.769967563 ], [ 136.851999221999989, 34.770050889 ], [ 136.851964167, 34.770072306 ], [ 136.851882374000013, 34.769938189 ], [ 136.852333120999987, 34.769724115 ], [ 136.852160712, 34.769454616 ], [ 136.852084308, 34.769479225 ], [ 136.851699688999986, 34.769069879 ], [ 136.851330663999988, 34.769288836 ], [ 136.851048056, 34.769053056 ], [ 136.850904750000012, 34.768954167 ], [ 136.850642757, 34.768810974 ], [ 136.85075065699999, 34.76871059 ], [ 136.850603188, 34.768572818 ], [ 136.850647412, 34.768421856 ], [ 136.850648690000014, 34.768421262 ], [ 136.850715138999988, 34.768390361 ], [ 136.850941111, 34.76828325 ], [ 136.85109833300001, 34.768199556 ], [ 136.851187909, 34.768145561 ], [ 136.851344919000013, 34.768109143 ], [ 136.851390121, 34.768384039 ], [ 136.85166098799999, 34.76830078 ], [ 136.851588, 34.768035354 ], [ 136.85153710599999, 34.768040946 ], [ 136.851527835000013, 34.767920366 ], [ 136.851530067999988, 34.767918601 ], [ 136.851623498, 34.767844702 ], [ 136.85162405599999, 34.7676748 ], [ 136.851450666, 34.76766481 ], [ 136.851451548, 34.767521704 ], [ 136.851239287999988, 34.767503137 ], [ 136.85121926799999, 34.767321027 ], [ 136.851140332999989, 34.767262056 ], [ 136.850884083000011, 34.767071329 ], [ 136.850810306, 34.767016417 ], [ 136.850360443999989, 34.766871472 ], [ 136.85014619399999, 34.7667895 ], [ 136.85009388899999, 34.7667695 ], [ 136.850055806, 34.766763556 ], [ 136.850019777999989, 34.766767806 ], [ 136.85, 34.766773389 ], [ 136.84993847199999, 34.76679075 ], [ 136.849708944000014, 34.766865528 ], [ 136.849682167, 34.766871056 ], [ 136.849655444, 34.766876583 ], [ 136.84956383299999, 34.766881667 ], [ 136.84940947199999, 34.766883583 ], [ 136.84925097199999, 34.766876583 ], [ 136.849166556, 34.766875722 ], [ 136.84909452799999, 34.766879972 ], [ 136.84907259900001, 34.766885054 ], [ 136.848977194000014, 34.766907167 ], [ 136.848934987, 34.76694769 ], [ 136.847765411000012, 34.766965643 ], [ 136.847557577, 34.766893541 ], [ 136.847300972, 34.766893028 ], [ 136.847258055999987, 34.766884167 ], [ 136.84714463899999, 34.766876556 ], [ 136.847049583, 34.766880361 ], [ 136.846876361, 34.766905667 ], [ 136.84672755599999, 34.766922139 ], [ 136.84672791700001, 34.766900778 ], [ 136.846640889000014, 34.766674889 ], [ 136.846637972, 34.766666667 ], [ 136.846600861000013, 34.766561944 ], [ 136.846550298000011, 34.766434364 ], [ 136.846463465999989, 34.766465143 ], [ 136.846210679, 34.766058989 ], [ 136.84629461899999, 34.766028202 ], [ 136.84626323099999, 34.765923169 ], [ 136.846485204, 34.765929381 ], [ 136.846505861, 34.765907778 ], [ 136.846529167, 34.765877611 ], [ 136.84653927799999, 34.765857722 ], [ 136.84658105599999, 34.765830444 ], [ 136.846599306, 34.765819194 ], [ 136.846626528, 34.765808611 ], [ 136.84667119400001, 34.765797722 ], [ 136.84683325, 34.765764333 ], [ 136.846937516, 34.76571027 ], [ 136.846716694, 34.765327194 ], [ 136.846674917, 34.765352528 ], [ 136.846648499999986, 34.765381417 ], [ 136.846580111, 34.765449444 ], [ 136.846561056000013, 34.765465472 ], [ 136.84653036099999, 34.765476389 ], [ 136.846496527999989, 34.765478 ], [ 136.846479249999987, 34.765222002 ], [ 136.846411837, 34.765164579 ], [ 136.846458821, 34.765123199 ], [ 136.84645581699999, 34.765002976 ], [ 136.84663477699999, 34.764916147 ], [ 136.84698688099999, 34.764901329 ], [ 136.84711889499999, 34.764845861 ], [ 136.847164459, 34.764722903 ], [ 136.847208431000013, 34.76456273 ], [ 136.84719442799999, 34.764146232 ], [ 136.847674071, 34.763885591 ], [ 136.847835366999988, 34.76388172 ], [ 136.848018137, 34.763817797 ], [ 136.84819152099999, 34.763827195 ], [ 136.848296088000012, 34.763881136 ], [ 136.848990127, 34.76378754 ], [ 136.84918502799999, 34.763838734 ], [ 136.84973183299999, 34.763813917 ], [ 136.849774278000012, 34.763806389 ], [ 136.849899639, 34.763799917 ], [ 136.849927083000011, 34.763792889 ], [ 136.849950583, 34.763772944 ], [ 136.849987139, 34.763747611 ], [ 136.85, 34.763742306 ], [ 136.85010075, 34.763700694 ], [ 136.850150222, 34.763673389 ], [ 136.85015586099999, 34.763612139 ], [ 136.850160278, 34.763555417 ], [ 136.85017522199999, 34.763454833 ], [ 136.85016477799999, 34.763323306 ], [ 136.85015644399999, 34.763241222 ], [ 136.85008061100001, 34.76289775 ], [ 136.850069499999989, 34.762819139 ], [ 136.850064444, 34.762803111 ], [ 136.8500555, 34.762793806 ], [ 136.85003608299999, 34.762787389 ], [ 136.850012778, 34.7627845 ], [ 136.85, 34.762783778 ], [ 136.849917583, 34.762779056 ], [ 136.849846500000012, 34.762780639 ], [ 136.849710722, 34.7627925 ], [ 136.849676917000011, 34.762774222 ], [ 136.849634556000012, 34.762746333 ], [ 136.849601167, 34.762719694 ], [ 136.849569306, 34.762686333 ], [ 136.849545806, 34.762653944 ], [ 136.84952716699999, 34.762621861 ], [ 136.849511611, 34.762580806 ], [ 136.849494693999986, 34.762507667 ], [ 136.84911531899999, 34.762493639 ], [ 136.848713551, 34.762498553 ], [ 136.848517378999986, 34.762402631 ], [ 136.848173559, 34.762370725 ], [ 136.847869679000013, 34.76247488 ], [ 136.847756922, 34.762484125 ], [ 136.847537015, 34.76254795 ], [ 136.847432543, 34.762657397 ], [ 136.847406127, 34.762762278 ], [ 136.847299499, 34.762680901 ], [ 136.846981212, 34.76277309 ], [ 136.84695760299999, 34.762899445 ], [ 136.846609914, 34.763120358 ], [ 136.846402146, 34.763033944 ], [ 136.84627455, 34.763143329 ], [ 136.84610664600001, 34.763212059 ], [ 136.84589009699999, 34.763154243 ], [ 136.845467707000012, 34.76344532 ], [ 136.845420324, 34.763552531 ], [ 136.845051003, 34.763760264 ], [ 136.84479020399999, 34.763932504 ], [ 136.844765556, 34.764215556 ], [ 136.844422697, 34.764602379 ], [ 136.84424552499999, 34.764637688 ], [ 136.84414017099999, 34.764786486 ], [ 136.843999575999987, 34.765003766 ], [ 136.84371412199999, 34.765274279 ], [ 136.84364025, 34.765426667 ], [ 136.84392560399999, 34.765659703 ], [ 136.84386733299999, 34.765736667 ], [ 136.843811389, 34.765797 ], [ 136.843777194000012, 34.765829083 ], [ 136.843739889, 34.765853472 ], [ 136.843661389, 34.765890667 ], [ 136.843627972, 34.765913139 ], [ 136.84374961099999, 34.766189472 ], [ 136.844549417, 34.766099444 ], [ 136.844980772000014, 34.766044214 ], [ 136.845258333, 34.766036806 ], [ 136.845407028000011, 34.766022361 ], [ 136.845598472, 34.765980639 ], [ 136.84600337, 34.76759657 ], [ 136.84609620399999, 34.767873591 ], [ 136.84653405, 34.76834157 ], [ 136.84685549299999, 34.768756974 ], [ 136.847671420000012, 34.769696395 ], [ 136.847427667, 34.769876528 ], [ 136.846921667, 34.770259361 ], [ 136.846610360999989, 34.770424583 ], [ 136.84664916700001, 34.770495306 ], [ 136.845737582999988, 34.770842361 ], [ 136.84586902800001, 34.771146194 ], [ 136.845904194000013, 34.771238722 ], [ 136.845925861000012, 34.77129575 ], [ 136.846076888999988, 34.771632083 ], [ 136.846346944, 34.772237194 ], [ 136.84652469400001, 34.772627611 ], [ 136.846719639000014, 34.773066917 ], [ 136.846812639, 34.773288417 ], [ 136.846874305999989, 34.773461417 ], [ 136.846854080000014, 34.773677916 ], [ 136.84768097700001, 34.773823199 ], [ 136.847915543999989, 34.773901333 ], [ 136.848121021999987, 34.774027096 ], [ 136.848250597, 34.774158622 ], [ 136.848520315, 34.77449326 ], [ 136.848667627, 34.774711297 ], [ 136.848952236, 34.774932673 ], [ 136.849918085000013, 34.775396016 ], [ 136.850126216, 34.775396558 ], [ 136.850489871, 34.775244848 ], [ 136.85075637599999, 34.77509861 ], [ 136.850944231, 34.774957892 ], [ 136.851061208, 34.774816035 ] ] ] } },
{ "type": "Feature", "properties": { "A29_001": "23446", "A29_002": "愛知県", "A29_003": "美浜町", "A29_004": 2, "A29_005": "第二種低層住居専用地域", "A29_006": 60, "A29_007": 150, "A29_008": "条件付き公開" }, "geometry": { "type": "Polygon", "coordinates": [ [ [ 136.909100671, 34.773870253 ], [ 136.909000987000013, 34.773892953 ], [ 136.90886841, 34.773766254 ], [ 136.90884216399999, 34.773840141 ], [ 136.90879658099999, 34.773625374 ], [ 136.908958688000013, 34.773551774 ], [ 136.908976388000013, 34.773437321 ], [ 136.90910649700001, 34.773428055 ], [ 136.909300059, 34.773464243 ], [ 136.909274414, 34.773344927 ], [ 136.909561438999987, 34.773071232 ], [ 136.909755932, 34.772806881 ], [ 136.90976185400001, 34.772761574 ], [ 136.909617544000014, 34.772689712 ], [ 136.90972227200001, 34.772475262 ], [ 136.909849393, 34.772496998 ], [ 136.90980385200001, 34.772267919 ], [ 136.909454333000014, 34.772188468 ], [ 136.909567629, 34.77200743 ], [ 136.909565167000011, 34.771869081 ], [ 136.909365759999986, 34.771854348 ], [ 136.909383881, 34.771603937 ], [ 136.909037098999988, 34.771574581 ], [ 136.909037329, 34.771500639 ], [ 136.908907179000011, 34.771524216 ], [ 136.908879156000012, 34.771240314 ], [ 136.908685472, 34.771244674 ], [ 136.90854410899999, 34.771156121 ], [ 136.908391005, 34.771124788 ], [ 136.908029691, 34.771121636 ], [ 136.907833012999987, 34.771159381 ], [ 136.907463124, 34.771125201 ], [ 136.907310215, 34.771031851 ], [ 136.907368951, 34.770736207 ], [ 136.906887944, 34.770460306 ], [ 136.906019206, 34.774838844 ], [ 136.90639834000001, 34.77512896 ], [ 136.90673325, 34.7753615 ], [ 136.906745722000011, 34.775445778 ], [ 136.906784667000011, 34.775531944 ], [ 136.906818167000011, 34.775576333 ], [ 136.906893389, 34.775650361 ], [ 136.90698175, 34.775885361 ], [ 136.90713991699999, 34.77613625 ], [ 136.907151449999986, 34.776347432 ], [ 136.907382791, 34.776413041 ], [ 136.907223718000012, 34.776844431 ], [ 136.90769108399999, 34.776951632 ], [ 136.907928098000014, 34.776961677 ], [ 136.90815082899999, 34.776916831 ], [ 136.908393966, 34.776817167 ], [ 136.908593919, 34.776660166 ], [ 136.908800222999986, 34.776416487 ], [ 136.90908654, 34.77625986 ], [ 136.909554918999987, 34.776254324 ], [ 136.909760669, 34.776206316 ], [ 136.909806944, 34.776082528 ], [ 136.90986376399999, 34.775975793 ], [ 136.90990777799999, 34.775910222 ], [ 136.909949305999987, 34.775871028 ], [ 136.909986537, 34.77584888 ], [ 136.910059897, 34.775806502 ], [ 136.91045216, 34.77562677 ], [ 136.910844534, 34.775509975 ], [ 136.911010444999988, 34.775496953 ], [ 136.91123549, 34.7753936 ], [ 136.91154437, 34.77520834 ], [ 136.91159850599999, 34.77503755 ], [ 136.911585229, 34.774842887 ], [ 136.911481493, 34.774735812 ], [ 136.91143331699999, 34.77460977 ], [ 136.91136876499999, 34.774544757 ], [ 136.911121599000012, 34.774454553 ], [ 136.911124988000012, 34.774105362 ], [ 136.911081325999987, 34.774015586 ], [ 136.911002853000014, 34.773965808 ], [ 136.910859652, 34.773908262 ], [ 136.910277218, 34.773802086 ], [ 136.910107528999987, 34.77408414 ], [ 136.909926979, 34.774139097 ], [ 136.90967254099999, 34.774157642 ], [ 136.909487667, 34.774115272 ], [ 136.909378812, 34.774168471 ], [ 136.90936990899999, 34.774056585 ], [ 136.909314395, 34.773930336 ], [ 136.909172738, 34.773934807 ], [ 136.909100671, 34.773870253 ] ] ] } },
{ "type": "Feature", "properties": { "A29_001": "23446", "A29_002": "愛知県", "A29_003": "美浜町", "A29_004": 8, "A29_005": "近隣商業地域", "A29_006": 80, "A29_007": 200, "A29_008": "条件付き公開" }, "geometry": { "type": "Polygon", "coordinates": [ [ [ 136.914538416999989, 34.777897373 ], [ 136.913274704, 34.777856522 ], [ 136.913206457, 34.777968594 ], [ 136.913308083, 34.778202694 ], [ 136.913375722000012, 34.778313083 ], [ 136.913461111, 34.778399056 ], [ 136.913566944, 34.778478694 ], [ 136.913640694, 34.778524917 ], [ 136.91371930599999, 34.778568528 ], [ 136.91384288899999, 34.778623083 ], [ 136.914387597, 34.778867842 ], [ 136.914395699000011, 34.778871483 ], [ 136.914583111000013, 34.778955694 ], [ 136.914648, 34.778991778 ], [ 136.914700944, 34.779026333 ], [ 136.914797611000012, 34.779107778 ], [ 136.914848167, 34.779160917 ], [ 136.914881888999986, 34.779205889 ], [ 136.914906722000012, 34.77924625 ], [ 136.914926083000012, 34.779294667 ], [ 136.91494166699999, 34.779346917 ], [ 136.91495808900001, 34.779404597 ], [ 136.914966166999989, 34.779432972 ], [ 136.915001417000013, 34.77960125 ], [ 136.915005097, 34.779745732 ], [ 136.91501557, 34.779906607 ], [ 136.915314612, 34.779801003 ], [ 136.915306750000013, 34.779777861 ], [ 136.91521379400001, 34.779498347 ], [ 136.915201888000013, 34.779462544 ], [ 136.915147722, 34.779299667 ], [ 136.915115805999989, 34.779224797 ], [ 136.914972008, 34.778887466 ], [ 136.914939038999989, 34.778810126 ], [ 136.914851277999986, 34.77860425 ], [ 136.914837895, 34.778583257 ], [ 136.914831639, 34.778573444 ], [ 136.91477848400001, 34.778512107 ], [ 136.914510129, 34.778202447 ], [ 136.914505722, 34.778197361 ], [ 136.91484584, 34.777915562 ], [ 136.914538416999989, 34.777897373 ] ] ] } },
{ "type": "Feature", "properties": { "A29_001": "23446", "A29_002": "愛知県", "A29_003": "美浜町", "A29_004": 5, "A29_005": "第一種住居地域", "A29_006": 60, "A29_007": 200, "A29_008": "条件付き公開" }, "geometry": { "type": "Polygon", "coordinates": [ [ [ 136.855766235, 34.778231182 ], [ 136.855966153999987, 34.778583122 ], [ 136.856105136999986, 34.778523846 ], [ 136.856388083000013, 34.7789435 ], [ 136.856152167, 34.779058361 ], [ 136.85604025, 34.779203222 ], [ 136.855991861, 34.7792565 ], [ 136.855933443999987, 34.779315417 ], [ 136.85586686100001, 34.779352222 ], [ 136.855798306, 34.779379694 ], [ 136.85572975, 34.7794005 ], [ 136.85563397199999, 34.779421306 ], [ 136.855341616, 34.779436308 ], [ 136.855303222, 34.779438278 ], [ 136.855242806, 34.779426306 ], [ 136.85519438899999, 34.779422139 ], [ 136.855157111000011, 34.779427139 ], [ 136.855116778, 34.779439611 ], [ 136.854874806, 34.779573639 ], [ 136.854783083, 34.779616111 ], [ 136.85453908299999, 34.7797185 ], [ 136.854425193999987, 34.77978425 ], [ 136.854394703, 34.779807244 ], [ 136.85425077799999, 34.779915778 ], [ 136.853888833000013, 34.780151333 ], [ 136.85375773199999, 34.78024503 ], [ 136.853607901, 34.779934275 ], [ 136.853364744, 34.780019517 ], [ 136.853201372, 34.779647001 ], [ 136.853024713999986, 34.779730029 ], [ 136.852786498, 34.779273837 ], [ 136.852715292999989, 34.778992196 ], [ 136.852445499999988, 34.779094528 ], [ 136.852257611, 34.779153278 ], [ 136.852064332999987, 34.779208889 ], [ 136.851699639, 34.779079333 ], [ 136.851493221999988, 34.778815111 ], [ 136.851332611, 34.778537111 ], [ 136.85118638899999, 34.778315139 ], [ 136.85122361099999, 34.778304778 ], [ 136.851600194000014, 34.778113111 ], [ 136.851960528, 34.777937 ], [ 136.85208763899999, 34.777888333 ], [ 136.852172472, 34.777866722 ], [ 136.85223083299999, 34.778000944 ], [ 136.852275889, 34.777992972 ], [ 136.852354306, 34.77797775 ], [ 136.85240941699999, 34.777962 ], [ 136.852459611, 34.777943972 ], [ 136.85251416700001, 34.777919194 ], [ 136.852714389, 34.777823694 ], [ 136.852653833, 34.777754333 ], [ 136.852306027999987, 34.777316944 ], [ 136.85227125, 34.777266056 ], [ 136.852212384000012, 34.777192974 ], [ 136.852525517, 34.777006998 ], [ 136.85226692099999, 34.776678577 ], [ 136.851984972, 34.776910639 ], [ 136.851855056, 34.777017778 ], [ 136.85174152799999, 34.777054639 ], [ 136.85158575, 34.777120056 ], [ 136.851369556, 34.777292611 ], [ 136.8507855, 34.7776935 ], [ 136.850749028, 34.777706556 ], [ 136.850489638999989, 34.777322222 ], [ 136.850400138999987, 34.777145444 ], [ 136.850312194, 34.777018056 ], [ 136.850235833, 34.776914028 ], [ 136.850119992, 34.776722751 ], [ 136.850354794999987, 34.776597439 ], [ 136.850212277999987, 34.776406 ], [ 136.85039835500001, 34.776291161 ], [ 136.850577769000012, 34.776496646 ], [ 136.850782052999989, 34.776369566 ], [ 136.850720198, 34.776291886 ], [ 136.850954874, 34.776154151 ], [ 136.85065130699999, 34.775784846 ], [ 136.850433044999988, 34.775981988 ], [ 136.850320556000014, 34.775866361 ], [ 136.850150805999988, 34.776035 ], [ 136.850071500000013, 34.776108472 ], [ 136.85, 34.776163722 ], [ 136.849993361, 34.776168861 ], [ 136.84989197199999, 34.776240222 ], [ 136.849770639000013, 34.776314333 ], [ 136.849654278, 34.776387083 ], [ 136.849544528, 34.776446028 ], [ 136.84939075, 34.776523056 ], [ 136.849376889000013, 34.776567167 ], [ 136.849303193999987, 34.77661875 ], [ 136.849255722, 34.776644889 ], [ 136.848867278, 34.776946361 ], [ 136.84854319499999, 34.777189655 ], [ 136.848543444, 34.77719025 ], [ 136.848551547999989, 34.777206943 ], [ 136.848700194, 34.777513111 ], [ 136.848836909, 34.77779898 ], [ 136.84884125, 34.777808056 ], [ 136.84893827799999, 34.778030389 ], [ 136.849092111, 34.778373944 ], [ 136.849272305999989, 34.778776139 ], [ 136.849425083, 34.779082889 ], [ 136.849626, 34.7794955 ], [ 136.849715174000011, 34.779676059 ], [ 136.849767222, 34.779781444 ], [ 136.85, 34.780270306 ], [ 136.850075111, 34.780427583 ], [ 136.850188694, 34.78067175 ], [ 136.85040225, 34.781114944 ], [ 136.850681194, 34.781724444 ], [ 136.850843556, 34.782079778 ], [ 136.85110266699999, 34.782645444 ], [ 136.851888583, 34.782316056 ], [ 136.852196342000013, 34.782178703 ], [ 136.852354389, 34.782108167 ], [ 136.852632147, 34.782014614 ], [ 136.852867694, 34.781935278 ], [ 136.853560832999989, 34.782003083 ], [ 136.85431452899999, 34.782087328 ], [ 136.854458722, 34.782103444 ], [ 136.854875029999988, 34.78214923 ], [ 136.85517452799999, 34.782182167 ], [ 136.85538647199999, 34.782195333 ], [ 136.85555155599999, 34.782187528 ], [ 136.855927138999988, 34.782166722 ], [ 136.856025861, 34.782158639 ], [ 136.856422388999988, 34.782116194 ], [ 136.856595806, 34.782448306 ], [ 136.85672697199999, 34.782623472 ], [ 136.856843528000013, 34.782779167 ], [ 136.857238247999987, 34.782684953 ], [ 136.85723548499999, 34.782676308 ], [ 136.85722691699999, 34.7826495 ], [ 136.857183611000011, 34.782510861 ], [ 136.85716729399999, 34.78245518 ], [ 136.857890852, 34.782189671 ], [ 136.857892134, 34.782191896 ], [ 136.858019611, 34.782413167 ], [ 136.858035722000011, 34.782378361 ], [ 136.858284422999986, 34.782292891 ], [ 136.858320870999989, 34.781493038 ], [ 136.858316961000014, 34.780989745 ], [ 136.85827036500001, 34.780770902 ], [ 136.858194865, 34.780550316 ], [ 136.85795019299999, 34.780111768 ], [ 136.857691519000014, 34.779707531 ], [ 136.857332551000013, 34.779221464 ], [ 136.857149399, 34.779032088 ], [ 136.856945395999986, 34.778852677 ], [ 136.856675392999989, 34.778697427 ], [ 136.855766235, 34.778231182 ] ] ] } },
{ "type": "Feature", "properties": { "A29_001": "23446", "A29_002": "愛知県", "A29_003": "美浜町", "A29_004": 2, "A29_005": "第二種低層住居専用地域", "A29_006": 60, "A29_007": 150, "A29_008": "条件付き公開" }, "geometry": { "type": "Polygon", "coordinates": [ [ [ 136.90551929899999, 34.786395542 ], [ 136.904894472, 34.785161028 ], [ 136.904671083000011, 34.784734833 ], [ 136.904544722, 34.784489083 ], [ 136.903729277999986, 34.785084806 ], [ 136.90391041699999, 34.785192056 ], [ 136.904069528, 34.785337861 ], [ 136.904040528, 34.785491361 ], [ 136.90401588899999, 34.785587611 ], [ 136.903996940000013, 34.785679329 ], [ 136.903995473, 34.785686426 ], [ 136.9040689, 34.785828104 ], [ 136.90427251700001, 34.785801829 ], [ 136.90424052899999, 34.785677728 ], [ 136.904483446, 34.785657261 ], [ 136.90449684, 34.785809945 ], [ 136.904710634, 34.786222573 ], [ 136.905130638, 34.786521152 ], [ 136.90551929899999, 34.786395542 ] ] ] } },
{ "type": "Feature", "properties": { "A29_001": "23446", "A29_002": "愛知県", "A29_003": "美浜町", "A29_004": 2, "A29_005": "第二種低層住居専用地域", "A29_006": 60, "A29_007": 150, "A29_008": "条件付き公開" }, "geometry": { "type": "Polygon", "coordinates": [ [ [ 136.908020646000011, 34.78660354 ], [ 136.907251108999986, 34.785759243 ], [ 136.906982383000013, 34.785403333 ], [ 136.906792666, 34.785017646 ], [ 136.906638531999988, 34.784626549 ], [ 136.906517631000014, 34.784215601 ], [ 136.90645876799999, 34.783711246 ], [ 136.906424750000014, 34.7836855 ], [ 136.90634405599999, 34.78358975 ], [ 136.906362889, 34.783384444 ], [ 136.906071222, 34.783467528 ], [ 136.90597994399999, 34.783503083 ], [ 136.9058355, 34.783559306 ], [ 136.905739444, 34.783611056 ], [ 136.90550894399999, 34.7837605 ], [ 136.90541297199999, 34.783845111 ], [ 136.905747694000013, 34.784477194 ], [ 136.906132778, 34.785242222 ], [ 136.90633553, 34.78568843 ], [ 136.90718469, 34.78745202 ], [ 136.90755005599999, 34.787093 ], [ 136.907750916999987, 34.786917639 ], [ 136.907876499999986, 34.786757333 ], [ 136.908020646000011, 34.78660354 ] ] ] } },
{ "type": "Feature", "properties": { "A29_001": "23446", "A29_002": "愛知県", "A29_003": "美浜町", "A29_004": 6, "A29_005": "第二種住居地域", "A29_006": 60, "A29_007": 200, "A29_008": "条件付き公開" }, "geometry": { "type": "Polygon", "coordinates": [ [ [ 136.857450586, 34.778383575 ], [ 136.856094737, 34.77764615 ], [ 136.855117054, 34.778068716 ], [ 136.855222645, 34.778261396 ], [ 136.855150976, 34.778296745 ], [ 136.855230573, 34.778459391 ], [ 136.855766235, 34.778231182 ], [ 136.856675392999989, 34.778697427 ], [ 136.856945395999986, 34.778852677 ], [ 136.857149399, 34.779032088 ], [ 136.857332551000013, 34.779221464 ], [ 136.857691519000014, 34.779707531 ], [ 136.85795019299999, 34.780111768 ], [ 136.858194865, 34.780550316 ], [ 136.85827036500001, 34.780770902 ], [ 136.858316961000014, 34.780989745 ], [ 136.858320870999989, 34.781493038 ], [ 136.85822564099999, 34.783582852 ], [ 136.85804275000001, 34.784025889 ], [ 136.85798890800001, 34.784190867 ], [ 136.857987165999987, 34.784658367 ], [ 136.858123389000014, 34.785136139 ], [ 136.85850219400001, 34.785201611 ], [ 136.858497046999986, 34.785693559 ], [ 136.858575159, 34.786133322 ], [ 136.858391966, 34.786168289 ], [ 136.85823010199999, 34.786237686 ], [ 136.858990870000014, 34.789518871 ], [ 136.859698278, 34.789380559 ], [ 136.858919023999988, 34.78596306 ], [ 136.858859631, 34.785607511 ], [ 136.859040244, 34.781735553 ], [ 136.859065413, 34.781226107 ], [ 136.859052373, 34.781000908 ], [ 136.859018461, 34.780790923 ], [ 136.858924908, 34.780449121 ], [ 136.85875285899999, 34.780070866 ], [ 136.858486253, 34.779621769 ], [ 136.858196139, 34.779172102 ], [ 136.857998622, 34.778906873 ], [ 136.857738323, 34.778629526 ], [ 136.857450586, 34.778383575 ] ] ] } },
{ "type": "Feature", "properties": { "A29_001": "23446", "A29_002": "愛知県", "A29_003": "美浜町", "A29_004": 5, "A29_005": "第一種住居地域", "A29_006": 60, "A29_007": 200, "A29_008": "条件付き公開" }, "geometry": { "type": "Polygon", "coordinates": [ [ [ 136.860876528, 34.796343667 ], [ 136.860920972, 34.796311083 ], [ 136.861032611000013, 34.796229194 ], [ 136.861332833, 34.796028194 ], [ 136.86172789, 34.795733788 ], [ 136.861971514, 34.796121462 ], [ 136.86232118, 34.795782443 ], [ 136.862400493, 34.795835211 ], [ 136.862406556, 34.795665917 ], [ 136.862396576, 34.795524991 ], [ 136.862570804, 34.79552109 ], [ 136.862577498, 34.795273044 ], [ 136.862664274999986, 34.79526372 ], [ 136.86267671600001, 34.795025228 ], [ 136.862574306, 34.795033083 ], [ 136.862562215999986, 34.794710093 ], [ 136.86249773899999, 34.794605083 ], [ 136.862503374, 34.79460215 ], [ 136.862639556, 34.794531278 ], [ 136.862940361, 34.794389472 ], [ 136.863093166999988, 34.794287833 ], [ 136.863228193999987, 34.794190722 ], [ 136.863311917, 34.794130417 ], [ 136.863231167, 34.794031639 ], [ 136.863199694, 34.793975139 ], [ 136.863177833, 34.793920139 ], [ 136.863160722, 34.793888861 ], [ 136.86313561099999, 34.793866639 ], [ 136.863103943999988, 34.793846806 ], [ 136.863078833, 34.79382875 ], [ 136.86315862, 34.793709788 ], [ 136.86315911, 34.793576217 ], [ 136.863049727, 34.793442849 ], [ 136.863142528999987, 34.793366753 ], [ 136.863117413999987, 34.793277006 ], [ 136.863041356, 34.793202397 ], [ 136.862976667, 34.793181246 ], [ 136.862933852, 34.792872014 ], [ 136.86304256599999, 34.792872285 ], [ 136.862887997, 34.792761225 ], [ 136.863003894, 34.792694728 ], [ 136.862884834, 34.792488221 ], [ 136.862792355000011, 34.792476541 ], [ 136.86273764, 34.792258872 ], [ 136.862665943, 34.792256785 ], [ 136.862634211, 34.792079245 ], [ 136.86254904899999, 34.791964541 ], [ 136.86253824799999, 34.791756523 ], [ 136.862593788999988, 34.791749029 ], [ 136.86252733399999, 34.791579035 ], [ 136.862566964, 34.791495174 ], [ 136.862717422, 34.791465019 ], [ 136.862720239, 34.791327637 ], [ 136.862657788, 34.791327481 ], [ 136.86269074399999, 34.791171093 ], [ 136.86283693199999, 34.79104361 ], [ 136.862774718999987, 34.790978576 ], [ 136.86286510799999, 34.790929189 ], [ 136.86302713, 34.790899063 ], [ 136.862898043, 34.790778525 ], [ 136.862829199, 34.790629515 ], [ 136.862699146000011, 34.790772304 ], [ 136.862625075000011, 34.790787385 ], [ 136.862595209, 34.790731973 ], [ 136.86224326199999, 34.790832227 ], [ 136.862118753, 34.790725057 ], [ 136.862192916, 34.790685171 ], [ 136.862029732, 34.790402352 ], [ 136.861730333, 34.790121082 ], [ 136.861730333, 34.790095389 ], [ 136.861707972, 34.790013944 ], [ 136.861697443999986, 34.789955306 ], [ 136.8616935, 34.789880389 ], [ 136.861693779, 34.789855782 ], [ 136.861772658, 34.789863602 ], [ 136.8618213, 34.789844642 ], [ 136.86185844100001, 34.789808479 ], [ 136.861872656, 34.789716922 ], [ 136.861974567, 34.789679014 ], [ 136.862030275, 34.789625724 ], [ 136.86207688499999, 34.789530432 ], [ 136.86208051700001, 34.789171703 ], [ 136.86199720799999, 34.789182944 ], [ 136.86190845199999, 34.789157693 ], [ 136.862044661999988, 34.789128759 ], [ 136.861984159, 34.788957746 ], [ 136.861907782, 34.788970912 ], [ 136.8617291, 34.788501052 ], [ 136.861715707, 34.788369354 ], [ 136.861651325, 34.788266151 ], [ 136.861538462, 34.78813802 ], [ 136.86130717, 34.78813744 ], [ 136.86130269899999, 34.788095449 ], [ 136.861124561999986, 34.788106451 ], [ 136.861054306, 34.787802972 ], [ 136.861370639, 34.787731417 ], [ 136.861376318999987, 34.787574701 ], [ 136.861297659, 34.787580228 ], [ 136.861293209, 34.787532512 ], [ 136.861526876, 34.787515924 ], [ 136.861522573, 34.787428137 ], [ 136.861411575, 34.787422135 ], [ 136.86149304, 34.787283042 ], [ 136.86158325, 34.78728136 ], [ 136.861611657999987, 34.78710397 ], [ 136.861595798, 34.787014246 ], [ 136.861491788, 34.786994903 ], [ 136.861494649, 34.786846072 ], [ 136.86133902899999, 34.786710201 ], [ 136.861006448000012, 34.785953727 ], [ 136.860893111, 34.785955351 ], [ 136.86080361399999, 34.785764308 ], [ 136.86068382900001, 34.785761734 ], [ 136.860597101, 34.785856442 ], [ 136.860530243, 34.78585323 ], [ 136.860537614, 34.785769364 ], [ 136.860685905, 34.785697226 ], [ 136.86061093399999, 34.785330666 ], [ 136.860754499, 34.785285231 ], [ 136.861000209999986, 34.78513701 ], [ 136.860891826999989, 34.784423078 ], [ 136.86081318399999, 34.784424789 ], [ 136.860809493, 34.784346324 ], [ 136.860818553, 34.784342223 ], [ 136.860859, 34.784323917 ], [ 136.860887166999987, 34.784299833 ], [ 136.860910694000012, 34.784262722 ], [ 136.86094091699999, 34.784200722 ], [ 136.86095144399999, 34.784158361 ], [ 136.860934611, 34.784065048 ], [ 136.86128859199999, 34.784078693 ], [ 136.861605145, 34.784161539 ], [ 136.86163601199999, 34.783944083 ], [ 136.86160211399999, 34.783728374 ], [ 136.861501186999988, 34.783501047 ], [ 136.861287166000011, 34.783210467 ], [ 136.861307743, 34.782647605 ], [ 136.861259716, 34.782500555 ], [ 136.86118631299999, 34.782336267 ], [ 136.861151623000012, 34.781708388 ], [ 136.861358891, 34.781319639 ], [ 136.861330944, 34.781250444 ], [ 136.861314861000011, 34.781204611 ], [ 136.86129513899999, 34.781164194 ], [ 136.86106025, 34.780919583 ], [ 136.861275409, 34.780752699 ], [ 136.86132451, 34.780607801 ], [ 136.861316792, 34.780191797 ], [ 136.86083266, 34.779774598 ], [ 136.860582908999987, 34.779142362 ], [ 136.860673385000013, 34.779066262 ], [ 136.86068547, 34.778925087 ], [ 136.860537861000012, 34.77881595 ], [ 136.860439250000013, 34.778579444 ], [ 136.860434360999989, 34.778574194 ], [ 136.86042838899999, 34.778564278 ], [ 136.860425222, 34.778559667 ], [ 136.86042175, 34.778555417 ], [ 136.860417278, 34.778550722 ], [ 136.860412806, 34.778546833 ], [ 136.86040672199999, 34.778542139 ], [ 136.860397889000012, 34.778536417 ], [ 136.860391666999988, 34.778532806 ], [ 136.860346372, 34.778508345 ], [ 136.860273583, 34.778355111 ], [ 136.860233139, 34.778265222 ], [ 136.860205138999987, 34.778183889 ], [ 136.860199447000014, 34.778168224 ], [ 136.860177139, 34.778106833 ], [ 136.860126861, 34.777883194 ], [ 136.86007833299999, 34.777706833 ], [ 136.85999052, 34.777404749 ], [ 136.859982583, 34.777377444 ], [ 136.85992250000001, 34.77719175 ], [ 136.859900028, 34.777138417 ], [ 136.85987194399999, 34.777095889 ], [ 136.85985230599999, 34.777074333 ], [ 136.85981013899999, 34.777041 ], [ 136.859762389, 34.777010833 ], [ 136.859721194, 34.776993083 ], [ 136.859688967000011, 34.776980379 ], [ 136.859266194000014, 34.776813722 ], [ 136.859087361, 34.776740278 ], [ 136.85885797200001, 34.77664675 ], [ 136.858826139, 34.776624333 ], [ 136.858804611000011, 34.776604222 ], [ 136.8587915, 34.776578722 ], [ 136.858778116, 34.776537354 ], [ 136.85872972199999, 34.776387778 ], [ 136.858714722, 34.776363028 ], [ 136.85868944399999, 34.776344472 ], [ 136.858661361, 34.776335972 ], [ 136.858633278000013, 34.77633675 ], [ 136.858549944, 34.776354528 ], [ 136.858533861000012, 34.776355083 ], [ 136.85851405599999, 34.776348917 ], [ 136.858503028, 34.776340167 ], [ 136.85843383299999, 34.776265944 ], [ 136.857695691, 34.776224907 ], [ 136.857704805999987, 34.776241333 ], [ 136.85780747199999, 34.776427194 ], [ 136.85788925, 34.776564806 ], [ 136.857932611, 34.776597556 ], [ 136.858049556, 34.776808611 ], [ 136.857737750000013, 34.776892056 ], [ 136.857446917, 34.777001639 ], [ 136.857058083, 34.777186583 ], [ 136.856633778, 34.777384194 ], [ 136.856094737, 34.77764615 ], [ 136.857450586, 34.778383575 ], [ 136.857738323, 34.778629526 ], [ 136.857998622, 34.778906873 ], [ 136.858196139, 34.779172102 ], [ 136.858486253, 34.779621769 ], [ 136.85875285899999, 34.780070866 ], [ 136.858924908, 34.780449121 ], [ 136.859018461, 34.780790923 ], [ 136.859052373, 34.781000908 ], [ 136.859065413, 34.781226107 ], [ 136.859040244, 34.781735553 ], [ 136.858859631, 34.785607511 ], [ 136.858919023999988, 34.78596306 ], [ 136.859698278, 34.789380559 ], [ 136.858990870000014, 34.789518871 ], [ 136.85823010199999, 34.786237686 ], [ 136.858202167, 34.786250139 ], [ 136.858098305999988, 34.786296444 ], [ 136.857868833, 34.786414806 ], [ 136.857491333000013, 34.786535972 ], [ 136.857311138999989, 34.786634833 ], [ 136.857225352, 34.786702215 ], [ 136.856992, 34.7868855 ], [ 136.85692825000001, 34.786940056 ], [ 136.856910848000012, 34.786939244 ], [ 136.856833611000013, 34.786935639 ], [ 136.856739889000011, 34.786933806 ], [ 136.85670005599999, 34.786938389 ], [ 136.856647694, 34.786956361 ], [ 136.856489055999987, 34.787028222 ], [ 136.85630294399999, 34.787119611 ], [ 136.85616552799999, 34.78717075 ], [ 136.856108167, 34.787192083 ], [ 136.855981471, 34.787021709 ], [ 136.855836748, 34.787066063 ], [ 136.855843572999987, 34.787173415 ], [ 136.85594601, 34.787419117 ], [ 136.855787924, 34.787480252 ], [ 136.85596642499999, 34.787909511 ], [ 136.856159822, 34.787837346 ], [ 136.856303295, 34.788207391 ], [ 136.856513138, 34.788145314 ], [ 136.856488297999988, 34.788023007 ], [ 136.856640184000014, 34.787996561 ], [ 136.856671962, 34.788196404 ], [ 136.856715071999986, 34.788265089 ], [ 136.85681925, 34.788506917 ], [ 136.856975694, 34.788770722 ], [ 136.857129611, 34.789085389 ], [ 136.857205193999988, 34.789224 ], [ 136.857458306000012, 34.789633639 ], [ 136.857559877, 34.789873161 ], [ 136.857576110999986, 34.789911444 ], [ 136.857608183, 34.789996793 ], [ 136.85769991699999, 34.790240917 ], [ 136.857786172, 34.790410096 ], [ 136.857925778, 34.790683917 ], [ 136.858011111, 34.790816889 ], [ 136.858070889, 34.790937917 ], [ 136.858082981, 34.79096685 ], [ 136.85815052800001, 34.791128472 ], [ 136.85816155399999, 34.791239203 ], [ 136.858169, 34.791313972 ], [ 136.858132393, 34.791334379 ], [ 136.858061916999986, 34.791373667 ], [ 136.857938361, 34.791426583 ], [ 136.857788583, 34.791479472 ], [ 136.85770727799999, 34.791508167 ], [ 136.857513589, 34.791574663 ], [ 136.857505202, 34.791577542 ], [ 136.857384399000011, 34.791416122 ], [ 136.85693457799999, 34.791553799 ], [ 136.856882305999989, 34.791613583 ], [ 136.856848805999988, 34.791657472 ], [ 136.856847944, 34.791666667 ], [ 136.856844806, 34.791699833 ], [ 136.85685830599999, 34.791782528 ], [ 136.856903413, 34.79199712 ], [ 136.856903805, 34.791998985 ], [ 136.857065975000012, 34.791982638 ], [ 136.85714485, 34.792152786 ], [ 136.85720636799999, 34.792132072 ], [ 136.85729907699999, 34.79246922 ], [ 136.857223068, 34.792498842 ], [ 136.857266048000014, 34.792603305 ], [ 136.857404147000011, 34.792743461 ], [ 136.857457694, 34.792712 ], [ 136.857528639, 34.792664 ], [ 136.857598083, 34.792614778 ], [ 136.857648184999988, 34.792544579 ], [ 136.857731871, 34.792711823 ], [ 136.85793469699999, 34.792596058 ], [ 136.85807825099999, 34.792867741 ], [ 136.858281054, 34.792757939 ], [ 136.858359974, 34.792916905 ], [ 136.85862275, 34.792796139 ], [ 136.859016631, 34.792637855 ], [ 136.859147736000011, 34.793070954 ], [ 136.859288472, 34.793009806 ], [ 136.859352981, 34.793157939 ], [ 136.85902345, 34.793330035 ], [ 136.859145391, 34.793583773 ], [ 136.858834161, 34.793693303 ], [ 136.8588585, 34.79377925 ], [ 136.858952417000012, 34.794084 ], [ 136.858974249999989, 34.794126083 ], [ 136.859031104, 34.794090788 ], [ 136.85909898700001, 34.794400594 ], [ 136.858693641, 34.794548646 ], [ 136.858763017, 34.794759646 ], [ 136.858585, 34.794889556 ], [ 136.858452, 34.794978444 ], [ 136.85833333299999, 34.795047722 ], [ 136.858210396, 34.795119498 ], [ 136.858073647, 34.794840965 ], [ 136.85788768899999, 34.794929223 ], [ 136.857749879000011, 34.794666976 ], [ 136.856980472, 34.794997222 ], [ 136.857024889, 34.795127056 ], [ 136.857051082999988, 34.795185972 ], [ 136.857137361000014, 34.795372917 ], [ 136.85722980599999, 34.795540917 ], [ 136.857291167, 34.795621472 ], [ 136.857252152, 34.796235809 ], [ 136.857473889, 34.796183417 ], [ 136.857784167, 34.796133528 ], [ 136.858300111, 34.796048139 ], [ 136.85833333299999, 34.79603975 ], [ 136.858357055999988, 34.79603375 ], [ 136.85842677799999, 34.796008806 ], [ 136.85857390000001, 34.796268475 ], [ 136.858858708000014, 34.796189867 ], [ 136.858910138999988, 34.796290083 ], [ 136.858943, 34.796352444 ], [ 136.858949394, 34.796356109 ], [ 136.8591917, 34.796235792 ], [ 136.859195011, 34.796234148 ], [ 136.8594325, 34.796116222 ], [ 136.860069667, 34.795806361 ], [ 136.860697, 34.795501 ], [ 136.860763222, 34.795810194 ], [ 136.860814639000012, 34.796052306 ], [ 136.860876528, 34.796343667 ] ] ] } },
{ "type": "Feature", "properties": { "A29_001": "23446", "A29_002": "愛知県", "A29_003": "美浜町", "A29_004": 8, "A29_005": "近隣商業地域", "A29_006": 80, "A29_007": 200, "A29_008": "条件付き公開" }, "geometry": { "type": "Polygon", "coordinates": [ [ [ 136.918585861, 34.808135222 ], [ 136.91856197199999, 34.807889056 ], [ 136.9187535, 34.807917667 ], [ 136.918680853000012, 34.806404442 ], [ 136.918671125, 34.805114663 ], [ 136.918857556, 34.805100444 ], [ 136.91890225, 34.8048345 ], [ 136.918919139, 34.804677444 ], [ 136.91891438499999, 34.804572774 ], [ 136.918903148, 34.80441982 ], [ 136.919004527999988, 34.804297583 ], [ 136.918731506, 34.804264454 ], [ 136.918782787, 34.803197339 ], [ 136.918648917000013, 34.803160389 ], [ 136.91857825, 34.803155889 ], [ 136.91833738599999, 34.803191423 ], [ 136.918226599, 34.805320182 ], [ 136.918040222, 34.805638306 ], [ 136.9179835, 34.805644167 ], [ 136.91805363899999, 34.805881639 ], [ 136.918111861, 34.806185833 ], [ 136.918138, 34.806354611 ], [ 136.91815488899999, 34.806440833 ], [ 136.918183167, 34.806585194 ], [ 136.918272306, 34.806850139 ], [ 136.91834545399999, 34.808153386 ], [ 136.918585861, 34.808135222 ] ] ] } },
{ "type": "Feature", "properties": { "A29_001": "23446", "A29_002": "愛知県", "A29_003": "美浜町", "A29_004": 8, "A29_005": "近隣商業地域", "A29_006": 80, "A29_007": 200, "A29_008": "条件付き公開" }, "geometry": { "type": "Polygon", "coordinates": [ [ [ 136.86726726500001, 34.808376812 ], [ 136.867141260000011, 34.808176491 ], [ 136.867116979, 34.807693723 ], [ 136.86691951899999, 34.807519115 ], [ 136.866999299000014, 34.807448948 ], [ 136.866439871000011, 34.807009882 ], [ 136.866316028, 34.806920429 ], [ 136.866173749000012, 34.806883411 ], [ 136.8657995, 34.807078611 ], [ 136.865592306, 34.807193389 ], [ 136.8657795, 34.807412444 ], [ 136.86587574399999, 34.807489896 ], [ 136.86371693000001, 34.809313445 ], [ 136.864161380000013, 34.80971956 ], [ 136.864471186, 34.809459864 ], [ 136.866470376, 34.807764134 ], [ 136.866644484, 34.807903358 ], [ 136.866681833, 34.807962944 ], [ 136.867168763, 34.808355482 ], [ 136.86726726500001, 34.808376812 ] ] ] } },
{ "type": "Feature", "properties": { "A29_001": "23446", "A29_002": "愛知県", "A29_003": "美浜町", "A29_004": 5, "A29_005": "第一種住居地域", "A29_006": 60, "A29_007": 200, "A29_008": "条件付き公開" }, "geometry": { "type": "Polygon", "coordinates": [ [ [ 136.86279353399999, 34.805198379 ], [ 136.86277536099999, 34.805241306 ], [ 136.86269008299999, 34.805289889 ], [ 136.862650583, 34.805307778 ], [ 136.862619443999989, 34.805316556 ], [ 136.86254727799999, 34.805324417 ], [ 136.86244280599999, 34.805331 ], [ 136.86229713899999, 34.805349806 ], [ 136.862158889, 34.80538275 ], [ 136.862083694, 34.805412528 ], [ 136.86206088899999, 34.805427583 ], [ 136.862031277999989, 34.805461306 ], [ 136.86199761099999, 34.80543925 ], [ 136.861884389000011, 34.805343333 ], [ 136.861824332999987, 34.805306889 ], [ 136.861725917, 34.805274639 ], [ 136.861337837, 34.805173436 ], [ 136.861256278000013, 34.805152167 ], [ 136.861189, 34.805165889 ], [ 136.86104175, 34.805113056 ], [ 136.861047528, 34.805018944 ], [ 136.861044139, 34.804868278 ], [ 136.86105888899999, 34.804822417 ], [ 136.861082694, 34.804784028 ], [ 136.861097527999988, 34.804770944 ], [ 136.861069944, 34.804654889 ], [ 136.860999139, 34.804536222 ], [ 136.86091791699999, 34.804404278 ], [ 136.86086325, 34.804300667 ], [ 136.860847639000013, 34.804261556 ], [ 136.860834611, 34.804216861 ], [ 136.86083771700001, 34.804031835 ], [ 136.86083775, 34.804029861 ], [ 136.860842444000014, 34.803994611 ], [ 136.860858056000012, 34.8039615 ], [ 136.86088097199999, 34.803928417 ], [ 136.860895403, 34.803914529 ], [ 136.860925194, 34.803885861 ], [ 136.861024332999989, 34.803808167 ], [ 136.861062639000011, 34.80377925 ], [ 136.861111583, 34.803732833 ], [ 136.861180421, 34.803619893 ], [ 136.86131225599999, 34.803409053 ], [ 136.861254499000012, 34.803387918 ], [ 136.861289784, 34.803229628 ], [ 136.861346141000013, 34.803002697 ], [ 136.86127912500001, 34.802983447 ], [ 136.861286438, 34.802882332 ], [ 136.861349186000012, 34.802804254 ], [ 136.861215026999986, 34.802800101 ], [ 136.86100466900001, 34.802757593 ], [ 136.86137434, 34.801628881 ], [ 136.861687267, 34.800674673 ], [ 136.861690333000013, 34.800291611 ], [ 136.861538889, 34.8003955 ], [ 136.86147308299999, 34.800468972 ], [ 136.861430028, 34.800522278 ], [ 136.861404806, 34.80056675 ], [ 136.861387028, 34.800619389 ], [ 136.861281028, 34.800789917 ], [ 136.861222722, 34.8008515 ], [ 136.86084506200001, 34.801268463 ], [ 136.860748139, 34.801375472 ], [ 136.860653222, 34.801489667 ], [ 136.860550167000014, 34.801621778 ], [ 136.86049455599999, 34.80168 ], [ 136.860424056, 34.801740472 ], [ 136.860367806, 34.801807167 ], [ 136.860350444, 34.8018355 ], [ 136.860334693999988, 34.801861194 ], [ 136.86031044399999, 34.801942556 ], [ 136.860281028, 34.802077389 ], [ 136.860280738, 34.80207837 ], [ 136.860157472, 34.802495167 ], [ 136.859839754, 34.802483701 ], [ 136.859837144000011, 34.802563838 ], [ 136.859379063, 34.802574131 ], [ 136.859378432999989, 34.802743957 ], [ 136.859295153, 34.802743747 ], [ 136.859291171, 34.802570093 ], [ 136.85921021199999, 34.80256798 ], [ 136.85920817499999, 34.802493556 ], [ 136.859064756, 34.802491285 ], [ 136.859023931, 34.802271742 ], [ 136.858877611, 34.802211578 ], [ 136.858904693999989, 34.802396056 ], [ 136.858953444, 34.8027235 ], [ 136.858954194, 34.802912306 ], [ 136.858954536999988, 34.802983823 ], [ 136.858955667, 34.803219944 ], [ 136.858943694, 34.803300417 ], [ 136.858920444, 34.803375306 ], [ 136.858879222000013, 34.803455167 ], [ 136.85883213, 34.803513479 ], [ 136.85879225, 34.803562861 ], [ 136.858717278, 34.803630333 ], [ 136.858666306, 34.803667472 ], [ 136.858651135, 34.803673343 ], [ 136.858609167, 34.803689583 ], [ 136.858579528, 34.803694444 ], [ 136.85833333299999, 34.803734361 ], [ 136.857954694, 34.803799083 ], [ 136.857919371, 34.803806934 ], [ 136.85876301, 34.805873716 ], [ 136.858512687, 34.806233489 ], [ 136.858717839, 34.806666926 ], [ 136.859110120999986, 34.807521825 ], [ 136.860041058, 34.809694841 ], [ 136.860428622, 34.810464334 ], [ 136.860604032, 34.810891252 ], [ 136.861505808, 34.812924226 ], [ 136.86185543799999, 34.812850683 ], [ 136.862189097, 34.812716039 ], [ 136.862193998, 34.812641632 ], [ 136.86231198499999, 34.812643835 ], [ 136.862312139000011, 34.812601856 ], [ 136.86215357399999, 34.812309509 ], [ 136.862128546, 34.812194956 ], [ 136.862033028000013, 34.812208 ], [ 136.861759503, 34.811886816 ], [ 136.861598831, 34.811539126 ], [ 136.861274581, 34.811005932 ], [ 136.861102741, 34.810551356 ], [ 136.86108098599999, 34.810177299 ], [ 136.860950545, 34.809789612 ], [ 136.86095217, 34.809662723 ], [ 136.860906615, 34.809468929 ], [ 136.86108284, 34.80936156 ], [ 136.860925165999987, 34.809065874 ], [ 136.860610665, 34.808871881 ], [ 136.860626501000013, 34.808642781 ], [ 136.86081748699999, 34.808688421 ], [ 136.861034968000013, 34.808667849 ], [ 136.86105, 34.808702694 ], [ 136.861099415000012, 34.808865097 ], [ 136.861100627000013, 34.80886908 ], [ 136.86127020699999, 34.8088861 ], [ 136.861272316999987, 34.808941442 ], [ 136.861406493, 34.808943687 ], [ 136.86141145799999, 34.808852107 ], [ 136.86167285499999, 34.808860395 ], [ 136.861667926, 34.808942434 ], [ 136.862327085, 34.808995605 ], [ 136.862352835, 34.808913618 ], [ 136.862558744000012, 34.808912225 ], [ 136.862590755000014, 34.809015346 ], [ 136.863133148, 34.809365896 ], [ 136.86320510499999, 34.809301198 ], [ 136.863258120000012, 34.809354759 ], [ 136.86316068, 34.809428934 ], [ 136.863349723999988, 34.809610682 ], [ 136.863531292, 34.809558014 ], [ 136.863552806, 34.809578361 ], [ 136.86359222199999, 34.809617778 ], [ 136.863700333, 34.809725917 ], [ 136.863764398, 34.809840267 ], [ 136.863768139, 34.809846944 ], [ 136.863812833, 34.809993944 ], [ 136.863835556, 34.810051972 ], [ 136.863869666999989, 34.810100639 ], [ 136.86391605599999, 34.810156722 ], [ 136.863945139, 34.810186833 ], [ 136.864048528000012, 34.810253444 ], [ 136.864121944, 34.810319167 ], [ 136.86416116699999, 34.810366833 ], [ 136.864195333, 34.81046 ], [ 136.86425191699999, 34.810675333 ], [ 136.864258482, 34.810700603 ], [ 136.86428733299999, 34.810811667 ], [ 136.864289281999987, 34.810838541 ], [ 136.864298722, 34.81096875 ], [ 136.86431008299999, 34.811006306 ], [ 136.86433488899999, 34.811041306 ], [ 136.86436, 34.811061556 ], [ 136.864517111, 34.811152194 ], [ 136.86460642099999, 34.811138485 ], [ 136.865033125999986, 34.811391161 ], [ 136.865043972, 34.811389361 ], [ 136.865242617, 34.811403159 ], [ 136.86562016, 34.811429382 ], [ 136.86614219399999, 34.811465639 ], [ 136.866453889000013, 34.811761917 ], [ 136.866548028000011, 34.811851417 ], [ 136.866949479, 34.81176472 ], [ 136.864471186, 34.809459864 ], [ 136.864161380000013, 34.80971956 ], [ 136.86371693000001, 34.809313445 ], [ 136.86587574399999, 34.807489896 ], [ 136.8657795, 34.807412444 ], [ 136.865592306, 34.807193389 ], [ 136.8657995, 34.807078611 ], [ 136.865879444, 34.806763111 ], [ 136.865143528, 34.806506889 ], [ 136.86481136099999, 34.806394611 ], [ 136.863775441, 34.806106512 ], [ 136.863814428000012, 34.805903184 ], [ 136.8635951, 34.80585253 ], [ 136.863325690000011, 34.805751698 ], [ 136.86332722, 34.805570672 ], [ 136.863193389, 34.805554917 ], [ 136.863152361, 34.805389944 ], [ 136.86311816700001, 34.805290833 ], [ 136.862990427999989, 34.805223602 ], [ 136.86279353399999, 34.805198379 ] ] ] } },
{ "type": "Feature", "properties": { "A29_001": "23446", "A29_002": "愛知県", "A29_003": "美浜町", "A29_004": 1, "A29_005": "第一種低層住居専用地域", "A29_006": 30, "A29_007": 50, "A29_008": "条件付き公開" }, "geometry": { "type": "Polygon", "coordinates": [ [ [ 136.866173749000012, 34.806883411 ], [ 136.865947474, 34.806719311 ], [ 136.86567316, 34.806447672 ], [ 136.865193444999989, 34.806040043 ], [ 136.86522832, 34.805992425 ], [ 136.86509959599999, 34.805765034 ], [ 136.864868699, 34.805642338 ], [ 136.864753516, 34.80550848 ], [ 136.86462466099999, 34.805317343 ], [ 136.864562881000012, 34.805130188 ], [ 136.864354961, 34.805051437 ], [ 136.864357477, 34.804996106 ], [ 136.864510196, 34.804986944 ], [ 136.86430056899999, 34.804742177 ], [ 136.864224205999989, 34.804747712 ], [ 136.864116564, 34.804449769 ], [ 136.863871945999989, 34.804285058 ], [ 136.86357006899999, 34.804595339 ], [ 136.86348446, 34.804598942 ], [ 136.863423970000014, 34.804692292 ], [ 136.86335635, 34.804837145 ], [ 136.86332181, 34.804793171 ], [ 136.86331066299999, 34.804678652 ], [ 136.86324833399999, 34.804642242 ], [ 136.863097943000014, 34.804647591 ], [ 136.863097782000011, 34.804691479 ], [ 136.86318903899999, 34.804725099 ], [ 136.86321543299999, 34.80478241 ], [ 136.863016726000012, 34.804715129 ], [ 136.862909105, 34.804728217 ], [ 136.86283101699999, 34.80457346 ], [ 136.862711577, 34.804655213 ], [ 136.862714595, 34.804778298 ], [ 136.862812287, 34.804949324 ], [ 136.86279353399999, 34.805198379 ], [ 136.862990427999989, 34.805223602 ], [ 136.86311816700001, 34.805290833 ], [ 136.863152361, 34.805389944 ], [ 136.863193389, 34.805554917 ], [ 136.86332722, 34.805570672 ], [ 136.863325690000011, 34.805751698 ], [ 136.8635951, 34.80585253 ], [ 136.863814428000012, 34.805903184 ], [ 136.863775441, 34.806106512 ], [ 136.86481136099999, 34.806394611 ], [ 136.865143528, 34.806506889 ], [ 136.865879444, 34.806763111 ], [ 136.8657995, 34.807078611 ], [ 136.866173749000012, 34.806883411 ] ] ] } },
{ "type": "Feature", "properties": { "A29_001": "23446", "A29_002": "愛知県", "A29_003": "美浜町", "A29_004": 2, "A29_005": "第二種低層住居専用地域", "A29_006": 60, "A29_007": 150, "A29_008": "条件付き公開" }, "geometry": { "type": "Polygon", "coordinates": [ [ [ 136.85621753, 34.78414135 ], [ 136.856725481000012, 34.784018377 ], [ 136.85804275000001, 34.784025889 ], [ 136.85822564099999, 34.783582852 ], [ 136.858284422999986, 34.782292891 ], [ 136.858035722000011, 34.782378361 ], [ 136.858019611, 34.782413167 ], [ 136.857892134, 34.782191896 ], [ 136.857890852, 34.782189671 ], [ 136.85716729399999, 34.78245518 ], [ 136.857183611000011, 34.782510861 ], [ 136.85722691699999, 34.7826495 ], [ 136.85723548499999, 34.782676308 ], [ 136.857238247999987, 34.782684953 ], [ 136.856843528000013, 34.782779167 ], [ 136.85672697199999, 34.782623472 ], [ 136.856595806, 34.782448306 ], [ 136.856422388999988, 34.782116194 ], [ 136.856025861, 34.782158639 ], [ 136.855927138999988, 34.782166722 ], [ 136.855785833, 34.782308611 ], [ 136.855716765000011, 34.782387293 ], [ 136.855612806000011, 34.782505722 ], [ 136.855311667, 34.7827245 ], [ 136.855287583, 34.782779667 ], [ 136.854800278, 34.783237167 ], [ 136.854695666999987, 34.783333333 ], [ 136.85457961099999, 34.783438083 ], [ 136.85452055799999, 34.783509848 ], [ 136.854433389, 34.783615778 ], [ 136.854235222, 34.783856556 ], [ 136.854143333, 34.783980167 ], [ 136.854047226, 34.784096575 ], [ 136.85403631599999, 34.78410979 ], [ 136.85391544399999, 34.784256194 ], [ 136.853902361, 34.784387917 ], [ 136.853906722, 34.784468861 ], [ 136.85391591699999, 34.784518306 ], [ 136.853932972, 34.784572194 ], [ 136.853955250000013, 34.78461875 ], [ 136.85398491699999, 34.78466775 ], [ 136.854015333, 34.784703889 ], [ 136.854050722000011, 34.784738194 ], [ 136.854160556000011, 34.784805278 ], [ 136.854383, 34.784912972 ], [ 136.854777254, 34.785107653 ], [ 136.855005, 34.785220111 ], [ 136.855477363, 34.784796594 ], [ 136.855857691000011, 34.784407157 ], [ 136.85621753, 34.78414135 ] ] ] } },
{ "type": "Feature", "properties": { "A29_001": "23446", "A29_002": "愛知県", "A29_003": "美浜町", "A29_004": 2, "A29_005": "第二種低層住居専用地域", "A29_006": 60, "A29_007": 150, "A29_008": "条件付き公開" }, "geometry": { "type": "Polygon", "coordinates": [ [ [ 136.866644484, 34.807903358 ], [ 136.866470376, 34.807764134 ], [ 136.864471186, 34.809459864 ], [ 136.866949479, 34.81176472 ], [ 136.866988694000014, 34.81175625 ], [ 136.867335860999987, 34.811681306 ], [ 136.867352418, 34.811677663 ], [ 136.86756506399999, 34.811630878 ], [ 136.86757738899999, 34.811628167 ], [ 136.867660105, 34.811605566 ], [ 136.867839225000012, 34.811569503 ], [ 136.867920778000013, 34.811553083 ], [ 136.868469471999987, 34.811438528 ], [ 136.868539262000013, 34.81142317 ], [ 136.869579652999988, 34.81119422 ], [ 136.869919278, 34.811121139 ], [ 136.869972834, 34.811109296 ], [ 136.869922029, 34.811008494 ], [ 136.86975944400001, 34.810929083 ], [ 136.8696755, 34.810869667 ], [ 136.869645158999987, 34.81083012 ], [ 136.869592555999986, 34.810761556 ], [ 136.869558361, 34.810706611 ], [ 136.869538833, 34.810665139 ], [ 136.869527639000012, 34.810615167 ], [ 136.869512778, 34.81055525 ], [ 136.869469028, 34.810473028 ], [ 136.86943180599999, 34.810428472 ], [ 136.869360496000013, 34.810376957 ], [ 136.869342444000011, 34.810363917 ], [ 136.86926430599999, 34.810306278 ], [ 136.86921591699999, 34.810253278 ], [ 136.869174028, 34.810194861 ], [ 136.869125639, 34.810125833 ], [ 136.869092139, 34.810078083 ], [ 136.869026842000011, 34.809835166 ], [ 136.868986613, 34.809763511 ], [ 136.868927543000012, 34.809703736 ], [ 136.868607357, 34.809476357 ], [ 136.868567230999986, 34.809376079 ], [ 136.868132034000013, 34.808964755 ], [ 136.868021183, 34.808829718 ], [ 136.867902961, 34.808734019 ], [ 136.867752892999988, 34.808647783 ], [ 136.867557963, 34.80857217 ], [ 136.867383372, 34.808470369 ], [ 136.86726726500001, 34.808376812 ], [ 136.867168763, 34.808355482 ], [ 136.866681833, 34.807962944 ], [ 136.866644484, 34.807903358 ] ] ] } },
{ "type": "Feature", "properties": { "A29_001": "23446", "A29_002": "愛知県", "A29_003": "美浜町", "A29_004": 2, "A29_005": "第二種低層住居専用地域", "A29_006": 60, "A29_007": 150, "A29_008": "条件付き公開" }, "geometry": { "type": "Polygon", "coordinates": [ [ [ 136.921376153000011, 34.804478329 ], [ 136.921040111, 34.804516778 ], [ 136.92066877799999, 34.804467861 ], [ 136.920589971999988, 34.804430139 ], [ 136.920448916999987, 34.804411556 ], [ 136.92033829799999, 34.80441315 ], [ 136.920302443999987, 34.804413667 ], [ 136.920004471999988, 34.804384222 ], [ 136.91905433299999, 34.804357444 ], [ 136.919004527999988, 34.804297583 ], [ 136.918903148, 34.80441982 ], [ 136.91891438499999, 34.804572774 ], [ 136.918919139, 34.804677444 ], [ 136.91890225, 34.8048345 ], [ 136.918857556, 34.805100444 ], [ 136.91913354799999, 34.80544397 ], [ 136.919992197999989, 34.805514885 ], [ 136.920264393999986, 34.805391405 ], [ 136.920664656000014, 34.805962283 ], [ 136.920951212, 34.805872223 ], [ 136.921376595, 34.805775287 ], [ 136.921376153000011, 34.804478329 ] ] ] } },
{ "type": "Feature", "properties": { "A29_001": "23446", "A29_002": "愛知県", "A29_003": "美浜町", "A29_004": 5, "A29_005": "第一種住居地域", "A29_006": 60, "A29_007": 200, "A29_008": "条件付き公開" }, "geometry": { "type": "Polygon", "coordinates": [ [ [ 136.920139221999989, 34.813520278 ], [ 136.920062417, 34.813309722 ], [ 136.919787111, 34.812639694 ], [ 136.91975811099999, 34.812552361 ], [ 136.91975320099999, 34.81250701 ], [ 136.919745021000011, 34.812351845 ], [ 136.91975163, 34.812111771 ], [ 136.91974944399999, 34.811401389 ], [ 136.91975233299999, 34.811346333 ], [ 136.919763917000012, 34.811290111 ], [ 136.919787111, 34.811219528 ], [ 136.920047944, 34.810677528 ], [ 136.920243225, 34.810348597 ], [ 136.920449069999989, 34.810001868 ], [ 136.920690667, 34.809576139 ], [ 136.920903556000013, 34.809140722 ], [ 136.92096173600001, 34.808851141 ], [ 136.920975806, 34.808781111 ], [ 136.921026583000014, 34.80835375 ], [ 136.92102875, 34.808333333 ], [ 136.921060417, 34.80803625 ], [ 136.921139861, 34.807737722 ], [ 136.921118388999986, 34.807589361 ], [ 136.92107933299999, 34.807450667 ], [ 136.92103792099999, 34.807254903 ], [ 136.920979722, 34.806979778 ], [ 136.92090941699999, 34.806592722 ], [ 136.92090744399999, 34.80654275 ], [ 136.92091752799999, 34.806412889 ], [ 136.92092788299999, 34.806279751 ], [ 136.92095658299999, 34.805910722 ], [ 136.920951212, 34.805872223 ], [ 136.920664656000014, 34.805962283 ], [ 136.920264393999986, 34.805391405 ], [ 136.919992197999989, 34.805514885 ], [ 136.91913354799999, 34.80544397 ], [ 136.918857556, 34.805100444 ], [ 136.918671125, 34.805114663 ], [ 136.918680853000012, 34.806404442 ], [ 136.9187535, 34.807917667 ], [ 136.91856197199999, 34.807889056 ], [ 136.918585861, 34.808135222 ], [ 136.91834545399999, 34.808153386 ], [ 136.918272306, 34.806850139 ], [ 136.918183167, 34.806585194 ], [ 136.91815488899999, 34.806440833 ], [ 136.918138, 34.806354611 ], [ 136.918111861, 34.806185833 ], [ 136.91805363899999, 34.805881639 ], [ 136.9179835, 34.805644167 ], [ 136.918040222, 34.805638306 ], [ 136.918226599, 34.805320182 ], [ 136.91833738599999, 34.803191423 ], [ 136.91857825, 34.803155889 ], [ 136.918648917000013, 34.803160389 ], [ 136.918782787, 34.803197339 ], [ 136.918731506, 34.804264454 ], [ 136.919004527999988, 34.804297583 ], [ 136.91905433299999, 34.804357444 ], [ 136.920004471999988, 34.804384222 ], [ 136.920302443999987, 34.804413667 ], [ 136.92033829799999, 34.80441315 ], [ 136.920448916999987, 34.804411556 ], [ 136.920589971999988, 34.804430139 ], [ 136.92066877799999, 34.804467861 ], [ 136.921040111, 34.804516778 ], [ 136.921376153000011, 34.804478329 ], [ 136.921382744, 34.804309729 ], [ 136.921794174000013, 34.804038642 ], [ 136.92024625900001, 34.800918031 ], [ 136.91906928899999, 34.798525647 ], [ 136.91902403200001, 34.798309037 ], [ 136.919048886000013, 34.798096265 ], [ 136.919097099, 34.797928204 ], [ 136.919249490999988, 34.797731733 ], [ 136.919510495, 34.797474659 ], [ 136.920088743, 34.797007135 ], [ 136.920515109, 34.796564346 ], [ 136.920419262, 34.796437388 ], [ 136.92049425, 34.796300528 ], [ 136.920549139, 34.796200333 ], [ 136.920633917, 34.796035833 ], [ 136.92079177799999, 34.795717167 ], [ 136.920827472000013, 34.795634667 ], [ 136.920853139, 34.795546278 ], [ 136.920878832999989, 34.795406056 ], [ 136.920924082999989, 34.795036694 ], [ 136.920943056, 34.794881611 ], [ 136.920943056, 34.794821076 ], [ 136.919186051, 34.794827544 ], [ 136.918994521, 34.794800144 ], [ 136.917831306000011, 34.794775889 ], [ 136.917807775999989, 34.794701346 ], [ 136.917572716, 34.794745588 ], [ 136.917186171, 34.794685166 ], [ 136.91690538899999, 34.794871056 ], [ 136.916680417, 34.794957583 ], [ 136.916666666999987, 34.794962 ], [ 136.91630494399999, 34.795078278 ], [ 136.916056860999987, 34.795145444 ], [ 136.91591455599999, 34.795228694 ], [ 136.91583480599999, 34.795282444 ], [ 136.915808, 34.795309306 ], [ 136.91577544399999, 34.795356333 ], [ 136.91574713899999, 34.795402778 ], [ 136.91572007799999, 34.795449364 ], [ 136.915665249999989, 34.79554375 ], [ 136.915541056, 34.795734111 ], [ 136.915409611, 34.796013 ], [ 136.915368306, 34.796110361 ], [ 136.915350611, 34.796162639 ], [ 136.915338528, 34.796247194 ], [ 136.915338528, 34.796275667 ], [ 136.915346889, 34.796297944 ], [ 136.915363667, 34.796316417 ], [ 136.915426028000013, 34.796366361 ], [ 136.915651360999988, 34.796603167 ], [ 136.915728639, 34.796706944 ], [ 136.915904278, 34.796655278 ], [ 136.916040944, 34.796845 ], [ 136.91607313899999, 34.796898194 ], [ 136.916093167000014, 34.796943472 ], [ 136.91610533299999, 34.79698875 ], [ 136.91611144399999, 34.797032583 ], [ 136.916109694, 34.797081444 ], [ 136.91609925, 34.797161222 ], [ 136.91612275, 34.797354556 ], [ 136.916138417000013, 34.797430722 ], [ 136.916157583, 34.797491111 ], [ 136.916172361, 34.797524861 ], [ 136.91623766699999, 34.797634111 ], [ 136.91629713899999, 34.797779944 ], [ 136.916342972, 34.797917278 ], [ 136.91638136099999, 34.798037472 ], [ 136.91644025, 34.798018306 ], [ 136.91650272199999, 34.797997667 ], [ 136.916541972, 34.797971167 ], [ 136.91658302799999, 34.7978975 ], [ 136.916613361, 34.797778139 ], [ 136.916666666999987, 34.797785694 ], [ 136.916955972000011, 34.79782675 ], [ 136.91708802799999, 34.79782675 ], [ 136.917443166999988, 34.797904833 ], [ 136.917571638999988, 34.797944639 ], [ 136.917547614, 34.798284615 ], [ 136.917460698000014, 34.798341087 ], [ 136.917427343000014, 34.798615319 ], [ 136.917550232999986, 34.798615571 ], [ 136.917527632, 34.798919641 ], [ 136.917672218, 34.798916955 ], [ 136.917809763, 34.798851643 ], [ 136.918008601, 34.798837141 ], [ 136.91792119199999, 34.799057596 ], [ 136.917797924000013, 34.799423476 ], [ 136.91773185299999, 34.799759658 ], [ 136.91754511, 34.801279856 ], [ 136.917385451, 34.802445903 ], [ 136.916352077, 34.805660255 ], [ 136.916193166999989, 34.806379073 ], [ 136.916215028000011, 34.806450028 ], [ 136.916323721999987, 34.806796611 ], [ 136.916342113000013, 34.806851653 ], [ 136.916729739, 34.806811901 ], [ 136.91667995899999, 34.807016928 ], [ 136.91667675, 34.807121871 ], [ 136.916810555000012, 34.807342779 ], [ 136.917030661000013, 34.807234703 ], [ 136.917152230999989, 34.807677411 ], [ 136.917345974, 34.807681386 ], [ 136.917354039, 34.807884146 ], [ 136.91739281299999, 34.807972479 ], [ 136.917304374999986, 34.80805101 ], [ 136.917091776, 34.808066078 ], [ 136.91719429299999, 34.808113993 ], [ 136.91720143, 34.808145015 ], [ 136.917170171, 34.8082016 ], [ 136.917179049, 34.808374547 ], [ 136.916866083, 34.808637722 ], [ 136.916897333, 34.808685861 ], [ 136.91691191699999, 34.808711667 ], [ 136.91691608299999, 34.808732278 ], [ 136.91690358299999, 34.808751194 ], [ 136.916880666999987, 34.808775278 ], [ 136.91685775, 34.808813111 ], [ 136.916829833, 34.808893556 ], [ 136.917207028, 34.808564417 ], [ 136.917232417, 34.808628722 ], [ 136.91724583300001, 34.808686528 ], [ 136.917249556, 34.808730833 ], [ 136.917242111, 34.808858778 ], [ 136.917247333, 34.808904278 ], [ 136.917261860999986, 34.80896025 ], [ 136.917280471999987, 34.809003917 ], [ 136.917310278, 34.809036528 ], [ 136.9173535, 34.809067278 ], [ 136.917442139, 34.8091085 ], [ 136.917505471999988, 34.809139861 ], [ 136.917525520999988, 34.809154767 ], [ 136.917508250999987, 34.809492697 ], [ 136.917294149000014, 34.809525652 ], [ 136.917270166, 34.809807059 ], [ 136.916851132, 34.809708405 ], [ 136.916726858, 34.809681912 ], [ 136.91658463600001, 34.809853356 ], [ 136.916850376000014, 34.809958852 ], [ 136.91717702, 34.810007226 ], [ 136.91744599099999, 34.810000622 ], [ 136.917565809, 34.809963827 ], [ 136.91772615, 34.810120456 ], [ 136.91767073, 34.810277767 ], [ 136.917910761, 34.810278258 ], [ 136.918086832, 34.810390723 ], [ 136.91810064, 34.810607807 ], [ 136.917967553000011, 34.810626616 ], [ 136.917966865000011, 34.810855596 ], [ 136.917793182999986, 34.810910101 ], [ 136.917847212, 34.81121552 ], [ 136.917983171, 34.811203872 ], [ 136.918040530000013, 34.811363799 ], [ 136.917866831999987, 34.811423074 ], [ 136.918010364, 34.811778765 ], [ 136.918198386, 34.811764838 ], [ 136.918241072, 34.811996291 ], [ 136.91837701, 34.811991798 ], [ 136.918393783, 34.812185035 ], [ 136.91850343199999, 34.812364151 ], [ 136.918485006999987, 34.812721896 ], [ 136.91856285599999, 34.812800767 ], [ 136.918543, 34.813093861 ], [ 136.918327280999989, 34.813240359 ], [ 136.918257896, 34.813366477 ], [ 136.918303138999988, 34.813484472 ], [ 136.918386222, 34.813601972 ], [ 136.918412444000012, 34.813621861 ], [ 136.918433222, 34.813626778 ], [ 136.9184635, 34.813628889 ], [ 136.918648972, 34.813627917 ], [ 136.918819555999988, 34.813627 ], [ 136.919089611, 34.813618139 ], [ 136.919420639, 34.81360725 ], [ 136.919464917, 34.813593333 ], [ 136.9197763, 34.813593536 ], [ 136.920139221999989, 34.813520278 ] ] ] } },
{ "type": "Feature", "properties": { "A29_001": "23446", "A29_002": "愛知県", "A29_003": "美浜町", "A29_004": 2, "A29_005": "第二種低層住居専用地域", "A29_006": 60, "A29_007": 150, "A29_008": "条件付き公開" }, "geometry": { "type": "Polygon", "coordinates": [ [ [ 136.907357639, 34.780163778 ], [ 136.90660275, 34.780086028 ], [ 136.90643613899999, 34.780316111 ], [ 136.906362889, 34.780424389 ], [ 136.906325028, 34.780480583 ], [ 136.905761305999988, 34.780595639 ], [ 136.90558654, 34.780630872 ], [ 136.905126192000012, 34.780998938 ], [ 136.904861431, 34.78153266 ], [ 136.90464875, 34.78182569 ], [ 136.90507405, 34.78332774 ], [ 136.90632202, 34.78244005 ], [ 136.906156055999986, 34.782265611 ], [ 136.906773694, 34.781787194 ], [ 136.906906306, 34.781408139 ], [ 136.907189667000011, 34.780631889 ], [ 136.907357639, 34.780163778 ] ] ] } },
{ "type": "Feature", "properties": { "A29_001": "23446", "A29_002": "愛知県", "A29_003": "美浜町", "A29_004": 5, "A29_005": "第一種住居地域", "A29_006": 60, "A29_007": 200, "A29_008": "条件付き公開" }, "geometry": { "type": "Polygon", "coordinates": [ [ [ 136.91501557, 34.779906607 ], [ 136.915005097, 34.779745732 ], [ 136.915001417000013, 34.77960125 ], [ 136.914966166999989, 34.779432972 ], [ 136.91495808900001, 34.779404597 ], [ 136.91494166699999, 34.779346917 ], [ 136.914926083000012, 34.779294667 ], [ 136.914906722000012, 34.77924625 ], [ 136.914881888999986, 34.779205889 ], [ 136.914848167, 34.779160917 ], [ 136.914797611000012, 34.779107778 ], [ 136.914700944, 34.779026333 ], [ 136.914648, 34.778991778 ], [ 136.914583111000013, 34.778955694 ], [ 136.914395699000011, 34.778871483 ], [ 136.914387597, 34.778867842 ], [ 136.91384288899999, 34.778623083 ], [ 136.91371930599999, 34.778568528 ], [ 136.913640694, 34.778524917 ], [ 136.913566944, 34.778478694 ], [ 136.913461111, 34.778399056 ], [ 136.913375722000012, 34.778313083 ], [ 136.913308083, 34.778202694 ], [ 136.913206457, 34.777968594 ], [ 136.91307724, 34.7780343 ], [ 136.91292001299999, 34.778077713 ], [ 136.91273268, 34.778080185 ], [ 136.91253164599999, 34.778025382 ], [ 136.912288593, 34.777956657 ], [ 136.91119040699999, 34.778506479 ], [ 136.90874850099999, 34.779982712 ], [ 136.90911609599999, 34.780040961 ], [ 136.90911191699999, 34.780222826 ], [ 136.90952595600001, 34.780203308 ], [ 136.90971350699999, 34.780132147 ], [ 136.910003103, 34.780155656 ], [ 136.91041426699999, 34.780130761 ], [ 136.910478347, 34.780162381 ], [ 136.910703934, 34.780131371 ], [ 136.910725066, 34.780028373 ], [ 136.91078528, 34.780188787 ], [ 136.911031751, 34.780134922 ], [ 136.911032103999986, 34.780020432 ], [ 136.911120565, 34.780020617 ], [ 136.911158491, 34.780096547 ], [ 136.911311267, 34.780052503 ], [ 136.911307934, 34.78000813 ], [ 136.911762944, 34.779825898 ], [ 136.911783574, 34.779886049 ], [ 136.912075238, 34.779800791 ], [ 136.91219286899999, 34.779904079 ], [ 136.912286595000012, 34.779884239 ], [ 136.912224425, 34.779795378 ], [ 136.91268560200001, 34.779863605 ], [ 136.912685431, 34.779919419 ], [ 136.912888345, 34.779928429 ], [ 136.912726472, 34.780111277 ], [ 136.912771127000013, 34.780255915 ], [ 136.912935102, 34.780519587 ], [ 136.913594733999986, 34.780354948 ], [ 136.913616221000012, 34.780134597 ], [ 136.91375390499999, 34.780488375 ], [ 136.913834564000013, 34.780771908 ], [ 136.913811439, 34.78096077 ], [ 136.913746736, 34.781132372 ], [ 136.913621232, 34.781333902 ], [ 136.912976681, 34.782235609 ], [ 136.912985074, 34.782327219 ], [ 136.913125549, 34.782336099 ], [ 136.913177362999988, 34.782409195 ], [ 136.91329181, 34.782420882 ], [ 136.91366430299999, 34.782566202 ], [ 136.913710861999988, 34.78265646 ], [ 136.91374025799999, 34.782686575 ], [ 136.91379955299999, 34.782582226 ], [ 136.913814534000011, 34.782220179 ], [ 136.914000675000011, 34.782043104 ], [ 136.91377575300001, 34.781855158 ], [ 136.91405978899999, 34.781713349 ], [ 136.914285455999988, 34.781656572 ], [ 136.91446324899999, 34.78165694 ], [ 136.914762886, 34.781518024 ], [ 136.91508317099999, 34.781719046 ], [ 136.915143925, 34.78170486 ], [ 136.915302841999988, 34.782209665 ], [ 136.915380496000012, 34.782342206 ], [ 136.91554496, 34.782448449 ], [ 136.915553963, 34.78253052 ], [ 136.915708970999987, 34.782513666 ], [ 136.91541521799999, 34.781188064 ], [ 136.91501557, 34.779906607 ] ] ] } },
{ "type": "Feature", "properties": { "A29_001": "23446", "A29_002": "愛知県", "A29_003": "美浜町", "A29_004": 5, "A29_005": "第一種住居地域", "A29_006": 60, "A29_007": 200, "A29_008": "条件付き公開" }, "geometry": { "type": "Polygon", "coordinates": [ [ [ 136.90344213899999, 34.784804417 ], [ 136.90348788899999, 34.784875778 ], [ 136.903561359, 34.784952266 ], [ 136.903579861, 34.784971528 ], [ 136.90358994499999, 34.784979479 ], [ 136.90367913899999, 34.785049806 ], [ 136.903729277999986, 34.785084806 ], [ 136.904544722, 34.784489083 ], [ 136.904671083000011, 34.784734833 ], [ 136.904894472, 34.785161028 ], [ 136.90551929899999, 34.786395542 ], [ 136.905569288, 34.786384498 ], [ 136.905774349000012, 34.786964596 ], [ 136.905976621, 34.787182562 ], [ 136.905988119999989, 34.787387239 ], [ 136.90646276199999, 34.787598632 ], [ 136.906460528999986, 34.787757484 ], [ 136.906676831, 34.787928251 ], [ 136.90718469, 34.78745202 ], [ 136.90633553, 34.78568843 ], [ 136.906132778, 34.785242222 ], [ 136.905747694000013, 34.784477194 ], [ 136.90541297199999, 34.783845111 ], [ 136.90550894399999, 34.7837605 ], [ 136.905739444, 34.783611056 ], [ 136.9058355, 34.783559306 ], [ 136.90597994399999, 34.783503083 ], [ 136.906071222, 34.783467528 ], [ 136.906362889, 34.783384444 ], [ 136.90634405599999, 34.78358975 ], [ 136.906424750000014, 34.7836855 ], [ 136.90645876799999, 34.783711246 ], [ 136.906517631000014, 34.784215601 ], [ 136.906638531999988, 34.784626549 ], [ 136.906792666, 34.785017646 ], [ 136.906982383000013, 34.785403333 ], [ 136.907251108999986, 34.785759243 ], [ 136.908020646000011, 34.78660354 ], [ 136.90803752799999, 34.786585528 ], [ 136.908075833, 34.786558944 ], [ 136.908333333, 34.786447639 ], [ 136.908390083, 34.786423111 ], [ 136.908368024, 34.786398785 ], [ 136.908333333, 34.786360528 ], [ 136.907967582999987, 34.78595725 ], [ 136.907656722000013, 34.785619472 ], [ 136.907426162, 34.785556063 ], [ 136.907392472, 34.785264444 ], [ 136.907191805999986, 34.784881806 ], [ 136.907038806, 34.784490389 ], [ 136.906897111, 34.784086667 ], [ 136.906843, 34.783855167 ], [ 136.907015924, 34.783846768 ], [ 136.907025272, 34.783169979 ], [ 136.907076835999987, 34.782860009 ], [ 136.907215380999986, 34.782469723 ], [ 136.907645237, 34.78137045 ], [ 136.907925146, 34.780840332 ], [ 136.908084917999986, 34.780593203 ], [ 136.908233681000013, 34.780399719 ], [ 136.908472877, 34.780176611 ], [ 136.90874850099999, 34.779982712 ], [ 136.90864472199999, 34.779974833 ], [ 136.908568472000013, 34.779977917 ], [ 136.908446027999986, 34.779982167 ], [ 136.908333333, 34.780006722 ], [ 136.908295917, 34.780014861 ], [ 136.90816594399999, 34.780050639 ], [ 136.90799197199999, 34.780103694 ], [ 136.907924388999987, 34.780214083 ], [ 136.90761805599999, 34.780185583 ], [ 136.90800904, 34.77955485 ], [ 136.908464068, 34.778728144 ], [ 136.908258741999987, 34.778705884 ], [ 136.90803920799999, 34.778651153 ], [ 136.90782551699999, 34.778576757 ], [ 136.907652272, 34.778510795 ], [ 136.907345784, 34.778350912 ], [ 136.907379415, 34.778265531 ], [ 136.907077423, 34.778037067 ], [ 136.906775899, 34.777731341 ], [ 136.906349088000013, 34.777238271 ], [ 136.906682837, 34.777006067 ], [ 136.9072625, 34.777669944 ], [ 136.907512177, 34.77789371 ], [ 136.907662706, 34.778012815 ], [ 136.907840642999986, 34.777964535 ], [ 136.908314103, 34.778168524 ], [ 136.90855498, 34.778193581 ], [ 136.90881179499999, 34.778203926 ], [ 136.90910433, 34.77816782 ], [ 136.909362133, 34.778089168 ], [ 136.909624882, 34.778004809 ], [ 136.909809712, 34.777953949 ], [ 136.911182467, 34.777596715 ], [ 136.91198255, 34.77731776 ], [ 136.91249919, 34.77705466 ], [ 136.91352346799999, 34.776486668 ], [ 136.913645167999988, 34.776392465 ], [ 136.91371032, 34.77626189 ], [ 136.913724656, 34.776111173 ], [ 136.913710396999988, 34.775936813 ], [ 136.91363024, 34.77556493 ], [ 136.913421757, 34.774642988 ], [ 136.913356455000013, 34.773782499 ], [ 136.913288111000014, 34.772561056 ], [ 136.91364380600001, 34.772539 ], [ 136.913632583, 34.772333528 ], [ 136.91394154599999, 34.772288234 ], [ 136.914010053, 34.773623933 ], [ 136.91405770099999, 34.774552911 ], [ 136.914389336, 34.775969557 ], [ 136.914395731000013, 34.77610915 ], [ 136.914395887000012, 34.776112566 ], [ 136.914385487, 34.7762844 ], [ 136.91434311899999, 34.776432793 ], [ 136.91423408599999, 34.776639486 ], [ 136.91407485799999, 34.776785399 ], [ 136.91445275, 34.777685111 ], [ 136.914538416999989, 34.777897373 ], [ 136.91484584, 34.777915562 ], [ 136.915063333, 34.777735361 ], [ 136.915092778, 34.777714278 ], [ 136.915147749999988, 34.777591083 ], [ 136.91513791700001, 34.777433833 ], [ 136.91510638599999, 34.777289759 ], [ 136.915079028, 34.77716475 ], [ 136.914996972000012, 34.776782861 ], [ 136.914949264, 34.77654999 ], [ 136.914904639000014, 34.776332167 ], [ 136.914880611, 34.776184333 ], [ 136.91500728, 34.775932952 ], [ 136.915022583, 34.775902583 ], [ 136.915304944000013, 34.775881278 ], [ 136.91518338899999, 34.775560833 ], [ 136.914978111000011, 34.775 ], [ 136.914956444000012, 34.774940833 ], [ 136.914876945, 34.774725112 ], [ 136.914848333, 34.774647472 ], [ 136.914793917, 34.774499778 ], [ 136.914783231, 34.774471533 ], [ 136.9146725, 34.774178861 ], [ 136.914659583, 34.774113583 ], [ 136.91453536099999, 34.773508833 ], [ 136.914475441, 34.773186308 ], [ 136.914445027999989, 34.773022611 ], [ 136.91441211099999, 34.772656306 ], [ 136.914395, 34.772465778 ], [ 136.914367583, 34.772206028 ], [ 136.914365417, 34.772053972 ], [ 136.914363194, 34.771897583 ], [ 136.914360937, 34.771739565 ], [ 136.914359666, 34.771650531 ], [ 136.91435883299999, 34.771592194 ], [ 136.914364221999989, 34.771259278 ], [ 136.914367306, 34.771213167 ], [ 136.914433833, 34.77075875 ], [ 136.914454694, 34.770645667 ], [ 136.914556417, 34.770317222 ], [ 136.91460997199999, 34.770184333 ], [ 136.914697389, 34.7699675 ], [ 136.914804194, 34.769945944 ], [ 136.914818833, 34.769938972 ], [ 136.914830083, 34.76992875 ], [ 136.91492730600001, 34.769749389 ], [ 136.91501525000001, 34.769613222 ], [ 136.915049659, 34.769568682 ], [ 136.915064777999987, 34.769549111 ], [ 136.915177333, 34.769462667 ], [ 136.91524486099999, 34.769377167 ], [ 136.915786278000013, 34.769029583 ], [ 136.915163944, 34.768482917 ], [ 136.91556209699999, 34.768108069 ], [ 136.915701028, 34.767951611 ], [ 136.916459194, 34.767066833 ], [ 136.91657715299999, 34.766933118 ], [ 136.916815335, 34.767052592 ], [ 136.916971855000014, 34.767207411 ], [ 136.917075293000011, 34.767412754 ], [ 136.917271715999988, 34.767983983 ], [ 136.91737375, 34.767910889 ], [ 136.917583028, 34.767637417 ], [ 136.917720239, 34.767451274 ], [ 136.9177325, 34.767434639 ], [ 136.917918778, 34.767188778 ], [ 136.918230778, 34.766774417 ], [ 136.918333028, 34.766666667 ], [ 136.91835536100001, 34.766643139 ], [ 136.918516016000012, 34.766471395 ], [ 136.918560611, 34.766423722 ], [ 136.918765861, 34.766218 ], [ 136.918865528, 34.766127889 ], [ 136.918977055999989, 34.766032861 ], [ 136.91905872000001, 34.765968015 ], [ 136.918958444, 34.765912278 ], [ 136.918282556, 34.765536778 ], [ 136.918802559999989, 34.76487896 ], [ 136.920736889000011, 34.7624135 ], [ 136.920926393, 34.762163308 ], [ 136.921293639, 34.762664417 ], [ 136.921488638999989, 34.763080694 ], [ 136.92165094399999, 34.763511611 ], [ 136.921773472000012, 34.763924139 ], [ 136.921872103999988, 34.764445929 ], [ 136.922695283, 34.764249536 ], [ 136.922691267, 34.762470855 ], [ 136.92421647099999, 34.762471755 ], [ 136.924238597, 34.761428495 ], [ 136.925327968, 34.76144148 ], [ 136.925338856, 34.76092567 ], [ 136.924185130000012, 34.7608905 ], [ 136.922733806, 34.760911944 ], [ 136.92254208899999, 34.760910147 ], [ 136.92102780499999, 34.760895945 ], [ 136.921242798, 34.758828372 ], [ 136.921152194, 34.758979028 ], [ 136.921057139, 34.759165639 ], [ 136.920994361, 34.759304833 ], [ 136.920948611, 34.759435167 ], [ 136.92086244399999, 34.759736583 ], [ 136.920824106999987, 34.759883516 ], [ 136.92068947199999, 34.760399528 ], [ 136.92062706199999, 34.760697412 ], [ 136.920602331999987, 34.760815445 ], [ 136.920586332999989, 34.760891806 ], [ 136.92057988900001, 34.760984806 ], [ 136.92057988900001, 34.761080472 ], [ 136.920597278, 34.761272806 ], [ 136.920632028, 34.761488083 ], [ 136.92063552799999, 34.761564639 ], [ 136.92063088899999, 34.761648833 ], [ 136.920621417, 34.761727778 ], [ 136.920601917, 34.761802889 ], [ 136.920460111000011, 34.762038556 ], [ 136.920352611, 34.761927722 ], [ 136.920337249999989, 34.761899694 ], [ 136.920241973, 34.761725766 ], [ 136.919315334, 34.762898266 ], [ 136.919252674, 34.762862858 ], [ 136.918541306, 34.763754556 ], [ 136.917475943999989, 34.765107333 ], [ 136.916045, 34.764350861 ], [ 136.915865085, 34.764341282 ], [ 136.915780194, 34.764474889 ], [ 136.915568215, 34.764748682 ], [ 136.915293222, 34.765103861 ], [ 136.91515796600001, 34.765283483 ], [ 136.91494780799999, 34.765562574 ], [ 136.91465052800001, 34.765957361 ], [ 136.9146005, 34.766025028 ], [ 136.914499917, 34.766051944 ], [ 136.91427411, 34.766100841 ], [ 136.914252083, 34.766105611 ], [ 136.914187083, 34.766103361 ], [ 136.914069528, 34.766092611 ], [ 136.913973027999987, 34.766079333 ], [ 136.913822694, 34.766042167 ], [ 136.913610444, 34.766005639 ], [ 136.91328561099999, 34.765931306 ], [ 136.913075778, 34.765867556 ], [ 136.913035556000011, 34.765851639 ], [ 136.912936667, 34.7658045 ], [ 136.912828139, 34.765746083 ], [ 136.912774250000012, 34.765712222 ], [ 136.912623110999988, 34.765599361 ], [ 136.91251697199999, 34.765529667 ], [ 136.9124205, 34.765479861 ], [ 136.912389944000012, 34.765361028 ], [ 136.912382694, 34.7653325 ], [ 136.912367417000013, 34.765312583 ], [ 136.912347333000014, 34.765296639 ], [ 136.912324, 34.765280722 ], [ 136.912057083, 34.7651705 ], [ 136.911995166999986, 34.765200389 ], [ 136.911921194, 34.765220972 ], [ 136.911894139, 34.7652295 ], [ 136.911754271, 34.765152373 ], [ 136.911605915, 34.765272278 ], [ 136.91104415699999, 34.76522912 ], [ 136.911056624999986, 34.765685203 ], [ 136.910865862, 34.766058808 ], [ 136.9112671, 34.76641839 ], [ 136.91153225, 34.766314375 ], [ 136.911510306, 34.766450944 ], [ 136.911556861, 34.766548306 ], [ 136.911644056, 34.766666667 ], [ 136.911708944, 34.76675475 ], [ 136.911511, 34.766858694 ], [ 136.9113755, 34.766910167 ], [ 136.911314583, 34.766929139 ], [ 136.91112125, 34.766989389 ], [ 136.910888583, 34.767040861 ], [ 136.91113355600001, 34.76746225 ], [ 136.911137806, 34.767471078 ], [ 136.911317110999988, 34.7678435 ], [ 136.911376694000012, 34.767967722 ], [ 136.91150502799999, 34.768262806 ], [ 136.911516409, 34.768283214 ], [ 136.911539806, 34.768325167 ], [ 136.91158538900001, 34.768388556 ], [ 136.911641722000013, 34.768446 ], [ 136.911732889, 34.768525194 ], [ 136.91182659399999, 34.768705573 ], [ 136.911796392000014, 34.768751307 ], [ 136.911863264, 34.768812509 ], [ 136.911920357000014, 34.768810481 ], [ 136.911853407, 34.768880557 ], [ 136.911627966, 34.76887436 ], [ 136.911505639000012, 34.768825583 ], [ 136.91147469399999, 34.768804417 ], [ 136.91142875, 34.768779611 ], [ 136.911139639, 34.768683972 ], [ 136.911073278, 34.768663 ], [ 136.910991110999987, 34.768643111 ], [ 136.910930138999987, 34.768638 ], [ 136.910878860999986, 34.768640917 ], [ 136.9108205, 34.768648944 ], [ 136.91052442, 34.768712552 ], [ 136.910494277999987, 34.768719028 ], [ 136.91041786299999, 34.768731032 ], [ 136.910361306, 34.768739917 ], [ 136.91022022199999, 34.768762083 ], [ 136.909726889000012, 34.768841667 ], [ 136.90971894399999, 34.768905167 ], [ 136.909683730000012, 34.768986097 ], [ 136.909506778, 34.769392778 ], [ 136.90950395499999, 34.769400846 ], [ 136.909495278, 34.769425639 ], [ 136.909491722000013, 34.76945775 ], [ 136.909497028, 34.769491333 ], [ 136.909517361000013, 34.76953075 ], [ 136.909608416999987, 34.769626361 ], [ 136.909654389, 34.769659222 ], [ 136.909708333, 34.769693528 ], [ 136.909789667000013, 34.76973075 ], [ 136.90985244399999, 34.769761417 ], [ 136.909885139000011, 34.769789167 ], [ 136.90990725, 34.769818361 ], [ 136.909934666999987, 34.769870167 ], [ 136.910034556, 34.770124194 ], [ 136.910068747999986, 34.770265016 ], [ 136.910089610999989, 34.770350944 ], [ 136.910100325, 34.770464011 ], [ 136.910214521, 34.770551551 ], [ 136.910136432, 34.770565698 ], [ 136.91016910499999, 34.770655929 ], [ 136.910090865, 34.770718734 ], [ 136.91011148199999, 34.770781748 ], [ 136.910194735, 34.770780492 ], [ 136.910266616, 34.771091201 ], [ 136.910330765, 34.771098492 ], [ 136.910370389, 34.771184444 ], [ 136.91029220199999, 34.771230076 ], [ 136.910288396, 34.771292561 ], [ 136.910389557, 34.771295755 ], [ 136.910508451999988, 34.771406323 ], [ 136.91048987, 34.77157325 ], [ 136.91054152800001, 34.771635306 ], [ 136.91054004099999, 34.771707525 ], [ 136.91058332599999, 34.771731469 ], [ 136.910593438, 34.771967032 ], [ 136.910542493, 34.772083205 ], [ 136.91032666699999, 34.772219139 ], [ 136.910381398999988, 34.772765639 ], [ 136.91027606099999, 34.77294431 ], [ 136.910124515, 34.772875415 ], [ 136.90993603199999, 34.773065837 ], [ 136.909928307, 34.773226824 ], [ 136.909830414999988, 34.773333953 ], [ 136.90983369599999, 34.773441295 ], [ 136.909717793, 34.773530497 ], [ 136.909713009, 34.773654491 ], [ 136.909611192999989, 34.773675266 ], [ 136.909535116, 34.773598778 ], [ 136.909317429999987, 34.773697544 ], [ 136.909325338, 34.77388789 ], [ 136.909390429000013, 34.773964796 ], [ 136.90936990899999, 34.774056585 ], [ 136.909378812, 34.774168471 ], [ 136.909487667, 34.774115272 ], [ 136.90967254099999, 34.774157642 ], [ 136.909926979, 34.774139097 ], [ 136.910107528999987, 34.77408414 ], [ 136.910277218, 34.773802086 ], [ 136.910859652, 34.773908262 ], [ 136.911002853000014, 34.773965808 ], [ 136.911081325999987, 34.774015586 ], [ 136.911124988000012, 34.774105362 ], [ 136.911121599000012, 34.774454553 ], [ 136.91136876499999, 34.774544757 ], [ 136.91143331699999, 34.77460977 ], [ 136.911481493, 34.774735812 ], [ 136.911585229, 34.774842887 ], [ 136.91159850599999, 34.77503755 ], [ 136.91154437, 34.77520834 ], [ 136.91123549, 34.7753936 ], [ 136.911010444999988, 34.775496953 ], [ 136.910844534, 34.775509975 ], [ 136.91045216, 34.77562677 ], [ 136.910059897, 34.775806502 ], [ 136.909986537, 34.77584888 ], [ 136.909949305999987, 34.775871028 ], [ 136.90990777799999, 34.775910222 ], [ 136.90986376399999, 34.775975793 ], [ 136.909806944, 34.776082528 ], [ 136.909760669, 34.776206316 ], [ 136.909554918999987, 34.776254324 ], [ 136.90908654, 34.77625986 ], [ 136.908800222999986, 34.776416487 ], [ 136.908593919, 34.776660166 ], [ 136.908393966, 34.776817167 ], [ 136.90815082899999, 34.776916831 ], [ 136.907928098000014, 34.776961677 ], [ 136.90769108399999, 34.776951632 ], [ 136.907223718000012, 34.776844431 ], [ 136.907382791, 34.776413041 ], [ 136.907151449999986, 34.776347432 ], [ 136.90713991699999, 34.77613625 ], [ 136.90698175, 34.775885361 ], [ 136.906893389, 34.775650361 ], [ 136.906818167000011, 34.775576333 ], [ 136.906784667000011, 34.775531944 ], [ 136.906745722000011, 34.775445778 ], [ 136.90673325, 34.7753615 ], [ 136.90639834000001, 34.77512896 ], [ 136.906019206, 34.774838844 ], [ 136.906887944, 34.770460306 ], [ 136.9067755, 34.770431972 ], [ 136.906638063, 34.77032341 ], [ 136.906517259, 34.770132333 ], [ 136.906229059, 34.7698598 ], [ 136.90601553499999, 34.769740082 ], [ 136.905830619999989, 34.7696439 ], [ 136.90486148799999, 34.774819371 ], [ 136.904629497, 34.774960231 ], [ 136.905349480000012, 34.77578113 ], [ 136.905258908, 34.776106401 ], [ 136.905267957, 34.776307853 ], [ 136.905560863, 34.776377177 ], [ 136.905862785000011, 34.776367928 ], [ 136.905905194000013, 34.776417611 ], [ 136.90560675, 34.776432889 ], [ 136.905204833, 34.776469083 ], [ 136.905174773, 34.776467701 ], [ 136.905064748, 34.777172215 ], [ 136.905076678, 34.777307775 ], [ 136.905257758, 34.778221814 ], [ 136.90528791700001, 34.778668394 ], [ 136.905243256, 34.779088312 ], [ 136.905205155, 34.779611337 ], [ 136.905120194, 34.780719333 ], [ 136.90520575, 34.7807175 ], [ 136.905350083, 34.780685306 ], [ 136.905514667, 34.780645361 ], [ 136.90558654, 34.780630872 ], [ 136.905761305999988, 34.780595639 ], [ 136.906325028, 34.780480583 ], [ 136.906362889, 34.780424389 ], [ 136.90643613899999, 34.780316111 ], [ 136.90660275, 34.780086028 ], [ 136.907357639, 34.780163778 ], [ 136.907189667000011, 34.780631889 ], [ 136.906906306, 34.781408139 ], [ 136.906773694, 34.781787194 ], [ 136.906156055999986, 34.782265611 ], [ 136.90632202, 34.78244005 ], [ 136.90507405, 34.78332774 ], [ 136.90464875, 34.78182569 ], [ 136.904310165999988, 34.782296417 ], [ 136.904182534, 34.78265989 ], [ 136.904116882000011, 34.782850566 ], [ 136.903776932999989, 34.783268445 ], [ 136.90354693399999, 34.783666277 ], [ 136.903535505, 34.783851108 ], [ 136.90347342699999, 34.784053718 ], [ 136.903113786, 34.784643284 ], [ 136.90325138899999, 34.784704333 ], [ 136.90344213899999, 34.784804417 ] ] ] } },
{ "type": "Feature", "properties": { "A29_001": "23446", "A29_002": "愛知県", "A29_003": "美浜町", "A29_004": 9, "A29_005": "商業地域", "A29_006": 80, "A29_007": 400, "A29_008": "条件付き公開" }, "geometry": { "type": "Polygon", "coordinates": [ [ [ 136.909809712, 34.777953949 ], [ 136.910274622, 34.778136771 ], [ 136.91033851, 34.778136428 ], [ 136.910369631, 34.778168933 ], [ 136.91059144799999, 34.778233324 ], [ 136.91071279799999, 34.778254569 ], [ 136.910766948, 34.778318607 ], [ 136.910837702, 34.778248153 ], [ 136.910908129, 34.778283603 ], [ 136.910916633999989, 34.778430328 ], [ 136.91119040699999, 34.778506479 ], [ 136.912288593, 34.777956657 ], [ 136.91253164599999, 34.778025382 ], [ 136.91273268, 34.778080185 ], [ 136.91292001299999, 34.778077713 ], [ 136.91307724, 34.7780343 ], [ 136.913206457, 34.777968594 ], [ 136.913274704, 34.777856522 ], [ 136.914538416999989, 34.777897373 ], [ 136.91445275, 34.777685111 ], [ 136.91407485799999, 34.776785399 ], [ 136.91423408599999, 34.776639486 ], [ 136.91434311899999, 34.776432793 ], [ 136.914385487, 34.7762844 ], [ 136.914395887000012, 34.776112566 ], [ 136.914395731000013, 34.77610915 ], [ 136.914389336, 34.775969557 ], [ 136.91405770099999, 34.774552911 ], [ 136.914010053, 34.773623933 ], [ 136.91394154599999, 34.772288234 ], [ 136.913632583, 34.772333528 ], [ 136.91364380600001, 34.772539 ], [ 136.913288111000014, 34.772561056 ], [ 136.913356455000013, 34.773782499 ], [ 136.913421757, 34.774642988 ], [ 136.91363024, 34.77556493 ], [ 136.913710396999988, 34.775936813 ], [ 136.913724656, 34.776111173 ], [ 136.91371032, 34.77626189 ], [ 136.913645167999988, 34.776392465 ], [ 136.91352346799999, 34.776486668 ], [ 136.91249919, 34.77705466 ], [ 136.91198255, 34.77731776 ], [ 136.911182467, 34.777596715 ], [ 136.909809712, 34.777953949 ] ] ] } },
{ "type": "Feature", "properties": { "A29_001": "23446", "A29_002": "愛知県", "A29_003": "美浜町", "A29_004": 8, "A29_005": "近隣商業地域", "A29_006": 80, "A29_007": 200, "A29_008": "条件付き公開" }, "geometry": { "type": "Polygon", "coordinates": [ [ [ 136.908568472000013, 34.779977917 ], [ 136.90864472199999, 34.779974833 ], [ 136.90874850099999, 34.779982712 ], [ 136.91119040699999, 34.778506479 ], [ 136.910916633999989, 34.778430328 ], [ 136.910908129, 34.778283603 ], [ 136.910837702, 34.778248153 ], [ 136.910766948, 34.778318607 ], [ 136.91071279799999, 34.778254569 ], [ 136.91059144799999, 34.778233324 ], [ 136.910369631, 34.778168933 ], [ 136.91033851, 34.778136428 ], [ 136.910274622, 34.778136771 ], [ 136.909809712, 34.777953949 ], [ 136.909624882, 34.778004809 ], [ 136.909362133, 34.778089168 ], [ 136.90910433, 34.77816782 ], [ 136.90881179499999, 34.778203926 ], [ 136.90855498, 34.778193581 ], [ 136.908314103, 34.778168524 ], [ 136.907840642999986, 34.777964535 ], [ 136.907662706, 34.778012815 ], [ 136.907512177, 34.77789371 ], [ 136.9072625, 34.777669944 ], [ 136.906682837, 34.777006067 ], [ 136.906349088000013, 34.777238271 ], [ 136.906775899, 34.777731341 ], [ 136.907077423, 34.778037067 ], [ 136.907379415, 34.778265531 ], [ 136.907345784, 34.778350912 ], [ 136.907652272, 34.778510795 ], [ 136.90782551699999, 34.778576757 ], [ 136.90803920799999, 34.778651153 ], [ 136.908258741999987, 34.778705884 ], [ 136.908464068, 34.778728144 ], [ 136.90800904, 34.77955485 ], [ 136.90761805599999, 34.780185583 ], [ 136.907924388999987, 34.780214083 ], [ 136.90799197199999, 34.780103694 ], [ 136.90816594399999, 34.780050639 ], [ 136.908295917, 34.780014861 ], [ 136.908333333, 34.780006722 ], [ 136.908446027999986, 34.779982167 ], [ 136.908568472000013, 34.779977917 ] ] ] } },
{ "type": "Feature", "properties": { "A29_001": "23446", "A29_002": "愛知県", "A29_003": "美浜町", "A29_004": 8, "A29_005": "近隣商業地域", "A29_006": 80, "A29_007": 200, "A29_008": "条件付き公開" }, "geometry": { "type": "Polygon", "coordinates": [ [ [ 136.92254208899999, 34.760910147 ], [ 136.922946145999987, 34.758323229 ], [ 136.921667111, 34.758324077 ], [ 136.921440972, 34.758562889 ], [ 136.921242798, 34.758828372 ], [ 136.92102780499999, 34.760895945 ], [ 136.92254208899999, 34.760910147 ] ] ] } }
]
}
