{
"type": "FeatureCollection",
"name": "A29-19_23228",
"features": [
{ "type": "Feature", "properties": { "A29_001": "23228", "A29_002": "愛知県", "A29_003": "岩倉市", "A29_004": 11, "A29_005": "工業地域", "A29_006": 60, "A29_007": 200, "A29_008": null }, "geometry": { "type": "Polygon", "coordinates": [ [ [ 136.883338689, 35.294628373 ], [ 136.883322533000012, 35.294484684 ], [ 136.883705029, 35.294394571 ], [ 136.883368101, 35.293426174 ], [ 136.88333272, 35.293432229 ], [ 136.88331597199999, 35.293325858 ], [ 136.883299408999989, 35.293229691 ], [ 136.883284704, 35.293136431 ], [ 136.88326770899999, 35.29304395 ], [ 136.883263534, 35.292976937 ], [ 136.88325002799999, 35.292795439 ], [ 136.883223609, 35.292517522 ], [ 136.883202567000012, 35.292267922 ], [ 136.883178085999987, 35.291973459 ], [ 136.88316076699999, 35.291775366 ], [ 136.88260727299999, 35.291774229 ], [ 136.88261273399999, 35.292140158 ], [ 136.88261090099999, 35.29269326 ], [ 136.882604336000014, 35.292964376 ], [ 136.882319689000013, 35.292912388 ], [ 136.88182821, 35.292822622 ], [ 136.881638299, 35.292791265 ], [ 136.881446579999988, 35.292776877 ], [ 136.88143693399999, 35.294623858 ], [ 136.882948899000013, 35.294627838 ], [ 136.883338689, 35.294628373 ] ] ] } },
{ "type": "Feature", "properties": { "A29_001": "23228", "A29_002": "愛知県", "A29_003": "岩倉市", "A29_004": 3, "A29_005": "第一種中高層住居専用地域", "A29_006": 60, "A29_007": 200, "A29_008": null }, "geometry": { "type": "Polygon", "coordinates": [ [ [ 136.882535170000011, 35.283071034 ], [ 136.882533325999987, 35.283089121 ], [ 136.882498435, 35.283415717 ], [ 136.882480179999988, 35.28361242 ], [ 136.882477413, 35.283633425 ], [ 136.882544109, 35.283857289 ], [ 136.882572729, 35.284013655 ], [ 136.882714794, 35.284568799 ], [ 136.88280025200001, 35.284923279 ], [ 136.88285591799999, 35.285164262 ], [ 136.882930464, 35.285464432 ], [ 136.88325052499999, 35.285463929 ], [ 136.883661964, 35.285466812 ], [ 136.884116674000012, 35.28546994 ], [ 136.88452958, 35.285475095 ], [ 136.88479146, 35.2854785 ], [ 136.884925368000012, 35.285204093 ], [ 136.884995507000014, 35.28504858 ], [ 136.885013055, 35.285013068 ], [ 136.88507037, 35.284897179 ], [ 136.885087430999988, 35.28485944 ], [ 136.885131457, 35.28476208 ], [ 136.885188583, 35.284630722 ], [ 136.885245598000012, 35.284493639 ], [ 136.88525569699999, 35.284469378 ], [ 136.885279415000014, 35.284388458 ], [ 136.88531595500001, 35.284278055 ], [ 136.885326176, 35.284247196 ], [ 136.885345538, 35.284176497 ], [ 136.885347287, 35.284109462 ], [ 136.88535914799999, 35.284055737 ], [ 136.885407315, 35.283958937 ], [ 136.885418492000014, 35.283905896 ], [ 136.885451249999988, 35.283715843 ], [ 136.885469289000014, 35.283585953 ], [ 136.885477951000013, 35.283455635 ], [ 136.88548162399999, 35.283331445 ], [ 136.88547306800001, 35.283077899 ], [ 136.885466705, 35.282889594 ], [ 136.885400659999988, 35.281938362 ], [ 136.885395867999989, 35.281887249 ], [ 136.885217231000013, 35.281873519 ], [ 136.885116167, 35.281868425 ], [ 136.88499309, 35.281858052 ], [ 136.88487222, 35.281848341 ], [ 136.884731807, 35.281838017 ], [ 136.884586323, 35.281822138 ], [ 136.884432091, 35.281802325 ], [ 136.88431321600001, 35.281788148 ], [ 136.88408661, 35.28176383 ], [ 136.883861709, 35.281739065 ], [ 136.883573324, 35.281704632 ], [ 136.88313746899999, 35.281653447 ], [ 136.882951732, 35.281633387 ], [ 136.882803539, 35.281612811 ], [ 136.88280677, 35.281594033 ], [ 136.882448334, 35.281554403 ], [ 136.882136534000011, 35.281519939 ], [ 136.881720384, 35.281470949 ], [ 136.881329666, 35.281427039 ], [ 136.880928966, 35.281383276 ], [ 136.880844336, 35.281375224 ], [ 136.880276884000011, 35.281321248 ], [ 136.880275057, 35.281680994 ], [ 136.8802733, 35.282180066 ], [ 136.880271779, 35.282611936 ], [ 136.88026918, 35.282912989 ], [ 136.88055669, 35.282912687 ], [ 136.880838813, 35.282912389 ], [ 136.881024437, 35.282912178 ], [ 136.881441959, 35.282913425 ], [ 136.881528291, 35.282919596 ], [ 136.882550196000011, 35.282923596 ], [ 136.882535170000011, 35.283071034 ] ] ] } },
{ "type": "Feature", "properties": { "A29_001": "23228", "A29_002": "愛知県", "A29_003": "岩倉市", "A29_004": 3, "A29_005": "第一種中高層住居専用地域", "A29_006": 60, "A29_007": 200, "A29_008": null }, "geometry": { "type": "Polygon", "coordinates": [ [ [ 136.882922059, 35.28095328 ], [ 136.88292635, 35.280930331 ], [ 136.883332739, 35.280981529 ], [ 136.883751453, 35.28103261 ], [ 136.88426954, 35.281091449 ], [ 136.884584544, 35.281130405 ], [ 136.884803105, 35.281153864 ], [ 136.884933800999988, 35.28116349 ], [ 136.88510035199999, 35.281177985 ], [ 136.885267139, 35.281187486 ], [ 136.885358501000013, 35.281191349 ], [ 136.88535869099999, 35.281152327 ], [ 136.885335922, 35.280673066 ], [ 136.885330591000013, 35.280555039 ], [ 136.885325853000012, 35.280393023 ], [ 136.885319474, 35.280263716 ], [ 136.885303136, 35.279949855 ], [ 136.885291822999989, 35.279950072 ], [ 136.885272829, 35.279460291 ], [ 136.885268104, 35.279278399 ], [ 136.88525733099999, 35.279052863 ], [ 136.88524599499999, 35.278745252 ], [ 136.885231898, 35.278451038 ], [ 136.885215245000012, 35.27814573 ], [ 136.885199233, 35.27788088 ], [ 136.88516242899999, 35.277220038 ], [ 136.885114155999986, 35.276316352 ], [ 136.885108019, 35.276196619 ], [ 136.884849296999988, 35.27615959 ], [ 136.884550859, 35.276141686 ], [ 136.884493466, 35.276139163 ], [ 136.884281033, 35.276137063 ], [ 136.884159579, 35.276136689 ], [ 136.883919385000013, 35.2761363 ], [ 136.88385347, 35.276083863 ], [ 136.883707522, 35.276084396 ], [ 136.88336225, 35.276087464 ], [ 136.883148874, 35.2760913 ], [ 136.882963182999987, 35.276083734 ], [ 136.882784684, 35.276066062 ], [ 136.882784501, 35.275938825 ], [ 136.881639906, 35.275942155 ], [ 136.880979481, 35.275936361 ], [ 136.880863446, 35.275936087 ], [ 136.88058659399999, 35.275935442 ], [ 136.88035564899999, 35.275936806 ], [ 136.880345745999989, 35.276305161 ], [ 136.88033928199999, 35.276545773 ], [ 136.880337958000013, 35.276925217 ], [ 136.88033262, 35.277423622 ], [ 136.880324757000011, 35.277655694 ], [ 136.880321958, 35.27792599 ], [ 136.880320853, 35.278224369 ], [ 136.88031244699999, 35.27853902 ], [ 136.880304246, 35.278801226 ], [ 136.880299885999989, 35.279121755 ], [ 136.880298218, 35.279448789 ], [ 136.880280164999988, 35.280673571 ], [ 136.88046873499999, 35.280690567 ], [ 136.88078060699999, 35.280725036 ], [ 136.880846598, 35.280731475 ], [ 136.881031624, 35.280749544 ], [ 136.881566534, 35.280806433 ], [ 136.881934734999987, 35.280850388 ], [ 136.88222093600001, 35.280879772 ], [ 136.882559111, 35.280918769 ], [ 136.882922059, 35.28095328 ] ] ] } },
{ "type": "Feature", "properties": { "A29_001": "23228", "A29_002": "愛知県", "A29_003": "岩倉市", "A29_004": 4, "A29_005": "第二種中高層住居専用地域", "A29_006": 60, "A29_007": 200, "A29_008": null }, "geometry": { "type": "Polygon", "coordinates": [ [ [ 136.882922059, 35.28095328 ], [ 136.882559111, 35.280918769 ], [ 136.88222093600001, 35.280879772 ], [ 136.881934734999987, 35.280850388 ], [ 136.881566534, 35.280806433 ], [ 136.881031624, 35.280749544 ], [ 136.880846598, 35.280731475 ], [ 136.88078060699999, 35.280725036 ], [ 136.88046873499999, 35.280690567 ], [ 136.880280164999988, 35.280673571 ], [ 136.880276884000011, 35.281321248 ], [ 136.880844336, 35.281375224 ], [ 136.880928966, 35.281383276 ], [ 136.881329666, 35.281427039 ], [ 136.881720384, 35.281470949 ], [ 136.882136534000011, 35.281519939 ], [ 136.882448334, 35.281554403 ], [ 136.88280677, 35.281594033 ], [ 136.882803539, 35.281612811 ], [ 136.882951732, 35.281633387 ], [ 136.88313746899999, 35.281653447 ], [ 136.883573324, 35.281704632 ], [ 136.883861709, 35.281739065 ], [ 136.88408661, 35.28176383 ], [ 136.88431321600001, 35.281788148 ], [ 136.884432091, 35.281802325 ], [ 136.884586323, 35.281822138 ], [ 136.884731807, 35.281838017 ], [ 136.88487222, 35.281848341 ], [ 136.88499309, 35.281858052 ], [ 136.885116167, 35.281868425 ], [ 136.885217231000013, 35.281873519 ], [ 136.885395867999989, 35.281887249 ], [ 136.885380054, 35.281609112 ], [ 136.885370372000011, 35.281414255 ], [ 136.885367734, 35.281376128 ], [ 136.885358501000013, 35.281191349 ], [ 136.885267139, 35.281187486 ], [ 136.88510035199999, 35.281177985 ], [ 136.884933800999988, 35.28116349 ], [ 136.884803105, 35.281153864 ], [ 136.884584544, 35.281130405 ], [ 136.88426954, 35.281091449 ], [ 136.883751453, 35.28103261 ], [ 136.883332739, 35.280981529 ], [ 136.88292635, 35.280930331 ], [ 136.882922059, 35.28095328 ] ] ] } },
{ "type": "Feature", "properties": { "A29_001": "23228", "A29_002": "愛知県", "A29_003": "岩倉市", "A29_004": 4, "A29_005": "第二種中高層住居専用地域", "A29_006": 60, "A29_007": 200, "A29_008": null }, "geometry": { "type": "Polygon", "coordinates": [ [ [ 136.88271100599999, 35.269759193 ], [ 136.882552162, 35.269549643 ], [ 136.882542851000011, 35.269537353 ], [ 136.882479221000011, 35.269461682 ], [ 136.882389302, 35.269369696 ], [ 136.88238264, 35.26936694 ], [ 136.88237641399999, 35.269368296 ], [ 136.882373057, 35.269375806 ], [ 136.882370315, 35.269399344 ], [ 136.88237218899999, 35.269498695 ], [ 136.88236930799999, 35.269549214 ], [ 136.882366276, 35.269602202 ], [ 136.882353275000014, 35.269762157 ], [ 136.882344224, 35.269817096 ], [ 136.882324442999987, 35.269881988 ], [ 136.88230023700001, 35.269939362 ], [ 136.882279720000014, 35.269982248 ], [ 136.88219027400001, 35.270141339 ], [ 136.882159065, 35.270180162 ], [ 136.88186507899999, 35.270065124 ], [ 136.881917765999987, 35.26999491 ], [ 136.881961047, 35.269933092 ], [ 136.881989392, 35.269826916 ], [ 136.88199645099999, 35.269772847 ], [ 136.882002967, 35.269622711 ], [ 136.881999522, 35.269557872 ], [ 136.88199828099999, 35.269548341 ], [ 136.88198966499999, 35.269481985 ], [ 136.881973984000012, 35.269399062 ], [ 136.881954984, 35.269357037 ], [ 136.881929359999987, 35.269313925 ], [ 136.881841506, 35.269206781 ], [ 136.88172428199999, 35.269062313 ], [ 136.881602218000012, 35.268915813 ], [ 136.88151428, 35.268817269 ], [ 136.88144157799999, 35.268834189 ], [ 136.881350860999987, 35.268854473 ], [ 136.881288606, 35.268870047 ], [ 136.881177923, 35.268901084 ], [ 136.880887898, 35.268974307 ], [ 136.880801208, 35.268996197 ], [ 136.880608824, 35.269046592 ], [ 136.880187853, 35.269158175 ], [ 136.87992303499999, 35.269223812 ], [ 136.879422506, 35.269351015 ], [ 136.87890096699999, 35.269485558 ], [ 136.878832528, 35.269490182 ], [ 136.878610245, 35.269540214 ], [ 136.878609794, 35.269540321 ], [ 136.87797059499999, 35.26969141 ], [ 136.877977098, 35.269717369 ], [ 136.877906403999987, 35.269737762 ], [ 136.877846202, 35.269759892 ], [ 136.87778936699999, 35.269762217 ], [ 136.877698688, 35.269774314 ], [ 136.877622153, 35.269805564 ], [ 136.877508244000012, 35.269855871 ], [ 136.87756296399999, 35.269959874 ], [ 136.87763709699999, 35.270075867 ], [ 136.877688240999987, 35.270181105 ], [ 136.877742933, 35.270293301 ], [ 136.877762254, 35.270358953 ], [ 136.877776282000013, 35.270410927 ], [ 136.877820464, 35.270517257 ], [ 136.877866025, 35.270607139 ], [ 136.87788278, 35.270640198 ], [ 136.87785865, 35.270647163 ], [ 136.87758433499999, 35.270726338 ], [ 136.877175560000012, 35.270838905 ], [ 136.877075222, 35.270862138 ], [ 136.876898461, 35.270896916 ], [ 136.876802935, 35.270908424 ], [ 136.876707312, 35.270913278 ], [ 136.876511792, 35.270922383 ], [ 136.87651137200001, 35.271009415 ], [ 136.876541167999989, 35.271361485 ], [ 136.87655480699999, 35.271553135 ], [ 136.876554626, 35.271603975 ], [ 136.876551342999988, 35.271790915 ], [ 136.87654372099999, 35.271983288 ], [ 136.876542984999986, 35.272232856 ], [ 136.876509798, 35.272563547 ], [ 136.876500558, 35.272679269 ], [ 136.876491632000011, 35.272772139 ], [ 136.87647542799999, 35.273046811 ], [ 136.87647239399999, 35.273194945 ], [ 136.87646529, 35.273294427 ], [ 136.876460404999989, 35.273462045 ], [ 136.876439476, 35.273631635 ], [ 136.876425355, 35.273802972 ], [ 136.876411305, 35.273957713 ], [ 136.876390792, 35.274035061 ], [ 136.87634276, 35.274256066 ], [ 136.876322216, 35.274338939 ], [ 136.876260981, 35.27447699 ], [ 136.876138508999986, 35.274753101 ], [ 136.87605291, 35.275039893 ], [ 136.877042913, 35.275072429 ], [ 136.877887284, 35.275100606 ], [ 136.879201281, 35.275140848 ], [ 136.880386539999989, 35.275161389 ], [ 136.880866469000011, 35.275075581 ], [ 136.88117251, 35.275020866 ], [ 136.882787916000012, 35.274720813 ], [ 136.88278384, 35.27364896 ], [ 136.882783765999989, 35.273314241 ], [ 136.88278921700001, 35.27305612 ], [ 136.88278259099999, 35.272951629 ], [ 136.882750089000012, 35.272503831 ], [ 136.88396606500001, 35.272448951 ], [ 136.88370305, 35.271832732 ], [ 136.883490615, 35.27135143 ], [ 136.883341804, 35.271002247 ], [ 136.883198197000013, 35.270670779 ], [ 136.88312596899999, 35.27050399 ], [ 136.883042262, 35.270313286 ], [ 136.883000812, 35.270218845 ], [ 136.88297178799999, 35.270151314 ], [ 136.882910841000012, 35.27004043 ], [ 136.882849891, 35.269949558 ], [ 136.882783546000013, 35.269861225 ], [ 136.88271100599999, 35.269759193 ] ] ] } },
{ "type": "Feature", "properties": { "A29_001": "23228", "A29_002": "愛知県", "A29_003": "岩倉市", "A29_004": 10, "A29_005": "準工業地域", "A29_006": 60, "A29_007": 200, "A29_008": null }, "geometry": { "type": "Polygon", "coordinates": [ [ [ 136.874646094000013, 35.296919494 ], [ 136.874852619, 35.296946765 ], [ 136.875145857, 35.296972739 ], [ 136.875352908, 35.296985164 ], [ 136.875636179, 35.297009635 ], [ 136.876032809, 35.297025453 ], [ 136.87620714900001, 35.29703777 ], [ 136.87624706299999, 35.297043572 ], [ 136.87626339, 35.296893074 ], [ 136.876236011, 35.296699436 ], [ 136.876221597000011, 35.296616272 ], [ 136.87621960199999, 35.296577433 ], [ 136.876207913, 35.296442408 ], [ 136.876204515000012, 35.296381148 ], [ 136.876218467, 35.296208973 ], [ 136.876214248, 35.296155815 ], [ 136.876072752, 35.295472672 ], [ 136.876046823, 35.295384333 ], [ 136.875736455, 35.294819123 ], [ 136.87563291, 35.294633307 ], [ 136.875583166000013, 35.29456649 ], [ 136.875499612, 35.294567659 ], [ 136.875361199, 35.294570139 ], [ 136.875328309, 35.294568013 ], [ 136.87532489899999, 35.294676059 ], [ 136.87532102, 35.294841101 ], [ 136.875317865, 35.294929739 ], [ 136.875310619, 35.295028022 ], [ 136.875303161, 35.295170186 ], [ 136.87529225, 35.295235766 ], [ 136.875275002, 35.295293091 ], [ 136.87523546700001, 35.295411912 ], [ 136.87512780899999, 35.295717118 ], [ 136.875088513, 35.295817983 ], [ 136.874952322000013, 35.296138436 ], [ 136.874612713, 35.296139032 ], [ 136.874522426, 35.296137489 ], [ 136.87425420400001, 35.296139518 ], [ 136.87407218199999, 35.296135896 ], [ 136.873855029, 35.296138633 ], [ 136.87331358099999, 35.296136537 ], [ 136.873309795000011, 35.296570411 ], [ 136.873309255, 35.296631752 ], [ 136.87330816799999, 35.296926704 ], [ 136.87330854199999, 35.297264803 ], [ 136.87332475299999, 35.297278931 ], [ 136.873368051, 35.297297687 ], [ 136.873403266999986, 35.297307508 ], [ 136.873434863, 35.297314615 ], [ 136.873381348, 35.29751316 ], [ 136.873289059, 35.297828408 ], [ 136.873413465, 35.297952115 ], [ 136.873581542000011, 35.298110298 ], [ 136.873834761000012, 35.298343425 ], [ 136.87360214200001, 35.298505037 ], [ 136.87369258699999, 35.298570177 ], [ 136.873760749000013, 35.298618749 ], [ 136.873841343, 35.298677564 ], [ 136.873924671999987, 35.298739964 ], [ 136.87400524899999, 35.298797417 ], [ 136.874075299999987, 35.298846796 ], [ 136.87411863599999, 35.298879568 ], [ 136.874209966, 35.298943348 ], [ 136.87429413699999, 35.298989218 ], [ 136.874350953, 35.299009845 ], [ 136.874454883999988, 35.299027872 ], [ 136.874532534, 35.299031115 ], [ 136.87445431, 35.298887861 ], [ 136.874432265, 35.298838599 ], [ 136.874409415, 35.298765736 ], [ 136.874397198999986, 35.298701462 ], [ 136.874392156, 35.298620808 ], [ 136.874387584, 35.298510129 ], [ 136.874386144, 35.298360183 ], [ 136.874387023999986, 35.298115529 ], [ 136.87440013599999, 35.297887527 ], [ 136.874443864, 35.297606451 ], [ 136.874487068, 35.297440116 ], [ 136.874537436, 35.297260061 ], [ 136.874571530999987, 35.297144229 ], [ 136.874646094000013, 35.296919494 ] ] ] } },
{ "type": "Feature", "properties": { "A29_001": "23228", "A29_002": "愛知県", "A29_003": "岩倉市", "A29_004": 5, "A29_005": "第一種住居地域", "A29_006": 60, "A29_007": 200, "A29_008": null }, "geometry": { "type": "Polygon", "coordinates": [ [ [ 136.873381348, 35.29751316 ], [ 136.873434863, 35.297314615 ], [ 136.873403266999986, 35.297307508 ], [ 136.873368051, 35.297297687 ], [ 136.87332475299999, 35.297278931 ], [ 136.87330854199999, 35.297264803 ], [ 136.87330816799999, 35.296926704 ], [ 136.873309255, 35.296631752 ], [ 136.873309795000011, 35.296570411 ], [ 136.87331358099999, 35.296136537 ], [ 136.873855029, 35.296138633 ], [ 136.87407218199999, 35.296135896 ], [ 136.87425420400001, 35.296139518 ], [ 136.874522426, 35.296137489 ], [ 136.874612713, 35.296139032 ], [ 136.874952322000013, 35.296138436 ], [ 136.875088513, 35.295817983 ], [ 136.87512780899999, 35.295717118 ], [ 136.87523546700001, 35.295411912 ], [ 136.875275002, 35.295293091 ], [ 136.87529225, 35.295235766 ], [ 136.875303161, 35.295170186 ], [ 136.875310619, 35.295028022 ], [ 136.875317865, 35.294929739 ], [ 136.87532102, 35.294841101 ], [ 136.87532489899999, 35.294676059 ], [ 136.875328309, 35.294568013 ], [ 136.875361199, 35.294570139 ], [ 136.875499612, 35.294567659 ], [ 136.875583166000013, 35.29456649 ], [ 136.87563291, 35.294633307 ], [ 136.875736455, 35.294819123 ], [ 136.876046823, 35.295384333 ], [ 136.876072752, 35.295472672 ], [ 136.876214248, 35.296155815 ], [ 136.876218467, 35.296208973 ], [ 136.876204515000012, 35.296381148 ], [ 136.876207913, 35.296442408 ], [ 136.87621960199999, 35.296577433 ], [ 136.876221597000011, 35.296616272 ], [ 136.876236011, 35.296699436 ], [ 136.87626339, 35.296893074 ], [ 136.87624706299999, 35.297043572 ], [ 136.87632957299999, 35.29705557 ], [ 136.87646124299999, 35.297091925 ], [ 136.876609765000012, 35.297135622 ], [ 136.876715284999989, 35.297163918 ], [ 136.876787887, 35.297175991 ], [ 136.876860521999987, 35.297182106 ], [ 136.876976762999988, 35.297182384 ], [ 136.87710755099999, 35.297182697 ], [ 136.877290652999989, 35.297177177 ], [ 136.877354534, 35.297165278 ], [ 136.877450638, 35.297135914 ], [ 136.877530689, 35.2971004 ], [ 136.877588873, 35.297082691 ], [ 136.877651624, 35.297073177 ], [ 136.877809254, 35.29706618 ], [ 136.87835401699999, 35.297071708 ], [ 136.878960183, 35.297066147 ], [ 136.878992423999989, 35.297065349 ], [ 136.87899237900001, 35.29658406 ], [ 136.87899815, 35.295969329 ], [ 136.878999467, 35.295565989 ], [ 136.878998165000013, 35.294936493 ], [ 136.879002832, 35.294624232 ], [ 136.879004049, 35.294280422 ], [ 136.879004559, 35.293632767 ], [ 136.879006847999989, 35.292967006 ], [ 136.879013364, 35.292679214 ], [ 136.879012536, 35.292471866 ], [ 136.87901607, 35.292296619 ], [ 136.879013097000012, 35.292005713 ], [ 136.87902071799999, 35.291542245 ], [ 136.879023085999989, 35.290866595 ], [ 136.879023687, 35.290696642 ], [ 136.87902813, 35.290565909 ], [ 136.879029309, 35.29023251 ], [ 136.879030303, 35.289951421 ], [ 136.879031174, 35.289823457 ], [ 136.879034381, 35.289354903 ], [ 136.879040881, 35.288642367 ], [ 136.87904354299999, 35.28786803 ], [ 136.879036017, 35.287499995 ], [ 136.878981130999989, 35.287500992 ], [ 136.877941733, 35.287509125 ], [ 136.87756976899999, 35.287510535 ], [ 136.877110216, 35.287533712 ], [ 136.877003769999988, 35.287540695 ], [ 136.876816612, 35.287552056 ], [ 136.876512797, 35.287575882 ], [ 136.876137263, 35.287606936 ], [ 136.875976143, 35.28762026 ], [ 136.875380826, 35.287664251 ], [ 136.87518613200001, 35.287680152 ], [ 136.874882121000013, 35.287703171 ], [ 136.874717483000012, 35.287716232 ], [ 136.874714195, 35.286656868 ], [ 136.874723753000012, 35.28619627 ], [ 136.874706978, 35.285963085 ], [ 136.874678679, 35.285684701 ], [ 136.874661507000013, 35.285574289 ], [ 136.87463834499999, 35.285497458 ], [ 136.874603914, 35.285304055 ], [ 136.87455201, 35.285078393 ], [ 136.874517438999987, 35.28491516 ], [ 136.874500447, 35.28475197 ], [ 136.874506875, 35.28461815 ], [ 136.87452491900001, 35.284488641 ], [ 136.874531157, 35.284383081 ], [ 136.874596438999987, 35.284152905 ], [ 136.874620153, 35.284076179 ], [ 136.874661583, 35.283961113 ], [ 136.874773522, 35.283788633 ], [ 136.874826676, 35.283668791 ], [ 136.874944508, 35.283486725 ], [ 136.87515260699999, 35.283212652 ], [ 136.875289978000012, 35.2830538 ], [ 136.875410601, 35.282914324 ], [ 136.87565235299999, 35.282666346 ], [ 136.875778661999988, 35.282541315 ], [ 136.875893294, 35.282395614 ], [ 136.875993423000011, 35.282247101 ], [ 136.87607588899999, 35.282122532 ], [ 136.87612902399999, 35.282007485 ], [ 136.87619411, 35.281830096 ], [ 136.87624731299999, 35.281695857 ], [ 136.876336121, 35.281441741 ], [ 136.876395371, 35.281254738 ], [ 136.87643114299999, 35.281082065 ], [ 136.87646240699999, 35.280881942 ], [ 136.87670525499999, 35.280915877 ], [ 136.87719639, 35.280975213 ], [ 136.877667946, 35.281028804 ], [ 136.877866078000011, 35.281055599 ], [ 136.878147805999987, 35.281093644 ], [ 136.87840994199999, 35.281123196 ], [ 136.878750918, 35.281162544 ], [ 136.879252646, 35.281211747 ], [ 136.87959672400001, 35.281250776 ], [ 136.880159034, 35.281310034 ], [ 136.880276884000011, 35.281321248 ], [ 136.880280164999988, 35.280673571 ], [ 136.880298218, 35.279448789 ], [ 136.880299885999989, 35.279121755 ], [ 136.880304246, 35.278801226 ], [ 136.88031244699999, 35.27853902 ], [ 136.880320853, 35.278224369 ], [ 136.880321958, 35.27792599 ], [ 136.880324757000011, 35.277655694 ], [ 136.88033262, 35.277423622 ], [ 136.880337958000013, 35.276925217 ], [ 136.88033928199999, 35.276545773 ], [ 136.880345745999989, 35.276305161 ], [ 136.88035564899999, 35.275936806 ], [ 136.88058659399999, 35.275935442 ], [ 136.880863446, 35.275936087 ], [ 136.880979481, 35.275936361 ], [ 136.881639906, 35.275942155 ], [ 136.882784501, 35.275938825 ], [ 136.88278386499999, 35.275503857 ], [ 136.882782913999989, 35.27517459 ], [ 136.882788991000012, 35.274878791 ], [ 136.882787916000012, 35.274720813 ], [ 136.88117251, 35.275020866 ], [ 136.880866469000011, 35.275075581 ], [ 136.880386539999989, 35.275161389 ], [ 136.879201281, 35.275140848 ], [ 136.877887284, 35.275100606 ], [ 136.877042913, 35.275072429 ], [ 136.87605291, 35.275039893 ], [ 136.876138508999986, 35.274753101 ], [ 136.876260981, 35.27447699 ], [ 136.876322216, 35.274338939 ], [ 136.87634276, 35.274256066 ], [ 136.876390792, 35.274035061 ], [ 136.876411305, 35.273957713 ], [ 136.876425355, 35.273802972 ], [ 136.876439476, 35.273631635 ], [ 136.876460404999989, 35.273462045 ], [ 136.87646529, 35.273294427 ], [ 136.87647239399999, 35.273194945 ], [ 136.87647542799999, 35.273046811 ], [ 136.876491632000011, 35.272772139 ], [ 136.876500558, 35.272679269 ], [ 136.876509798, 35.272563547 ], [ 136.876542984999986, 35.272232856 ], [ 136.87654372099999, 35.271983288 ], [ 136.876551342999988, 35.271790915 ], [ 136.876554626, 35.271603975 ], [ 136.87655480699999, 35.271553135 ], [ 136.876541167999989, 35.271361485 ], [ 136.87651137200001, 35.271009415 ], [ 136.876511792, 35.270922383 ], [ 136.876707312, 35.270913278 ], [ 136.876802935, 35.270908424 ], [ 136.876898461, 35.270896916 ], [ 136.877075222, 35.270862138 ], [ 136.877175560000012, 35.270838905 ], [ 136.87758433499999, 35.270726338 ], [ 136.87785865, 35.270647163 ], [ 136.87788278, 35.270640198 ], [ 136.877866025, 35.270607139 ], [ 136.877820464, 35.270517257 ], [ 136.877776282000013, 35.270410927 ], [ 136.877762254, 35.270358953 ], [ 136.877742933, 35.270293301 ], [ 136.877688240999987, 35.270181105 ], [ 136.87763709699999, 35.270075867 ], [ 136.87756296399999, 35.269959874 ], [ 136.877508244000012, 35.269855871 ], [ 136.877622153, 35.269805564 ], [ 136.877698688, 35.269774314 ], [ 136.87778936699999, 35.269762217 ], [ 136.877846202, 35.269759892 ], [ 136.877906403999987, 35.269737762 ], [ 136.877977098, 35.269717369 ], [ 136.87797059499999, 35.26969141 ], [ 136.877907109, 35.269539124 ], [ 136.877906935, 35.269538646 ], [ 136.877668914999987, 35.268882044 ], [ 136.87746703900001, 35.268370541 ], [ 136.87735674000001, 35.268067866 ], [ 136.876996574, 35.267098724 ], [ 136.876803407000011, 35.266600745 ], [ 136.876570292, 35.266013012 ], [ 136.876538138, 35.265918799 ], [ 136.876516382, 35.265858495 ], [ 136.87632125499999, 35.26536965 ], [ 136.87580930499999, 35.264087434 ], [ 136.875284072, 35.262771633 ], [ 136.875280901999986, 35.262763683 ], [ 136.875212035, 35.26258864 ], [ 136.875137473, 35.262616928 ], [ 136.87504806199999, 35.262632983 ], [ 136.874894184, 35.262638751 ], [ 136.874631060000013, 35.262650321 ], [ 136.874553055, 35.262259723 ], [ 136.87449459199999, 35.261954583 ], [ 136.87441907199999, 35.261567065 ], [ 136.87431635199999, 35.260995625 ], [ 136.87418476900001, 35.260318198 ], [ 136.874140094000012, 35.26031809 ], [ 136.873991682, 35.260177423 ], [ 136.873283660999988, 35.260370922 ], [ 136.873127194, 35.260401047 ], [ 136.872940932, 35.260437202 ], [ 136.872553339, 35.260552167 ], [ 136.872167342000012, 35.259636303 ], [ 136.871645562, 35.259799732 ], [ 136.871101403000011, 35.25997531 ], [ 136.870818119, 35.260093093 ], [ 136.87098771699999, 35.260544917 ], [ 136.87114642899999, 35.260950417 ], [ 136.871494374, 35.261529047 ], [ 136.871805337000012, 35.262011719 ], [ 136.871029889, 35.262308732 ], [ 136.870955560999988, 35.262271952 ], [ 136.870291881000014, 35.262544832 ], [ 136.870430019999986, 35.262759846 ], [ 136.870864329999989, 35.263435828 ], [ 136.87091093399999, 35.263425963 ], [ 136.871426293000013, 35.263227708 ], [ 136.871594517, 35.263142707 ], [ 136.871829926, 35.263021273 ], [ 136.871992385999988, 35.262940341 ], [ 136.872144899, 35.262859377 ], [ 136.872243989, 35.262835559 ], [ 136.872293637000013, 35.262831614 ], [ 136.87236014699999, 35.262833236 ], [ 136.872449143000011, 35.262764773 ], [ 136.872449738, 35.262764314 ], [ 136.87266375499999, 35.262610293 ], [ 136.872703507000011, 35.262598184 ], [ 136.872822348999989, 35.262765679 ], [ 136.872935657, 35.262925373 ], [ 136.87284612799999, 35.262973959 ], [ 136.87273287799999, 35.263029275 ], [ 136.87299056399999, 35.263398117 ], [ 136.873104221, 35.263540737 ], [ 136.873247418, 35.263748486 ], [ 136.873257236, 35.263781051 ], [ 136.873296509999989, 35.263910934 ], [ 136.873414419999989, 35.264267628 ], [ 136.873552737000011, 35.264683342 ], [ 136.873700103, 35.265116872 ], [ 136.87372785299999, 35.265285453 ], [ 136.87373732899999, 35.265410188 ], [ 136.873689144999986, 35.26574901 ], [ 136.87348357799999, 35.26579837 ], [ 136.873254436, 35.265853387 ], [ 136.872888912, 35.265910093 ], [ 136.872650633, 35.26594458 ], [ 136.87243196899999, 35.265931789 ], [ 136.872081879, 35.265908158 ], [ 136.871546911, 35.265866172 ], [ 136.871269016000014, 35.265841102 ], [ 136.871012122, 35.265823212 ], [ 136.871006271999988, 35.265905534 ], [ 136.871023791, 35.26609659 ], [ 136.871049578, 35.266356166 ], [ 136.871073496, 35.266585674 ], [ 136.87109181, 35.266754475 ], [ 136.871492327, 35.266778944 ], [ 136.872093621, 35.266827329 ], [ 136.872518371000012, 35.26685573 ], [ 136.872877553, 35.26688287 ], [ 136.87305286899999, 35.266896114 ], [ 136.873451530000011, 35.266923664 ], [ 136.873408258000012, 35.267167522 ], [ 136.87333931500001, 35.267513856 ], [ 136.873271891, 35.267822612 ], [ 136.873261516000014, 35.267904734 ], [ 136.873240726, 35.268070998 ], [ 136.87323147, 35.268174865 ], [ 136.87322401899999, 35.268281216 ], [ 136.873214596999986, 35.268431335 ], [ 136.873218621, 35.268558906 ], [ 136.873228961, 35.268651201 ], [ 136.87325635, 35.268895709 ], [ 136.87326052, 35.268973638 ], [ 136.873284442999989, 35.269273999 ], [ 136.873298755, 35.269459692 ], [ 136.873303676, 35.269527572 ], [ 136.87331419899999, 35.269672746 ], [ 136.873336843, 35.269983542 ], [ 136.872845457000011, 35.270061477 ], [ 136.87289965299999, 35.270305941 ], [ 136.872955585999989, 35.270575045 ], [ 136.872990421999987, 35.270750719 ], [ 136.873047031, 35.27104566 ], [ 136.873098555000013, 35.271299934 ], [ 136.8731503, 35.271560176 ], [ 136.87264271699999, 35.271634267 ], [ 136.872646051, 35.271648292 ], [ 136.872742643, 35.272054314 ], [ 136.87278419399999, 35.272288183 ], [ 136.872813871, 35.272419358 ], [ 136.872818846, 35.272517798 ], [ 136.872816230000012, 35.27264254 ], [ 136.872815987, 35.272670511 ], [ 136.872814115000011, 35.273185817 ], [ 136.872832036, 35.274822134 ], [ 136.872120069, 35.274688199 ], [ 136.87183586099999, 35.27464386 ], [ 136.871542764999987, 35.274589213 ], [ 136.870910756, 35.274474495 ], [ 136.870789961000014, 35.274459669 ], [ 136.870417992, 35.274391404 ], [ 136.870331706, 35.274375571 ], [ 136.869998634000012, 35.274317631 ], [ 136.870004166, 35.274886671 ], [ 136.86994245599999, 35.27488652 ], [ 136.869874888999988, 35.274882784 ], [ 136.869777199, 35.274877389 ], [ 136.86957764600001, 35.274877196 ], [ 136.86921369800001, 35.274881692 ], [ 136.868958544, 35.274885257 ], [ 136.868760486000014, 35.274890953 ], [ 136.868591111, 35.274892717 ], [ 136.868227152, 35.274894236 ], [ 136.868112663, 35.274895522 ], [ 136.867886911999989, 35.274899363 ], [ 136.867631757999987, 35.274902916 ], [ 136.86736230299999, 35.274906414 ], [ 136.867045921999988, 35.274909822 ], [ 136.866895824000011, 35.274909459 ], [ 136.865311037999987, 35.274921171 ], [ 136.865436574, 35.274130183 ], [ 136.865308674, 35.274114152 ], [ 136.865208868, 35.274104349 ], [ 136.86505352899999, 35.275272159 ], [ 136.864902892, 35.276267627 ], [ 136.864896311, 35.276311131 ], [ 136.864807116, 35.276930848 ], [ 136.864685318999989, 35.277804244 ], [ 136.864620142, 35.278231079 ], [ 136.866883354, 35.278251717 ], [ 136.86862356099999, 35.278262291 ], [ 136.869862549, 35.278265292 ], [ 136.86994873099999, 35.278265503 ], [ 136.869952785, 35.278058149 ], [ 136.869971875, 35.277206481 ], [ 136.869983972999989, 35.276327654 ], [ 136.86998471699999, 35.276280196 ], [ 136.869995509, 35.275596678 ], [ 136.869999803000013, 35.275395778 ], [ 136.871102747, 35.275402913 ], [ 136.871898104, 35.275397966 ], [ 136.873873186999987, 35.275387754 ], [ 136.873819293999986, 35.27595802 ], [ 136.873791818, 35.276289472 ], [ 136.873784016, 35.27638358 ], [ 136.873755933000012, 35.27668202 ], [ 136.873703914, 35.277048884 ], [ 136.873683117000013, 35.277198092 ], [ 136.87416718, 35.277251745 ], [ 136.875245486000011, 35.277313048 ], [ 136.875738187, 35.277334038 ], [ 136.875813497, 35.277337248 ], [ 136.875812741, 35.27737644 ], [ 136.875781235, 35.279006039 ], [ 136.875780870999989, 35.279024959 ], [ 136.87559151100001, 35.279183948 ], [ 136.875560263000011, 35.279437652 ], [ 136.87553755799999, 35.279632414 ], [ 136.875508825, 35.279905261 ], [ 136.875452493000012, 35.28043128 ], [ 136.875390646, 35.281008712 ], [ 136.87529002, 35.282010956 ], [ 136.875316226, 35.282054207 ], [ 136.8753063, 35.28230578 ], [ 136.874982566999989, 35.28230967 ], [ 136.874371703, 35.282322519 ], [ 136.873978833, 35.282335776 ], [ 136.873707273, 35.282349027 ], [ 136.873543095, 35.282362539 ], [ 136.873331162999989, 35.282379044 ], [ 136.873174471, 35.282389346 ], [ 136.872750661999987, 35.282388335 ], [ 136.872375674000011, 35.282387432 ], [ 136.871892887, 35.282386212 ], [ 136.871281844, 35.282402551 ], [ 136.87097585399999, 35.282349016 ], [ 136.870848478999989, 35.282344838 ], [ 136.87057335899999, 35.282339486 ], [ 136.870394522, 35.282339057 ], [ 136.870394843000014, 35.282250998 ], [ 136.870328817, 35.282148461 ], [ 136.870442497999989, 35.282039973 ], [ 136.870352918, 35.281969379 ], [ 136.870367436, 35.281747402 ], [ 136.870368332999988, 35.281501071 ], [ 136.870383863, 35.280997905 ], [ 136.870169014999988, 35.281003788 ], [ 136.869911183, 35.281015965 ], [ 136.869926219, 35.280091588 ], [ 136.869937085, 35.279424179 ], [ 136.869944843000013, 35.279244138 ], [ 136.869958919, 35.278956356 ], [ 136.86986002899999, 35.278955933 ], [ 136.866880794999986, 35.278943124 ], [ 136.864108079, 35.278917102 ], [ 136.86403436399999, 35.279409746 ], [ 136.86397834600001, 35.279734255 ], [ 136.863582232999988, 35.279762245 ], [ 136.863396394, 35.279772177 ], [ 136.86282301, 35.279802833 ], [ 136.862198909, 35.279835338 ], [ 136.862198142000011, 35.279910957 ], [ 136.862194155999987, 35.280303257 ], [ 136.862206851, 35.280685567 ], [ 136.862212597, 35.281038896 ], [ 136.862225943999988, 35.28142328 ], [ 136.86222722, 35.28188714 ], [ 136.862244632, 35.282557295 ], [ 136.86354998499999, 35.282536947 ], [ 136.863480337999988, 35.283024778 ], [ 136.863468168999987, 35.283110004 ], [ 136.863643532999987, 35.283025187 ], [ 136.863995182999986, 35.282855103 ], [ 136.864613966, 35.282543863 ], [ 136.865114619, 35.282301835 ], [ 136.86537914499999, 35.282163467 ], [ 136.865568325, 35.282069153 ], [ 136.865625881999989, 35.28204054 ], [ 136.865691771, 35.282020891 ], [ 136.865783103000012, 35.282014934 ], [ 136.866869658000013, 35.281947113 ], [ 136.867364165, 35.281944462 ], [ 136.867422819000012, 35.281945968 ], [ 136.86772811599999, 35.281959595 ], [ 136.867945609, 35.28196774 ], [ 136.86826443699999, 35.281984888 ], [ 136.868523684, 35.281992414 ], [ 136.868931994, 35.281998522 ], [ 136.86938229899999, 35.282007427 ], [ 136.869596199, 35.282020924 ], [ 136.869848783, 35.282037977 ], [ 136.869879282, 35.282040035 ], [ 136.86993439, 35.28204017 ], [ 136.870326307, 35.282043853 ], [ 136.870202688, 35.282176709 ], [ 136.870108582, 35.282277258 ], [ 136.870055603, 35.282344311 ], [ 136.869890711000011, 35.282574249 ], [ 136.869846545, 35.282651429 ], [ 136.869740662999988, 35.282836457 ], [ 136.869712956, 35.282897641 ], [ 136.869696796, 35.282939969 ], [ 136.86967078, 35.283007566 ], [ 136.869660097, 35.283040108 ], [ 136.869636807, 35.283111084 ], [ 136.86960121199999, 35.283230958 ], [ 136.869571494000013, 35.283346061 ], [ 136.869548108, 35.283476368 ], [ 136.86954176099999, 35.283528445 ], [ 136.869539438, 35.283547541 ], [ 136.86984319699999, 35.283568632 ], [ 136.870092410000012, 35.283585929 ], [ 136.870540037000012, 35.283617115 ], [ 136.870716410999989, 35.283630518 ], [ 136.87086836099999, 35.283637037 ], [ 136.871209654000012, 35.283630344 ], [ 136.87158443300001, 35.283599727 ], [ 136.871913451000012, 35.283576561 ], [ 136.872136101, 35.283567449 ], [ 136.87212968599999, 35.283720991 ], [ 136.872110526, 35.284157632 ], [ 136.872097666, 35.284469512 ], [ 136.87209142399999, 35.284575072 ], [ 136.872075317999986, 35.284963665 ], [ 136.872062226, 35.285342738 ], [ 136.872052204999989, 35.2856661 ], [ 136.871735652000012, 35.285708525 ], [ 136.871278397999987, 35.285769806 ], [ 136.87106735899999, 35.285798091 ], [ 136.870767572, 35.285834065 ], [ 136.870462698000011, 35.286186038 ], [ 136.870385634, 35.28628808 ], [ 136.87029192599999, 35.286395823 ], [ 136.870154735999989, 35.286527943 ], [ 136.870092494, 35.286532568 ], [ 136.87003377100001, 35.28654883 ], [ 136.86990042, 35.286583938 ], [ 136.86983538699999, 35.286600292 ], [ 136.869832128000013, 35.286601555 ], [ 136.869795665, 35.286615708 ], [ 136.869772761, 35.286628858 ], [ 136.869407641, 35.286683976 ], [ 136.86910443, 35.286708155 ], [ 136.86888599, 35.286717822 ], [ 136.868597204, 35.286726701 ], [ 136.868578566999986, 35.286730523 ], [ 136.86839161099999, 35.286866898 ], [ 136.86827617, 35.286898101 ], [ 136.868102669, 35.286941878 ], [ 136.867826529000013, 35.287018611 ], [ 136.867756891, 35.287049178 ], [ 136.867701196000013, 35.287079058 ], [ 136.867549849, 35.287149085 ], [ 136.867468671000012, 35.287187736 ], [ 136.867300863, 35.287273533 ], [ 136.867276616, 35.287295747 ], [ 136.867183602000011, 35.287455439 ], [ 136.86716135, 35.287485374 ], [ 136.86714624199999, 35.287504041 ], [ 136.86711374399999, 35.287527849 ], [ 136.86708381299999, 35.28754108 ], [ 136.866878901, 35.287551858 ], [ 136.86684887199999, 35.287556128 ], [ 136.866820698999987, 35.287557798 ], [ 136.86662776599999, 35.287575772 ], [ 136.86641033699999, 35.287599751 ], [ 136.865931687999989, 35.287651692 ], [ 136.865939311, 35.287760423 ], [ 136.865958056000011, 35.287879404 ], [ 136.865987209, 35.288002116 ], [ 136.866105849, 35.288102199 ], [ 136.866285229999988, 35.288298091 ], [ 136.86632395399999, 35.288303281 ], [ 136.866676393, 35.288350498 ], [ 136.867079944000011, 35.288394388 ], [ 136.86731271799999, 35.288413389 ], [ 136.867450983999987, 35.28842115 ], [ 136.867584896000011, 35.288425889 ], [ 136.867684298, 35.288427838 ], [ 136.86784329299999, 35.288428222 ], [ 136.868003474, 35.288426031 ], [ 136.86808623499999, 35.28842354 ], [ 136.868290164, 35.288417688 ], [ 136.868539967, 35.288400978 ], [ 136.868789549000013, 35.288381564 ], [ 136.869665884999989, 35.288312902 ], [ 136.869825932, 35.288299143 ], [ 136.870160266999989, 35.288270414 ], [ 136.870273051999988, 35.289040518 ], [ 136.870328392, 35.289424913 ], [ 136.870386077, 35.28980259 ], [ 136.870507139000011, 35.290595276 ], [ 136.87055224299999, 35.290898699 ], [ 136.87062773299999, 35.291402483 ], [ 136.870684793, 35.29177731 ], [ 136.87073073799999, 35.292085953 ], [ 136.870777569000012, 35.292413754 ], [ 136.870826228, 35.292719925 ], [ 136.870858306, 35.292947578 ], [ 136.870868417999986, 35.293008909 ], [ 136.870883673, 35.293089245 ], [ 136.87090830299999, 35.293273106 ], [ 136.87093937, 35.2934827 ], [ 136.87074229699999, 35.293507512 ], [ 136.870784109999988, 35.293734368 ], [ 136.870811937000013, 35.293939808 ], [ 136.870769313000011, 35.294099166 ], [ 136.870766694999986, 35.294150938 ], [ 136.870769607, 35.294205823 ], [ 136.870785565, 35.294304226 ], [ 136.870806133, 35.29436853 ], [ 136.870826692, 35.294505038 ], [ 136.870858795, 35.294638546 ], [ 136.870884353, 35.294736665 ], [ 136.870886708, 35.294820729 ], [ 136.870887995, 35.295258816 ], [ 136.870889815999988, 35.295335342 ], [ 136.87090702, 35.295475241 ], [ 136.870934688, 35.295613154 ], [ 136.870982763, 35.295835653 ], [ 136.871023538, 35.296018544 ], [ 136.87102694, 35.296068708 ], [ 136.871038414999987, 35.2963509 ], [ 136.87080194699999, 35.296271078 ], [ 136.870634841, 35.296214266 ], [ 136.870498467, 35.29652844 ], [ 136.87044137399999, 35.29656342 ], [ 136.870339015000013, 35.296597793 ], [ 136.870273429, 35.296618969 ], [ 136.870086947, 35.296677131 ], [ 136.869795022, 35.296765061 ], [ 136.869613272, 35.296809831 ], [ 136.869379536999986, 35.296866776 ], [ 136.869325798, 35.296880111 ], [ 136.869228743, 35.296904211 ], [ 136.869058392999989, 35.296943608 ], [ 136.868990524999987, 35.296941999 ], [ 136.868916719999987, 35.296931379 ], [ 136.868797445000013, 35.296919051 ], [ 136.86872435399999, 35.296911506 ], [ 136.868621423, 35.296900877 ], [ 136.868599166, 35.296898578 ], [ 136.86853474899999, 35.296909579 ], [ 136.868508408999986, 35.296914084 ], [ 136.86846022899999, 35.296925999 ], [ 136.868321221, 35.296960406 ], [ 136.86820948499999, 35.296988066 ], [ 136.86790282199999, 35.297061451 ], [ 136.867798964, 35.297087597 ], [ 136.867673414, 35.297119206 ], [ 136.867469813000014, 35.297170472 ], [ 136.86740262699999, 35.29718654 ], [ 136.867123574, 35.297253303 ], [ 136.866812689999989, 35.297343901 ], [ 136.86670540599999, 35.297371318 ], [ 136.86668450499999, 35.297383057 ], [ 136.86666650699999, 35.297415481 ], [ 136.86664516499999, 35.297493023 ], [ 136.866618402, 35.29760934 ], [ 136.866587055999986, 35.297725005 ], [ 136.866811297999988, 35.297721027 ], [ 136.867223775000014, 35.297709889 ], [ 136.867255771, 35.297709968 ], [ 136.867419482, 35.297670728 ], [ 136.867729551, 35.297595766 ], [ 136.86782047299999, 35.297768884 ], [ 136.86785579299999, 35.297833892 ], [ 136.868049439, 35.297795979 ], [ 136.86816592400001, 35.297783962 ], [ 136.868302736, 35.297760998 ], [ 136.868484185999989, 35.297732744 ], [ 136.868549707999989, 35.29772335 ], [ 136.868691939, 35.297721654 ], [ 136.868775488000011, 35.297725953 ], [ 136.868832696999988, 35.297735036 ], [ 136.868922513, 35.297724323 ], [ 136.86902204, 35.297734132 ], [ 136.869183013, 35.29771265 ], [ 136.869278183, 35.297699219 ], [ 136.869297718000013, 35.297703368 ], [ 136.86932508699999, 35.297754005 ], [ 136.869333939, 35.297765646 ], [ 136.869365038000012, 35.297767769 ], [ 136.869525732, 35.297756509 ], [ 136.869791493, 35.297731453 ], [ 136.869977983000013, 35.297713864 ], [ 136.870194591, 35.297689849 ], [ 136.870342227, 35.297668342 ], [ 136.870464959, 35.297649506 ], [ 136.870553464000011, 35.297639545 ], [ 136.87061393, 35.297632851 ], [ 136.870728602000014, 35.297632447 ], [ 136.870907321, 35.297619904 ], [ 136.871950314, 35.297535751 ], [ 136.872127828, 35.297521841 ], [ 136.87225737, 35.297587077 ], [ 136.872412449, 35.297477418 ], [ 136.87245497699999, 35.297447495 ], [ 136.872488851000014, 35.297420922 ], [ 136.872522522, 35.29745039 ], [ 136.872588076, 35.297514109 ], [ 136.872713213, 35.297620845 ], [ 136.87285802, 35.297748856 ], [ 136.87270240399999, 35.297988834 ], [ 136.872768928, 35.298027947 ], [ 136.87282038399999, 35.298058819 ], [ 136.872912649, 35.298106882 ], [ 136.872992406, 35.298150623 ], [ 136.873031449, 35.29816917 ], [ 136.873197946, 35.298241049 ], [ 136.873276037000011, 35.298280189 ], [ 136.873405878999989, 35.298357278 ], [ 136.873489568, 35.298417299 ], [ 136.87360214200001, 35.298505037 ], [ 136.873834761000012, 35.298343425 ], [ 136.873581542000011, 35.298110298 ], [ 136.873413465, 35.297952115 ], [ 136.873289059, 35.297828408 ], [ 136.873381348, 35.29751316 ] ], [ [ 136.875570727, 35.289801341 ], [ 136.875673855, 35.289794757 ], [ 136.876069107, 35.289795761 ], [ 136.876150837000012, 35.289808253 ], [ 136.87690774699999, 35.28981207 ], [ 136.877454648999986, 35.289811242 ], [ 136.877698176, 35.289813185 ], [ 136.87783496599999, 35.289813521 ], [ 136.877871091, 35.289814022 ], [ 136.87787099, 35.289820692 ], [ 136.877870083, 35.289877967 ], [ 136.87786013499999, 35.290177802 ], [ 136.877846291, 35.290466397 ], [ 136.877831235, 35.290866766 ], [ 136.877811896999987, 35.291132749 ], [ 136.877829464, 35.291365575 ], [ 136.877829279, 35.291417442 ], [ 136.87783903499999, 35.291611399 ], [ 136.877828083999987, 35.291753969 ], [ 136.877818885000011, 35.291873729 ], [ 136.87779407, 35.292016095 ], [ 136.877773972999989, 35.292170488 ], [ 136.877764073, 35.292199761 ], [ 136.87775774, 35.292305059 ], [ 136.87734828, 35.292289081 ], [ 136.877230228, 35.292240374 ], [ 136.876765569000014, 35.292322237 ], [ 136.87624612499999, 35.292409151 ], [ 136.875849808, 35.2924658 ], [ 136.875334587999987, 35.292548915 ], [ 136.874996226, 35.292601365 ], [ 136.87452428200001, 35.2926899 ], [ 136.874505304, 35.292613639 ], [ 136.874475252, 35.29240357 ], [ 136.874469201000011, 35.292303857 ], [ 136.874457505, 35.291994216 ], [ 136.874470822, 35.291852571 ], [ 136.874481374999988, 35.291556487 ], [ 136.87450817199999, 35.291231209 ], [ 136.874561734999986, 35.290589 ], [ 136.874568718, 35.290426346 ], [ 136.874602321, 35.289978157 ], [ 136.874605371, 35.289915758 ], [ 136.874898479, 35.289885096 ], [ 136.875308985, 35.289841681 ], [ 136.87538441699999, 35.289826178 ], [ 136.87546877299999, 35.289814933 ], [ 136.875570727, 35.289801341 ] ], [ [ 136.868987229999988, 35.278055777 ], [ 136.867930761, 35.278057391 ], [ 136.866884115, 35.278048213 ], [ 136.864851784, 35.278040455 ], [ 136.86485639, 35.277996044 ], [ 136.864912186999987, 35.277596355 ], [ 136.86498136099999, 35.277137611 ], [ 136.86503347499999, 35.276761611 ], [ 136.865105327, 35.276268132 ], [ 136.865160866999986, 35.275886659 ], [ 136.866892175, 35.27588787 ], [ 136.867069726000011, 35.275887273 ], [ 136.86755672699999, 35.275882988 ], [ 136.868067577, 35.275882745 ], [ 136.869341042, 35.275880671 ], [ 136.86934196199999, 35.276278618 ], [ 136.869341993, 35.276294258 ], [ 136.869340318000013, 35.276755506 ], [ 136.869338019999986, 35.277188753 ], [ 136.869326589, 35.277585354 ], [ 136.869323038, 35.277970561 ], [ 136.86932138200001, 35.278056589 ], [ 136.868987229999988, 35.278055777 ] ] ] } },
{ "type": "Feature", "properties": { "A29_001": "23228", "A29_002": "愛知県", "A29_003": "岩倉市", "A29_004": 3, "A29_005": "第一種中高層住居専用地域", "A29_006": 60, "A29_007": 200, "A29_008": null }, "geometry": { "type": "Polygon", "coordinates": [ [ [ 136.869795022, 35.296765061 ], [ 136.870086947, 35.296677131 ], [ 136.870273429, 35.296618969 ], [ 136.870339015000013, 35.296597793 ], [ 136.87044137399999, 35.29656342 ], [ 136.870498467, 35.29652844 ], [ 136.870634841, 35.296214266 ], [ 136.870656607, 35.296164119 ], [ 136.870174555, 35.295987269 ], [ 136.869798376, 35.295846661 ], [ 136.869743354, 35.2958261 ], [ 136.86930400899999, 35.295664909 ], [ 136.869027417000012, 35.295550821 ], [ 136.868710185, 35.29541662 ], [ 136.868615691, 35.295366322 ], [ 136.868502033999988, 35.295252624 ], [ 136.868274326, 35.295145325 ], [ 136.86806289, 35.295038065 ], [ 136.867875844999986, 35.294950877 ], [ 136.867751297000012, 35.29488445 ], [ 136.867458707, 35.294696933 ], [ 136.867222954999988, 35.29455625 ], [ 136.867027936999989, 35.294422338 ], [ 136.866823977, 35.294289458 ], [ 136.866431682000012, 35.294032814 ], [ 136.866186188, 35.294054145 ], [ 136.865759642, 35.294104817 ], [ 136.865364715999988, 35.294146949 ], [ 136.865115296, 35.294168169 ], [ 136.865147272, 35.294745252 ], [ 136.865149108, 35.295083264 ], [ 136.865165082, 35.29536243 ], [ 136.865197391, 35.295882786 ], [ 136.86522331399999, 35.296239473 ], [ 136.865102904, 35.296243193 ], [ 136.865111137000014, 35.296398033 ], [ 136.865120764000011, 35.296550272 ], [ 136.865121241999987, 35.296557881 ], [ 136.865280479, 35.29655067 ], [ 136.865635727000011, 35.296534581 ], [ 136.865643877, 35.296551575 ], [ 136.865668242, 35.296602332 ], [ 136.86572196899999, 35.296710934 ], [ 136.86577931, 35.296823592 ], [ 136.86584457399999, 35.296952235 ], [ 136.865937994, 35.297144155 ], [ 136.865954820000013, 35.297161279 ], [ 136.86607685199999, 35.29730216 ], [ 136.866218304, 35.297463605 ], [ 136.866247533, 35.297492379 ], [ 136.866534413000011, 35.297727263 ], [ 136.866587055999986, 35.297725005 ], [ 136.866618402, 35.29760934 ], [ 136.86664516499999, 35.297493023 ], [ 136.86666650699999, 35.297415481 ], [ 136.86668450499999, 35.297383057 ], [ 136.86670540599999, 35.297371318 ], [ 136.866812689999989, 35.297343901 ], [ 136.867123574, 35.297253303 ], [ 136.86740262699999, 35.29718654 ], [ 136.867469813000014, 35.297170472 ], [ 136.867673414, 35.297119206 ], [ 136.867798964, 35.297087597 ], [ 136.86790282199999, 35.297061451 ], [ 136.86820948499999, 35.296988066 ], [ 136.868321221, 35.296960406 ], [ 136.86846022899999, 35.296925999 ], [ 136.868508408999986, 35.296914084 ], [ 136.86853474899999, 35.296909579 ], [ 136.868599166, 35.296898578 ], [ 136.868621423, 35.296900877 ], [ 136.86872435399999, 35.296911506 ], [ 136.868797445000013, 35.296919051 ], [ 136.868916719999987, 35.296931379 ], [ 136.868990524999987, 35.296941999 ], [ 136.869058392999989, 35.296943608 ], [ 136.869228743, 35.296904211 ], [ 136.869325798, 35.296880111 ], [ 136.869379536999986, 35.296866776 ], [ 136.869613272, 35.296809831 ], [ 136.869795022, 35.296765061 ] ] ] } },
{ "type": "Feature", "properties": { "A29_001": "23228", "A29_002": "愛知県", "A29_003": "岩倉市", "A29_004": 4, "A29_005": "第二種中高層住居専用地域", "A29_006": 60, "A29_007": 200, "A29_008": null }, "geometry": { "type": "Polygon", "coordinates": [ [ [ 136.87452428200001, 35.2926899 ], [ 136.874996226, 35.292601365 ], [ 136.875334587999987, 35.292548915 ], [ 136.875849808, 35.2924658 ], [ 136.87624612499999, 35.292409151 ], [ 136.876765569000014, 35.292322237 ], [ 136.877230228, 35.292240374 ], [ 136.87734828, 35.292289081 ], [ 136.87775774, 35.292305059 ], [ 136.877764073, 35.292199761 ], [ 136.877773972999989, 35.292170488 ], [ 136.87779407, 35.292016095 ], [ 136.877818885000011, 35.291873729 ], [ 136.877828083999987, 35.291753969 ], [ 136.87783903499999, 35.291611399 ], [ 136.877829279, 35.291417442 ], [ 136.877829464, 35.291365575 ], [ 136.877811896999987, 35.291132749 ], [ 136.877831235, 35.290866766 ], [ 136.877846291, 35.290466397 ], [ 136.87786013499999, 35.290177802 ], [ 136.877870083, 35.289877967 ], [ 136.87787099, 35.289820692 ], [ 136.877871091, 35.289814022 ], [ 136.87783496599999, 35.289813521 ], [ 136.877698176, 35.289813185 ], [ 136.877454648999986, 35.289811242 ], [ 136.87690774699999, 35.28981207 ], [ 136.876150837000012, 35.289808253 ], [ 136.876069107, 35.289795761 ], [ 136.875673855, 35.289794757 ], [ 136.875570727, 35.289801341 ], [ 136.87546877299999, 35.289814933 ], [ 136.87538441699999, 35.289826178 ], [ 136.875308985, 35.289841681 ], [ 136.874898479, 35.289885096 ], [ 136.874605371, 35.289915758 ], [ 136.874602321, 35.289978157 ], [ 136.874568718, 35.290426346 ], [ 136.874561734999986, 35.290589 ], [ 136.87450817199999, 35.291231209 ], [ 136.874481374999988, 35.291556487 ], [ 136.874470822, 35.291852571 ], [ 136.874457505, 35.291994216 ], [ 136.874469201000011, 35.292303857 ], [ 136.874475252, 35.29240357 ], [ 136.874505304, 35.292613639 ], [ 136.87452428200001, 35.2926899 ] ] ] } },
{ "type": "Feature", "properties": { "A29_001": "23228", "A29_002": "愛知県", "A29_003": "岩倉市", "A29_004": 4, "A29_005": "第二種中高層住居専用地域", "A29_006": 60, "A29_007": 200, "A29_008": null }, "geometry": { "type": "Polygon", "coordinates": [ [ [ 136.874723753000012, 35.28619627 ], [ 136.874714195, 35.286656868 ], [ 136.874717483000012, 35.287716232 ], [ 136.874882121000013, 35.287703171 ], [ 136.87518613200001, 35.287680152 ], [ 136.875380826, 35.287664251 ], [ 136.875976143, 35.28762026 ], [ 136.876137263, 35.287606936 ], [ 136.876512797, 35.287575882 ], [ 136.876816612, 35.287552056 ], [ 136.877003769999988, 35.287540695 ], [ 136.877110216, 35.287533712 ], [ 136.87756976899999, 35.287510535 ], [ 136.877941733, 35.287509125 ], [ 136.878981130999989, 35.287500992 ], [ 136.879036017, 35.287499995 ], [ 136.879036899, 35.286986355 ], [ 136.879039909999989, 35.286719486 ], [ 136.879040164, 35.286697375 ], [ 136.87869415899999, 35.286696128 ], [ 136.878180345, 35.286697473 ], [ 136.87787302800001, 35.286692998 ], [ 136.877879220000011, 35.286401257 ], [ 136.877882086999989, 35.286203752 ], [ 136.87787939099999, 35.28591355 ], [ 136.877882731999989, 35.28541524 ], [ 136.87789605899999, 35.284885007 ], [ 136.877891737, 35.284390185 ], [ 136.87789045299999, 35.283798178 ], [ 136.877901318, 35.283060061 ], [ 136.877902022, 35.282991897 ], [ 136.877910549, 35.282937345 ], [ 136.877916949, 35.282896363 ], [ 136.877975205000013, 35.282902109 ], [ 136.87819676399999, 35.282923957 ], [ 136.87900883, 35.282905617 ], [ 136.87911957099999, 35.282907503 ], [ 136.880168105, 35.28291046 ], [ 136.88026918, 35.282912989 ], [ 136.880271779, 35.282611936 ], [ 136.8802733, 35.282180066 ], [ 136.880275057, 35.281680994 ], [ 136.880276884000011, 35.281321248 ], [ 136.880159034, 35.281310034 ], [ 136.87959672400001, 35.281250776 ], [ 136.879252646, 35.281211747 ], [ 136.878750918, 35.281162544 ], [ 136.87840994199999, 35.281123196 ], [ 136.878147805999987, 35.281093644 ], [ 136.877866078000011, 35.281055599 ], [ 136.877667946, 35.281028804 ], [ 136.87719639, 35.280975213 ], [ 136.87670525499999, 35.280915877 ], [ 136.87646240699999, 35.280881942 ], [ 136.87643114299999, 35.281082065 ], [ 136.876395371, 35.281254738 ], [ 136.876336121, 35.281441741 ], [ 136.87624731299999, 35.281695857 ], [ 136.87619411, 35.281830096 ], [ 136.87612902399999, 35.282007485 ], [ 136.87607588899999, 35.282122532 ], [ 136.875993423000011, 35.282247101 ], [ 136.875893294, 35.282395614 ], [ 136.875778661999988, 35.282541315 ], [ 136.87565235299999, 35.282666346 ], [ 136.875410601, 35.282914324 ], [ 136.875289978000012, 35.2830538 ], [ 136.87515260699999, 35.283212652 ], [ 136.874944508, 35.283486725 ], [ 136.874826676, 35.283668791 ], [ 136.874773522, 35.283788633 ], [ 136.874661583, 35.283961113 ], [ 136.874620153, 35.284076179 ], [ 136.874596438999987, 35.284152905 ], [ 136.874531157, 35.284383081 ], [ 136.87452491900001, 35.284488641 ], [ 136.874506875, 35.28461815 ], [ 136.874500447, 35.28475197 ], [ 136.874517438999987, 35.28491516 ], [ 136.87455201, 35.285078393 ], [ 136.874603914, 35.285304055 ], [ 136.87463834499999, 35.285497458 ], [ 136.874661507000013, 35.285574289 ], [ 136.874678679, 35.285684701 ], [ 136.874706978, 35.285963085 ], [ 136.874723753000012, 35.28619627 ] ] ] } },
{ "type": "Feature", "properties": { "A29_001": "23228", "A29_002": "愛知県", "A29_003": "岩倉市", "A29_004": 4, "A29_005": "第二種中高層住居専用地域", "A29_006": 60, "A29_007": 200, "A29_008": null }, "geometry": { "type": "Polygon", "coordinates": [ [ [ 136.869833812, 35.286140326 ], [ 136.869839565, 35.286184519 ], [ 136.86990042, 35.286583938 ], [ 136.87003377100001, 35.28654883 ], [ 136.870092494, 35.286532568 ], [ 136.870154735999989, 35.286527943 ], [ 136.87029192599999, 35.286395823 ], [ 136.870385634, 35.28628808 ], [ 136.870462698000011, 35.286186038 ], [ 136.870767572, 35.285834065 ], [ 136.87106735899999, 35.285798091 ], [ 136.871278397999987, 35.285769806 ], [ 136.871735652000012, 35.285708525 ], [ 136.872052204999989, 35.2856661 ], [ 136.872062226, 35.285342738 ], [ 136.872075317999986, 35.284963665 ], [ 136.87209142399999, 35.284575072 ], [ 136.872097666, 35.284469512 ], [ 136.872110526, 35.284157632 ], [ 136.87212968599999, 35.283720991 ], [ 136.872136101, 35.283567449 ], [ 136.871913451000012, 35.283576561 ], [ 136.87158443300001, 35.283599727 ], [ 136.871209654000012, 35.283630344 ], [ 136.87086836099999, 35.283637037 ], [ 136.870716410999989, 35.283630518 ], [ 136.870540037000012, 35.283617115 ], [ 136.870092410000012, 35.283585929 ], [ 136.86984319699999, 35.283568632 ], [ 136.869539438, 35.283547541 ], [ 136.869523945999987, 35.283674658 ], [ 136.869515755, 35.283780204 ], [ 136.86951912, 35.28392738 ], [ 136.869532685, 35.284114216 ], [ 136.869556853, 35.284296616 ], [ 136.86960102, 35.284592834 ], [ 136.86965318099999, 35.284915826 ], [ 136.86968942199999, 35.285167179 ], [ 136.869723368, 35.285402706 ], [ 136.869766559999988, 35.285698381 ], [ 136.869790963000014, 35.285858814 ], [ 136.869823738, 35.286062941 ], [ 136.869833812, 35.286140326 ] ] ] } },
{ "type": "Feature", "properties": { "A29_001": "23228", "A29_002": "愛知県", "A29_003": "岩倉市", "A29_004": 3, "A29_005": "第一種中高層住居専用地域", "A29_006": 60, "A29_007": 200, "A29_008": null }, "geometry": { "type": "Polygon", "coordinates": [ [ [ 136.869833812, 35.286140326 ], [ 136.869823738, 35.286062941 ], [ 136.869790963000014, 35.285858814 ], [ 136.869766559999988, 35.285698381 ], [ 136.869723368, 35.285402706 ], [ 136.86968942199999, 35.285167179 ], [ 136.86965318099999, 35.284915826 ], [ 136.86960102, 35.284592834 ], [ 136.869556853, 35.284296616 ], [ 136.869532685, 35.284114216 ], [ 136.86951912, 35.28392738 ], [ 136.869515755, 35.283780204 ], [ 136.869523945999987, 35.283674658 ], [ 136.869539438, 35.283547541 ], [ 136.86954176099999, 35.283528445 ], [ 136.869548108, 35.283476368 ], [ 136.869571494000013, 35.283346061 ], [ 136.86960121199999, 35.283230958 ], [ 136.869636807, 35.283111084 ], [ 136.869660097, 35.283040108 ], [ 136.86967078, 35.283007566 ], [ 136.869696796, 35.282939969 ], [ 136.869712956, 35.282897641 ], [ 136.869740662999988, 35.282836457 ], [ 136.869846545, 35.282651429 ], [ 136.869890711000011, 35.282574249 ], [ 136.870055603, 35.282344311 ], [ 136.870108582, 35.282277258 ], [ 136.870202688, 35.282176709 ], [ 136.870326307, 35.282043853 ], [ 136.86993439, 35.28204017 ], [ 136.869879282, 35.282040035 ], [ 136.869848783, 35.282037977 ], [ 136.869596199, 35.282020924 ], [ 136.86938229899999, 35.282007427 ], [ 136.868931994, 35.281998522 ], [ 136.868523684, 35.281992414 ], [ 136.86826443699999, 35.281984888 ], [ 136.867945609, 35.28196774 ], [ 136.86772811599999, 35.281959595 ], [ 136.867422819000012, 35.281945968 ], [ 136.867364165, 35.281944462 ], [ 136.866869658000013, 35.281947113 ], [ 136.865783103000012, 35.282014934 ], [ 136.865691771, 35.282020891 ], [ 136.865625881999989, 35.28204054 ], [ 136.865568325, 35.282069153 ], [ 136.86562014899999, 35.282517273 ], [ 136.865657594, 35.282840573 ], [ 136.865670919, 35.283030248 ], [ 136.86567985799999, 35.283157543 ], [ 136.865724363, 35.283614155 ], [ 136.86573640200001, 35.283720796 ], [ 136.865761693, 35.284108392 ], [ 136.86583761899999, 35.284856179 ], [ 136.865896791000011, 35.285494059 ], [ 136.86594779, 35.286175006 ], [ 136.86596717099999, 35.28646069 ], [ 136.865977157, 35.286679968 ], [ 136.86598097800001, 35.286823855 ], [ 136.865997665, 35.286877883 ], [ 136.866001922, 35.286927778 ], [ 136.86600002899999, 35.287190007 ], [ 136.865997357, 35.287205009 ], [ 136.86593512499999, 35.287459364 ], [ 136.865912509999987, 35.287557572 ], [ 136.865911504, 35.287589011 ], [ 136.865931687999989, 35.287651692 ], [ 136.86641033699999, 35.287599751 ], [ 136.86662776599999, 35.287575772 ], [ 136.866820698999987, 35.287557798 ], [ 136.86684887199999, 35.287556128 ], [ 136.866878901, 35.287551858 ], [ 136.86708381299999, 35.28754108 ], [ 136.86711374399999, 35.287527849 ], [ 136.86714624199999, 35.287504041 ], [ 136.86716135, 35.287485374 ], [ 136.867183602000011, 35.287455439 ], [ 136.867276616, 35.287295747 ], [ 136.867300863, 35.287273533 ], [ 136.867468671000012, 35.287187736 ], [ 136.867549849, 35.287149085 ], [ 136.867701196000013, 35.287079058 ], [ 136.867756891, 35.287049178 ], [ 136.867826529000013, 35.287018611 ], [ 136.868102669, 35.286941878 ], [ 136.86827617, 35.286898101 ], [ 136.86839161099999, 35.286866898 ], [ 136.868578566999986, 35.286730523 ], [ 136.868597204, 35.286726701 ], [ 136.86888599, 35.286717822 ], [ 136.86910443, 35.286708155 ], [ 136.869407641, 35.286683976 ], [ 136.869772761, 35.286628858 ], [ 136.869795665, 35.286615708 ], [ 136.869832128000013, 35.286601555 ], [ 136.86983538699999, 35.286600292 ], [ 136.86990042, 35.286583938 ], [ 136.869839565, 35.286184519 ], [ 136.869833812, 35.286140326 ] ] ] } },
{ "type": "Feature", "properties": { "A29_001": "23228", "A29_002": "愛知県", "A29_003": "岩倉市", "A29_004": 8, "A29_005": "近隣商業地域", "A29_006": 80, "A29_007": 200, "A29_008": null }, "geometry": { "type": "Polygon", "coordinates": [ [ [ 136.8753063, 35.28230578 ], [ 136.875316226, 35.282054207 ], [ 136.87529002, 35.282010956 ], [ 136.875390646, 35.281008712 ], [ 136.875452493000012, 35.28043128 ], [ 136.8753031, 35.28043092 ], [ 136.875189874, 35.280421056 ], [ 136.874998556, 35.280401404 ], [ 136.87490094099999, 35.280391577 ], [ 136.874678531, 35.280330266 ], [ 136.874600507, 35.280304486 ], [ 136.87451463299999, 35.280288288 ], [ 136.874436575, 35.280272108 ], [ 136.874200019, 35.280234722 ], [ 136.874133656999987, 35.280224961 ], [ 136.874020398, 35.280221496 ], [ 136.873782137, 35.280224129 ], [ 136.873618091, 35.280223731 ], [ 136.873415716000011, 35.28023121 ], [ 136.873228243, 35.280230764 ], [ 136.872923563, 35.280236434 ], [ 136.87269307299999, 35.280248683 ], [ 136.872618837, 35.280254894 ], [ 136.872548572, 35.280245132 ], [ 136.872470469, 35.280241751 ], [ 136.872431457, 35.280228856 ], [ 136.872366639, 35.280223866 ], [ 136.87229642, 35.280201304 ], [ 136.872253496000013, 35.280185172 ], [ 136.872101203, 35.280175201 ], [ 136.871827857, 35.280158544 ], [ 136.87142913400001, 35.280133558 ], [ 136.871186994999988, 35.280126566 ], [ 136.871030776, 35.280122994 ], [ 136.870553105, 35.280112198 ], [ 136.870275822999986, 35.280101937 ], [ 136.870123506, 35.280098364 ], [ 136.869926219, 35.280091588 ], [ 136.869911183, 35.281015965 ], [ 136.870169014999988, 35.281003788 ], [ 136.870383863, 35.280997905 ], [ 136.870368332999988, 35.281501071 ], [ 136.870367436, 35.281747402 ], [ 136.870352918, 35.281969379 ], [ 136.870442497999989, 35.282039973 ], [ 136.870328817, 35.282148461 ], [ 136.870394843000014, 35.282250998 ], [ 136.870394522, 35.282339057 ], [ 136.87057335899999, 35.282339486 ], [ 136.870848478999989, 35.282344838 ], [ 136.87097585399999, 35.282349016 ], [ 136.871281844, 35.282402551 ], [ 136.871892887, 35.282386212 ], [ 136.872375674000011, 35.282387432 ], [ 136.872750661999987, 35.282388335 ], [ 136.873174471, 35.282389346 ], [ 136.873331162999989, 35.282379044 ], [ 136.873543095, 35.282362539 ], [ 136.873707273, 35.282349027 ], [ 136.873978833, 35.282335776 ], [ 136.874371703, 35.282322519 ], [ 136.874982566999989, 35.28230967 ], [ 136.8753063, 35.28230578 ] ] ] } },
{ "type": "Feature", "properties": { "A29_001": "23228", "A29_002": "愛知県", "A29_003": "岩倉市", "A29_004": 9, "A29_005": "商業地域", "A29_006": 80, "A29_007": 400, "A29_008": null }, "geometry": { "type": "Polygon", "coordinates": [ [ [ 136.873791818, 35.276289472 ], [ 136.873819293999986, 35.27595802 ], [ 136.873873186999987, 35.275387754 ], [ 136.871898104, 35.275397966 ], [ 136.871102747, 35.275402913 ], [ 136.869999803000013, 35.275395778 ], [ 136.869995509, 35.275596678 ], [ 136.86998471699999, 35.276280196 ], [ 136.869983972999989, 35.276327654 ], [ 136.869971875, 35.277206481 ], [ 136.869952785, 35.278058149 ], [ 136.86994873099999, 35.278265503 ], [ 136.869950667000012, 35.278651031 ], [ 136.869958919, 35.278956356 ], [ 136.869944843000013, 35.279244138 ], [ 136.869937085, 35.279424179 ], [ 136.869926219, 35.280091588 ], [ 136.870123506, 35.280098364 ], [ 136.870275822999986, 35.280101937 ], [ 136.870553105, 35.280112198 ], [ 136.871030776, 35.280122994 ], [ 136.871186994999988, 35.280126566 ], [ 136.87142913400001, 35.280133558 ], [ 136.871827857, 35.280158544 ], [ 136.872101203, 35.280175201 ], [ 136.872253496000013, 35.280185172 ], [ 136.87229642, 35.280201304 ], [ 136.872366639, 35.280223866 ], [ 136.872431457, 35.280228856 ], [ 136.872470469, 35.280241751 ], [ 136.872548572, 35.280245132 ], [ 136.872618837, 35.280254894 ], [ 136.87269307299999, 35.280248683 ], [ 136.872923563, 35.280236434 ], [ 136.873228243, 35.280230764 ], [ 136.873415716000011, 35.28023121 ], [ 136.873618091, 35.280223731 ], [ 136.873782137, 35.280224129 ], [ 136.874020398, 35.280221496 ], [ 136.874133656999987, 35.280224961 ], [ 136.874200019, 35.280234722 ], [ 136.874436575, 35.280272108 ], [ 136.87451463299999, 35.280288288 ], [ 136.874600507, 35.280304486 ], [ 136.874678531, 35.280330266 ], [ 136.87490094099999, 35.280391577 ], [ 136.874998556, 35.280401404 ], [ 136.875189874, 35.280421056 ], [ 136.8753031, 35.28043092 ], [ 136.875452493000012, 35.28043128 ], [ 136.875508825, 35.279905261 ], [ 136.87553755799999, 35.279632414 ], [ 136.875560263000011, 35.279437652 ], [ 136.87559151100001, 35.279183948 ], [ 136.875780870999989, 35.279024959 ], [ 136.875781235, 35.279006039 ], [ 136.875812741, 35.27737644 ], [ 136.875813497, 35.277337248 ], [ 136.875738187, 35.277334038 ], [ 136.875245486000011, 35.277313048 ], [ 136.87416718, 35.277251745 ], [ 136.873683117000013, 35.277198092 ], [ 136.873703914, 35.277048884 ], [ 136.873755933000012, 35.27668202 ], [ 136.873784016, 35.27638358 ], [ 136.873791818, 35.276289472 ] ] ] } },
{ "type": "Feature", "properties": { "A29_001": "23228", "A29_002": "愛知県", "A29_003": "岩倉市", "A29_004": 8, "A29_005": "近隣商業地域", "A29_006": 80, "A29_007": 200, "A29_008": null }, "geometry": { "type": "Polygon", "coordinates": [ [ [ 136.866883354, 35.278251717 ], [ 136.864620142, 35.278231079 ], [ 136.864685318999989, 35.277804244 ], [ 136.864807116, 35.276930848 ], [ 136.864896311, 35.276311131 ], [ 136.864902892, 35.276267627 ], [ 136.86505352899999, 35.275272159 ], [ 136.865208868, 35.274104349 ], [ 136.865308674, 35.274114152 ], [ 136.865381589, 35.273629149 ], [ 136.865416122999989, 35.273419067 ], [ 136.865487351000013, 35.27289363 ], [ 136.865523911999986, 35.272652724 ], [ 136.865543824000014, 35.272579857 ], [ 136.86559462, 35.272243642 ], [ 136.86564906699999, 35.272242507 ], [ 136.86563619, 35.271239644 ], [ 136.86566055899999, 35.270963228 ], [ 136.865667545, 35.270813112 ], [ 136.865250307999986, 35.270799011 ], [ 136.865019826, 35.27224816 ], [ 136.864781614, 35.27206015 ], [ 136.864166645000012, 35.272059038 ], [ 136.86413615399999, 35.272058979 ], [ 136.86413572, 35.272104789 ], [ 136.864130483999986, 35.27266157 ], [ 136.864125726, 35.273030639 ], [ 136.864133396999989, 35.273116772 ], [ 136.864127685999989, 35.273461518 ], [ 136.864122982, 35.273765811 ], [ 136.864119957000014, 35.273884629 ], [ 136.864120689, 35.273924267 ], [ 136.864038009000012, 35.273932272 ], [ 136.86403724499999, 35.274066673 ], [ 136.864293866, 35.274067306 ], [ 136.864274857999987, 35.274203978 ], [ 136.864132027000011, 35.27513788 ], [ 136.863979667, 35.276265321 ], [ 136.863949294, 35.276490052 ], [ 136.863745841, 35.277878778 ], [ 136.86357087499999, 35.279055037 ], [ 136.863535122, 35.279059076 ], [ 136.863523552, 35.279007377 ], [ 136.863441572, 35.279003404 ], [ 136.863415538, 35.279408215 ], [ 136.863396394, 35.279772172 ], [ 136.863582232999988, 35.279762245 ], [ 136.86397834600001, 35.279734255 ], [ 136.86403436399999, 35.279409746 ], [ 136.864108079, 35.278917102 ], [ 136.866880794999986, 35.278943124 ], [ 136.86986002899999, 35.278955933 ], [ 136.869958919, 35.278956356 ], [ 136.869950667000012, 35.278651031 ], [ 136.86994873099999, 35.278265503 ], [ 136.869862549, 35.278265292 ], [ 136.86862356099999, 35.278262291 ], [ 136.866883354, 35.278251717 ] ] ] } },
{ "type": "Feature", "properties": { "A29_001": "23228", "A29_002": "愛知県", "A29_003": "岩倉市", "A29_004": 4, "A29_005": "第二種中高層住居専用地域", "A29_006": 60, "A29_007": 200, "A29_008": null }, "geometry": { "type": "Polygon", "coordinates": [ [ [ 136.870004166, 35.274886671 ], [ 136.869998634000012, 35.274317631 ], [ 136.870331706, 35.274375571 ], [ 136.870417992, 35.274391404 ], [ 136.870408964, 35.273821823 ], [ 136.870406067, 35.273159266 ], [ 136.870405102, 35.27289601 ], [ 136.870401668, 35.272664677 ], [ 136.87040260399999, 35.272613045 ], [ 136.870394721, 35.272432425 ], [ 136.870360045000012, 35.272042003 ], [ 136.870318766999986, 35.27157214 ], [ 136.870284483, 35.271204183 ], [ 136.870264083, 35.270923392 ], [ 136.870241173000011, 35.270655692 ], [ 136.870088626000012, 35.270656824 ], [ 136.869930395000011, 35.270667379 ], [ 136.869890249, 35.270671653 ], [ 136.869704582, 35.270691425 ], [ 136.869576622000011, 35.27068701 ], [ 136.869471946, 35.27069382 ], [ 136.86943663299999, 35.271098998 ], [ 136.869475102, 35.271539134 ], [ 136.86949589, 35.271788205 ], [ 136.86953005399999, 35.272094738 ], [ 136.86953642, 35.272241759 ], [ 136.86956201699999, 35.272634043 ], [ 136.869564626999988, 35.272662642 ], [ 136.869565749, 35.273201321 ], [ 136.86957599199999, 35.273710608 ], [ 136.86957512, 35.27394651 ], [ 136.869574343000011, 35.274156144 ], [ 136.86957764600001, 35.274877196 ], [ 136.869777199, 35.274877389 ], [ 136.869874888999988, 35.274882784 ], [ 136.86994245599999, 35.27488652 ], [ 136.870004166, 35.274886671 ] ] ] } },
{ "type": "Feature", "properties": { "A29_001": "23228", "A29_002": "愛知県", "A29_003": "岩倉市", "A29_004": 3, "A29_005": "第一種中高層住居専用地域", "A29_006": 60, "A29_007": 200, "A29_008": null }, "geometry": { "type": "Polygon", "coordinates": [ [ [ 136.872832036, 35.274822134 ], [ 136.872814115000011, 35.273185817 ], [ 136.872815987, 35.272670511 ], [ 136.872816230000012, 35.27264254 ], [ 136.872818846, 35.272517798 ], [ 136.872813871, 35.272419358 ], [ 136.87278419399999, 35.272288183 ], [ 136.872742643, 35.272054314 ], [ 136.872646051, 35.271648292 ], [ 136.87264271699999, 35.271634267 ], [ 136.8731503, 35.271560176 ], [ 136.873098555000013, 35.271299934 ], [ 136.873047031, 35.27104566 ], [ 136.872990421999987, 35.270750719 ], [ 136.872955585999989, 35.270575045 ], [ 136.87289965299999, 35.270305941 ], [ 136.872845457000011, 35.270061477 ], [ 136.873336843, 35.269983542 ], [ 136.87331419899999, 35.269672746 ], [ 136.873303676, 35.269527572 ], [ 136.873298755, 35.269459692 ], [ 136.873284442999989, 35.269273999 ], [ 136.87326052, 35.268973638 ], [ 136.87325635, 35.268895709 ], [ 136.873228961, 35.268651201 ], [ 136.873218621, 35.268558906 ], [ 136.873214596999986, 35.268431335 ], [ 136.87322401899999, 35.268281216 ], [ 136.87323147, 35.268174865 ], [ 136.873240726, 35.268070998 ], [ 136.873261516000014, 35.267904734 ], [ 136.873271891, 35.267822612 ], [ 136.87333931500001, 35.267513856 ], [ 136.873408258000012, 35.267167522 ], [ 136.873451530000011, 35.266923664 ], [ 136.87305286899999, 35.266896114 ], [ 136.872877553, 35.26688287 ], [ 136.872518371000012, 35.26685573 ], [ 136.872093621, 35.266827329 ], [ 136.871492327, 35.266778944 ], [ 136.87109181, 35.266754475 ], [ 136.871114546, 35.267019173 ], [ 136.871150273000012, 35.267432331 ], [ 136.871173598000013, 35.267646775 ], [ 136.871211061, 35.268066239 ], [ 136.871258079, 35.268545364 ], [ 136.871298321000012, 35.268977788 ], [ 136.871312058, 35.269096468 ], [ 136.87135021200001, 35.26952282 ], [ 136.87135802899999, 35.26961016 ], [ 136.87138102899999, 35.26984485 ], [ 136.87141613, 35.270246441 ], [ 136.871432524, 35.270417716 ], [ 136.871450011, 35.270663227 ], [ 136.871182928, 35.270653164 ], [ 136.87098189, 35.270644128 ], [ 136.870919678, 35.270646725 ], [ 136.87067081, 35.27065431 ], [ 136.87048062299999, 35.270653845 ], [ 136.870241173000011, 35.270655692 ], [ 136.870264083, 35.270923392 ], [ 136.870284483, 35.271204183 ], [ 136.870318766999986, 35.27157214 ], [ 136.870360045000012, 35.272042003 ], [ 136.870394721, 35.272432425 ], [ 136.87040260399999, 35.272613045 ], [ 136.870401668, 35.272664677 ], [ 136.870405102, 35.27289601 ], [ 136.870406067, 35.273159266 ], [ 136.870408964, 35.273821823 ], [ 136.870417992, 35.274391404 ], [ 136.870789961000014, 35.274459669 ], [ 136.870910756, 35.274474495 ], [ 136.871542764999987, 35.274589213 ], [ 136.87183586099999, 35.27464386 ], [ 136.872120069, 35.274688199 ], [ 136.872832036, 35.274822134 ] ] ] } },
{ "type": "Feature", "properties": { "A29_001": "23228", "A29_002": "愛知県", "A29_003": "岩倉市", "A29_004": 1, "A29_005": "第一種低層住居専用地域", "A29_006": 60, "A29_007": 100, "A29_008": null }, "geometry": { "type": "Polygon", "coordinates": [ [ [ 136.866884115, 35.278048213 ], [ 136.867930761, 35.278057391 ], [ 136.868987229999988, 35.278055777 ], [ 136.86932138200001, 35.278056589 ], [ 136.869323038, 35.277970561 ], [ 136.869326589, 35.277585354 ], [ 136.869338019999986, 35.277188753 ], [ 136.869340318000013, 35.276755506 ], [ 136.869341993, 35.276294258 ], [ 136.86934196199999, 35.276278618 ], [ 136.869341042, 35.275880671 ], [ 136.868067577, 35.275882745 ], [ 136.86755672699999, 35.275882988 ], [ 136.867069726000011, 35.275887273 ], [ 136.866892175, 35.27588787 ], [ 136.865160866999986, 35.275886659 ], [ 136.865105327, 35.276268132 ], [ 136.86503347499999, 35.276761611 ], [ 136.86498136099999, 35.277137611 ], [ 136.864912186999987, 35.277596355 ], [ 136.86485639, 35.277996044 ], [ 136.864851784, 35.278040455 ], [ 136.866884115, 35.278048213 ] ] ] } },
{ "type": "Feature", "properties": { "A29_001": "23228", "A29_002": "愛知県", "A29_003": "岩倉市", "A29_004": 5, "A29_005": "第一種住居地域", "A29_006": 60, "A29_007": 200, "A29_008": null }, "geometry": { "type": "Polygon", "coordinates": [ [ [ 136.86357087499999, 35.279055037 ], [ 136.863745841, 35.277878778 ], [ 136.863949294, 35.276490052 ], [ 136.863979667, 35.276265321 ], [ 136.864132027000011, 35.27513788 ], [ 136.864274857999987, 35.274203978 ], [ 136.864293866, 35.274067306 ], [ 136.86403724499999, 35.274066673 ], [ 136.863491407, 35.274061223 ], [ 136.86331553799999, 35.274056726 ], [ 136.863020124, 35.274053903 ], [ 136.862579527, 35.274050768 ], [ 136.862592893999988, 35.274165427 ], [ 136.862606806, 35.274304715 ], [ 136.862615561000013, 35.27435043 ], [ 136.86262496399999, 35.274443238 ], [ 136.862629097, 35.274522529 ], [ 136.862613992, 35.274743774 ], [ 136.862597824, 35.275052085 ], [ 136.862581707, 35.275405593 ], [ 136.862856827, 35.275401588 ], [ 136.86306607, 35.275400581 ], [ 136.863395653, 35.275397495 ], [ 136.863440966000013, 35.275399655 ], [ 136.863434523, 35.275933843 ], [ 136.863438244, 35.27617722 ], [ 136.863443725, 35.276263978 ], [ 136.863431795, 35.277479687 ], [ 136.863425995, 35.277921192 ], [ 136.863413001999987, 35.278537375 ], [ 136.863493481, 35.278542814 ], [ 136.86349392, 35.278888278 ], [ 136.863511409000012, 35.278953117 ], [ 136.863523552, 35.279007377 ], [ 136.863535122, 35.279059076 ], [ 136.86357087499999, 35.279055037 ] ] ] } },
{ "type": "Feature", "properties": { "A29_001": "23228", "A29_002": "愛知県", "A29_003": "岩倉市", "A29_004": 11, "A29_005": "工業地域", "A29_006": 60, "A29_007": 200, "A29_008": null }, "geometry": { "type": "Polygon", "coordinates": [ [ [ 136.86114709, 35.272641832 ], [ 136.861151578, 35.273047811 ], [ 136.860813005000011, 35.273046964 ], [ 136.860424002, 35.273046016 ], [ 136.86012661, 35.273041108 ], [ 136.85999241, 35.273043517 ], [ 136.85998159799999, 35.273614121 ], [ 136.859979915999986, 35.274074963 ], [ 136.859979861, 35.274089403 ], [ 136.859931405999987, 35.274089894 ], [ 136.85888559599999, 35.274100398 ], [ 136.858762006, 35.274101643 ], [ 136.858761772, 35.27414309 ], [ 136.858751786, 35.275904771 ], [ 136.858878836, 35.275887147 ], [ 136.85935518799999, 35.275821049 ], [ 136.859987538000013, 35.275735855 ], [ 136.861166115, 35.27557273 ], [ 136.86179002599999, 35.275488533 ], [ 136.861962502000011, 35.275469145 ], [ 136.862228370999986, 35.2754288 ], [ 136.862399657999987, 35.275412861 ], [ 136.862581707, 35.275405593 ], [ 136.862597824, 35.275052085 ], [ 136.862613992, 35.274743774 ], [ 136.862629097, 35.274522529 ], [ 136.86262496399999, 35.274443238 ], [ 136.862615561000013, 35.27435043 ], [ 136.862606806, 35.274304715 ], [ 136.862592893999988, 35.274165427 ], [ 136.862579527, 35.274050768 ], [ 136.863020124, 35.274053903 ], [ 136.86331553799999, 35.274056726 ], [ 136.863491407, 35.274061223 ], [ 136.86403724499999, 35.274066673 ], [ 136.864038009000012, 35.273932272 ], [ 136.864120689, 35.273924267 ], [ 136.864119957000014, 35.273884629 ], [ 136.864122982, 35.273765811 ], [ 136.864127685999989, 35.273461518 ], [ 136.864133396999989, 35.273116772 ], [ 136.864125726, 35.273030639 ], [ 136.864130483999986, 35.27266157 ], [ 136.86413572, 35.272104789 ], [ 136.86413615399999, 35.272058979 ], [ 136.864166645000012, 35.272059038 ], [ 136.864781614, 35.27206015 ], [ 136.864789701, 35.272019579 ], [ 136.864747060000013, 35.271466563 ], [ 136.864680246, 35.270641949 ], [ 136.864640239000011, 35.270125736 ], [ 136.86461999799999, 35.270005922 ], [ 136.86459375199999, 35.269525719 ], [ 136.86298758800001, 35.269615321 ], [ 136.861350582999989, 35.269700776 ], [ 136.859927344999988, 35.269775799 ], [ 136.8593909, 35.269805419 ], [ 136.859305967000012, 35.269802689 ], [ 136.859054007, 35.269759348 ], [ 136.858902116, 35.26973282 ], [ 136.858666437000011, 35.269691647 ], [ 136.85865792199999, 35.27018733 ], [ 136.85802413499999, 35.270192917 ], [ 136.857984585999986, 35.270193267 ], [ 136.857985404, 35.270241099 ], [ 136.857995611, 35.270839142 ], [ 136.857990554999986, 35.271282569 ], [ 136.857977489, 35.272113121 ], [ 136.858232276, 35.272114618 ], [ 136.858648437, 35.272115147 ], [ 136.858893096, 35.272117671 ], [ 136.859133215000014, 35.272120157 ], [ 136.859524738, 35.272122017 ], [ 136.85990659, 35.272123788 ], [ 136.86021424099999, 35.272129598 ], [ 136.86058640600001, 35.272132189 ], [ 136.86113925399999, 35.272137805 ], [ 136.86114709, 35.272641832 ] ] ] } },
{ "type": "Feature", "properties": { "A29_001": "23228", "A29_002": "愛知県", "A29_003": "岩倉市", "A29_004": 3, "A29_005": "第一種中高層住居専用地域", "A29_006": 60, "A29_007": 200, "A29_008": null }, "geometry": { "type": "Polygon", "coordinates": [ [ [ 136.868422454000012, 35.2696485 ], [ 136.868432969, 35.269751676 ], [ 136.868029541, 35.269758794 ], [ 136.867947243, 35.269514466 ], [ 136.86794172, 35.269498055 ], [ 136.867917064000011, 35.269423545 ], [ 136.867894232999987, 35.269382204 ], [ 136.867845491, 35.269311961 ], [ 136.867804572000011, 35.269149666 ], [ 136.867784367000013, 35.269084388 ], [ 136.867641225, 35.269102496 ], [ 136.867553199000014, 35.269113213 ], [ 136.867397755000013, 35.269164715 ], [ 136.867219817, 35.269235388 ], [ 136.867154873, 35.26925505 ], [ 136.867116022, 35.269271955 ], [ 136.867200354, 35.26951262 ], [ 136.86728991699999, 35.269768207 ], [ 136.86717384799999, 35.269776853 ], [ 136.867147581000012, 35.269811962 ], [ 136.867143972, 35.269824943 ], [ 136.86713816, 35.269976449 ], [ 136.867011136, 35.269956997 ], [ 136.866913430000011, 35.270190117 ], [ 136.866902947999989, 35.270209833 ], [ 136.866743079, 35.270155008 ], [ 136.86675310199999, 35.270361199 ], [ 136.866749535999986, 35.270768077 ], [ 136.866819940999989, 35.270838888 ], [ 136.86684974, 35.270859604 ], [ 136.866630866, 35.270861586 ], [ 136.865987749, 35.270868409 ], [ 136.865678851000013, 35.270855976 ], [ 136.86568004099999, 35.270813531 ], [ 136.865667545, 35.270813112 ], [ 136.86566055899999, 35.270963228 ], [ 136.86563619, 35.271239644 ], [ 136.86564906699999, 35.272242507 ], [ 136.86559462, 35.272243642 ], [ 136.865543824000014, 35.272579857 ], [ 136.865523911999986, 35.272652724 ], [ 136.865487351000013, 35.27289363 ], [ 136.865416122999989, 35.273419067 ], [ 136.865381589, 35.273629149 ], [ 136.865308674, 35.274114152 ], [ 136.865436574, 35.274130183 ], [ 136.865311037999987, 35.274921171 ], [ 136.866895824000011, 35.274909459 ], [ 136.867045921999988, 35.274909822 ], [ 136.86736230299999, 35.274906414 ], [ 136.867631757999987, 35.274902916 ], [ 136.867886911999989, 35.274899363 ], [ 136.868112663, 35.274895522 ], [ 136.868227152, 35.274894236 ], [ 136.868591111, 35.274892717 ], [ 136.868760486000014, 35.274890953 ], [ 136.868958544, 35.274885257 ], [ 136.86921369800001, 35.274881692 ], [ 136.86957764600001, 35.274877196 ], [ 136.869574343000011, 35.274156144 ], [ 136.86957512, 35.27394651 ], [ 136.86957599199999, 35.273710608 ], [ 136.869565749, 35.273201321 ], [ 136.869564626999988, 35.272662642 ], [ 136.86956201699999, 35.272634043 ], [ 136.86953642, 35.272241759 ], [ 136.86953005399999, 35.272094738 ], [ 136.86949589, 35.271788205 ], [ 136.869475102, 35.271539134 ], [ 136.86943663299999, 35.271098998 ], [ 136.869471946, 35.27069382 ], [ 136.869426014999988, 35.270575539 ], [ 136.86951774799999, 35.270001563 ], [ 136.869556261000014, 35.269749131 ], [ 136.869274213000011, 35.26963913 ], [ 136.869273451999987, 35.269603585 ], [ 136.868982243, 35.269621294 ], [ 136.868862274, 35.269620323 ], [ 136.868771834, 35.26962074 ], [ 136.868622448999986, 35.269641565 ], [ 136.868601106999989, 35.269643559 ], [ 136.868422454000012, 35.2696485 ] ] ] } },
{ "type": "Feature", "properties": { "A29_001": "23228", "A29_002": "愛知県", "A29_003": "岩倉市", "A29_004": 4, "A29_005": "第二種中高層住居専用地域", "A29_006": 60, "A29_007": 200, "A29_008": null }, "geometry": { "type": "Polygon", "coordinates": [ [ [ 136.872081879, 35.265908158 ], [ 136.87243196899999, 35.265931789 ], [ 136.872650633, 35.26594458 ], [ 136.872888912, 35.265910093 ], [ 136.873254436, 35.265853387 ], [ 136.87348357799999, 35.26579837 ], [ 136.873689144999986, 35.26574901 ], [ 136.87373732899999, 35.265410188 ], [ 136.87372785299999, 35.265285453 ], [ 136.873700103, 35.265116872 ], [ 136.873552737000011, 35.264683342 ], [ 136.873414419999989, 35.264267628 ], [ 136.873296509999989, 35.263910934 ], [ 136.873257236, 35.263781051 ], [ 136.873247418, 35.263748486 ], [ 136.873104221, 35.263540737 ], [ 136.87299056399999, 35.263398117 ], [ 136.87273287799999, 35.263029275 ], [ 136.87284612799999, 35.262973959 ], [ 136.872935657, 35.262925373 ], [ 136.872822348999989, 35.262765679 ], [ 136.872703507000011, 35.262598184 ], [ 136.87266375499999, 35.262610293 ], [ 136.872449738, 35.262764314 ], [ 136.872449143000011, 35.262764773 ], [ 136.87236014699999, 35.262833236 ], [ 136.872293637000013, 35.262831614 ], [ 136.872243989, 35.262835559 ], [ 136.872144899, 35.262859377 ], [ 136.871992385999988, 35.262940341 ], [ 136.871829926, 35.263021273 ], [ 136.871594517, 35.263142707 ], [ 136.871426293000013, 35.263227708 ], [ 136.87091093399999, 35.263425963 ], [ 136.870864329999989, 35.263435828 ], [ 136.870876756, 35.263455185 ], [ 136.870306832000011, 35.263555183 ], [ 136.870791586, 35.264384279 ], [ 136.870895168, 35.264561447 ], [ 136.87093804, 35.265055661 ], [ 136.870975041, 35.265438129 ], [ 136.871012122, 35.265823212 ], [ 136.871269016000014, 35.265841102 ], [ 136.871546911, 35.265866172 ], [ 136.872081879, 35.265908158 ] ] ] } }
]
}
