{
"type": "FeatureCollection",
"name": "A29-19_18442",
"features": [
{ "type": "Feature", "properties": { "A29_001": "18442", "A29_002": "福井県", "A29_003": "美浜町", "A29_004": 3, "A29_005": "第一種中高層住居専用地域", "A29_006": 60, "A29_007": 200, "A29_008": null }, "geometry": { "type": "Polygon", "coordinates": [ [ [ 135.937011145000014, 35.603832185 ], [ 135.937558594, 35.602828898 ], [ 135.937571778, 35.602772621 ], [ 135.937567422, 35.602741615 ], [ 135.937533863999988, 35.602710594 ], [ 135.937436108000014, 35.602619916 ], [ 135.9376727, 35.602547299 ], [ 135.937760329000014, 35.602517533 ], [ 135.937868408000014, 35.602475852 ], [ 135.937947298000012, 35.602417463 ], [ 135.938008817, 35.60233007 ], [ 135.938176578999986, 35.602357958 ], [ 135.938255806, 35.602360278 ], [ 135.938353256, 35.602350893 ], [ 135.93839707, 35.602335414 ], [ 135.938432137, 35.602303235 ], [ 135.938659868, 35.602360589 ], [ 135.938611580000014, 35.602497698 ], [ 135.938731276, 35.602539494 ], [ 135.93880140600001, 35.602479907 ], [ 135.938849264, 35.602423068 ], [ 135.939128458, 35.60249319 ], [ 135.939306569, 35.602520706 ], [ 135.939451436000013, 35.602540059 ], [ 135.939598568, 35.602547087 ], [ 135.939718279, 35.602569804 ], [ 135.94010366, 35.602683279 ], [ 135.94052686399999, 35.602807889 ], [ 135.940740874999989, 35.602858425 ], [ 135.94088612499999, 35.602885191 ], [ 135.940967891000014, 35.602885231 ], [ 135.941051120999987, 35.60287931 ], [ 135.9410818, 35.602856668 ], [ 135.941147503, 35.602859085 ], [ 135.941124126, 35.602976518 ], [ 135.941557624000012, 35.603089429 ], [ 135.941585416, 35.60302028 ], [ 135.941658413, 35.60303224 ], [ 135.94170806599999, 35.603019147 ], [ 135.94180001699999, 35.603068082 ], [ 135.94189876499999, 35.603074738 ], [ 135.941913336, 35.602905541 ], [ 135.941965641, 35.602606207 ], [ 135.942010864, 35.602447679 ], [ 135.942095892, 35.602246791 ], [ 135.942214631000013, 35.601996193 ], [ 135.942414584, 35.601698651 ], [ 135.942274473, 35.601619405 ], [ 135.942261272, 35.601418221 ], [ 135.942163677999986, 35.601097403 ], [ 135.94207173, 35.601047275 ], [ 135.941873208, 35.600989512 ], [ 135.941602975, 35.601146023 ], [ 135.941325443000011, 35.601309255 ], [ 135.941024518, 35.601513018 ], [ 135.940890106000012, 35.601627428 ], [ 135.940779031, 35.601775239 ], [ 135.940338993000012, 35.602520308 ], [ 135.940172581000013, 35.602468949 ], [ 135.93952928499999, 35.602310357 ], [ 135.93956622499999, 35.602199989 ], [ 135.938953715999986, 35.602053363 ], [ 135.938990315000012, 35.601925788 ], [ 135.938888135000013, 35.601892348 ], [ 135.93882388099999, 35.601905432 ], [ 135.938623887, 35.60185644 ], [ 135.93852898, 35.601858776 ], [ 135.937727564999989, 35.601636568 ], [ 135.937664839, 35.601562603 ], [ 135.937490784, 35.601497867 ], [ 135.937146320000011, 35.601806787 ], [ 135.936025741, 35.601413391 ], [ 135.93592080799999, 35.601588759 ], [ 135.93568939299999, 35.601511482 ], [ 135.935642637, 35.601553193 ], [ 135.93488649599999, 35.601330989 ], [ 135.934592522, 35.601943754 ], [ 135.93430366699999, 35.602474833 ], [ 135.934070389, 35.602815417 ], [ 135.934002392, 35.602943695 ], [ 135.93452981199999, 35.603049326 ], [ 135.934429165000012, 35.60328347 ], [ 135.934802287, 35.60338527 ], [ 135.934825112, 35.603326614 ], [ 135.935033576, 35.603376809 ], [ 135.93504753799999, 35.603444071 ], [ 135.935313809, 35.603511469 ], [ 135.935377824, 35.603433517 ], [ 135.93539009700001, 35.603423507 ], [ 135.935419884, 35.603423523 ], [ 135.935460170999988, 35.603438569 ], [ 135.936293992, 35.603759307 ], [ 135.936329121, 35.603650574 ], [ 135.937011145000014, 35.603832185 ] ] ] } },
{ "type": "Feature", "properties": { "A29_001": "18442", "A29_002": "福井県", "A29_003": "美浜町", "A29_004": 10, "A29_005": "準工業地域", "A29_006": 60, "A29_007": 200, "A29_008": null }, "geometry": { "type": "Polygon", "coordinates": [ [ [ 135.937011145000014, 35.603832185 ], [ 135.936329121, 35.603650574 ], [ 135.936293992, 35.603759307 ], [ 135.935460170999988, 35.603438569 ], [ 135.935419884, 35.603423523 ], [ 135.93539009700001, 35.603423507 ], [ 135.935377824, 35.603433517 ], [ 135.935313809, 35.603511469 ], [ 135.93504753799999, 35.603444071 ], [ 135.935033576, 35.603376809 ], [ 135.934825112, 35.603326614 ], [ 135.934802287, 35.60338527 ], [ 135.934429165000012, 35.60328347 ], [ 135.93452981199999, 35.603049326 ], [ 135.934002392, 35.602943695 ], [ 135.933781528, 35.603360361 ], [ 135.933725646999989, 35.603404309 ], [ 135.93357508599999, 35.603352406 ], [ 135.933052567, 35.603173524 ], [ 135.93217354699999, 35.602836208 ], [ 135.931585750000011, 35.602616389 ], [ 135.931499669, 35.602614648 ], [ 135.93105878099999, 35.602331717 ], [ 135.930671552, 35.602685655 ], [ 135.93039832, 35.602908487 ], [ 135.93025807, 35.603000225 ], [ 135.930113468, 35.603059764 ], [ 135.92998348099999, 35.603102617 ], [ 135.92984984899999, 35.603108726 ], [ 135.929836298999987, 35.603274603 ], [ 135.93265164499999, 35.604086934 ], [ 135.934392514, 35.604597936 ], [ 135.935504879, 35.604919069 ], [ 135.936462307999989, 35.605191064 ], [ 135.936699814, 35.604755402 ], [ 135.936623284, 35.60459438 ], [ 135.936857272999987, 35.604126463 ], [ 135.937011145000014, 35.603832185 ] ] ] } },
{ "type": "Feature", "properties": { "A29_001": "18442", "A29_002": "福井県", "A29_003": "美浜町", "A29_004": 8, "A29_005": "近隣商業地域", "A29_006": 80, "A29_007": 200, "A29_008": null }, "geometry": { "type": "Polygon", "coordinates": [ [ [ 135.946746429, 35.605140444 ], [ 135.94682688099999, 35.604948991 ], [ 135.946914338999989, 35.604715494 ], [ 135.946569866, 35.604694487 ], [ 135.946531325, 35.604684453 ], [ 135.94651731499999, 35.604672999 ], [ 135.946515577000014, 35.604652965 ], [ 135.94651392899999, 35.60449556 ], [ 135.94650521599999, 35.604424009 ], [ 135.94648245799999, 35.604393949 ], [ 135.946459694999987, 35.604371043 ], [ 135.946424661, 35.604358149 ], [ 135.94637552099999, 35.604476896 ], [ 135.94603743, 35.6043637 ], [ 135.946063823, 35.604199153 ], [ 135.945871127, 35.604138967 ], [ 135.945820271, 35.604203336 ], [ 135.945127832999987, 35.604112028 ], [ 135.945012607, 35.604088495 ], [ 135.944928513, 35.604075578 ], [ 135.94483395200001, 35.603995401 ], [ 135.944734103, 35.603961013 ], [ 135.944667533, 35.603943811 ], [ 135.944620237, 35.603926618 ], [ 135.94446263, 35.603802053 ], [ 135.944364420999989, 35.603930793 ], [ 135.944255801999986, 35.603910709 ], [ 135.944268118, 35.603836306 ], [ 135.944220822, 35.603819112 ], [ 135.944182289999986, 35.60379763 ], [ 135.944178806999986, 35.603767579 ], [ 135.944184080000014, 35.603743255 ], [ 135.944192872, 35.6036989 ], [ 135.943784713000014, 35.603569925 ], [ 135.943649744, 35.603647133 ], [ 135.943478078, 35.603585522 ], [ 135.94352553600001, 35.603370902 ], [ 135.942982382, 35.603360629 ], [ 135.942985752999988, 35.603548085 ], [ 135.942941929, 35.603576683 ], [ 135.942940136, 35.60363392 ], [ 135.942841472, 35.603670724 ], [ 135.942846328, 35.60405621 ], [ 135.942850101, 35.604152373 ], [ 135.942918631999987, 35.604153722 ], [ 135.943048600999987, 35.604128742 ], [ 135.943105476999989, 35.604226551 ], [ 135.94319600899999, 35.604220631 ], [ 135.943219344, 35.604258801 ], [ 135.943247071, 35.604280278 ], [ 135.943320056, 35.604311316 ], [ 135.943671864, 35.604429534 ], [ 135.94383683699999, 35.604460615 ], [ 135.943885064999989, 35.60439863 ], [ 135.94404418, 35.604454749 ], [ 135.944079218000013, 35.60446192 ], [ 135.94411572300001, 35.604459552 ], [ 135.944149313, 35.604450028 ], [ 135.944166848, 35.604429765 ], [ 135.94417854400001, 35.604408306 ], [ 135.944425258, 35.604478775 ], [ 135.944410586, 35.604580127 ], [ 135.944414954, 35.604598016 ], [ 135.944429547, 35.60461114 ], [ 135.944642681, 35.604676823 ], [ 135.944673345000012, 35.604674452 ], [ 135.94468503499999, 35.604662533 ], [ 135.94477419899999, 35.604523056 ], [ 135.944977029, 35.604710365 ], [ 135.945000303, 35.604839161 ], [ 135.945168212999988, 35.604848777 ], [ 135.945244898999988, 35.604921935 ], [ 135.94576103899999, 35.604833543 ], [ 135.945823781, 35.604899157 ], [ 135.945814996, 35.604934926 ], [ 135.946188721999988, 35.605038838 ], [ 135.946242805, 35.604953005 ], [ 135.94640486099999, 35.604982889 ], [ 135.946394561, 35.605100937 ], [ 135.946477765, 35.605136748 ], [ 135.946495214, 35.605246462 ], [ 135.94665870599999, 35.605313312 ], [ 135.946708410000014, 35.605225092 ], [ 135.946746429, 35.605140444 ] ] ] } },
{ "type": "Feature", "properties": { "A29_001": "18442", "A29_002": "福井県", "A29_003": "美浜町", "A29_004": 9, "A29_005": "商業地域", "A29_006": 80, "A29_007": 300, "A29_008": null }, "geometry": { "type": "Polygon", "coordinates": [ [ [ 135.937285024, 35.604163613 ], [ 135.936857272999987, 35.604126463 ], [ 135.936623284, 35.60459438 ], [ 135.936699814, 35.604755402 ], [ 135.936462307999989, 35.605191064 ], [ 135.93660499399999, 35.605231599 ], [ 135.93802574599999, 35.605571473 ], [ 135.938283833000014, 35.605621444 ], [ 135.938744574999987, 35.605749776 ], [ 135.939297348, 35.604820813 ], [ 135.939196740999989, 35.604633546 ], [ 135.938872666, 35.604534408 ], [ 135.938494576000011, 35.60442451 ], [ 135.93810772, 35.604321761 ], [ 135.937816613, 35.604266758 ], [ 135.937618758000013, 35.60422961 ], [ 135.937285024, 35.604163613 ] ] ] } },
{ "type": "Feature", "properties": { "A29_001": "18442", "A29_002": "福井県", "A29_003": "美浜町", "A29_004": 5, "A29_005": "第一種住居地域", "A29_006": 60, "A29_007": 200, "A29_008": null }, "geometry": { "type": "Polygon", "coordinates": [ [ [ 135.942040166999988, 35.60407425 ], [ 135.941988304, 35.603931528 ], [ 135.941806288, 35.603985581 ], [ 135.941745034, 35.60388777 ], [ 135.941717344000011, 35.60381621 ], [ 135.941698471, 35.603665951 ], [ 135.94166192099999, 35.603731518 ], [ 135.94163408, 35.603867445 ], [ 135.941597521, 35.603943744 ], [ 135.94152007400001, 35.604027179 ], [ 135.94149232, 35.604042667 ], [ 135.941463113999987, 35.604048615 ], [ 135.94141638799999, 35.604050978 ], [ 135.941347775, 35.604033057 ], [ 135.941285004, 35.604013948 ], [ 135.94115506, 35.603983824 ], [ 135.941055791999986, 35.603975677 ], [ 135.940974684999986, 35.603977617 ], [ 135.940921471, 35.603962494 ], [ 135.940826605000012, 35.60390521 ], [ 135.940690904, 35.60378232 ], [ 135.940657347000013, 35.603747722 ], [ 135.94063111599999, 35.603678547 ], [ 135.940508537, 35.60358309 ], [ 135.940423874, 35.603550851 ], [ 135.94033939, 35.603535839 ], [ 135.940296561, 35.603538387 ], [ 135.94027289499999, 35.603554831 ], [ 135.940259739, 35.603575573 ], [ 135.94024044599999, 35.603601321 ], [ 135.940206273, 35.60360989 ], [ 135.940165974, 35.603609154 ], [ 135.940111674, 35.603587663 ], [ 135.93975172099999, 35.603438665 ], [ 135.939674681000014, 35.603366363 ], [ 135.939213999, 35.603195133 ], [ 135.939137837, 35.603122117 ], [ 135.938861949, 35.603027534 ], [ 135.93881201799999, 35.60302107 ], [ 135.938761201, 35.603028199 ], [ 135.938748928, 35.603038925 ], [ 135.938647188, 35.603191269 ], [ 135.93840727700001, 35.603020148 ], [ 135.938293299, 35.603138143 ], [ 135.93810325699999, 35.603054335 ], [ 135.937777923999988, 35.603459126 ], [ 135.93809932799999, 35.603605964 ], [ 135.93802175, 35.603781757 ], [ 135.93762653600001, 35.60367017 ], [ 135.93754105, 35.603890435 ], [ 135.937724968999987, 35.603963508 ], [ 135.937618758000013, 35.60422961 ], [ 135.937816613, 35.604266758 ], [ 135.93810772, 35.604321761 ], [ 135.938494576000011, 35.60442451 ], [ 135.938872666, 35.604534408 ], [ 135.939196740999989, 35.604633546 ], [ 135.939297348, 35.604820813 ], [ 135.938744574999987, 35.605749776 ], [ 135.939432470000014, 35.605941373 ], [ 135.941480694, 35.606534833 ], [ 135.941630722000014, 35.606206417 ], [ 135.94166666699999, 35.606109278 ], [ 135.941724611000012, 35.605952944 ], [ 135.94190533299999, 35.605479306 ], [ 135.94194117699999, 35.605288422 ], [ 135.942013667, 35.605102333 ], [ 135.942079194, 35.604805722 ], [ 135.942087694, 35.604635972 ], [ 135.942087694, 35.604517417 ], [ 135.942078194, 35.604278333 ], [ 135.94204725, 35.604112222 ], [ 135.942040166999988, 35.60407425 ] ] ] } },
{ "type": "Feature", "properties": { "A29_001": "18442", "A29_002": "福井県", "A29_003": "美浜町", "A29_004": 10, "A29_005": "準工業地域", "A29_006": 60, "A29_007": 200, "A29_008": null }, "geometry": { "type": "Polygon", "coordinates": [ [ [ 135.950822257999988, 35.607623452 ], [ 135.951128871, 35.60703049 ], [ 135.950347935, 35.606764688 ], [ 135.950211626, 35.607054229 ], [ 135.948971699, 35.606565343 ], [ 135.948958, 35.606594861 ], [ 135.948905110999988, 35.606627306 ], [ 135.948870129, 35.606631704 ], [ 135.948792731999987, 35.606631041 ], [ 135.948374527999988, 35.606519194 ], [ 135.948461129, 35.606198263 ], [ 135.94819133199999, 35.606134232 ], [ 135.947919203999987, 35.606061613 ], [ 135.947712481999986, 35.60600524 ], [ 135.94762722199999, 35.605985169 ], [ 135.9475827, 35.606189299 ], [ 135.947533537999988, 35.606342866 ], [ 135.947470836, 35.606492173 ], [ 135.947401336000013, 35.606653801 ], [ 135.947329231999987, 35.606818025 ], [ 135.946287888, 35.606521456 ], [ 135.946220022, 35.606559791 ], [ 135.946118347, 35.606631293 ], [ 135.946044691999987, 35.606723795 ], [ 135.945996753, 35.606791505 ], [ 135.945967477000011, 35.606898336 ], [ 135.945953387, 35.607007081 ], [ 135.94596967699999, 35.607102485 ], [ 135.94595328599999, 35.607156854 ], [ 135.946673842, 35.607441457 ], [ 135.94662942299999, 35.607486273 ], [ 135.946524168, 35.607669388 ], [ 135.946628135999987, 35.607664664 ], [ 135.94669122900001, 35.607645613 ], [ 135.94676367, 35.607621796 ], [ 135.946787035, 35.607618944 ], [ 135.946822048, 35.607667612 ], [ 135.946968072, 35.60765909 ], [ 135.947054533999989, 35.60763051 ], [ 135.947214570999989, 35.60763058 ], [ 135.947255481000013, 35.607592439 ], [ 135.947298698999987, 35.607598182 ], [ 135.947303315999989, 35.607684041 ], [ 135.947804322, 35.607883705 ], [ 135.947914493000013, 35.607691649 ], [ 135.947998482, 35.607719571 ], [ 135.948139520000012, 35.607744673 ], [ 135.948100017, 35.607864856 ], [ 135.948102608999989, 35.607922095 ], [ 135.948579138000014, 35.608044645 ], [ 135.948783889, 35.607601833 ], [ 135.949137944, 35.607691583 ], [ 135.94934275, 35.607838389 ], [ 135.949726491, 35.607950746 ], [ 135.950557344, 35.608157087 ], [ 135.950822257999988, 35.607623452 ] ] ] } },
{ "type": "Feature", "properties": { "A29_001": "18442", "A29_002": "福井県", "A29_003": "美浜町", "A29_004": 5, "A29_005": "第一種住居地域", "A29_006": 60, "A29_007": 200, "A29_008": null }, "geometry": { "type": "Polygon", "coordinates": [ [ [ 135.94649123, 35.608660236 ], [ 135.946542642, 35.608642134 ], [ 135.946616236000011, 35.608642166 ], [ 135.946733032, 35.608673699 ], [ 135.946796107000011, 35.608682312 ], [ 135.946860356, 35.608682341 ], [ 135.946932503, 35.608664247 ], [ 135.94701312699999, 35.608632802 ], [ 135.947091131, 35.608589192 ], [ 135.947188425, 35.608521265 ], [ 135.947269081, 35.608441883 ], [ 135.94742249699999, 35.608295993 ], [ 135.94751805300001, 35.6082066 ], [ 135.94762237, 35.608116496 ], [ 135.947700399000013, 35.608032819 ], [ 135.947804322, 35.607883705 ], [ 135.947303315999989, 35.607684041 ], [ 135.947298698999987, 35.607598182 ], [ 135.947255481000013, 35.607592439 ], [ 135.947214570999989, 35.60763058 ], [ 135.947054533999989, 35.60763051 ], [ 135.946968072, 35.60765909 ], [ 135.946822048, 35.607667612 ], [ 135.946787035, 35.607618944 ], [ 135.94676367, 35.607621796 ], [ 135.94669122900001, 35.607645613 ], [ 135.946628135999987, 35.607664664 ], [ 135.946524168, 35.607669388 ], [ 135.94662942299999, 35.607486273 ], [ 135.946673842, 35.607441457 ], [ 135.94595328599999, 35.607156854 ], [ 135.94596967699999, 35.607102485 ], [ 135.945953387, 35.607007081 ], [ 135.945967477000011, 35.606898336 ], [ 135.945996753, 35.606791505 ], [ 135.946044691999987, 35.606723795 ], [ 135.946118347, 35.606631293 ], [ 135.946220022, 35.606559791 ], [ 135.946287888, 35.606521456 ], [ 135.947329231999987, 35.606818025 ], [ 135.947401336000013, 35.606653801 ], [ 135.947470836, 35.606492173 ], [ 135.947533537999988, 35.606342866 ], [ 135.9475827, 35.606189299 ], [ 135.94762722199999, 35.605985169 ], [ 135.947712481999986, 35.60600524 ], [ 135.947919203999987, 35.606061613 ], [ 135.94819133199999, 35.606134232 ], [ 135.948461129, 35.606198263 ], [ 135.94851702299999, 35.606016477 ], [ 135.948530236000011, 35.605905584 ], [ 135.948526928, 35.605470456 ], [ 135.948344694000014, 35.605408667 ], [ 135.94834618499999, 35.605100579 ], [ 135.947167172, 35.604804357 ], [ 135.947154071999989, 35.604741151 ], [ 135.946924865999989, 35.604687389 ], [ 135.94682688099999, 35.604948991 ], [ 135.946746429, 35.605140444 ], [ 135.946708410000014, 35.605225092 ], [ 135.94665870599999, 35.605313312 ], [ 135.946495214, 35.605246462 ], [ 135.946477765, 35.605136748 ], [ 135.946394561, 35.605100937 ], [ 135.94640486099999, 35.604982889 ], [ 135.946242805, 35.604953005 ], [ 135.946188721999988, 35.605038838 ], [ 135.945814996, 35.604934926 ], [ 135.945823781, 35.604899157 ], [ 135.94576103899999, 35.604833543 ], [ 135.945244898999988, 35.604921935 ], [ 135.945168212999988, 35.604848777 ], [ 135.945000303, 35.604839161 ], [ 135.944977029, 35.604710365 ], [ 135.94477419899999, 35.604523056 ], [ 135.94468503499999, 35.604662533 ], [ 135.944673345000012, 35.604674452 ], [ 135.944642681, 35.604676823 ], [ 135.944429547, 35.60461114 ], [ 135.944414954, 35.604598016 ], [ 135.944410586, 35.604580127 ], [ 135.944425258, 35.604478775 ], [ 135.94417854400001, 35.604408306 ], [ 135.944166848, 35.604429765 ], [ 135.944149313, 35.604450028 ], [ 135.94411572300001, 35.604459552 ], [ 135.944079218000013, 35.60446192 ], [ 135.94404418, 35.604454749 ], [ 135.943885064999989, 35.60439863 ], [ 135.94383683699999, 35.604460615 ], [ 135.943671864, 35.604429534 ], [ 135.943320056, 35.604311316 ], [ 135.943247071, 35.604280278 ], [ 135.943219344, 35.604258801 ], [ 135.94319600899999, 35.604220631 ], [ 135.943105476999989, 35.604226551 ], [ 135.943048600999987, 35.604128742 ], [ 135.942918631999987, 35.604153722 ], [ 135.942850101, 35.604152373 ], [ 135.94287513899999, 35.604790528 ], [ 135.942870306, 35.605032306 ], [ 135.94282019, 35.605340519 ], [ 135.942782139, 35.6055205 ], [ 135.942729222, 35.605683222 ], [ 135.942542777999989, 35.606119917 ], [ 135.942424361, 35.606379472 ], [ 135.942203510000013, 35.606766597 ], [ 135.943243545, 35.607067724 ], [ 135.943586603999989, 35.607185819 ], [ 135.943955632000012, 35.607338626 ], [ 135.94453251499999, 35.607602187 ], [ 135.944887477, 35.607829394 ], [ 135.945338037999989, 35.608166106 ], [ 135.945683737, 35.608451741 ], [ 135.945845268999989, 35.608609387 ], [ 135.945969111000011, 35.608583686 ], [ 135.946087107000011, 35.608567521 ], [ 135.946194574, 35.608574247 ], [ 135.946296182999987, 35.608605773 ], [ 135.946467106, 35.608754925 ], [ 135.94646901199999, 35.608694569 ], [ 135.94649123, 35.608660236 ] ] ] } },
{ "type": "Feature", "properties": { "A29_001": "18442", "A29_002": "福井県", "A29_003": "美浜町", "A29_004": 8, "A29_005": "近隣商業地域", "A29_006": 80, "A29_007": 200, "A29_008": null }, "geometry": { "type": "Polygon", "coordinates": [ [ [ 135.91221715899999, 35.609143764 ], [ 135.9124098, 35.60905924 ], [ 135.912813906999986, 35.609586599 ], [ 135.91297302800001, 35.609489867 ], [ 135.913157109999986, 35.609402712 ], [ 135.91351468900001, 35.609294218 ], [ 135.913732027, 35.609241428 ], [ 135.913959882, 35.609184353 ], [ 135.914238589, 35.609092971 ], [ 135.914243905, 35.609037168 ], [ 135.91424750499999, 35.608972882 ], [ 135.914974452, 35.60889787 ], [ 135.915664442, 35.6088596 ], [ 135.916621306, 35.60883825 ], [ 135.916529778000012, 35.608333333 ], [ 135.916527583, 35.608321194 ], [ 135.916524138999989, 35.608307028 ], [ 135.916509917000013, 35.608248889 ], [ 135.916493972000012, 35.608097028 ], [ 135.916486916999986, 35.607969778 ], [ 135.916456903000011, 35.607814889 ], [ 135.916456755000013, 35.607814128 ], [ 135.916121972000013, 35.607887194 ], [ 135.915149555999989, 35.608130083 ], [ 135.914589833, 35.608254028 ], [ 135.91408234799999, 35.60840605 ], [ 135.913412857999987, 35.608624082 ], [ 135.913003847, 35.608764975 ], [ 135.91268011299999, 35.608880248 ], [ 135.912580821, 35.608902039 ], [ 135.911127273, 35.609213877 ], [ 135.910995754, 35.609345865 ], [ 135.91093781, 35.609453143 ], [ 135.910881611, 35.609567577 ], [ 135.910842967, 35.609651975 ], [ 135.910748235999989, 35.609749209 ], [ 135.91068684199999, 35.609807832 ], [ 135.91060970699999, 35.609839256 ], [ 135.910544404, 35.60986874 ], [ 135.910637869999988, 35.609858077 ], [ 135.910779534999989, 35.60983791 ], [ 135.91096650599999, 35.609782003 ], [ 135.911147672, 35.609693895 ], [ 135.911470471, 35.60949551 ], [ 135.911745268, 35.609362831 ], [ 135.911990722000013, 35.609237803 ], [ 135.91221715899999, 35.609143764 ] ] ] } },
{ "type": "Feature", "properties": { "A29_001": "18442", "A29_002": "福井県", "A29_003": "美浜町", "A29_004": 5, "A29_005": "第一種住居地域", "A29_006": 60, "A29_007": 200, "A29_008": null }, "geometry": { "type": "Polygon", "coordinates": [ [ [ 135.929240273, 35.61035513 ], [ 135.929352752999989, 35.610307498 ], [ 135.92944779699999, 35.610160882 ], [ 135.929507812, 35.609995165 ], [ 135.92963536100001, 35.609579056 ], [ 135.929717286, 35.60923927 ], [ 135.929758252999989, 35.609147475 ], [ 135.929816726000013, 35.609073577 ], [ 135.929881009000013, 35.609035456 ], [ 135.930022689, 35.608990225 ], [ 135.929932522, 35.608570428 ], [ 135.92949737, 35.608582099 ], [ 135.929504536, 35.60873593 ], [ 135.928879951, 35.608301509 ], [ 135.929480614999989, 35.607708018 ], [ 135.928721464, 35.607540628 ], [ 135.92760406799999, 35.607331888 ], [ 135.923843543, 35.606606862 ], [ 135.923334614999987, 35.60651787 ], [ 135.923098672, 35.606496732 ], [ 135.922876737, 35.606485143 ], [ 135.922514669, 35.606465028 ], [ 135.920349533, 35.606430586 ], [ 135.91587805399999, 35.606379098 ], [ 135.911544888, 35.606335996 ], [ 135.911262881999988, 35.606350034 ], [ 135.911000034000011, 35.606366535 ], [ 135.910775126, 35.606404527 ], [ 135.91057648, 35.606461618 ], [ 135.91031352499999, 35.606573513 ], [ 135.910479458, 35.60704585 ], [ 135.910628142, 35.607274912 ], [ 135.91080897399999, 35.607482533 ], [ 135.91096945699999, 35.607606667 ], [ 135.911120044, 35.607701221 ], [ 135.91117603699999, 35.607771855 ], [ 135.91123435599999, 35.607852032 ], [ 135.91123653, 35.607998944 ], [ 135.911245795000013, 35.608071452 ], [ 135.911287769000012, 35.608143984 ], [ 135.911355425000011, 35.608231799 ], [ 135.91142545400001, 35.60828718 ], [ 135.91146510199999, 35.608350171 ], [ 135.911488394, 35.608415058 ], [ 135.91148818100001, 35.608607758 ], [ 135.911462387, 35.608693596 ], [ 135.911466967, 35.608777549 ], [ 135.911466890000014, 35.608848142 ], [ 135.911448121, 35.608918722 ], [ 135.911363916, 35.609006424 ], [ 135.911127273, 35.609213877 ], [ 135.912580821, 35.608902039 ], [ 135.91268011299999, 35.608880248 ], [ 135.913003847, 35.608764975 ], [ 135.913412857999987, 35.608624082 ], [ 135.91408234799999, 35.60840605 ], [ 135.914589833, 35.608254028 ], [ 135.915149555999989, 35.608130083 ], [ 135.916121972000013, 35.607887194 ], [ 135.916456755000013, 35.607814128 ], [ 135.916456903000011, 35.607814889 ], [ 135.916486916999986, 35.607969778 ], [ 135.916493972000012, 35.608097028 ], [ 135.916509917000013, 35.608248889 ], [ 135.916524138999989, 35.608307028 ], [ 135.916527583, 35.608321194 ], [ 135.916529778000012, 35.608333333 ], [ 135.916621306, 35.60883825 ], [ 135.916666666999987, 35.608838167 ], [ 135.91694177799999, 35.608837639 ], [ 135.917290278, 35.608840278 ], [ 135.917800277999987, 35.608854083 ], [ 135.91875527799999, 35.608888222 ], [ 135.919345, 35.608913833 ], [ 135.9197754, 35.608941832 ], [ 135.919772314999989, 35.608661873 ], [ 135.920876184, 35.608710301 ], [ 135.921079134, 35.608729514 ], [ 135.921166715999988, 35.608760575 ], [ 135.921280609, 35.608764227 ], [ 135.921381346, 35.608782179 ], [ 135.921487453999987, 35.608803156 ], [ 135.921591552, 35.608847901 ], [ 135.921698142, 35.608853933 ], [ 135.921810572, 35.608859968 ], [ 135.921892328000013, 35.608876716 ], [ 135.921959468000011, 35.60890657 ], [ 135.922042659, 35.608949553 ], [ 135.92209813, 35.608967475 ], [ 135.922172593, 35.608974678 ], [ 135.922311314000012, 35.608974768 ], [ 135.922581459000014, 35.608968979 ], [ 135.922685124, 35.608979778 ], [ 135.922749358, 35.608995321 ], [ 135.922848614, 35.609035928 ], [ 135.923033976, 35.609124289 ], [ 135.92309529799999, 35.609131482 ], [ 135.923198973000012, 35.609132741 ], [ 135.92380493499999, 35.609161745 ], [ 135.923977172, 35.609234593 ], [ 135.924219568000012, 35.609234746 ], [ 135.92437862599999, 35.609346937 ], [ 135.924540646999986, 35.609415008 ], [ 135.924674970000012, 35.609432979 ], [ 135.92484872899999, 35.609441435 ], [ 135.924987442, 35.609449869 ], [ 135.925162570999987, 35.609554914 ], [ 135.925237027, 35.609571654 ], [ 135.925327552999988, 35.609580058 ], [ 135.925425383, 35.609584888 ], [ 135.92553632900001, 35.609618345 ], [ 135.925815132, 35.609727031 ], [ 135.92611330299999, 35.609831383 ], [ 135.926922350000012, 35.610117964 ], [ 135.92729973499999, 35.610222805 ], [ 135.927359602, 35.610225226 ], [ 135.927565519000012, 35.610199116 ], [ 135.927889604, 35.610297092 ], [ 135.928034149000013, 35.61031745 ], [ 135.92816118499999, 35.610322295 ], [ 135.928288235, 35.610312831 ], [ 135.928381691999988, 35.610310502 ], [ 135.92851310399999, 35.610321312 ], [ 135.928701448, 35.610351235 ], [ 135.92913500899999, 35.610498163 ], [ 135.929240273, 35.61035513 ] ] ] } },
{ "type": "Feature", "properties": { "A29_001": "18442", "A29_002": "福井県", "A29_003": "美浜町", "A29_004": 5, "A29_005": "第一種住居地域", "A29_006": 60, "A29_007": 200, "A29_008": null }, "geometry": { "type": "Polygon", "coordinates": [ [ [ 135.90788955299999, 35.614416609 ], [ 135.90755651500001, 35.614276681 ], [ 135.907537639, 35.614314639 ], [ 135.90735083300001, 35.614579583 ], [ 135.90722702799999, 35.614700667 ], [ 135.90703761099999, 35.614857194 ], [ 135.906864278, 35.614979111 ], [ 135.906674833000011, 35.615077972 ], [ 135.90649216700001, 35.615183361 ], [ 135.906433990000011, 35.615201826 ], [ 135.906708873000014, 35.615732711 ], [ 135.907550678, 35.616114691 ], [ 135.90762085599999, 35.616043198 ], [ 135.907582358000013, 35.615995947 ], [ 135.907538577, 35.615970156 ], [ 135.90756335899999, 35.615754102 ], [ 135.907653313, 35.615249048 ], [ 135.907846906, 35.614525137 ], [ 135.90787328, 35.614447886 ], [ 135.90788955299999, 35.614416609 ] ] ] } },
{ "type": "Feature", "properties": { "A29_001": "18442", "A29_002": "福井県", "A29_003": "美浜町", "A29_004": 10, "A29_005": "準工業地域", "A29_006": 60, "A29_007": 200, "A29_008": null }, "geometry": { "type": "Polygon", "coordinates": [ [ [ 135.908325246, 35.618927869 ], [ 135.908048667, 35.618655779 ], [ 135.907996062, 35.618682927 ], [ 135.907656480000014, 35.618337809 ], [ 135.907605775, 35.618236173 ], [ 135.90774776, 35.618204801 ], [ 135.907590852999988, 35.617497794 ], [ 135.90757177, 35.617328928 ], [ 135.90771071099999, 35.616895458 ], [ 135.907851419, 35.61644768 ], [ 135.907416383, 35.616270263 ], [ 135.907202332999987, 35.616960806 ], [ 135.90676801, 35.616746234 ], [ 135.906665597, 35.616999178 ], [ 135.906564229999987, 35.617215853 ], [ 135.906593842, 35.617370418 ], [ 135.906541174000012, 35.617451942 ], [ 135.906616023, 35.617887007 ], [ 135.906643887, 35.618037278 ], [ 135.90664917399999, 35.618166581 ], [ 135.906648846, 35.618294852 ], [ 135.90667147799999, 35.618423654 ], [ 135.906706417, 35.618518124 ], [ 135.906774665, 35.618602602 ], [ 135.906841189, 35.618662753 ], [ 135.90693921799999, 35.618757272 ], [ 135.90708453900001, 35.61887329 ], [ 135.907326192, 35.619036604 ], [ 135.90750306000001, 35.619151216 ], [ 135.90784800899999, 35.619343586 ], [ 135.90784465199999, 35.619290963 ], [ 135.907844739000012, 35.619215123 ], [ 135.907850029, 35.619186508 ], [ 135.90789562, 35.619163647 ], [ 135.90806218099999, 35.619097951 ], [ 135.908209483, 35.619015069 ], [ 135.908325246, 35.618927869 ] ] ] } },
{ "type": "Feature", "properties": { "A29_001": "18442", "A29_002": "福井県", "A29_003": "美浜町", "A29_004": 5, "A29_005": "第一種住居地域", "A29_006": 60, "A29_007": 200, "A29_008": null }, "geometry": { "type": "Polygon", "coordinates": [ [ [ 135.90785670299999, 35.619479857 ], [ 135.90784800899999, 35.619343586 ], [ 135.90750306000001, 35.619151216 ], [ 135.907326192, 35.619036604 ], [ 135.90708453900001, 35.61887329 ], [ 135.90693921799999, 35.618757272 ], [ 135.906841189, 35.618662753 ], [ 135.906774665, 35.618602602 ], [ 135.906706417, 35.618518124 ], [ 135.90667147799999, 35.618423654 ], [ 135.906648846, 35.618294852 ], [ 135.90664917399999, 35.618166581 ], [ 135.906643887, 35.618037278 ], [ 135.906616023, 35.617887007 ], [ 135.906541174000012, 35.617451942 ], [ 135.906593842, 35.617370418 ], [ 135.906564229999987, 35.617215853 ], [ 135.906665597, 35.616999178 ], [ 135.90676801, 35.616746234 ], [ 135.907202332999987, 35.616960806 ], [ 135.907416383, 35.616270263 ], [ 135.90734520800001, 35.616241235 ], [ 135.906859348000012, 35.616051738 ], [ 135.906604308999988, 35.615920132 ], [ 135.906520282, 35.615844226 ], [ 135.906354106, 35.615585096 ], [ 135.906245633999987, 35.615433332 ], [ 135.905991953000012, 35.615076828 ], [ 135.905382417, 35.614825936 ], [ 135.90490247, 35.614652414 ], [ 135.904627994, 35.614107006 ], [ 135.904664849, 35.614059814 ], [ 135.904423213, 35.613899357 ], [ 135.904134242999987, 35.613757464 ], [ 135.903747165, 35.613595458 ], [ 135.903542226000013, 35.613523747 ], [ 135.903593137, 35.613446517 ], [ 135.903304228, 35.613316136 ], [ 135.90326736, 35.613373345 ], [ 135.903074819000011, 35.613192891 ], [ 135.902813970000011, 35.612985193 ], [ 135.902600365000012, 35.612836203 ], [ 135.902493571, 35.612754552 ], [ 135.902383323, 35.612631402 ], [ 135.902320354000011, 35.612536908 ], [ 135.902299384, 35.61248967 ], [ 135.902339734, 35.612451067 ], [ 135.902281982, 35.61238949 ], [ 135.902182033, 35.612443784 ], [ 135.90194934499999, 35.612138804 ], [ 135.902268479000014, 35.611965918 ], [ 135.902289532999987, 35.611944471 ], [ 135.902286105, 35.611881507 ], [ 135.902351119, 35.611734172 ], [ 135.90247400199999, 35.611552541 ], [ 135.902503896000013, 35.611466709 ], [ 135.902519769, 35.611382296 ], [ 135.902521686, 35.611246357 ], [ 135.90251479, 35.61115334 ], [ 135.902481658999989, 35.611018805 ], [ 135.90238377899999, 35.6108141 ], [ 135.902157778, 35.610776712 ], [ 135.901626375, 35.610733335 ], [ 135.901432281000012, 35.610814756 ], [ 135.90126830599999, 35.610891667 ], [ 135.901034242, 35.610982984 ], [ 135.90072049599999, 35.611100361 ], [ 135.900434837, 35.611127314 ], [ 135.900159691999988, 35.611154274 ], [ 135.899777625000013, 35.611206902 ], [ 135.899414826, 35.611263837 ], [ 135.89913443099999, 35.611285067 ], [ 135.898932916, 35.611284898 ], [ 135.89877870699999, 35.611289062 ], [ 135.898627995, 35.611300383 ], [ 135.898531593, 35.611320335 ], [ 135.898408866000011, 35.611371745 ], [ 135.898314166, 35.611431765 ], [ 135.89823521400001, 35.61150897 ], [ 135.898310425, 35.611617785 ], [ 135.898354092, 35.611729436 ], [ 135.898353525, 35.611771072 ], [ 135.898366156, 35.611889712 ], [ 135.898353754999988, 35.611995592 ], [ 135.89832841899999, 35.612124406 ], [ 135.898304399000011, 35.612225932 ], [ 135.898304301, 35.612303203 ], [ 135.898323439, 35.612411971 ], [ 135.89837579499999, 35.612580867 ], [ 135.89844571099999, 35.612721159 ], [ 135.898555955, 35.612842882 ], [ 135.898650495999988, 35.612910216 ], [ 135.898790596999987, 35.612979019 ], [ 135.89895177299999, 35.613010635 ], [ 135.899116467999988, 35.613030807 ], [ 135.89929520699999, 35.613030956 ], [ 135.899398624000014, 35.613008147 ], [ 135.899512582999989, 35.612962452 ], [ 135.899580988999986, 35.612910995 ], [ 135.899661691, 35.612835222 ], [ 135.899723083999987, 35.612786621 ], [ 135.899794974, 35.612750907 ], [ 135.899896653000013, 35.612716649 ], [ 135.899968562999987, 35.612665195 ], [ 135.900040512, 35.61258226 ], [ 135.900096631, 35.612546533 ], [ 135.900164988, 35.612533711 ], [ 135.900238535999989, 35.612573838 ], [ 135.900250744, 35.612621069 ], [ 135.900303283, 35.612645439 ], [ 135.900354099, 35.612646912 ], [ 135.900443509000013, 35.612614074 ], [ 135.90049262799999, 35.612571186 ], [ 135.90051194899999, 35.612533998 ], [ 135.900597807, 35.612539792 ], [ 135.90070818800001, 35.612552762 ], [ 135.90089388199999, 35.612595843 ], [ 135.901084795, 35.612670409 ], [ 135.901231894, 35.612749232 ], [ 135.901387707999987, 35.612866697 ], [ 135.901524177999988, 35.613039953 ], [ 135.901630885, 35.613191721 ], [ 135.90170089, 35.613264756 ], [ 135.901751668, 35.613297709 ], [ 135.90184098899999, 35.613337848 ], [ 135.901926796, 35.61338514 ], [ 135.90200731499999, 35.613458183 ], [ 135.902047543, 35.613521178 ], [ 135.902050586, 35.61356895 ], [ 135.90205611799999, 35.613674296 ], [ 135.902082291, 35.613765898 ], [ 135.902145265, 35.613857529 ], [ 135.902225807, 35.613911971 ], [ 135.90239741, 35.614018 ], [ 135.902787869, 35.61428161 ], [ 135.902850918000013, 35.61431171 ], [ 135.902924500000012, 35.614326079 ], [ 135.90298583, 35.61432899 ], [ 135.90304193099999, 35.614307571 ], [ 135.903071772, 35.614266098 ], [ 135.903130311000012, 35.614160732 ], [ 135.90326808099999, 35.614229528 ], [ 135.90345491799999, 35.614298363 ], [ 135.903693183, 35.614346252 ], [ 135.90382400199999, 35.614367344 ], [ 135.903931481, 35.61436743 ], [ 135.904272365999987, 35.614571849 ], [ 135.90429779499999, 35.614800821 ], [ 135.904309325000014, 35.614928661 ], [ 135.904234373, 35.615083144 ], [ 135.904164141, 35.615197563 ], [ 135.904140543000011, 35.615392153 ], [ 135.90417489, 35.615979822 ], [ 135.904233083, 35.616164937 ], [ 135.904300721999988, 35.616266111 ], [ 135.904412189999988, 35.616353011 ], [ 135.904506742, 35.616418909 ], [ 135.904601272, 35.61650341 ], [ 135.904636218, 35.616589294 ], [ 135.904641362, 35.616685171 ], [ 135.904613208, 35.616782453 ], [ 135.904558794, 35.61685682 ], [ 135.90447637599999, 35.616902544 ], [ 135.90439046899999, 35.616933957 ], [ 135.90425198299999, 35.616971052 ], [ 135.90416081699999, 35.617003891 ], [ 135.904043306, 35.617086792 ], [ 135.90400816499999, 35.617164035 ], [ 135.90401333599999, 35.617235587 ], [ 135.904051815, 35.617298579 ], [ 135.90412007399999, 35.617370181 ], [ 135.90420760399999, 35.617447521 ], [ 135.904275919000014, 35.617473333 ], [ 135.904393328999987, 35.617476288 ], [ 135.904498504, 35.617452045 ], [ 135.904611703, 35.617445692 ], [ 135.904689506000011, 35.617463644 ], [ 135.904820851000011, 35.617538157 ], [ 135.905019262, 35.617726175 ], [ 135.905069430999987, 35.617764442 ], [ 135.905114983, 35.617774018 ], [ 135.905176917, 35.617761665 ], [ 135.905247016, 35.617760766 ], [ 135.905305422, 35.617768444 ], [ 135.90534744499999, 35.617799004 ], [ 135.905447755000012, 35.617938361 ], [ 135.905478044, 35.61801184 ], [ 135.905475582, 35.618118682 ], [ 135.90540887899999, 35.618211164 ], [ 135.905380791, 35.618253116 ], [ 135.905371370000012, 35.618316071 ], [ 135.905399337, 35.618377146 ], [ 135.905419112, 35.618450617 ], [ 135.90542487, 35.618522169 ], [ 135.905399136999989, 35.618574175 ], [ 135.905371046, 35.618590812 ], [ 135.905303247, 35.618622239 ], [ 135.905259983, 35.618653686 ], [ 135.905247053000011, 35.618720453 ], [ 135.905264528, 35.618762441 ], [ 135.905276163, 35.618803471 ], [ 135.90526092499999, 35.618845433 ], [ 135.905226997999989, 35.618884519 ], [ 135.90519544, 35.618895942 ], [ 135.905182536000012, 35.618939814 ], [ 135.905211645, 35.619023786 ], [ 135.905250118, 35.619093455 ], [ 135.905267584, 35.619143075 ], [ 135.905374891, 35.619293886 ], [ 135.90554177300001, 35.619454282 ], [ 135.90575888699999, 35.619619488 ], [ 135.905817265, 35.619651968 ], [ 135.905869833999986, 35.619656779 ], [ 135.905935271, 35.619648245 ], [ 135.90598787, 35.619627299 ], [ 135.906093086, 35.619570143 ], [ 135.90623454199999, 35.619493936 ], [ 135.906298832, 35.619466321 ], [ 135.906352575999989, 35.619465409 ], [ 135.906424995, 35.619479775 ], [ 135.906495046, 35.619521803 ], [ 135.90657557, 35.619599137 ], [ 135.906645529, 35.619720344 ], [ 135.906814712, 35.61991413 ], [ 135.90697461799999, 35.620047808 ], [ 135.90705282799999, 35.620107014 ], [ 135.907208121999986, 35.620188221 ], [ 135.907308570999987, 35.620212147 ], [ 135.90737399599999, 35.620214106 ], [ 135.9075977, 35.620177959 ], [ 135.907621231, 35.620034883 ], [ 135.907697367999987, 35.619865613 ], [ 135.907808632000012, 35.619627207 ], [ 135.90784962399999, 35.619539951 ], [ 135.90785670299999, 35.619479857 ] ] ] } },
{ "type": "Feature", "properties": { "A29_001": "18442", "A29_002": "福井県", "A29_003": "美浜町", "A29_004": 8, "A29_005": "近隣商業地域", "A29_006": 80, "A29_007": 200, "A29_008": null }, "geometry": { "type": "Polygon", "coordinates": [ [ [ 135.93754105, 35.603890435 ], [ 135.93762653600001, 35.60367017 ], [ 135.93802175, 35.603781757 ], [ 135.93809932799999, 35.603605964 ], [ 135.937777923999988, 35.603459126 ], [ 135.93810325699999, 35.603054335 ], [ 135.938293299, 35.603138143 ], [ 135.93840727700001, 35.603020148 ], [ 135.938647188, 35.603191269 ], [ 135.938748928, 35.603038925 ], [ 135.938761201, 35.603028199 ], [ 135.93881201799999, 35.60302107 ], [ 135.938861949, 35.603027534 ], [ 135.939137837, 35.603122117 ], [ 135.939213999, 35.603195133 ], [ 135.939674681000014, 35.603366363 ], [ 135.93975172099999, 35.603438665 ], [ 135.940111674, 35.603587663 ], [ 135.940165974, 35.603609154 ], [ 135.940206273, 35.60360989 ], [ 135.94024044599999, 35.603601321 ], [ 135.940259739, 35.603575573 ], [ 135.94027289499999, 35.603554831 ], [ 135.940296561, 35.603538387 ], [ 135.94033939, 35.603535839 ], [ 135.940423874, 35.603550851 ], [ 135.940508537, 35.60358309 ], [ 135.94063111599999, 35.603678547 ], [ 135.940657347000013, 35.603747722 ], [ 135.940690904, 35.60378232 ], [ 135.940826605000012, 35.60390521 ], [ 135.940921471, 35.603962494 ], [ 135.940974684999986, 35.603977617 ], [ 135.941055791999986, 35.603975677 ], [ 135.94115506, 35.603983824 ], [ 135.941285004, 35.604013948 ], [ 135.941347775, 35.604033057 ], [ 135.94141638799999, 35.604050978 ], [ 135.941463113999987, 35.604048615 ], [ 135.94149232, 35.604042667 ], [ 135.94152007400001, 35.604027179 ], [ 135.941597521, 35.603943744 ], [ 135.94163408, 35.603867445 ], [ 135.94166192099999, 35.603731518 ], [ 135.941698471, 35.603665951 ], [ 135.941717344000011, 35.60381621 ], [ 135.941745034, 35.60388777 ], [ 135.941806288, 35.603985581 ], [ 135.941988304, 35.603931528 ], [ 135.941968833, 35.603877944 ], [ 135.94190583, 35.603601927 ], [ 135.94187975299999, 35.603319302 ], [ 135.941890091, 35.603155941 ], [ 135.94189876499999, 35.603074738 ], [ 135.94180001699999, 35.603068082 ], [ 135.94170806599999, 35.603019147 ], [ 135.941658413, 35.60303224 ], [ 135.941585416, 35.60302028 ], [ 135.941557624000012, 35.603089429 ], [ 135.941124126, 35.602976518 ], [ 135.941147503, 35.602859085 ], [ 135.9410818, 35.602856668 ], [ 135.941051120999987, 35.60287931 ], [ 135.940967891000014, 35.602885231 ], [ 135.94088612499999, 35.602885191 ], [ 135.940740874999989, 35.602858425 ], [ 135.94052686399999, 35.602807889 ], [ 135.94010366, 35.602683279 ], [ 135.939718279, 35.602569804 ], [ 135.939598568, 35.602547087 ], [ 135.939451436000013, 35.602540059 ], [ 135.939306569, 35.602520706 ], [ 135.939128458, 35.60249319 ], [ 135.938849264, 35.602423068 ], [ 135.93880140600001, 35.602479907 ], [ 135.938731276, 35.602539494 ], [ 135.938611580000014, 35.602497698 ], [ 135.938659868, 35.602360589 ], [ 135.938432137, 35.602303235 ], [ 135.93839707, 35.602335414 ], [ 135.938353256, 35.602350893 ], [ 135.938255806, 35.602360278 ], [ 135.938176578999986, 35.602357958 ], [ 135.938008817, 35.60233007 ], [ 135.937947298000012, 35.602417463 ], [ 135.937868408000014, 35.602475852 ], [ 135.937760329000014, 35.602517533 ], [ 135.9376727, 35.602547299 ], [ 135.937436108000014, 35.602619916 ], [ 135.937533863999988, 35.602710594 ], [ 135.937567422, 35.602741615 ], [ 135.937571778, 35.602772621 ], [ 135.937558594, 35.602828898 ], [ 135.937011145000014, 35.603832185 ], [ 135.936857272999987, 35.604126463 ], [ 135.937285024, 35.604163613 ], [ 135.937618758000013, 35.60422961 ], [ 135.937724968999987, 35.603963508 ], [ 135.93754105, 35.603890435 ] ] ] } },
{ "type": "Feature", "properties": { "A29_001": "18442", "A29_002": "福井県", "A29_003": "美浜町", "A29_004": 3, "A29_005": "第一種中高層住居専用地域", "A29_006": 60, "A29_007": 200, "A29_008": null }, "geometry": { "type": "Polygon", "coordinates": [ [ [ 135.950347935, 35.606764688 ], [ 135.950664431, 35.606146278 ], [ 135.95176441699999, 35.606529278 ], [ 135.952322417, 35.606716667 ], [ 135.952819621, 35.605805696 ], [ 135.952680758000014, 35.605689554 ], [ 135.952556437999988, 35.605544979 ], [ 135.952456659, 35.605384674 ], [ 135.952348175999987, 35.60512706 ], [ 135.95229572, 35.604943878 ], [ 135.952259074000011, 35.604692016 ], [ 135.952003256000012, 35.604696208 ], [ 135.951917299, 35.604865025 ], [ 135.951470581, 35.604724613 ], [ 135.95141094499999, 35.604827618 ], [ 135.951176968, 35.60516367 ], [ 135.951040217000013, 35.605065005 ], [ 135.950938627999989, 35.605004148 ], [ 135.95083176899999, 35.604966185 ], [ 135.95075468600001, 35.604946835 ], [ 135.950668831, 35.604943938 ], [ 135.950505881999987, 35.604939579 ], [ 135.950317305999988, 35.604879333 ], [ 135.949707953, 35.604645904 ], [ 135.95060695699999, 35.602985421 ], [ 135.950628905, 35.602908874 ], [ 135.95062894099999, 35.602850921 ], [ 135.950620221, 35.602784378 ], [ 135.95059954300001, 35.60275165 ], [ 135.950537927999989, 35.602692764 ], [ 135.95046961599999, 35.602659108 ], [ 135.950358380000011, 35.602621142 ], [ 135.950238375999987, 35.602593905 ], [ 135.94981327, 35.602530041 ], [ 135.94974188899999, 35.602531361 ], [ 135.94953496299999, 35.602495592 ], [ 135.949445614000012, 35.602481961 ], [ 135.949331733, 35.602470465 ], [ 135.94925552399999, 35.60245827 ], [ 135.949168808, 35.602436054 ], [ 135.949022536, 35.602390202 ], [ 135.948792327, 35.602295981 ], [ 135.948452722000013, 35.602033222 ], [ 135.947896393, 35.601400839 ], [ 135.947722131, 35.601740375 ], [ 135.946785221999988, 35.6014215 ], [ 135.946570959000013, 35.601365677 ], [ 135.946495340000013, 35.60134728 ], [ 135.946311366, 35.601309208 ], [ 135.946220149, 35.60129767 ], [ 135.94603327199999, 35.601278507 ], [ 135.945893844000011, 35.601264732 ], [ 135.945776308, 35.601264679 ], [ 135.945677748, 35.601272982 ], [ 135.945542676, 35.601294981 ], [ 135.94535941, 35.601333653 ], [ 135.94526303399999, 35.6013509 ], [ 135.944905984, 35.601440172 ], [ 135.94461099099999, 35.601523508 ], [ 135.944066292, 35.601652639 ], [ 135.94400349899999, 35.601666323 ], [ 135.94388156, 35.60169727 ], [ 135.943712874999989, 35.601762776 ], [ 135.943517555999989, 35.601843413 ], [ 135.943382786, 35.601920026 ], [ 135.943296600999986, 35.601976031 ], [ 135.94324181799999, 35.602017741 ], [ 135.94317607, 35.602080314 ], [ 135.94311177899999, 35.602147062 ], [ 135.943062091, 35.602210238 ], [ 135.94301485599999, 35.602279204 ], [ 135.942966055999989, 35.602387472 ], [ 135.942922449, 35.602547908 ], [ 135.94289923299999, 35.602683976 ], [ 135.942833716, 35.603054987 ], [ 135.942841472, 35.603670724 ], [ 135.942940136, 35.60363392 ], [ 135.942941929, 35.603576683 ], [ 135.942985752999988, 35.603548085 ], [ 135.942982382, 35.603360629 ], [ 135.94352553600001, 35.603370902 ], [ 135.943478078, 35.603585522 ], [ 135.943649744, 35.603647133 ], [ 135.943784713000014, 35.603569925 ], [ 135.944192872, 35.6036989 ], [ 135.944184080000014, 35.603743255 ], [ 135.944178806999986, 35.603767579 ], [ 135.944182289999986, 35.60379763 ], [ 135.944220822, 35.603819112 ], [ 135.944268118, 35.603836306 ], [ 135.944255801999986, 35.603910709 ], [ 135.944364420999989, 35.603930793 ], [ 135.94446263, 35.603802053 ], [ 135.944620237, 35.603926618 ], [ 135.944667533, 35.603943811 ], [ 135.944734103, 35.603961013 ], [ 135.94483395200001, 35.603995401 ], [ 135.944928513, 35.604075578 ], [ 135.945012607, 35.604088495 ], [ 135.945127832999987, 35.604112028 ], [ 135.945820271, 35.604203336 ], [ 135.945871127, 35.604138967 ], [ 135.946063823, 35.604199153 ], [ 135.94603743, 35.6043637 ], [ 135.94637552099999, 35.604476896 ], [ 135.946424661, 35.604358149 ], [ 135.946459694999987, 35.604371043 ], [ 135.94648245799999, 35.604393949 ], [ 135.94650521599999, 35.604424009 ], [ 135.94651392899999, 35.60449556 ], [ 135.946515577000014, 35.604652965 ], [ 135.94651731499999, 35.604672999 ], [ 135.946531325, 35.604684453 ], [ 135.946569866, 35.604694487 ], [ 135.946914338999989, 35.604715494 ], [ 135.946924865999989, 35.604687389 ], [ 135.947154071999989, 35.604741151 ], [ 135.947167172, 35.604804357 ], [ 135.94834618499999, 35.605100579 ], [ 135.948344694000014, 35.605408667 ], [ 135.948526928, 35.605470456 ], [ 135.948530236000011, 35.605905584 ], [ 135.94851702299999, 35.606016477 ], [ 135.948461129, 35.606198263 ], [ 135.948374527999988, 35.606519194 ], [ 135.948792731999987, 35.606631041 ], [ 135.948870129, 35.606631704 ], [ 135.948905110999988, 35.606627306 ], [ 135.948958, 35.606594861 ], [ 135.948971699, 35.606565343 ], [ 135.950211626, 35.607054229 ], [ 135.950347935, 35.606764688 ] ] ] } },
{ "type": "Feature", "properties": { "A29_001": "18442", "A29_002": "福井県", "A29_003": "美浜町", "A29_004": 9, "A29_005": "商業地域", "A29_006": 80, "A29_007": 300, "A29_008": null }, "geometry": { "type": "Polygon", "coordinates": [ [ [ 135.907537639, 35.614314639 ], [ 135.90755651500001, 35.614276681 ], [ 135.90788955299999, 35.614416609 ], [ 135.90791718700001, 35.614363494 ], [ 135.907985652, 35.614256225 ], [ 135.908106752, 35.61409319 ], [ 135.908327842, 35.613837219 ], [ 135.908615534, 35.613569851 ], [ 135.90896808299999, 35.613282497 ], [ 135.90910310000001, 35.613206759 ], [ 135.90926787699999, 35.6131568 ], [ 135.909429122, 35.613131164 ], [ 135.90963415600001, 35.613122733 ], [ 135.90969217599999, 35.612951063 ], [ 135.909597577, 35.612926666 ], [ 135.909508248, 35.612890825 ], [ 135.90940316699999, 35.612837801 ], [ 135.90933138299999, 35.612783371 ], [ 135.909250851, 35.612716056 ], [ 135.90916158600001, 35.612624408 ], [ 135.909096361, 35.612524611 ], [ 135.909061129, 35.612447302 ], [ 135.909006855, 35.612339694 ], [ 135.908961889000011, 35.612264639 ], [ 135.908952222000011, 35.612224861 ], [ 135.908952333, 35.612146472 ], [ 135.90895022399999, 35.612032314 ], [ 135.908999805, 35.611576356 ], [ 135.90989142, 35.61036193 ], [ 135.909952556, 35.610274926 ], [ 135.910063623000013, 35.610195115 ], [ 135.910217014000011, 35.610135606 ], [ 135.910485740000013, 35.610097648 ], [ 135.910777835, 35.610053743 ], [ 135.91086252299999, 35.610058576 ], [ 135.910925291000012, 35.610078894 ], [ 135.91099824599999, 35.610130224 ], [ 135.911081319, 35.610274572 ], [ 135.911158578999988, 35.610395067 ], [ 135.911260680999987, 35.610498886 ], [ 135.911335054, 35.610588375 ], [ 135.91136857, 35.6106516 ], [ 135.91136266399999, 35.610711218 ], [ 135.91135235199999, 35.610792298 ], [ 135.911343536, 35.610842374 ], [ 135.91143538899999, 35.610971227 ], [ 135.911481979, 35.611096469 ], [ 135.91148327799999, 35.611243142 ], [ 135.911455318, 35.611438684 ], [ 135.911469821999987, 35.611528129 ], [ 135.91151490199999, 35.611698683 ], [ 135.911536794999989, 35.611708239 ], [ 135.911875603999988, 35.611683446 ], [ 135.911885848999987, 35.611661989 ], [ 135.91184661599999, 35.611485477 ], [ 135.91184242599999, 35.611311375 ], [ 135.911855779, 35.6111194 ], [ 135.911825259000011, 35.610987015 ], [ 135.911823938, 35.610859421 ], [ 135.911682705, 35.610486079 ], [ 135.912140251000011, 35.610036858 ], [ 135.912404764, 35.609843872 ], [ 135.912645871, 35.609687836 ], [ 135.912813906999986, 35.609586599 ], [ 135.9124098, 35.60905924 ], [ 135.91221715899999, 35.609143764 ], [ 135.911990722000013, 35.609237803 ], [ 135.911745268, 35.609362831 ], [ 135.911470471, 35.60949551 ], [ 135.911147672, 35.609693895 ], [ 135.91096650599999, 35.609782003 ], [ 135.910779534999989, 35.60983791 ], [ 135.910637869999988, 35.609858077 ], [ 135.910544404, 35.60986874 ], [ 135.910394, 35.609868628 ], [ 135.91027428699999, 35.609845882 ], [ 135.910180872000012, 35.609810039 ], [ 135.910135634999989, 35.609783771 ], [ 135.910167933, 35.609628776 ], [ 135.910172507999988, 35.609454681 ], [ 135.910140012, 35.609019186 ], [ 135.91013175, 35.608759472 ], [ 135.910050033, 35.608544604 ], [ 135.90989384299999, 35.607941246 ], [ 135.909888077, 35.607874464 ], [ 135.909780068, 35.60783384 ], [ 135.909677939, 35.607758638 ], [ 135.909607985, 35.607638148 ], [ 135.909561395, 35.607491183 ], [ 135.909516171, 35.607480675 ], [ 135.909482618999988, 35.607452031 ], [ 135.909447644000011, 35.607389997 ], [ 135.90943601399999, 35.607344675 ], [ 135.909436053, 35.607310093 ], [ 135.90939822499999, 35.607188434 ], [ 135.9092817, 35.606931969 ], [ 135.90919260199999, 35.606955751 ], [ 135.909144357, 35.607008182 ], [ 135.909131128000013, 35.607085682 ], [ 135.909142675, 35.607204936 ], [ 135.909182009, 35.607284861 ], [ 135.909237399, 35.607370759 ], [ 135.90928985799999, 35.607466195 ], [ 135.909326289, 35.607531808 ], [ 135.909337920000013, 35.607575937 ], [ 135.9093291, 35.607628399 ], [ 135.909305698999987, 35.60766177 ], [ 135.909245786000014, 35.607702268 ], [ 135.909200485000014, 35.607733238 ], [ 135.909163925, 35.607782101 ], [ 135.90914048499999, 35.607850054 ], [ 135.909122801, 35.607993135 ], [ 135.909127016000014, 35.60813981 ], [ 135.909161611, 35.60823775 ], [ 135.909235142999989, 35.608503824 ], [ 135.90929727299999, 35.608664208 ], [ 135.909372915, 35.608915092 ], [ 135.90945721599999, 35.60926216 ], [ 135.909494998000014, 35.609425555 ], [ 135.909512414, 35.609519772 ], [ 135.909505053, 35.609573427 ], [ 135.909475764, 35.60964853 ], [ 135.909420176999987, 35.609735537 ], [ 135.909332428999988, 35.609854717 ], [ 135.909098467, 35.610141922 ], [ 135.908947907, 35.610280134 ], [ 135.908738899000014, 35.610450497 ], [ 135.908576704000012, 35.61054577 ], [ 135.908389706, 35.610621945 ], [ 135.90820415499999, 35.610710046 ], [ 135.908090189, 35.610768389 ], [ 135.908031705000013, 35.610832737 ], [ 135.907974615, 35.610955517 ], [ 135.907882328, 35.611209439 ], [ 135.907830864, 35.611519438 ], [ 135.90779999, 35.611700668 ], [ 135.90771948599999, 35.611866358 ], [ 135.907649271, 35.611972432 ], [ 135.907413928000011, 35.612180931 ], [ 135.90698128299999, 35.612529988 ], [ 135.906918421, 35.612590754 ], [ 135.906865761, 35.612668223 ], [ 135.906687207, 35.613012705 ], [ 135.906630057, 35.613183181 ], [ 135.906615312000014, 35.613305993 ], [ 135.90656397, 35.613505093 ], [ 135.907067694, 35.613723417 ], [ 135.906973889, 35.613892722 ], [ 135.906832306000013, 35.614119917 ], [ 135.906651778, 35.6143355 ], [ 135.906211055999989, 35.614795667 ], [ 135.906204, 35.614863667 ], [ 135.906204, 35.614927333 ], [ 135.906364583, 35.615067778 ], [ 135.906433990000011, 35.615201826 ], [ 135.90649216700001, 35.615183361 ], [ 135.906674833000011, 35.615077972 ], [ 135.906864278, 35.614979111 ], [ 135.90703761099999, 35.614857194 ], [ 135.90722702799999, 35.614700667 ], [ 135.90735083300001, 35.614579583 ], [ 135.907537639, 35.614314639 ] ] ] } }
]
}
