{
"type": "FeatureCollection",
"name": "A29-19_34214",
"features": [
{ "type": "Feature", "properties": { "A29_001": "34214", "A29_002": "広島県", "A29_003": "安芸高田市", "A29_004": 5, "A29_005": "第一種住居地域", "A29_006": 60, "A29_007": 200, "A29_008": "条件付き公開" }, "geometry": { "type": "Polygon", "coordinates": [ [ [ 132.699931733999989, 34.663821899 ], [ 132.698812936, 34.661070677 ], [ 132.69840711099999, 34.660230583 ], [ 132.698452806, 34.660135556 ], [ 132.698493194, 34.660112361 ], [ 132.698509628000011, 34.660103552 ], [ 132.698598733000011, 34.660055792 ], [ 132.698703666, 34.660015652 ], [ 132.698766715, 34.659982276 ], [ 132.69874669399999, 34.659959167 ], [ 132.69858775, 34.659749701 ], [ 132.698435499999988, 34.659549056 ], [ 132.698458254, 34.659474976 ], [ 132.69848531400001, 34.659412087 ], [ 132.698665462, 34.659237442 ], [ 132.698750267, 34.65916768 ], [ 132.69929180599999, 34.659544586 ], [ 132.699810816, 34.660074879 ], [ 132.700212964, 34.660469504 ], [ 132.70023319500001, 34.660489246 ], [ 132.700007255, 34.660636629 ], [ 132.70006623099999, 34.660691897 ], [ 132.70034794099999, 34.660984362 ], [ 132.701027552999989, 34.661650912 ], [ 132.701426112, 34.662091145 ], [ 132.701763585, 34.662418726 ], [ 132.70220987, 34.662843043 ], [ 132.70282512599999, 34.663434793 ], [ 132.703119378999986, 34.663411908 ], [ 132.703433026999988, 34.663424921 ], [ 132.703654086, 34.663473681 ], [ 132.703801031000012, 34.663248917 ], [ 132.70421613900001, 34.662929639 ], [ 132.704332193999988, 34.662836389 ], [ 132.704466806, 34.662743139 ], [ 132.70465047, 34.662645756 ], [ 132.70471863899999, 34.662609611 ], [ 132.704928222, 34.662538639 ], [ 132.705072895, 34.662483103 ], [ 132.705129312, 34.662460289 ], [ 132.705142308, 34.662456457 ], [ 132.705519627, 34.662345199 ], [ 132.70573068499999, 34.662297985 ], [ 132.706326159000014, 34.662185686 ], [ 132.706812113000012, 34.66207822 ], [ 132.707277878000014, 34.661943861 ], [ 132.70777689499999, 34.661739725 ], [ 132.707872098, 34.661688501 ], [ 132.707985283, 34.661631745 ], [ 132.708116155999988, 34.661559679 ], [ 132.708137943999986, 34.661538417 ], [ 132.708143194, 34.661489111 ], [ 132.708084722, 34.661434889 ], [ 132.70797831199999, 34.661402788 ], [ 132.707605083, 34.661290194 ], [ 132.706477721999988, 34.660972694 ], [ 132.705390222, 34.660668083 ], [ 132.704789389000013, 34.660509222 ], [ 132.704376528000012, 34.660396806 ], [ 132.704069083, 34.660332278 ], [ 132.703942583000014, 34.660319194 ], [ 132.703781021, 34.660317496 ], [ 132.703692889, 34.660289694 ], [ 132.703535278, 34.660205361 ], [ 132.703481305999986, 34.660182472 ], [ 132.703338306, 34.660143917 ], [ 132.703198944, 34.660123444 ], [ 132.70305790399999, 34.660125724 ], [ 132.70283846, 34.660117148 ], [ 132.702720094, 34.660115283 ], [ 132.702588068000011, 34.660110515 ], [ 132.70245036099999, 34.660042111 ], [ 132.702278167, 34.659972833 ], [ 132.702176028, 34.659948722 ], [ 132.701735417, 34.659822667 ], [ 132.701676056, 34.659791278 ], [ 132.701495306, 34.659751472 ], [ 132.70046547199999, 34.658949444 ], [ 132.700395222, 34.658878194 ], [ 132.700200306, 34.658719028 ], [ 132.7, 34.6585535 ], [ 132.69984752799999, 34.6584275 ], [ 132.6998045, 34.658390778 ], [ 132.699506807, 34.658147606 ], [ 132.699406998, 34.658117716 ], [ 132.699287878, 34.658111586 ], [ 132.6991342, 34.658127924 ], [ 132.698721726, 34.658194131 ], [ 132.6981045, 34.658321111 ], [ 132.697985913999986, 34.65833922 ], [ 132.697401579, 34.658450028 ], [ 132.69672992400001, 34.65798945 ], [ 132.695368059, 34.657286094 ], [ 132.694101057000012, 34.656688852 ], [ 132.694004138999986, 34.656654333 ], [ 132.693973527999987, 34.656876278 ], [ 132.693928389, 34.6570115 ], [ 132.693828516999986, 34.65710265 ], [ 132.693818749, 34.65724002 ], [ 132.693913998, 34.65730806 ], [ 132.694075572, 34.657290042 ], [ 132.69412566599999, 34.657219814 ], [ 132.694142844, 34.657195732 ], [ 132.694195403, 34.657202737 ], [ 132.694214765999988, 34.657205318 ], [ 132.69427027099999, 34.657126528 ], [ 132.69428994399999, 34.657098602 ], [ 132.69432409699999, 34.657108157 ], [ 132.694379930999986, 34.657123779 ], [ 132.694359609, 34.657224484 ], [ 132.69471757299999, 34.657641898 ], [ 132.694884167, 34.657707155 ], [ 132.694739277999986, 34.65783809 ], [ 132.69499633, 34.658081097 ], [ 132.69508417, 34.658082366 ], [ 132.695590928, 34.65835398 ], [ 132.695648205999987, 34.658277798 ], [ 132.695678023999989, 34.658238139 ], [ 132.69570860499999, 34.658251401 ], [ 132.695900212, 34.658334493 ], [ 132.696147155, 34.658242701 ], [ 132.69633804099999, 34.658321252 ], [ 132.696216275000012, 34.65847848 ], [ 132.696605683, 34.658659054 ], [ 132.696510504, 34.65875926 ], [ 132.696520733999989, 34.658817196 ], [ 132.69666773599999, 34.658999398 ], [ 132.696576574, 34.65910371 ], [ 132.69681735099999, 34.6592973 ], [ 132.696897363, 34.659218677 ], [ 132.69691425, 34.659202083 ], [ 132.696923027999986, 34.65915275 ], [ 132.69691383899999, 34.659089048 ], [ 132.69700712, 34.65904673 ], [ 132.697101881, 34.658986066 ], [ 132.69731330499999, 34.659281122 ], [ 132.697272016999989, 34.65938027 ], [ 132.69732850299999, 34.659464379 ], [ 132.697395946, 34.659538506 ], [ 132.69754134199999, 34.659667753 ], [ 132.69758496599999, 34.659934776 ], [ 132.69764040699999, 34.66007205 ], [ 132.697666096, 34.660135657 ], [ 132.697385228, 34.660151574 ], [ 132.697350806, 34.660153525 ], [ 132.69727543499999, 34.660229728 ], [ 132.697244471, 34.660339649 ], [ 132.697225658, 34.660406437 ], [ 132.697149798, 34.660405942 ], [ 132.697100345, 34.660477084 ], [ 132.697023863, 34.660471021 ], [ 132.69694256299999, 34.660464575 ], [ 132.69690562299999, 34.660619785 ], [ 132.69702013599999, 34.660733925 ], [ 132.697098129000011, 34.660755853 ], [ 132.697120528, 34.660805639 ], [ 132.697147819, 34.660852129 ], [ 132.697193349, 34.660916733 ], [ 132.697177614999987, 34.660925037 ], [ 132.696977449, 34.66103068 ], [ 132.69687023, 34.661096221 ], [ 132.696977866, 34.661216813 ], [ 132.696958028000012, 34.661384056 ], [ 132.69706341700001, 34.661608917 ], [ 132.697081817, 34.661703772 ], [ 132.6971054, 34.661818487 ], [ 132.69723536399999, 34.661850911 ], [ 132.697293695000013, 34.661919935 ], [ 132.697300707000011, 34.661987141 ], [ 132.697358817, 34.662046043 ], [ 132.697439803, 34.662070497 ], [ 132.69750955, 34.66211693 ], [ 132.69758381, 34.662179286 ], [ 132.697582051000012, 34.662216407 ], [ 132.697686175, 34.662266262 ], [ 132.697732484999989, 34.66233637 ], [ 132.69775201600001, 34.66249525 ], [ 132.69781638, 34.662570845 ], [ 132.697854245, 34.662560784 ], [ 132.697859728999987, 34.662607297 ], [ 132.697757129, 34.662670896 ], [ 132.697730224, 34.66283431 ], [ 132.697590443, 34.662954678 ], [ 132.69759028499999, 34.662996217 ], [ 132.697688169, 34.663126448 ], [ 132.69793902699999, 34.663020614 ], [ 132.697917561, 34.662989263 ], [ 132.697862453999988, 34.662908784 ], [ 132.698056309, 34.662915573 ], [ 132.698102232999986, 34.662912876 ], [ 132.69826465700001, 34.662889111 ], [ 132.69881549499999, 34.662680848 ], [ 132.698862639999987, 34.662685047 ], [ 132.698897299, 34.662704646 ], [ 132.698897722999988, 34.66270665 ], [ 132.699086537999989, 34.662968729 ], [ 132.69923461499999, 34.662978107 ], [ 132.69938702799999, 34.6631455 ], [ 132.699530055999986, 34.663361167 ], [ 132.699554861, 34.663385861 ], [ 132.699617776999986, 34.663416515 ], [ 132.69970365899999, 34.663470774 ], [ 132.69971869, 34.66354439 ], [ 132.699732297999986, 34.663714668 ], [ 132.699790931, 34.663824991 ], [ 132.699876308, 34.663900537 ], [ 132.699922363000013, 34.663993606 ], [ 132.699957325000014, 34.663919162 ], [ 132.699931733999989, 34.663821899 ] ] ] } },
{ "type": "Feature", "properties": { "A29_001": "34214", "A29_002": "広島県", "A29_003": "安芸高田市", "A29_004": 5, "A29_005": "第一種住居地域", "A29_006": 60, "A29_007": 200, "A29_008": "条件付き公開" }, "geometry": { "type": "Polygon", "coordinates": [ [ [ 132.71129299, 34.665457163 ], [ 132.71180113599999, 34.66525623 ], [ 132.711882053000011, 34.665330654 ], [ 132.711939605, 34.665364216 ], [ 132.71210776800001, 34.665239608 ], [ 132.712306157, 34.665108573 ], [ 132.71323775, 34.664505167 ], [ 132.713362104999987, 34.664412959 ], [ 132.713220162, 34.664307589 ], [ 132.71231578199999, 34.66372164 ], [ 132.71144968199999, 34.663161998 ], [ 132.71096357499999, 34.662931307 ], [ 132.710490131, 34.66270857 ], [ 132.710110805999989, 34.662511556 ], [ 132.709847639, 34.662375361 ], [ 132.709663889000012, 34.6622955 ], [ 132.709448444, 34.662209278 ], [ 132.709193139, 34.662103861 ], [ 132.708994694000012, 34.662037444 ], [ 132.708879661999987, 34.662007961 ], [ 132.70860658, 34.66204705 ], [ 132.70820719, 34.6621204 ], [ 132.70815297499999, 34.662127287 ], [ 132.70783552, 34.662200655 ], [ 132.707679434, 34.662154241 ], [ 132.707359770000011, 34.66224655 ], [ 132.70713071, 34.66229479 ], [ 132.70696054199999, 34.662337247 ], [ 132.707091794, 34.662817807 ], [ 132.70712018899999, 34.662955739 ], [ 132.707322334, 34.663154881 ], [ 132.707669122999988, 34.663307413 ], [ 132.707823244, 34.663342028 ], [ 132.708114784, 34.663517087 ], [ 132.708311645, 34.663724973 ], [ 132.708487305, 34.663910088 ], [ 132.708646742000013, 34.664005806 ], [ 132.70895072, 34.664126728 ], [ 132.70926557300001, 34.664254559 ], [ 132.709763841000012, 34.664648984 ], [ 132.71026838899999, 34.665083143 ], [ 132.710500016999987, 34.665231989 ], [ 132.710561750000011, 34.665237222 ], [ 132.710732167, 34.665265167 ], [ 132.710918361000012, 34.66531775 ], [ 132.711090555999988, 34.665376139 ], [ 132.71129299, 34.665457163 ] ] ] } },
{ "type": "Feature", "properties": { "A29_001": "34214", "A29_002": "広島県", "A29_003": "安芸高田市", "A29_004": 5, "A29_005": "第一種住居地域", "A29_006": 60, "A29_007": 200, "A29_008": "条件付き公開" }, "geometry": { "type": "Polygon", "coordinates": [ [ [ 132.703379302, 34.663969439 ], [ 132.70312077, 34.663899207 ], [ 132.7029981, 34.66390671 ], [ 132.702905011000013, 34.66391201 ], [ 132.702722091999988, 34.663936322 ], [ 132.70260447199999, 34.663931081 ], [ 132.70251279499999, 34.66389694 ], [ 132.70226389699999, 34.6636591 ], [ 132.700906586, 34.662318866 ], [ 132.70088152, 34.66233081 ], [ 132.700793143999988, 34.662394762 ], [ 132.700671277999987, 34.662255917 ], [ 132.699858978, 34.661337912 ], [ 132.699687837999988, 34.661165834 ], [ 132.700003931, 34.661940341 ], [ 132.700269595, 34.662621433 ], [ 132.70046776800001, 34.663099871 ], [ 132.70064993299999, 34.663526562 ], [ 132.700864789, 34.664047867 ], [ 132.700853883, 34.664064784 ], [ 132.700776388, 34.664116864 ], [ 132.700790278, 34.664163444 ], [ 132.700992332999988, 34.664461528 ], [ 132.701127611, 34.664629806 ], [ 132.70142452799999, 34.664993167 ], [ 132.701721416999987, 34.665343472 ], [ 132.701864147, 34.665501919 ], [ 132.70214072499999, 34.665720169 ], [ 132.702324190000013, 34.665870936 ], [ 132.702630932, 34.665431448 ], [ 132.702772641, 34.665181362 ], [ 132.702963111, 34.664788172 ], [ 132.702892835, 34.664706379 ], [ 132.70303123, 34.664683666 ], [ 132.703187893, 34.6643822 ], [ 132.70334033099999, 34.664051859 ], [ 132.703379302, 34.663969439 ] ] ] } },
{ "type": "Feature", "properties": { "A29_001": "34214", "A29_002": "広島県", "A29_003": "安芸高田市", "A29_004": 5, "A29_005": "第一種住居地域", "A29_006": 60, "A29_007": 200, "A29_008": "条件付き公開" }, "geometry": { "type": "Polygon", "coordinates": [ [ [ 132.703545057000014, 34.665905861 ], [ 132.70413277099999, 34.665578675 ], [ 132.70422230599999, 34.665709417 ], [ 132.704500397, 34.66610786 ], [ 132.704767475000011, 34.665974779 ], [ 132.705945388, 34.665411162 ], [ 132.705691634, 34.66505345 ], [ 132.705325243, 34.664372449 ], [ 132.705129649000014, 34.663764871 ], [ 132.703661759, 34.664144456 ], [ 132.703620667, 34.664377064 ], [ 132.703612189000012, 34.664456322 ], [ 132.703556674999987, 34.664571137 ], [ 132.70308065899999, 34.665379006 ], [ 132.702714738, 34.665925129 ], [ 132.702584333, 34.666124176 ], [ 132.703013621999986, 34.666375962 ], [ 132.703311259, 34.666055114 ], [ 132.703545057000014, 34.665905861 ] ] ] } },
{ "type": "Feature", "properties": { "A29_001": "34214", "A29_002": "広島県", "A29_003": "安芸高田市", "A29_004": 8, "A29_005": "近隣商業地域", "A29_006": 80, "A29_007": 200, "A29_008": "条件付き公開" }, "geometry": { "type": "Polygon", "coordinates": [ [ [ 132.70214072499999, 34.665720169 ], [ 132.701864147, 34.665501919 ], [ 132.701721416999987, 34.665343472 ], [ 132.70142452799999, 34.664993167 ], [ 132.701127611, 34.664629806 ], [ 132.700992332999988, 34.664461528 ], [ 132.700790278, 34.664163444 ], [ 132.700776388, 34.664116864 ], [ 132.700853883, 34.664064784 ], [ 132.700864789, 34.664047867 ], [ 132.70064993299999, 34.663526562 ], [ 132.70046776800001, 34.663099871 ], [ 132.700269595, 34.662621433 ], [ 132.700003931, 34.661940341 ], [ 132.699687837999988, 34.661165834 ], [ 132.699858978, 34.661337912 ], [ 132.700671277999987, 34.662255917 ], [ 132.700793143999988, 34.662394762 ], [ 132.70088152, 34.66233081 ], [ 132.700906586, 34.662318866 ], [ 132.70226389699999, 34.6636591 ], [ 132.70251279499999, 34.66389694 ], [ 132.70260447199999, 34.663931081 ], [ 132.702722091999988, 34.663936322 ], [ 132.702905011000013, 34.66391201 ], [ 132.7029981, 34.66390671 ], [ 132.70312077, 34.663899207 ], [ 132.703379302, 34.663969439 ], [ 132.703654086, 34.663473681 ], [ 132.703433026999988, 34.663424921 ], [ 132.703119378999986, 34.663411908 ], [ 132.70282512599999, 34.663434793 ], [ 132.70220987, 34.662843043 ], [ 132.701763585, 34.662418726 ], [ 132.701426112, 34.662091145 ], [ 132.701027552999989, 34.661650912 ], [ 132.70034794099999, 34.660984362 ], [ 132.70006623099999, 34.660691897 ], [ 132.700007255, 34.660636629 ], [ 132.70023319500001, 34.660489246 ], [ 132.700212964, 34.660469504 ], [ 132.699810816, 34.660074879 ], [ 132.69929180599999, 34.659544586 ], [ 132.698750267, 34.65916768 ], [ 132.698665462, 34.659237442 ], [ 132.69848531400001, 34.659412087 ], [ 132.698458254, 34.659474976 ], [ 132.698435499999988, 34.659549056 ], [ 132.69858775, 34.659749701 ], [ 132.69874669399999, 34.659959167 ], [ 132.698766715, 34.659982276 ], [ 132.698703666, 34.660015652 ], [ 132.698598733000011, 34.660055792 ], [ 132.698509628000011, 34.660103552 ], [ 132.698493194, 34.660112361 ], [ 132.698452806, 34.660135556 ], [ 132.69840711099999, 34.660230583 ], [ 132.698812936, 34.661070677 ], [ 132.699931733999989, 34.663821899 ], [ 132.699957325000014, 34.663919162 ], [ 132.699922363000013, 34.663993606 ], [ 132.699882169, 34.664084068 ], [ 132.6997509, 34.66419665 ], [ 132.699667806, 34.664268509 ], [ 132.699682894, 34.664301407 ], [ 132.699510554, 34.664400127 ], [ 132.69943027799999, 34.664446111 ], [ 132.70003799700001, 34.665112302 ], [ 132.700083271000011, 34.665160898 ], [ 132.700289778000013, 34.665029278 ], [ 132.70096858299999, 34.665729583 ], [ 132.700997558000012, 34.665758421 ], [ 132.701052963, 34.665718706 ], [ 132.70108525099999, 34.665697086 ], [ 132.701166371, 34.665788306 ], [ 132.701616833, 34.666222528 ], [ 132.701955688, 34.666440494 ], [ 132.702028917, 34.666353417 ], [ 132.702107009, 34.666122932 ], [ 132.702156701, 34.665960072 ], [ 132.702252816, 34.665915458 ], [ 132.702324190000013, 34.665870936 ], [ 132.70214072499999, 34.665720169 ] ] ] } },
{ "type": "Feature", "properties": { "A29_001": "34214", "A29_002": "広島県", "A29_003": "安芸高田市", "A29_004": 5, "A29_005": "第一種住居地域", "A29_006": 60, "A29_007": 200, "A29_008": "条件付き公開" }, "geometry": { "type": "Polygon", "coordinates": [ [ [ 132.709071139, 34.665296111 ], [ 132.708417469000011, 34.664528083 ], [ 132.707248937, 34.665335964 ], [ 132.706550657, 34.665685647 ], [ 132.705113441, 34.66635703 ], [ 132.70423264199999, 34.666803388 ], [ 132.70471699, 34.66691349 ], [ 132.70529757, 34.66701541 ], [ 132.70592894, 34.66707275 ], [ 132.70657997, 34.66709133 ], [ 132.707593206000013, 34.667022133 ], [ 132.708888452999986, 34.666919338 ], [ 132.709941813, 34.666299055 ], [ 132.70988617399999, 34.666234259 ], [ 132.709288500000014, 34.665538222 ], [ 132.709071139, 34.665296111 ] ] ] } },
{ "type": "Feature", "properties": { "A29_001": "34214", "A29_002": "広島県", "A29_003": "安芸高田市", "A29_004": 10, "A29_005": "準工業地域", "A29_006": 60, "A29_007": 200, "A29_008": "条件付き公開" }, "geometry": { "type": "Polygon", "coordinates": [ [ [ 132.714042705, 34.667739621 ], [ 132.713389174000014, 34.667160015 ], [ 132.71308174699999, 34.666883047 ], [ 132.712700896, 34.666417778 ], [ 132.71243075699999, 34.666138405 ], [ 132.712326531, 34.666023557 ], [ 132.711755083000014, 34.665414724 ], [ 132.711882053000011, 34.665330654 ], [ 132.71180113599999, 34.66525623 ], [ 132.71129299, 34.665457163 ], [ 132.710644937000012, 34.665864052 ], [ 132.709962052, 34.666287137 ], [ 132.709941813, 34.666299055 ], [ 132.708888452999986, 34.666919338 ], [ 132.708807068999988, 34.666970061 ], [ 132.708360511, 34.667227149 ], [ 132.708368353999987, 34.667314054 ], [ 132.707802917, 34.667358833 ], [ 132.708059843, 34.667686822 ], [ 132.708563019, 34.667620989 ], [ 132.7099239, 34.667498548 ], [ 132.71028379399999, 34.667484936 ], [ 132.710678381, 34.66747671 ], [ 132.71116704, 34.66750575 ], [ 132.71154848, 34.66759422 ], [ 132.71185537, 34.66766584 ], [ 132.712067350000012, 34.66778514 ], [ 132.712338069999987, 34.66801724 ], [ 132.71304648899999, 34.668097366 ], [ 132.71382473, 34.668042625 ], [ 132.714650784000014, 34.667993366 ], [ 132.714329959, 34.667875516 ], [ 132.714042705, 34.667739621 ] ] ] } },
{ "type": "Feature", "properties": { "A29_001": "34214", "A29_002": "広島県", "A29_003": "安芸高田市", "A29_004": 5, "A29_005": "第一種住居地域", "A29_006": 60, "A29_007": 200, "A29_008": "条件付き公開" }, "geometry": { "type": "Polygon", "coordinates": [ [ [ 132.69947664899999, 34.668383056 ], [ 132.699881806, 34.668292361 ], [ 132.7, 34.668238333 ], [ 132.70015805599999, 34.668166111 ], [ 132.700279722, 34.668090083 ], [ 132.700345083, 34.668035333 ], [ 132.700423833, 34.667991722 ], [ 132.700614333, 34.667863111 ], [ 132.700771221999986, 34.667736944 ], [ 132.70092091699999, 34.667605722 ], [ 132.701064472000013, 34.667469444 ], [ 132.701229555999987, 34.667298417 ], [ 132.701666361, 34.666785361 ], [ 132.701765806, 34.666666667 ], [ 132.701955688, 34.666440494 ], [ 132.701616833, 34.666222528 ], [ 132.701166371, 34.665788306 ], [ 132.70091463599999, 34.666010474 ], [ 132.70085136099999, 34.666066317 ], [ 132.70072830399999, 34.665986158 ], [ 132.70063774, 34.666150071 ], [ 132.700604768, 34.666209747 ], [ 132.700566544999987, 34.666195748 ], [ 132.700517803999986, 34.666176545 ], [ 132.700353833, 34.666417472 ], [ 132.70007615, 34.66672028 ], [ 132.699968469, 34.666754312 ], [ 132.699931311, 34.666766055 ], [ 132.699518662, 34.667409938 ], [ 132.699694184, 34.66763926 ], [ 132.699626389, 34.667681861 ], [ 132.699522282, 34.667749068 ], [ 132.699755877, 34.66798698 ], [ 132.699651272000011, 34.668073514 ], [ 132.69947461699999, 34.668207884 ], [ 132.69958250900001, 34.668287861 ], [ 132.69947664899999, 34.668383056 ] ] ] } },
{ "type": "Feature", "properties": { "A29_001": "34214", "A29_002": "広島県", "A29_003": "安芸高田市", "A29_004": 8, "A29_005": "近隣商業地域", "A29_006": 80, "A29_007": 200, "A29_008": "条件付き公開" }, "geometry": { "type": "Polygon", "coordinates": [ [ [ 132.701382604, 34.670136226 ], [ 132.703817964, 34.667427502 ], [ 132.7042231, 34.667537331 ], [ 132.704778554, 34.667618639 ], [ 132.705305071999987, 34.667676521 ], [ 132.705512152000011, 34.667696813 ], [ 132.705582168, 34.667701761 ], [ 132.70575661, 34.667722592 ], [ 132.706024246999988, 34.667748892 ], [ 132.70644317, 34.66775182 ], [ 132.706989799000013, 34.667745691 ], [ 132.708059843, 34.667686822 ], [ 132.707802917, 34.667358833 ], [ 132.708368353999987, 34.667314054 ], [ 132.708360511, 34.667227149 ], [ 132.708807068999988, 34.666970061 ], [ 132.708888452999986, 34.666919338 ], [ 132.707593206000013, 34.667022133 ], [ 132.70657997, 34.66709133 ], [ 132.70592894, 34.66707275 ], [ 132.70529757, 34.66701541 ], [ 132.70471699, 34.66691349 ], [ 132.70423264199999, 34.666803388 ], [ 132.705113441, 34.66635703 ], [ 132.706550657, 34.665685647 ], [ 132.707248937, 34.665335964 ], [ 132.708417469000011, 34.664528083 ], [ 132.709071139, 34.665296111 ], [ 132.709288500000014, 34.665538222 ], [ 132.70988617399999, 34.666234259 ], [ 132.709941813, 34.666299055 ], [ 132.709962052, 34.666287137 ], [ 132.710644937000012, 34.665864052 ], [ 132.71129299, 34.665457163 ], [ 132.711090555999988, 34.665376139 ], [ 132.710918361000012, 34.66531775 ], [ 132.710732167, 34.665265167 ], [ 132.710561750000011, 34.665237222 ], [ 132.710500016999987, 34.665231989 ], [ 132.71026838899999, 34.665083143 ], [ 132.709763841000012, 34.664648984 ], [ 132.70926557300001, 34.664254559 ], [ 132.70895072, 34.664126728 ], [ 132.708646742000013, 34.664005806 ], [ 132.708487305, 34.663910088 ], [ 132.708311645, 34.663724973 ], [ 132.708114784, 34.663517087 ], [ 132.707823244, 34.663342028 ], [ 132.707669122999988, 34.663307413 ], [ 132.707322334, 34.663154881 ], [ 132.70712018899999, 34.662955739 ], [ 132.707091794, 34.662817807 ], [ 132.70696054199999, 34.662337247 ], [ 132.706322371, 34.662442465 ], [ 132.70573472, 34.66253752 ], [ 132.7050607, 34.66270367 ], [ 132.70468521, 34.66285992 ], [ 132.70434819799999, 34.663101246 ], [ 132.70396733699999, 34.663474144 ], [ 132.70384282, 34.663646228 ], [ 132.70375144799999, 34.663840157 ], [ 132.703661759, 34.664144456 ], [ 132.705129649000014, 34.663764871 ], [ 132.705325243, 34.664372449 ], [ 132.705691634, 34.66505345 ], [ 132.705945388, 34.665411162 ], [ 132.704767475000011, 34.665974779 ], [ 132.704500397, 34.66610786 ], [ 132.70422230599999, 34.665709417 ], [ 132.70413277099999, 34.665578675 ], [ 132.703545057000014, 34.665905861 ], [ 132.703311259, 34.666055114 ], [ 132.703013621999986, 34.666375962 ], [ 132.702584333, 34.666124176 ], [ 132.702482472000014, 34.666335667 ], [ 132.702444111, 34.666395833 ], [ 132.70239808299999, 34.666462917 ], [ 132.7023575, 34.666522083 ], [ 132.70234273, 34.666542341 ], [ 132.702354675, 34.666569518 ], [ 132.702265952, 34.666679822 ], [ 132.702240603, 34.666680666 ], [ 132.70220345199999, 34.666725968 ], [ 132.701812444000012, 34.66720275 ], [ 132.701609416999986, 34.667438972 ], [ 132.70159219300001, 34.66745684 ], [ 132.701566213, 34.667483788 ], [ 132.701564346, 34.667485725 ], [ 132.70162387799999, 34.66753211 ], [ 132.701518319, 34.667632327 ], [ 132.701462741, 34.667591121 ], [ 132.701442694, 34.667611917 ], [ 132.701241333000013, 34.667820778 ], [ 132.701059832999988, 34.667997722 ], [ 132.700875139, 34.668154528 ], [ 132.700805556, 34.668213611 ], [ 132.700662, 34.668320278 ], [ 132.700565611, 34.668382083 ], [ 132.700433167999989, 34.668491608 ], [ 132.70032047, 34.66857814 ], [ 132.70020064900001, 34.668656083 ], [ 132.700944068000013, 34.669588871 ], [ 132.701382604, 34.670136226 ] ] ] } },
{ "type": "Feature", "properties": { "A29_001": "34214", "A29_002": "広島県", "A29_003": "安芸高田市", "A29_004": 5, "A29_005": "第一種住居地域", "A29_006": 60, "A29_007": 200, "A29_008": "条件付き公開" }, "geometry": { "type": "Polygon", "coordinates": [ [ [ 132.7042231, 34.667537331 ], [ 132.703817964, 34.667427502 ], [ 132.701382604, 34.670136226 ], [ 132.701415360999988, 34.670177111 ], [ 132.701867028, 34.669944722 ], [ 132.702456028, 34.669640083 ], [ 132.703746786000011, 34.668898324 ], [ 132.703756809999987, 34.668891913 ], [ 132.704056071999986, 34.668700495 ], [ 132.704150848000012, 34.668633333 ], [ 132.7042457, 34.668536869 ], [ 132.704262633000013, 34.668516387 ], [ 132.704310136, 34.668448511 ], [ 132.704387454, 34.668357396 ], [ 132.704868674000011, 34.66809737 ], [ 132.705126726, 34.667946088 ], [ 132.705582168, 34.667701761 ], [ 132.705512152000011, 34.667696813 ], [ 132.705305071999987, 34.667676521 ], [ 132.704778554, 34.667618639 ], [ 132.7042231, 34.667537331 ] ] ] } },
{ "type": "Feature", "properties": { "A29_001": "34214", "A29_002": "広島県", "A29_003": "安芸高田市", "A29_004": 3, "A29_005": "第一種中高層住居専用地域", "A29_006": 60, "A29_007": 200, "A29_008": "条件付き公開" }, "geometry": { "type": "Polygon", "coordinates": [ [ [ 132.70354491399999, 34.671604824 ], [ 132.703489663999989, 34.671477912 ], [ 132.703908372, 34.671316387 ], [ 132.704134485999987, 34.671477633 ], [ 132.704148344, 34.671470503 ], [ 132.70449747, 34.67130954 ], [ 132.704659085, 34.671206919 ], [ 132.704683783, 34.670857933 ], [ 132.704647509000011, 34.670842685 ], [ 132.704681972, 34.670631344 ], [ 132.704858, 34.67050709 ], [ 132.70496641, 34.67040499 ], [ 132.704952518999988, 34.670361606 ], [ 132.70504842599999, 34.67026303 ], [ 132.705156499999987, 34.670329695 ], [ 132.705168837, 34.670335384 ], [ 132.70518658, 34.67031813 ], [ 132.705270191000011, 34.670213878 ], [ 132.705405538, 34.670139054 ], [ 132.70533922300001, 34.669973223 ], [ 132.705720062000012, 34.669821321 ], [ 132.706016352, 34.669660956 ], [ 132.70594387700001, 34.669534916 ], [ 132.706081194, 34.669434457 ], [ 132.706263465, 34.669339102 ], [ 132.706535968, 34.669304317 ], [ 132.706537553, 34.669383837 ], [ 132.706888819999989, 34.66935838 ], [ 132.707034670000013, 34.66935773 ], [ 132.707162084, 34.669356295 ], [ 132.707633886, 34.669312263 ], [ 132.707759942, 34.669289612 ], [ 132.707816677000011, 34.669215135 ], [ 132.708142004, 34.669162439 ], [ 132.70817995199999, 34.669183167 ], [ 132.708304078, 34.669250967 ], [ 132.708334364, 34.669234858 ], [ 132.708572135, 34.669108393 ], [ 132.708928691000011, 34.669006515 ], [ 132.709066721999989, 34.668900417 ], [ 132.709474277999988, 34.668859167 ], [ 132.709524222, 34.668836389 ], [ 132.709659939, 34.668796047 ], [ 132.71004445299999, 34.668676809 ], [ 132.710149384, 34.668694898 ], [ 132.710504893, 34.668596996 ], [ 132.710568634999987, 34.668531323 ], [ 132.71066428099999, 34.66851985 ], [ 132.71083391799999, 34.668495978 ], [ 132.710887738, 34.668462595 ], [ 132.710933049, 34.66843449 ], [ 132.710977079, 34.668432741 ], [ 132.71109364099999, 34.668430453 ], [ 132.711170834, 34.668459269 ], [ 132.711663918999989, 34.668429617 ], [ 132.711850472, 34.668412412 ], [ 132.711946788, 34.668413733 ], [ 132.712183528, 34.668431276 ], [ 132.712404525000011, 34.668471547 ], [ 132.712593567999988, 34.668512786 ], [ 132.712677375, 34.668547287 ], [ 132.713182210000014, 34.66870767 ], [ 132.712338069999987, 34.66801724 ], [ 132.712067350000012, 34.66778514 ], [ 132.71185537, 34.66766584 ], [ 132.71154848, 34.66759422 ], [ 132.71116704, 34.66750575 ], [ 132.710678381, 34.66747671 ], [ 132.71028379399999, 34.667484936 ], [ 132.7099239, 34.667498548 ], [ 132.708563019, 34.667620989 ], [ 132.708059843, 34.667686822 ], [ 132.706989799000013, 34.667745691 ], [ 132.70644317, 34.66775182 ], [ 132.706024246999988, 34.667748892 ], [ 132.70575661, 34.667722592 ], [ 132.705582168, 34.667701761 ], [ 132.705126726, 34.667946088 ], [ 132.704868674000011, 34.66809737 ], [ 132.704387454, 34.668357396 ], [ 132.704310136, 34.668448511 ], [ 132.704262633000013, 34.668516387 ], [ 132.7042457, 34.668536869 ], [ 132.704150848000012, 34.668633333 ], [ 132.704056071999986, 34.668700495 ], [ 132.703756809999987, 34.668891913 ], [ 132.703746786000011, 34.668898324 ], [ 132.702456028, 34.669640083 ], [ 132.701867028, 34.669944722 ], [ 132.701415360999988, 34.670177111 ], [ 132.701802472, 34.670639032 ], [ 132.70137577599999, 34.670884473 ], [ 132.701413468, 34.671091079 ], [ 132.701625197999988, 34.671084848 ], [ 132.70162914299999, 34.671085754 ], [ 132.701632163999989, 34.671087026 ], [ 132.701749774, 34.671163829 ], [ 132.701845544, 34.671170919 ], [ 132.701883333000012, 34.671174583 ], [ 132.70198133299999, 34.671128333 ], [ 132.702079074000011, 34.671064993 ], [ 132.702159884999986, 34.671071455 ], [ 132.702154213, 34.671145924 ], [ 132.70215150300001, 34.671181505 ], [ 132.702077261999989, 34.671189238 ], [ 132.702077451, 34.671189382 ], [ 132.701944192000013, 34.671209808 ], [ 132.702071284999988, 34.671306008 ], [ 132.702045822, 34.671337931 ], [ 132.702205623999987, 34.671406153 ], [ 132.70220057200001, 34.671452124 ], [ 132.702465096, 34.671505748 ], [ 132.702649947, 34.671477542 ], [ 132.702656687, 34.671445635 ], [ 132.702668628999987, 34.671389096 ], [ 132.702712514000012, 34.671394205 ], [ 132.702722075999986, 34.671439882 ], [ 132.702750033, 34.671573419 ], [ 132.702858254, 34.67160387 ], [ 132.703055586, 34.671520824 ], [ 132.70319121899999, 34.671489741 ], [ 132.703217258, 34.671547063 ], [ 132.70330708099999, 34.671544017 ], [ 132.70341167399999, 34.671675219 ], [ 132.703471578, 34.671676722 ], [ 132.703536665, 34.671652577 ], [ 132.703541312, 34.671625675 ], [ 132.70354491399999, 34.671604824 ] ] ] } },
{ "type": "Feature", "properties": { "A29_001": "34214", "A29_002": "広島県", "A29_003": "安芸高田市", "A29_004": 5, "A29_005": "第一種住居地域", "A29_006": 60, "A29_007": 200, "A29_008": "条件付き公開" }, "geometry": { "type": "Polygon", "coordinates": [ [ [ 132.700944068000013, 34.669588871 ], [ 132.70020064900001, 34.668656083 ], [ 132.69998827500001, 34.668728306 ], [ 132.699835466, 34.668783472 ], [ 132.699632301, 34.668831468 ], [ 132.699390642, 34.668874927 ], [ 132.699139809, 34.668901946 ], [ 132.698878444, 34.668917488 ], [ 132.69865756499999, 34.668930806 ], [ 132.698657156, 34.668930695 ], [ 132.698228891000014, 34.66893378 ], [ 132.69818829, 34.668932714 ], [ 132.697649641999988, 34.668930047 ], [ 132.6972697, 34.668931702 ], [ 132.69698756299999, 34.668948452 ], [ 132.696745197000013, 34.66901836 ], [ 132.696592364, 34.669078554 ], [ 132.696479503, 34.669137915 ], [ 132.69637464199999, 34.669197303 ], [ 132.69629875199999, 34.669246777 ], [ 132.696080776, 34.669407657 ], [ 132.695855053, 34.669587406 ], [ 132.695615358999987, 34.66977049 ], [ 132.69545358100001, 34.669887602 ], [ 132.69520688599999, 34.670059935 ], [ 132.695100024999988, 34.670125074 ], [ 132.694946221, 34.670217435 ], [ 132.694724498, 34.670326296 ], [ 132.69462260899999, 34.670368352 ], [ 132.694460830999986, 34.670423602 ], [ 132.69409858, 34.670555327 ], [ 132.69406333, 34.670573994 ], [ 132.69401680199999, 34.670610688 ], [ 132.69396015699999, 34.670682881 ], [ 132.693938417999988, 34.67082843 ], [ 132.693947982, 34.670962323 ], [ 132.694064067, 34.671125998 ], [ 132.69416565899999, 34.671203326 ], [ 132.694310747, 34.671267505 ], [ 132.694441708, 34.671302942 ], [ 132.694547139, 34.671342861 ], [ 132.69467325, 34.671405167 ], [ 132.694794472000012, 34.671485639 ], [ 132.6948835, 34.671562528 ], [ 132.694933472, 34.671610611 ], [ 132.694991694, 34.671682972 ], [ 132.695078827, 34.671818256 ], [ 132.69509156399999, 34.671838031 ], [ 132.69509438899999, 34.671842417 ], [ 132.695105272, 34.671860844 ], [ 132.696065573999988, 34.671862194 ], [ 132.696743970999989, 34.671838162 ], [ 132.697139082, 34.671764882 ], [ 132.698273711000013, 34.671519911 ], [ 132.69860425600001, 34.671417658 ], [ 132.69902658399999, 34.671150967 ], [ 132.699543940000012, 34.6708207 ], [ 132.69985011, 34.67064904 ], [ 132.70021885, 34.67037834 ], [ 132.70047951, 34.67012815 ], [ 132.70074928, 34.66981207 ], [ 132.700944068000013, 34.669588871 ] ] ] } },
{ "type": "Feature", "properties": { "A29_001": "34214", "A29_002": "広島県", "A29_003": "安芸高田市", "A29_004": 7, "A29_005": "準住居地域", "A29_006": 60, "A29_007": 200, "A29_008": "条件付き公開" }, "geometry": { "type": "Polygon", "coordinates": [ [ [ 132.698829518999986, 34.671939192 ], [ 132.699094481, 34.671762784 ], [ 132.699175039000011, 34.671780395 ], [ 132.69918885199999, 34.671766197 ], [ 132.699235679999987, 34.671729763 ], [ 132.69924178, 34.671739444 ], [ 132.69927565899999, 34.67179321 ], [ 132.699242321000014, 34.671809011 ], [ 132.69921168, 34.671823534 ], [ 132.699221411, 34.671916387 ], [ 132.699316028999988, 34.671917627 ], [ 132.69950405099999, 34.672050235 ], [ 132.699598822000013, 34.672060107 ], [ 132.699671927999987, 34.672043315 ], [ 132.699671259000013, 34.671989678 ], [ 132.69973563, 34.671927943 ], [ 132.700012801000014, 34.671910604 ], [ 132.700074750999988, 34.671814016 ], [ 132.700337286, 34.671807566 ], [ 132.700542227, 34.671743046 ], [ 132.700770379, 34.671628941 ], [ 132.701007076, 34.671513031 ], [ 132.70118516, 34.671454327 ], [ 132.70114837700001, 34.67119872 ], [ 132.701186385, 34.671195488 ], [ 132.701339217999987, 34.671187279 ], [ 132.701412468, 34.671185191 ], [ 132.701413468, 34.671091079 ], [ 132.70137577599999, 34.670884473 ], [ 132.701802472, 34.670639032 ], [ 132.701415360999988, 34.670177111 ], [ 132.701382604, 34.670136226 ], [ 132.700944068000013, 34.669588871 ], [ 132.70074928, 34.66981207 ], [ 132.70047951, 34.67012815 ], [ 132.70021885, 34.67037834 ], [ 132.69985011, 34.67064904 ], [ 132.699543940000012, 34.6708207 ], [ 132.69902658399999, 34.671150967 ], [ 132.69860425600001, 34.671417658 ], [ 132.698273711000013, 34.671519911 ], [ 132.697139082, 34.671764882 ], [ 132.696743970999989, 34.671838162 ], [ 132.696065573999988, 34.671862194 ], [ 132.695105272, 34.671860844 ], [ 132.69520191699999, 34.672024472 ], [ 132.695275861, 34.672154111 ], [ 132.69545008599999, 34.672392044 ], [ 132.695522227, 34.672509379 ], [ 132.69675985500001, 34.672488522 ], [ 132.698715797, 34.67205191 ], [ 132.69875073899999, 34.671993209 ], [ 132.698829518999986, 34.671939192 ] ] ] } },
{ "type": "Feature", "properties": { "A29_001": "34214", "A29_002": "広島県", "A29_003": "安芸高田市", "A29_004": 12, "A29_005": "工業専用地域", "A29_006": 60, "A29_007": 200, "A29_008": "条件付き公開" }, "geometry": { "type": "Polygon", "coordinates": [ [ [ 132.717259678, 34.672595195 ], [ 132.717330937000014, 34.672453712 ], [ 132.71741655, 34.672488698 ], [ 132.71776416099999, 34.671825476 ], [ 132.718014487, 34.671106609 ], [ 132.71819594499999, 34.670527227 ], [ 132.718289671, 34.670145071 ], [ 132.718287153, 34.669765339 ], [ 132.718059646, 34.6692057 ], [ 132.717553939, 34.668424641 ], [ 132.717467045, 34.668293813 ], [ 132.717302542999988, 34.66807188 ], [ 132.71675894399999, 34.667311639 ], [ 132.71634896, 34.666704953 ], [ 132.71617344, 34.666537621 ], [ 132.716070116999987, 34.666378038 ], [ 132.715863637000012, 34.666144956 ], [ 132.715696615000013, 34.665997058 ], [ 132.71498222, 34.66547041 ], [ 132.713362104999987, 34.664412959 ], [ 132.71323775, 34.664505167 ], [ 132.712306157, 34.665108573 ], [ 132.71210776800001, 34.665239608 ], [ 132.711939605, 34.665364216 ], [ 132.711882053000011, 34.665330654 ], [ 132.711755083000014, 34.665414724 ], [ 132.712326531, 34.666023557 ], [ 132.71243075699999, 34.666138405 ], [ 132.712700896, 34.666417778 ], [ 132.71308174699999, 34.666883047 ], [ 132.713389174000014, 34.667160015 ], [ 132.714042705, 34.667739621 ], [ 132.714329959, 34.667875516 ], [ 132.714650784000014, 34.667993366 ], [ 132.714874869999989, 34.66809754 ], [ 132.715232299, 34.668232315 ], [ 132.715308717, 34.668290252 ], [ 132.715363086, 34.668359964 ], [ 132.71555964699999, 34.668881542 ], [ 132.71575134, 34.669055994 ], [ 132.71594868299999, 34.66928702 ], [ 132.71615716, 34.669522866 ], [ 132.716362632, 34.669803502 ], [ 132.71667958099999, 34.670215473 ], [ 132.716752332999988, 34.670320978 ], [ 132.716805182, 34.670454313 ], [ 132.716818233999987, 34.670690565 ], [ 132.71627463499999, 34.670702735 ], [ 132.716272472000014, 34.670742167 ], [ 132.71628616699999, 34.670863833 ], [ 132.716354722, 34.671354889 ], [ 132.716404417, 34.672010083 ], [ 132.716420230000011, 34.672343292 ], [ 132.716430139000011, 34.672552083 ], [ 132.71643832, 34.672653436 ], [ 132.717259678, 34.672595195 ] ] ] } },
{ "type": "Feature", "properties": { "A29_001": "34214", "A29_002": "広島県", "A29_003": "安芸高田市", "A29_004": 5, "A29_005": "第一種住居地域", "A29_006": 60, "A29_007": 200, "A29_008": "条件付き公開" }, "geometry": { "type": "Polygon", "coordinates": [ [ [ 132.697040157, 34.673283052 ], [ 132.697103317999989, 34.673194383 ], [ 132.69724502, 34.673205284 ], [ 132.697442002, 34.673233586 ], [ 132.69770537, 34.673273086 ], [ 132.697904655, 34.673327004 ], [ 132.697979721, 34.673357604 ], [ 132.698158084, 34.673484954 ], [ 132.698298776, 34.673575355 ], [ 132.698297316, 34.673179492 ], [ 132.698338616, 34.672779907 ], [ 132.698466035, 34.672507033 ], [ 132.698715797, 34.67205191 ], [ 132.69675985500001, 34.672488522 ], [ 132.695522227, 34.672509379 ], [ 132.695553354, 34.672620501 ], [ 132.695692697, 34.673018318 ], [ 132.695765486, 34.673226125 ], [ 132.695849474999989, 34.67324932 ], [ 132.695994675, 34.673327758 ], [ 132.696072820000012, 34.673381806 ], [ 132.69612693799999, 34.673482305 ], [ 132.696149386, 34.673648332 ], [ 132.696497283000014, 34.673524878 ], [ 132.69665315, 34.673479135 ], [ 132.696752185, 34.673410664 ], [ 132.69686952, 34.67336067 ], [ 132.696982537, 34.67330451 ], [ 132.697040157, 34.673283052 ] ] ] } },
{ "type": "Feature", "properties": { "A29_001": "34214", "A29_002": "広島県", "A29_003": "安芸高田市", "A29_004": 10, "A29_005": "準工業地域", "A29_006": 60, "A29_007": 200, "A29_008": "条件付き公開" }, "geometry": { "type": "Polygon", "coordinates": [ [ [ 132.71692127899999, 34.673280161 ], [ 132.717259678, 34.672595195 ], [ 132.71643832, 34.672653436 ], [ 132.716430139000011, 34.672552083 ], [ 132.716420230000011, 34.672343292 ], [ 132.716404417, 34.672010083 ], [ 132.716354722, 34.671354889 ], [ 132.71628616699999, 34.670863833 ], [ 132.716272472000014, 34.670742167 ], [ 132.71627463499999, 34.670702735 ], [ 132.716818233999987, 34.670690565 ], [ 132.716805182, 34.670454313 ], [ 132.716752332999988, 34.670320978 ], [ 132.71667958099999, 34.670215473 ], [ 132.716362632, 34.669803502 ], [ 132.716241833, 34.669856028 ], [ 132.71577825, 34.670076083 ], [ 132.714985222, 34.6704525 ], [ 132.715139111000013, 34.670712472 ], [ 132.71545052799999, 34.671300778 ], [ 132.715566611000014, 34.671640667 ], [ 132.71585163899999, 34.672555806 ], [ 132.71587672199999, 34.672663167 ], [ 132.715889083, 34.672716167 ], [ 132.71618077799999, 34.67396525 ], [ 132.71622763900001, 34.674165972 ], [ 132.71628874000001, 34.674405501 ], [ 132.716291, 34.674414361 ], [ 132.716333222, 34.674625722 ], [ 132.71640598499999, 34.675063852 ], [ 132.71644297200001, 34.675059611 ], [ 132.71648214699999, 34.675057343 ], [ 132.716481743, 34.674510594 ], [ 132.716546994999987, 34.674430772 ], [ 132.716562847, 34.674303208 ], [ 132.716567817999987, 34.674236085 ], [ 132.71650583499999, 34.67414292 ], [ 132.716626753000014, 34.673868005 ], [ 132.71692127899999, 34.673280161 ] ] ] } },
{ "type": "Feature", "properties": { "A29_001": "34214", "A29_002": "広島県", "A29_003": "安芸高田市", "A29_004": 5, "A29_005": "第一種住居地域", "A29_006": 60, "A29_007": 200, "A29_008": "条件付き公開" }, "geometry": { "type": "Polygon", "coordinates": [ [ [ 132.71731943, 34.677793796 ], [ 132.717145749999986, 34.67744174 ], [ 132.717086676, 34.677341854 ], [ 132.716996209, 34.677366639 ], [ 132.71698337699999, 34.677370155 ], [ 132.71686701499999, 34.677121495 ], [ 132.716898853, 34.676962296 ], [ 132.71686213000001, 34.676444921 ], [ 132.716858897, 34.676379276 ], [ 132.71675989, 34.676358847 ], [ 132.716693944000014, 34.676338806 ], [ 132.716681528, 34.67608775 ], [ 132.716643667, 34.675873861 ], [ 132.716631389000014, 34.6758045 ], [ 132.716529917, 34.675403278 ], [ 132.71644297200001, 34.675059611 ], [ 132.71640598499999, 34.675063852 ], [ 132.716333222, 34.674625722 ], [ 132.716291, 34.674414361 ], [ 132.71628874000001, 34.674405501 ], [ 132.71622763900001, 34.674165972 ], [ 132.71618077799999, 34.67396525 ], [ 132.715889083, 34.672716167 ], [ 132.71587672199999, 34.672663167 ], [ 132.71585163899999, 34.672555806 ], [ 132.715566611000014, 34.671640667 ], [ 132.71545052799999, 34.671300778 ], [ 132.715139111000013, 34.670712472 ], [ 132.714985222, 34.6704525 ], [ 132.71577825, 34.670076083 ], [ 132.716241833, 34.669856028 ], [ 132.716362632, 34.669803502 ], [ 132.71615716, 34.669522866 ], [ 132.71594868299999, 34.66928702 ], [ 132.71575134, 34.669055994 ], [ 132.71555964699999, 34.668881542 ], [ 132.715363086, 34.668359964 ], [ 132.715308717, 34.668290252 ], [ 132.715232299, 34.668232315 ], [ 132.714874869999989, 34.66809754 ], [ 132.714650784000014, 34.667993366 ], [ 132.71382473, 34.668042625 ], [ 132.71304648899999, 34.668097366 ], [ 132.712338069999987, 34.66801724 ], [ 132.713182210000014, 34.66870767 ], [ 132.71331335, 34.66875872 ], [ 132.71349465, 34.66888787 ], [ 132.713760587, 34.669185457 ], [ 132.71341507, 34.66942128 ], [ 132.713571639, 34.669565386 ], [ 132.71370975799999, 34.669603001 ], [ 132.71389317500001, 34.669531362 ], [ 132.713880367, 34.66945383 ], [ 132.713941522999988, 34.669403215 ], [ 132.714068524, 34.669504711 ], [ 132.714334603999987, 34.669740402 ], [ 132.71431159, 34.6698612 ], [ 132.714541765, 34.670235287 ], [ 132.714536353, 34.670254766 ], [ 132.714510421999989, 34.670348092 ], [ 132.714518957, 34.670351285 ], [ 132.714569928, 34.670370357 ], [ 132.714631649000012, 34.670485394 ], [ 132.714622006000013, 34.670540836 ], [ 132.714616191, 34.670574269 ], [ 132.714666316, 34.67063369 ], [ 132.71472898, 34.670626551 ], [ 132.714753852, 34.670650687 ], [ 132.714763839999989, 34.670681816 ], [ 132.71477728799999, 34.670729095 ], [ 132.714911301, 34.67092684 ], [ 132.715247954, 34.671618539 ], [ 132.715436721, 34.672265838 ], [ 132.715467487000012, 34.672551998 ], [ 132.715220949000013, 34.672632635 ], [ 132.715228450000012, 34.672796958 ], [ 132.715126000999987, 34.672831881 ], [ 132.715291476, 34.673109482 ], [ 132.715305187000013, 34.673142858 ], [ 132.715251935999987, 34.673195814 ], [ 132.715087382, 34.673301266 ], [ 132.715028991999986, 34.673448654 ], [ 132.71499462, 34.67345987 ], [ 132.714932349, 34.673390769 ], [ 132.714807596000014, 34.67344965 ], [ 132.714785080000013, 34.673646997 ], [ 132.71472729300001, 34.673658764 ], [ 132.71472905600001, 34.673732139 ], [ 132.714725198999986, 34.674044578 ], [ 132.71478906499999, 34.674046189 ], [ 132.714891566, 34.673897277 ], [ 132.714955761, 34.673900302 ], [ 132.714933656999989, 34.67398386 ], [ 132.714873917, 34.674209694 ], [ 132.714944741000011, 34.674192052 ], [ 132.715069785, 34.674160904 ], [ 132.71511804, 34.67419222 ], [ 132.71515921400001, 34.674219484 ], [ 132.715163596999986, 34.67422322 ], [ 132.715148911, 34.674907773 ], [ 132.715127110999987, 34.674971944 ], [ 132.71510863899999, 34.675022056 ], [ 132.715057914, 34.675219996 ], [ 132.714895436, 34.675215094 ], [ 132.714864188, 34.675586031 ], [ 132.71490700199999, 34.675752846 ], [ 132.715006665, 34.675781558 ], [ 132.715000588, 34.675810998 ], [ 132.714987664, 34.675873608 ], [ 132.715003438999986, 34.675900805 ], [ 132.715032423, 34.675917823 ], [ 132.715046953000012, 34.67592351 ], [ 132.715168355, 34.675971033 ], [ 132.71532238, 34.676092944 ], [ 132.715463543, 34.676088995 ], [ 132.715537033, 34.676072371 ], [ 132.715775522, 34.676380848 ], [ 132.715727934, 34.67646324 ], [ 132.715812142, 34.67649931 ], [ 132.715917792, 34.676544563 ], [ 132.71599371, 34.67662242 ], [ 132.716065723000014, 34.676593601 ], [ 132.716104056, 34.676672623 ], [ 132.716146239000011, 34.676759583 ], [ 132.71616642699999, 34.676759492 ], [ 132.71620855, 34.676858409 ], [ 132.716392375, 34.676798568 ], [ 132.716397731, 34.676902195 ], [ 132.716398814, 34.676923132 ], [ 132.716452121, 34.677025994 ], [ 132.716508143, 34.677018403 ], [ 132.716554548, 34.67713365 ], [ 132.716551032000012, 34.677135181 ], [ 132.716474189, 34.677167525 ], [ 132.716695095, 34.677508972 ], [ 132.716635187, 34.677551715 ], [ 132.716692560000013, 34.67763774 ], [ 132.716771112, 34.677801151 ], [ 132.716873287, 34.677766632 ], [ 132.716868909, 34.677691802 ], [ 132.716918539, 34.677674597 ], [ 132.717032855000014, 34.677876587 ], [ 132.71698589799999, 34.677933131 ], [ 132.717008768999989, 34.677994992 ], [ 132.717041137, 34.678021758 ], [ 132.717109599, 34.678078372 ], [ 132.71717703600001, 34.678097933 ], [ 132.717324732, 34.678089735 ], [ 132.71724122, 34.67793444 ], [ 132.71719031, 34.677849035 ], [ 132.71731943, 34.677793796 ] ] ] } }
]
}
