{
"type": "FeatureCollection",
"name": "A29-19_34215",
"features": [
{ "type": "Feature", "properties": { "A29_001": "34215", "A29_002": "広島県", "A29_003": "江田島市", "A29_004": 10, "A29_005": "準工業地域", "A29_006": 60, "A29_007": 200, "A29_008": null }, "geometry": { "type": "Polygon", "coordinates": [ [ [ 132.480181609, 34.229293973 ], [ 132.480216383999988, 34.228689925 ], [ 132.48021075599999, 34.228459859 ], [ 132.480213555, 34.228248615 ], [ 132.48020683199999, 34.228098632 ], [ 132.48020444299999, 34.228045335 ], [ 132.480162444, 34.227831554 ], [ 132.480159221, 34.227802208 ], [ 132.480144560000014, 34.227625806 ], [ 132.480092782000014, 34.227377713 ], [ 132.47998835300001, 34.227122601 ], [ 132.47990059899999, 34.226900323 ], [ 132.479816602, 34.226711246 ], [ 132.479690705, 34.226260555 ], [ 132.479646491000011, 34.226111714 ], [ 132.479617187, 34.225911873 ], [ 132.479595053, 34.225818708 ], [ 132.479516929, 34.225767902 ], [ 132.479406055999988, 34.225642942 ], [ 132.47920305400001, 34.22562589 ], [ 132.479191668, 34.225458938 ], [ 132.479349738, 34.225387259 ], [ 132.479231239, 34.224698771 ], [ 132.478875456, 34.224401203 ], [ 132.47884954700001, 34.22418956 ], [ 132.479052638000013, 34.22418353 ], [ 132.478999191000014, 34.223935735 ], [ 132.478746019999988, 34.223918528 ], [ 132.478647513, 34.223754153 ], [ 132.47859210499999, 34.223621403 ], [ 132.478614505, 34.223220689 ], [ 132.478463075, 34.222949342 ], [ 132.478447104, 34.222503107 ], [ 132.478226424000013, 34.222229952 ], [ 132.478161064, 34.221988138 ], [ 132.478141517000012, 34.221867197 ], [ 132.4779351, 34.221576154 ], [ 132.47812158, 34.22146604 ], [ 132.477469281, 34.220869245 ], [ 132.477645446999986, 34.22072599 ], [ 132.47729024, 34.220258287 ], [ 132.477020075000013, 34.220428182 ], [ 132.476663660000014, 34.220799866 ], [ 132.47721918799999, 34.221392007 ], [ 132.477360671000014, 34.221882552 ], [ 132.47754991799999, 34.222212317 ], [ 132.477868368, 34.222613157 ], [ 132.47795477, 34.222733432 ], [ 132.47798008699999, 34.22304353 ], [ 132.478056286999987, 34.223311102 ], [ 132.47824033099999, 34.223685506 ], [ 132.478318660000014, 34.223801338 ], [ 132.478136323, 34.223891057 ], [ 132.478423936000013, 34.224669077 ], [ 132.47866074, 34.224780044 ], [ 132.478913404999986, 34.225549226 ], [ 132.47893961599999, 34.226100309 ], [ 132.47930284899999, 34.226983009 ], [ 132.479160868, 34.227817906 ], [ 132.479372404, 34.227951195 ], [ 132.479350342, 34.228203451 ], [ 132.479033904, 34.22821142 ], [ 132.478919752, 34.229088731 ], [ 132.479405480999986, 34.229105764 ], [ 132.479508165, 34.229110661 ], [ 132.479500325, 34.229169812 ], [ 132.479454878000013, 34.22916937 ], [ 132.47922764, 34.229167161 ], [ 132.479262137, 34.230660152 ], [ 132.479551939, 34.230662459 ], [ 132.479562238999989, 34.230747237 ], [ 132.479820472, 34.230753945 ], [ 132.480062292000014, 34.230754886 ], [ 132.480144916, 34.229702656 ], [ 132.480181609, 34.229293973 ] ] ] } },
{ "type": "Feature", "properties": { "A29_001": "34215", "A29_002": "広島県", "A29_003": "江田島市", "A29_004": 8, "A29_005": "近隣商業地域", "A29_006": 80, "A29_007": 200, "A29_008": null }, "geometry": { "type": "Polygon", "coordinates": [ [ [ 132.477985194000013, 34.237705219 ], [ 132.478112337, 34.237535311 ], [ 132.47832149199999, 34.237586349 ], [ 132.478342149000014, 34.23747975 ], [ 132.47843157599999, 34.237390069 ], [ 132.478549762, 34.237356372 ], [ 132.478622629, 34.237303249 ], [ 132.478670994999987, 34.237265536 ], [ 132.47882582599999, 34.23714481 ], [ 132.478870346, 34.237098266 ], [ 132.479002379, 34.236962214 ], [ 132.479044638, 34.236925945 ], [ 132.479142255, 34.236842164 ], [ 132.479202617, 34.236787789 ], [ 132.479228400000011, 34.236764562 ], [ 132.47939075299999, 34.236643462 ], [ 132.479431511, 34.236621819 ], [ 132.479439672000012, 34.2366201 ], [ 132.479474575000012, 34.236612749 ], [ 132.479734062, 34.236558098 ], [ 132.479794421, 34.236545386 ], [ 132.47979042, 34.23653507 ], [ 132.479676606999988, 34.236241638 ], [ 132.479813400000012, 34.23614523 ], [ 132.479822356999989, 34.235987187 ], [ 132.47963105299999, 34.235789827 ], [ 132.479505765, 34.235671534 ], [ 132.479407173999988, 34.235598797 ], [ 132.47949559, 34.23550848 ], [ 132.479788525, 34.235303395 ], [ 132.479730069, 34.235273085 ], [ 132.47966037, 34.235242024 ], [ 132.47955609499999, 34.235184497 ], [ 132.479464705, 34.23513644 ], [ 132.479617921, 34.235102351 ], [ 132.47974011, 34.235064147 ], [ 132.479938647000012, 34.234972005 ], [ 132.479913337, 34.234931471 ], [ 132.479894503, 34.234901309 ], [ 132.479832726000012, 34.23480879 ], [ 132.47973553599999, 34.234633057 ], [ 132.479658667, 34.234402523 ], [ 132.479272087, 34.234407038 ], [ 132.479221279, 34.234573087 ], [ 132.479191386, 34.234670786 ], [ 132.47915149100001, 34.234805521 ], [ 132.479085715, 34.235027631 ], [ 132.47907637599999, 34.235059183 ], [ 132.47902111799999, 34.235245763 ], [ 132.478937908, 34.235528693 ], [ 132.478682052000011, 34.235487229 ], [ 132.478525573000013, 34.236038776 ], [ 132.478431295, 34.236276006 ], [ 132.478300649, 34.236466749 ], [ 132.477848281, 34.236842768 ], [ 132.477602617, 34.237283176 ], [ 132.477541172, 34.237378165 ], [ 132.477455913, 34.237401514 ], [ 132.477363978, 34.2374132 ], [ 132.477165722, 34.237394439 ], [ 132.477073999, 34.237597448 ], [ 132.47764161399999, 34.23770225 ], [ 132.4775275, 34.237882078 ], [ 132.477226389, 34.238360327 ], [ 132.47703898899999, 34.238645241 ], [ 132.47698792700001, 34.238734771 ], [ 132.476952345, 34.238780094 ], [ 132.476643474000014, 34.239172828 ], [ 132.476630973999988, 34.23919133 ], [ 132.477085646, 34.239394544 ], [ 132.477261174, 34.239152148 ], [ 132.47733771899999, 34.239022534 ], [ 132.47731849499999, 34.238862722 ], [ 132.47732243499999, 34.238762524 ], [ 132.477438669, 34.238737182 ], [ 132.477634427, 34.238428469 ], [ 132.477711207, 34.238320749 ], [ 132.477910470000012, 34.23811493 ], [ 132.47803585, 34.23795616 ], [ 132.47805720400001, 34.237804208 ], [ 132.477985194000013, 34.237705219 ] ] ] } },
{ "type": "Feature", "properties": { "A29_001": "34215", "A29_002": "広島県", "A29_003": "江田島市", "A29_004": 4, "A29_005": "第二種中高層住居専用地域", "A29_006": 60, "A29_007": 200, "A29_008": null }, "geometry": { "type": "Polygon", "coordinates": [ [ [ 132.48095433899999, 34.240280582 ], [ 132.481013706, 34.240272033 ], [ 132.48113350700001, 34.240376046 ], [ 132.48117467, 34.240444642 ], [ 132.48123328599999, 34.240556724 ], [ 132.481273474, 34.240595139 ], [ 132.481329845, 34.240664062 ], [ 132.48147666, 34.240731466 ], [ 132.481696306, 34.240711068 ], [ 132.481894266000012, 34.240639155 ], [ 132.482051218, 34.240512943 ], [ 132.481964538, 34.240376003 ], [ 132.48201857, 34.24020827 ], [ 132.481937842, 34.239995912 ], [ 132.48213785199999, 34.239859938 ], [ 132.48225706, 34.239778896 ], [ 132.48243299399999, 34.239870874 ], [ 132.482486704, 34.239831972 ], [ 132.48253407199999, 34.239772232 ], [ 132.482514552, 34.239723258 ], [ 132.48248826599999, 34.23965731 ], [ 132.48221962299999, 34.239346602 ], [ 132.482370062, 34.239288307 ], [ 132.48250818299999, 34.239234786 ], [ 132.48287739599999, 34.238967813 ], [ 132.483210711999988, 34.239338097 ], [ 132.48322179499999, 34.239746657 ], [ 132.483615926999988, 34.239765473 ], [ 132.483598637, 34.239597358 ], [ 132.48358370599999, 34.239452173 ], [ 132.48367762699999, 34.23940663 ], [ 132.48374819599999, 34.23937241 ], [ 132.483673950999986, 34.239320813 ], [ 132.483429730000012, 34.239151088 ], [ 132.48346752399999, 34.239067988 ], [ 132.48342765000001, 34.238972072 ], [ 132.483402485, 34.238861694 ], [ 132.48333333299999, 34.238800729 ], [ 132.483271457, 34.238746179 ], [ 132.483148231, 34.238596451 ], [ 132.48288755499999, 34.238644876 ], [ 132.482865855999989, 34.23863368 ], [ 132.482786586, 34.238322677 ], [ 132.48277195599999, 34.238242385 ], [ 132.482998329999987, 34.238106927 ], [ 132.482865771, 34.237783968 ], [ 132.482610325, 34.237808428 ], [ 132.482599349999987, 34.237427635 ], [ 132.482795098, 34.237405313 ], [ 132.482739302999988, 34.237173394 ], [ 132.482532924999987, 34.237158496 ], [ 132.48253434599999, 34.237108608 ], [ 132.482512840999988, 34.236939821 ], [ 132.482350795, 34.236937871 ], [ 132.482155756999987, 34.237271094 ], [ 132.482036297, 34.237257517 ], [ 132.482042537000012, 34.237009571 ], [ 132.48175243899999, 34.237027176 ], [ 132.48165488, 34.236802306 ], [ 132.481298379, 34.236945037 ], [ 132.481053601000013, 34.236947648 ], [ 132.481216455, 34.236749672 ], [ 132.48092030699999, 34.236747215 ], [ 132.48078101199999, 34.236857109 ], [ 132.48023288600001, 34.236524301 ], [ 132.480417066, 34.236280858 ], [ 132.48042247399999, 34.236275817 ], [ 132.480340321999989, 34.236193783 ], [ 132.480372778, 34.235929902 ], [ 132.480517850000012, 34.235766889 ], [ 132.48055813, 34.235771463 ], [ 132.480859498, 34.235805683 ], [ 132.48099555499999, 34.235787483 ], [ 132.48113607799999, 34.235685967 ], [ 132.481140259, 34.235669889 ], [ 132.481173750000011, 34.235541079 ], [ 132.481231063, 34.23541987 ], [ 132.481273364, 34.235356363 ], [ 132.481356127, 34.235334334 ], [ 132.481468997, 34.235304292 ], [ 132.481567094000013, 34.235353626 ], [ 132.481663564, 34.235607259 ], [ 132.481568527, 34.23573841 ], [ 132.48152409799999, 34.235799131 ], [ 132.481471109000012, 34.235871551 ], [ 132.481295581000012, 34.235906737 ], [ 132.48122054000001, 34.23592178 ], [ 132.48117757599999, 34.235927841 ], [ 132.48117325699999, 34.236050825 ], [ 132.481397918, 34.236097851 ], [ 132.481591645, 34.236174708 ], [ 132.481709099, 34.23629143 ], [ 132.48183794, 34.236259364 ], [ 132.481952170999989, 34.236151964 ], [ 132.48204519, 34.23611999 ], [ 132.48222676200001, 34.236139357 ], [ 132.482226293999986, 34.236013875 ], [ 132.482216292, 34.235893437 ], [ 132.482292172, 34.23574845 ], [ 132.482267239, 34.235466866 ], [ 132.48233588799999, 34.235304047 ], [ 132.48233538400001, 34.235169174 ], [ 132.482291097, 34.235116775 ], [ 132.482232111, 34.235012748 ], [ 132.481843332000011, 34.235142671 ], [ 132.481782979, 34.234968283 ], [ 132.48172531, 34.234873226 ], [ 132.481593263, 34.234685138 ], [ 132.481469734, 34.23456665 ], [ 132.481465742000012, 34.234429602 ], [ 132.481508338, 34.234339794 ], [ 132.481584540999989, 34.234266654 ], [ 132.481598233999989, 34.234096043 ], [ 132.481720405, 34.234064478 ], [ 132.482001434000011, 34.233991868 ], [ 132.482059260999989, 34.233523654 ], [ 132.482016238999989, 34.233479109 ], [ 132.481865174, 34.23331388 ], [ 132.482104343, 34.233250787 ], [ 132.482366527000011, 34.233268897 ], [ 132.482407515, 34.233269239 ], [ 132.48240841099999, 34.233157434 ], [ 132.482423138, 34.233087324 ], [ 132.48228769, 34.233068869 ], [ 132.48224403, 34.232772963 ], [ 132.482240545, 34.232749341 ], [ 132.482084347000011, 34.232745428 ], [ 132.482071469, 34.232816868 ], [ 132.48204743, 34.232950215 ], [ 132.48197162299999, 34.233031515 ], [ 132.481810798, 34.233034313 ], [ 132.481805401, 34.232742111 ], [ 132.481964827000013, 34.232743587 ], [ 132.48190166399999, 34.232178178 ], [ 132.481923611000013, 34.232179635 ], [ 132.482078480000013, 34.232140876 ], [ 132.482081986999987, 34.23194598 ], [ 132.481911696, 34.231939916 ], [ 132.48193499199999, 34.231783164 ], [ 132.482192265, 34.231780797 ], [ 132.482196423, 34.231447289 ], [ 132.482238862, 34.231415609 ], [ 132.48236782, 34.23132868 ], [ 132.482511101999989, 34.231230112 ], [ 132.482495682, 34.231010161 ], [ 132.482645173, 34.230983309 ], [ 132.48281425499999, 34.230949837 ], [ 132.482884549, 34.230908995 ], [ 132.48291267, 34.230877017 ], [ 132.482897799999989, 34.230845582 ], [ 132.482856524, 34.230758325 ], [ 132.482783531, 34.230715869 ], [ 132.482664351000011, 34.230774688 ], [ 132.482580668, 34.230747136 ], [ 132.482480428, 34.23076227 ], [ 132.482362486, 34.230832986 ], [ 132.482240125, 34.230679584 ], [ 132.482388832, 34.230587124 ], [ 132.482222463, 34.230425748 ], [ 132.48211255699999, 34.230410163 ], [ 132.48202832699999, 34.230235837 ], [ 132.48213626399999, 34.230192193 ], [ 132.481999675, 34.229916576 ], [ 132.481774099, 34.229928266 ], [ 132.48172740199999, 34.229728008 ], [ 132.482005971, 34.229683505 ], [ 132.48206758, 34.229555414 ], [ 132.48208983, 34.22950725 ], [ 132.48209426, 34.229501541 ], [ 132.482013056999989, 34.229342334 ], [ 132.482082056, 34.229274719 ], [ 132.482232110000012, 34.22932392 ], [ 132.482274491999988, 34.229329761 ], [ 132.48234346800001, 34.229256196 ], [ 132.482338274999989, 34.229144546 ], [ 132.482334380999987, 34.22906085 ], [ 132.48243259, 34.229063388 ], [ 132.482648428, 34.229068967 ], [ 132.482517, 34.228708538 ], [ 132.482213073999986, 34.228713109 ], [ 132.48201506800001, 34.228601026 ], [ 132.482005464999986, 34.228490366 ], [ 132.48220766099999, 34.228493662 ], [ 132.482348892, 34.228165091 ], [ 132.48215789, 34.228085403 ], [ 132.482048485, 34.227704013 ], [ 132.482116795, 34.227621135 ], [ 132.482192411, 34.227529393 ], [ 132.482243052, 34.227475718 ], [ 132.48233037899999, 34.227374786 ], [ 132.482400576, 34.22730861 ], [ 132.482354101999988, 34.227303861 ], [ 132.482328122000013, 34.22729365 ], [ 132.482297706999987, 34.227287417 ], [ 132.482249649000011, 34.227294483 ], [ 132.482169835, 34.227314433 ], [ 132.481993133, 34.227360427 ], [ 132.481689906000014, 34.227209969 ], [ 132.48142057699999, 34.227184876 ], [ 132.48142664400001, 34.227050482 ], [ 132.481247184000011, 34.22695177 ], [ 132.481277307999989, 34.226704754 ], [ 132.481883006, 34.226783972 ], [ 132.482038904, 34.226667095 ], [ 132.48205291299999, 34.226581771 ], [ 132.482026343, 34.226567264 ], [ 132.48197156, 34.226537353 ], [ 132.481848488999987, 34.226511884 ], [ 132.481700401000012, 34.226501356 ], [ 132.48167820899999, 34.226312986 ], [ 132.481661269, 34.226252534 ], [ 132.48149989699999, 34.226201379 ], [ 132.481563849999986, 34.225764655 ], [ 132.48119733499999, 34.225793224 ], [ 132.481153345, 34.225796653 ], [ 132.48111991, 34.225809173 ], [ 132.480861327000014, 34.225906001 ], [ 132.480844324, 34.225877523 ], [ 132.480832111000012, 34.225857068 ], [ 132.48077272, 34.225758163 ], [ 132.480717532, 34.225668967 ], [ 132.480692304, 34.22561564 ], [ 132.480665555, 34.225547107 ], [ 132.48063639899999, 34.225467481 ], [ 132.480597518, 34.225338312 ], [ 132.480996006, 34.225215795 ], [ 132.481045708000011, 34.225104706 ], [ 132.48102878899999, 34.22508297 ], [ 132.480918881, 34.225031644 ], [ 132.480698834, 34.224933035 ], [ 132.480605209, 34.2247984 ], [ 132.48054037, 34.224699394 ], [ 132.480474396, 34.224616258 ], [ 132.480357301999987, 34.224591765 ], [ 132.48026458699999, 34.224597651 ], [ 132.480178257, 34.224603131 ], [ 132.480041328999988, 34.224703645 ], [ 132.48014410799999, 34.225375771 ], [ 132.479586086000012, 34.225251743 ], [ 132.479542632, 34.225411577 ], [ 132.479349738, 34.225387259 ], [ 132.479191668, 34.225458938 ], [ 132.47920305400001, 34.22562589 ], [ 132.479406055999988, 34.225642942 ], [ 132.479516929, 34.225767902 ], [ 132.479595053, 34.225818708 ], [ 132.479617187, 34.225911873 ], [ 132.479646491000011, 34.226111714 ], [ 132.479690705, 34.226260555 ], [ 132.479816602, 34.226711246 ], [ 132.47990059899999, 34.226900323 ], [ 132.47998835300001, 34.227122601 ], [ 132.480092782000014, 34.227377713 ], [ 132.480144560000014, 34.227625806 ], [ 132.480159221, 34.227802208 ], [ 132.480162444, 34.227831554 ], [ 132.48020444299999, 34.228045335 ], [ 132.48020683199999, 34.228098632 ], [ 132.480213555, 34.228248615 ], [ 132.48021075599999, 34.228459859 ], [ 132.480216383999988, 34.228689925 ], [ 132.480181609, 34.229293973 ], [ 132.480144916, 34.229702656 ], [ 132.480062292000014, 34.230754886 ], [ 132.480031536000013, 34.231649821 ], [ 132.480110652, 34.231717634 ], [ 132.48035782299999, 34.231897413 ], [ 132.480451902, 34.231985243 ], [ 132.480470306, 34.232044148 ], [ 132.480459833, 34.232117563 ], [ 132.480415091999987, 34.232210526 ], [ 132.48037077699999, 34.232251177 ], [ 132.48029770299999, 34.232348057 ], [ 132.48019473, 34.232512202 ], [ 132.48012412599999, 34.232591485 ], [ 132.480117188, 34.232637898 ], [ 132.480110816, 34.232658497 ], [ 132.480099037, 34.232789888 ], [ 132.48007826599999, 34.232902495 ], [ 132.480041355999987, 34.233121593 ], [ 132.479996634, 34.233348235 ], [ 132.479973605, 34.233578373 ], [ 132.479893425, 34.233852293 ], [ 132.479656420999987, 34.234243297 ], [ 132.479658667, 34.234402523 ], [ 132.47973553599999, 34.234633057 ], [ 132.479832726000012, 34.23480879 ], [ 132.479894503, 34.234901309 ], [ 132.479913337, 34.234931471 ], [ 132.479938647000012, 34.234972005 ], [ 132.47974011, 34.235064147 ], [ 132.479617921, 34.235102351 ], [ 132.479464705, 34.23513644 ], [ 132.47955609499999, 34.235184497 ], [ 132.47966037, 34.235242024 ], [ 132.479730069, 34.235273085 ], [ 132.479788525, 34.235303395 ], [ 132.47949559, 34.23550848 ], [ 132.479407173999988, 34.235598797 ], [ 132.479505765, 34.235671534 ], [ 132.47963105299999, 34.235789827 ], [ 132.479822356999989, 34.235987187 ], [ 132.479813400000012, 34.23614523 ], [ 132.479676606999988, 34.236241638 ], [ 132.47979042, 34.23653507 ], [ 132.479794421, 34.236545386 ], [ 132.479734062, 34.236558098 ], [ 132.479474575000012, 34.236612749 ], [ 132.479439672000012, 34.2366201 ], [ 132.479431511, 34.236621819 ], [ 132.47939075299999, 34.236643462 ], [ 132.479228400000011, 34.236764562 ], [ 132.479202617, 34.236787789 ], [ 132.479142255, 34.236842164 ], [ 132.479044638, 34.236925945 ], [ 132.479002379, 34.236962214 ], [ 132.478870346, 34.237098266 ], [ 132.47882582599999, 34.23714481 ], [ 132.478670994999987, 34.237265536 ], [ 132.478622629, 34.237303249 ], [ 132.478549762, 34.237356372 ], [ 132.47843157599999, 34.237390069 ], [ 132.478342149000014, 34.23747975 ], [ 132.47832149199999, 34.237586349 ], [ 132.478685718, 34.237579535 ], [ 132.478875189, 34.237487752 ], [ 132.479086212, 34.23739796 ], [ 132.47924383099999, 34.237397558 ], [ 132.479277063000012, 34.237421817 ], [ 132.479304743, 34.237474191 ], [ 132.479524024, 34.237607088 ], [ 132.479777266000013, 34.237632227 ], [ 132.48020904, 34.237500216 ], [ 132.48029197, 34.237622129 ], [ 132.48029210499999, 34.237716078 ], [ 132.480181812000012, 34.237749336 ], [ 132.480188916, 34.23783949 ], [ 132.48011184500001, 34.237887622 ], [ 132.48002680799999, 34.237947948 ], [ 132.48007431100001, 34.238199724 ], [ 132.479826825, 34.238278207 ], [ 132.479871454, 34.238721392 ], [ 132.480037415999988, 34.238716009 ], [ 132.480035676999989, 34.238726793 ], [ 132.480017572, 34.238839033 ], [ 132.480133448, 34.23885163 ], [ 132.480111297, 34.239318787 ], [ 132.48029926800001, 34.239590098 ], [ 132.480332057, 34.239718231 ], [ 132.480319465, 34.240195351 ], [ 132.480280118, 34.240406273 ], [ 132.480303572, 34.24043182 ], [ 132.480340068, 34.240471573 ], [ 132.480283848999989, 34.240479753 ], [ 132.48016411399999, 34.240497173 ], [ 132.480145319, 34.240765621 ], [ 132.480329318, 34.240792918 ], [ 132.480422307, 34.240818283 ], [ 132.480416838999986, 34.2409334 ], [ 132.480723454000014, 34.241239436 ], [ 132.480804588000012, 34.241430063 ], [ 132.480619985, 34.241666667 ], [ 132.480632813999989, 34.241692316 ], [ 132.480763653999986, 34.24184195 ], [ 132.480960028, 34.2418306 ], [ 132.48121982, 34.241687126 ], [ 132.481207584, 34.241508048 ], [ 132.48128628399999, 34.24143032 ], [ 132.48160688499999, 34.24142663 ], [ 132.48161569199999, 34.241189357 ], [ 132.481223868, 34.241150694 ], [ 132.481026301000014, 34.241034408 ], [ 132.48089821100001, 34.240922369 ], [ 132.480820294000011, 34.240842239 ], [ 132.480788768, 34.240713396 ], [ 132.480789772, 34.240631439 ], [ 132.48078744599999, 34.240481458 ], [ 132.480791004, 34.240396051 ], [ 132.480844671, 34.240332432 ], [ 132.48089218699999, 34.240309967 ], [ 132.48095433899999, 34.240280582 ] ] ] } },
{ "type": "Feature", "properties": { "A29_001": "34215", "A29_002": "広島県", "A29_003": "江田島市", "A29_004": 5, "A29_005": "第一種住居地域", "A29_006": 60, "A29_007": 200, "A29_008": null }, "geometry": { "type": "Polygon", "coordinates": [ [ [ 132.477912995999986, 34.243730013 ], [ 132.478033849000013, 34.243470867 ], [ 132.478164281, 34.243381281 ], [ 132.478372226, 34.243423893 ], [ 132.478465064, 34.243340352 ], [ 132.478468163, 34.243209437 ], [ 132.478704389, 34.243149333 ], [ 132.478759149000012, 34.242940932 ], [ 132.478961477000013, 34.242918103 ], [ 132.47899176300001, 34.242873399 ], [ 132.479053104, 34.242507298 ], [ 132.478703792, 34.242502237 ], [ 132.478619863, 34.242558278 ], [ 132.477992623, 34.242977095 ], [ 132.47779011899999, 34.24295232 ], [ 132.47766086499999, 34.242875294 ], [ 132.47773955, 34.24274681 ], [ 132.47790986699999, 34.242636649 ], [ 132.47807434, 34.24244416 ], [ 132.47810906699999, 34.24225086 ], [ 132.477915532, 34.242229038 ], [ 132.477670123, 34.242226685 ], [ 132.477291513000011, 34.242535574 ], [ 132.477214561000011, 34.242555108 ], [ 132.477121368000013, 34.242541956 ], [ 132.47707822000001, 34.242498925 ], [ 132.477088476, 34.242365017 ], [ 132.477059658, 34.24232195 ], [ 132.476916327, 34.242313387 ], [ 132.476801677, 34.242310702 ], [ 132.476773003, 34.241818385 ], [ 132.47688096499999, 34.241818974 ], [ 132.477145588000013, 34.241820418 ], [ 132.47730181899999, 34.241653946 ], [ 132.47763976600001, 34.241583438 ], [ 132.477858636, 34.241370848 ], [ 132.477990912, 34.241296133 ], [ 132.47820378099999, 34.241218238 ], [ 132.478204846000011, 34.241161658 ], [ 132.478209369000012, 34.240921333 ], [ 132.478390711, 34.240906859 ], [ 132.47836807199999, 34.240780318 ], [ 132.478336164000012, 34.240686835 ], [ 132.478449966999989, 34.240579609 ], [ 132.478662547, 34.240379311 ], [ 132.478432395999988, 34.240162991 ], [ 132.478334350000011, 34.24032332 ], [ 132.478240924, 34.240434313 ], [ 132.478126218999989, 34.24034225 ], [ 132.47797532300001, 34.24046759 ], [ 132.47784753799999, 34.240364084 ], [ 132.477656145999987, 34.240552904 ], [ 132.47757648699999, 34.240631492 ], [ 132.477349925, 34.24042258 ], [ 132.477450835000013, 34.240325962 ], [ 132.477358478000014, 34.240231146 ], [ 132.477145035, 34.240248539 ], [ 132.477000449, 34.240342873 ], [ 132.476928578000013, 34.240282064 ], [ 132.47698656599999, 34.240235477 ], [ 132.477038117, 34.24012877 ], [ 132.477039235, 34.240040348 ], [ 132.477028163999989, 34.239733333 ], [ 132.47718203, 34.239671564 ], [ 132.477223907, 34.239462548 ], [ 132.477085646, 34.239394544 ], [ 132.476630973999988, 34.23919133 ], [ 132.476643474000014, 34.239172828 ], [ 132.476952345, 34.238780094 ], [ 132.47698792700001, 34.238734771 ], [ 132.47703898899999, 34.238645241 ], [ 132.477226389, 34.238360327 ], [ 132.4775275, 34.237882078 ], [ 132.47764161399999, 34.23770225 ], [ 132.477073999, 34.237597448 ], [ 132.47702979799999, 34.237693788 ], [ 132.475985150000014, 34.237459902 ], [ 132.475910637, 34.23781453 ], [ 132.475, 34.238100321 ], [ 132.474599864999988, 34.238225899 ], [ 132.474434515000013, 34.238272676 ], [ 132.47549888899999, 34.239124616 ], [ 132.475738979, 34.239389544 ], [ 132.475844325, 34.239543244 ], [ 132.476004509, 34.239998039 ], [ 132.476232571, 34.240278617 ], [ 132.476528497, 34.240764458 ], [ 132.476602025, 34.243737548 ], [ 132.47669285399999, 34.24380271 ], [ 132.476846566, 34.243920248 ], [ 132.477044299999989, 34.243681888 ], [ 132.47791523, 34.244336941 ], [ 132.478806216, 34.244272289 ], [ 132.478631642000011, 34.244109384 ], [ 132.478496329, 34.244046873 ], [ 132.478154187, 34.244044768 ], [ 132.477978138999987, 34.243908358 ], [ 132.477912995999986, 34.243730013 ] ] ] } },
{ "type": "Feature", "properties": { "A29_001": "34215", "A29_002": "広島県", "A29_003": "江田島市", "A29_004": 3, "A29_005": "第一種中高層住居専用地域", "A29_006": 60, "A29_007": 200, "A29_008": null }, "geometry": { "type": "Polygon", "coordinates": [ [ [ 132.489350777999988, 34.247544441 ], [ 132.489436089, 34.247346545 ], [ 132.490434439000012, 34.247407954 ], [ 132.490484455, 34.246744829 ], [ 132.490528059000013, 34.246553931 ], [ 132.49068340299999, 34.24642793 ], [ 132.49090574600001, 34.24624612 ], [ 132.491230073, 34.246037744 ], [ 132.49155771, 34.245992249 ], [ 132.491820569, 34.245871059 ], [ 132.491978464, 34.245705518 ], [ 132.49208694, 34.2453805 ], [ 132.492137977, 34.245067749 ], [ 132.492018328, 34.244716735 ], [ 132.491945808999986, 34.244506229 ], [ 132.491377156999988, 34.24483166 ], [ 132.491216691, 34.244815434 ], [ 132.490828764000014, 34.245089534 ], [ 132.490720466999989, 34.24508316 ], [ 132.49068022599999, 34.245046634 ], [ 132.490683057000012, 34.244962473 ], [ 132.490702660000011, 34.244842671 ], [ 132.490697377, 34.244772917 ], [ 132.490436999, 34.244644636 ], [ 132.49010777, 34.244460152 ], [ 132.489818579, 34.244252654 ], [ 132.489509096, 34.243984812 ], [ 132.489496831999986, 34.243978069 ], [ 132.489481073, 34.243960834 ], [ 132.489300178, 34.243844754 ], [ 132.489174768999987, 34.243777431 ], [ 132.4888809, 34.243657412 ], [ 132.48861214199999, 34.243545657 ], [ 132.488355788, 34.243311079 ], [ 132.488050359999988, 34.243135381 ], [ 132.48785770399999, 34.243089264 ], [ 132.48776847900001, 34.243097263 ], [ 132.487606347, 34.24311789 ], [ 132.48764052199999, 34.243232301 ], [ 132.487729191, 34.243483657 ], [ 132.487760255000012, 34.243629686 ], [ 132.48759924399999, 34.2437046 ], [ 132.48733214, 34.243753953 ], [ 132.48743972, 34.243938933 ], [ 132.48776091799999, 34.243983497 ], [ 132.487797085000011, 34.243987812 ], [ 132.487807798, 34.244001488 ], [ 132.48781645, 34.244027079 ], [ 132.48781804399999, 34.244049317 ], [ 132.487817201000013, 34.244070335 ], [ 132.487698200000011, 34.244201015 ], [ 132.487682674000013, 34.244252782 ], [ 132.487664599999988, 34.244281899 ], [ 132.48760296, 34.244381202 ], [ 132.487606322, 34.244552347 ], [ 132.487610203, 34.244749951 ], [ 132.487610416, 34.244760822 ], [ 132.487406005, 34.244787998 ], [ 132.4874088, 34.244996126 ], [ 132.487672503999988, 34.245027708 ], [ 132.487691066, 34.245171215 ], [ 132.487698865999988, 34.24523152 ], [ 132.487708153999989, 34.245270128 ], [ 132.487720617, 34.245304347 ], [ 132.487734550999988, 34.245339914 ], [ 132.48775161099999, 34.245369612 ], [ 132.487770911000013, 34.245400359 ], [ 132.487892654, 34.245590586 ], [ 132.48797730699999, 34.245628037 ], [ 132.48810341399999, 34.245617108 ], [ 132.488304539000012, 34.245991298 ], [ 132.488286378, 34.246364588 ], [ 132.488292419, 34.246539734 ], [ 132.48831548699999, 34.246599921 ], [ 132.488385455000014, 34.246627629 ], [ 132.488487115999988, 34.246661857 ], [ 132.488772348999987, 34.246760788 ], [ 132.48888908699999, 34.246792762 ], [ 132.488954490999987, 34.246820264 ], [ 132.488990730000012, 34.246835729 ], [ 132.48901389299999, 34.246876789 ], [ 132.489037405, 34.246935816 ], [ 132.489265617, 34.247371356 ], [ 132.489350777999988, 34.247544441 ] ] ] } },
{ "type": "Feature", "properties": { "A29_001": "34215", "A29_002": "広島県", "A29_003": "江田島市", "A29_004": 10, "A29_005": "準工業地域", "A29_006": 60, "A29_007": 200, "A29_008": null }, "geometry": { "type": "Polygon", "coordinates": [ [ [ 132.491131924, 34.247191224 ], [ 132.491201203, 34.2469785 ], [ 132.491381077, 34.247069461 ], [ 132.491559560000013, 34.246904204 ], [ 132.49137259599999, 34.246776488 ], [ 132.491420557, 34.246734734 ], [ 132.49160699, 34.246724249 ], [ 132.491809509, 34.246526877 ], [ 132.491659876999989, 34.24642355 ], [ 132.491648864000013, 34.246402778 ], [ 132.491666775, 34.246367763 ], [ 132.49169022800001, 34.24637117 ], [ 132.491869401, 34.246397197 ], [ 132.491859068999986, 34.246317301 ], [ 132.49185952, 34.246315073 ], [ 132.492517690999989, 34.246305562 ], [ 132.492515795, 34.246205291 ], [ 132.49254897, 34.246097343 ], [ 132.492596924, 34.246053924 ], [ 132.492938685000013, 34.246055646 ], [ 132.493118654, 34.245117623 ], [ 132.492137977, 34.245067749 ], [ 132.49208694, 34.2453805 ], [ 132.491978464, 34.245705518 ], [ 132.491820569, 34.245871059 ], [ 132.49155771, 34.245992249 ], [ 132.491230073, 34.246037744 ], [ 132.49090574600001, 34.24624612 ], [ 132.49068340299999, 34.24642793 ], [ 132.490528059000013, 34.246553931 ], [ 132.490484455, 34.246744829 ], [ 132.490434439000012, 34.247407954 ], [ 132.49049093799999, 34.247911259 ], [ 132.49110023, 34.247912438 ], [ 132.490901175, 34.247763464 ], [ 132.490895024999986, 34.247205678 ], [ 132.491131924, 34.247191224 ] ] ] } },
{ "type": "Feature", "properties": { "A29_001": "34215", "A29_002": "広島県", "A29_003": "江田島市", "A29_004": 5, "A29_005": "第一種住居地域", "A29_006": 60, "A29_007": 200, "A29_008": null }, "geometry": { "type": "Polygon", "coordinates": [ [ [ 132.479707117, 34.246433585 ], [ 132.47969566399999, 34.246243204 ], [ 132.479839279, 34.246283639 ], [ 132.479957471, 34.246316915 ], [ 132.48027165, 34.246021571 ], [ 132.480262713, 34.245915187 ], [ 132.480266699, 34.245652663 ], [ 132.480327390000014, 34.24562432 ], [ 132.48051198499999, 34.245619309 ], [ 132.480526160000011, 34.24536351 ], [ 132.480528222, 34.245343584 ], [ 132.480645057, 34.245275337 ], [ 132.480599532000014, 34.245201023 ], [ 132.48055134099999, 34.245122357 ], [ 132.480238063, 34.24514451 ], [ 132.480202128, 34.245147051 ], [ 132.48013806099999, 34.245260271 ], [ 132.48012133099999, 34.245373403 ], [ 132.48010835299999, 34.245461171 ], [ 132.479943471000013, 34.245439278 ], [ 132.479765665, 34.245313288 ], [ 132.47961825199999, 34.245184018 ], [ 132.47955625, 34.245018275 ], [ 132.479632495, 34.244898199 ], [ 132.47967252699999, 34.244832294 ], [ 132.479873247, 34.244857814 ], [ 132.479871245, 34.244649408 ], [ 132.479610314000013, 34.244486346 ], [ 132.479606072, 34.244310431 ], [ 132.479706353000012, 34.244241593 ], [ 132.479771425, 34.243967344 ], [ 132.479690446, 34.243824182 ], [ 132.479824244000014, 34.243744733 ], [ 132.479850848000012, 34.243507702 ], [ 132.480150321, 34.243854773 ], [ 132.480264514999988, 34.243856416 ], [ 132.48016438499999, 34.243422298 ], [ 132.480238052, 34.243383288 ], [ 132.480325283000013, 34.243337095 ], [ 132.480253381000011, 34.24321367 ], [ 132.48013058699999, 34.243002887 ], [ 132.479483428, 34.243348171 ], [ 132.479436275000012, 34.243322755 ], [ 132.479019994999987, 34.24310424 ], [ 132.478821605, 34.243361759 ], [ 132.47902975299999, 34.243459409 ], [ 132.479027088, 34.243707841 ], [ 132.479172553000012, 34.243750061 ], [ 132.479156257, 34.243761065 ], [ 132.478768300000013, 34.243964364 ], [ 132.47887474800001, 34.244170867 ], [ 132.47885631299999, 34.244272069 ], [ 132.47887260499999, 34.244318143 ], [ 132.478894427, 34.244406598 ], [ 132.478900949, 34.244475011 ], [ 132.478906456, 34.244480553 ], [ 132.479078593999986, 34.244735521 ], [ 132.47899051600001, 34.24488375 ], [ 132.47870914399999, 34.244923261 ], [ 132.478702078, 34.245115575 ], [ 132.47871032399999, 34.245243087 ], [ 132.47843821699999, 34.245378328 ], [ 132.47833126099999, 34.245431487 ], [ 132.47853969799999, 34.245745195 ], [ 132.479547692000011, 34.246665471 ], [ 132.479559233, 34.247011888 ], [ 132.479968813, 34.247323233 ], [ 132.48023464799999, 34.247515939 ], [ 132.480589941, 34.247678664 ], [ 132.480957382000014, 34.247856232 ], [ 132.481469733000012, 34.248083763 ], [ 132.481660543, 34.248249269 ], [ 132.481604377, 34.247993479 ], [ 132.4815695, 34.247887951 ], [ 132.481457283, 34.247765694 ], [ 132.481048171, 34.247582284 ], [ 132.480725275999987, 34.24746113 ], [ 132.480477107000013, 34.247356335 ], [ 132.48020478399999, 34.247191723 ], [ 132.48001428500001, 34.247025601 ], [ 132.479906058000012, 34.246922964 ], [ 132.47988425599999, 34.246899128 ], [ 132.479849311, 34.246873612 ], [ 132.47989822, 34.24676334 ], [ 132.47993084, 34.2467156 ], [ 132.479976652, 34.246659009 ], [ 132.47993048, 34.2466194 ], [ 132.479707117, 34.246433585 ] ] ] } },
{ "type": "Feature", "properties": { "A29_001": "34215", "A29_002": "広島県", "A29_003": "江田島市", "A29_004": 4, "A29_005": "第二種中高層住居専用地域", "A29_006": 60, "A29_007": 200, "A29_008": null }, "geometry": { "type": "Polygon", "coordinates": [ [ [ 132.489592859999988, 34.24824279 ], [ 132.489635141, 34.248157611 ], [ 132.489640597, 34.248126806 ], [ 132.489635789, 34.24808812 ], [ 132.489620374999987, 34.248051759 ], [ 132.489589016, 34.24797779 ], [ 132.489428959, 34.247720829 ], [ 132.489350777999988, 34.247544441 ], [ 132.489265617, 34.247371356 ], [ 132.489037405, 34.246935816 ], [ 132.48901389299999, 34.246876789 ], [ 132.488990730000012, 34.246835729 ], [ 132.488954490999987, 34.246820264 ], [ 132.48888908699999, 34.246792762 ], [ 132.488772348999987, 34.246760788 ], [ 132.488487115999988, 34.246661857 ], [ 132.488385455000014, 34.246627629 ], [ 132.48831548699999, 34.246599921 ], [ 132.488292419, 34.246539734 ], [ 132.488286378, 34.246364588 ], [ 132.488304539000012, 34.245991298 ], [ 132.48810341399999, 34.245617108 ], [ 132.48797730699999, 34.245628037 ], [ 132.487892654, 34.245590586 ], [ 132.48795780099999, 34.24569389 ], [ 132.48792653000001, 34.245907102 ], [ 132.487555171999986, 34.245940308 ], [ 132.487537331999988, 34.246054121 ], [ 132.487947115, 34.246238516 ], [ 132.48790908699999, 34.246323139 ], [ 132.487936072, 34.246431562 ], [ 132.488170860999986, 34.24657875 ], [ 132.488113803, 34.246688084 ], [ 132.487748919000012, 34.246699031 ], [ 132.48774460199999, 34.246881762 ], [ 132.488020834999986, 34.247005081 ], [ 132.488119079, 34.247021087 ], [ 132.48821617499999, 34.247006954 ], [ 132.488309327, 34.24695898 ], [ 132.48841571, 34.246988672 ], [ 132.488791256000013, 34.246996971 ], [ 132.488886982, 34.247112161 ], [ 132.488894485, 34.24729124 ], [ 132.488781992000014, 34.247367353 ], [ 132.48872443, 34.247370298 ], [ 132.48869337299999, 34.247346074 ], [ 132.488606148, 34.24734001 ], [ 132.488506058000013, 34.247368429 ], [ 132.488317679, 34.24752928 ], [ 132.488105354999988, 34.247516449 ], [ 132.487990416, 34.247315267 ], [ 132.487921187000012, 34.247307642 ], [ 132.487618160000011, 34.247294588 ], [ 132.487514745999988, 34.247402276 ], [ 132.487492314, 34.247398323 ], [ 132.487226069, 34.247351398 ], [ 132.487132185, 34.24739404 ], [ 132.487124411, 34.247469927 ], [ 132.487463321, 34.247560526 ], [ 132.487650011, 34.247581783 ], [ 132.487822537, 34.247604643 ], [ 132.487975404, 34.247730788 ], [ 132.488208272, 34.247729275 ], [ 132.488358541, 34.247675328 ], [ 132.488922927, 34.247718654 ], [ 132.489004963000014, 34.247724951 ], [ 132.489049169999987, 34.247749022 ], [ 132.489065697, 34.247797311 ], [ 132.489034987999986, 34.247847598 ], [ 132.48894804, 34.247864204 ], [ 132.488833605999986, 34.24788606 ], [ 132.488767991, 34.247943132 ], [ 132.48883815100001, 34.248021046 ], [ 132.488920173, 34.248038681 ], [ 132.489219098, 34.248036222 ], [ 132.489244248, 34.248153717 ], [ 132.48898456399999, 34.248203834 ], [ 132.488639317, 34.24819952 ], [ 132.488578872, 34.248203026 ], [ 132.488538592, 34.248209826 ], [ 132.48852617, 34.248299671 ], [ 132.488554978, 34.248312862 ], [ 132.488574621999987, 34.248321857 ], [ 132.488805445, 34.248428915 ], [ 132.489563492, 34.248266102 ], [ 132.489592859999988, 34.24824279 ] ] ] } },
{ "type": "Feature", "properties": { "A29_001": "34215", "A29_002": "広島県", "A29_003": "江田島市", "A29_004": 8, "A29_005": "近隣商業地域", "A29_006": 80, "A29_007": 300, "A29_008": null }, "geometry": { "type": "Polygon", "coordinates": [ [ [ 132.481126541, 34.248360588 ], [ 132.481201922999986, 34.248354431 ], [ 132.481306081000014, 34.248395209 ], [ 132.481471090000014, 34.248449826 ], [ 132.481638589, 34.248451255 ], [ 132.481697696, 34.24842174 ], [ 132.481708301, 34.248376985 ], [ 132.48172042499999, 34.248316167 ], [ 132.48171187599999, 34.248305404 ], [ 132.481660543, 34.248249269 ], [ 132.481469733000012, 34.248083763 ], [ 132.480957382000014, 34.247856232 ], [ 132.480589941, 34.247678664 ], [ 132.48023464799999, 34.247515939 ], [ 132.479968813, 34.247323233 ], [ 132.479559233, 34.247011888 ], [ 132.479547692000011, 34.246665471 ], [ 132.47853969799999, 34.245745195 ], [ 132.47833126099999, 34.245431487 ], [ 132.47843821699999, 34.245378328 ], [ 132.47871032399999, 34.245243087 ], [ 132.478702078, 34.245115575 ], [ 132.47870914399999, 34.244923261 ], [ 132.47899051600001, 34.24488375 ], [ 132.479078593999986, 34.244735521 ], [ 132.478906456, 34.244480553 ], [ 132.478900949, 34.244475011 ], [ 132.478894427, 34.244406598 ], [ 132.47887260499999, 34.244318143 ], [ 132.47885631299999, 34.244272069 ], [ 132.478806216, 34.244272289 ], [ 132.47791523, 34.244336941 ], [ 132.477044299999989, 34.243681888 ], [ 132.476846566, 34.243920248 ], [ 132.476952743999988, 34.244001437 ], [ 132.477194098000012, 34.244183036 ], [ 132.47754874899999, 34.244446363 ], [ 132.47759881499999, 34.244483534 ], [ 132.477659339000013, 34.24456006 ], [ 132.477701015, 34.244662807 ], [ 132.477682988, 34.244780829 ], [ 132.477627977999987, 34.244922288 ], [ 132.477563274, 34.245070148 ], [ 132.477009087, 34.246099644 ], [ 132.47653268799999, 34.246192762 ], [ 132.476444017, 34.246321938 ], [ 132.476260567999987, 34.246610991 ], [ 132.476216247999986, 34.246737548 ], [ 132.476220587, 34.246820817 ], [ 132.476218351, 34.247087371 ], [ 132.47676582299999, 34.247125905 ], [ 132.47677171, 34.247265722 ], [ 132.477253421, 34.24728254 ], [ 132.477250728, 34.247037096 ], [ 132.477363801, 34.2469914 ], [ 132.477653815999986, 34.247046487 ], [ 132.478155832, 34.247165707 ], [ 132.478741899999989, 34.247246033 ], [ 132.478939139, 34.247297596 ], [ 132.479102364999989, 34.247355196 ], [ 132.47915092299999, 34.247407138 ], [ 132.479481878, 34.247770751 ], [ 132.480109610999989, 34.248457897 ], [ 132.480240809, 34.248331861 ], [ 132.480256811, 34.248321561 ], [ 132.48027032499999, 34.248320628 ], [ 132.480420675, 34.248286773 ], [ 132.480563128999989, 34.248297565 ], [ 132.480703084, 34.248358941 ], [ 132.48093104599999, 34.248481826 ], [ 132.48104406499999, 34.248390618 ], [ 132.481126541, 34.248360588 ] ] ] } },
{ "type": "Feature", "properties": { "A29_001": "34215", "A29_002": "広島県", "A29_003": "江田島市", "A29_004": 5, "A29_005": "第一種住居地域", "A29_006": 60, "A29_007": 200, "A29_008": null }, "geometry": { "type": "Polygon", "coordinates": [ [ [ 132.482555378, 34.249081609 ], [ 132.482404599, 34.248943668 ], [ 132.48227299199999, 34.248823266 ], [ 132.482254514, 34.248802992 ], [ 132.482234322000011, 34.248786184 ], [ 132.482152379000013, 34.248618522 ], [ 132.48212533099999, 34.248570989 ], [ 132.482188764999989, 34.248528058 ], [ 132.482257350999987, 34.248490881 ], [ 132.482518629, 34.248355393 ], [ 132.482887092, 34.248205685 ], [ 132.483109008000014, 34.248148585 ], [ 132.483384887999989, 34.248150848 ], [ 132.483419773, 34.247899357 ], [ 132.483507526000011, 34.247893179 ], [ 132.483649249, 34.247947854 ], [ 132.483751027000011, 34.247859823 ], [ 132.483540027, 34.247669226 ], [ 132.48349943, 34.247644775 ], [ 132.483491367, 34.247405295 ], [ 132.483537307, 34.247345544 ], [ 132.483587631, 34.24728009 ], [ 132.483716122, 34.247150338 ], [ 132.483930847000011, 34.247087304 ], [ 132.484021891999987, 34.247003764 ], [ 132.484037551, 34.246880255 ], [ 132.484026731, 34.246858879 ], [ 132.48401048, 34.246826772 ], [ 132.483744995, 34.246729278 ], [ 132.483710464000012, 34.246596973 ], [ 132.483713544000011, 34.246463083 ], [ 132.483768489999989, 34.24628699 ], [ 132.48382088299999, 34.246136579 ], [ 132.484031248, 34.246046996 ], [ 132.484069543, 34.245918084 ], [ 132.484017722, 34.245848561 ], [ 132.484001337, 34.245822679 ], [ 132.483940170000011, 34.245752921 ], [ 132.48396300499999, 34.245632368 ], [ 132.484137206000014, 34.245577984 ], [ 132.484425695999988, 34.245297208 ], [ 132.484400182, 34.245181243 ], [ 132.484360337, 34.245145371 ], [ 132.48432109699999, 34.245110044 ], [ 132.484118849, 34.245155195 ], [ 132.48402397800001, 34.245173292 ], [ 132.483948666, 34.245152661 ], [ 132.483830078000011, 34.245056275 ], [ 132.483803052000013, 34.245014693 ], [ 132.483768867, 34.244974616 ], [ 132.483725765, 34.244944976 ], [ 132.483677255, 34.244906425 ], [ 132.483664581999989, 34.244870755 ], [ 132.483671469, 34.244796359 ], [ 132.483651603, 34.24475327 ], [ 132.48358711099999, 34.244751949 ], [ 132.483526146, 34.244735743 ], [ 132.483474174, 34.244729184 ], [ 132.483453021, 34.24471118 ], [ 132.48345106299999, 34.244693593 ], [ 132.483460536, 34.244674922 ], [ 132.483473937000014, 34.244665962 ], [ 132.483548926, 34.244600315 ], [ 132.483572067000011, 34.244561578 ], [ 132.483547625, 34.244530174 ], [ 132.48352526799999, 34.244501452 ], [ 132.48349618200001, 34.244467651 ], [ 132.48335795, 34.244307011 ], [ 132.482838181, 34.244467524 ], [ 132.482858846999989, 34.244724822 ], [ 132.482965423, 34.24496256 ], [ 132.48311000699999, 34.245119058 ], [ 132.483274482000013, 34.245217626 ], [ 132.483420872000011, 34.245309285 ], [ 132.483395761, 34.24548687 ], [ 132.48315521399999, 34.24589627 ], [ 132.483163948999987, 34.245980166 ], [ 132.483171937, 34.246056886 ], [ 132.483006655, 34.246285803 ], [ 132.483037258, 34.246403803 ], [ 132.482362504, 34.246122938 ], [ 132.482374717999988, 34.246515628 ], [ 132.482176532000011, 34.246690185 ], [ 132.48238021, 34.246743267 ], [ 132.482436529000012, 34.246757944 ], [ 132.482385185999988, 34.246920223 ], [ 132.482355942, 34.24693695 ], [ 132.482283297, 34.246978501 ], [ 132.48212562099999, 34.246968493 ], [ 132.482274149, 34.247134895 ], [ 132.482296514000012, 34.247159951 ], [ 132.482299727, 34.247246356 ], [ 132.48230049599999, 34.247267047 ], [ 132.48212548399999, 34.247411792 ], [ 132.482458908000012, 34.247578604 ], [ 132.48254142499999, 34.247624561 ], [ 132.48244858699999, 34.247708105 ], [ 132.48220725499999, 34.247842608 ], [ 132.481958273, 34.247967462 ], [ 132.481833247999987, 34.248066707 ], [ 132.481746318, 34.248174036 ], [ 132.48172042499999, 34.248316167 ], [ 132.481708301, 34.248376985 ], [ 132.481697696, 34.24842174 ], [ 132.481638589, 34.248451255 ], [ 132.481471090000014, 34.248449826 ], [ 132.481306081000014, 34.248395209 ], [ 132.481201922999986, 34.248354431 ], [ 132.481126541, 34.248360588 ], [ 132.48104406499999, 34.248390618 ], [ 132.48093104599999, 34.248481826 ], [ 132.481091635000013, 34.248552075 ], [ 132.481101773, 34.248869647 ], [ 132.481447573999986, 34.24888661 ], [ 132.481710034, 34.249132874 ], [ 132.48203926299999, 34.249029385 ], [ 132.48262111299999, 34.249414657 ], [ 132.482780875, 34.249502385 ], [ 132.482792913999987, 34.249368471 ], [ 132.482783533, 34.249255068 ], [ 132.482555378, 34.249081609 ] ] ] } },
{ "type": "Feature", "properties": { "A29_001": "34215", "A29_002": "広島県", "A29_003": "江田島市", "A29_004": 8, "A29_005": "近隣商業地域", "A29_006": 80, "A29_007": 200, "A29_008": null }, "geometry": { "type": "Polygon", "coordinates": [ [ [ 132.492249778, 34.250149281 ], [ 132.49353704699999, 34.249618025 ], [ 132.49339936199999, 34.249344252 ], [ 132.49266746399999, 34.247888913 ], [ 132.491049010000012, 34.248299561 ], [ 132.490979931999988, 34.248120397 ], [ 132.491115771000011, 34.248110988 ], [ 132.49110023, 34.247912438 ], [ 132.49049093799999, 34.247911259 ], [ 132.490463933, 34.248227069 ], [ 132.48971221299999, 34.248398636 ], [ 132.489962873, 34.248993472 ], [ 132.489477306, 34.249273361 ], [ 132.48904016, 34.249424325 ], [ 132.488621462, 34.249552613 ], [ 132.488423466, 34.249608321 ], [ 132.488177114, 34.249677634 ], [ 132.488524258000012, 34.250135255 ], [ 132.488985031, 34.250145046 ], [ 132.489139474000012, 34.250100168 ], [ 132.48983393, 34.24983979 ], [ 132.490084153999987, 34.249745971 ], [ 132.490141754, 34.249725301 ], [ 132.490222582, 34.24984403 ], [ 132.490477881, 34.25015856 ], [ 132.490725527, 34.250179377 ], [ 132.491160443000012, 34.250738768 ], [ 132.491460904, 34.250576177 ], [ 132.492249778, 34.250149281 ] ] ] } },
{ "type": "Feature", "properties": { "A29_001": "34215", "A29_002": "広島県", "A29_003": "江田島市", "A29_004": 5, "A29_005": "第一種住居地域", "A29_006": 60, "A29_007": 200, "A29_008": null }, "geometry": { "type": "Polygon", "coordinates": [ [ [ 132.474537937, 34.251458516 ], [ 132.47478785199999, 34.251215413 ], [ 132.47507148299999, 34.251375358 ], [ 132.47538982899999, 34.251230262 ], [ 132.47576390399999, 34.251138577 ], [ 132.475877801, 34.25103637 ], [ 132.47581354499999, 34.251011919 ], [ 132.475573916, 34.250980247 ], [ 132.475464612, 34.250958704 ], [ 132.47535041099999, 34.250933928 ], [ 132.47516246, 34.25077861 ], [ 132.474929233000012, 34.250612546 ], [ 132.47487866899999, 34.250574038 ], [ 132.475004199000011, 34.250495369 ], [ 132.475036624000012, 34.250462854 ], [ 132.475157032, 34.250334396 ], [ 132.475274515, 34.250128814 ], [ 132.475454402999986, 34.249842746 ], [ 132.47559526500001, 34.249662394 ], [ 132.475831368, 34.249563618 ], [ 132.476049776, 34.24952439 ], [ 132.476261055, 34.249495593 ], [ 132.476405895999989, 34.249423823 ], [ 132.476414049999988, 34.249281299 ], [ 132.47642104799999, 34.249158996 ], [ 132.476468471, 34.249154599 ], [ 132.476734435, 34.24912994 ], [ 132.476863764, 34.248980855 ], [ 132.47693802, 34.24883203 ], [ 132.47700061399999, 34.248658545 ], [ 132.476996488999987, 34.248415239 ], [ 132.477034151, 34.248392134 ], [ 132.477164499999986, 34.24831217 ], [ 132.477191059, 34.248080344 ], [ 132.477202686, 34.247978856 ], [ 132.477325564000012, 34.247819057 ], [ 132.477363142, 34.247770188 ], [ 132.47749486, 34.247539164 ], [ 132.477513756, 34.247524857 ], [ 132.477621679, 34.247595454 ], [ 132.477644123, 34.247698816 ], [ 132.477642112000012, 34.247769046 ], [ 132.477640947999987, 34.247809648 ], [ 132.477429640999986, 34.247829523 ], [ 132.477399666, 34.247959762 ], [ 132.47776617, 34.247962233 ], [ 132.477773665, 34.24833889 ], [ 132.47795016500001, 34.24834283 ], [ 132.47792192, 34.248708921 ], [ 132.477974133, 34.248780192 ], [ 132.478078153000013, 34.248812655 ], [ 132.478173013, 34.2487901 ], [ 132.478244459, 34.24873339 ], [ 132.478321071000011, 34.24862014 ], [ 132.478383352, 34.248506925 ], [ 132.478436742000014, 34.248411584 ], [ 132.47857459299999, 34.248258209 ], [ 132.478789173, 34.248284243 ], [ 132.478840767, 34.248430639 ], [ 132.478943155, 34.248506244 ], [ 132.479104662999987, 34.248583187 ], [ 132.479180178, 34.248658117 ], [ 132.479382382000011, 34.248598099 ], [ 132.479438638, 34.248591813 ], [ 132.479449386999988, 34.248793544 ], [ 132.4793872, 34.248932048 ], [ 132.47925152900001, 34.249060326 ], [ 132.479199849999986, 34.24912998 ], [ 132.479149922, 34.249195954 ], [ 132.479202399, 34.249338628 ], [ 132.4793977, 34.249228049 ], [ 132.47964394600001, 34.249208826 ], [ 132.479742327, 34.24904866 ], [ 132.479879794, 34.248921865 ], [ 132.479994094, 34.248827855 ], [ 132.48003409099999, 34.248744449 ], [ 132.480058359, 34.248646206 ], [ 132.480063435, 34.248565864 ], [ 132.480109610999989, 34.248457897 ], [ 132.479481878, 34.247770751 ], [ 132.47915092299999, 34.247407138 ], [ 132.479102364999989, 34.247355196 ], [ 132.478939139, 34.247297596 ], [ 132.478741899999989, 34.247246033 ], [ 132.478155832, 34.247165707 ], [ 132.477653815999986, 34.247046487 ], [ 132.477363801, 34.2469914 ], [ 132.477250728, 34.247037096 ], [ 132.477253421, 34.24728254 ], [ 132.47677171, 34.247265722 ], [ 132.47676582299999, 34.247125905 ], [ 132.476218351, 34.247087371 ], [ 132.47624408499999, 34.247271806 ], [ 132.47624936599999, 34.247373161 ], [ 132.476255278, 34.247418611 ], [ 132.476229445, 34.247650888 ], [ 132.476192821000012, 34.247784742 ], [ 132.476117097000014, 34.247965836 ], [ 132.476105749999988, 34.247992972 ], [ 132.47603191499999, 34.248131503 ], [ 132.47628960099999, 34.248301924 ], [ 132.476361669, 34.248414798 ], [ 132.476395938, 34.248495475 ], [ 132.476407746, 34.248523275 ], [ 132.476400047999988, 34.248622219 ], [ 132.476074622, 34.248910143 ], [ 132.475943746000013, 34.249126173 ], [ 132.475190497, 34.249134765 ], [ 132.47492290400001, 34.249194941 ], [ 132.474766614, 34.249320291 ], [ 132.474737788, 34.249414473 ], [ 132.47469898899999, 34.249443186 ], [ 132.474644694, 34.249442549 ], [ 132.473758465, 34.249432157 ], [ 132.473672343, 34.249395183 ], [ 132.473587673, 34.249264488 ], [ 132.473524381, 34.249101013 ], [ 132.473390913, 34.248851434 ], [ 132.473263148, 34.248692582 ], [ 132.473166139, 34.248616958 ], [ 132.472940212, 34.24855802 ], [ 132.472780711000013, 34.248539079 ], [ 132.472592478, 34.248500872 ], [ 132.472472407999987, 34.248487784 ], [ 132.47238106099999, 34.248692229 ], [ 132.47232136299999, 34.248825841 ], [ 132.472861131, 34.24898069 ], [ 132.473013365000014, 34.248971384 ], [ 132.47304007299999, 34.248970235 ], [ 132.47308415099999, 34.249225583 ], [ 132.473342065999987, 34.249706914 ], [ 132.473514290999987, 34.249756049 ], [ 132.473516784999987, 34.249788293 ], [ 132.473530192, 34.249961563 ], [ 132.473481252999989, 34.249967708 ], [ 132.47344759500001, 34.249975926 ], [ 132.47340634, 34.249985999 ], [ 132.473413174, 34.250217574 ], [ 132.473968453999987, 34.250152907 ], [ 132.474027159, 34.250221642 ], [ 132.474052577, 34.250260002 ], [ 132.473909897, 34.250639682 ], [ 132.474018763, 34.251060404 ], [ 132.474353825, 34.250831964 ], [ 132.474474635, 34.25104736 ], [ 132.474465538, 34.2512549 ], [ 132.474537937, 34.251458516 ] ] ] } },
{ "type": "Feature", "properties": { "A29_001": "34215", "A29_002": "広島県", "A29_003": "江田島市", "A29_004": 4, "A29_005": "第二種中高層住居専用地域", "A29_006": 60, "A29_007": 200, "A29_008": null }, "geometry": { "type": "Polygon", "coordinates": [ [ [ 132.450180159000013, 34.252006815 ], [ 132.45, 34.251172783 ], [ 132.449857521000013, 34.250512642 ], [ 132.449762892, 34.249983454 ], [ 132.449750298999987, 34.249828096 ], [ 132.449690411, 34.249442282 ], [ 132.449919009000013, 34.249105336 ], [ 132.451176104000012, 34.249460104 ], [ 132.45117598499999, 34.249308081 ], [ 132.451175791, 34.249232865 ], [ 132.451175036, 34.248938976 ], [ 132.451174442, 34.248272159 ], [ 132.45109981600001, 34.24823168 ], [ 132.45107131200001, 34.248224274 ], [ 132.450887744999989, 34.24817658 ], [ 132.450767355000011, 34.248075454 ], [ 132.450789525, 34.248020288 ], [ 132.45088105100001, 34.247792551 ], [ 132.450930363999987, 34.247541035 ], [ 132.450877854999987, 34.247374548 ], [ 132.450713, 34.24719901 ], [ 132.450516, 34.24704801 ], [ 132.450262787000014, 34.246960714 ], [ 132.450123496, 34.246930569 ], [ 132.449914264, 34.246939042 ], [ 132.449866469999989, 34.246938341 ], [ 132.449763128, 34.246949101 ], [ 132.449669238000013, 34.246965429 ], [ 132.449516983, 34.24699189 ], [ 132.44947652499999, 34.247006481 ], [ 132.449436214, 34.247032504 ], [ 132.449091692, 34.247320288 ], [ 132.448895786, 34.247125866 ], [ 132.448858058000013, 34.247093226 ], [ 132.448420242, 34.247412575 ], [ 132.44843699899999, 34.247602947 ], [ 132.44822, 34.24756601 ], [ 132.448087, 34.24754701 ], [ 132.447752, 34.24744201 ], [ 132.447309, 34.24729101 ], [ 132.446961, 34.24716201 ], [ 132.446800638000013, 34.247083094 ], [ 132.446246812999988, 34.246715412 ], [ 132.44549082899999, 34.246160779 ], [ 132.445243, 34.245970931 ], [ 132.444933131, 34.245813555 ], [ 132.444860006, 34.245772203 ], [ 132.444775607, 34.245736187 ], [ 132.444675611, 34.245704868 ], [ 132.44441609099999, 34.245633639 ], [ 132.44392863600001, 34.245567801 ], [ 132.443382162, 34.245530359 ], [ 132.44338531, 34.24558465 ], [ 132.443399199999988, 34.24579304 ], [ 132.44345758, 34.24594286 ], [ 132.44356585, 34.24608503 ], [ 132.44371775, 34.24620447 ], [ 132.44351154099999, 34.246576312 ], [ 132.443233330999988, 34.24653466 ], [ 132.44313148, 34.24668869 ], [ 132.443215149, 34.24681393 ], [ 132.443387, 34.246821161 ], [ 132.443488995, 34.246837702 ], [ 132.44352353, 34.246878779 ], [ 132.44349526, 34.24705381 ], [ 132.443494140000013, 34.247109942 ], [ 132.443579309, 34.247125437 ], [ 132.443590766, 34.247125696 ], [ 132.443662587, 34.247127322 ], [ 132.443792660000014, 34.246963932 ], [ 132.443796582, 34.246958762 ], [ 132.443847691, 34.246860667 ], [ 132.44393234899999, 34.2468367 ], [ 132.443992551, 34.246800115 ], [ 132.443979316999986, 34.246736332 ], [ 132.443889885, 34.246587998 ], [ 132.44409, 34.24638755 ], [ 132.44421651, 34.24620336 ], [ 132.44429689, 34.24597021 ], [ 132.44460232, 34.24601667 ], [ 132.444856969999989, 34.24615003 ], [ 132.44506845, 34.24644097 ], [ 132.44527199, 34.24656123 ], [ 132.445244980000012, 34.24663015 ], [ 132.445098287, 34.246660161 ], [ 132.445048326, 34.246691363 ], [ 132.445044822, 34.246746613 ], [ 132.44514067, 34.24683128 ], [ 132.44529752, 34.24690543 ], [ 132.44534865899999, 34.24691326 ], [ 132.44540105199999, 34.246912025 ], [ 132.44546368499999, 34.246756803 ], [ 132.445495991, 34.246740606 ], [ 132.445524043, 34.246726542 ], [ 132.44560385, 34.24688115 ], [ 132.445656680000013, 34.24706683 ], [ 132.445652018, 34.247237235 ], [ 132.44553852300001, 34.247450589 ], [ 132.445568314000013, 34.247676742 ], [ 132.445235868999987, 34.247862309 ], [ 132.445272579, 34.248085372 ], [ 132.445074952999988, 34.248087729 ], [ 132.444994302, 34.24802112 ], [ 132.444718325, 34.248177434 ], [ 132.444705527999986, 34.248263585 ], [ 132.444560591, 34.248345786 ], [ 132.444588543, 34.24847073 ], [ 132.44461533, 34.24859047 ], [ 132.44456097, 34.24862172 ], [ 132.444278849, 34.248689625 ], [ 132.44425641, 34.24884593 ], [ 132.444067797, 34.24880874 ], [ 132.44386940699999, 34.248732472 ], [ 132.443858957, 34.248728455 ], [ 132.443775432, 34.248696345 ], [ 132.4436833, 34.248570438 ], [ 132.44361950699999, 34.24848326 ], [ 132.44362902200001, 34.248358726 ], [ 132.443730820000013, 34.248285 ], [ 132.443887, 34.24815449 ], [ 132.44390225, 34.2479564 ], [ 132.443393859999986, 34.24797075 ], [ 132.443279350000012, 34.24835015 ], [ 132.44309528, 34.24828455 ], [ 132.442892066000013, 34.24808248 ], [ 132.44282009, 34.2481154 ], [ 132.442756139000011, 34.248135304 ], [ 132.4428182, 34.248555456 ], [ 132.44282611, 34.24856998 ], [ 132.44328106, 34.24887453 ], [ 132.44341789, 34.24906851 ], [ 132.44355363, 34.24928136 ], [ 132.44382905, 34.24951651 ], [ 132.443883977000013, 34.249566335 ], [ 132.44389561, 34.2500879 ], [ 132.44388373000001, 34.25034412 ], [ 132.443994637, 34.2505345 ], [ 132.443981062, 34.250765105 ], [ 132.44385373, 34.250853096 ], [ 132.443986321000011, 34.251003106 ], [ 132.444102651, 34.250968629 ], [ 132.44424264, 34.251057681 ], [ 132.444356247, 34.251099169 ], [ 132.44445394499999, 34.251107297 ], [ 132.444665641, 34.251114624 ], [ 132.444852059, 34.250997863 ], [ 132.445138340999989, 34.251042147 ], [ 132.445306367, 34.250822545 ], [ 132.445342716, 34.250837653 ], [ 132.44552441499999, 34.250913173 ], [ 132.445588259, 34.250934497 ], [ 132.445672777, 34.250952911 ], [ 132.445741696999988, 34.250945597 ], [ 132.445817398, 34.250903918 ], [ 132.44590338899999, 34.250846472 ], [ 132.446074211, 34.250724651 ], [ 132.446425835000014, 34.25087707 ], [ 132.44658333699999, 34.25083357 ], [ 132.446792746999989, 34.250999926 ], [ 132.44684745399999, 34.251037968 ], [ 132.446907907, 34.251075997 ], [ 132.447005593, 34.251080544 ], [ 132.447074339000011, 34.251020751 ], [ 132.44714987099999, 34.250928023 ], [ 132.44729429099999, 34.250818917 ], [ 132.447326205, 34.250841699 ], [ 132.44749278, 34.25096061 ], [ 132.447612061, 34.251009019 ], [ 132.447658881, 34.251040115 ], [ 132.44792207099999, 34.250994884 ], [ 132.44821300699999, 34.250674386 ], [ 132.448267027000014, 34.250757567 ], [ 132.448408914999987, 34.250867322 ], [ 132.44850347799999, 34.250853764 ], [ 132.44859871599999, 34.250840109 ], [ 132.44855474900001, 34.251085661 ], [ 132.448825661, 34.251207019 ], [ 132.448955918, 34.251052011 ], [ 132.449103057, 34.251196906 ], [ 132.449198560000013, 34.251290952 ], [ 132.449185766, 34.251575267 ], [ 132.44918021699999, 34.251698591 ], [ 132.449308882, 34.25160309 ], [ 132.44945928199999, 34.251578942 ], [ 132.44958895, 34.25162918 ], [ 132.449710649999986, 34.251747946 ], [ 132.449693102, 34.252075494 ], [ 132.449688731, 34.252157081 ], [ 132.450180159000013, 34.252006815 ] ] ] } },
{ "type": "Feature", "properties": { "A29_001": "34215", "A29_002": "広島県", "A29_003": "江田島市", "A29_004": 5, "A29_005": "第一種住居地域", "A29_006": 60, "A29_007": 200, "A29_008": null }, "geometry": { "type": "Polygon", "coordinates": [ [ [ 132.489199410999987, 34.254188296 ], [ 132.489482855, 34.254109291 ], [ 132.489822835000012, 34.254132539 ], [ 132.48998108399999, 34.254088829 ], [ 132.490412275000011, 34.254104342 ], [ 132.490568397, 34.254029001 ], [ 132.490601457999986, 34.253760836 ], [ 132.490680747999988, 34.253520855 ], [ 132.49093045, 34.253272098 ], [ 132.49096185, 34.253093851 ], [ 132.491271617, 34.252821623 ], [ 132.491430978000011, 34.252546463 ], [ 132.491518606, 34.252389713 ], [ 132.49168462099999, 34.252281043 ], [ 132.491772843, 34.252279144 ], [ 132.49188927899999, 34.252313802 ], [ 132.49224996699999, 34.252769076 ], [ 132.492450676, 34.252662909 ], [ 132.492546295000011, 34.252653398 ], [ 132.492636006999987, 34.25267315 ], [ 132.493008384, 34.252964164 ], [ 132.493111082000013, 34.252950982 ], [ 132.493360962, 34.252788431 ], [ 132.493023743, 34.252566636 ], [ 132.49247986, 34.252099323 ], [ 132.49215171899999, 34.251781762 ], [ 132.491996288, 34.25150233 ], [ 132.491847466, 34.251234961 ], [ 132.491683524, 34.250854271 ], [ 132.491460904, 34.250576177 ], [ 132.491160443000012, 34.250738768 ], [ 132.490725527, 34.250179377 ], [ 132.490477881, 34.25015856 ], [ 132.490222582, 34.24984403 ], [ 132.490141754, 34.249725301 ], [ 132.490084153999987, 34.249745971 ], [ 132.48983393, 34.24983979 ], [ 132.489139474000012, 34.250100168 ], [ 132.488985031, 34.250145046 ], [ 132.488524258000012, 34.250135255 ], [ 132.488177114, 34.249677634 ], [ 132.488423466, 34.249608321 ], [ 132.488621462, 34.249552613 ], [ 132.48904016, 34.249424325 ], [ 132.489477306, 34.249273361 ], [ 132.489962873, 34.248993472 ], [ 132.48971221299999, 34.248398636 ], [ 132.490463933, 34.248227069 ], [ 132.49049093799999, 34.247911259 ], [ 132.490434439000012, 34.247407954 ], [ 132.489436089, 34.247346545 ], [ 132.489350777999988, 34.247544441 ], [ 132.489428959, 34.247720829 ], [ 132.489589016, 34.24797779 ], [ 132.489620374999987, 34.248051759 ], [ 132.489635789, 34.24808812 ], [ 132.489640597, 34.248126806 ], [ 132.489635141, 34.248157611 ], [ 132.489592859999988, 34.24824279 ], [ 132.489563492, 34.248266102 ], [ 132.488805445, 34.248428915 ], [ 132.48899101, 34.248524031 ], [ 132.48921142, 34.24866493 ], [ 132.489185072999987, 34.248704568 ], [ 132.48851480799999, 34.248791695 ], [ 132.487845643000014, 34.248936647 ], [ 132.48734623499999, 34.248570527 ], [ 132.487222892, 34.248285234 ], [ 132.487088515000011, 34.248278892 ], [ 132.487022005, 34.248349542 ], [ 132.486953023000012, 34.248422819 ], [ 132.486823547, 34.248556274 ], [ 132.486998703000012, 34.248687467 ], [ 132.487173387000013, 34.248693704 ], [ 132.48715266799999, 34.248899044 ], [ 132.488037843, 34.249238102 ], [ 132.488034556, 34.249555212 ], [ 132.48766294399999, 34.249535881 ], [ 132.487339818, 34.249655241 ], [ 132.48731008499999, 34.249666223 ], [ 132.487095790000012, 34.24948939 ], [ 132.486916036, 34.249563495 ], [ 132.486764727, 34.2493441 ], [ 132.486378233000011, 34.249369186 ], [ 132.48628116899999, 34.249375485 ], [ 132.486278055000014, 34.249460445 ], [ 132.486270208, 34.249674517 ], [ 132.48596389, 34.249677547 ], [ 132.485764187, 34.249533169 ], [ 132.48568128299999, 34.249555557 ], [ 132.485387156, 34.249419277 ], [ 132.485190769000013, 34.249584966 ], [ 132.48511131699999, 34.2495304 ], [ 132.485016376, 34.249465197 ], [ 132.484940032, 34.249509965 ], [ 132.48488232599999, 34.249543804 ], [ 132.485067702, 34.249783094 ], [ 132.48511618, 34.249887645 ], [ 132.484943643, 34.249840385 ], [ 132.48455904299999, 34.249423092 ], [ 132.484267910999989, 34.249477836 ], [ 132.48403209899999, 34.249532687 ], [ 132.48436415399999, 34.249853188 ], [ 132.484554855999988, 34.249909306 ], [ 132.48460323, 34.249975784 ], [ 132.484619978000012, 34.250163895 ], [ 132.484777971999989, 34.250186796 ], [ 132.484806708, 34.25036322 ], [ 132.484805795, 34.250398469 ], [ 132.484738824, 34.250432272 ], [ 132.48438029499999, 34.250546652 ], [ 132.484225315, 34.250658614 ], [ 132.484099393, 34.250766338 ], [ 132.484100614, 34.250824613 ], [ 132.484133896, 34.250876977 ], [ 132.484142533000011, 34.250892271 ], [ 132.48431319299999, 34.250832388 ], [ 132.484557516, 34.250750166 ], [ 132.484626542, 34.250744624 ], [ 132.484836153, 34.250727797 ], [ 132.484945196000012, 34.250930653 ], [ 132.485171560999987, 34.250871788 ], [ 132.485167874000012, 34.25109086 ], [ 132.48516752899999, 34.251115681 ], [ 132.48544143, 34.25111679 ], [ 132.485441506, 34.251103677 ], [ 132.48544608, 34.250821122 ], [ 132.485624144000013, 34.250715759 ], [ 132.485894902000013, 34.25071098 ], [ 132.486093742, 34.250434193 ], [ 132.48610409299999, 34.250422808 ], [ 132.486354995, 34.250490422 ], [ 132.486486074, 34.250574287 ], [ 132.486551979000012, 34.250616454 ], [ 132.48656647199999, 34.250737135 ], [ 132.48640899, 34.250982312 ], [ 132.486289664999987, 34.251243209 ], [ 132.48598488499999, 34.251245668 ], [ 132.485911598, 34.251334269 ], [ 132.485717290999986, 34.251537754 ], [ 132.486069576, 34.25171639 ], [ 132.486110448, 34.251805976 ], [ 132.486091149, 34.252171176 ], [ 132.486313782, 34.252185582 ], [ 132.486559527, 34.251948499 ], [ 132.486785618999988, 34.251880786 ], [ 132.48712598099999, 34.25138291 ], [ 132.487309466, 34.251153129 ], [ 132.487396243, 34.251034681 ], [ 132.48741263299999, 34.250862302 ], [ 132.487407026999989, 34.25085469 ], [ 132.487597429, 34.250773282 ], [ 132.48762360500001, 34.250747338 ], [ 132.487655663999988, 34.250726428 ], [ 132.487682263000011, 34.250712572 ], [ 132.48767216600001, 34.250561909 ], [ 132.48773847699999, 34.250518938 ], [ 132.487761987, 34.250477133 ], [ 132.487917868000011, 34.250315666 ], [ 132.488037604, 34.250164662 ], [ 132.4882402, 34.250184112 ], [ 132.48857400599999, 34.250432998 ], [ 132.488590359999989, 34.250581043 ], [ 132.488847824, 34.250725333 ], [ 132.48856791599999, 34.250940031 ], [ 132.488445004, 34.250902157 ], [ 132.488252792, 34.251188018 ], [ 132.488173816999989, 34.251288503 ], [ 132.488023083, 34.251421732 ], [ 132.48778264500001, 34.251470649 ], [ 132.487652491, 34.251519278 ], [ 132.487600165, 34.251594307 ], [ 132.48758890799999, 34.25163114 ], [ 132.487623084, 34.251695853 ], [ 132.487637323, 34.251742522 ], [ 132.48766389, 34.25175413 ], [ 132.48776163799999, 34.251747108 ], [ 132.487859840999988, 34.25173353 ], [ 132.488032084999986, 34.251679796 ], [ 132.488246285, 34.25158599 ], [ 132.488406357, 34.251495655 ], [ 132.488481979999989, 34.25146001 ], [ 132.48852143, 34.251436243 ], [ 132.488605041, 34.251540091 ], [ 132.488530153999989, 34.251596298 ], [ 132.488497069, 34.251621131 ], [ 132.48851944899999, 34.251646285 ], [ 132.488577622, 34.251711666 ], [ 132.48846067299999, 34.251814324 ], [ 132.48844881299999, 34.251824735 ], [ 132.488557445999987, 34.251942333 ], [ 132.48831524799999, 34.252056194 ], [ 132.488290627, 34.252172814 ], [ 132.488509174, 34.252167245 ], [ 132.48853869300001, 34.252283724 ], [ 132.488731465, 34.252354816 ], [ 132.489255551000014, 34.252307565 ], [ 132.489226038, 34.252167026 ], [ 132.489505275999988, 34.251995322 ], [ 132.48970462, 34.251888839 ], [ 132.489871052000012, 34.251992992 ], [ 132.490035998, 34.251875072 ], [ 132.49012002, 34.251815004 ], [ 132.490206914, 34.251907926 ], [ 132.490228747, 34.251931273 ], [ 132.489923323, 34.252082783 ], [ 132.49007773400001, 34.252292994 ], [ 132.490318691999988, 34.252160474 ], [ 132.490442492, 34.25223171 ], [ 132.49039398, 34.252335589 ], [ 132.490183750999989, 34.252367123 ], [ 132.490106935, 34.252375722 ], [ 132.490112012999987, 34.252491226 ], [ 132.49025151, 34.25262104 ], [ 132.490125796, 34.252800279 ], [ 132.489976415, 34.252800673 ], [ 132.489618019, 34.253272232 ], [ 132.489734285, 34.253357102 ], [ 132.489730400000013, 34.253468035 ], [ 132.489619037000011, 34.253538642 ], [ 132.489720033999987, 34.253730693 ], [ 132.489686709000011, 34.253754874 ], [ 132.489247844, 34.254005842 ], [ 132.489120753, 34.254069449 ], [ 132.489199410999987, 34.254188296 ] ] ] } },
{ "type": "Feature", "properties": { "A29_001": "34215", "A29_002": "広島県", "A29_003": "江田島市", "A29_004": 5, "A29_005": "第一種住居地域", "A29_006": 60, "A29_007": 200, "A29_008": null }, "geometry": { "type": "Polygon", "coordinates": [ [ [ 132.46028232399999, 34.254100633 ], [ 132.460385179000014, 34.253961584 ], [ 132.46040380299999, 34.253915191 ], [ 132.460415442, 34.253874597 ], [ 132.46041929, 34.253836607 ], [ 132.460880543, 34.253834351 ], [ 132.46115049799999, 34.253647661 ], [ 132.461176066, 34.253565302 ], [ 132.461283794, 34.253565043 ], [ 132.461395304, 34.253664941 ], [ 132.461690027, 34.253650912 ], [ 132.461868548000012, 34.253511203 ], [ 132.46197228299999, 34.25351203 ], [ 132.462045905999986, 34.253348675 ], [ 132.46172876, 34.253257859 ], [ 132.461892664, 34.253138872 ], [ 132.461942779, 34.253102491 ], [ 132.462192896, 34.252948701 ], [ 132.462403462, 34.252953188 ], [ 132.462611428, 34.253360632 ], [ 132.462978361000012, 34.253353085 ], [ 132.462988808, 34.253472945 ], [ 132.463349779, 34.253480398 ], [ 132.463363902, 34.25338567 ], [ 132.463700413, 34.253399625 ], [ 132.46389482699999, 34.253372512 ], [ 132.46398864, 34.253249069 ], [ 132.464005069, 34.253153899 ], [ 132.46399769300001, 34.252972643 ], [ 132.463978072, 34.252877793 ], [ 132.463965024, 34.252806214 ], [ 132.464119063, 34.252702606 ], [ 132.464116136, 34.252476282 ], [ 132.464052856, 34.252408047 ], [ 132.46387804299999, 34.252306068 ], [ 132.463737318999989, 34.252204007 ], [ 132.464077497, 34.252287269 ], [ 132.464179616, 34.252245394 ], [ 132.464204994, 34.252006894 ], [ 132.464208861, 34.252008881 ], [ 132.46436763, 34.252110066 ], [ 132.46462875200001, 34.252235978 ], [ 132.464809373, 34.252278831 ], [ 132.46525532199999, 34.252502531 ], [ 132.465269511, 34.252274421 ], [ 132.46518648899999, 34.251949011 ], [ 132.46528082099999, 34.25181639 ], [ 132.46530894599999, 34.251403912 ], [ 132.464751054, 34.251662892 ], [ 132.464690088999987, 34.251433259 ], [ 132.46445882399999, 34.251244002 ], [ 132.464561376, 34.251227068 ], [ 132.4647454, 34.251196683 ], [ 132.464750751999986, 34.251008516 ], [ 132.464705783, 34.250968557 ], [ 132.464461097999987, 34.250751132 ], [ 132.464472303, 34.250614599 ], [ 132.464489938000014, 34.250399729 ], [ 132.464417575, 34.250349583 ], [ 132.464327121, 34.250286899 ], [ 132.46436832099999, 34.250223251 ], [ 132.464384063000011, 34.25019757 ], [ 132.464428844, 34.250133465 ], [ 132.464614901, 34.250013127 ], [ 132.464761124, 34.249969479 ], [ 132.46498791799999, 34.25002887 ], [ 132.46537804499999, 34.249779823 ], [ 132.465829179, 34.249772063 ], [ 132.46607445, 34.249952958 ], [ 132.4661801, 34.25014015 ], [ 132.46622827499999, 34.250357197 ], [ 132.466505016000013, 34.250364846 ], [ 132.466909874, 34.250594469 ], [ 132.467302517, 34.250771671 ], [ 132.46743065199999, 34.250716409 ], [ 132.467702664, 34.250803158 ], [ 132.467842821, 34.250745368 ], [ 132.468027420999988, 34.250779881 ], [ 132.468357298, 34.250786563 ], [ 132.468461968000014, 34.250618132 ], [ 132.468462862, 34.250439808 ], [ 132.46839081499999, 34.250443376 ], [ 132.468353973, 34.250439508 ], [ 132.467700764, 34.250320059 ], [ 132.467330699, 34.250254304 ], [ 132.46718900799999, 34.25021344 ], [ 132.467117691999988, 34.250184458 ], [ 132.467036433, 34.250143924 ], [ 132.46696239, 34.250089812 ], [ 132.466947291999986, 34.250078778 ], [ 132.466915019, 34.250031497 ], [ 132.466896491, 34.25 ], [ 132.46685075799999, 34.249922256 ], [ 132.466805634, 34.249854604 ], [ 132.466745355, 34.24978423 ], [ 132.466666667, 34.249710284 ], [ 132.466478529, 34.249533486 ], [ 132.466374588, 34.249433737 ], [ 132.466362228, 34.249423839 ], [ 132.466275231, 34.249356017 ], [ 132.466396664, 34.249328282 ], [ 132.466477131, 34.249337627 ], [ 132.466539203, 34.249368107 ], [ 132.466689847999987, 34.249441002 ], [ 132.466842409, 34.249488916 ], [ 132.467081056000012, 34.249498322 ], [ 132.467183205999987, 34.249466435 ], [ 132.467306374, 34.249424506 ], [ 132.46738043900001, 34.249389357 ], [ 132.467445443, 34.249335612 ], [ 132.467447553999989, 34.249311594 ], [ 132.467414072999986, 34.249261896 ], [ 132.467289047, 34.249241385 ], [ 132.467094065, 34.249209398 ], [ 132.466959605999989, 34.249177258 ], [ 132.466845086, 34.249113433 ], [ 132.4668823, 34.2490887 ], [ 132.466882004000013, 34.249088538 ], [ 132.466958654, 34.249050298 ], [ 132.467092613, 34.248941739 ], [ 132.46714684, 34.248966583 ], [ 132.467331341, 34.248974456 ], [ 132.467455647, 34.248970821 ], [ 132.467533817, 34.248962304 ], [ 132.467633925, 34.248920431 ], [ 132.467717886, 34.248848626 ], [ 132.467752233, 34.248799808 ], [ 132.46777760099999, 34.248725455 ], [ 132.467777179, 34.248607043 ], [ 132.46776258, 34.248448896 ], [ 132.467734318999987, 34.248395683 ], [ 132.467700036, 34.24834082 ], [ 132.467528816, 34.248288821 ], [ 132.46746356700001, 34.248238165 ], [ 132.467803941, 34.248255344 ], [ 132.467789673, 34.248174091 ], [ 132.467996711000012, 34.248176496 ], [ 132.467994662, 34.247936756 ], [ 132.467918802000014, 34.247937984 ], [ 132.46730653, 34.247918022 ], [ 132.46730516299999, 34.247810368 ], [ 132.467313483, 34.247505245 ], [ 132.4671793, 34.24750245 ], [ 132.466920058, 34.247498535 ], [ 132.466841253000013, 34.247522015 ], [ 132.466708274000013, 34.24761464 ], [ 132.466469710000013, 34.247724424 ], [ 132.466297499, 34.24778895 ], [ 132.465901658, 34.24785231 ], [ 132.465898288, 34.248014077 ], [ 132.465914916, 34.248084839 ], [ 132.465911682000012, 34.248147272 ], [ 132.46591075500001, 34.248183452 ], [ 132.465853208, 34.248414523 ], [ 132.465792764000014, 34.248482846 ], [ 132.46566173799999, 34.248622956 ], [ 132.46553835200001, 34.24875321 ], [ 132.465363577, 34.248935106 ], [ 132.46508705299999, 34.249176844 ], [ 132.465029386, 34.24920304 ], [ 132.464979899000014, 34.249227684 ], [ 132.464733776, 34.249356189 ], [ 132.464613078000014, 34.249424327 ], [ 132.46450429399999, 34.249487449 ], [ 132.464420267, 34.249526349 ], [ 132.464338596, 34.249565631 ], [ 132.464129111, 34.249677963 ], [ 132.46383119399999, 34.249836651 ], [ 132.463538293999989, 34.25 ], [ 132.463263073, 34.250153489 ], [ 132.463183834, 34.250205351 ], [ 132.463012509, 34.250317489 ], [ 132.46286124299999, 34.250431418 ], [ 132.462639708000012, 34.250604281 ], [ 132.462204756, 34.250943648 ], [ 132.462085163000012, 34.251036961 ], [ 132.461750032999987, 34.251398896 ], [ 132.461120136, 34.25206153 ], [ 132.461084469000014, 34.252099157 ], [ 132.46039198599999, 34.252829394 ], [ 132.460039806999987, 34.253191789 ], [ 132.45970946599999, 34.253540827 ], [ 132.45969673499999, 34.253554279 ], [ 132.459553284, 34.253717374 ], [ 132.45946707600001, 34.253815384 ], [ 132.459389234000014, 34.253892943 ], [ 132.459278454000014, 34.25400522 ], [ 132.459049819, 34.25424692 ], [ 132.459270917999987, 34.254151655 ], [ 132.459474094, 34.254047935 ], [ 132.46005976699999, 34.254376221 ], [ 132.460174798, 34.254232583 ], [ 132.46020692, 34.254196756 ], [ 132.460231502, 34.254169339 ], [ 132.46028232399999, 34.254100633 ] ] ] } },
{ "type": "Feature", "properties": { "A29_001": "34215", "A29_002": "広島県", "A29_003": "江田島市", "A29_004": 10, "A29_005": "準工業地域", "A29_006": 60, "A29_007": 200, "A29_008": null }, "geometry": { "type": "Polygon", "coordinates": [ [ [ 132.496470308, 34.255167165 ], [ 132.495978379, 34.253676125 ], [ 132.495636488, 34.253719121 ], [ 132.495458797, 34.253403233 ], [ 132.49554803699999, 34.253331241 ], [ 132.495592726000012, 34.253294644 ], [ 132.49453259500001, 34.252445577 ], [ 132.49434153499999, 34.25253955 ], [ 132.49382730100001, 34.252307813 ], [ 132.493474346999989, 34.252298764 ], [ 132.49271359799999, 34.251578977 ], [ 132.492866299000013, 34.251507004 ], [ 132.493139930000012, 34.251378033 ], [ 132.49297313400001, 34.251101775 ], [ 132.492680024, 34.25067243 ], [ 132.492509707000011, 34.250704519 ], [ 132.49243899199999, 34.250606418 ], [ 132.492536753, 34.250543586 ], [ 132.492249778, 34.250149281 ], [ 132.491460904, 34.250576177 ], [ 132.491683524, 34.250854271 ], [ 132.491847466, 34.251234961 ], [ 132.491996288, 34.25150233 ], [ 132.49215171899999, 34.251781762 ], [ 132.49247986, 34.252099323 ], [ 132.493023743, 34.252566636 ], [ 132.493360962, 34.252788431 ], [ 132.493420248, 34.252831784 ], [ 132.493681626000011, 34.253048139 ], [ 132.493793012999987, 34.253065732 ], [ 132.493893823, 34.253134044 ], [ 132.493915668999989, 34.253211513 ], [ 132.493972178, 34.253214062 ], [ 132.494059236, 34.253193238 ], [ 132.4942724, 34.253068398 ], [ 132.494451051, 34.253116208 ], [ 132.494648179, 34.25320061 ], [ 132.494701284, 34.253273343 ], [ 132.49473130199999, 34.253337549 ], [ 132.494848227, 34.253364882 ], [ 132.49507629499999, 34.253506831 ], [ 132.49521550599999, 34.253750222 ], [ 132.495198606, 34.253891535 ], [ 132.495161126, 34.254204934 ], [ 132.495571984, 34.254663394 ], [ 132.495630678, 34.255317613 ], [ 132.496470308, 34.255167165 ] ] ] } },
{ "type": "Feature", "properties": { "A29_001": "34215", "A29_002": "広島県", "A29_003": "江田島市", "A29_004": 10, "A29_005": "準工業地域", "A29_006": 60, "A29_007": 200, "A29_008": null }, "geometry": { "type": "Polygon", "coordinates": [ [ [ 132.45768583899999, 34.256192553 ], [ 132.457791063, 34.255917974 ], [ 132.457982582, 34.255968877 ], [ 132.45820522299999, 34.255504164 ], [ 132.458518325999989, 34.255018256 ], [ 132.45889248200001, 34.254454619 ], [ 132.459049819, 34.25424692 ], [ 132.459278454000014, 34.25400522 ], [ 132.459093051999986, 34.253877658 ], [ 132.459334762999987, 34.253624568 ], [ 132.459107682, 34.253430073 ], [ 132.45821514799999, 34.254099189 ], [ 132.45732061199999, 34.254802396 ], [ 132.457054921, 34.255301301 ], [ 132.456871576999987, 34.25525453 ], [ 132.456629529999987, 34.2557807 ], [ 132.45768583899999, 34.256192553 ] ] ] } },
{ "type": "Feature", "properties": { "A29_001": "34215", "A29_002": "広島県", "A29_003": "江田島市", "A29_004": 3, "A29_005": "第一種中高層住居専用地域", "A29_006": 60, "A29_007": 200, "A29_008": null }, "geometry": { "type": "Polygon", "coordinates": [ [ [ 132.44862106299999, 34.262084876 ], [ 132.449252503, 34.260842782 ], [ 132.449782494, 34.260830275 ], [ 132.44998746600001, 34.260989488 ], [ 132.450694051, 34.261310548 ], [ 132.450824790000013, 34.261278727 ], [ 132.450955889999989, 34.261287617 ], [ 132.451057401000014, 34.261321699 ], [ 132.451123607999989, 34.261429766 ], [ 132.45114415099999, 34.261544634 ], [ 132.451230191, 34.261504144 ], [ 132.451256798, 34.261428285 ], [ 132.451177656999988, 34.261269261 ], [ 132.451044, 34.261132761 ], [ 132.45100609799999, 34.261050288 ], [ 132.451035268999988, 34.26093419 ], [ 132.451155195000013, 34.260733783 ], [ 132.450554589, 34.260472922 ], [ 132.44997982000001, 34.2601855 ], [ 132.449573923, 34.25991951 ], [ 132.44960852299999, 34.259819019 ], [ 132.449406113, 34.259731423 ], [ 132.44906487599999, 34.259583747 ], [ 132.44890200099999, 34.259699038 ], [ 132.44867681, 34.259663296 ], [ 132.448411975999988, 34.25962653 ], [ 132.448151337000013, 34.259491353 ], [ 132.447930095, 34.259376608 ], [ 132.447457458, 34.258672579 ], [ 132.44737844, 34.258719114 ], [ 132.447114306, 34.258873212 ], [ 132.44702651099999, 34.258769036 ], [ 132.446984801000013, 34.258719543 ], [ 132.44692307, 34.258739197 ], [ 132.446794197, 34.258780226 ], [ 132.446717903, 34.258685768 ], [ 132.446567527000013, 34.258499592 ], [ 132.446504897000011, 34.258252053 ], [ 132.446436519, 34.258273131 ], [ 132.446070028, 34.258361383 ], [ 132.446068542, 34.25847102 ], [ 132.446270004000013, 34.258734564 ], [ 132.446015389, 34.258942662 ], [ 132.445870337, 34.258963075 ], [ 132.445701089000011, 34.259085427 ], [ 132.445633189, 34.259185353 ], [ 132.445679984, 34.259329214 ], [ 132.445748169000012, 34.259402932 ], [ 132.445506505999987, 34.259600514 ], [ 132.44593620500001, 34.25998768 ], [ 132.445798161999988, 34.260090434 ], [ 132.447027873, 34.261345517 ], [ 132.447350359000012, 34.261088586 ], [ 132.44768101, 34.260907052 ], [ 132.447727871000012, 34.260933588 ], [ 132.447789519999986, 34.260968498 ], [ 132.447905607, 34.26105256 ], [ 132.447581652999986, 34.261620217 ], [ 132.44862106299999, 34.262084876 ] ] ] } },
{ "type": "Feature", "properties": { "A29_001": "34215", "A29_002": "広島県", "A29_003": "江田島市", "A29_004": 5, "A29_005": "第一種住居地域", "A29_006": 60, "A29_007": 200, "A29_008": null }, "geometry": { "type": "Polygon", "coordinates": [ [ [ 132.453531548, 34.267750075 ], [ 132.45362838599999, 34.267378326 ], [ 132.453864349000014, 34.267216 ], [ 132.453853333000012, 34.267137928 ], [ 132.453726525, 34.266994302 ], [ 132.453591378, 34.266996908 ], [ 132.453528995, 34.266998111 ], [ 132.453410235, 34.266850003 ], [ 132.453394895, 34.266823004 ], [ 132.45328045299999, 34.266621592 ], [ 132.453260390999986, 34.266253464 ], [ 132.453233, 34.266101795 ], [ 132.453318595000013, 34.265981101 ], [ 132.45333936899999, 34.265766842 ], [ 132.453226148, 34.26572531 ], [ 132.453121481000011, 34.265573483 ], [ 132.453249852, 34.26530184 ], [ 132.453238916, 34.264988549 ], [ 132.45329524600001, 34.264920065 ], [ 132.453283672999987, 34.264684531 ], [ 132.453361765000011, 34.264557503 ], [ 132.453126250999986, 34.264244015 ], [ 132.452935738, 34.264333715 ], [ 132.452749012999988, 34.264352002 ], [ 132.452543302, 34.264319011 ], [ 132.452367689999988, 34.26416208 ], [ 132.45215772, 34.263946156 ], [ 132.452025006000014, 34.263642999 ], [ 132.451924173, 34.263230431 ], [ 132.451818057, 34.262844652 ], [ 132.45179189000001, 34.262257864 ], [ 132.451792755000014, 34.261717871 ], [ 132.452172415, 34.261136832 ], [ 132.452834997, 34.261153948 ], [ 132.453524119, 34.261109131 ], [ 132.45393255, 34.261090324 ], [ 132.454308610999988, 34.261035889 ], [ 132.454708797, 34.260963546 ], [ 132.454943671, 34.260948202 ], [ 132.455275725, 34.26092651 ], [ 132.455152825999988, 34.261138779 ], [ 132.45499787599999, 34.261409139 ], [ 132.454746073, 34.261810676 ], [ 132.454709197, 34.261869479 ], [ 132.45522895, 34.262083584 ], [ 132.455274333, 34.261994222 ], [ 132.455323459, 34.262017536 ], [ 132.455453019, 34.262083056 ], [ 132.45549272299999, 34.262003191 ], [ 132.455526418, 34.261934776 ], [ 132.455582238, 34.261950543 ], [ 132.455703981, 34.261989863 ], [ 132.455821390000011, 34.261744136 ], [ 132.455819807000012, 34.261737657 ], [ 132.456116981, 34.261734512 ], [ 132.456181001, 34.26162001 ], [ 132.456419732, 34.26146157 ], [ 132.456623533999988, 34.26054846 ], [ 132.456649610999989, 34.260218156 ], [ 132.45658746399999, 34.260120123 ], [ 132.45647048, 34.26001774 ], [ 132.456266693, 34.259902976 ], [ 132.45649126, 34.259559856 ], [ 132.456316646, 34.259475402 ], [ 132.454448791, 34.258788375 ], [ 132.453394526000011, 34.260834976 ], [ 132.453077484, 34.260858031 ], [ 132.45288406899999, 34.26088247 ], [ 132.452661271000011, 34.26089287 ], [ 132.452463134999988, 34.260898539 ], [ 132.45223378599999, 34.260906858 ], [ 132.45199985, 34.26086947 ], [ 132.45181485399999, 34.260786893 ], [ 132.451651766, 34.260666333 ], [ 132.45139108, 34.26078009 ], [ 132.451484216000011, 34.260882074 ], [ 132.451155195000013, 34.260733783 ], [ 132.451035268999988, 34.26093419 ], [ 132.45100609799999, 34.261050288 ], [ 132.451044, 34.261132761 ], [ 132.451177656999988, 34.261269261 ], [ 132.451256798, 34.261428285 ], [ 132.451230191, 34.261504144 ], [ 132.45114415099999, 34.261544634 ], [ 132.451108017, 34.261655226 ], [ 132.451115335999987, 34.261784475 ], [ 132.451223357, 34.261921551 ], [ 132.451373061, 34.262084093 ], [ 132.451328066, 34.262769046 ], [ 132.45144856499999, 34.26280074 ], [ 132.451510375999987, 34.262864633 ], [ 132.451467498, 34.263276351 ], [ 132.4514528, 34.263416033 ], [ 132.451724278, 34.263426559 ], [ 132.451785153, 34.263546911 ], [ 132.451818492, 34.263869266 ], [ 132.451857649, 34.263924959 ], [ 132.451968599, 34.263968573 ], [ 132.452024411, 34.264054427 ], [ 132.451694503999988, 34.264160748 ], [ 132.45168350099999, 34.264165085 ], [ 132.451682642, 34.264217154 ], [ 132.451679818, 34.264388381 ], [ 132.451912757, 34.264394363 ], [ 132.452230117, 34.264393794 ], [ 132.452076355, 34.264622868 ], [ 132.452099753999988, 34.264786818 ], [ 132.45181917799999, 34.264868916 ], [ 132.451651743000014, 34.265028848 ], [ 132.451373816, 34.265099782 ], [ 132.451336475, 34.265109062 ], [ 132.451469769999989, 34.265261333 ], [ 132.451471457999986, 34.265387945 ], [ 132.45147336799999, 34.26553132 ], [ 132.45182189, 34.265558732 ], [ 132.451859143, 34.265561662 ], [ 132.45187456299999, 34.265522436 ], [ 132.45193508700001, 34.265368472 ], [ 132.452265686, 34.265375512 ], [ 132.45235470099999, 34.265471253 ], [ 132.452297178, 34.26554837 ], [ 132.451797072, 34.265884239 ], [ 132.451793568, 34.266040442 ], [ 132.45181677299999, 34.266058402 ], [ 132.45205225699999, 34.266240663 ], [ 132.45234074699999, 34.266044109 ], [ 132.452489332999988, 34.265942873 ], [ 132.452595185, 34.266040455 ], [ 132.452540421, 34.266397123 ], [ 132.452689572999986, 34.266533464 ], [ 132.452810013, 34.266643558 ], [ 132.452912637999987, 34.266737367 ], [ 132.45309936000001, 34.266716848 ], [ 132.452677408, 34.267513315 ], [ 132.45282296799999, 34.267639047 ], [ 132.4529307, 34.267565763 ], [ 132.452941212000013, 34.267488212 ], [ 132.45308318299999, 34.267494517 ], [ 132.453086594000013, 34.267594022 ], [ 132.45309064, 34.267712057 ], [ 132.45348742499999, 34.267816003 ], [ 132.453531548, 34.267750075 ] ] ] } },
{ "type": "Feature", "properties": { "A29_001": "34215", "A29_002": "広島県", "A29_003": "江田島市", "A29_004": 10, "A29_005": "準工業地域", "A29_006": 60, "A29_007": 200, "A29_008": null }, "geometry": { "type": "Polygon", "coordinates": [ [ [ 132.46547607299999, 34.247653386 ], [ 132.46529752, 34.247655888 ], [ 132.46522813499999, 34.24795155 ], [ 132.465208759, 34.248083412 ], [ 132.465138069, 34.24808067 ], [ 132.465069865, 34.248072095 ], [ 132.465024911, 34.248259942 ], [ 132.46499314799999, 34.24835035 ], [ 132.46528859899999, 34.248547776 ], [ 132.465448573, 34.24842417 ], [ 132.46551089, 34.248468975 ], [ 132.465249566000011, 34.248787383 ], [ 132.465201427000011, 34.248846038 ], [ 132.465156497, 34.248827123 ], [ 132.464963871, 34.24874603 ], [ 132.464136582, 34.249383118 ], [ 132.463965067, 34.24925985 ], [ 132.46351445499999, 34.249416262 ], [ 132.463439012, 34.249446416 ], [ 132.463570901999987, 34.249640264 ], [ 132.463596225, 34.249677482 ], [ 132.462840852999989, 34.250127217 ], [ 132.462623622, 34.249926249 ], [ 132.462240044999987, 34.250264168 ], [ 132.46187154099999, 34.250565518 ], [ 132.46176091000001, 34.250655987 ], [ 132.46205980900001, 34.250866816 ], [ 132.462078512, 34.250880008 ], [ 132.461924595999989, 34.251018581 ], [ 132.461256427, 34.250558249 ], [ 132.461229309, 34.250590662 ], [ 132.460821622999987, 34.2509846 ], [ 132.459828182, 34.252023254 ], [ 132.46021570100001, 34.252055546 ], [ 132.460460309000013, 34.252087085 ], [ 132.460681002, 34.252279747 ], [ 132.460286696, 34.25271865 ], [ 132.46002187900001, 34.252552318 ], [ 132.459659230999989, 34.252940872 ], [ 132.45974174, 34.252996896 ], [ 132.460039806999987, 34.253191789 ], [ 132.46039198599999, 34.252829394 ], [ 132.461084469000014, 34.252099157 ], [ 132.461120136, 34.25206153 ], [ 132.461750032999987, 34.251398896 ], [ 132.462085163000012, 34.251036961 ], [ 132.462204756, 34.250943648 ], [ 132.462639708000012, 34.250604281 ], [ 132.46286124299999, 34.250431418 ], [ 132.463012509, 34.250317489 ], [ 132.463183834, 34.250205351 ], [ 132.463263073, 34.250153489 ], [ 132.463538293999989, 34.25 ], [ 132.46383119399999, 34.249836651 ], [ 132.464129111, 34.249677963 ], [ 132.464338596, 34.249565631 ], [ 132.464420267, 34.249526349 ], [ 132.46450429399999, 34.249487449 ], [ 132.464613078000014, 34.249424327 ], [ 132.464733776, 34.249356189 ], [ 132.464979899000014, 34.249227684 ], [ 132.465029386, 34.24920304 ], [ 132.46508705299999, 34.249176844 ], [ 132.465363577, 34.248935106 ], [ 132.46553835200001, 34.24875321 ], [ 132.46566173799999, 34.248622956 ], [ 132.465792764000014, 34.248482846 ], [ 132.465853208, 34.248414523 ], [ 132.46591075500001, 34.248183452 ], [ 132.465911682000012, 34.248147272 ], [ 132.465914916, 34.248084839 ], [ 132.465898288, 34.248014077 ], [ 132.46552174199999, 34.247993568 ], [ 132.465477262, 34.247989685 ], [ 132.46547607299999, 34.247653386 ] ] ] } },
{ "type": "Feature", "properties": { "A29_001": "34215", "A29_002": "広島県", "A29_003": "江田島市", "A29_004": 5, "A29_005": "第一種住居地域", "A29_006": 60, "A29_007": 200, "A29_008": null }, "geometry": { "type": "Polygon", "coordinates": [ [ [ 132.478525573000013, 34.236038776 ], [ 132.478682052000011, 34.235487229 ], [ 132.478937908, 34.235528693 ], [ 132.47902111799999, 34.235245763 ], [ 132.47907637599999, 34.235059183 ], [ 132.479085715, 34.235027631 ], [ 132.47915149100001, 34.234805521 ], [ 132.479191386, 34.234670786 ], [ 132.479221279, 34.234573087 ], [ 132.479272087, 34.234407038 ], [ 132.479658667, 34.234402523 ], [ 132.479656420999987, 34.234243297 ], [ 132.479893425, 34.233852293 ], [ 132.479973605, 34.233578373 ], [ 132.479996634, 34.233348235 ], [ 132.480041355999987, 34.233121593 ], [ 132.48007826599999, 34.232902495 ], [ 132.480099037, 34.232789888 ], [ 132.480110816, 34.232658497 ], [ 132.480117188, 34.232637898 ], [ 132.48012412599999, 34.232591485 ], [ 132.48019473, 34.232512202 ], [ 132.48029770299999, 34.232348057 ], [ 132.48037077699999, 34.232251177 ], [ 132.480415091999987, 34.232210526 ], [ 132.480459833, 34.232117563 ], [ 132.480470306, 34.232044148 ], [ 132.480451902, 34.231985243 ], [ 132.48035782299999, 34.231897413 ], [ 132.480110652, 34.231717634 ], [ 132.480031536000013, 34.231649821 ], [ 132.480062292000014, 34.230754886 ], [ 132.479820472, 34.230753945 ], [ 132.479562238999989, 34.230747237 ], [ 132.479410497, 34.230798805 ], [ 132.479369201999987, 34.231580032 ], [ 132.479601849, 34.231650843 ], [ 132.479602773000011, 34.23166301 ], [ 132.479606085, 34.231706617 ], [ 132.479561, 34.231711387 ], [ 132.479379161999987, 34.231730625 ], [ 132.479347753000013, 34.23245876 ], [ 132.477949908999989, 34.232334031 ], [ 132.47774652699999, 34.232897795 ], [ 132.47761365, 34.233348775 ], [ 132.477496538999986, 34.233656261 ], [ 132.47740501199999, 34.233896585 ], [ 132.477312979, 34.234138234 ], [ 132.477266447, 34.234260427 ], [ 132.47721722599999, 34.234389649 ], [ 132.477022449, 34.234901041 ], [ 132.477986476000012, 34.235187474 ], [ 132.478044383999986, 34.235200931 ], [ 132.478130158999988, 34.235235253 ], [ 132.477621204, 34.236536635 ], [ 132.47731423, 34.237198047 ], [ 132.47737436, 34.237215944 ], [ 132.477541445000014, 34.237262096 ], [ 132.477602617, 34.237283176 ], [ 132.477848281, 34.236842768 ], [ 132.478300649, 34.236466749 ], [ 132.478431295, 34.236276006 ], [ 132.478525573000013, 34.236038776 ] ] ] } }
]
}
