{
"type": "FeatureCollection",
"name": "A29-19_04421",
"features": [
{ "type": "Feature", "properties": { "A29_001": "04421", "A29_002": "宮城県", "A29_003": "大和町", "A29_004": 3, "A29_005": "第一種中高層住居専用地域", "A29_006": 60, "A29_007": 200, "A29_008": null }, "geometry": { "type": "Polygon", "coordinates": [ [ [ 140.840544869000013, 38.353453018 ], [ 140.84060896599999, 38.353166149 ], [ 140.840867514, 38.353257407 ], [ 140.84093783599999, 38.353255777 ], [ 140.84100195900001, 38.353223176 ], [ 140.841047452, 38.353149816 ], [ 140.84111257, 38.352825478 ], [ 140.841844793, 38.353032412 ], [ 140.842141938999987, 38.352775202 ], [ 140.84223483, 38.35263262 ], [ 140.842060323999988, 38.35152875 ], [ 140.841954329, 38.350982754 ], [ 140.841931331000012, 38.350807755 ], [ 140.841902334, 38.350586757 ], [ 140.841868334999987, 38.350407758 ], [ 140.84175434, 38.349842762 ], [ 140.841716351, 38.349674764 ], [ 140.841654342, 38.349453766 ], [ 140.841578343, 38.349232767 ], [ 140.841478343, 38.34898877 ], [ 140.841364343, 38.348748772 ], [ 140.841269342, 38.348584774 ], [ 140.84122508199999, 38.348509894 ], [ 140.841024911, 38.348145035 ], [ 140.840831236000014, 38.347805018 ], [ 140.840727388, 38.3476122 ], [ 140.840556033000013, 38.347344032 ], [ 140.84032632200001, 38.34705979 ], [ 140.839572065999988, 38.347036287 ], [ 140.838972512, 38.347159668 ], [ 140.838728299, 38.347213328 ], [ 140.838385286, 38.347331329 ], [ 140.838025828000013, 38.347516942 ], [ 140.837885846, 38.34758165 ], [ 140.837740548999989, 38.347564968 ], [ 140.83762854599999, 38.34751968 ], [ 140.837491813000014, 38.347459946 ], [ 140.837404979000013, 38.347432299 ], [ 140.837233964, 38.3473683 ], [ 140.837027968, 38.347329302 ], [ 140.836798972, 38.347272304 ], [ 140.83656066399999, 38.34723719 ], [ 140.836357189000012, 38.347226511 ], [ 140.836190703, 38.347193142 ], [ 140.83604237599999, 38.347066803 ], [ 140.835923373000014, 38.347005805 ], [ 140.835776371, 38.346868806 ], [ 140.835703935999987, 38.346772313 ], [ 140.835600935, 38.346676315 ], [ 140.835580934, 38.346657315 ], [ 140.83542294099999, 38.346566306 ], [ 140.83521792499999, 38.346509308 ], [ 140.834498591999989, 38.346007225 ], [ 140.834385093, 38.346787924 ], [ 140.833961316999989, 38.346930956 ], [ 140.833605646, 38.347038229 ], [ 140.83335592, 38.347121662 ], [ 140.83324543399999, 38.347181258 ], [ 140.83314611099999, 38.347253583 ], [ 140.833068354, 38.347363619 ], [ 140.833059273, 38.347517375 ], [ 140.83306018, 38.347695326 ], [ 140.833108914, 38.347871013 ], [ 140.83328728699999, 38.348177397 ], [ 140.832744760999987, 38.34811273 ], [ 140.832755048, 38.348711663 ], [ 140.832768062000014, 38.349014288 ], [ 140.837595373, 38.348940639 ], [ 140.837755483, 38.349200853 ], [ 140.838255991000011, 38.34918778 ], [ 140.83830150899999, 38.349396398 ], [ 140.83853317399999, 38.349624575 ], [ 140.838485616000014, 38.349992933 ], [ 140.83891169, 38.35006788 ], [ 140.838924098, 38.350221089 ], [ 140.838837242000011, 38.350354739 ], [ 140.839044086, 38.350556836 ], [ 140.838816576, 38.350651387 ], [ 140.838816584999989, 38.350729617 ], [ 140.839002738, 38.350931704 ], [ 140.83904412699999, 38.351097953 ], [ 140.83866149799999, 38.351345714 ], [ 140.838992437, 38.3515152 ], [ 140.838980042, 38.351792279 ], [ 140.838603616, 38.351886831 ], [ 140.83871533300001, 38.352291037 ], [ 140.839042138999986, 38.352610473 ], [ 140.838661575, 38.352649615 ], [ 140.838642990000011, 38.352861494 ], [ 140.838816726, 38.352907123 ], [ 140.838841553, 38.353115741 ], [ 140.839151815, 38.353096169 ], [ 140.839226309, 38.353536236 ], [ 140.839726831, 38.353347134 ], [ 140.840144661000011, 38.353646999 ], [ 140.840278074999986, 38.353686108 ], [ 140.84036493799999, 38.353669808 ], [ 140.840462143, 38.353589928 ], [ 140.840544869000013, 38.353453018 ] ] ] } },
{ "type": "Feature", "properties": { "A29_001": "04421", "A29_002": "宮城県", "A29_003": "大和町", "A29_004": 6, "A29_005": "第二種住居地域", "A29_006": 60, "A29_007": 200, "A29_008": null }, "geometry": { "type": "Polygon", "coordinates": [ [ [ 140.86364332299999, 38.365238635 ], [ 140.863331641, 38.361996742 ], [ 140.861289397, 38.362083302 ], [ 140.861241017, 38.361675524 ], [ 140.86075811399999, 38.361673254 ], [ 140.860746869, 38.361962293 ], [ 140.860648677, 38.362507611 ], [ 140.86055172499999, 38.363046135 ], [ 140.860264411, 38.363892452 ], [ 140.85993138500001, 38.364530465 ], [ 140.860990840999989, 38.364882337 ], [ 140.860942470999987, 38.364975892 ], [ 140.86189633699999, 38.365303437 ], [ 140.860878746999987, 38.367133186 ], [ 140.862198505, 38.367587046 ], [ 140.86364332299999, 38.365238635 ] ] ] } },
{ "type": "Feature", "properties": { "A29_001": "04421", "A29_002": "宮城県", "A29_003": "大和町", "A29_004": 5, "A29_005": "第一種住居地域", "A29_006": 60, "A29_007": 200, "A29_008": null }, "geometry": { "type": "Polygon", "coordinates": [ [ [ 140.862463474, 38.378576578 ], [ 140.86244642299999, 38.37839925 ], [ 140.862165417999989, 38.378399957 ], [ 140.862161912, 38.37432744 ], [ 140.861662263, 38.374333275 ], [ 140.861659489, 38.378064644 ], [ 140.86167083, 38.37848335 ], [ 140.861719236999988, 38.378764084 ], [ 140.86182836, 38.379027229 ], [ 140.86194838, 38.379277498 ], [ 140.862148345, 38.379517736 ], [ 140.862555251, 38.37994322 ], [ 140.861679299, 38.380658366 ], [ 140.862348985000011, 38.381187988 ], [ 140.861390054999987, 38.381975611 ], [ 140.862123923000013, 38.382519892 ], [ 140.863462484, 38.381445267 ], [ 140.864500545, 38.38061821 ], [ 140.863142667, 38.379548346 ], [ 140.862982718000012, 38.379421092 ], [ 140.8628573, 38.379310992 ], [ 140.862770044, 38.379210894 ], [ 140.862679154, 38.379113658 ], [ 140.86261370299999, 38.379014985 ], [ 140.862552184, 38.378904925 ], [ 140.86250232, 38.378787297 ], [ 140.86247805299999, 38.378685276 ], [ 140.862463474, 38.378576578 ] ] ] } },
{ "type": "Feature", "properties": { "A29_001": "04421", "A29_002": "宮城県", "A29_003": "大和町", "A29_004": 3, "A29_005": "第一種中高層住居専用地域", "A29_006": 60, "A29_007": 200, "A29_008": null }, "geometry": { "type": "Polygon", "coordinates": [ [ [ 140.860374858, 38.381206237 ], [ 140.860270891999988, 38.381130076 ], [ 140.859790056, 38.381474083 ], [ 140.859441306, 38.381752162 ], [ 140.859221972, 38.381892167 ], [ 140.859089653000012, 38.381997519 ], [ 140.859332481, 38.382459897 ], [ 140.859523927999987, 38.382820526 ], [ 140.859557574, 38.382920374 ], [ 140.85992852199999, 38.38280706 ], [ 140.860201034999989, 38.382669929 ], [ 140.86061331, 38.382442473 ], [ 140.860807028000011, 38.382320111 ], [ 140.861156222, 38.382046556 ], [ 140.861337179, 38.381911182 ], [ 140.860374858, 38.381206237 ] ] ] } },
{ "type": "Feature", "properties": { "A29_001": "04421", "A29_002": "宮城県", "A29_003": "大和町", "A29_004": 6, "A29_005": "第二種住居地域", "A29_006": 60, "A29_007": 200, "A29_008": null }, "geometry": { "type": "Polygon", "coordinates": [ [ [ 140.869236761, 38.384349476 ], [ 140.869151405, 38.384255226 ], [ 140.868296275, 38.384815078 ], [ 140.868160026999988, 38.384893784 ], [ 140.868083211, 38.385068686 ], [ 140.868031308000013, 38.38530096 ], [ 140.867973189999987, 38.385582667 ], [ 140.867956708, 38.385776162 ], [ 140.86829669, 38.385778146 ], [ 140.86880349899999, 38.385773794 ], [ 140.869398268, 38.385766819 ], [ 140.869718503, 38.385763061 ], [ 140.869840312, 38.385761632 ], [ 140.869838996999988, 38.38566672 ], [ 140.869826216, 38.385442085 ], [ 140.869783218, 38.385243096 ], [ 140.869726218000011, 38.385087098 ], [ 140.86958721799999, 38.3848021 ], [ 140.869439215, 38.384619102 ], [ 140.86931621299999, 38.384444104 ], [ 140.869236761, 38.384349476 ] ] ] } },
{ "type": "Feature", "properties": { "A29_001": "04421", "A29_002": "宮城県", "A29_003": "大和町", "A29_004": 5, "A29_005": "第一種住居地域", "A29_006": 60, "A29_007": 200, "A29_008": null }, "geometry": { "type": "Polygon", "coordinates": [ [ [ 140.86304851, 38.387612316 ], [ 140.86406232499999, 38.386790442 ], [ 140.864367703, 38.387029999 ], [ 140.86468842, 38.386798427 ], [ 140.864903610999988, 38.386667946 ], [ 140.865110539999989, 38.386583125 ], [ 140.86553164899999, 38.386442813 ], [ 140.865800701000012, 38.386400351 ], [ 140.866202197, 38.386367638 ], [ 140.866856203999987, 38.386329943 ], [ 140.868064901, 38.386358923 ], [ 140.869398104, 38.386377393 ], [ 140.869398268, 38.385766819 ], [ 140.86880349899999, 38.385773794 ], [ 140.86829669, 38.385778146 ], [ 140.867956708, 38.385776162 ], [ 140.867973189999987, 38.385582667 ], [ 140.866160038, 38.385611615 ], [ 140.866181426, 38.385115094 ], [ 140.866226633, 38.384960105 ], [ 140.866393106, 38.384643806 ], [ 140.865638545, 38.384215283 ], [ 140.865574411000011, 38.384277253 ], [ 140.865336727, 38.384138854 ], [ 140.865199754, 38.384293276 ], [ 140.864190009999987, 38.384315979 ], [ 140.863669173, 38.384490132 ], [ 140.86461468600001, 38.385892509 ], [ 140.86437455, 38.386040484 ], [ 140.863563468, 38.386614517 ], [ 140.862659271000012, 38.387276601 ], [ 140.86304851, 38.387612316 ] ] ] } },
{ "type": "Feature", "properties": { "A29_001": "04421", "A29_002": "宮城県", "A29_003": "大和町", "A29_004": 8, "A29_005": "近隣商業地域", "A29_006": 80, "A29_007": 200, "A29_008": null }, "geometry": { "type": "Polygon", "coordinates": [ [ [ 140.88560663199999, 38.437502729 ], [ 140.88546449399999, 38.436655741 ], [ 140.878566207, 38.437296064 ], [ 140.878602419, 38.437514525 ], [ 140.878831507, 38.43932433 ], [ 140.879340278, 38.439235167 ], [ 140.87955972200001, 38.439194028 ], [ 140.879707722, 38.439150889 ], [ 140.8798085, 38.439128806 ], [ 140.879902054000013, 38.439104819 ], [ 140.880236551, 38.439079764 ], [ 140.880363472, 38.439056833 ], [ 140.880529833, 38.439024611 ], [ 140.88065086899999, 38.438997543 ], [ 140.883238021000011, 38.438760445 ], [ 140.884314332, 38.438658256 ], [ 140.88435901, 38.438654316 ], [ 140.885043528000011, 38.438593083 ], [ 140.88549788899999, 38.438551111 ], [ 140.88565430599999, 38.438518889 ], [ 140.885761968999986, 38.438483268 ], [ 140.88560663199999, 38.437502729 ] ] ] } },
{ "type": "Feature", "properties": { "A29_001": "04421", "A29_002": "宮城県", "A29_003": "大和町", "A29_004": 2, "A29_005": "第二種低層住居専用地域", "A29_006": 40, "A29_007": 60, "A29_008": null }, "geometry": { "type": "Polygon", "coordinates": [ [ [ 140.87776851699999, 38.441509202 ], [ 140.877211794, 38.437647576 ], [ 140.876334074, 38.437731544 ], [ 140.876926884999989, 38.441586595 ], [ 140.877211721, 38.441561928 ], [ 140.87776851699999, 38.441509202 ] ] ] } },
{ "type": "Feature", "properties": { "A29_001": "04421", "A29_002": "宮城県", "A29_003": "大和町", "A29_004": 1, "A29_005": "第一種低層住居専用地域", "A29_006": 40, "A29_007": 60, "A29_008": null }, "geometry": { "type": "Polygon", "coordinates": [ [ [ 140.89024215399999, 38.438380451 ], [ 140.890214058, 38.438141751 ], [ 140.89016842800001, 38.43814364 ], [ 140.889525752, 38.438191682 ], [ 140.889258391999988, 38.438212059 ], [ 140.889286696999989, 38.438458169 ], [ 140.889300392, 38.43855319 ], [ 140.88933929800001, 38.438823118 ], [ 140.889399413, 38.439183634 ], [ 140.889453906999989, 38.439573406 ], [ 140.889630501, 38.439950766 ], [ 140.889636040999989, 38.439955682 ], [ 140.889827757, 38.439779373 ], [ 140.890427181, 38.439732198 ], [ 140.89024215399999, 38.438380451 ] ] ] } },
{ "type": "Feature", "properties": { "A29_001": "04421", "A29_002": "宮城県", "A29_003": "大和町", "A29_004": 2, "A29_005": "第二種低層住居専用地域", "A29_006": 40, "A29_007": 60, "A29_008": null }, "geometry": { "type": "Polygon", "coordinates": [ [ [ 140.889286696999989, 38.438458169 ], [ 140.889258391999988, 38.438212059 ], [ 140.888988189, 38.438232651 ], [ 140.88870938, 38.438229518 ], [ 140.888533, 38.438262111 ], [ 140.888425379000012, 38.43827683 ], [ 140.888268747000012, 38.438289906 ], [ 140.88830456299999, 38.438536774 ], [ 140.888321539, 38.438649444 ], [ 140.88835340599999, 38.438860943 ], [ 140.88840788499999, 38.439183634 ], [ 140.888451094, 38.439515191 ], [ 140.88848678799999, 38.439752186 ], [ 140.88862956299999, 38.440073992 ], [ 140.88876445, 38.440365951 ], [ 140.88932463899999, 38.440242056 ], [ 140.889636040999989, 38.439955682 ], [ 140.889630501, 38.439950766 ], [ 140.889453906999989, 38.439573406 ], [ 140.889399413, 38.439183634 ], [ 140.88933929800001, 38.438823118 ], [ 140.889300392, 38.43855319 ], [ 140.889286696999989, 38.438458169 ] ] ] } },
{ "type": "Feature", "properties": { "A29_001": "04421", "A29_002": "宮城県", "A29_003": "大和町", "A29_004": 1, "A29_005": "第一種低層住居専用地域", "A29_006": 40, "A29_007": 60, "A29_008": null }, "geometry": { "type": "Polygon", "coordinates": [ [ [ 140.88830456299999, 38.438536774 ], [ 140.888268747000012, 38.438289906 ], [ 140.886348792, 38.438450181 ], [ 140.886264133999987, 38.438458183 ], [ 140.88633427900001, 38.438705211 ], [ 140.886443238, 38.439018447 ], [ 140.886706239, 38.439785578 ], [ 140.886817451000013, 38.440105019 ], [ 140.886943319000011, 38.440467013 ], [ 140.887069188, 38.440824574 ], [ 140.887181430999988, 38.441173271 ], [ 140.888380098, 38.44090968 ], [ 140.88834816100001, 38.44079 ], [ 140.888588626, 38.440741242 ], [ 140.88851723799999, 38.440535866 ], [ 140.88876445, 38.440365951 ], [ 140.88862956299999, 38.440073992 ], [ 140.88848678799999, 38.439752186 ], [ 140.888451094, 38.439515191 ], [ 140.88840788499999, 38.439183634 ], [ 140.88835340599999, 38.438860943 ], [ 140.888321539, 38.438649444 ], [ 140.88830456299999, 38.438536774 ] ] ] } },
{ "type": "Feature", "properties": { "A29_001": "04421", "A29_002": "宮城県", "A29_003": "大和町", "A29_004": 7, "A29_005": "準住居地域", "A29_006": 60, "A29_007": 200, "A29_008": null }, "geometry": { "type": "Polygon", "coordinates": [ [ [ 140.87329378699999, 38.442327802 ], [ 140.87323825499999, 38.441772741 ], [ 140.872879769, 38.441775015 ], [ 140.872712091000011, 38.441793887 ], [ 140.87231313, 38.441858687 ], [ 140.871696766000014, 38.441954978 ], [ 140.870874272, 38.441932241 ], [ 140.870437729, 38.441922009 ], [ 140.870443935999987, 38.442047404 ], [ 140.870400571, 38.442496459 ], [ 140.87115614699999, 38.442721555 ], [ 140.871488613999986, 38.442872756 ], [ 140.87179362099999, 38.443032938 ], [ 140.87199454899999, 38.443162539 ], [ 140.872118863, 38.443259171 ], [ 140.87217084400001, 38.443314302 ], [ 140.872596555, 38.44313666 ], [ 140.872826288, 38.443093418 ], [ 140.872820506000011, 38.443021797 ], [ 140.872810386999987, 38.44261526 ], [ 140.87331053599999, 38.442495209 ], [ 140.87329378699999, 38.442327802 ] ] ] } },
{ "type": "Feature", "properties": { "A29_001": "04421", "A29_002": "宮城県", "A29_003": "大和町", "A29_004": 6, "A29_005": "第二種住居地域", "A29_006": 60, "A29_007": 200, "A29_008": null }, "geometry": { "type": "Polygon", "coordinates": [ [ [ 140.88513470800001, 38.443965657 ], [ 140.88501446699999, 38.44354603 ], [ 140.88495998799999, 38.443366359 ], [ 140.884958111, 38.443280069 ], [ 140.884875448, 38.442620486 ], [ 140.884854781, 38.442416582 ], [ 140.884783508999988, 38.441752195 ], [ 140.884314332, 38.438658256 ], [ 140.883238021000011, 38.438760445 ], [ 140.883574194, 38.440952314 ], [ 140.883501042, 38.440957908 ], [ 140.883369028, 38.440965028 ], [ 140.883333333, 38.440968361 ], [ 140.882500985, 38.441054763 ], [ 140.881633972, 38.441139191 ], [ 140.88136837799999, 38.439429422 ], [ 140.880168277, 38.439605115 ], [ 140.88041529, 38.441262964 ], [ 140.88054974, 38.442675738 ], [ 140.880591133, 38.443164111 ], [ 140.882828268999987, 38.442487514 ], [ 140.882957436, 38.442903693 ], [ 140.88357640800001, 38.442777506 ], [ 140.883887914000013, 38.443739532 ], [ 140.883987536, 38.443721825 ], [ 140.884120626999987, 38.444155021 ], [ 140.884531629, 38.444083567 ], [ 140.884969375999987, 38.444001119 ], [ 140.88513470800001, 38.443965657 ] ] ] } },
{ "type": "Feature", "properties": { "A29_001": "04421", "A29_002": "宮城県", "A29_003": "大和町", "A29_004": 3, "A29_005": "第一種中高層住居専用地域", "A29_006": 60, "A29_007": 200, "A29_008": null }, "geometry": { "type": "Polygon", "coordinates": [ [ [ 140.88054974, 38.442675738 ], [ 140.88041529, 38.441262964 ], [ 140.880398558, 38.44126467 ], [ 140.880239176, 38.441280919 ], [ 140.879821287999988, 38.441325355 ], [ 140.879490317, 38.441357958 ], [ 140.878441828, 38.441445439 ], [ 140.877211721, 38.441561928 ], [ 140.876783639, 38.441599 ], [ 140.876564583, 38.441624389 ], [ 140.876300033, 38.441666667 ], [ 140.876294014, 38.441667629 ], [ 140.875807571, 38.441804487 ], [ 140.875024563000011, 38.442017947 ], [ 140.875, 38.442024588 ], [ 140.874966016, 38.442033775 ], [ 140.874502979, 38.442164717 ], [ 140.87382034, 38.442347961 ], [ 140.873829217, 38.442533439 ], [ 140.873712536999989, 38.44255453 ], [ 140.873799381999987, 38.442842148 ], [ 140.873978498000014, 38.442926774 ], [ 140.873991085, 38.442976602 ], [ 140.874051683, 38.443216479 ], [ 140.874095594000011, 38.443346942 ], [ 140.874198052999986, 38.443617461 ], [ 140.874334675, 38.443968943 ], [ 140.87441518, 38.444187661 ], [ 140.874488366, 38.444377599 ], [ 140.875, 38.444229722 ], [ 140.875829917, 38.444008385 ], [ 140.876854197, 38.443732297 ], [ 140.877013159, 38.44368945 ], [ 140.877217333, 38.443634417 ], [ 140.877591816, 38.443445004 ], [ 140.877682087000011, 38.443405563 ], [ 140.878204934, 38.443240831 ], [ 140.87828058299999, 38.443215667 ], [ 140.878646062, 38.443122672 ], [ 140.878799861, 38.443078667 ], [ 140.87889011499999, 38.44302013 ], [ 140.878953636, 38.442935992 ], [ 140.879017156, 38.442916711 ], [ 140.879659048, 38.442822933 ], [ 140.879745417, 38.442822422 ], [ 140.880382013, 38.442703813 ], [ 140.88054974, 38.442675738 ] ] ] } },
{ "type": "Feature", "properties": { "A29_001": "04421", "A29_002": "宮城県", "A29_003": "大和町", "A29_004": 3, "A29_005": "第一種中高層住居専用地域", "A29_006": 60, "A29_007": 200, "A29_008": null }, "geometry": { "type": "Polygon", "coordinates": [ [ [ 140.872820506000011, 38.443171861 ], [ 140.872826288, 38.443093418 ], [ 140.872596555, 38.44313666 ], [ 140.87217084400001, 38.443314302 ], [ 140.872240846000011, 38.443388544 ], [ 140.872460568, 38.443729599 ], [ 140.87263359100001, 38.444040186 ], [ 140.872721769, 38.444191386 ], [ 140.872828739999989, 38.444322124 ], [ 140.872925592, 38.444407388 ], [ 140.873070146, 38.444490378 ], [ 140.87315832499999, 38.444536988 ], [ 140.873391973, 38.444705503 ], [ 140.873297097, 38.444554041 ], [ 140.873273969, 38.444469914 ], [ 140.873069861, 38.443923545 ], [ 140.872927476, 38.443554524 ], [ 140.872820506000011, 38.443171861 ] ] ] } },
{ "type": "Feature", "properties": { "A29_001": "04421", "A29_002": "宮城県", "A29_003": "大和町", "A29_004": 6, "A29_005": "第二種住居地域", "A29_006": 60, "A29_007": 200, "A29_008": null }, "geometry": { "type": "Polygon", "coordinates": [ [ [ 140.900262864000013, 38.443872599 ], [ 140.900070448, 38.443238123 ], [ 140.90024442399999, 38.443244541 ], [ 140.901253704, 38.442864172 ], [ 140.90162690599999, 38.443304034 ], [ 140.90202376900001, 38.443564597 ], [ 140.901980506, 38.443818886 ], [ 140.902757235, 38.443891766 ], [ 140.90397102, 38.44403446 ], [ 140.90443579399999, 38.442785645 ], [ 140.903841805000013, 38.442106327 ], [ 140.904230971, 38.441926794 ], [ 140.904618225, 38.44189885 ], [ 140.904741410000014, 38.441866168 ], [ 140.905304483, 38.441605024 ], [ 140.904981131999989, 38.44133792 ], [ 140.905028703999989, 38.44127269 ], [ 140.905161219, 38.441243258 ], [ 140.90526057299999, 38.441192678 ], [ 140.905279164, 38.441140508 ], [ 140.905562855, 38.441102835 ], [ 140.905625087, 38.441203853 ], [ 140.90640062599999, 38.441151214 ], [ 140.906466798999986, 38.441053374 ], [ 140.906740159, 38.441041781 ], [ 140.906918236, 38.441009079 ], [ 140.907150075, 38.440911128 ], [ 140.90731565199999, 38.440796926 ], [ 140.907387005, 38.440705606 ], [ 140.907500691, 38.440488747 ], [ 140.907968479, 38.440234173 ], [ 140.90828736200001, 38.44018996 ], [ 140.908669506, 38.439941828 ], [ 140.908577017, 38.439846918 ], [ 140.908333333, 38.439593359 ], [ 140.90825902899999, 38.439516044 ], [ 140.90801915, 38.439279976 ], [ 140.907573871000011, 38.438846236 ], [ 140.907227186999989, 38.439055284 ], [ 140.906503326, 38.439509881 ], [ 140.906088485, 38.43976842 ], [ 140.90600848299999, 38.439718846 ], [ 140.905692944, 38.440009114 ], [ 140.905177377, 38.440343699 ], [ 140.90486015, 38.440530954 ], [ 140.904496021, 38.44069391 ], [ 140.904448425, 38.44071521 ], [ 140.904315610999987, 38.440499199 ], [ 140.90385130300001, 38.439844482 ], [ 140.902911261000014, 38.440276299 ], [ 140.90306532, 38.440631439 ], [ 140.903046727, 38.440689932 ], [ 140.902005499000012, 38.440963599 ], [ 140.90085557, 38.441247778 ], [ 140.900585, 38.441328278 ], [ 140.9, 38.441470583 ], [ 140.899592918, 38.441574158 ], [ 140.899639494000013, 38.441666667 ], [ 140.89970374399999, 38.441794278 ], [ 140.899792952000013, 38.441994125 ], [ 140.894097302, 38.442447626 ], [ 140.892788894, 38.442640246 ], [ 140.893001639, 38.444178969 ], [ 140.893412377, 38.444030387 ], [ 140.893738066999987, 38.443854416 ], [ 140.893818091000014, 38.444004579 ], [ 140.894340418000013, 38.443776631 ], [ 140.894366872, 38.443696165 ], [ 140.894377404000011, 38.443605577 ], [ 140.89434079899999, 38.443250381 ], [ 140.894949744, 38.442989668 ], [ 140.895002999000013, 38.443239936 ], [ 140.895043154, 38.443394567 ], [ 140.895122147, 38.443479566 ], [ 140.89520715, 38.443571554 ], [ 140.895352155000012, 38.443722561 ], [ 140.89552516099999, 38.443903557 ], [ 140.895590163, 38.443955556 ], [ 140.895665165999986, 38.444015555 ], [ 140.895824170999987, 38.444189551 ], [ 140.895983177, 38.444293548 ], [ 140.896065169, 38.444397547 ], [ 140.896263186, 38.444575543 ], [ 140.896358037, 38.444578477 ], [ 140.896497907, 38.444585307 ], [ 140.896653587, 38.444603348 ], [ 140.896767103, 38.444619121 ], [ 140.89719040599999, 38.444967773 ], [ 140.897387427000012, 38.444968858 ], [ 140.897582392, 38.444901344 ], [ 140.897586402, 38.444900344 ], [ 140.898112414, 38.444708339 ], [ 140.898295421, 38.444677337 ], [ 140.898522430000014, 38.444592336 ], [ 140.89909194099999, 38.444333673 ], [ 140.899346941, 38.44427167 ], [ 140.899626950999988, 38.444217668 ], [ 140.90014788900001, 38.44404718 ], [ 140.900262864000013, 38.443872599 ] ] ] } },
{ "type": "Feature", "properties": { "A29_001": "04421", "A29_002": "宮城県", "A29_003": "大和町", "A29_004": 3, "A29_005": "第一種中高層住居専用地域", "A29_006": 60, "A29_007": 200, "A29_008": null }, "geometry": { "type": "Polygon", "coordinates": [ [ [ 140.874265586, 38.446509184 ], [ 140.873871245, 38.445443299 ], [ 140.873480739, 38.445521616 ], [ 140.87345749799999, 38.446534732 ], [ 140.874265586, 38.446509184 ] ] ] } },
{ "type": "Feature", "properties": { "A29_001": "04421", "A29_002": "宮城県", "A29_003": "大和町", "A29_004": 10, "A29_005": "準工業地域", "A29_006": 60, "A29_007": 200, "A29_008": null }, "geometry": { "type": "Polygon", "coordinates": [ [ [ 140.888107507, 38.448279659 ], [ 140.888251776, 38.448258615 ], [ 140.888449302999987, 38.448314541 ], [ 140.888604672000014, 38.44834045 ], [ 140.888775603999989, 38.448302229 ], [ 140.888900274, 38.448218977 ], [ 140.88895016699999, 38.448084457 ], [ 140.889057595, 38.448027866 ], [ 140.889318893, 38.44802561 ], [ 140.88951538500001, 38.44798756 ], [ 140.88963639, 38.447963559 ], [ 140.889877399999989, 38.447902556 ], [ 140.89013041199999, 38.447768554 ], [ 140.890241417, 38.447647554 ], [ 140.890279429, 38.447606554 ], [ 140.890371425000012, 38.447382554 ], [ 140.890450429, 38.447310554 ], [ 140.890679440000014, 38.447100552 ], [ 140.890805446, 38.446996552 ], [ 140.89089145, 38.446896551 ], [ 140.890983455999987, 38.446652552 ], [ 140.89109796599999, 38.446384598 ], [ 140.89109696599999, 38.446379598 ], [ 140.891082786, 38.446312549 ], [ 140.891041965, 38.4461196 ], [ 140.890886959999989, 38.445949604 ], [ 140.89089196099999, 38.445883604 ], [ 140.89095996399999, 38.445732604 ], [ 140.891099886, 38.445698232 ], [ 140.891209014999987, 38.44570962 ], [ 140.891504327, 38.445793739 ], [ 140.891544124, 38.445735332 ], [ 140.891571238000012, 38.445695538 ], [ 140.891698044, 38.445431829 ], [ 140.891763954, 38.445290889 ], [ 140.89177184, 38.445270498 ], [ 140.891930206000012, 38.444860978 ], [ 140.891996017, 38.444473022 ], [ 140.892119306000012, 38.4444485 ], [ 140.893001639, 38.444178969 ], [ 140.892788894, 38.442640246 ], [ 140.89193480899999, 38.436165112 ], [ 140.89107461, 38.436240178 ], [ 140.890989475, 38.435404133 ], [ 140.889902045000014, 38.435490904 ], [ 140.889975185999987, 38.436112326 ], [ 140.889989680000014, 38.436235471 ], [ 140.890214058, 38.438141751 ], [ 140.89024215399999, 38.438380451 ], [ 140.890427181, 38.439732198 ], [ 140.890935742000011, 38.439690246 ], [ 140.891286611999988, 38.442666118 ], [ 140.891374961, 38.443474565 ], [ 140.891393195, 38.443770978 ], [ 140.89141171899999, 38.444192896 ], [ 140.89136202200001, 38.444586243 ], [ 140.891216851, 38.444986788 ], [ 140.890912673, 38.445548316 ], [ 140.89022679499999, 38.446396082 ], [ 140.889418118, 38.447218872 ], [ 140.888822852, 38.447687566 ], [ 140.888245678, 38.448041828 ], [ 140.887404847, 38.448482025 ], [ 140.887736753000013, 38.448463993 ], [ 140.88799682699999, 38.448349626 ], [ 140.888107507, 38.448279659 ] ] ] } },
{ "type": "Feature", "properties": { "A29_001": "04421", "A29_002": "宮城県", "A29_003": "大和町", "A29_004": 9, "A29_005": "商業地域", "A29_006": 80, "A29_007": 400, "A29_008": null }, "geometry": { "type": "Polygon", "coordinates": [ [ [ 140.885672218, 38.449021369 ], [ 140.886250018, 38.448844238 ], [ 140.886336214000011, 38.448845215 ], [ 140.886437389, 38.4488225 ], [ 140.886608688, 38.448784287 ], [ 140.88675319399999, 38.448755535 ], [ 140.886870714999986, 38.448738421 ], [ 140.886986495, 38.448735682 ], [ 140.887023113999987, 38.448735942 ], [ 140.887147158, 38.44868752 ], [ 140.887013481, 38.448422145 ], [ 140.88577486299999, 38.445258453 ], [ 140.888234081, 38.444737928 ], [ 140.888033638, 38.443966037 ], [ 140.891374961, 38.443474565 ], [ 140.891286611999988, 38.442666118 ], [ 140.887371978, 38.44323924 ], [ 140.887389697, 38.443290668 ], [ 140.887454846, 38.443514349 ], [ 140.887041512, 38.443608914 ], [ 140.885985043, 38.443810513 ], [ 140.88578100699999, 38.443852772 ], [ 140.885660014, 38.443877004 ], [ 140.885194829, 38.443958269 ], [ 140.88513470800001, 38.443965657 ], [ 140.884969375999987, 38.444001119 ], [ 140.884531629, 38.444083567 ], [ 140.883972551999989, 38.444180765 ], [ 140.88427805399999, 38.445054141 ], [ 140.883877949, 38.445188491 ], [ 140.88536099, 38.449112687 ], [ 140.885672218, 38.449021369 ] ] ] } },
{ "type": "Feature", "properties": { "A29_001": "04421", "A29_002": "宮城県", "A29_003": "大和町", "A29_004": 10, "A29_005": "準工業地域", "A29_006": 60, "A29_007": 200, "A29_008": null }, "geometry": { "type": "Polygon", "coordinates": [ [ [ 140.887109876000011, 38.448976734 ], [ 140.887056804, 38.448822534 ], [ 140.886546779000014, 38.449210486 ], [ 140.884467706, 38.450461885 ], [ 140.884481897, 38.450469623 ], [ 140.88458960599999, 38.450560781 ], [ 140.884687224, 38.450590406 ], [ 140.884964639, 38.450660844 ], [ 140.88512377, 38.450642895 ], [ 140.885291947000013, 38.450557005 ], [ 140.88540129099999, 38.45043753 ], [ 140.885469054999987, 38.450246798 ], [ 140.88553264, 38.450145698 ], [ 140.885559857, 38.450056294 ], [ 140.88562348, 38.450009782 ], [ 140.885811749999988, 38.449907593 ], [ 140.886004250000013, 38.44986734 ], [ 140.886137574, 38.449854408 ], [ 140.886260736, 38.449787571 ], [ 140.886330213, 38.449648364 ], [ 140.8863724, 38.449521428 ], [ 140.886375474, 38.449363721 ], [ 140.886892824, 38.449125532 ], [ 140.887093644, 38.449041585 ], [ 140.887109876000011, 38.448976734 ] ] ] } },
{ "type": "Feature", "properties": { "A29_001": "04421", "A29_002": "宮城県", "A29_003": "大和町", "A29_004": 5, "A29_005": "第一種住居地域", "A29_006": 60, "A29_007": 200, "A29_008": null }, "geometry": { "type": "Polygon", "coordinates": [ [ [ 140.882708806000011, 38.451575502 ], [ 140.883990571, 38.450763981 ], [ 140.88396964399999, 38.450711667 ], [ 140.88384964, 38.45053767 ], [ 140.883535478999988, 38.450279481 ], [ 140.883784544, 38.450250619 ], [ 140.884160087999987, 38.450294151 ], [ 140.884467706, 38.450461885 ], [ 140.886546779000014, 38.449210486 ], [ 140.887056804, 38.448822534 ], [ 140.880582935, 38.450806256 ], [ 140.881220681, 38.45108102 ], [ 140.881367084, 38.451050439 ], [ 140.88150353899999, 38.45111832 ], [ 140.88178554699999, 38.451526692 ], [ 140.881978554999989, 38.45153769 ], [ 140.88218056299999, 38.451545687 ], [ 140.882708806000011, 38.451575502 ] ] ] } },
{ "type": "Feature", "properties": { "A29_001": "04421", "A29_002": "宮城県", "A29_003": "大和町", "A29_004": 10, "A29_005": "準工業地域", "A29_006": 60, "A29_007": 200, "A29_008": null }, "geometry": { "type": "Polygon", "coordinates": [ [ [ 140.884037645, 38.450881655 ], [ 140.883990571, 38.450763981 ], [ 140.882708806000011, 38.451575502 ], [ 140.88368161599999, 38.451711461 ], [ 140.88387274499999, 38.451684459 ], [ 140.884087107999989, 38.451519134 ], [ 140.88402264199999, 38.451259652 ], [ 140.88406664499999, 38.451051663 ], [ 140.88406164599999, 38.450962664 ], [ 140.884037645, 38.450881655 ] ] ] } },
{ "type": "Feature", "properties": { "A29_001": "04421", "A29_002": "宮城県", "A29_003": "大和町", "A29_004": 10, "A29_005": "準工業地域", "A29_006": 60, "A29_007": 200, "A29_008": null }, "geometry": { "type": "Polygon", "coordinates": [ [ [ 140.880304899, 38.453067428 ], [ 140.880567004999989, 38.452586199 ], [ 140.879415214, 38.453213804 ], [ 140.879420457, 38.45335448 ], [ 140.879582935, 38.453386029 ], [ 140.879892043000012, 38.453338746 ], [ 140.880145852999988, 38.453228396 ], [ 140.880304899, 38.453067428 ] ] ] } },
{ "type": "Feature", "properties": { "A29_001": "04421", "A29_002": "宮城県", "A29_003": "大和町", "A29_004": 6, "A29_005": "第二種住居地域", "A29_006": 60, "A29_007": 200, "A29_008": null }, "geometry": { "type": "Polygon", "coordinates": [ [ [ 140.877688567, 38.453834909 ], [ 140.876991995999987, 38.452136466 ], [ 140.877011546, 38.452138312 ], [ 140.877517218, 38.452186057 ], [ 140.877609678, 38.452194787 ], [ 140.87731175499999, 38.451415964 ], [ 140.88010640600001, 38.450875686 ], [ 140.880264848, 38.450661063 ], [ 140.880582935, 38.450806256 ], [ 140.887056804, 38.448822534 ], [ 140.887023113999987, 38.448735942 ], [ 140.886986495, 38.448735682 ], [ 140.886870714999986, 38.448738421 ], [ 140.88675319399999, 38.448755535 ], [ 140.886608688, 38.448784287 ], [ 140.886437389, 38.4488225 ], [ 140.886336214000011, 38.448845215 ], [ 140.886250018, 38.448844238 ], [ 140.885672218, 38.449021369 ], [ 140.88536099, 38.449112687 ], [ 140.884243926000011, 38.446156924 ], [ 140.881577615, 38.446878981 ], [ 140.881386311, 38.446364165 ], [ 140.875740027, 38.44759637 ], [ 140.875305365, 38.446568049 ], [ 140.875120543, 38.44609456 ], [ 140.874809892, 38.445266282 ], [ 140.874488366, 38.444377599 ], [ 140.87441518, 38.444187661 ], [ 140.874334675, 38.443968943 ], [ 140.874198052999986, 38.443617461 ], [ 140.874095594000011, 38.443346942 ], [ 140.874051683, 38.443216479 ], [ 140.873991085, 38.442976602 ], [ 140.873978498000014, 38.442926774 ], [ 140.873799381999987, 38.442842148 ], [ 140.873712536999989, 38.44255453 ], [ 140.873829217, 38.442533439 ], [ 140.87382034, 38.442347961 ], [ 140.873689511, 38.440754029 ], [ 140.873633942999987, 38.440079682 ], [ 140.873439426, 38.438104073 ], [ 140.87343650299999, 38.438008696 ], [ 140.878602419, 38.437514525 ], [ 140.878566207, 38.437296064 ], [ 140.878551753000011, 38.437188803 ], [ 140.878504075, 38.437193199 ], [ 140.878324478, 38.437209754 ], [ 140.87707922199999, 38.437318528 ], [ 140.876771975999986, 38.437346331 ], [ 140.87656612699999, 38.437364959 ], [ 140.87637933100001, 38.437382745 ], [ 140.876317113999988, 38.437388669 ], [ 140.875, 38.437514074 ], [ 140.87490821899999, 38.437522813 ], [ 140.873099333, 38.437704222 ], [ 140.872785169999986, 38.437734978 ], [ 140.872785654000012, 38.437739294 ], [ 140.872796348, 38.437834604 ], [ 140.87323825499999, 38.441772741 ], [ 140.87329378699999, 38.442327802 ], [ 140.87331053599999, 38.442495209 ], [ 140.872810386999987, 38.44261526 ], [ 140.872820506000011, 38.443021797 ], [ 140.872826288, 38.443093418 ], [ 140.872820506000011, 38.443171861 ], [ 140.872927476, 38.443554524 ], [ 140.873069861, 38.443923545 ], [ 140.873273969, 38.444469914 ], [ 140.873297097, 38.444554041 ], [ 140.873391973, 38.444705503 ], [ 140.873514016, 38.444826134 ], [ 140.87365210499999, 38.444962624 ], [ 140.8738234, 38.445338354 ], [ 140.873871245, 38.445443299 ], [ 140.874265586, 38.446509184 ], [ 140.875289339, 38.448953111 ], [ 140.875623131999987, 38.448865508 ], [ 140.875640037000011, 38.448910036 ], [ 140.875915316, 38.449681814 ], [ 140.876018093999988, 38.449993277 ], [ 140.876020036999989, 38.45 ], [ 140.876068229999987, 38.45016675 ], [ 140.876540747, 38.451264755 ], [ 140.876727948, 38.451715565 ], [ 140.876207641, 38.451847249 ], [ 140.876487630000014, 38.452473262 ], [ 140.876879331999987, 38.452981743 ], [ 140.877603851, 38.454104307 ], [ 140.877688567, 38.453834909 ] ] ] } },
{ "type": "Feature", "properties": { "A29_001": "04421", "A29_002": "宮城県", "A29_003": "大和町", "A29_004": 11, "A29_005": "工業地域", "A29_006": 60, "A29_007": 200, "A29_008": null }, "geometry": { "type": "Polygon", "coordinates": [ [ [ 140.877011546, 38.452138312 ], [ 140.876991995999987, 38.452136466 ], [ 140.877688567, 38.453834909 ], [ 140.877603851, 38.454104307 ], [ 140.879353224999988, 38.454454047 ], [ 140.879420457, 38.45335448 ], [ 140.87938218799999, 38.452327715 ], [ 140.877609678, 38.452194787 ], [ 140.877517218, 38.452186057 ], [ 140.877011546, 38.452138312 ] ] ] } },
{ "type": "Feature", "properties": { "A29_001": "04421", "A29_002": "宮城県", "A29_003": "大和町", "A29_004": 12, "A29_005": "工業専用地域", "A29_006": 60, "A29_007": 200, "A29_008": null }, "geometry": { "type": "Polygon", "coordinates": [ [ [ 140.940349115, 38.445984494 ], [ 140.940639024, 38.445954882 ], [ 140.940908251, 38.44595789 ], [ 140.941156748999987, 38.445928328 ], [ 140.941321184, 38.445820588 ], [ 140.94091513399999, 38.445732952 ], [ 140.94088999499999, 38.445540643 ], [ 140.940814767, 38.445087607 ], [ 140.940860219, 38.445009327 ], [ 140.94093988099999, 38.444960357 ], [ 140.941200799, 38.444934035 ], [ 140.941188229, 38.444839516 ], [ 140.940850501, 38.444733889 ], [ 140.94060287100001, 38.443938727 ], [ 140.940363472, 38.443094665 ], [ 140.940321941, 38.443016466 ], [ 140.940156177, 38.442961198 ], [ 140.940011113999986, 38.442896139 ], [ 140.939907412, 38.442788661 ], [ 140.939832601, 38.442609443 ], [ 140.93981488099999, 38.442534484 ], [ 140.939932805000012, 38.442457763 ], [ 140.93978362199999, 38.442394345 ], [ 140.93971269299999, 38.442039088 ], [ 140.93980729, 38.441585881 ], [ 140.939828971, 38.441543481 ], [ 140.93987656199999, 38.441517371 ], [ 140.939936614, 38.44151894 ], [ 140.940419236999986, 38.441583686 ], [ 140.940541431000014, 38.441585205 ], [ 140.94067395499999, 38.441568784 ], [ 140.940820909, 38.441519763 ], [ 140.941079588, 38.441389122 ], [ 140.941091938, 38.441345102 ], [ 140.94100273699999, 38.441237614 ], [ 140.940179121, 38.440244128 ], [ 140.939870055, 38.439895623 ], [ 140.939720881, 38.439846864 ], [ 140.939484854, 38.439879676 ], [ 140.939157705000014, 38.439919088 ], [ 140.939025181, 38.439919209 ], [ 140.938884296999987, 38.439880221 ], [ 140.938664671, 38.439802183 ], [ 140.93846169599999, 38.439779545 ], [ 140.937604351, 38.439790102 ], [ 140.937478325, 38.439992311 ], [ 140.937441253, 38.44013578 ], [ 140.936985928000013, 38.440331783 ], [ 140.936923925, 38.440413323 ], [ 140.936812142, 38.440449283 ], [ 140.936787540000012, 38.440618812 ], [ 140.936572281999986, 38.440710283 ], [ 140.93635698599999, 38.440752855 ], [ 140.93618303, 38.440762786 ], [ 140.93604216599999, 38.440730318 ], [ 140.935814279999988, 38.4406751 ], [ 140.93557818299999, 38.440659012 ], [ 140.935317255, 38.440662495 ], [ 140.935097708, 38.440639867 ], [ 140.934362407, 38.440552494 ], [ 140.934230082, 38.440709084 ], [ 140.933070307, 38.440670964 ], [ 140.932237275, 38.440273984 ], [ 140.931628745000012, 38.440512468 ], [ 140.931398599, 38.440307291 ], [ 140.931133691000014, 38.440428123 ], [ 140.93017716, 38.44060822 ], [ 140.93009812, 38.440344242 ], [ 140.929752339, 38.440390165 ], [ 140.929586634, 38.440367477 ], [ 140.92942918, 38.440312188 ], [ 140.929300735999988, 38.44027644 ], [ 140.928712589000014, 38.440267145 ], [ 140.928708647, 38.440426884 ], [ 140.928654875, 38.440475824 ], [ 140.928613643, 38.440625803 ], [ 140.928025665, 38.440743637 ], [ 140.928050695, 38.440880536 ], [ 140.92800948199999, 38.441033785 ], [ 140.930249172, 38.443365968 ], [ 140.93165524299999, 38.444805615 ], [ 140.932860139000013, 38.445994415 ], [ 140.933298944, 38.445808223 ], [ 140.93354765, 38.44594165 ], [ 140.933680084, 38.44585353 ], [ 140.934383937, 38.445631245 ], [ 140.93444618800001, 38.445719214 ], [ 140.934586943, 38.445666933 ], [ 140.934661643999988, 38.445767922 ], [ 140.934839928, 38.44588838 ], [ 140.93563920299999, 38.445773584 ], [ 140.935856957, 38.44598203 ], [ 140.936204917, 38.446001267 ], [ 140.936213009, 38.445861098 ], [ 140.936768035, 38.445847564 ], [ 140.936900758, 38.445971322 ], [ 140.936988068, 38.446199429 ], [ 140.937153912000014, 38.446306857 ], [ 140.937559953, 38.446391243 ], [ 140.937626653, 38.44668457 ], [ 140.938235569999989, 38.446697055 ], [ 140.938421885, 38.446641464 ], [ 140.938603981, 38.446533734 ], [ 140.938753106, 38.446533593 ], [ 140.93891256, 38.446510631 ], [ 140.939016044, 38.446461641 ], [ 140.93930184199999, 38.446458119 ], [ 140.939537809, 38.446363368 ], [ 140.939852379, 38.446200096 ], [ 140.940129668999987, 38.446040105 ], [ 140.940349115, 38.445984494 ] ] ] } },
{ "type": "Feature", "properties": { "A29_001": "04421", "A29_002": "宮城県", "A29_003": "大和町", "A29_004": 12, "A29_005": "工業専用地域", "A29_006": 60, "A29_007": 200, "A29_008": null }, "geometry": { "type": "Polygon", "coordinates": [ [ [ 140.914206803000013, 38.459975197 ], [ 140.914430124, 38.460198318 ], [ 140.914630346, 38.4603126 ], [ 140.91463080299999, 38.460585187 ], [ 140.914591801, 38.460639187 ], [ 140.914490798, 38.460732187 ], [ 140.914349793000014, 38.460876187 ], [ 140.914220789000012, 38.461006187 ], [ 140.91385742599999, 38.461009432 ], [ 140.913129838, 38.461038535 ], [ 140.912705257999988, 38.460914867 ], [ 140.91198982899999, 38.46097256 ], [ 140.911626422000012, 38.461344671 ], [ 140.91125107799999, 38.461897954 ], [ 140.911387701, 38.461905209 ], [ 140.911565698, 38.461924206 ], [ 140.911753706000013, 38.461963203 ], [ 140.91249173599999, 38.462090192 ], [ 140.912764743999986, 38.462148189 ], [ 140.912935748, 38.462184187 ], [ 140.91303675099999, 38.462206186 ], [ 140.913267757, 38.462241184 ], [ 140.91356276499999, 38.462323171 ], [ 140.91374577, 38.462358179 ], [ 140.913939774999989, 38.462431177 ], [ 140.914170781, 38.462509174 ], [ 140.914421788, 38.462605161 ], [ 140.914652792999988, 38.462709168 ], [ 140.914864798999986, 38.462810166 ], [ 140.915235808, 38.462987161 ], [ 140.91556081600001, 38.463144157 ], [ 140.915949826, 38.463331152 ], [ 140.916104829, 38.46342815 ], [ 140.91629183399999, 38.463511148 ], [ 140.916610842000011, 38.463652144 ], [ 140.916807847, 38.463717142 ], [ 140.91697285, 38.46382514 ], [ 140.917507863, 38.464065134 ], [ 140.917656867, 38.464123132 ], [ 140.917810870000011, 38.46421213 ], [ 140.918290891999987, 38.464442125 ], [ 140.918468886, 38.464524123 ], [ 140.91866689, 38.46461612 ], [ 140.919219903, 38.464882114 ], [ 140.919840916999988, 38.465180107 ], [ 140.919929919, 38.465222106 ], [ 140.920245926, 38.465355102 ], [ 140.92040692, 38.465423101 ], [ 140.920590933999989, 38.465473099 ], [ 140.920932942, 38.465554096 ], [ 140.92112094699999, 38.465601094 ], [ 140.921352952, 38.465616092 ], [ 140.921549958000014, 38.465612091 ], [ 140.921564958, 38.46563209 ], [ 140.921621958, 38.465785079 ], [ 140.921684957999986, 38.465952087 ], [ 140.92170995699999, 38.466157085 ], [ 140.921742956, 38.466361084 ], [ 140.921747955, 38.466539082 ], [ 140.921737963, 38.466659081 ], [ 140.921689945999987, 38.46699908 ], [ 140.921665942, 38.46717308 ], [ 140.921564937, 38.46732708 ], [ 140.92137193799999, 38.46758608 ], [ 140.921380927, 38.46761708 ], [ 140.921443928, 38.467656079 ], [ 140.92159393099999, 38.467744078 ], [ 140.921646928, 38.467961076 ], [ 140.921636924000012, 38.468196075 ], [ 140.92165592399999, 38.468219075 ], [ 140.92179592799999, 38.468227074 ], [ 140.922109936, 38.468235072 ], [ 140.92230694, 38.46825007 ], [ 140.922856954999986, 38.468258066 ], [ 140.923380968, 38.468272062 ], [ 140.923594973, 38.46827706 ], [ 140.92385499, 38.468277058 ], [ 140.924100987, 38.468270056 ], [ 140.92432300199999, 38.468293054 ], [ 140.924805004, 38.468301051 ], [ 140.92499601, 38.468285049 ], [ 140.925094002, 38.468277049 ], [ 140.925104026000014, 38.46806505 ], [ 140.925138022999988, 38.467652051 ], [ 140.925133026, 38.467463052 ], [ 140.925195029, 38.467366053 ], [ 140.92522903, 38.467339052 ], [ 140.925384035, 38.467316051 ], [ 140.925785045, 38.467326048 ], [ 140.92579504599999, 38.467276049 ], [ 140.92579004800001, 38.467129039 ], [ 140.92581805099999, 38.46699005 ], [ 140.925823052999988, 38.46688605 ], [ 140.925852056, 38.466739051 ], [ 140.925973061, 38.466631051 ], [ 140.926180066, 38.466592049 ], [ 140.926407082999987, 38.466550048 ], [ 140.926961097, 38.466554044 ], [ 140.927270095000011, 38.466577041 ], [ 140.927531101, 38.466623039 ], [ 140.927868109, 38.466681036 ], [ 140.92807511399999, 38.466704025 ], [ 140.92827312, 38.466604034 ], [ 140.928485126999988, 38.466489033 ], [ 140.92894314099999, 38.466284031 ], [ 140.929208147999987, 38.466222019 ], [ 140.929488166999988, 38.466149028 ], [ 140.92975816399999, 38.466079026 ], [ 140.929937169, 38.466060025 ], [ 140.930057172, 38.466075024 ], [ 140.93029317700001, 38.466137022 ], [ 140.930559184, 38.46618002 ], [ 140.931032195, 38.466288016 ], [ 140.9312732, 38.466365013 ], [ 140.931606208, 38.466407011 ], [ 140.931726211000012, 38.46641501 ], [ 140.93208822, 38.466438007 ], [ 140.932329227, 38.466434005 ], [ 140.93239422900001, 38.466384005 ], [ 140.932498232, 38.466303005 ], [ 140.93269623899999, 38.466141004 ], [ 140.932913256, 38.466017004 ], [ 140.933077262000012, 38.465921003 ], [ 140.933173256, 38.465794003 ], [ 140.933390265000014, 38.465519003 ], [ 140.93356927, 38.465439002 ], [ 140.933747275, 38.465384002 ], [ 140.93391628099999, 38.465315001 ], [ 140.934009773000014, 38.46530449 ], [ 140.93365721699999, 38.465037364 ], [ 140.933503685, 38.464859837 ], [ 140.933344893999987, 38.464630169 ], [ 140.933193491, 38.464491761 ], [ 140.93298610799999, 38.464330584 ], [ 140.933493244, 38.464041652 ], [ 140.933592647000012, 38.464020371 ], [ 140.93370245, 38.464031691 ], [ 140.933930405000012, 38.464082019 ], [ 140.934056739, 38.464062348 ], [ 140.934245135, 38.463980697 ], [ 140.935275087, 38.463513642 ], [ 140.935507003999987, 38.463444981 ], [ 140.935709811, 38.46329485 ], [ 140.935723934, 38.463034062 ], [ 140.936004443, 38.462893641 ], [ 140.936167888999989, 38.46275332 ], [ 140.936308465, 38.462551101 ], [ 140.936470891, 38.4624173 ], [ 140.936630197, 38.46227699 ], [ 140.936702520000011, 38.46215142 ], [ 140.936772665, 38.461946001 ], [ 140.93684083799999, 38.461822061 ], [ 140.93697435199999, 38.461745341 ], [ 140.937096467, 38.46167515 ], [ 140.93721025100001, 38.4615691 ], [ 140.937354997, 38.46138968 ], [ 140.93747295099999, 38.46130319 ], [ 140.937576415, 38.46122324 ], [ 140.937615666, 38.46115149 ], [ 140.93769876499999, 38.460595623 ], [ 140.937737887999987, 38.460429333 ], [ 140.93777714, 38.460351064 ], [ 140.93795302699999, 38.460223773 ], [ 140.93804714, 38.460130793 ], [ 140.938164984999986, 38.459967693 ], [ 140.938556010000013, 38.459636472 ], [ 140.938688474, 38.459566272 ], [ 140.938980383, 38.45944864 ], [ 140.939173899999986, 38.45933437 ], [ 140.93934362499999, 38.459246209 ], [ 140.93970387600001, 38.459128517 ], [ 140.940051727, 38.459020625 ], [ 140.940146950000013, 38.458984684 ], [ 140.940208942999988, 38.458885205 ], [ 140.94039371299999, 38.458453116 ], [ 140.940380747, 38.458089668 ], [ 140.940289535, 38.45803922 ], [ 140.94017313399999, 38.457763882 ], [ 140.940077395, 38.457444505 ], [ 140.940016144, 38.457350036 ], [ 140.939904133, 38.457242568 ], [ 140.93955993599999, 38.457004912 ], [ 140.93937751199999, 38.456902404 ], [ 140.939203458, 38.456861806 ], [ 140.938999411999987, 38.456845698 ], [ 140.938823258000014, 38.456779029 ], [ 140.93869468599999, 38.456671581 ], [ 140.938555654, 38.456503823 ], [ 140.938497444, 38.456358825 ], [ 140.938511726, 38.456210486 ], [ 140.93852813699999, 38.456088236 ], [ 140.938267773, 38.45580161 ], [ 140.938203383, 38.455681052 ], [ 140.938190803, 38.455573483 ], [ 140.938176104, 38.455433334 ], [ 140.938098144, 38.455236186 ], [ 140.938056475, 38.455060197 ], [ 140.938025146, 38.454879309 ], [ 140.937674799, 38.454675883 ], [ 140.937536935999987, 38.454587994 ], [ 140.937458075, 38.454477226 ], [ 140.937381194000011, 38.454304538 ], [ 140.93733951499999, 38.454123649 ], [ 140.937266814, 38.453977031 ], [ 140.937122681, 38.453858163 ], [ 140.936929858000013, 38.453718175 ], [ 140.936824056, 38.453597657 ], [ 140.93680114599999, 38.453506398 ], [ 140.936823589, 38.453266789 ], [ 140.93683052099999, 38.453045121 ], [ 140.936799371, 38.452984842 ], [ 140.936658338, 38.452857834 ], [ 140.93655974699999, 38.452709595 ], [ 140.936503657, 38.452595547 ], [ 140.93648897700001, 38.452463548 ], [ 140.936484599000011, 38.452298929 ], [ 140.936547582, 38.452158709 ], [ 140.936729361, 38.45181464 ], [ 140.936863746, 38.451648271 ], [ 140.937070683, 38.45151606 ], [ 140.937082994, 38.45144107 ], [ 140.93683321899999, 38.451297873 ], [ 140.93659478399999, 38.451125306 ], [ 140.93642265, 38.450959209 ], [ 140.93638936, 38.45085819 ], [ 140.936430086, 38.450361033 ], [ 140.936414387000013, 38.450245324 ], [ 140.936326116, 38.450071006 ], [ 140.936219115, 38.449836399 ], [ 140.936144184999989, 38.449575671 ], [ 140.93611788699999, 38.449279064 ], [ 140.93596459299999, 38.449259635 ], [ 140.935742936999986, 38.449220717 ], [ 140.935442478999988, 38.44912644 ], [ 140.935320265, 38.449118401 ], [ 140.93523538299999, 38.449134782 ], [ 140.9351464, 38.449193532 ], [ 140.935015064999988, 38.449322412 ], [ 140.934911621, 38.449408883 ], [ 140.93483709899999, 38.449439913 ], [ 140.934650763, 38.449482464 ], [ 140.934505847999986, 38.449533115 ], [ 140.934369164, 38.449543006 ], [ 140.934097837, 38.449530208 ], [ 140.93397254300001, 38.449541719 ], [ 140.93390216099999, 38.44957438 ], [ 140.933695343000011, 38.44978644 ], [ 140.93360644, 38.44990224 ], [ 140.933550767000014, 38.450075059 ], [ 140.933388629, 38.450402808 ], [ 140.932229361999987, 38.450838984 ], [ 140.93170043500001, 38.451030137 ], [ 140.931451769, 38.45093744 ], [ 140.931323424999988, 38.45098807 ], [ 140.93091975199999, 38.451144882 ], [ 140.930735626, 38.451299873 ], [ 140.930478096, 38.451549463 ], [ 140.930492676, 38.451613022 ], [ 140.930515576, 38.451696122 ], [ 140.930492875, 38.451764601 ], [ 140.930457733999987, 38.451810271 ], [ 140.930557295999989, 38.451919389 ], [ 140.930893332000011, 38.452290724 ], [ 140.931176615999988, 38.452710999 ], [ 140.930836354, 38.453055179 ], [ 140.930948545, 38.453310986 ], [ 140.93114531, 38.453302674 ], [ 140.931436203, 38.453990237 ], [ 140.932487361999989, 38.453973039 ], [ 140.932429509, 38.454079028 ], [ 140.932113018, 38.454388989 ], [ 140.93146558399999, 38.455036599 ], [ 140.929870548999986, 38.45649833 ], [ 140.929123772999986, 38.45724543 ], [ 140.928709929, 38.457575011 ], [ 140.92830836600001, 38.457793742 ], [ 140.927964696, 38.457937454 ], [ 140.927525753, 38.458077986 ], [ 140.926595897, 38.458238462 ], [ 140.925734323, 38.458333687 ], [ 140.92481061699999, 38.458448504 ], [ 140.923445773999987, 38.458615825 ], [ 140.922841135, 38.458785809 ], [ 140.92231111699999, 38.459001363 ], [ 140.92162482399999, 38.459313187 ], [ 140.921512971, 38.459319797 ], [ 140.92143629899999, 38.459288878 ], [ 140.921336727000011, 38.45917487 ], [ 140.920641733, 38.458280573 ], [ 140.91971441199999, 38.457097981 ], [ 140.920098465, 38.456946109 ], [ 140.920256069, 38.457095936 ], [ 140.921217248, 38.457145737 ], [ 140.92145690800001, 38.456643549 ], [ 140.922226372000011, 38.456592432 ], [ 140.92240007800001, 38.456360853 ], [ 140.923485172999989, 38.456122055 ], [ 140.923763752000013, 38.456116942 ], [ 140.923826768999987, 38.456811216 ], [ 140.923404465, 38.457020178 ], [ 140.923689781, 38.457424162 ], [ 140.92422597800001, 38.457190669 ], [ 140.924340489, 38.457668134 ], [ 140.924171812999987, 38.457782365 ], [ 140.924200953, 38.457891544 ], [ 140.924060207999986, 38.457971525 ], [ 140.924072827, 38.458127983 ], [ 140.92416397, 38.458134432 ], [ 140.924178828, 38.45841476 ], [ 140.925903029000011, 38.458224327 ], [ 140.925885752, 38.457679961 ], [ 140.926284114999987, 38.457381371 ], [ 140.926286006, 38.457239572 ], [ 140.92603330899999, 38.457251184 ], [ 140.925911907, 38.457070366 ], [ 140.926042231999986, 38.456930086 ], [ 140.925641093, 38.456682671 ], [ 140.925636187, 38.456073096 ], [ 140.924940561999989, 38.455525996 ], [ 140.924351443, 38.45566664 ], [ 140.924285141000013, 38.455642241 ], [ 140.92420633899999, 38.455575482 ], [ 140.924106767000012, 38.455453314 ], [ 140.92410253700001, 38.455384855 ], [ 140.924135549, 38.455278895 ], [ 140.924274204, 38.455176105 ], [ 140.924305205, 38.455127185 ], [ 140.924308204999988, 38.455047316 ], [ 140.92427295499999, 38.455013106 ], [ 140.924181822, 38.455014807 ], [ 140.924080378000014, 38.455057268 ], [ 140.92376986799999, 38.455215609 ], [ 140.923600091999987, 38.455271161 ], [ 140.923337084, 38.455310483 ], [ 140.92310513699999, 38.455336745 ], [ 140.923022244, 38.455309096 ], [ 140.92287712000001, 38.455209788 ], [ 140.922777618, 38.455141399 ], [ 140.922700956, 38.45511702 ], [ 140.92253424, 38.455133432 ], [ 140.92216768899999, 38.455189134 ], [ 140.921989543, 38.455186006 ], [ 140.921856948999988, 38.455161668 ], [ 140.921767816999989, 38.455101429 ], [ 140.921608133, 38.454953222 ], [ 140.921535581, 38.454899493 ], [ 140.92148795, 38.454899533 ], [ 140.921446558000014, 38.454937053 ], [ 140.921392825999988, 38.455029993 ], [ 140.921345234, 38.455078923 ], [ 140.921268641000012, 38.455116473 ], [ 140.92113613699999, 38.455157324 ], [ 140.921115456, 38.455186674 ], [ 140.921118686, 38.455292623 ], [ 140.921095965, 38.455352953 ], [ 140.921013202000012, 38.455423093 ], [ 140.920911768, 38.455475324 ], [ 140.92082893599999, 38.455491684 ], [ 140.920731553, 38.455462426 ], [ 140.920613409999987, 38.455395687 ], [ 140.920518117, 38.455392508 ], [ 140.92040214299999, 38.455400739 ], [ 140.92018669699999, 38.455384601 ], [ 140.920074793, 38.455340673 ], [ 140.92004157299999, 38.455272244 ], [ 140.920006261999987, 38.455189155 ], [ 140.919958560999987, 38.455140295 ], [ 140.919842507999988, 38.455083327 ], [ 140.919819657, 38.455034448 ], [ 140.919790527, 38.454920379 ], [ 140.919818189000011, 38.454664461 ], [ 140.91984087099999, 38.454584571 ], [ 140.920049828, 38.454374161 ], [ 140.91989433399999, 38.454242253 ], [ 140.91992112599999, 38.454134664 ], [ 140.920366773000012, 38.453537785 ], [ 140.920642953, 38.453263764 ], [ 140.920738177, 38.453211534 ], [ 140.921067486999988, 38.453194991 ], [ 140.921063277, 38.453144462 ], [ 140.920876851, 38.453129933 ], [ 140.920909684, 38.452878905 ], [ 140.92089511399999, 38.452815356 ], [ 140.920818411999988, 38.452761627 ], [ 140.920743869, 38.452779608 ], [ 140.920667307, 38.452846488 ], [ 140.920625984999987, 38.452923127 ], [ 140.920499729999989, 38.453001458 ], [ 140.920418977999987, 38.453019449 ], [ 140.92032582499999, 38.453063529 ], [ 140.920081676, 38.45329026 ], [ 140.919953471000014, 38.453468009 ], [ 140.919870597999989, 38.45345014 ], [ 140.919616582, 38.453196075 ], [ 140.919508838000013, 38.453170076 ], [ 140.91946121699999, 38.453194556 ], [ 140.919450946000012, 38.453258136 ], [ 140.919531987, 38.453481363 ], [ 140.91958299800001, 38.453714411 ], [ 140.919558454999986, 38.453970319 ], [ 140.91951719299999, 38.454118668 ], [ 140.919439680000011, 38.454247488 ], [ 140.91936727699999, 38.454324148 ], [ 140.919286545, 38.454364958 ], [ 140.91921817299999, 38.454353589 ], [ 140.919122820000013, 38.45429336 ], [ 140.918865743, 38.454089814 ], [ 140.918427132, 38.453637022 ], [ 140.91815963499999, 38.453378067 ], [ 140.91807250299999, 38.453254259 ], [ 140.91802466199999, 38.453083151 ], [ 140.917963371000013, 38.452915313 ], [ 140.91789906, 38.452832244 ], [ 140.91784073, 38.452545427 ], [ 140.917881982000011, 38.452387298 ], [ 140.917929453999989, 38.452247088 ], [ 140.917946905, 38.452121579 ], [ 140.917917835, 38.45205152 ], [ 140.91780619, 38.45221947 ], [ 140.917725547, 38.45233526 ], [ 140.917638664, 38.45243963 ], [ 140.917632623, 38.452584698 ], [ 140.917702244, 38.452790016 ], [ 140.91777075499999, 38.452925244 ], [ 140.917812386, 38.453106132 ], [ 140.91791199799999, 38.45326253 ], [ 140.918071692000012, 38.453449857 ], [ 140.918124702999989, 38.453612805 ], [ 140.918182854, 38.453752933 ], [ 140.918284535999987, 38.453914211 ], [ 140.918506492, 38.454194387 ], [ 140.918515872, 38.454238386 ], [ 140.91848277, 38.454275896 ], [ 140.918395827000012, 38.454318337 ], [ 140.918006545, 38.454424569 ], [ 140.917880251000014, 38.45447519 ], [ 140.9178513, 38.45451269 ], [ 140.9178679, 38.45454202 ], [ 140.917913491, 38.454563169 ], [ 140.918232511000014, 38.454592286 ], [ 140.918346414000013, 38.454584045 ], [ 140.91858046199999, 38.454569203 ], [ 140.918744107, 38.454583751 ], [ 140.918841549, 38.45464887 ], [ 140.91887889, 38.454704259 ], [ 140.91891837099999, 38.454813438 ], [ 140.918977681, 38.455039945 ], [ 140.91900060099999, 38.455162174 ], [ 140.918979951000011, 38.455215974 ], [ 140.918930268999986, 38.455235564 ], [ 140.918849486, 38.455237255 ], [ 140.918731423, 38.455245496 ], [ 140.918671421, 38.455294436 ], [ 140.91863626899999, 38.455348246 ], [ 140.918644629, 38.455411815 ], [ 140.918729641, 38.455481834 ], [ 140.918900537000013, 38.455501262 ], [ 140.919070432000012, 38.455537 ], [ 140.91920100499999, 38.455602089 ], [ 140.919230056, 38.455655858 ], [ 140.919234286, 38.455722687 ], [ 140.919192944, 38.455789537 ], [ 140.919120510999988, 38.455858047 ], [ 140.91889695399999, 38.455977198 ], [ 140.918715858000013, 38.456096309 ], [ 140.918595823, 38.456190939 ], [ 140.91854415099999, 38.456277359 ], [ 140.91814646899999, 38.456295583 ], [ 140.917798557999987, 38.456359395 ], [ 140.91759766199999, 38.456385627 ], [ 140.917415366, 38.456372719 ], [ 140.91720203, 38.45638591 ], [ 140.917036305000011, 38.456374622 ], [ 140.91674211599999, 38.456321045 ], [ 140.91650593899999, 38.456275578 ], [ 140.91620343, 38.456200821 ], [ 140.916021085000011, 38.456132494 ], [ 140.915822100000014, 38.456025066 ], [ 140.915664655, 38.455992578 ], [ 140.915481328999988, 38.45598783 ], [ 140.915381935999989, 38.45601071 ], [ 140.915348845000011, 38.45606615 ], [ 140.915373746, 38.45609711 ], [ 140.91558302199999, 38.456163787 ], [ 140.915676303999987, 38.456224026 ], [ 140.91571161499999, 38.456307125 ], [ 140.915732435, 38.456401644 ], [ 140.915682812999989, 38.456484794 ], [ 140.915602119999988, 38.456559834 ], [ 140.915464466, 38.456646314 ], [ 140.915361002, 38.456744174 ], [ 140.915249378, 38.456944734 ], [ 140.91518942499999, 38.457049083 ], [ 140.915075602, 38.457140434 ], [ 140.914493942, 38.457497796 ], [ 140.914250364999987, 38.457588037 ], [ 140.914278805, 38.457644217 ], [ 140.91416781, 38.458007215 ], [ 140.914114788, 38.458197213 ], [ 140.91407625799999, 38.458336085 ], [ 140.91426463900001, 38.45861156 ], [ 140.914237805, 38.459015627 ], [ 140.914173793, 38.459744199 ], [ 140.914206803000013, 38.459975197 ] ] ] } },
{ "type": "Feature", "properties": { "A29_001": "04421", "A29_002": "宮城県", "A29_003": "大和町", "A29_004": 3, "A29_005": "第一種中高層住居専用地域", "A29_006": 60, "A29_007": 200, "A29_008": null }, "geometry": { "type": "Polygon", "coordinates": [ [ [ 140.88633427900001, 38.438705211 ], [ 140.886264133999987, 38.438458183 ], [ 140.88589195899999, 38.438493362 ], [ 140.885895849, 38.43851172 ], [ 140.88589133100001, 38.438493313 ], [ 140.885761968999986, 38.438483268 ], [ 140.88565430599999, 38.438518889 ], [ 140.88549788899999, 38.438551111 ], [ 140.885043528000011, 38.438593083 ], [ 140.88435901, 38.438654316 ], [ 140.884314332, 38.438658256 ], [ 140.884783508999988, 38.441752195 ], [ 140.886755951999987, 38.44136245 ], [ 140.886733504, 38.441271767 ], [ 140.887181430999988, 38.441173271 ], [ 140.887069188, 38.440824574 ], [ 140.886943319000011, 38.440467013 ], [ 140.886817451000013, 38.440105019 ], [ 140.886706239, 38.439785578 ], [ 140.886443238, 38.439018447 ], [ 140.88633427900001, 38.438705211 ] ] ] } },
{ "type": "Feature", "properties": { "A29_001": "04421", "A29_002": "宮城県", "A29_003": "大和町", "A29_004": 3, "A29_005": "第一種中高層住居専用地域", "A29_006": 60, "A29_007": 200, "A29_008": null }, "geometry": { "type": "Polygon", "coordinates": [ [ [ 140.87671472299999, 38.446360147 ], [ 140.878126143, 38.445876214 ], [ 140.878189565000014, 38.445876214 ], [ 140.878438856, 38.445827988 ], [ 140.878584891, 38.445799736 ], [ 140.878717722, 38.44578125 ], [ 140.879063312999989, 38.445669599 ], [ 140.879458929, 38.445540066 ], [ 140.879920937, 38.44539543 ], [ 140.880458404, 38.445223363 ], [ 140.880763583, 38.445171639 ], [ 140.880984245, 38.445120814 ], [ 140.881913472, 38.444841472 ], [ 140.88199366500001, 38.44480637 ], [ 140.88218111099999, 38.444700528 ], [ 140.882315583, 38.444639417 ], [ 140.88260825, 38.444541028 ], [ 140.882651108, 38.444525408 ], [ 140.882815096, 38.444282384 ], [ 140.882843995, 38.444252081 ], [ 140.882965094000014, 38.444238012 ], [ 140.883102705999988, 38.444235847 ], [ 140.883160492, 38.444243506 ], [ 140.88322518199999, 38.444252081 ], [ 140.883333333, 38.44427391 ], [ 140.883380684, 38.444283466 ], [ 140.883479209, 38.444244077 ], [ 140.88289729499999, 38.443000559 ], [ 140.88094936499999, 38.443594631 ], [ 140.87987922100001, 38.443892477 ], [ 140.87851145, 38.444290304 ], [ 140.877534637999986, 38.444517233 ], [ 140.874809892, 38.445266282 ], [ 140.875120543, 38.44609456 ], [ 140.875305365, 38.446568049 ], [ 140.876190412, 38.446443746 ], [ 140.87650545299999, 38.446400514 ], [ 140.87671472299999, 38.446360147 ] ] ] } },
{ "type": "Feature", "properties": { "A29_001": "04421", "A29_002": "宮城県", "A29_003": "大和町", "A29_004": 1, "A29_005": "第一種低層住居専用地域", "A29_006": 40, "A29_007": 60, "A29_008": null }, "geometry": { "type": "Polygon", "coordinates": [ [ [ 140.881633972, 38.441139191 ], [ 140.882500985, 38.441054763 ], [ 140.883333333, 38.440968361 ], [ 140.883369028, 38.440965028 ], [ 140.883501042, 38.440957908 ], [ 140.883574194, 38.440952314 ], [ 140.883238021000011, 38.438760445 ], [ 140.88065086899999, 38.438997543 ], [ 140.880529833, 38.439024611 ], [ 140.880363472, 38.439056833 ], [ 140.880236551, 38.439079764 ], [ 140.879902054000013, 38.439104819 ], [ 140.8798085, 38.439128806 ], [ 140.879707722, 38.439150889 ], [ 140.87955972200001, 38.439194028 ], [ 140.879340278, 38.439235167 ], [ 140.878831507, 38.43932433 ], [ 140.878602419, 38.437514525 ], [ 140.877211794, 38.437647576 ], [ 140.87776851699999, 38.441509202 ], [ 140.878441828, 38.441445439 ], [ 140.879490317, 38.441357958 ], [ 140.879821287999988, 38.441325355 ], [ 140.880239176, 38.441280919 ], [ 140.880398558, 38.44126467 ], [ 140.88041529, 38.441262964 ], [ 140.880168277, 38.439605115 ], [ 140.88136837799999, 38.439429422 ], [ 140.881633972, 38.441139191 ] ] ] } },
{ "type": "Feature", "properties": { "A29_001": "04421", "A29_002": "宮城県", "A29_003": "大和町", "A29_004": 1, "A29_005": "第一種低層住居専用地域", "A29_006": 40, "A29_007": 60, "A29_008": null }, "geometry": { "type": "Polygon", "coordinates": [ [ [ 140.876926884999989, 38.441586595 ], [ 140.876334074, 38.437731544 ], [ 140.87343650299999, 38.438008696 ], [ 140.873439426, 38.438104073 ], [ 140.873633942999987, 38.440079682 ], [ 140.873689511, 38.440754029 ], [ 140.87382034, 38.442347961 ], [ 140.874502979, 38.442164717 ], [ 140.874966016, 38.442033775 ], [ 140.875, 38.442024588 ], [ 140.875024563000011, 38.442017947 ], [ 140.875807571, 38.441804487 ], [ 140.876294014, 38.441667629 ], [ 140.876300033, 38.441666667 ], [ 140.876564583, 38.441624389 ], [ 140.876783639, 38.441599 ], [ 140.876926884999989, 38.441586595 ] ] ] } },
{ "type": "Feature", "properties": { "A29_001": "04421", "A29_002": "宮城県", "A29_003": "大和町", "A29_004": 4, "A29_005": "第二種中高層住居専用地域", "A29_006": 60, "A29_007": 200, "A29_008": null }, "geometry": { "type": "Polygon", "coordinates": [ [ [ 140.891393195, 38.443770978 ], [ 140.891374961, 38.443474565 ], [ 140.888033638, 38.443966037 ], [ 140.888234081, 38.444737928 ], [ 140.88577486299999, 38.445258453 ], [ 140.887013481, 38.448422145 ], [ 140.887404847, 38.448482025 ], [ 140.888245678, 38.448041828 ], [ 140.888822852, 38.447687566 ], [ 140.889418118, 38.447218872 ], [ 140.89022679499999, 38.446396082 ], [ 140.890912673, 38.445548316 ], [ 140.891216851, 38.444986788 ], [ 140.89136202200001, 38.444586243 ], [ 140.89141171899999, 38.444192896 ], [ 140.891393195, 38.443770978 ] ] ] } },
{ "type": "Feature", "properties": { "A29_001": "04421", "A29_002": "宮城県", "A29_003": "大和町", "A29_004": 5, "A29_005": "第一種住居地域", "A29_006": 60, "A29_007": 200, "A29_008": null }, "geometry": { "type": "Polygon", "coordinates": [ [ [ 140.875740027, 38.44759637 ], [ 140.881386311, 38.446364165 ], [ 140.881577615, 38.446878981 ], [ 140.884243926000011, 38.446156924 ], [ 140.883877949, 38.445188491 ], [ 140.88427805399999, 38.445054141 ], [ 140.883972551999989, 38.444180765 ], [ 140.884120626999987, 38.444155021 ], [ 140.883987536, 38.443721825 ], [ 140.883887914000013, 38.443739532 ], [ 140.88357640800001, 38.442777506 ], [ 140.882957436, 38.442903693 ], [ 140.882828268999987, 38.442487514 ], [ 140.880591133, 38.443164111 ], [ 140.88054974, 38.442675738 ], [ 140.880382013, 38.442703813 ], [ 140.879745417, 38.442822422 ], [ 140.879659048, 38.442822933 ], [ 140.879017156, 38.442916711 ], [ 140.878953636, 38.442935992 ], [ 140.87889011499999, 38.44302013 ], [ 140.878799861, 38.443078667 ], [ 140.878646062, 38.443122672 ], [ 140.87828058299999, 38.443215667 ], [ 140.878204934, 38.443240831 ], [ 140.877682087000011, 38.443405563 ], [ 140.877591816, 38.443445004 ], [ 140.877217333, 38.443634417 ], [ 140.877013159, 38.44368945 ], [ 140.876854197, 38.443732297 ], [ 140.875829917, 38.444008385 ], [ 140.875, 38.444229722 ], [ 140.874488366, 38.444377599 ], [ 140.874809892, 38.445266282 ], [ 140.877534637999986, 38.444517233 ], [ 140.87851145, 38.444290304 ], [ 140.87987922100001, 38.443892477 ], [ 140.88094936499999, 38.443594631 ], [ 140.88289729499999, 38.443000559 ], [ 140.883479209, 38.444244077 ], [ 140.883380684, 38.444283466 ], [ 140.883333333, 38.44427391 ], [ 140.88322518199999, 38.444252081 ], [ 140.883160492, 38.444243506 ], [ 140.883102705999988, 38.444235847 ], [ 140.882965094000014, 38.444238012 ], [ 140.882843995, 38.444252081 ], [ 140.882815096, 38.444282384 ], [ 140.882651108, 38.444525408 ], [ 140.88260825, 38.444541028 ], [ 140.882315583, 38.444639417 ], [ 140.88218111099999, 38.444700528 ], [ 140.88199366500001, 38.44480637 ], [ 140.881913472, 38.444841472 ], [ 140.880984245, 38.445120814 ], [ 140.880763583, 38.445171639 ], [ 140.880458404, 38.445223363 ], [ 140.879920937, 38.44539543 ], [ 140.879458929, 38.445540066 ], [ 140.879063312999989, 38.445669599 ], [ 140.878717722, 38.44578125 ], [ 140.878584891, 38.445799736 ], [ 140.878438856, 38.445827988 ], [ 140.878189565000014, 38.445876214 ], [ 140.878126143, 38.445876214 ], [ 140.87671472299999, 38.446360147 ], [ 140.87650545299999, 38.446400514 ], [ 140.876190412, 38.446443746 ], [ 140.875305365, 38.446568049 ], [ 140.875740027, 38.44759637 ] ] ] } },
{ "type": "Feature", "properties": { "A29_001": "04421", "A29_002": "宮城県", "A29_003": "大和町", "A29_004": 5, "A29_005": "第一種住居地域", "A29_006": 60, "A29_007": 200, "A29_008": null }, "geometry": { "type": "Polygon", "coordinates": [ [ [ 140.87079436, 38.44984431 ], [ 140.874094329, 38.449122517 ], [ 140.87415395299999, 38.449251082 ], [ 140.875289339, 38.448953111 ], [ 140.874265586, 38.446509184 ], [ 140.87345749799999, 38.446534732 ], [ 140.870639372999989, 38.446396451 ], [ 140.868736539, 38.447870211 ], [ 140.868920944, 38.449143081 ], [ 140.86722373399999, 38.449353251 ], [ 140.86813863399999, 38.450436719 ], [ 140.868077494, 38.450937451 ], [ 140.867961616, 38.451310392 ], [ 140.867722015999988, 38.451462769 ], [ 140.867623529000014, 38.452487035 ], [ 140.869532824, 38.451728004 ], [ 140.86949633899999, 38.451635517 ], [ 140.869314753999987, 38.451188408 ], [ 140.869183147, 38.450863261 ], [ 140.869151495000011, 38.45076763 ], [ 140.869139834, 38.450669378 ], [ 140.869144831999989, 38.450542831 ], [ 140.86921979600001, 38.450352878 ], [ 140.869253114, 38.450274277 ], [ 140.869313086, 38.450206156 ], [ 140.86937975, 38.450159694 ], [ 140.86991, 38.450038361 ], [ 140.870078667, 38.45 ], [ 140.87079436, 38.44984431 ] ] ] } },
{ "type": "Feature", "properties": { "A29_001": "04421", "A29_002": "宮城県", "A29_003": "大和町", "A29_004": 5, "A29_005": "第一種住居地域", "A29_006": 60, "A29_007": 200, "A29_008": null }, "geometry": { "type": "Polygon", "coordinates": [ [ [ 140.879954836, 38.451095786 ], [ 140.88010640600001, 38.450875686 ], [ 140.87731175499999, 38.451415964 ], [ 140.877609678, 38.452194787 ], [ 140.87938218799999, 38.452327715 ], [ 140.879415214, 38.453213804 ], [ 140.880567004999989, 38.452586199 ], [ 140.88115061900001, 38.451747751 ], [ 140.879954836, 38.451095786 ] ] ] } },
{ "type": "Feature", "properties": { "A29_001": "04421", "A29_002": "宮城県", "A29_003": "大和町", "A29_004": 12, "A29_005": "工業専用地域", "A29_006": 60, "A29_007": 200, "A29_008": null }, "geometry": { "type": "Polygon", "coordinates": [ [ [ 140.86075811399999, 38.361673254 ], [ 140.86069896399999, 38.361375292 ], [ 140.860329580000013, 38.361327702 ], [ 140.86009494699999, 38.36119452 ], [ 140.859978047, 38.361016854 ], [ 140.85971005799999, 38.360881038 ], [ 140.85947389899999, 38.360856061 ], [ 140.85911060399999, 38.360895474 ], [ 140.858819989000011, 38.36098493 ], [ 140.858506705999986, 38.361188813 ], [ 140.85835236, 38.361364056 ], [ 140.858170755, 38.361510699 ], [ 140.85792552, 38.36151075 ], [ 140.85766667199999, 38.361546561 ], [ 140.857457786999987, 38.361603816 ], [ 140.857280742, 38.361814819 ], [ 140.856912899, 38.361847075 ], [ 140.854442377999987, 38.361872576 ], [ 140.854022773999986, 38.361952508 ], [ 140.853058237, 38.362131521 ], [ 140.852574207, 38.362229404 ], [ 140.852359087999986, 38.362294625 ], [ 140.852155358, 38.362410396 ], [ 140.851958859, 38.362501697 ], [ 140.851774761, 38.362547368 ], [ 140.85161340499999, 38.362557169 ], [ 140.851098326, 38.362567043 ], [ 140.850883197, 38.362573584 ], [ 140.85068461899999, 38.362625776 ], [ 140.850366075000011, 38.362765997 ], [ 140.85002271799999, 38.362958379 ], [ 140.84980350699999, 38.363144229 ], [ 140.84957807399999, 38.363374079 ], [ 140.849441586000012, 38.363581089 ], [ 140.849418844000013, 38.363656059 ], [ 140.849454033, 38.363739178 ], [ 140.849589565, 38.363920076 ], [ 140.849707517000013, 38.364083044 ], [ 140.849790305999989, 38.364276993 ], [ 140.849833784, 38.364479091 ], [ 140.849866942, 38.36469586 ], [ 140.850007690000012, 38.365096786 ], [ 140.850144281000013, 38.365331464 ], [ 140.85019605, 38.365504243 ], [ 140.850208506, 38.365748721 ], [ 140.850262353, 38.366045359 ], [ 140.850261361, 38.366149669 ], [ 140.850195176999989, 38.366229539 ], [ 140.850058651000012, 38.366286609 ], [ 140.84978973, 38.366332291 ], [ 140.849667665, 38.366353492 ], [ 140.84959942099999, 38.366430112 ], [ 140.849553937, 38.366573551 ], [ 140.849560165000014, 38.366707201 ], [ 140.84960777500001, 38.3668164 ], [ 140.849878859, 38.367130926 ], [ 140.84991612799999, 38.367235235 ], [ 140.849903735, 38.367381924 ], [ 140.849887222, 38.367525353 ], [ 140.84993696699999, 38.367913261 ], [ 140.85011301599999, 38.368845534 ], [ 140.85025793299999, 38.36929862 ], [ 140.85034174399999, 38.369420848 ], [ 140.850474186000014, 38.369544697 ], [ 140.850908726, 38.369898321 ], [ 140.851312245, 38.370264976 ], [ 140.851788175, 38.37066586 ], [ 140.85205200199999, 38.370828798 ], [ 140.852434792999986, 38.371016174 ], [ 140.852647909000012, 38.371110671 ], [ 140.85277620299999, 38.37120844 ], [ 140.853091807999988, 38.371563696 ], [ 140.853408452999986, 38.371946671 ], [ 140.853643319000014, 38.372116138 ], [ 140.854195831999988, 38.372513722 ], [ 140.854982048000011, 38.37329841 ], [ 140.85561795000001, 38.373312594 ], [ 140.855572259000013, 38.37243298 ], [ 140.856589672000013, 38.372397025 ], [ 140.85664086, 38.370551874 ], [ 140.856681888, 38.370250964 ], [ 140.856818159999989, 38.369988807 ], [ 140.856955481999989, 38.369669804 ], [ 140.857105275, 38.369394445 ], [ 140.857377662, 38.369014769 ], [ 140.858324941, 38.367687984 ], [ 140.85907177499999, 38.366874946 ], [ 140.859019823000011, 38.366842351 ], [ 140.85865590200001, 38.366652937 ], [ 140.859019464, 38.366168297 ], [ 140.859485301, 38.365340789 ], [ 140.85985858, 38.364669943 ], [ 140.85993138500001, 38.364530465 ], [ 140.860264411, 38.363892452 ], [ 140.86055172499999, 38.363046135 ], [ 140.860648677, 38.362507611 ], [ 140.860746869, 38.361962293 ], [ 140.86075811399999, 38.361673254 ] ] ] } },
{ "type": "Feature", "properties": { "A29_001": "04421", "A29_002": "宮城県", "A29_003": "大和町", "A29_004": 10, "A29_005": "準工業地域", "A29_006": 60, "A29_007": 200, "A29_008": null }, "geometry": { "type": "Polygon", "coordinates": [ [ [ 140.905692944, 38.440009114 ], [ 140.90600848299999, 38.439718846 ], [ 140.906088485, 38.43976842 ], [ 140.906503326, 38.439509881 ], [ 140.907227186999989, 38.439055284 ], [ 140.907573871000011, 38.438846236 ], [ 140.90801915, 38.439279976 ], [ 140.90825902899999, 38.439516044 ], [ 140.908333333, 38.439593359 ], [ 140.908577017, 38.439846918 ], [ 140.908669506, 38.439941828 ], [ 140.909026689, 38.440313753 ], [ 140.913813737999988, 38.43738762 ], [ 140.913999875, 38.43717234 ], [ 140.914264696, 38.436950489 ], [ 140.91517328899999, 38.436486944 ], [ 140.915248901000012, 38.436514593 ], [ 140.915362934, 38.436633501 ], [ 140.91542314599999, 38.436763849 ], [ 140.915473056, 38.436961037 ], [ 140.915477544999987, 38.437260944 ], [ 140.915482043, 38.437580412 ], [ 140.91708014, 38.43704139 ], [ 140.918459680000012, 38.436448701 ], [ 140.918492711999988, 38.436354142 ], [ 140.918548534, 38.436274232 ], [ 140.918625087, 38.436215491 ], [ 140.91870996, 38.436187721 ], [ 140.918846634, 38.436194139 ], [ 140.918904636, 38.436210399 ], [ 140.919114535, 38.435964119 ], [ 140.919426748, 38.435548259 ], [ 140.919697549, 38.435138949 ], [ 140.919214645000011, 38.434813317 ], [ 140.91884984399999, 38.434520193 ], [ 140.91860102699999, 38.434246547 ], [ 140.918339710999987, 38.433897922 ], [ 140.918029432999987, 38.43330974 ], [ 140.917894329, 38.433257152 ], [ 140.916209449, 38.433858184 ], [ 140.913514332, 38.434740234 ], [ 140.912998944, 38.434942697 ], [ 140.91255184799999, 38.43511903 ], [ 140.911893721000013, 38.435468285 ], [ 140.909399981, 38.436962972 ], [ 140.907929630000012, 38.43772072 ], [ 140.907348094000014, 38.438085806 ], [ 140.906525284999987, 38.438663204 ], [ 140.905506186, 38.439577138 ], [ 140.90538371299999, 38.439496705 ], [ 140.904315610999987, 38.440499199 ], [ 140.904448425, 38.44071521 ], [ 140.904496021, 38.44069391 ], [ 140.90486015, 38.440530954 ], [ 140.905177377, 38.440343699 ], [ 140.905692944, 38.440009114 ] ] ] } },
{ "type": "Feature", "properties": { "A29_001": "04421", "A29_002": "宮城県", "A29_003": "大和町", "A29_004": 10, "A29_005": "準工業地域", "A29_006": 60, "A29_007": 200, "A29_008": null }, "geometry": { "type": "Polygon", "coordinates": [ [ [ 140.860878746999987, 38.367133186 ], [ 140.86189633699999, 38.365303437 ], [ 140.860942470999987, 38.364975892 ], [ 140.860990840999989, 38.364882337 ], [ 140.85993138500001, 38.364530465 ], [ 140.85985858, 38.364669943 ], [ 140.859485301, 38.365340789 ], [ 140.859019464, 38.366168297 ], [ 140.85865590200001, 38.366652937 ], [ 140.859019823000011, 38.366842351 ], [ 140.859115029, 38.366749509 ], [ 140.85929576, 38.366669373 ], [ 140.859439282000011, 38.366679353 ], [ 140.860878746999987, 38.367133186 ] ] ] } },
{ "type": "Feature", "properties": { "A29_001": "04421", "A29_002": "宮城県", "A29_003": "大和町", "A29_004": 3, "A29_005": "第一種中高層住居専用地域", "A29_006": 60, "A29_007": 200, "A29_008": null }, "geometry": { "type": "Polygon", "coordinates": [ [ [ 140.860878746999987, 38.367133186 ], [ 140.859106257, 38.370115896 ], [ 140.859452413000014, 38.370708641 ], [ 140.86054236199999, 38.370379428 ], [ 140.860681531000012, 38.370138603 ], [ 140.862198505, 38.367587046 ], [ 140.860878746999987, 38.367133186 ] ] ] } },
{ "type": "Feature", "properties": { "A29_001": "04421", "A29_002": "宮城県", "A29_003": "大和町", "A29_004": 11, "A29_005": "工業地域", "A29_006": 60, "A29_007": 200, "A29_008": null }, "geometry": { "type": "Polygon", "coordinates": [ [ [ 140.902911261000014, 38.440276299 ], [ 140.90385130300001, 38.439844482 ], [ 140.904315610999987, 38.440499199 ], [ 140.90538371299999, 38.439496705 ], [ 140.904845706, 38.439143372 ], [ 140.904512095, 38.438938207 ], [ 140.904114252, 38.438690714 ], [ 140.903567302999988, 38.438446563 ], [ 140.90277184499999, 38.438186254 ], [ 140.900706584, 38.437532254 ], [ 140.898857455000012, 38.437037904 ], [ 140.897146459999988, 38.43649448 ], [ 140.896162572, 38.436201644 ], [ 140.895595041, 38.436058523 ], [ 140.89487844300001, 38.435944812 ], [ 140.894638213, 38.435925386 ], [ 140.89405427, 38.435948513 ], [ 140.893424804, 38.43603034 ], [ 140.892089231, 38.436151636 ], [ 140.89193480899999, 38.436165112 ], [ 140.892788894, 38.442640246 ], [ 140.894097302, 38.442447626 ], [ 140.899792952000013, 38.441994125 ], [ 140.89970374399999, 38.441794278 ], [ 140.899639494000013, 38.441666667 ], [ 140.899592918, 38.441574158 ], [ 140.9, 38.441470583 ], [ 140.900585, 38.441328278 ], [ 140.90085557, 38.441247778 ], [ 140.902005499000012, 38.440963599 ], [ 140.903046727, 38.440689932 ], [ 140.90306532, 38.440631439 ], [ 140.902911261000014, 38.440276299 ] ] ] } },
{ "type": "Feature", "properties": { "A29_001": "04421", "A29_002": "宮城県", "A29_003": "大和町", "A29_004": 11, "A29_005": "工業地域", "A29_006": 60, "A29_007": 200, "A29_008": null }, "geometry": { "type": "Polygon", "coordinates": [ [ [ 140.857571455, 38.375116773 ], [ 140.85980679799999, 38.373916286 ], [ 140.859765294, 38.373454709 ], [ 140.860149662999987, 38.372915883 ], [ 140.860313108000014, 38.372725142 ], [ 140.860446284, 38.37256778 ], [ 140.86052497, 38.372453339 ], [ 140.860524919999989, 38.372319846 ], [ 140.860476428999988, 38.372205435 ], [ 140.860337093, 38.37208151 ], [ 140.859731372, 38.371766986 ], [ 140.85920421599999, 38.370980449 ], [ 140.859452413000014, 38.370708641 ], [ 140.859106257, 38.370115896 ], [ 140.860878746999987, 38.367133186 ], [ 140.859439282000011, 38.366679353 ], [ 140.85929576, 38.366669373 ], [ 140.859115029, 38.366749509 ], [ 140.859019823000011, 38.366842351 ], [ 140.85907177499999, 38.366874946 ], [ 140.858324941, 38.367687984 ], [ 140.857377662, 38.369014769 ], [ 140.857105275, 38.369394445 ], [ 140.856955481999989, 38.369669804 ], [ 140.856818159999989, 38.369988807 ], [ 140.856681888, 38.370250964 ], [ 140.85664086, 38.370551874 ], [ 140.85662685599999, 38.371056671 ], [ 140.856609596, 38.37167886 ], [ 140.856589672000013, 38.372397025 ], [ 140.85568684899999, 38.372428931 ], [ 140.855572259000013, 38.37243298 ], [ 140.85561795000001, 38.373312594 ], [ 140.855536832000013, 38.374330441 ], [ 140.855794285, 38.374533015 ], [ 140.85664234699999, 38.375104961 ], [ 140.85727824899999, 38.375069076 ], [ 140.857571455, 38.375116773 ] ] ] } },
{ "type": "Feature", "properties": { "A29_001": "04421", "A29_002": "宮城県", "A29_003": "大和町", "A29_004": 6, "A29_005": "第二種住居地域", "A29_006": 60, "A29_007": 200, "A29_008": null }, "geometry": { "type": "Polygon", "coordinates": [ [ [ 140.888533, 38.438262111 ], [ 140.88870938, 38.438229518 ], [ 140.888988189, 38.438232651 ], [ 140.889525752, 38.438191682 ], [ 140.89016842800001, 38.43814364 ], [ 140.890214058, 38.438141751 ], [ 140.889989680000014, 38.436235471 ], [ 140.889975185999987, 38.436112326 ], [ 140.889218398, 38.436183366 ], [ 140.88841463899999, 38.436262174 ], [ 140.885622328000011, 38.436513592 ], [ 140.885443344, 38.436529708 ], [ 140.88546449399999, 38.436655741 ], [ 140.88560663199999, 38.437502729 ], [ 140.885761968999986, 38.438483268 ], [ 140.88589133100001, 38.438493313 ], [ 140.885895849, 38.43851172 ], [ 140.88589195899999, 38.438493362 ], [ 140.886348792, 38.438450181 ], [ 140.888425379000012, 38.43827683 ], [ 140.888533, 38.438262111 ] ] ] } },
{ "type": "Feature", "properties": { "A29_001": "04421", "A29_002": "宮城県", "A29_003": "大和町", "A29_004": 5, "A29_005": "第一種住居地域", "A29_006": 60, "A29_007": 200, "A29_008": null }, "geometry": { "type": "Polygon", "coordinates": [ [ [ 140.891286611999988, 38.442666118 ], [ 140.890935742000011, 38.439690246 ], [ 140.890427181, 38.439732198 ], [ 140.889827757, 38.439779373 ], [ 140.88932463899999, 38.440242056 ], [ 140.88876445, 38.440365951 ], [ 140.88851723799999, 38.440535866 ], [ 140.888588626, 38.440741242 ], [ 140.88834816100001, 38.44079 ], [ 140.888380098, 38.44090968 ], [ 140.886733504, 38.441271767 ], [ 140.886755951999987, 38.44136245 ], [ 140.884783508999988, 38.441752195 ], [ 140.884854781, 38.442416582 ], [ 140.884875448, 38.442620486 ], [ 140.884958111, 38.443280069 ], [ 140.88495998799999, 38.443366359 ], [ 140.88501446699999, 38.44354603 ], [ 140.88513470800001, 38.443965657 ], [ 140.885194829, 38.443958269 ], [ 140.885660014, 38.443877004 ], [ 140.88578100699999, 38.443852772 ], [ 140.885985043, 38.443810513 ], [ 140.887041512, 38.443608914 ], [ 140.887454846, 38.443514349 ], [ 140.887389697, 38.443290668 ], [ 140.887371978, 38.44323924 ], [ 140.891286611999988, 38.442666118 ] ] ] } },
{ "type": "Feature", "properties": { "A29_001": "04421", "A29_002": "宮城県", "A29_003": "大和町", "A29_004": 1, "A29_005": "第一種低層住居専用地域", "A29_006": 40, "A29_007": 60, "A29_008": null }, "geometry": { "type": "Polygon", "coordinates": [ [ [ 140.868031308000013, 38.38530096 ], [ 140.868083211, 38.385068686 ], [ 140.868160026999988, 38.384893784 ], [ 140.868296275, 38.384815078 ], [ 140.869151405, 38.384255226 ], [ 140.868995136, 38.384082673 ], [ 140.86801838400001, 38.383289126 ], [ 140.864500545, 38.38061821 ], [ 140.863462484, 38.381445267 ], [ 140.862123923000013, 38.382519892 ], [ 140.861390054999987, 38.381975611 ], [ 140.862348985000011, 38.381187988 ], [ 140.861679299, 38.380658366 ], [ 140.862555251, 38.37994322 ], [ 140.862148345, 38.379517736 ], [ 140.86194838, 38.379277498 ], [ 140.86182836, 38.379027229 ], [ 140.861719236999988, 38.378764084 ], [ 140.86167083, 38.37848335 ], [ 140.861659489, 38.378064644 ], [ 140.861662263, 38.374333275 ], [ 140.861208072000011, 38.374345226 ], [ 140.861213074, 38.374216227 ], [ 140.861208831, 38.374008998 ], [ 140.86111547499999, 38.373961036 ], [ 140.861020595000014, 38.373949606 ], [ 140.860891399, 38.373970624 ], [ 140.86073092399999, 38.374011186 ], [ 140.86056440499999, 38.374085123 ], [ 140.860258632000011, 38.374263979 ], [ 140.86012846, 38.374366512 ], [ 140.860067436, 38.374445173 ], [ 140.859997829, 38.374470495 ], [ 140.859934691, 38.374452373 ], [ 140.859887735, 38.374397556 ], [ 140.85980679799999, 38.373916286 ], [ 140.857571455, 38.375116773 ], [ 140.85747156299999, 38.375227641 ], [ 140.85731723399999, 38.375553061 ], [ 140.857085770999987, 38.376143098 ], [ 140.856777462, 38.376639258 ], [ 140.856728925, 38.376694209 ], [ 140.85670910799999, 38.376696184 ], [ 140.856707123, 38.376720179 ], [ 140.85663575800001, 38.376814739 ], [ 140.856534374, 38.376866929 ], [ 140.856389537000013, 38.37693706 ], [ 140.856335754000014, 38.37699738 ], [ 140.856313031000013, 38.37708704 ], [ 140.85625509799999, 38.3771702 ], [ 140.856182694000012, 38.37723542 ], [ 140.856149611, 38.37732182 ], [ 140.856061734, 38.377563109 ], [ 140.856018318999986, 38.377739168 ], [ 140.85601528399999, 38.377999987 ], [ 140.856027211999987, 38.378123876 ], [ 140.856011711, 38.378163816 ], [ 140.855989990000012, 38.378190716 ], [ 140.855831712, 38.378281227 ], [ 140.855665144, 38.378377438 ], [ 140.85566316, 38.378638266 ], [ 140.855729438, 38.378859944 ], [ 140.856089512000011, 38.378819122 ], [ 140.85636184099999, 38.379461346 ], [ 140.856734648000014, 38.380436087 ], [ 140.856977855, 38.380574605 ], [ 140.857172496, 38.380931561 ], [ 140.857251166, 38.38106196 ], [ 140.857254305, 38.381140199 ], [ 140.857132314000012, 38.381474398 ], [ 140.856852886000013, 38.381332641 ], [ 140.856972977999988, 38.381528229 ], [ 140.857155142000011, 38.381665127 ], [ 140.857251413, 38.381790625 ], [ 140.85731558399999, 38.381860705 ], [ 140.857431498000011, 38.381920983 ], [ 140.857725397, 38.38200732 ], [ 140.857733744, 38.382222499 ], [ 140.857795874, 38.382356158 ], [ 140.85795014499999, 38.382608795 ], [ 140.85799157400001, 38.382747344 ], [ 140.858016509, 38.383073372 ], [ 140.85814194299999, 38.383718887 ], [ 140.857937074, 38.383792289 ], [ 140.858285939000012, 38.384209533 ], [ 140.858684485999987, 38.384643058 ], [ 140.859175241, 38.385415629 ], [ 140.859401983, 38.385775835 ], [ 140.85969173399999, 38.385779033 ], [ 140.86012864, 38.386373916 ], [ 140.86020632, 38.386545064 ], [ 140.86021462799999, 38.386652654 ], [ 140.860206385999987, 38.386755353 ], [ 140.860119520000012, 38.386923283 ], [ 140.859900234, 38.387334192 ], [ 140.860058611, 38.387317781 ], [ 140.860211757, 38.38729982 ], [ 140.86036906199999, 38.387327499 ], [ 140.86045182699999, 38.387245969 ], [ 140.860623632, 38.387302987 ], [ 140.860702237, 38.387193737 ], [ 140.860847132, 38.387250765 ], [ 140.860733412, 38.387545845 ], [ 140.860642461999987, 38.387904493 ], [ 140.860452103, 38.388025164 ], [ 140.860558725, 38.388119693 ], [ 140.86071184299999, 38.388015332 ], [ 140.861103074999988, 38.388157048 ], [ 140.861345244, 38.388210786 ], [ 140.861556371, 38.388241704 ], [ 140.861808881, 38.388253052 ], [ 140.862073801, 38.38824321 ], [ 140.86238423399999, 38.388181178 ], [ 140.862798102999989, 38.388014795 ], [ 140.863245439, 38.388702598 ], [ 140.863090355999987, 38.389084087 ], [ 140.86303662099999, 38.389289496 ], [ 140.863053258, 38.389455765 ], [ 140.86315271699999, 38.389755683 ], [ 140.863231447, 38.389974101 ], [ 140.86326467399999, 38.390221869 ], [ 140.863292730000012, 38.390507137 ], [ 140.86332174899999, 38.390603306 ], [ 140.86338387, 38.390671756 ], [ 140.86347081299999, 38.390714115 ], [ 140.86371145199999, 38.390723971 ], [ 140.863803523, 38.390712505 ], [ 140.863900446, 38.390714387 ], [ 140.86396345599999, 38.390739162 ], [ 140.864002793, 38.3908183 ], [ 140.864043495, 38.390924123 ], [ 140.864332338, 38.391343132 ], [ 140.86493039699999, 38.391070729 ], [ 140.865046301, 38.391069068 ], [ 140.86510851599999, 38.391469587 ], [ 140.864828394, 38.391576933 ], [ 140.864836129, 38.391952378 ], [ 140.86469989, 38.392089483 ], [ 140.864707525999989, 38.392238468 ], [ 140.864919609999987, 38.392381438 ], [ 140.864730428, 38.392667544 ], [ 140.864798643, 38.392816513 ], [ 140.86523786699999, 38.392893868 ], [ 140.865442392, 38.393060677 ], [ 140.865760427, 38.39306059 ], [ 140.866017973, 38.393257181 ], [ 140.86606350400001, 38.39347171 ], [ 140.866162019, 38.393638548 ], [ 140.86640438500001, 38.39375171 ], [ 140.866449866000011, 38.393853008 ], [ 140.866805821000014, 38.393972096 ], [ 140.86706316499999, 38.393721724 ], [ 140.867373629000014, 38.393715675 ], [ 140.86750978500001, 38.393405743 ], [ 140.86750217299999, 38.393322312 ], [ 140.867691466999986, 38.393292459 ], [ 140.867683731, 38.392946812 ], [ 140.867971562, 38.393125512 ], [ 140.868229082, 38.393256544 ], [ 140.868531942, 38.393190899 ], [ 140.86871359599999, 38.393023979 ], [ 140.869137481, 38.392696079 ], [ 140.869228236, 38.392469591 ], [ 140.869364453, 38.392302683 ], [ 140.86953100299999, 38.392225159 ], [ 140.86966732, 38.392260873 ], [ 140.869917208, 38.392272715 ], [ 140.870038279, 38.392105811 ], [ 140.87000783, 38.391789968 ], [ 140.870212259999988, 38.391754147 ], [ 140.870560597, 38.391789794 ], [ 140.871120907, 38.391735979 ], [ 140.871582732, 38.391592802 ], [ 140.871878028999987, 38.391562908 ], [ 140.872097544000013, 38.391419808 ], [ 140.87218074399999, 38.391246955 ], [ 140.872324585, 38.391193272 ], [ 140.872491171, 38.391193217 ], [ 140.87258196499999, 38.391062078 ], [ 140.872809077999989, 38.390972609 ], [ 140.872748414, 38.390811724 ], [ 140.87284677, 38.390662703 ], [ 140.872899667000013, 38.390466023 ], [ 140.872755766000012, 38.390406476 ], [ 140.872475551, 38.390311219 ], [ 140.87202105099999, 38.389971679 ], [ 140.871846901999987, 38.389983655 ], [ 140.871581953, 38.390114851 ], [ 140.871370004, 38.390240069 ], [ 140.871089825000013, 38.390210362 ], [ 140.870915617, 38.390109107 ], [ 140.870658174, 38.390115148 ], [ 140.870370503, 38.390240389 ], [ 140.870150908999989, 38.390228539 ], [ 140.86984797299999, 38.390115403 ], [ 140.869817497000014, 38.389739965 ], [ 140.869744875, 38.38963445 ], [ 140.86949286699999, 38.389627452 ], [ 140.869434864999988, 38.389615453 ], [ 140.869420865, 38.389589453 ], [ 140.869418144, 38.388789079 ], [ 140.869413149, 38.388461081 ], [ 140.86941316, 38.387839084 ], [ 140.86940916099999, 38.387750085 ], [ 140.869403164, 38.387580086 ], [ 140.869408177, 38.387416087 ], [ 140.86940217599999, 38.38683709 ], [ 140.86941617, 38.386662091 ], [ 140.869398104, 38.386377393 ], [ 140.868064901, 38.386358923 ], [ 140.866856203999987, 38.386329943 ], [ 140.866202197, 38.386367638 ], [ 140.865800701000012, 38.386400351 ], [ 140.86553164899999, 38.386442813 ], [ 140.865110539999989, 38.386583125 ], [ 140.864903610999988, 38.386667946 ], [ 140.86468842, 38.386798427 ], [ 140.864367703, 38.387029999 ], [ 140.86406232499999, 38.386790442 ], [ 140.86304851, 38.387612316 ], [ 140.862659271000012, 38.387276601 ], [ 140.863563468, 38.386614517 ], [ 140.86437455, 38.386040484 ], [ 140.86461468600001, 38.385892509 ], [ 140.863669173, 38.384490132 ], [ 140.864190009999987, 38.384315979 ], [ 140.865199754, 38.384293276 ], [ 140.865336727, 38.384138854 ], [ 140.865574411000011, 38.384277253 ], [ 140.865638545, 38.384215283 ], [ 140.866393106, 38.384643806 ], [ 140.866226633, 38.384960105 ], [ 140.866181426, 38.385115094 ], [ 140.866160038, 38.385611615 ], [ 140.867973189999987, 38.385582667 ], [ 140.868031308000013, 38.38530096 ] ], [ [ 140.859790056, 38.381474083 ], [ 140.860270891999988, 38.381130076 ], [ 140.860374858, 38.381206237 ], [ 140.861337179, 38.381911182 ], [ 140.861156222, 38.382046556 ], [ 140.860807028000011, 38.382320111 ], [ 140.86061331, 38.382442473 ], [ 140.860201034999989, 38.382669929 ], [ 140.85992852199999, 38.38280706 ], [ 140.859557574, 38.382920374 ], [ 140.859523927999987, 38.382820526 ], [ 140.859332481, 38.382459897 ], [ 140.859089653000012, 38.381997519 ], [ 140.859221972, 38.381892167 ], [ 140.859441306, 38.381752162 ], [ 140.859790056, 38.381474083 ] ] ] } },
{ "type": "Feature", "properties": { "A29_001": "04421", "A29_002": "宮城県", "A29_003": "大和町", "A29_004": 7, "A29_005": "準住居地域", "A29_006": 60, "A29_007": 200, "A29_008": null }, "geometry": { "type": "Polygon", "coordinates": [ [ [ 140.88546449399999, 38.436655741 ], [ 140.885443344, 38.436529708 ], [ 140.885622328000011, 38.436513592 ], [ 140.88841463899999, 38.436262174 ], [ 140.889218398, 38.436183366 ], [ 140.889975185999987, 38.436112326 ], [ 140.889902045000014, 38.435490904 ], [ 140.872715177, 38.437111186 ], [ 140.872785169999986, 38.437734978 ], [ 140.873099333, 38.437704222 ], [ 140.87490821899999, 38.437522813 ], [ 140.875, 38.437514074 ], [ 140.876317113999988, 38.437388669 ], [ 140.87637933100001, 38.437382745 ], [ 140.87656612699999, 38.437364959 ], [ 140.876771975999986, 38.437346331 ], [ 140.87707922199999, 38.437318528 ], [ 140.878324478, 38.437209754 ], [ 140.878504075, 38.437193199 ], [ 140.878551753000011, 38.437188803 ], [ 140.878566207, 38.437296064 ], [ 140.88546449399999, 38.436655741 ] ] ] } }
]
}
