{
"type": "FeatureCollection",
"name": "A29-19_29345",
"features": [
{ "type": "Feature", "properties": { "A29_001": "29345", "A29_002": "奈良県", "A29_003": "安堵町", "A29_004": 10, "A29_005": "準工業地域", "A29_006": 60, "A29_007": 200, "A29_008": null }, "geometry": { "type": "Polygon", "coordinates": [ [ [ 135.763260667, 34.602086411 ], [ 135.764007822999986, 34.602081895 ], [ 135.764147619999989, 34.602121523 ], [ 135.764144632000011, 34.601137579 ], [ 135.764826854, 34.601140089 ], [ 135.764838292, 34.600152595 ], [ 135.764924807999989, 34.60016111 ], [ 135.765537733, 34.600183757 ], [ 135.765535156999988, 34.600074029 ], [ 135.765519509, 34.599996476 ], [ 135.765483767, 34.599884298 ], [ 135.76541921399999, 34.599758946 ], [ 135.765370394, 34.599681329 ], [ 135.765266836, 34.599578562 ], [ 135.76517178099999, 34.599529481 ], [ 135.764984435, 34.599474258 ], [ 135.764833087, 34.599440572 ], [ 135.76473794899999, 34.599421306 ], [ 135.764110601999988, 34.59939982 ], [ 135.76410427799999, 34.599040212 ], [ 135.764097623, 34.598746241 ], [ 135.763696377, 34.598643374 ], [ 135.763103758, 34.598482887 ], [ 135.762498553, 34.598286115 ], [ 135.762051122, 34.598114901 ], [ 135.761504839999986, 34.597892478 ], [ 135.761283579, 34.597796634 ], [ 135.761036988, 34.597681656 ], [ 135.760785750999986, 34.597578119 ], [ 135.760617427, 34.59750747 ], [ 135.760485977, 34.597604039 ], [ 135.760495537, 34.598292934 ], [ 135.760474119, 34.599225097 ], [ 135.76046954, 34.599424363 ], [ 135.760470139, 34.599446515 ], [ 135.76047108, 34.599481351 ], [ 135.760642632000014, 34.599482369 ], [ 135.761360088, 34.599486567 ], [ 135.761387402, 34.599496914 ], [ 135.761404647, 34.599518893 ], [ 135.761409227, 34.599531305 ], [ 135.761411040000013, 34.600200168 ], [ 135.761366329999987, 34.600703857 ], [ 135.76131461, 34.601237586 ], [ 135.761288756999988, 34.601804284 ], [ 135.76126798300001, 34.601805674 ], [ 135.761269230000011, 34.601974556 ], [ 135.76126917, 34.602187673 ], [ 135.761318087, 34.602183995 ], [ 135.762249414, 34.602141692 ], [ 135.76292884099999, 34.602115583 ], [ 135.76310484199999, 34.602103998 ], [ 135.763260667, 34.602086411 ] ] ] } },
{ "type": "Feature", "properties": { "A29_001": "29345", "A29_002": "奈良県", "A29_003": "安堵町", "A29_004": 3, "A29_005": "第一種中高層住居専用地域", "A29_006": 60, "A29_007": 200, "A29_008": null }, "geometry": { "type": "Polygon", "coordinates": [ [ [ 135.757962542, 34.600598795 ], [ 135.757946739, 34.600621763 ], [ 135.75794674, 34.600621852 ], [ 135.757946744, 34.600622281 ], [ 135.757953296000011, 34.601236536 ], [ 135.75898098499999, 34.601237556 ], [ 135.75898218, 34.60125449 ], [ 135.758994315, 34.602219986 ], [ 135.759020529999987, 34.60224403 ], [ 135.75916344, 34.60237766 ], [ 135.759782777999988, 34.602396861 ], [ 135.759906905, 34.602373269 ], [ 135.76026625099999, 34.602368029 ], [ 135.76026252, 34.60226692 ], [ 135.760263533, 34.602241569 ], [ 135.76061982499999, 34.602231535 ], [ 135.76082322799999, 34.6022212 ], [ 135.76126917, 34.602187673 ], [ 135.761269230000011, 34.601974556 ], [ 135.76126798300001, 34.601805674 ], [ 135.761288756999988, 34.601804284 ], [ 135.76131461, 34.601237586 ], [ 135.761366329999987, 34.600703857 ], [ 135.761411040000013, 34.600200168 ], [ 135.761409227, 34.599531305 ], [ 135.761404647, 34.599518893 ], [ 135.761387402, 34.599496914 ], [ 135.761360088, 34.599486567 ], [ 135.760642632000014, 34.599482369 ], [ 135.76047108, 34.599481351 ], [ 135.76038661199999, 34.59948085 ], [ 135.760122663, 34.599479283 ], [ 135.759784002, 34.59947586 ], [ 135.75977390599999, 34.599475758 ], [ 135.759424110999987, 34.599472222 ], [ 135.759096906, 34.599469526 ], [ 135.759009472, 34.599468806 ], [ 135.758752417000011, 34.59944825 ], [ 135.758391694000011, 34.599407167 ], [ 135.75804481099999, 34.59939215 ], [ 135.758031370999987, 34.599328068 ], [ 135.75791209799999, 34.599328949 ], [ 135.75794233, 34.60020843 ], [ 135.757944234, 34.600386937 ], [ 135.75796080500001, 34.600402243 ], [ 135.757965309000014, 34.600440416 ], [ 135.757962542, 34.600598795 ] ] ] } },
{ "type": "Feature", "properties": { "A29_001": "29345", "A29_002": "奈良県", "A29_003": "安堵町", "A29_004": 5, "A29_005": "第一種住居地域", "A29_006": 60, "A29_007": 200, "A29_008": null }, "geometry": { "type": "Polygon", "coordinates": [ [ [ 135.744210764, 34.602594367 ], [ 135.744083052, 34.602379422 ], [ 135.744040086000012, 34.602280342 ], [ 135.743982483, 34.602250405 ], [ 135.743783592999989, 34.601729991 ], [ 135.743772138, 34.601702536 ], [ 135.743724636, 34.601671428 ], [ 135.743570395, 34.601172576 ], [ 135.74350919599999, 34.600905293 ], [ 135.743408210000013, 34.600443525 ], [ 135.743434208, 34.600431653 ], [ 135.743375832999988, 34.600184652 ], [ 135.74334890899999, 34.600028358 ], [ 135.743341793000013, 34.599997334 ], [ 135.743284192, 34.599916773 ], [ 135.743246132, 34.599835648 ], [ 135.74321562, 34.59970919 ], [ 135.743204748000011, 34.599665007 ], [ 135.743207562, 34.599559348 ], [ 135.74316484, 34.599381554 ], [ 135.743150973000013, 34.599310869 ], [ 135.743145113999987, 34.599230045 ], [ 135.74308951399999, 34.599018829 ], [ 135.743056889, 34.598841055 ], [ 135.743041393, 34.598756971 ], [ 135.743001455000012, 34.598507944 ], [ 135.742955709, 34.598396616 ], [ 135.742950229, 34.598383279 ], [ 135.742946439, 34.598378026 ], [ 135.742940549999986, 34.598369862 ], [ 135.742920965, 34.59832546 ], [ 135.742873247, 34.598205343 ], [ 135.742817312999989, 34.59800963 ], [ 135.74278940100001, 34.597865618 ], [ 135.74276604100001, 34.597798661 ], [ 135.742535739, 34.597274363 ], [ 135.742533106, 34.597263341 ], [ 135.742071364999987, 34.597332017 ], [ 135.741495515999986, 34.59736133 ], [ 135.741310887999987, 34.597366664 ], [ 135.741191122, 34.597419343 ], [ 135.741129513, 34.597426723 ], [ 135.740065007, 34.597425469 ], [ 135.74006798, 34.597616591 ], [ 135.740069167, 34.597692833 ], [ 135.740071683999986, 34.597828586 ], [ 135.740073344, 34.597918104 ], [ 135.740074028, 34.597954972 ], [ 135.74007680599999, 34.598104528 ], [ 135.740077, 34.598115 ], [ 135.740076124000012, 34.598139466 ], [ 135.740076050999988, 34.598141481 ], [ 135.740071389, 34.598271694 ], [ 135.740071957, 34.598276851 ], [ 135.740080806, 34.598357167 ], [ 135.740076354, 34.598475891 ], [ 135.740076184, 34.598480438 ], [ 135.740894078, 34.598464153 ], [ 135.74099447899999, 34.598463141 ], [ 135.741066273, 34.598464509 ], [ 135.74107157099999, 34.59846461 ], [ 135.74108032800001, 34.598463423 ], [ 135.741089471, 34.598462183 ], [ 135.741138645, 34.598726644 ], [ 135.74115328799999, 34.598761908 ], [ 135.741186129, 34.598841 ], [ 135.741187317999987, 34.598861236 ], [ 135.741199634, 34.599070784 ], [ 135.741220055000014, 34.599650174 ], [ 135.741248458, 34.59980022 ], [ 135.74128627499999, 34.6 ], [ 135.74130547199999, 34.600101417 ], [ 135.74139910400001, 34.600532943 ], [ 135.741406853, 34.600552403 ], [ 135.74144841, 34.600546766 ], [ 135.74154101, 34.600915 ], [ 135.74163984099999, 34.601327643 ], [ 135.742272875999987, 34.601325054 ], [ 135.742433686, 34.601335046 ], [ 135.74243813699999, 34.601388486 ], [ 135.74246259099999, 34.60169004 ], [ 135.74248971899999, 34.601873288 ], [ 135.74249867899999, 34.601961086 ], [ 135.742489401, 34.601976332 ], [ 135.74248014599999, 34.601983946 ], [ 135.74234858599999, 34.601989393 ], [ 135.74234851599999, 34.602012291 ], [ 135.74235048700001, 34.602121065 ], [ 135.742391938999987, 34.602149777 ], [ 135.742389010000011, 34.60230001 ], [ 135.742395402, 34.602359523 ], [ 135.742928377, 34.602324268 ], [ 135.743272525, 34.602306033 ], [ 135.74328654199999, 34.602512681 ], [ 135.7433278, 34.602514736 ], [ 135.743525611, 34.602510722 ], [ 135.74353671599999, 34.602586324 ], [ 135.743566808, 34.602791181 ], [ 135.74356679499999, 34.60281294 ], [ 135.743868335, 34.602785665 ], [ 135.744011147, 34.602780002 ], [ 135.744091945, 34.602771823 ], [ 135.744117934, 34.602763529 ], [ 135.74414541499999, 34.602738541 ], [ 135.744210764, 34.602594367 ] ] ] } },
{ "type": "Feature", "properties": { "A29_001": "29345", "A29_002": "奈良県", "A29_003": "安堵町", "A29_004": 3, "A29_005": "第一種中高層住居専用地域", "A29_006": 60, "A29_007": 200, "A29_008": null }, "geometry": { "type": "Polygon", "coordinates": [ [ [ 135.753953623, 34.599040878 ], [ 135.75346198299999, 34.598708884 ], [ 135.753192782000013, 34.598520259 ], [ 135.753175211000013, 34.598511874 ], [ 135.753155601, 34.598509927 ], [ 135.753145214, 34.59851086 ], [ 135.753112675000011, 34.598521786 ], [ 135.75307552699999, 34.598537786 ], [ 135.7530352, 34.59896802 ], [ 135.75301466, 34.59941036 ], [ 135.75299759, 34.600539 ], [ 135.7529891, 34.60124652 ], [ 135.75295732, 34.60146614 ], [ 135.752945579999988, 34.60264935 ], [ 135.75292475, 34.60322256 ], [ 135.752938787, 34.603242534 ], [ 135.753023117, 34.603241986 ], [ 135.753267219, 34.603252529 ], [ 135.753674584, 34.603288159 ], [ 135.754229259999988, 34.60327974 ], [ 135.75421864, 34.60237897 ], [ 135.755301440000011, 34.60233115 ], [ 135.75533977, 34.60112744 ], [ 135.75533858, 34.60059864 ], [ 135.75543006, 34.60015564 ], [ 135.75542299, 34.60006926 ], [ 135.75497306, 34.59974034 ], [ 135.754378543, 34.599324354 ], [ 135.754349979000011, 34.599304368 ], [ 135.75431690799999, 34.599298642 ], [ 135.754289199, 34.599304311 ], [ 135.75425281299999, 34.599317834 ], [ 135.754208764999987, 34.599288406 ], [ 135.754210107, 34.599258212 ], [ 135.75420967299999, 34.599250485 ], [ 135.754209949, 34.599226588 ], [ 135.75420743399999, 34.599218568 ], [ 135.754203302, 34.599211308 ], [ 135.75419663, 34.599204425 ], [ 135.754181206, 34.599191609 ], [ 135.754147347000014, 34.599169977 ], [ 135.753964496, 34.599048393 ], [ 135.753953623, 34.599040878 ] ] ] } },
{ "type": "Feature", "properties": { "A29_001": "29345", "A29_002": "奈良県", "A29_003": "安堵町", "A29_004": 5, "A29_005": "第一種住居地域", "A29_006": 60, "A29_007": 200, "A29_008": null }, "geometry": { "type": "Polygon", "coordinates": [ [ [ 135.76003842599999, 34.605820813 ], [ 135.760099270000012, 34.605813079 ], [ 135.760117189999988, 34.605801188 ], [ 135.760132233, 34.605786428 ], [ 135.760142725, 34.605766421 ], [ 135.7601467, 34.60574083 ], [ 135.76017357, 34.60556785 ], [ 135.76019674, 34.60483616 ], [ 135.76045535, 34.60484046 ], [ 135.7608061, 34.60480327 ], [ 135.76096507, 34.60475661 ], [ 135.76178396, 34.60444084 ], [ 135.761952551, 34.60422831 ], [ 135.76136122, 34.60388553 ], [ 135.76013482, 34.60319399 ], [ 135.76013776, 34.60312808 ], [ 135.75973604, 34.60288788 ], [ 135.759043670000011, 34.60247059 ], [ 135.75860545, 34.60219547 ], [ 135.75810044, 34.60189142 ], [ 135.75802255, 34.60191476 ], [ 135.75766202, 34.6016822 ], [ 135.75767509100001, 34.60159738 ], [ 135.756782750000013, 34.60099406 ], [ 135.756718580000012, 34.60101741 ], [ 135.756639080000014, 34.60096497 ], [ 135.756646569999987, 34.60091045 ], [ 135.755588890000013, 34.60018784 ], [ 135.755516449999988, 34.60022027 ], [ 135.75543006, 34.60015564 ], [ 135.75533858, 34.60059864 ], [ 135.75533977, 34.60112744 ], [ 135.75530143899999, 34.60233115 ], [ 135.75421864, 34.60237897 ], [ 135.754229259999988, 34.60327974 ], [ 135.753674585, 34.603288159 ], [ 135.753267219, 34.603252529 ], [ 135.753023117999987, 34.603241986 ], [ 135.75293878799999, 34.603242534 ], [ 135.752964330999987, 34.60327888 ], [ 135.75285856, 34.60329382 ], [ 135.751785184, 34.603258173 ], [ 135.751793056, 34.603252806 ], [ 135.751632304999987, 34.603244444 ], [ 135.751428476, 34.603233766 ], [ 135.751426235, 34.603233648 ], [ 135.751317371, 34.603227945 ], [ 135.75121995, 34.603222841 ], [ 135.751079573, 34.603215487 ], [ 135.751001030999987, 34.603211372 ], [ 135.750923160000013, 34.603207292 ], [ 135.750675675, 34.603196323 ], [ 135.7506749, 34.60320682 ], [ 135.750664480000012, 34.60332497 ], [ 135.750436729, 34.603323106 ], [ 135.750376888, 34.603313349 ], [ 135.750341553999988, 34.603312084 ], [ 135.750145393999986, 34.603311086 ], [ 135.750065554, 34.603309607 ], [ 135.750066976, 34.603268106 ], [ 135.74949406799999, 34.603233516 ], [ 135.749457328, 34.603461553 ], [ 135.749440990000011, 34.603601778 ], [ 135.749431660999988, 34.603826454 ], [ 135.749407596999987, 34.604058256 ], [ 135.74940315500001, 34.604096889 ], [ 135.749401584, 34.604331599 ], [ 135.74940056599999, 34.6045842 ], [ 135.7493821, 34.60461616 ], [ 135.749413510000011, 34.60482909 ], [ 135.749406850000014, 34.60491165 ], [ 135.74937931, 34.60509112 ], [ 135.74937914099999, 34.605147356 ], [ 135.749397378999987, 34.605306542 ], [ 135.749403796, 34.605326304 ], [ 135.74942023599999, 34.605615436 ], [ 135.749398050999986, 34.606085476 ], [ 135.75019386, 34.60608565 ], [ 135.75055723, 34.60611215 ], [ 135.75087892, 34.60614766 ], [ 135.75113749, 34.60616712 ], [ 135.75237213, 34.60613024 ], [ 135.75259578, 34.60611328 ], [ 135.752886139999987, 34.60606462 ], [ 135.75341875, 34.6059839 ], [ 135.754346649000013, 34.60596758 ], [ 135.75537528000001, 34.60594541 ], [ 135.75614662000001, 34.60593408 ], [ 135.75623092, 34.60591076 ], [ 135.75712633, 34.60589134 ], [ 135.75822829, 34.6058352 ], [ 135.758904390999987, 34.60583427 ], [ 135.7597343, 34.60583287 ], [ 135.76003842599999, 34.605820813 ] ] ] } },
{ "type": "Feature", "properties": { "A29_001": "29345", "A29_002": "奈良県", "A29_003": "安堵町", "A29_004": 3, "A29_005": "第一種中高層住居専用地域", "A29_006": 60, "A29_007": 200, "A29_008": null }, "geometry": { "type": "Polygon", "coordinates": [ [ [ 135.761282763, 34.616414947 ], [ 135.76128313699999, 34.616393779 ], [ 135.76112397899999, 34.61640172 ], [ 135.76109179, 34.616401657 ], [ 135.76102547799999, 34.616374916 ], [ 135.761009427, 34.616359916 ], [ 135.76100357199999, 34.616296703 ], [ 135.76101189100001, 34.616201916 ], [ 135.76103006400001, 34.616178667 ], [ 135.761040266, 34.616128791 ], [ 135.761036776, 34.615942505 ], [ 135.761039340999986, 34.615749579 ], [ 135.761047845, 34.615589928 ], [ 135.761036866000012, 34.615209033 ], [ 135.761039038, 34.615035912 ], [ 135.761330691000012, 34.615026179 ], [ 135.761330625, 34.615025634 ], [ 135.761326862, 34.614994714 ], [ 135.76132063899999, 34.614943583 ], [ 135.761288772, 34.614345268 ], [ 135.761284267, 34.614260686 ], [ 135.76073515600001, 34.614269497 ], [ 135.760028828, 34.614285284 ], [ 135.76002943, 34.61434415 ], [ 135.76001419, 34.61486676 ], [ 135.760060290000013, 34.61570763 ], [ 135.760077196999987, 34.61608111 ], [ 135.760092756, 34.616145258 ], [ 135.760009606000011, 34.616283436 ], [ 135.759984395, 34.616321313 ], [ 135.759968681, 34.616367795 ], [ 135.759964242, 34.616406428 ], [ 135.75996839699999, 34.616466546 ], [ 135.75998736299999, 34.61649306 ], [ 135.759999368, 34.616532441 ], [ 135.759998392999989, 34.616570365 ], [ 135.75999398499999, 34.616598264 ], [ 135.759985199999988, 34.616643329 ], [ 135.759971194, 34.616697687 ], [ 135.759961546999989, 34.616741318 ], [ 135.75996487099999, 34.616789269 ], [ 135.759977746, 34.616827221 ], [ 135.760003653000012, 34.616848024 ], [ 135.76003734599999, 34.616870274 ], [ 135.76005025500001, 34.61689606 ], [ 135.760050103, 34.616949013 ], [ 135.760042977000012, 34.617019127 ], [ 135.76002814899999, 34.617058455 ], [ 135.75999767499999, 34.617120652 ], [ 135.759957605000011, 34.61720859 ], [ 135.759939193, 34.617290131 ], [ 135.759918172, 34.617375961 ], [ 135.759914514, 34.617443934 ], [ 135.759917023000014, 34.61747471 ], [ 135.759942908999989, 34.617502668 ], [ 135.759975723, 34.617529925 ], [ 135.76004319, 34.617546517 ], [ 135.76008467599999, 34.617568066 ], [ 135.760089768, 34.61760314 ], [ 135.76008524299999, 34.617671827 ], [ 135.760070541, 34.617767449 ], [ 135.76003021, 34.618046688 ], [ 135.760026834, 34.618216991 ], [ 135.760217778999987, 34.618438722 ], [ 135.76066173000001, 34.618490976 ], [ 135.760789697, 34.618520675 ], [ 135.76100677299999, 34.618484844 ], [ 135.761184087, 34.618458615 ], [ 135.761197896999988, 34.61783928 ], [ 135.761290242, 34.617833736 ], [ 135.76138253799999, 34.617441774 ], [ 135.761403288, 34.617382498 ], [ 135.761321826999989, 34.617282317 ], [ 135.761309606999987, 34.617116276 ], [ 135.761314499, 34.61701992 ], [ 135.761307609999989, 34.617007503 ], [ 135.761307624000011, 34.617002732 ], [ 135.761306514000012, 34.616987464 ], [ 135.761328021999987, 34.616730849 ], [ 135.761290535, 34.616521823 ], [ 135.761282763, 34.616414947 ] ] ] } },
{ "type": "Feature", "properties": { "A29_001": "29345", "A29_002": "奈良県", "A29_003": "安堵町", "A29_004": 5, "A29_005": "第一種住居地域", "A29_006": 60, "A29_007": 200, "A29_008": null }, "geometry": { "type": "Polygon", "coordinates": [ [ [ 135.75993761, 34.619138047 ], [ 135.760018968, 34.619094872 ], [ 135.76004457799999, 34.619088031 ], [ 135.760222744, 34.619088679 ], [ 135.760370665000011, 34.619093228 ], [ 135.76040565, 34.618940912 ], [ 135.76043285099999, 34.618844649 ], [ 135.760553109, 34.618574245 ], [ 135.760601194, 34.618483851 ], [ 135.760217778999987, 34.618438722 ], [ 135.760026834, 34.618216991 ], [ 135.76003021, 34.618046688 ], [ 135.760070541, 34.617767449 ], [ 135.76008524299999, 34.617671827 ], [ 135.760089768, 34.61760314 ], [ 135.76008467599999, 34.617568066 ], [ 135.76004319, 34.617546517 ], [ 135.759975723, 34.617529925 ], [ 135.759942908999989, 34.617502668 ], [ 135.759917023000014, 34.61747471 ], [ 135.759914514, 34.617443934 ], [ 135.759918172, 34.617375961 ], [ 135.759939193, 34.617290131 ], [ 135.759957605000011, 34.61720859 ], [ 135.75999767499999, 34.617120652 ], [ 135.76002814899999, 34.617058455 ], [ 135.760042977000012, 34.617019127 ], [ 135.760050103, 34.616949013 ], [ 135.76005025500001, 34.61689606 ], [ 135.76003734599999, 34.616870274 ], [ 135.760003653000012, 34.616848024 ], [ 135.759977746, 34.616827221 ], [ 135.75996487099999, 34.616789269 ], [ 135.759961546999989, 34.616741318 ], [ 135.759971194, 34.616697687 ], [ 135.759985199999988, 34.616643329 ], [ 135.75999398499999, 34.616598264 ], [ 135.759998392999989, 34.616570365 ], [ 135.759999368, 34.616532441 ], [ 135.75998736299999, 34.61649306 ], [ 135.75996839699999, 34.616466546 ], [ 135.759964242, 34.616406428 ], [ 135.759968681, 34.616367795 ], [ 135.759984395, 34.616321313 ], [ 135.760009606000011, 34.616283436 ], [ 135.760092756, 34.616145258 ], [ 135.760077196999987, 34.61608111 ], [ 135.760077177, 34.616080672 ], [ 135.759983836, 34.616082849 ], [ 135.75973746599999, 34.616073777 ], [ 135.759382622, 34.616061152 ], [ 135.75928222499999, 34.616055597 ], [ 135.759243669999989, 34.616054139 ], [ 135.759230113, 34.61605167 ], [ 135.75913674, 34.61603741 ], [ 135.759105408000011, 34.61603567 ], [ 135.758969446, 34.616013159 ], [ 135.758934556000014, 34.616000722 ], [ 135.758898394999989, 34.615985647 ], [ 135.75884095399999, 34.61596132 ], [ 135.758838653999987, 34.615960346 ], [ 135.758836264, 34.615959334 ], [ 135.75883460899999, 34.615958633 ], [ 135.758833001999989, 34.615956822 ], [ 135.758831969, 34.615954912 ], [ 135.758830533, 34.615952388 ], [ 135.758830499, 34.615951944 ], [ 135.758751, 34.61494004 ], [ 135.75870998, 34.61440141 ], [ 135.758680379999987, 34.61340001 ], [ 135.75867892, 34.61311445 ], [ 135.75868477, 34.613011087 ], [ 135.758714591, 34.61293868 ], [ 135.75854264, 34.612953529 ], [ 135.758096157000011, 34.612956882 ], [ 135.75808164599999, 34.612956191 ], [ 135.75797031799999, 34.612943567 ], [ 135.757717595, 34.612939726 ], [ 135.75751564399999, 34.612937416 ], [ 135.75730330499999, 34.61293604 ], [ 135.756969790999989, 34.612934899 ], [ 135.756899209000011, 34.612956651 ], [ 135.756578897999987, 34.613020945 ], [ 135.75657787, 34.61308302 ], [ 135.75661358, 34.61433894 ], [ 135.756659845, 34.614698639 ], [ 135.756662029000012, 34.614814053 ], [ 135.756673247, 34.614924753 ], [ 135.75669880800001, 34.615001566 ], [ 135.756660686, 34.61501799 ], [ 135.75658751200001, 34.615075765 ], [ 135.756588810000011, 34.61514346 ], [ 135.75658886799999, 34.615146526 ], [ 135.756555394, 34.615305374 ], [ 135.756497356000011, 34.615617255 ], [ 135.75650542299999, 34.615819067 ], [ 135.75651885799999, 34.61596078 ], [ 135.756540898, 34.616119685 ], [ 135.756568383, 34.61619273 ], [ 135.756553427999989, 34.616232334 ], [ 135.756515102, 34.616335112 ], [ 135.756503944, 34.616427362 ], [ 135.756533967, 34.616666667 ], [ 135.756538490999986, 34.616698584 ], [ 135.75654692099999, 34.617021339 ], [ 135.756582928, 34.617140199 ], [ 135.756601424, 34.61732772 ], [ 135.75656771300001, 34.617608164 ], [ 135.756613748, 34.617850125 ], [ 135.75663029099999, 34.618113494 ], [ 135.75670640300001, 34.618133683 ], [ 135.7567582, 34.618181015 ], [ 135.756801241, 34.618262678 ], [ 135.756807702, 34.618421551 ], [ 135.75682280699999, 34.618584736 ], [ 135.756827571, 34.618732156 ], [ 135.75683263, 34.618777964 ], [ 135.756977285, 34.618874634 ], [ 135.75706764099999, 34.618935813 ], [ 135.757093282999989, 34.618953443 ], [ 135.75733401, 34.619020711 ], [ 135.75797002600001, 34.61908757 ], [ 135.75843814699999, 34.619121242 ], [ 135.75859244, 34.619121146 ], [ 135.758655903, 34.619121106 ], [ 135.75871151199999, 34.619121071 ], [ 135.758720858, 34.619121065 ], [ 135.758787906, 34.619121024 ], [ 135.758906204, 34.61912095 ], [ 135.758915083, 34.619120944 ], [ 135.75894948199999, 34.619121519 ], [ 135.759218524, 34.61912602 ], [ 135.759310750999987, 34.619127563 ], [ 135.75934979199999, 34.619128216 ], [ 135.759501992999986, 34.619130762 ], [ 135.759590909999986, 34.619132249 ], [ 135.75968448, 34.619133814 ], [ 135.759816848000014, 34.619136028 ], [ 135.75993761, 34.619138047 ] ] ] } },
{ "type": "Feature", "properties": { "A29_001": "29345", "A29_002": "奈良県", "A29_003": "安堵町", "A29_004": 10, "A29_005": "準工業地域", "A29_006": 60, "A29_007": 200, "A29_008": null }, "geometry": { "type": "Polygon", "coordinates": [ [ [ 135.761270166, 34.602215246 ], [ 135.761269, 34.602187686 ], [ 135.76082322799999, 34.6022212 ], [ 135.76061982499999, 34.602231535 ], [ 135.760263533, 34.602241569 ], [ 135.76026252, 34.60226692 ], [ 135.76026625099999, 34.602368029 ], [ 135.759906905, 34.602373269 ], [ 135.759782777999988, 34.602396861 ], [ 135.75916344, 34.60237766 ], [ 135.759020529999987, 34.60224403 ], [ 135.758994315, 34.602219986 ], [ 135.75898218, 34.60125449 ], [ 135.75898098499999, 34.601237556 ], [ 135.757953296000011, 34.601236536 ], [ 135.757946739, 34.600621763 ], [ 135.757962542, 34.600598795 ], [ 135.757965309000014, 34.600440416 ], [ 135.75796080500001, 34.600402243 ], [ 135.757944234, 34.600386937 ], [ 135.75794233, 34.60020843 ], [ 135.75791209799999, 34.599328949 ], [ 135.757801531000013, 34.599334787 ], [ 135.757720911, 34.599283343 ], [ 135.757605637000012, 34.599244949 ], [ 135.757418325, 34.599180174 ], [ 135.757285779, 34.599129819 ], [ 135.757172021, 34.599066382 ], [ 135.75704670799999, 34.599008885 ], [ 135.756940988, 34.598958822 ], [ 135.756809616999988, 34.598901313 ], [ 135.756682633999986, 34.59882306 ], [ 135.75659973099999, 34.598763501 ], [ 135.75646414900001, 34.598666626 ], [ 135.756340697000013, 34.598564765 ], [ 135.756225050000012, 34.598457196 ], [ 135.756147464, 34.598355427 ], [ 135.756049972999989, 34.598253618 ], [ 135.755955094, 34.598146805 ], [ 135.755833496, 34.598003444 ], [ 135.755698903, 34.597865065 ], [ 135.75558415899999, 34.597745332 ], [ 135.755514244000011, 34.597683651 ], [ 135.755376192999989, 34.597544549 ], [ 135.755252801000012, 34.597423367 ], [ 135.755098371, 34.597262765 ], [ 135.754898187, 34.59706486 ], [ 135.75458588699999, 34.596737922 ], [ 135.754386926, 34.596556621 ], [ 135.75406430699999, 34.596404266 ], [ 135.753870916000011, 34.596317448 ], [ 135.75363894899999, 34.596237072 ], [ 135.753213894, 34.596097866 ], [ 135.752979004999986, 34.596030602 ], [ 135.752700800000014, 34.595979947 ], [ 135.752356294, 34.595914845 ], [ 135.75189206499999, 34.595855462 ], [ 135.751661369, 34.595833525 ], [ 135.751086071, 34.595779877 ], [ 135.750753022999987, 34.595742224 ], [ 135.750639075, 34.59574557 ], [ 135.750555493, 34.595722738 ], [ 135.750315314, 34.595694836 ], [ 135.75030181, 34.59648084 ], [ 135.75030184, 34.59653704 ], [ 135.750908759999987, 34.596946164 ], [ 135.750933258, 34.596964647 ], [ 135.750937822, 34.59698183 ], [ 135.75093778199999, 34.596995188 ], [ 135.750936164, 34.597012555 ], [ 135.750935384, 34.597025715 ], [ 135.750929578000012, 34.597038106 ], [ 135.75092836499999, 34.597040431 ], [ 135.75092679, 34.597045252 ], [ 135.75092870099999, 34.597046556 ], [ 135.75148686599999, 34.59742757 ], [ 135.751522650999988, 34.597421918 ], [ 135.75155035099999, 34.597419112 ], [ 135.751568815000013, 34.597418196 ], [ 135.751583818, 34.597417272 ], [ 135.751610355999986, 34.597417326 ], [ 135.751847496000011, 34.597586772 ], [ 135.75191637099999, 34.597635986 ], [ 135.751939523, 34.597656536 ], [ 135.751947401, 34.59767474 ], [ 135.751949141000011, 34.597684726 ], [ 135.751948543, 34.597710331 ], [ 135.75199403, 34.597740478 ], [ 135.75202927399999, 34.597722899 ], [ 135.75204542, 34.597725317 ], [ 135.75206161700001, 34.597729673 ], [ 135.752958161, 34.598363528 ], [ 135.752995454, 34.598389893 ], [ 135.753002943000013, 34.598417936 ], [ 135.753007559, 34.598442096 ], [ 135.753009655999989, 34.598464463 ], [ 135.753009037, 34.598494451 ], [ 135.75307552699999, 34.598537786 ], [ 135.753112675000011, 34.598521786 ], [ 135.753145214, 34.59851086 ], [ 135.753155601, 34.598509927 ], [ 135.753175211000013, 34.598511874 ], [ 135.753192782000013, 34.598520259 ], [ 135.75346198299999, 34.598708884 ], [ 135.753953623, 34.599040878 ], [ 135.753964496, 34.599048393 ], [ 135.754147347000014, 34.599169977 ], [ 135.754181206, 34.599191609 ], [ 135.75419663, 34.599204425 ], [ 135.754203302, 34.599211308 ], [ 135.75420743399999, 34.599218568 ], [ 135.754209949, 34.599226588 ], [ 135.75420967299999, 34.599250485 ], [ 135.754210107, 34.599258212 ], [ 135.754208764999987, 34.599288406 ], [ 135.75425281299999, 34.599317834 ], [ 135.754289199, 34.599304311 ], [ 135.75431690799999, 34.599298642 ], [ 135.754349979000011, 34.599304368 ], [ 135.75497306, 34.59974034 ], [ 135.75542299, 34.60006926 ], [ 135.75543006, 34.60015564 ], [ 135.755516449999988, 34.60022027 ], [ 135.755588890000013, 34.60018784 ], [ 135.756646569999987, 34.60091045 ], [ 135.756639080000014, 34.60096497 ], [ 135.756718580000012, 34.60101741 ], [ 135.756782750000013, 34.60099406 ], [ 135.75767509, 34.60159738 ], [ 135.75766202, 34.6016822 ], [ 135.75802255, 34.60191476 ], [ 135.75810044, 34.60189142 ], [ 135.75860545, 34.60219547 ], [ 135.759043670000011, 34.60247059 ], [ 135.75973604, 34.60288788 ], [ 135.76013776, 34.60312808 ], [ 135.76013482, 34.60319399 ], [ 135.761319327, 34.603861908 ], [ 135.76131379099999, 34.603831399 ], [ 135.76128657699999, 34.603764557 ], [ 135.76126660599999, 34.603686996 ], [ 135.76126574, 34.603589855 ], [ 135.761329464, 34.603394919 ], [ 135.761349814, 34.603340097 ], [ 135.761341178, 34.602829625 ], [ 135.761270375, 34.602773739 ], [ 135.761270166, 34.602215246 ] ] ] } }
]
}
