{
"type": "FeatureCollection",
"name": "A29-19_29427",
"features": [
{ "type": "Feature", "properties": { "A29_001": "29427", "A29_002": "奈良県", "A29_003": "河合町", "A29_004": 1, "A29_005": "第一種低層住居専用地域", "A29_006": 50, "A29_007": 80, "A29_008": "条件付き公開" }, "geometry": { "type": "Polygon", "coordinates": [ [ [ 135.73267156, 34.58008273 ], [ 135.733243664000014, 34.578146332 ], [ 135.73338039399999, 34.577659613 ], [ 135.733424439, 34.577498633 ], [ 135.733439067, 34.577373884 ], [ 135.73342197, 34.577203168 ], [ 135.733259266, 34.576378921 ], [ 135.73325939, 34.576092173 ], [ 135.733266171999986, 34.575842002 ], [ 135.733310652, 34.575639587 ], [ 135.73337615299999, 34.575342155 ], [ 135.73307750699999, 34.575324822 ], [ 135.733028, 34.575328889 ], [ 135.732942205, 34.575336316 ], [ 135.732761952, 34.575339843 ], [ 135.7325882, 34.575348806 ], [ 135.732214715, 34.575363148 ], [ 135.732105944000011, 34.575346801 ], [ 135.731932437000012, 34.575324534 ], [ 135.73157946, 34.575205414 ], [ 135.731166389, 34.575062379 ], [ 135.73100954, 34.575035503 ], [ 135.730896239, 34.575003038 ], [ 135.730770438, 34.574939278 ], [ 135.730713392000013, 34.574868089 ], [ 135.730681663000013, 34.574760951 ], [ 135.730632593, 34.574703044 ], [ 135.73050702, 34.574629184 ], [ 135.730440761000011, 34.57451312 ], [ 135.73039243, 34.5744368 ], [ 135.730346, 34.5743696 ], [ 135.73028186499999, 34.574306107 ], [ 135.730191795, 34.574279483 ], [ 135.730089897, 34.574227288 ], [ 135.729913110000012, 34.57401801 ], [ 135.729759016, 34.573892793 ], [ 135.729555025, 34.573885806 ], [ 135.72949782399999, 34.573862939 ], [ 135.729402889999989, 34.573819143 ], [ 135.729187540999988, 34.573817718 ], [ 135.729110858000013, 34.57379765 ], [ 135.728766084, 34.5737912 ], [ 135.728620586, 34.573797509 ], [ 135.728527912, 34.573763192 ], [ 135.72807095499999, 34.57373375 ], [ 135.728017265, 34.57368815 ], [ 135.72794894899999, 34.573687743 ], [ 135.72786480100001, 34.573722868 ], [ 135.72751240299999, 34.573596064 ], [ 135.727246901, 34.573518723 ], [ 135.727231803, 34.573932749 ], [ 135.727218429, 34.574520174 ], [ 135.727196214, 34.576411347 ], [ 135.727201474999987, 34.577255587 ], [ 135.72699028400001, 34.577381133 ], [ 135.726767188, 34.577468989 ], [ 135.726756405, 34.577514156 ], [ 135.726768585, 34.577567295 ], [ 135.72682933199999, 34.577557009 ], [ 135.72692451399999, 34.577525954 ], [ 135.727126427, 34.577435445 ], [ 135.72736755599999, 34.57726259 ], [ 135.727500728, 34.577173822 ], [ 135.727555757, 34.57716068 ], [ 135.727872601, 34.577656932 ], [ 135.728555359000012, 34.577653715 ], [ 135.728836016, 34.577654339 ], [ 135.729086658999989, 34.577725959 ], [ 135.729238909, 34.577759459 ], [ 135.729305317000012, 34.577784747 ], [ 135.729302065000013, 34.578419537 ], [ 135.729906889, 34.578429405 ], [ 135.72999525899999, 34.578379382 ], [ 135.730130581, 34.578334201 ], [ 135.730280743, 34.578286603 ], [ 135.730979638, 34.578272593 ], [ 135.731026765, 34.57819024 ], [ 135.731242454000011, 34.578122518 ], [ 135.731451041000014, 34.578092657 ], [ 135.731542781, 34.578067269 ], [ 135.731831683, 34.577994006 ], [ 135.73204967699999, 34.577888364 ], [ 135.732144995, 34.577846413 ], [ 135.732279041, 34.577809277 ], [ 135.732451786000013, 34.577814881 ], [ 135.732559745, 34.577842173 ], [ 135.732614223000013, 34.577854225 ], [ 135.732815749999986, 34.577898528 ], [ 135.732905528, 34.577915035 ], [ 135.73298997, 34.577952486 ], [ 135.732959332, 34.578219616 ], [ 135.73308530599999, 34.578231261 ], [ 135.732934424, 34.578843968 ], [ 135.732681404, 34.578796986 ], [ 135.73150127, 34.579216036 ], [ 135.731444065, 34.579905695 ], [ 135.73267156, 34.58008273 ] ] ] } },
{ "type": "Feature", "properties": { "A29_001": "29427", "A29_002": "奈良県", "A29_003": "河合町", "A29_004": 3, "A29_005": "第一種中高層住居専用地域", "A29_006": 60, "A29_007": 200, "A29_008": "条件付き公開" }, "geometry": { "type": "Polygon", "coordinates": [ [ [ 135.723969829999987, 34.579268167 ], [ 135.723936239000011, 34.579299313 ], [ 135.723877883, 34.579329713 ], [ 135.723384055, 34.579385279 ], [ 135.723300905, 34.579387562 ], [ 135.72310633399999, 34.579314194 ], [ 135.722849072, 34.579326121 ], [ 135.722344399, 34.579327903 ], [ 135.722151156, 34.57937069 ], [ 135.722030017, 34.579375066 ], [ 135.721920888, 34.579366469 ], [ 135.721745089, 34.579281283 ], [ 135.721691158999988, 34.579393038 ], [ 135.721657609, 34.579539363 ], [ 135.72171293299999, 34.57963303 ], [ 135.721793321, 34.579741983 ], [ 135.72187531899999, 34.579823627 ], [ 135.721895369, 34.579910596 ], [ 135.721899638999986, 34.579999206 ], [ 135.721782052, 34.580220654 ], [ 135.72171633100001, 34.58042589 ], [ 135.722558892, 34.581127266 ], [ 135.722735058000012, 34.580946717 ], [ 135.723017059, 34.58071042 ], [ 135.723245023, 34.580548027 ], [ 135.724160485999988, 34.580159727 ], [ 135.72530074299999, 34.579689494 ], [ 135.725551956, 34.579588676 ], [ 135.725556686, 34.579535896 ], [ 135.72514044, 34.57887917 ], [ 135.72500455, 34.57861493 ], [ 135.724946678, 34.578488254 ], [ 135.724545623000012, 34.578576533 ], [ 135.724272436, 34.57864364 ], [ 135.72409675899999, 34.578692374 ], [ 135.724078358000014, 34.579012586 ], [ 135.72401609100001, 34.579135621 ], [ 135.723969829999987, 34.579268167 ] ] ] } },
{ "type": "Feature", "properties": { "A29_001": "29427", "A29_002": "奈良県", "A29_003": "河合町", "A29_004": 1, "A29_005": "第一種低層住居専用地域", "A29_006": 50, "A29_007": 80, "A29_008": "条件付き公開" }, "geometry": { "type": "Polygon", "coordinates": [ [ [ 135.726411248, 34.581215577 ], [ 135.72585098799999, 34.580275342 ], [ 135.725665146000011, 34.580353567 ], [ 135.725343613, 34.579827224 ], [ 135.725348373, 34.579763134 ], [ 135.72530074299999, 34.579689494 ], [ 135.724160485999988, 34.580159727 ], [ 135.723245023, 34.580548027 ], [ 135.723017059, 34.58071042 ], [ 135.723211093, 34.580858766 ], [ 135.724154209, 34.58159717 ], [ 135.725020873, 34.582201502 ], [ 135.72541701599999, 34.58180456 ], [ 135.725669449, 34.581593104 ], [ 135.726018928, 34.581375773 ], [ 135.726411248, 34.581215577 ] ] ] } },
{ "type": "Feature", "properties": { "A29_001": "29427", "A29_002": "奈良県", "A29_003": "河合町", "A29_004": 8, "A29_005": "近隣商業地域", "A29_006": 80, "A29_007": 200, "A29_008": "条件付き公開" }, "geometry": { "type": "Polygon", "coordinates": [ [ [ 135.72701963, 34.581895353 ], [ 135.726559033, 34.581170983 ], [ 135.726411248, 34.581215577 ], [ 135.726018928, 34.581375773 ], [ 135.725669449, 34.581593104 ], [ 135.72541701599999, 34.58180456 ], [ 135.726161332, 34.582316965 ], [ 135.726346256, 34.582170517 ], [ 135.72653793500001, 34.582060088 ], [ 135.726755903, 34.581967721 ], [ 135.72701963, 34.581895353 ] ] ] } },
{ "type": "Feature", "properties": { "A29_001": "29427", "A29_002": "奈良県", "A29_003": "河合町", "A29_004": 1, "A29_005": "第一種低層住居専用地域", "A29_006": 50, "A29_007": 80, "A29_008": "条件付き公開" }, "geometry": { "type": "Polygon", "coordinates": [ [ [ 135.721718751, 34.584003662 ], [ 135.72335257899999, 34.583499407 ], [ 135.723716962999987, 34.58332925 ], [ 135.72381177299999, 34.583272628 ], [ 135.724051995, 34.58308988 ], [ 135.724295579, 34.582874399 ], [ 135.724558796, 34.582610639 ], [ 135.723582451, 34.581923225 ], [ 135.722558892, 34.581127266 ], [ 135.72171633100001, 34.58042589 ], [ 135.721782052, 34.580220654 ], [ 135.721899638999986, 34.579999206 ], [ 135.721895369, 34.579910596 ], [ 135.72187531899999, 34.579823627 ], [ 135.721793321, 34.579741983 ], [ 135.72171293299999, 34.57963303 ], [ 135.721657609, 34.579539363 ], [ 135.721691158999988, 34.579393038 ], [ 135.721745089, 34.579281283 ], [ 135.721920888, 34.579366469 ], [ 135.722030017, 34.579375066 ], [ 135.722151156, 34.57937069 ], [ 135.722344399, 34.579327903 ], [ 135.722849072, 34.579326121 ], [ 135.72310633399999, 34.579314194 ], [ 135.723300905, 34.579387562 ], [ 135.723384055, 34.579385279 ], [ 135.723877883, 34.579329713 ], [ 135.723936239000011, 34.579299313 ], [ 135.723969829999987, 34.579268167 ], [ 135.72401609100001, 34.579135621 ], [ 135.724078358000014, 34.579012586 ], [ 135.72409675899999, 34.578692374 ], [ 135.724272436, 34.57864364 ], [ 135.724545623000012, 34.578576533 ], [ 135.72448489199999, 34.578457468 ], [ 135.72442768799999, 34.577991964 ], [ 135.724445718999988, 34.577561363 ], [ 135.724107785, 34.5775606 ], [ 135.723740088999989, 34.577553135 ], [ 135.723435165000012, 34.577552387 ], [ 135.722974193, 34.577556746 ], [ 135.722869193, 34.577554746 ], [ 135.722746193, 34.577552746 ], [ 135.722686192999987, 34.577550745 ], [ 135.72255242899999, 34.577554666 ], [ 135.72240890399999, 34.57757096 ], [ 135.722271428999989, 34.577614666 ], [ 135.722155429999987, 34.577680666 ], [ 135.722031429999987, 34.577750666 ], [ 135.72188143, 34.577835666 ], [ 135.72182343, 34.577875666 ], [ 135.72171143, 34.577952665 ], [ 135.72165143, 34.577994665 ], [ 135.721327671000012, 34.578208063 ], [ 135.72104986, 34.578383665 ], [ 135.720737598, 34.578583822 ], [ 135.720329071, 34.578863969 ], [ 135.720007406, 34.579065377 ], [ 135.71981621099999, 34.579197473 ], [ 135.719604010000012, 34.57933301 ], [ 135.719164608999989, 34.579645209 ], [ 135.719085009999986, 34.57972101 ], [ 135.719014977, 34.579855211 ], [ 135.719005622, 34.57991204 ], [ 135.719006932000013, 34.580086873 ], [ 135.71899581400001, 34.580783722 ], [ 135.718992659, 34.581009766 ], [ 135.718991415, 34.581410013 ], [ 135.718935667000011, 34.581430028 ], [ 135.718764553, 34.581421034 ], [ 135.718554111, 34.581409972 ], [ 135.717447937, 34.581415097 ], [ 135.717398272, 34.58146508 ], [ 135.717388949, 34.582161309 ], [ 135.717354574000012, 34.582160459 ], [ 135.717312292, 34.582159402 ], [ 135.71730532, 34.5825686 ], [ 135.71730788, 34.58349332 ], [ 135.71732111, 34.58362721 ], [ 135.71742526, 34.58383293 ], [ 135.717639345, 34.584285136 ], [ 135.718941123, 34.58389532 ], [ 135.71905228599999, 34.583871708 ], [ 135.719107967000014, 34.583888748 ], [ 135.71912660000001, 34.58391699 ], [ 135.719472739999986, 34.58469638 ], [ 135.721718751, 34.584003662 ] ] ] } },
{ "type": "Feature", "properties": { "A29_001": "29427", "A29_002": "奈良県", "A29_003": "河合町", "A29_004": 1, "A29_005": "第一種低層住居専用地域", "A29_006": 50, "A29_007": 80, "A29_008": "条件付き公開" }, "geometry": { "type": "Polygon", "coordinates": [ [ [ 135.73092121, 34.5837013 ], [ 135.73098973, 34.58365622 ], [ 135.73160515, 34.58366888 ], [ 135.73172359, 34.5836993 ], [ 135.731638260000011, 34.58329567 ], [ 135.731570620000014, 34.58306552 ], [ 135.73155315, 34.58282795 ], [ 135.73158607, 34.58251129 ], [ 135.73161022, 34.58240907 ], [ 135.731813925000012, 34.581947651 ], [ 135.731745565000011, 34.581939951 ], [ 135.731722725, 34.581954991 ], [ 135.73162243499999, 34.581954771 ], [ 135.731553985, 34.581973471 ], [ 135.731517435, 34.581999781 ], [ 135.731303305000012, 34.581957831 ], [ 135.731234844999989, 34.581980311 ], [ 135.73093136, 34.5819669 ], [ 135.73051713000001, 34.58177369 ], [ 135.73046675, 34.58184523 ], [ 135.73028254, 34.58241793 ], [ 135.73047388, 34.58245983 ], [ 135.73058318, 34.58249778 ], [ 135.73084277000001, 34.58257753 ], [ 135.73083688, 34.58299227 ], [ 135.73031265, 34.5829798 ], [ 135.73011223, 34.58292657 ], [ 135.729880009999988, 34.58283934 ], [ 135.72948865, 34.58261978 ], [ 135.72940602, 34.58279681 ], [ 135.72878707000001, 34.58247495 ], [ 135.72870269, 34.58178476 ], [ 135.727488606, 34.581765645 ], [ 135.72746450599999, 34.581778857 ], [ 135.727292654, 34.581782263 ], [ 135.72708970799999, 34.581894373 ], [ 135.72701963, 34.581895353 ], [ 135.726755903, 34.581967721 ], [ 135.72653793500001, 34.582060088 ], [ 135.726346256, 34.582170517 ], [ 135.726161332, 34.582316965 ], [ 135.72574555, 34.58270946 ], [ 135.7266462, 34.5833223 ], [ 135.72717855, 34.58364021 ], [ 135.72808421, 34.58411731 ], [ 135.729072859000013, 34.584662449 ], [ 135.72922655, 34.58471936 ], [ 135.729419979, 34.584790833 ], [ 135.729683666, 34.584855821 ], [ 135.729951785, 34.58488802 ], [ 135.730113251, 34.584902092 ], [ 135.73092223099999, 34.584907457 ], [ 135.73092121, 34.5837013 ] ] ] } },
{ "type": "Feature", "properties": { "A29_001": "29427", "A29_002": "奈良県", "A29_003": "河合町", "A29_004": 5, "A29_005": "第一種住居地域", "A29_006": 60, "A29_007": 200, "A29_008": "条件付き公開" }, "geometry": { "type": "Polygon", "coordinates": [ [ [ 135.71730532, 34.5825686 ], [ 135.717312292, 34.582159402 ], [ 135.717211389, 34.582185699 ], [ 135.716760631, 34.582188435 ], [ 135.71630178699999, 34.582181693 ], [ 135.716216644000014, 34.582155523 ], [ 135.716212173, 34.582257293 ], [ 135.7162047, 34.58264513 ], [ 135.716189750000012, 34.58346042 ], [ 135.71624928, 34.58384977 ], [ 135.716446530000013, 34.58429983 ], [ 135.716539110000014, 34.58451478 ], [ 135.716660350000012, 34.58465263 ], [ 135.71702683, 34.58544866 ], [ 135.717559891, 34.585281213 ], [ 135.71752874399999, 34.585220802 ], [ 135.717517570000012, 34.585216116 ], [ 135.71719835, 34.58453655 ], [ 135.717193353, 34.584485683 ], [ 135.717223851, 34.584417832 ], [ 135.717639345, 34.584285136 ], [ 135.71742526, 34.58383293 ], [ 135.71732111, 34.58362721 ], [ 135.71730788, 34.58349332 ], [ 135.71730532, 34.5825686 ] ] ] } },
{ "type": "Feature", "properties": { "A29_001": "29427", "A29_002": "奈良県", "A29_003": "河合町", "A29_004": 8, "A29_005": "近隣商業地域", "A29_006": 80, "A29_007": 200, "A29_008": "条件付き公開" }, "geometry": { "type": "Polygon", "coordinates": [ [ [ 135.732066459, 34.584541338 ], [ 135.73197881499999, 34.584618342 ], [ 135.731790346, 34.584799848 ], [ 135.731553802, 34.584967984 ], [ 135.73140226000001, 34.585066191 ], [ 135.730899461, 34.585377761 ], [ 135.730529889, 34.585585396 ], [ 135.730239568, 34.585730671 ], [ 135.730557772, 34.585820439 ], [ 135.730798066, 34.58591193 ], [ 135.731518835, 34.586276672 ], [ 135.7318453, 34.58559453 ], [ 135.73202193, 34.58522919 ], [ 135.732064208, 34.585140604 ], [ 135.73207553, 34.58496425 ], [ 135.732090316000011, 34.584682766 ], [ 135.732066459, 34.584541338 ] ] ] } },
{ "type": "Feature", "properties": { "A29_001": "29427", "A29_002": "奈良県", "A29_003": "河合町", "A29_004": 1, "A29_005": "第一種低層住居専用地域", "A29_006": 50, "A29_007": 80, "A29_008": "条件付き公開" }, "geometry": { "type": "Polygon", "coordinates": [ [ [ 135.716080793, 34.585742642 ], [ 135.716958634, 34.585469852 ], [ 135.71702683, 34.58544866 ], [ 135.716660350000012, 34.58465263 ], [ 135.716539110000014, 34.58451478 ], [ 135.716446530000013, 34.58429983 ], [ 135.71624928, 34.58384977 ], [ 135.716189750000012, 34.58346042 ], [ 135.7162047, 34.58264513 ], [ 135.716212173, 34.582257293 ], [ 135.716216644000014, 34.582155523 ], [ 135.716182352, 34.582144773 ], [ 135.71613694199999, 34.582145778 ], [ 135.71607443900001, 34.58216553 ], [ 135.714745525000012, 34.582167169 ], [ 135.714701636, 34.582123767 ], [ 135.714608188, 34.582127053 ], [ 135.714543899, 34.582166698 ], [ 135.71313603499999, 34.58215605 ], [ 135.7130785, 34.582109874 ], [ 135.713036428, 34.582229337 ], [ 135.712949361, 34.582595639 ], [ 135.712929374, 34.582771748 ], [ 135.712923404, 34.582912062 ], [ 135.712934222, 34.582950472 ], [ 135.713136168, 34.582954397 ], [ 135.713189144000012, 34.582955427 ], [ 135.71334439099999, 34.582955076 ], [ 135.713469077000013, 34.58337569 ], [ 135.71273965099999, 34.583493591 ], [ 135.71290616499999, 34.583710961 ], [ 135.712790676, 34.583726724 ], [ 135.712339058999987, 34.584048832 ], [ 135.712365734, 34.584286719 ], [ 135.712496173, 34.584334401 ], [ 135.712509624, 34.584420656 ], [ 135.712456575, 34.58446582 ], [ 135.712567428999989, 34.584601292 ], [ 135.712624498999986, 34.584663014 ], [ 135.71264773499999, 34.584735553 ], [ 135.712682011, 34.584762637 ], [ 135.712762155, 34.584777512 ], [ 135.71285825699999, 34.584816113 ], [ 135.712962239, 34.584895 ], [ 135.713071426999988, 34.584959687 ], [ 135.71307479, 34.584981014 ], [ 135.713019796, 34.585029167 ], [ 135.712999372000013, 34.585071607 ], [ 135.712989228999987, 34.585088164 ], [ 135.712951479, 34.585139497 ], [ 135.71292223099999, 34.585187947 ], [ 135.712891267, 34.585271173 ], [ 135.71285175, 34.585309417 ], [ 135.712844288000014, 34.585323272 ], [ 135.712840551, 34.585339829 ], [ 135.712839889, 34.585374194 ], [ 135.71284669100001, 34.585495684 ], [ 135.712879256, 34.585591273 ], [ 135.712896072, 34.585606505 ], [ 135.712919027999988, 34.585621075 ], [ 135.712961527, 34.585637971 ], [ 135.712998639, 34.585666278 ], [ 135.71310922, 34.585588564 ], [ 135.71325229199999, 34.585627748 ], [ 135.713514339999989, 34.58595299 ], [ 135.71355277, 34.58598495 ], [ 135.71366627, 34.58601206 ], [ 135.713865876, 34.586104835 ], [ 135.713864, 34.586247167 ], [ 135.713661416, 34.586259746 ], [ 135.71365698, 34.58635595 ], [ 135.71369526, 34.58643069 ], [ 135.71362013000001, 34.58645316 ], [ 135.71364160600001, 34.586495063 ], [ 135.71364388399999, 34.586499869 ], [ 135.715250110999989, 34.586000769 ], [ 135.715702510999989, 34.585862032 ], [ 135.716080793, 34.585742642 ] ] ] } },
{ "type": "Feature", "properties": { "A29_001": "29427", "A29_002": "奈良県", "A29_003": "河合町", "A29_004": 1, "A29_005": "第一種低層住居専用地域", "A29_006": 50, "A29_007": 80, "A29_008": "条件付き公開" }, "geometry": { "type": "Polygon", "coordinates": [ [ [ 135.72307398, 34.58513916 ], [ 135.72330876, 34.58513969 ], [ 135.72359798, 34.58522519 ], [ 135.72395753, 34.58540887 ], [ 135.72444217, 34.58568143 ], [ 135.724612900000011, 34.58574969 ], [ 135.724788280000013, 34.58579344 ], [ 135.72505264, 34.58581477 ], [ 135.72524414, 34.58580578 ], [ 135.72533150000001, 34.58627541 ], [ 135.72556638, 34.58624766 ], [ 135.725627120000013, 34.58649476 ], [ 135.72581857, 34.58650273 ], [ 135.725811665, 34.58642274 ], [ 135.726155573, 34.586447547 ], [ 135.72641601, 34.586448847 ], [ 135.72668978499999, 34.58641682 ], [ 135.726900736, 34.586371812 ], [ 135.727544423000012, 34.586251023 ], [ 135.727588755999989, 34.586006665 ], [ 135.727605079999989, 34.585941088 ], [ 135.727777349, 34.585947414 ], [ 135.728358570000012, 34.586556987 ], [ 135.72942777, 34.58604582 ], [ 135.72955467, 34.58581635 ], [ 135.728726130000013, 34.58544501 ], [ 135.728895630000011, 34.58519276 ], [ 135.72810823, 34.58479134 ], [ 135.72724821, 34.58429549 ], [ 135.725369089999987, 34.5831639 ], [ 135.724847540000013, 34.58372076 ], [ 135.7244911, 34.58397635 ], [ 135.72428102, 34.58408898 ], [ 135.72383814, 34.58429159 ], [ 135.723450219999989, 34.58441136 ], [ 135.72165668, 34.58497663 ], [ 135.71984833, 34.58553052 ], [ 135.71992973, 34.58572678 ], [ 135.71895325, 34.586040806 ], [ 135.718344516, 34.586212869 ], [ 135.71857907, 34.58675679 ], [ 135.718819, 34.58726258 ], [ 135.71907115, 34.58718304 ], [ 135.719246989999988, 34.58709106 ], [ 135.71957622, 34.5868015 ], [ 135.71999494, 34.58633492 ], [ 135.72009601, 34.58610327 ], [ 135.720155479999988, 34.58604496 ], [ 135.72028799, 34.58595666 ], [ 135.72095656, 34.58575269 ], [ 135.72241238, 34.58530545 ], [ 135.72286191, 34.58516507 ], [ 135.72307398, 34.58513916 ] ] ] } },
{ "type": "Feature", "properties": { "A29_001": "29427", "A29_002": "奈良県", "A29_003": "河合町", "A29_004": 1, "A29_005": "第一種低層住居専用地域", "A29_006": 50, "A29_007": 80, "A29_008": "条件付き公開" }, "geometry": { "type": "Polygon", "coordinates": [ [ [ 135.717574672000012, 34.588539405 ], [ 135.717699501999988, 34.588532625 ], [ 135.717791212, 34.588545555 ], [ 135.718205512, 34.588736228 ], [ 135.71848311, 34.58885012 ], [ 135.718573286, 34.588843792 ], [ 135.718378209, 34.588393642 ], [ 135.718241436, 34.58810213 ], [ 135.717426683000014, 34.586281148 ], [ 135.717407943000012, 34.586289351 ], [ 135.71734376, 34.586306172 ], [ 135.71566159, 34.58682873 ], [ 135.714421296000012, 34.587212953 ], [ 135.714730300000014, 34.58785778 ], [ 135.71501543, 34.58847115 ], [ 135.71536043099999, 34.589218902 ], [ 135.71559216899999, 34.589143064 ], [ 135.71694759499999, 34.588743285 ], [ 135.717574672000012, 34.588539405 ] ] ] } },
{ "type": "Feature", "properties": { "A29_001": "29427", "A29_002": "奈良県", "A29_003": "河合町", "A29_004": 5, "A29_005": "第一種住居地域", "A29_006": 60, "A29_007": 200, "A29_008": "条件付き公開" }, "geometry": { "type": "Polygon", "coordinates": [ [ [ 135.72429, 34.58721002 ], [ 135.724346849999989, 34.5871984 ], [ 135.72448057, 34.58724736 ], [ 135.72446462, 34.58716344 ], [ 135.724416240000011, 34.58706939 ], [ 135.724883260000013, 34.58692951 ], [ 135.72495023, 34.5869196 ], [ 135.725007010000013, 34.58692644 ], [ 135.72499509, 34.58684757 ], [ 135.72503993, 34.58678224 ], [ 135.72535463, 34.58669571 ], [ 135.725391230000014, 34.58667231 ], [ 135.725435870000013, 34.58666738 ], [ 135.72549866, 34.58669603 ], [ 135.72596556, 34.58658804 ], [ 135.72607505, 34.58660674 ], [ 135.72619677, 34.5866003 ], [ 135.72640145599999, 34.586650681 ], [ 135.72632902, 34.58648149 ], [ 135.726698199999987, 34.58648064 ], [ 135.72678935, 34.5865211 ], [ 135.727257689999988, 34.58659597 ], [ 135.727799159999989, 34.58663744 ], [ 135.727959489999989, 34.586675483 ], [ 135.728032673, 34.586718284 ], [ 135.728238075, 34.586618306 ], [ 135.728358570000012, 34.586556987 ], [ 135.727777349, 34.585947414 ], [ 135.727605079999989, 34.585941088 ], [ 135.727588755999989, 34.586006665 ], [ 135.727544423000012, 34.586251023 ], [ 135.726900736, 34.586371812 ], [ 135.72668978499999, 34.58641682 ], [ 135.72641601, 34.586448847 ], [ 135.726155573, 34.586447547 ], [ 135.725811665, 34.58642274 ], [ 135.72581857, 34.58650273 ], [ 135.725627120000013, 34.58649476 ], [ 135.72556638, 34.58624766 ], [ 135.72533150000001, 34.58627541 ], [ 135.72524414, 34.58580578 ], [ 135.72505264, 34.58581477 ], [ 135.724788280000013, 34.58579344 ], [ 135.724612900000011, 34.58574969 ], [ 135.72444217, 34.58568143 ], [ 135.72395753, 34.58540887 ], [ 135.72359798, 34.58522519 ], [ 135.72330876, 34.58513969 ], [ 135.72307398, 34.58513916 ], [ 135.72286191, 34.58516507 ], [ 135.72241238, 34.58530545 ], [ 135.72095656, 34.58575269 ], [ 135.72028799, 34.58595666 ], [ 135.720155479999988, 34.58604496 ], [ 135.72009601, 34.58610327 ], [ 135.71999494, 34.58633492 ], [ 135.71957622, 34.5868015 ], [ 135.719246989999988, 34.58709106 ], [ 135.71907115, 34.58718304 ], [ 135.718819, 34.58726258 ], [ 135.718556549999988, 34.58735247 ], [ 135.71852207, 34.58743534 ], [ 135.718856960000011, 34.58817324 ], [ 135.71898491799999, 34.588449964 ], [ 135.719069850000011, 34.58858659 ], [ 135.719376430000011, 34.5889323 ], [ 135.71945584, 34.58904371 ], [ 135.719595794000014, 34.589361415 ], [ 135.71973001, 34.58934001 ], [ 135.720000019999986, 34.58927001 ], [ 135.72076001, 34.58907001 ], [ 135.72124001, 34.58896001 ], [ 135.72379165000001, 34.58831342 ], [ 135.723680876, 34.588036225 ], [ 135.72362195299999, 34.587800662 ], [ 135.72356817, 34.58772845 ], [ 135.72345103, 34.58757384 ], [ 135.72366218, 34.58751729 ], [ 135.724088880000011, 34.58730352 ], [ 135.72414993000001, 34.58724661 ], [ 135.72429, 34.58721002 ] ] ] } },
{ "type": "Feature", "properties": { "A29_001": "29427", "A29_002": "奈良県", "A29_003": "河合町", "A29_004": 9, "A29_005": "商業地域", "A29_006": 80, "A29_007": 400, "A29_008": "条件付き公開" }, "geometry": { "type": "Polygon", "coordinates": [ [ [ 135.717407943000012, 34.586289351 ], [ 135.717426683000014, 34.586281148 ], [ 135.718241436, 34.58810213 ], [ 135.718378209, 34.588393642 ], [ 135.718573286, 34.588843792 ], [ 135.71848311, 34.58885012 ], [ 135.71845005899999, 34.588871407 ], [ 135.71843512800001, 34.588922289 ], [ 135.718738341, 34.58955945 ], [ 135.71934001, 34.58943001 ], [ 135.719595794000014, 34.589361415 ], [ 135.71945584, 34.58904371 ], [ 135.719376430000011, 34.5889323 ], [ 135.719069850000011, 34.58858659 ], [ 135.71898491799999, 34.588449964 ], [ 135.718856960000011, 34.58817324 ], [ 135.71852207, 34.58743534 ], [ 135.718556549999988, 34.58735247 ], [ 135.718819, 34.58726258 ], [ 135.71857907, 34.58675679 ], [ 135.718344516, 34.586212869 ], [ 135.71895325, 34.586040806 ], [ 135.71992973, 34.58572678 ], [ 135.71984833, 34.58553052 ], [ 135.719673465999989, 34.585142171 ], [ 135.719472739999986, 34.58469638 ], [ 135.71912660000001, 34.58391699 ], [ 135.719107967000014, 34.583888748 ], [ 135.71905228599999, 34.583871708 ], [ 135.718941123, 34.58389532 ], [ 135.717639345, 34.584285136 ], [ 135.717223851, 34.584417832 ], [ 135.717193353, 34.584485683 ], [ 135.71719835, 34.58453655 ], [ 135.717517570000012, 34.585216116 ], [ 135.71752874399999, 34.585220802 ], [ 135.717559891, 34.585281213 ], [ 135.71702683, 34.58544866 ], [ 135.716958634, 34.585469852 ], [ 135.71734376, 34.586306172 ], [ 135.717407943000012, 34.586289351 ] ] ] } },
{ "type": "Feature", "properties": { "A29_001": "29427", "A29_002": "奈良県", "A29_003": "河合町", "A29_004": 3, "A29_005": "第一種中高層住居専用地域", "A29_006": 60, "A29_007": 200, "A29_008": "条件付き公開" }, "geometry": { "type": "Polygon", "coordinates": [ [ [ 135.717520009999987, 34.58986001 ], [ 135.718738341, 34.58955945 ], [ 135.71843512800001, 34.588922289 ], [ 135.71845005899999, 34.588871407 ], [ 135.71848311, 34.58885012 ], [ 135.718205512, 34.588736228 ], [ 135.717791212, 34.588545555 ], [ 135.717699501999988, 34.588532625 ], [ 135.717574672000012, 34.588539405 ], [ 135.71694759499999, 34.588743285 ], [ 135.71559216899999, 34.589143064 ], [ 135.715999051000011, 34.590075362 ], [ 135.716829780000012, 34.59001973 ], [ 135.717520009999987, 34.58986001 ] ] ] } },
{ "type": "Feature", "properties": { "A29_001": "29427", "A29_002": "奈良県", "A29_003": "河合町", "A29_004": 10, "A29_005": "準工業地域", "A29_006": 60, "A29_007": 200, "A29_008": "条件付き公開" }, "geometry": { "type": "Polygon", "coordinates": [ [ [ 135.742324278000012, 34.588989194 ], [ 135.7423485, 34.588915194 ], [ 135.742365444, 34.588749222 ], [ 135.742384832999988, 34.58862925 ], [ 135.74239196799999, 34.588580681 ], [ 135.742416693, 34.588532035 ], [ 135.742497998, 34.588374633 ], [ 135.742539308, 34.588284223 ], [ 135.74251442799999, 34.588221963 ], [ 135.74232503499999, 34.587991476 ], [ 135.74214256499999, 34.587645744 ], [ 135.741698703, 34.587610008 ], [ 135.74165636, 34.58773064 ], [ 135.74144376699999, 34.588435887 ], [ 135.741125218, 34.588521076 ], [ 135.740758097, 34.588610668 ], [ 135.740554116, 34.588625395 ], [ 135.740274685, 34.5885869 ], [ 135.740008125, 34.58854109 ], [ 135.73978922500001, 34.58855947 ], [ 135.739628468, 34.588600683 ], [ 135.739415115000014, 34.588681713 ], [ 135.739279864, 34.588700375 ], [ 135.73910801, 34.588700007 ], [ 135.738878972, 34.588667302 ], [ 135.73876822599999, 34.588909627 ], [ 135.73871098, 34.588904559 ], [ 135.738626528, 34.589242575 ], [ 135.738610775000012, 34.589431838 ], [ 135.73917393100001, 34.589602647 ], [ 135.739410915, 34.589660003 ], [ 135.739788413000014, 34.589848414 ], [ 135.739974808999989, 34.589962512 ], [ 135.740204732, 34.590080493 ], [ 135.740480633, 34.590150247 ], [ 135.740693599, 34.59024686 ], [ 135.740996329000012, 34.59039832 ], [ 135.74116938899999, 34.59045712 ], [ 135.741271949, 34.59046677 ], [ 135.74160888899999, 34.59061076 ], [ 135.74167970900001, 34.5905619 ], [ 135.741757248999988, 34.59055263 ], [ 135.741789469, 34.59045278 ], [ 135.741819179, 34.59042834 ], [ 135.741931669, 34.59017595 ], [ 135.741973038999987, 34.59006481 ], [ 135.741998485000011, 34.590026421 ], [ 135.742014192999989, 34.589991395 ], [ 135.742100216000011, 34.589566562 ], [ 135.742174111, 34.589213139 ], [ 135.742212861000013, 34.589123167 ], [ 135.742256329000014, 34.589058564 ], [ 135.742261305999989, 34.589051167 ], [ 135.742324278000012, 34.588989194 ] ] ] } },
{ "type": "Feature", "properties": { "A29_001": "29427", "A29_002": "奈良県", "A29_003": "河合町", "A29_004": 5, "A29_005": "第一種住居地域", "A29_006": 60, "A29_007": 200, "A29_008": "条件付き公開" }, "geometry": { "type": "Polygon", "coordinates": [ [ [ 135.716958634, 34.585469852 ], [ 135.716080793, 34.585742642 ], [ 135.715702510999989, 34.585862032 ], [ 135.715250110999989, 34.586000769 ], [ 135.71364388399999, 34.586499869 ], [ 135.71375829199999, 34.586741306 ], [ 135.713891262, 34.586720298 ], [ 135.71393172, 34.586782455 ], [ 135.713886379, 34.586802115 ], [ 135.71388891, 34.58689501 ], [ 135.714020080000012, 34.58709663 ], [ 135.713538269999987, 34.58740251 ], [ 135.712965090000012, 34.58791528 ], [ 135.7123153, 34.58880883 ], [ 135.71099601, 34.59062301 ], [ 135.710822766, 34.590861629 ], [ 135.711157379000014, 34.590681076 ], [ 135.711294587999987, 34.590514005 ], [ 135.711525962, 34.590432249 ], [ 135.711600354000012, 34.590382205 ], [ 135.71169841, 34.590318269 ], [ 135.711755974999988, 34.590256328 ], [ 135.711825489, 34.590153265 ], [ 135.711962449999987, 34.590057335 ], [ 135.71205048499999, 34.58996408 ], [ 135.711994045000012, 34.589700298 ], [ 135.711981099000013, 34.589541241 ], [ 135.712015412, 34.589373926 ], [ 135.71204604799999, 34.589294485 ], [ 135.712108906, 34.589164901 ], [ 135.71214787, 34.589116169 ], [ 135.71221004899999, 34.589183274 ], [ 135.712263549, 34.589321502 ], [ 135.712313693999988, 34.589450415 ], [ 135.712353560999986, 34.58954371 ], [ 135.71241075899999, 34.589677566 ], [ 135.71248795599999, 34.589792136 ], [ 135.712528338, 34.589821525 ], [ 135.71261418099999, 34.589874736 ], [ 135.71274402899999, 34.589884807 ], [ 135.71281431700001, 34.589868854 ], [ 135.712868504999989, 34.58985733 ], [ 135.71291452299999, 34.589847544 ], [ 135.712981533, 34.589793411 ], [ 135.713027868000012, 34.589751557 ], [ 135.713056744, 34.589693037 ], [ 135.713068916, 34.589683695 ], [ 135.713085533999987, 34.589659625 ], [ 135.713127665, 34.589670884 ], [ 135.713179961, 34.589681236 ], [ 135.713247306, 34.589706039 ], [ 135.71329606899999, 34.589750793 ], [ 135.713294625, 34.589763902 ], [ 135.713275176, 34.589940459 ], [ 135.713216714, 34.590263955 ], [ 135.713219599000013, 34.590406248 ], [ 135.71323965799999, 34.590459304 ], [ 135.713268247, 34.590484481 ], [ 135.71331036399999, 34.590499925 ], [ 135.713354211, 34.590502817 ], [ 135.71338627899999, 34.590497313 ], [ 135.713452174, 34.590465383 ], [ 135.71355149199999, 34.59041808 ], [ 135.71356875399999, 34.590409858 ], [ 135.71372241899999, 34.590361395 ], [ 135.713795008, 34.590344826 ], [ 135.714060100000012, 34.590267329 ], [ 135.714196797, 34.590248119 ], [ 135.714530956, 34.590197288 ], [ 135.714701378, 34.590180947 ], [ 135.714794175, 34.590174189 ], [ 135.714880638000011, 34.590206062 ], [ 135.714949316, 34.5902288 ], [ 135.715020331, 34.590235544 ], [ 135.715135706000012, 34.590218672 ], [ 135.715247608, 34.590163074 ], [ 135.715344957000013, 34.590161525 ], [ 135.715630909, 34.590149637 ], [ 135.715625225999986, 34.590084758 ], [ 135.715999051000011, 34.590075362 ], [ 135.71559216899999, 34.589143064 ], [ 135.71536043099999, 34.589218902 ], [ 135.71501543, 34.58847115 ], [ 135.714730300000014, 34.58785778 ], [ 135.714421296000012, 34.587212953 ], [ 135.71566159, 34.58682873 ], [ 135.71734376, 34.586306172 ], [ 135.716958634, 34.585469852 ] ] ] } },
{ "type": "Feature", "properties": { "A29_001": "29427", "A29_002": "奈良県", "A29_003": "河合町", "A29_004": 1, "A29_005": "第一種低層住居専用地域", "A29_006": 50, "A29_007": 80, "A29_008": "条件付き公開" }, "geometry": { "type": "Polygon", "coordinates": [ [ [ 135.736572384999988, 34.591151641 ], [ 135.736661623, 34.590339625 ], [ 135.736706024, 34.590341612 ], [ 135.73670838699999, 34.589955983 ], [ 135.73667402699999, 34.589952118 ], [ 135.73668634500001, 34.589679264 ], [ 135.736629060000013, 34.58967914 ], [ 135.73662342599999, 34.589285914 ], [ 135.736572085, 34.589217582 ], [ 135.73658333899999, 34.589146916 ], [ 135.736694214000011, 34.588985871 ], [ 135.73479046599999, 34.588149202 ], [ 135.732875760000013, 34.5872885 ], [ 135.73166322, 34.58670807 ], [ 135.731586848, 34.586769278 ], [ 135.731549344, 34.586842953 ], [ 135.731306170000011, 34.58734478 ], [ 135.73126353, 34.58736146 ], [ 135.73133786, 34.58758642 ], [ 135.73129506, 34.5876484 ], [ 135.73127452, 34.5877272 ], [ 135.731323049999986, 34.58777261 ], [ 135.731385960000011, 34.58776771 ], [ 135.731454680000013, 34.58784503 ], [ 135.731456189999989, 34.58800442 ], [ 135.731620240000012, 34.58808698 ], [ 135.73167666, 34.58820286 ], [ 135.73168557, 34.58858873 ], [ 135.731738009999987, 34.58868111 ], [ 135.7317597, 34.58887577 ], [ 135.7317208, 34.58898473 ], [ 135.73158031, 34.58914715 ], [ 135.731437590000013, 34.58937164 ], [ 135.73148203, 34.58943045 ], [ 135.73143703, 34.58954611 ], [ 135.73142872, 34.58960816 ], [ 135.73183684, 34.58948827 ], [ 135.731866270000012, 34.58980373 ], [ 135.731916860000013, 34.58983906 ], [ 135.73172761, 34.59065565 ], [ 135.732084500000013, 34.59070005 ], [ 135.73383099099999, 34.591009998 ], [ 135.73473682299999, 34.591149359 ], [ 135.735485876000013, 34.591230575 ], [ 135.736469586, 34.591381461 ], [ 135.73650336599999, 34.591206246 ], [ 135.736572384999988, 34.591151641 ] ] ] } },
{ "type": "Feature", "properties": { "A29_001": "29427", "A29_002": "奈良県", "A29_003": "河合町", "A29_004": 5, "A29_005": "第一種住居地域", "A29_006": 60, "A29_007": 200, "A29_008": "条件付き公開" }, "geometry": { "type": "Polygon", "coordinates": [ [ [ 135.745421305, 34.591738325 ], [ 135.74574127599999, 34.591688235 ], [ 135.745943348, 34.591683434 ], [ 135.74623877799999, 34.591654092 ], [ 135.746313477, 34.591644809 ], [ 135.746395987999989, 34.591617296 ], [ 135.746507818, 34.591556274 ], [ 135.74644890499999, 34.591180299 ], [ 135.746454508, 34.591120288 ], [ 135.746406775, 34.590882571 ], [ 135.74650835599999, 34.590877335 ], [ 135.746501429, 34.590517269 ], [ 135.746476488000013, 34.590430047 ], [ 135.746478509000013, 34.59014201 ], [ 135.74646291900001, 34.590070104 ], [ 135.74647210399999, 34.589854415 ], [ 135.746479488, 34.589602375 ], [ 135.746465193, 34.589600101 ], [ 135.74640693500001, 34.589612324 ], [ 135.746294619, 34.589624408 ], [ 135.745928974, 34.589677655 ], [ 135.745500474000011, 34.589678658 ], [ 135.745478705000011, 34.589678612 ], [ 135.745218661, 34.589667647 ], [ 135.744579557, 34.589600933 ], [ 135.74460134, 34.58923046 ], [ 135.744621169999988, 34.58871547 ], [ 135.74459015, 34.58824735 ], [ 135.744619269999987, 34.58801254 ], [ 135.74462639699999, 34.587771775 ], [ 135.744649040000013, 34.587563 ], [ 135.74468625, 34.58733827 ], [ 135.744740903, 34.587117066 ], [ 135.74476216299999, 34.586796686 ], [ 135.74495224, 34.58658894 ], [ 135.74501941, 34.58651358 ], [ 135.74522101, 34.58625733 ], [ 135.74541468000001, 34.58594234 ], [ 135.745616969999986, 34.58546128 ], [ 135.7457197, 34.58502867 ], [ 135.74573906, 34.58466969 ], [ 135.745693808999988, 34.58423559 ], [ 135.745647859, 34.58400734 ], [ 135.74556156, 34.58367281 ], [ 135.74550186, 34.583382605 ], [ 135.74548023, 34.583159425 ], [ 135.744470229, 34.583110345 ], [ 135.744068709, 34.583074275 ], [ 135.743764669, 34.583003175 ], [ 135.743448519, 34.582911925 ], [ 135.743290459, 34.582859575 ], [ 135.743124188, 34.582842455 ], [ 135.742673978, 34.582812985 ], [ 135.742364673999987, 34.582779011 ], [ 135.74180383800001, 34.582797725 ], [ 135.741260218, 34.582801605 ], [ 135.740568276, 34.582758333 ], [ 135.74016487899999, 34.582731558 ], [ 135.739530057, 34.582779475 ], [ 135.739518116999989, 34.582705635 ], [ 135.739554946999988, 34.582603375 ], [ 135.73946422, 34.58169378 ], [ 135.73941991, 34.58094211 ], [ 135.739423609999989, 34.58040863 ], [ 135.739401918999988, 34.580304172 ], [ 135.73940147799999, 34.580005606 ], [ 135.739376684, 34.579945416 ], [ 135.739373927, 34.579826084 ], [ 135.739359955999987, 34.579766586 ], [ 135.73936862799999, 34.579614536 ], [ 135.739382016, 34.579505549 ], [ 135.739406717, 34.579469566 ], [ 135.739446601, 34.57913101 ], [ 135.739412370999986, 34.57905208 ], [ 135.739351741, 34.57898149 ], [ 135.738687956, 34.578792231 ], [ 135.738511636, 34.578748221 ], [ 135.738294685999989, 34.578722601 ], [ 135.738069646000014, 34.578690231 ], [ 135.737958295, 34.578622891 ], [ 135.73779602499999, 34.578627581 ], [ 135.737487988, 34.578225176 ], [ 135.737365689, 34.578137742 ], [ 135.73714717499999, 34.578046311 ], [ 135.736822222, 34.57792433 ], [ 135.73666212099999, 34.577836814 ], [ 135.73624894400001, 34.577647572 ], [ 135.735849953000013, 34.577465532 ], [ 135.735734643, 34.577367972 ], [ 135.735633623000012, 34.577246972 ], [ 135.73559268, 34.577109751 ], [ 135.73554364200001, 34.576930526 ], [ 135.735463665, 34.576743623 ], [ 135.735423856000011, 34.57669433 ], [ 135.735254583, 34.576529802 ], [ 135.735032093, 34.576333032 ], [ 135.73484785299999, 34.576233652 ], [ 135.734215737999989, 34.575874911 ], [ 135.733545548, 34.575534242 ], [ 135.733567885000014, 34.575370533 ], [ 135.73337615299999, 34.575342155 ], [ 135.733310652, 34.575639587 ], [ 135.733266171999986, 34.575842002 ], [ 135.73325939, 34.576092173 ], [ 135.733259266, 34.576378921 ], [ 135.73342197, 34.577203168 ], [ 135.733439067, 34.577373884 ], [ 135.733424439, 34.577498633 ], [ 135.73338039399999, 34.577659613 ], [ 135.733243664000014, 34.578146332 ], [ 135.73267156, 34.58008273 ], [ 135.731444065, 34.579905695 ], [ 135.73150127, 34.579216036 ], [ 135.732681404, 34.578796986 ], [ 135.732934424, 34.578843968 ], [ 135.73308530599999, 34.578231261 ], [ 135.732959332, 34.578219616 ], [ 135.73298997, 34.577952486 ], [ 135.732905528, 34.577915035 ], [ 135.732815749999986, 34.577898528 ], [ 135.732614223000013, 34.577854225 ], [ 135.732559745, 34.577842173 ], [ 135.732451786000013, 34.577814881 ], [ 135.732279041, 34.577809277 ], [ 135.732144995, 34.577846413 ], [ 135.73204967699999, 34.577888364 ], [ 135.731831683, 34.577994006 ], [ 135.731542781, 34.578067269 ], [ 135.731451041000014, 34.578092657 ], [ 135.731242454000011, 34.578122518 ], [ 135.731026765, 34.57819024 ], [ 135.730979638, 34.578272593 ], [ 135.730280743, 34.578286603 ], [ 135.730130581, 34.578334201 ], [ 135.72999525899999, 34.578379382 ], [ 135.729906889, 34.578429405 ], [ 135.729302065000013, 34.578419537 ], [ 135.729305317000012, 34.577784747 ], [ 135.729238909, 34.577759459 ], [ 135.729086658999989, 34.577725959 ], [ 135.728836016, 34.577654339 ], [ 135.728555359000012, 34.577653715 ], [ 135.727872601, 34.577656932 ], [ 135.727555757, 34.57716068 ], [ 135.727500728, 34.577173822 ], [ 135.72736755599999, 34.57726259 ], [ 135.727126427, 34.577435445 ], [ 135.72692451399999, 34.577525954 ], [ 135.72682933199999, 34.577557009 ], [ 135.726768585, 34.577567295 ], [ 135.726756405, 34.577514156 ], [ 135.726767188, 34.577468989 ], [ 135.726395972, 34.577487107 ], [ 135.725560946, 34.57746344 ], [ 135.72550060399999, 34.577434945 ], [ 135.725429287, 34.577439456 ], [ 135.725371, 34.577459421 ], [ 135.725114488, 34.577465398 ], [ 135.725118325000011, 34.57759699 ], [ 135.724986524, 34.577584376 ], [ 135.724445718999988, 34.577561363 ], [ 135.72442768799999, 34.577991964 ], [ 135.72448489199999, 34.578457468 ], [ 135.724545623000012, 34.578576533 ], [ 135.724946678, 34.578488254 ], [ 135.72500455, 34.57861493 ], [ 135.72514044, 34.57887917 ], [ 135.725556686, 34.579535896 ], [ 135.725551956, 34.579588676 ], [ 135.72530074299999, 34.579689494 ], [ 135.725348373, 34.579763134 ], [ 135.725343613, 34.579827224 ], [ 135.725665146000011, 34.580353567 ], [ 135.72585098799999, 34.580275342 ], [ 135.726411248, 34.581215577 ], [ 135.726559033, 34.581170983 ], [ 135.72701963, 34.581895353 ], [ 135.72708970799999, 34.581894373 ], [ 135.727292654, 34.581782263 ], [ 135.72746450599999, 34.581778857 ], [ 135.727488606, 34.581765645 ], [ 135.72870269, 34.58178476 ], [ 135.72878707000001, 34.58247495 ], [ 135.72940602, 34.58279681 ], [ 135.72948865, 34.58261978 ], [ 135.729880009999988, 34.58283934 ], [ 135.73011223, 34.58292657 ], [ 135.73031265, 34.5829798 ], [ 135.73083688, 34.58299227 ], [ 135.73084277000001, 34.58257753 ], [ 135.73058318, 34.58249778 ], [ 135.73047388, 34.58245983 ], [ 135.73028254, 34.58241793 ], [ 135.73046675, 34.58184523 ], [ 135.73051713000001, 34.58177369 ], [ 135.73093136, 34.5819669 ], [ 135.731234844999989, 34.581980311 ], [ 135.731303305000012, 34.581957831 ], [ 135.731517435, 34.581999781 ], [ 135.731553985, 34.581973471 ], [ 135.73162243499999, 34.581954771 ], [ 135.731722725, 34.581954991 ], [ 135.731745565000011, 34.581939951 ], [ 135.731813925000012, 34.581947651 ], [ 135.73161022, 34.58240907 ], [ 135.73158607, 34.58251129 ], [ 135.73155315, 34.58282795 ], [ 135.731570620000014, 34.58306552 ], [ 135.731638260000011, 34.58329567 ], [ 135.73172359, 34.5836993 ], [ 135.73160515, 34.58366888 ], [ 135.73098973, 34.58365622 ], [ 135.73092121, 34.5837013 ], [ 135.73092223099999, 34.584907457 ], [ 135.730113251, 34.584902092 ], [ 135.729951785, 34.58488802 ], [ 135.729683666, 34.584855821 ], [ 135.729419979, 34.584790833 ], [ 135.72922655, 34.58471936 ], [ 135.729072859000013, 34.584662449 ], [ 135.72808421, 34.58411731 ], [ 135.72717855, 34.58364021 ], [ 135.7266462, 34.5833223 ], [ 135.72574555, 34.58270946 ], [ 135.726161332, 34.582316965 ], [ 135.72541701599999, 34.58180456 ], [ 135.725020873, 34.582201502 ], [ 135.724154209, 34.58159717 ], [ 135.723211093, 34.580858766 ], [ 135.723017059, 34.58071042 ], [ 135.722735058000012, 34.580946717 ], [ 135.722558892, 34.581127266 ], [ 135.723582451, 34.581923225 ], [ 135.724558796, 34.582610639 ], [ 135.724295579, 34.582874399 ], [ 135.724051995, 34.58308988 ], [ 135.72381177299999, 34.583272628 ], [ 135.723716962999987, 34.58332925 ], [ 135.72335257899999, 34.583499407 ], [ 135.721718751, 34.584003662 ], [ 135.719472739999986, 34.58469638 ], [ 135.719673465999989, 34.585142171 ], [ 135.71984833, 34.58553052 ], [ 135.72165668, 34.58497663 ], [ 135.723450219999989, 34.58441136 ], [ 135.72383814, 34.58429159 ], [ 135.72428102, 34.58408898 ], [ 135.7244911, 34.58397635 ], [ 135.724847540000013, 34.58372076 ], [ 135.725369089999987, 34.5831639 ], [ 135.72724821, 34.58429549 ], [ 135.72810823, 34.58479134 ], [ 135.728895630000011, 34.58519276 ], [ 135.728726130000013, 34.58544501 ], [ 135.72955467, 34.58581635 ], [ 135.72942777, 34.58604582 ], [ 135.72958682699999, 34.585996422 ], [ 135.730239568, 34.585730671 ], [ 135.730529889, 34.585585396 ], [ 135.730899461, 34.585377761 ], [ 135.73140226000001, 34.585066191 ], [ 135.731553802, 34.584967984 ], [ 135.731790346, 34.584799848 ], [ 135.73197881499999, 34.584618342 ], [ 135.732066459, 34.584541338 ], [ 135.732090316000011, 34.584682766 ], [ 135.73207553, 34.58496425 ], [ 135.732064208, 34.585140604 ], [ 135.73202193, 34.58522919 ], [ 135.7318453, 34.58559453 ], [ 135.731518835, 34.586276672 ], [ 135.73133105, 34.58654796 ], [ 135.73166322, 34.58670807 ], [ 135.732875760000013, 34.5872885 ], [ 135.73479046599999, 34.588149202 ], [ 135.736694214000011, 34.588985871 ], [ 135.73658333899999, 34.589146916 ], [ 135.736572085, 34.589217582 ], [ 135.73662342599999, 34.589285914 ], [ 135.736629060000013, 34.58967914 ], [ 135.73668634500001, 34.589679264 ], [ 135.73667402699999, 34.589952118 ], [ 135.73670838699999, 34.589955983 ], [ 135.736706024, 34.590341612 ], [ 135.736661623, 34.590339625 ], [ 135.736572384999988, 34.591151641 ], [ 135.73650336599999, 34.591206246 ], [ 135.736469586, 34.591381461 ], [ 135.737747680000012, 34.59155285 ], [ 135.73887099, 34.59172302 ], [ 135.73898262, 34.5917048 ], [ 135.739646128, 34.591829557 ], [ 135.740312225999986, 34.591956549 ], [ 135.740455695, 34.592011836 ], [ 135.741679384, 34.592265726 ], [ 135.742190163, 34.592338816 ], [ 135.742687327999988, 34.59236829 ], [ 135.742953841, 34.592383598 ], [ 135.743073446000011, 34.592389841 ], [ 135.74339943699999, 34.59240524 ], [ 135.74352495, 34.592357992 ], [ 135.743849235, 34.59233094 ], [ 135.744139439, 34.592320521 ], [ 135.74424804099999, 34.592303351 ], [ 135.74436452899999, 34.592285213 ], [ 135.744347882999989, 34.592130028 ], [ 135.74472513500001, 34.592102595 ], [ 135.744858214, 34.592061025 ], [ 135.744971117, 34.591955342 ], [ 135.74510339299999, 34.59185502 ], [ 135.745250994, 34.591790006 ], [ 135.745421305, 34.591738325 ] ], [ [ 135.740996329000012, 34.59039832 ], [ 135.740693599, 34.59024686 ], [ 135.740480633, 34.590150247 ], [ 135.740204732, 34.590080493 ], [ 135.739974808999989, 34.589962512 ], [ 135.739788413000014, 34.589848414 ], [ 135.739410915, 34.589660003 ], [ 135.73917393100001, 34.589602647 ], [ 135.738610775000012, 34.589431838 ], [ 135.738626528, 34.589242575 ], [ 135.73871098, 34.588904559 ], [ 135.73876822599999, 34.588909627 ], [ 135.738878972, 34.588667302 ], [ 135.73910801, 34.588700007 ], [ 135.739279864, 34.588700375 ], [ 135.739415115000014, 34.588681713 ], [ 135.739628468, 34.588600683 ], [ 135.73978922500001, 34.58855947 ], [ 135.740008125, 34.58854109 ], [ 135.740274685, 34.5885869 ], [ 135.740554116, 34.588625395 ], [ 135.740758097, 34.588610668 ], [ 135.741125218, 34.588521076 ], [ 135.74144376699999, 34.588435887 ], [ 135.74165636, 34.58773064 ], [ 135.741698703, 34.587610008 ], [ 135.74214256499999, 34.587645744 ], [ 135.74232503499999, 34.587991476 ], [ 135.74251442799999, 34.588221963 ], [ 135.742539308, 34.588284223 ], [ 135.742497998, 34.588374633 ], [ 135.742416693, 34.588532035 ], [ 135.74239196799999, 34.588580681 ], [ 135.742384832999988, 34.58862925 ], [ 135.742365444, 34.588749222 ], [ 135.7423485, 34.588915194 ], [ 135.742324278000012, 34.588989194 ], [ 135.742261305999989, 34.589051167 ], [ 135.742256329000014, 34.589058564 ], [ 135.742212861000013, 34.589123167 ], [ 135.742174111, 34.589213139 ], [ 135.742100216000011, 34.589566562 ], [ 135.742014192999989, 34.589991395 ], [ 135.741998485000011, 34.590026421 ], [ 135.741973038999987, 34.59006481 ], [ 135.741931669, 34.59017595 ], [ 135.741819179, 34.59042834 ], [ 135.741789469, 34.59045278 ], [ 135.741757248999988, 34.59055263 ], [ 135.74167970900001, 34.5905619 ], [ 135.74160888899999, 34.59061076 ], [ 135.741271949, 34.59046677 ], [ 135.74116938899999, 34.59045712 ], [ 135.740996329000012, 34.59039832 ] ], [ [ 135.743239749999987, 34.587085361 ], [ 135.74318936099999, 34.587062028 ], [ 135.74312425, 34.587054917 ], [ 135.743014917000011, 34.587067111 ], [ 135.74291285000001, 34.587061618 ], [ 135.742678278, 34.587055944 ], [ 135.74258037199999, 34.587025004 ], [ 135.742398167, 34.586963639 ], [ 135.742248278, 34.586931167 ], [ 135.742185611, 34.586893639 ], [ 135.74211066699999, 34.586826694 ], [ 135.742087059, 34.586749841 ], [ 135.74198958299999, 34.586591056 ], [ 135.74196319, 34.586462089 ], [ 135.741964472, 34.586326583 ], [ 135.741993944, 34.586074 ], [ 135.74200133299999, 34.585976611 ], [ 135.742046778, 34.58570575 ], [ 135.742108226999989, 34.585449581 ], [ 135.742239667, 34.584926694 ], [ 135.74230956299999, 34.584588254 ], [ 135.74255559, 34.584551655 ], [ 135.742752833, 34.584608556 ], [ 135.74283119399999, 34.584615306 ], [ 135.742956713000012, 34.584617683 ], [ 135.743004759, 34.584621617 ], [ 135.743084511, 34.584629139 ], [ 135.743285727, 34.584659293 ], [ 135.743311721999987, 34.584664333 ], [ 135.743485961, 34.584687009 ], [ 135.743963889000014, 34.584752194 ], [ 135.744180448, 34.584771719 ], [ 135.74411677, 34.584975964 ], [ 135.74409725699999, 34.585082379 ], [ 135.744020844, 34.585451917 ], [ 135.743890128, 34.585913799 ], [ 135.743819639, 34.586129778 ], [ 135.74378769399999, 34.586300194 ], [ 135.743689028, 34.586731778 ], [ 135.743668528, 34.586824667 ], [ 135.74362243600001, 34.586862312 ], [ 135.743549631, 34.586921508 ], [ 135.743495188, 34.586961701 ], [ 135.74342525, 34.587013333 ], [ 135.743333111, 34.587067111 ], [ 135.743288889000013, 34.587079278 ], [ 135.743239749999987, 34.587085361 ] ], [ [ 135.73759074899999, 34.585076338 ], [ 135.737432218, 34.585213385 ], [ 135.736964526, 34.584916594 ], [ 135.736822526, 34.584919644 ], [ 135.736376661, 34.584617971 ], [ 135.736224811, 34.584527051 ], [ 135.736129530999989, 34.584508391 ], [ 135.736047082999988, 34.584501663 ], [ 135.73593313, 34.584496923 ], [ 135.735778759999988, 34.584460651 ], [ 135.73561475, 34.584366351 ], [ 135.735362707, 34.584274675 ], [ 135.735216901, 34.584260304 ], [ 135.735214721, 34.584307284 ], [ 135.734533101000011, 34.584325934 ], [ 135.734289528, 34.583825121 ], [ 135.734140731999986, 34.583517551 ], [ 135.734464148, 34.583366927 ], [ 135.73457405900001, 34.583292496 ], [ 135.734797211, 34.583116568 ], [ 135.73495605, 34.582982793 ], [ 135.73527650299999, 34.582703805 ], [ 135.735088585, 34.58256857 ], [ 135.735168964, 34.58251 ], [ 135.735041696, 34.582410562 ], [ 135.735083527, 34.582357266 ], [ 135.734972228, 34.582238906 ], [ 135.734923658000014, 34.582206926 ], [ 135.734573248, 34.582219046 ], [ 135.734553551, 34.582254801 ], [ 135.734534868, 34.582316447 ], [ 135.734535738, 34.582362106 ], [ 135.73454855899999, 34.582416935 ], [ 135.734550506, 34.582438073 ], [ 135.734547029, 34.582454251 ], [ 135.734533553, 34.582471868 ], [ 135.734510948, 34.582492361 ], [ 135.734386537, 34.582571485 ], [ 135.734316166000013, 34.582617639 ], [ 135.73429223, 34.582635417 ], [ 135.734240561, 34.582674335 ], [ 135.73417902700001, 34.582740115 ], [ 135.73410957199999, 34.58281867 ], [ 135.734080301, 34.582838564 ], [ 135.734048132, 34.582854863 ], [ 135.733959075, 34.582884572 ], [ 135.733941579, 34.582891903 ], [ 135.733827811, 34.582947825 ], [ 135.733772601, 34.582992049 ], [ 135.733739562000011, 34.583028003 ], [ 135.733658088, 34.583129301 ], [ 135.733566431000014, 34.583260264 ], [ 135.733576785, 34.583426089 ], [ 135.73321238599999, 34.583453718 ], [ 135.733183145, 34.583283103 ], [ 135.732951711999988, 34.583288282 ], [ 135.733686976, 34.581625454 ], [ 135.733717961999986, 34.58181723 ], [ 135.73391850199999, 34.581798072 ], [ 135.733910943000012, 34.581674423 ], [ 135.73427422200001, 34.581615031 ], [ 135.734593023, 34.581513394 ], [ 135.734677995999988, 34.581451043 ], [ 135.73487312, 34.581333976 ], [ 135.735049522999986, 34.581340045 ], [ 135.735096429, 34.581360044 ], [ 135.735146643, 34.581420793 ], [ 135.735241386000013, 34.581467406 ], [ 135.73529399200001, 34.581485157 ], [ 135.73541667, 34.581526552 ], [ 135.73552659, 34.581544793 ], [ 135.73562966899999, 34.581552596 ], [ 135.735796926, 34.581552959 ], [ 135.735958512, 34.581535306 ], [ 135.736110918, 34.58152237 ], [ 135.73618656299999, 34.581511164 ], [ 135.73627585, 34.581493493 ], [ 135.736383862999986, 34.581482211 ], [ 135.736528392, 34.581485789 ], [ 135.73671004900001, 34.581528402 ], [ 135.736948103, 34.581601873 ], [ 135.737288124, 34.581672721 ], [ 135.73753061, 34.581794523 ], [ 135.737652429, 34.581865881 ], [ 135.73766731, 34.58194325 ], [ 135.7377013, 34.58210102 ], [ 135.737795221999988, 34.582318722 ], [ 135.73776325, 34.582320361 ], [ 135.737696833, 34.582340833 ], [ 135.737576861, 34.582398139 ], [ 135.737505378, 34.582438009 ], [ 135.737435111, 34.582459528 ], [ 135.737377611, 34.582470167 ], [ 135.737318566, 34.582494995 ], [ 135.737078359, 34.582596001 ], [ 135.737010297000012, 34.582612354 ], [ 135.736911642, 34.582628852 ], [ 135.736958397, 34.582879606 ], [ 135.737148674, 34.582846854 ], [ 135.73707633, 34.582900706 ], [ 135.737121151999986, 34.583219164 ], [ 135.737230893, 34.583295201 ], [ 135.7373931, 34.583445256 ], [ 135.737507126, 34.583616052 ], [ 135.737304738, 34.583710755 ], [ 135.73731872799999, 34.583779565 ], [ 135.737419518, 34.583977745 ], [ 135.737458068, 34.583976145 ], [ 135.737637842999987, 34.58389369 ], [ 135.737772111, 34.583823583 ], [ 135.73784611100001, 34.58380225 ], [ 135.737964721999987, 34.583777028 ], [ 135.73799175, 34.583787694 ], [ 135.738046716000014, 34.583858759 ], [ 135.738145620000012, 34.58400943 ], [ 135.738223940000012, 34.58425956 ], [ 135.73822875799999, 34.584748924 ], [ 135.73755968099999, 34.584755067 ], [ 135.737462693999987, 34.584994577 ], [ 135.73759074899999, 34.585076338 ] ] ] } }
]
}
