{
"type": "FeatureCollection",
"name": "A29-19_29362",
"features": [
{ "type": "Feature", "properties": { "A29_001": "29362", "A29_002": "奈良県", "A29_003": "三宅町", "A29_004": 5, "A29_005": "第一種住居地域", "A29_006": 60, "A29_007": 200, "A29_008": "条件付き公開" }, "geometry": { "type": "Polygon", "coordinates": [ [ [ 135.76648205, 34.569479272 ], [ 135.76652998599999, 34.569481806 ], [ 135.76678002, 34.56947001 ], [ 135.76742002, 34.56945 ], [ 135.76787001, 34.56944001 ], [ 135.76880001, 34.56941001 ], [ 135.76986907, 34.569381117 ], [ 135.76984614700001, 34.56821558 ], [ 135.7703415, 34.568201972 ], [ 135.770457764000014, 34.56819962 ], [ 135.77050970799999, 34.568177093 ], [ 135.770690812999987, 34.568174842 ], [ 135.77100432, 34.568188038 ], [ 135.771224294, 34.568166837 ], [ 135.77130000599999, 34.568140092 ], [ 135.771348472, 34.568137583 ], [ 135.771913468, 34.568172123 ], [ 135.77220986099999, 34.568190944 ], [ 135.77240366699999, 34.568228722 ], [ 135.772495826000011, 34.568189476 ], [ 135.77259230199999, 34.568142826 ], [ 135.772624306000012, 34.568117722 ], [ 135.772629685999988, 34.568040196 ], [ 135.772635825, 34.567951721 ], [ 135.772640222, 34.567888361 ], [ 135.772612167, 34.567084972 ], [ 135.772476368000014, 34.567089153 ], [ 135.77248383599999, 34.566736505 ], [ 135.772489793, 34.566710053 ], [ 135.772507133, 34.566647157 ], [ 135.77254519499999, 34.566601165 ], [ 135.772545138999988, 34.566539 ], [ 135.772539472, 34.566236389 ], [ 135.772531851999986, 34.566044982 ], [ 135.772432253, 34.566098879 ], [ 135.77237996299999, 34.56611139 ], [ 135.77213278, 34.566131642 ], [ 135.77039845499999, 34.566160814 ], [ 135.770247875, 34.566221218 ], [ 135.770024952, 34.566193432 ], [ 135.769781147, 34.56617316 ], [ 135.769827139, 34.565657797 ], [ 135.76980470699999, 34.565129428 ], [ 135.76940190799999, 34.565128668 ], [ 135.768994738, 34.565133302 ], [ 135.76898024, 34.565660537 ], [ 135.76899116199999, 34.566061667 ], [ 135.767653521, 34.566062687 ], [ 135.767672667, 34.565958694 ], [ 135.767719333, 34.565844528 ], [ 135.767790292, 34.565728621 ], [ 135.767829457, 34.56563599 ], [ 135.767860194, 34.5655595 ], [ 135.767849786, 34.565446618 ], [ 135.767828861999988, 34.565339938 ], [ 135.76781408299999, 34.565264583 ], [ 135.76775077799999, 34.565153194 ], [ 135.76771653099999, 34.565136448 ], [ 135.76757922199999, 34.565069306 ], [ 135.767426, 34.565015667 ], [ 135.76735879099999, 34.565008024 ], [ 135.767300065, 34.565001346 ], [ 135.767148991999989, 34.565026418 ], [ 135.767050512, 34.565042837 ], [ 135.766856733, 34.565094115 ], [ 135.766676889, 34.564228056 ], [ 135.766641861000011, 34.564070611 ], [ 135.766635228000013, 34.564054157 ], [ 135.76663180599999, 34.564027944 ], [ 135.76658808799999, 34.564028489 ], [ 135.766277556, 34.564036083 ], [ 135.765027916, 34.564083756 ], [ 135.765054426, 34.563661515 ], [ 135.765034426, 34.563417515 ], [ 135.765007426000011, 34.563280515 ], [ 135.764987426, 34.563180515 ], [ 135.764972426000014, 34.563105515 ], [ 135.764942426, 34.562959515 ], [ 135.764873435999988, 34.562840515 ], [ 135.764792844, 34.562621635 ], [ 135.764539641, 34.561966445 ], [ 135.764407253, 34.561816692 ], [ 135.764150617000013, 34.561718934 ], [ 135.763888094, 34.561627731 ], [ 135.763819418999987, 34.561604281 ], [ 135.763796500000012, 34.561740917 ], [ 135.763784278, 34.561792583 ], [ 135.763771741999989, 34.56196094 ], [ 135.763757368, 34.56215397 ], [ 135.76374626399999, 34.562303085 ], [ 135.763744747, 34.562494009 ], [ 135.763742785, 34.562800193 ], [ 135.763743444, 34.563010278 ], [ 135.763749222, 34.563198111 ], [ 135.763762974, 34.563323635 ], [ 135.763782961, 34.563506056 ], [ 135.763788833, 34.563633 ], [ 135.763839889, 34.564118361 ], [ 135.763901333, 34.564527806 ], [ 135.763895917000013, 34.564567944 ], [ 135.763950088, 34.564849949 ], [ 135.763995833, 34.565031722 ], [ 135.764060417, 34.565227444 ], [ 135.764121222, 34.565453694 ], [ 135.76412844399999, 34.565537167 ], [ 135.764199944000012, 34.565880667 ], [ 135.764317161, 34.566201615 ], [ 135.76443763899999, 34.566497083 ], [ 135.76452513000001, 34.566728701 ], [ 135.764635629, 34.566922539 ], [ 135.764638139, 34.567190918 ], [ 135.7645595, 34.567535722 ], [ 135.764454887999989, 34.567803937 ], [ 135.764430417, 34.567867111 ], [ 135.764383212000013, 34.568006897 ], [ 135.764166132000014, 34.567984771 ], [ 135.76370479, 34.567961991 ], [ 135.76356687099999, 34.567962448 ], [ 135.763547093999989, 34.567996465 ], [ 135.763391528999989, 34.567990613 ], [ 135.763159172, 34.567979755 ], [ 135.762907093, 34.567965747 ], [ 135.7629035, 34.567962528 ], [ 135.76275332, 34.567943948 ], [ 135.762581246, 34.567897945 ], [ 135.762500268999986, 34.568043682 ], [ 135.762227360999987, 34.568508 ], [ 135.762043667, 34.568622 ], [ 135.76174880100001, 34.568971158 ], [ 135.761665593, 34.569059212 ], [ 135.76164189799999, 34.569180593 ], [ 135.76161169400001, 34.569274083 ], [ 135.761579033, 34.569292446 ], [ 135.761550222000011, 34.569324111 ], [ 135.76152611099999, 34.569362417 ], [ 135.761503183, 34.569423976 ], [ 135.761483047000013, 34.56956013 ], [ 135.761463455000012, 34.569795974 ], [ 135.761458850999986, 34.57002578 ], [ 135.761515331999988, 34.570407141 ], [ 135.76180851, 34.57067969 ], [ 135.76236259800001, 34.571373731 ], [ 135.762662182000014, 34.571249782 ], [ 135.76282176699999, 34.571185088 ], [ 135.763038599, 34.571123369 ], [ 135.763283366, 34.571060935 ], [ 135.763641177000011, 34.57094352 ], [ 135.76347401000001, 34.57153668 ], [ 135.76339724799999, 34.571594707 ], [ 135.763248417, 34.572005694 ], [ 135.763305616, 34.572027225 ], [ 135.76371979699999, 34.572041791 ], [ 135.76382322, 34.572045428 ], [ 135.764058639000012, 34.572072222 ], [ 135.764226889000014, 34.572067603 ], [ 135.764413972, 34.572060722 ], [ 135.764773416999986, 34.572128306 ], [ 135.764962833, 34.572105139 ], [ 135.765016583, 34.572003611 ], [ 135.765035729, 34.571903867 ], [ 135.765057989000013, 34.571787896 ], [ 135.765079541, 34.571675618 ], [ 135.765131595000014, 34.571469164 ], [ 135.76518993799999, 34.571341438 ], [ 135.765234435999986, 34.57124491 ], [ 135.766530425000013, 34.57124308 ], [ 135.766512806, 34.571090361 ], [ 135.76650159, 34.570854331 ], [ 135.766480468999987, 34.570603096 ], [ 135.766471485000011, 34.570496232 ], [ 135.76646183299999, 34.570167833 ], [ 135.766453528, 34.570076944 ], [ 135.766454535, 34.570025729 ], [ 135.76645978900001, 34.569920837 ], [ 135.76648205, 34.569479272 ] ] ] } },
{ "type": "Feature", "properties": { "A29_001": "29362", "A29_002": "奈良県", "A29_003": "三宅町", "A29_004": 10, "A29_005": "準工業地域", "A29_006": 60, "A29_007": 200, "A29_008": "条件付き公開" }, "geometry": { "type": "Polygon", "coordinates": [ [ [ 135.77548027899999, 34.57797667 ], [ 135.77596192499999, 34.577440064 ], [ 135.7762625, 34.577102111 ], [ 135.776682203, 34.577085307 ], [ 135.777316832999986, 34.577061167 ], [ 135.777370047, 34.577058431 ], [ 135.77734613699999, 34.576928486 ], [ 135.777321943, 34.576816128 ], [ 135.77686137399999, 34.576784135 ], [ 135.776907182, 34.576377454 ], [ 135.77695119399999, 34.576376778 ], [ 135.777061389000011, 34.57550675 ], [ 135.77707920200001, 34.575366088 ], [ 135.777082513000011, 34.57533161 ], [ 135.777108083, 34.575025361 ], [ 135.776817032999986, 34.575032159 ], [ 135.77676413, 34.575498371 ], [ 135.77675843099999, 34.575548239 ], [ 135.77674623199999, 34.575654968 ], [ 135.776708944, 34.575981194 ], [ 135.776570139, 34.575977 ], [ 135.776505444, 34.57597683 ], [ 135.775920944, 34.575979056 ], [ 135.775727356, 34.575968739 ], [ 135.77543396499999, 34.575953103 ], [ 135.7753145, 34.575963917 ], [ 135.77517633, 34.575978613 ], [ 135.775, 34.575988222 ], [ 135.774741667, 34.576006222 ], [ 135.774718893999989, 34.576002907 ], [ 135.774716321999989, 34.575976573 ], [ 135.774707342, 34.575974373 ], [ 135.774646389, 34.575968333 ], [ 135.774590222, 34.575964828 ], [ 135.774154708, 34.575930365 ], [ 135.77409144399999, 34.575915361 ], [ 135.774070776, 34.575922795 ], [ 135.774030533, 34.575937271 ], [ 135.773999687000014, 34.575948366 ], [ 135.773959389, 34.575962861 ], [ 135.77392475, 34.576034278 ], [ 135.773875944, 34.576179639 ], [ 135.773817638999986, 34.5763465 ], [ 135.773808894000013, 34.576384369 ], [ 135.77376311099999, 34.576582611 ], [ 135.773660111, 34.576825694 ], [ 135.773532917000011, 34.577083806 ], [ 135.77348236099999, 34.577229083 ], [ 135.773434736000013, 34.577327911 ], [ 135.77330474499999, 34.577589277 ], [ 135.773228125, 34.5777269 ], [ 135.773162750000012, 34.577889111 ], [ 135.773076194, 34.578194528 ], [ 135.77306475, 34.578238172 ], [ 135.773492307999987, 34.578264151 ], [ 135.77389711399999, 34.57827946 ], [ 135.773974829999986, 34.57828931 ], [ 135.774064243999987, 34.578312527 ], [ 135.774136016999989, 34.57835027 ], [ 135.77421584699999, 34.57835358 ], [ 135.774353537, 34.57834433 ], [ 135.77468915899999, 34.578297303 ], [ 135.774709511, 34.578283809 ], [ 135.774730167, 34.578251139 ], [ 135.774735088, 34.578077963 ], [ 135.774735647999989, 34.578047103 ], [ 135.774744338, 34.578019413 ], [ 135.77475395799999, 34.577996493 ], [ 135.774769787999986, 34.577974753 ], [ 135.774786068, 34.577963713 ], [ 135.774814298, 34.577955443 ], [ 135.774843948000012, 34.577952733 ], [ 135.774873098, 34.577955173 ], [ 135.775081704, 34.577963476 ], [ 135.775289230999988, 34.577974777 ], [ 135.77548027899999, 34.57797667 ] ] ] } },
{ "type": "Feature", "properties": { "A29_001": "29362", "A29_002": "奈良県", "A29_003": "三宅町", "A29_004": 1, "A29_005": "第一種低層住居専用地域", "A29_006": 60, "A29_007": 100, "A29_008": "条件付き公開" }, "geometry": { "type": "Polygon", "coordinates": [ [ [ 135.775775782000011, 34.579204205 ], [ 135.77478520599999, 34.579380931 ], [ 135.77473050099999, 34.579228034 ], [ 135.77437803, 34.579247331 ], [ 135.774266231000013, 34.57938525 ], [ 135.77429465099999, 34.579627197 ], [ 135.77460720900001, 34.579584098 ], [ 135.775146626, 34.579455883 ], [ 135.775768862, 34.579349049 ], [ 135.77588276899999, 34.580084483 ], [ 135.776892081, 34.579888645 ], [ 135.776978938000013, 34.579928769 ], [ 135.777093317, 34.579942324 ], [ 135.77735607599999, 34.579871222 ], [ 135.77815105, 34.579896934 ], [ 135.77826558699999, 34.579851039 ], [ 135.77879073599999, 34.579847139 ], [ 135.779488878, 34.579879947 ], [ 135.780723884999986, 34.579916143 ], [ 135.78092633, 34.579909227 ], [ 135.78127247099999, 34.579924406 ], [ 135.78188324300001, 34.579935224 ], [ 135.781885417000012, 34.579887285 ], [ 135.781888032000012, 34.579470843 ], [ 135.781877056000013, 34.578912556 ], [ 135.78187258, 34.57885766 ], [ 135.78142564, 34.578851055 ], [ 135.781437167, 34.578790222 ], [ 135.78142966199999, 34.577870739 ], [ 135.780225550000011, 34.57788975 ], [ 135.77959497, 34.57793016 ], [ 135.779376230999986, 34.577957995 ], [ 135.778266916, 34.577969607 ], [ 135.778225278, 34.577945694 ], [ 135.778057028, 34.577874528 ], [ 135.777709552, 34.577924405 ], [ 135.77746403099999, 34.577935291 ], [ 135.777099341, 34.577947095 ], [ 135.77707790299999, 34.578436056 ], [ 135.777013806000014, 34.578491972 ], [ 135.77699, 34.578521139 ], [ 135.77697297200001, 34.578559917 ], [ 135.77696203799999, 34.57868681 ], [ 135.77586757, 34.57872166 ], [ 135.775867858, 34.578928633 ], [ 135.775825578, 34.57894242 ], [ 135.775775782000011, 34.579204205 ] ] ] } },
{ "type": "Feature", "properties": { "A29_001": "29362", "A29_002": "奈良県", "A29_003": "三宅町", "A29_004": 5, "A29_005": "第一種住居地域", "A29_006": 60, "A29_007": 200, "A29_008": "条件付き公開" }, "geometry": { "type": "Polygon", "coordinates": [ [ [ 135.774266231000013, 34.57938525 ], [ 135.77437803, 34.579247331 ], [ 135.77473050099999, 34.579228034 ], [ 135.77478520599999, 34.579380931 ], [ 135.775775782000011, 34.579204205 ], [ 135.775825578, 34.57894242 ], [ 135.775867858, 34.578928633 ], [ 135.77586757, 34.57872166 ], [ 135.77696203799999, 34.57868681 ], [ 135.77697297200001, 34.578559917 ], [ 135.77699, 34.578521139 ], [ 135.777013806000014, 34.578491972 ], [ 135.77707790299999, 34.578436056 ], [ 135.775799107000012, 34.578464651 ], [ 135.775797845, 34.578388215 ], [ 135.776117631, 34.578382736 ], [ 135.776116503, 34.57798297 ], [ 135.77548027899999, 34.57797667 ], [ 135.775289230999988, 34.577974777 ], [ 135.775081704, 34.577963476 ], [ 135.774873098, 34.577955173 ], [ 135.774843948000012, 34.577952733 ], [ 135.774814298, 34.577955443 ], [ 135.774786068, 34.577963713 ], [ 135.774769787999986, 34.577974753 ], [ 135.77475395799999, 34.577996493 ], [ 135.774744338, 34.578019413 ], [ 135.774735647999989, 34.578047103 ], [ 135.774735088, 34.578077963 ], [ 135.774730167, 34.578251139 ], [ 135.774709511, 34.578283809 ], [ 135.77468915899999, 34.578297303 ], [ 135.774353537, 34.57834433 ], [ 135.77421584699999, 34.57835358 ], [ 135.774136016999989, 34.57835027 ], [ 135.774064243999987, 34.578312527 ], [ 135.773974829999986, 34.57828931 ], [ 135.77389711399999, 34.57827946 ], [ 135.773492307999987, 34.578264151 ], [ 135.77306475, 34.578238172 ], [ 135.773076194, 34.578194528 ], [ 135.773162750000012, 34.577889111 ], [ 135.773228125, 34.5777269 ], [ 135.77330474499999, 34.577589277 ], [ 135.773434736000013, 34.577327911 ], [ 135.77348236099999, 34.577229083 ], [ 135.773532917000011, 34.577083806 ], [ 135.773660111, 34.576825694 ], [ 135.77376311099999, 34.576582611 ], [ 135.773808894000013, 34.576384369 ], [ 135.773817638999986, 34.5763465 ], [ 135.773875944, 34.576179639 ], [ 135.77392475, 34.576034278 ], [ 135.773959389, 34.575962861 ], [ 135.773999687000014, 34.575948366 ], [ 135.774030533, 34.575937271 ], [ 135.774070776, 34.575922795 ], [ 135.77409144399999, 34.575915361 ], [ 135.774154708, 34.575930365 ], [ 135.774590222, 34.575964828 ], [ 135.774646389, 34.575968333 ], [ 135.774707342, 34.575974373 ], [ 135.774716321999989, 34.575976573 ], [ 135.774718893999989, 34.576002907 ], [ 135.774741667, 34.576006222 ], [ 135.775, 34.575988222 ], [ 135.77517633, 34.575978613 ], [ 135.7753145, 34.575963917 ], [ 135.77543396499999, 34.575953103 ], [ 135.775727356, 34.575968739 ], [ 135.775920944, 34.575979056 ], [ 135.776505444, 34.57597683 ], [ 135.776570139, 34.575977 ], [ 135.776708944, 34.575981194 ], [ 135.77674623199999, 34.575654968 ], [ 135.77675843099999, 34.575548239 ], [ 135.77676413, 34.575498371 ], [ 135.776817032999986, 34.575032159 ], [ 135.777108083, 34.575025361 ], [ 135.77722945, 34.57396358 ], [ 135.778026813, 34.57395627 ], [ 135.77830659599999, 34.573953868 ], [ 135.77835574, 34.573004411 ], [ 135.779864006, 34.572988074 ], [ 135.779962571, 34.572987006 ], [ 135.780238776, 34.572903846 ], [ 135.78027026800001, 34.572873612 ], [ 135.780495531000014, 34.572861933 ], [ 135.78092132, 34.572897127 ], [ 135.78128414, 34.573970573 ], [ 135.781783577999988, 34.574014077 ], [ 135.78188309399999, 34.574084794 ], [ 135.78318787, 34.574088107 ], [ 135.783241129, 34.574048261 ], [ 135.783349006, 34.574050984 ], [ 135.783333333, 34.575032917 ], [ 135.78338416, 34.575935792 ], [ 135.78346284, 34.57593478 ], [ 135.783470443999988, 34.576922029 ], [ 135.784512971999987, 34.576896306 ], [ 135.784560160000012, 34.57672562 ], [ 135.78460309, 34.57657496 ], [ 135.78462353, 34.57643415 ], [ 135.784629489999986, 34.57634553 ], [ 135.784587671, 34.576243857 ], [ 135.784757697, 34.576243077 ], [ 135.784748094, 34.575947914 ], [ 135.78512797, 34.575929851 ], [ 135.785132686999987, 34.575711512 ], [ 135.785463596, 34.575700727 ], [ 135.78547977, 34.575406762 ], [ 135.785510292, 34.575062508 ], [ 135.785515876, 34.574865151 ], [ 135.785538992, 34.574673307 ], [ 135.785351585, 34.574648856 ], [ 135.785069553999989, 34.574645695 ], [ 135.78507710299999, 34.574958557 ], [ 135.785078325, 34.575009204 ], [ 135.784644861, 34.575031778 ], [ 135.784603247, 34.575033802 ], [ 135.784600998, 34.575033911 ], [ 135.784592839999988, 34.57498763 ], [ 135.784514453000014, 34.574587001 ], [ 135.784559468, 34.574577561 ], [ 135.78456416099999, 34.574099552 ], [ 135.784545385, 34.574098674 ], [ 135.78433793, 34.574088967 ], [ 135.784341783, 34.574042467 ], [ 135.78438166699999, 34.573561111 ], [ 135.784375633, 34.573323616 ], [ 135.78436941699999, 34.573078917 ], [ 135.78438805799999, 34.573079227 ], [ 135.785629306, 34.573099861 ], [ 135.786677989999987, 34.573049669 ], [ 135.786704444, 34.57412825 ], [ 135.786971111000014, 34.574149528 ], [ 135.787382167, 34.574162556 ], [ 135.787449167, 34.574147667 ], [ 135.78781491699999, 34.574039056 ], [ 135.787864262999989, 34.574020819 ], [ 135.787904583, 34.573936889 ], [ 135.787928972, 34.573683278 ], [ 135.787955802999988, 34.573462491 ], [ 135.787976667, 34.573160194 ], [ 135.787993171000011, 34.572913789 ], [ 135.78798863, 34.57264346 ], [ 135.788084145, 34.57244738 ], [ 135.788099837, 34.572338375 ], [ 135.788144386999988, 34.572111355 ], [ 135.78815579799999, 34.572089377 ], [ 135.788218572, 34.572071508 ], [ 135.788553021000013, 34.572057529 ], [ 135.789020872, 34.572071684 ], [ 135.789061156, 34.572077359 ], [ 135.78911786099999, 34.572066889 ], [ 135.78920388899999, 34.572011444 ], [ 135.789298833, 34.571815028 ], [ 135.78937403, 34.571752438 ], [ 135.78955233, 34.571616244 ], [ 135.789635368, 34.571567366 ], [ 135.789733194, 34.571499583 ], [ 135.79000176299999, 34.571300687 ], [ 135.790010916999989, 34.572048722 ], [ 135.790282977, 34.572046358 ], [ 135.79027439, 34.572869732 ], [ 135.789492566, 34.572889011 ], [ 135.789105381000013, 34.572874997 ], [ 135.789099889999989, 34.57311285 ], [ 135.78910635, 34.57320466 ], [ 135.789116006, 34.573314209 ], [ 135.789090891, 34.573385747 ], [ 135.789058778, 34.573415889 ], [ 135.78907643, 34.57350569 ], [ 135.789092360000012, 34.57362995 ], [ 135.78909785, 34.57373362 ], [ 135.789089960000013, 34.57382777 ], [ 135.789080649999988, 34.5739144 ], [ 135.789078640000014, 34.57395634 ], [ 135.789085115, 34.574022603 ], [ 135.78908321599999, 34.574067303 ], [ 135.78908845399999, 34.57411198 ], [ 135.789095169, 34.574615083 ], [ 135.789099654000012, 34.575011784 ], [ 135.78947247, 34.575010504 ], [ 135.789501722000011, 34.574799444 ], [ 135.789571091999989, 34.574562862 ], [ 135.789585611, 34.574514833 ], [ 135.789669260000011, 34.574326936 ], [ 135.789746056000013, 34.574172639 ], [ 135.789803105, 34.574083437 ], [ 135.789886583, 34.573961139 ], [ 135.78994408299999, 34.573879667 ], [ 135.790043459, 34.573767192 ], [ 135.790205861, 34.573593806 ], [ 135.790424073999986, 34.573395494 ], [ 135.7905237, 34.573321653 ], [ 135.79082603099999, 34.573097572 ], [ 135.790939003, 34.573008471 ], [ 135.79099208299999, 34.572962917 ], [ 135.791087944, 34.572863806 ], [ 135.79134288899999, 34.572629861 ], [ 135.79147658299999, 34.572477597 ], [ 135.791479422, 34.572091509 ], [ 135.791756399, 34.57209055 ], [ 135.791869111000011, 34.571917472 ], [ 135.792110352, 34.571531068 ], [ 135.792350056, 34.571121306 ], [ 135.79250843599999, 34.570858346 ], [ 135.792775861, 34.570414333 ], [ 135.79281591099999, 34.570318415 ], [ 135.792682595, 34.570138891 ], [ 135.792661009999989, 34.56956601 ], [ 135.792658038000013, 34.569396344 ], [ 135.792710056, 34.569351389 ], [ 135.79274227799999, 34.569315556 ], [ 135.792791778, 34.56922425 ], [ 135.792830278, 34.569195806 ], [ 135.792983972, 34.569145667 ], [ 135.793094889, 34.569062667 ], [ 135.793121805999988, 34.568938306 ], [ 135.793143444, 34.568417942 ], [ 135.793242611000011, 34.567837417 ], [ 135.793266109, 34.567581285 ], [ 135.79330430499999, 34.567261459 ], [ 135.792492218, 34.567363878 ], [ 135.792336213, 34.567379623 ], [ 135.79215546399999, 34.567132789 ], [ 135.79171179, 34.567432917 ], [ 135.791221728000011, 34.567513367 ], [ 135.790981167000012, 34.56759476 ], [ 135.790811749999989, 34.567726778 ], [ 135.790677241999987, 34.567748927 ], [ 135.790517091, 34.567770581 ], [ 135.79050017899999, 34.568080839 ], [ 135.790502959, 34.568117239 ], [ 135.79051146899999, 34.568153649 ], [ 135.790510583000014, 34.56818625 ], [ 135.790495257, 34.568218486 ], [ 135.790442438000014, 34.568296698 ], [ 135.79044369499999, 34.568380414 ], [ 135.790315407, 34.568654387 ], [ 135.790322421000013, 34.568781789 ], [ 135.790260687, 34.568835066 ], [ 135.79025098299999, 34.568892653 ], [ 135.79024102299999, 34.569072828 ], [ 135.790227509, 34.569197769 ], [ 135.79017151, 34.569303225 ], [ 135.790205444, 34.569347694 ], [ 135.790397528, 34.569090167 ], [ 135.790420539, 34.568999154 ], [ 135.790476111, 34.568779361 ], [ 135.79047505599999, 34.568562111 ], [ 135.792028944, 34.568651972 ], [ 135.79197631, 34.568989657 ], [ 135.791804633999988, 34.569019696 ], [ 135.79175617300001, 34.569043878 ], [ 135.791732118, 34.569083484 ], [ 135.791790641, 34.569337542 ], [ 135.791866967, 34.569610138 ], [ 135.79179564, 34.56961235 ], [ 135.79172466599999, 34.569630105 ], [ 135.791677222, 34.569646833 ], [ 135.791643916999988, 34.569667444 ], [ 135.791590332999988, 34.569690639 ], [ 135.791567585, 34.569704283 ], [ 135.791508295, 34.569719213 ], [ 135.79147958499999, 34.569729453 ], [ 135.791447025, 34.569751553 ], [ 135.791411555, 34.569793433 ], [ 135.791395719, 34.569932267 ], [ 135.791366151, 34.570025636 ], [ 135.791259712999988, 34.57015193 ], [ 135.791174442999989, 34.57023249 ], [ 135.791076476, 34.570319959 ], [ 135.790986847, 34.570384108 ], [ 135.790823960000012, 34.5703682 ], [ 135.790708310000014, 34.570368 ], [ 135.79037241, 34.57032983 ], [ 135.79020706099999, 34.570185618 ], [ 135.790102166999986, 34.570184139 ], [ 135.79006072199999, 34.570174222 ], [ 135.79003835, 34.570094815 ], [ 135.789996972000012, 34.569947944 ], [ 135.789989131999988, 34.569904795 ], [ 135.789966306, 34.569779167 ], [ 135.789976222, 34.569711611 ], [ 135.789985177, 34.569670972 ], [ 135.789984135999987, 34.569646267 ], [ 135.789970786, 34.569631207 ], [ 135.78993351599999, 34.569632727 ], [ 135.789778974, 34.569746445 ], [ 135.78973062599999, 34.569725737 ], [ 135.789361848999988, 34.569978669 ], [ 135.789256099999989, 34.570036722 ], [ 135.78919442899999, 34.57006452 ], [ 135.789137194, 34.570077767 ], [ 135.788577096000012, 34.570103537 ], [ 135.787985736, 34.570118236 ], [ 135.787738875, 34.57013038 ], [ 135.787366760999987, 34.570109311 ], [ 135.786777777999987, 34.57009975 ], [ 135.78662530599999, 34.57014875 ], [ 135.786397306, 34.570148389 ], [ 135.786142006, 34.57015256 ], [ 135.785882582999989, 34.57016575 ], [ 135.785579528, 34.570118139 ], [ 135.785565749999989, 34.571120833 ], [ 135.784866171, 34.571111854 ], [ 135.78354389399999, 34.571106247 ], [ 135.783341427000011, 34.571114344 ], [ 135.78300816399999, 34.571095398 ], [ 135.78205438399999, 34.571115086 ], [ 135.782012912999988, 34.570104245 ], [ 135.78166986, 34.570086782 ], [ 135.78121765899999, 34.570102962 ], [ 135.781231491999989, 34.571140305 ], [ 135.78116194, 34.57116484 ], [ 135.781131291, 34.571597519 ], [ 135.78122688, 34.572061149 ], [ 135.77877235, 34.572045199 ], [ 135.778775360999987, 34.570149306 ], [ 135.778732694000013, 34.570151389 ], [ 135.778723802, 34.570121237 ], [ 135.77724879499999, 34.570119397 ], [ 135.777245921, 34.570206133 ], [ 135.776976112, 34.570208113 ], [ 135.776841233999988, 34.570186029 ], [ 135.776253098000012, 34.570182526 ], [ 135.775954472, 34.570219398 ], [ 135.77596122, 34.57038921 ], [ 135.775960250999987, 34.570545961 ], [ 135.775984778, 34.570697662 ], [ 135.77599267, 34.57077694 ], [ 135.775979723, 34.570902611 ], [ 135.775957440000013, 34.571047026 ], [ 135.775933895, 34.5710761 ], [ 135.775808383999987, 34.571160149 ], [ 135.775820388999989, 34.571183694 ], [ 135.775831444, 34.571293917 ], [ 135.775819805999987, 34.5713985 ], [ 135.77582180600001, 34.571443444 ], [ 135.775808121000011, 34.571487159 ], [ 135.77547449, 34.57146956 ], [ 135.775476626999989, 34.571765596 ], [ 135.774687607, 34.571736844 ], [ 135.774642105999988, 34.571748892 ], [ 135.77454297, 34.572069612 ], [ 135.773995129000014, 34.572075878 ], [ 135.773778009000011, 34.572092461 ], [ 135.77364632199999, 34.572125838 ], [ 135.77359985199999, 34.572137638 ], [ 135.77353583199999, 34.572153888 ], [ 135.773116624000011, 34.572140632 ], [ 135.772520925, 34.572127736 ], [ 135.772440769000013, 34.57301568 ], [ 135.772393333, 34.573064722 ], [ 135.77190235, 34.573048774 ], [ 135.771287115, 34.573039792 ], [ 135.771211173000012, 34.573720096 ], [ 135.7712526, 34.57409245 ], [ 135.77129181699999, 34.574801246 ], [ 135.771228756, 34.574797488 ], [ 135.771238668, 34.574991803 ], [ 135.772403015, 34.574912528 ], [ 135.772420778999987, 34.575459694 ], [ 135.772426603000014, 34.575685414 ], [ 135.772430832999987, 34.575849333 ], [ 135.772431444, 34.575922361 ], [ 135.772437090000011, 34.575991064 ], [ 135.772446222000013, 34.576102167 ], [ 135.77247207, 34.576152152 ], [ 135.772514667, 34.576234528 ], [ 135.772544583000013, 34.576347667 ], [ 135.77255096, 34.576543435 ], [ 135.77255363899999, 34.576625694 ], [ 135.772506306, 34.576813417 ], [ 135.772476, 34.576919972 ], [ 135.772396046000011, 34.577052499 ], [ 135.771526623999989, 34.577000855 ], [ 135.771531915, 34.577111709 ], [ 135.771533968999989, 34.577165095 ], [ 135.771376962, 34.577186033 ], [ 135.771287373, 34.577193788 ], [ 135.771118884, 34.577170616 ], [ 135.770793924, 34.577170168 ], [ 135.770720555999986, 34.577170639 ], [ 135.770672714, 34.577368985 ], [ 135.770646527999986, 34.577492167 ], [ 135.770566556, 34.57766425 ], [ 135.77054285, 34.57774582 ], [ 135.770539250000013, 34.577753967 ], [ 135.77054958299999, 34.577819333 ], [ 135.770541192, 34.577871463 ], [ 135.77024347299999, 34.577859994 ], [ 135.770243881999988, 34.578238516 ], [ 135.77048297499999, 34.578238965 ], [ 135.77046935300001, 34.578391808 ], [ 135.77074812, 34.578395783 ], [ 135.770734463999986, 34.578533043 ], [ 135.770806096, 34.578621744 ], [ 135.77081261699999, 34.578917787 ], [ 135.771328444, 34.578925389 ], [ 135.771297188, 34.579266896 ], [ 135.770458797, 34.579206088 ], [ 135.77040924, 34.5797302 ], [ 135.770402909000012, 34.580150883 ], [ 135.77217707299999, 34.580425974 ], [ 135.771976472, 34.580830822 ], [ 135.772008551, 34.58090125 ], [ 135.7728176, 34.580878494 ], [ 135.773166002000011, 34.580872469 ], [ 135.773199022999989, 34.580866464 ], [ 135.773222524, 34.580854982 ], [ 135.773256021, 34.580823276 ], [ 135.77326725, 34.580739583 ], [ 135.77326822, 34.58068601 ], [ 135.77327001099999, 34.580587136 ], [ 135.77327191099999, 34.580567824 ], [ 135.773277417, 34.580552333 ], [ 135.773289667, 34.58053225 ], [ 135.773309861, 34.5805185 ], [ 135.77334447199999, 34.580508583 ], [ 135.77352580199999, 34.58049165 ], [ 135.773730918000012, 34.580463748 ], [ 135.773907944, 34.580439667 ], [ 135.773981916999986, 34.580417417 ], [ 135.774063632, 34.58038008 ], [ 135.774146992, 34.580331532 ], [ 135.774036894, 34.57981447 ], [ 135.774227591999988, 34.579812396 ], [ 135.774286469, 34.579737284 ], [ 135.77429465099999, 34.579627197 ], [ 135.774266231000013, 34.57938525 ] ] ] } },
{ "type": "Feature", "properties": { "A29_001": "29362", "A29_002": "奈良県", "A29_003": "三宅町", "A29_004": 10, "A29_005": "準工業地域", "A29_006": 60, "A29_007": 200, "A29_008": "条件付き公開" }, "geometry": { "type": "Polygon", "coordinates": [ [ [ 135.77830659599999, 34.573953868 ], [ 135.780432225, 34.573940475 ], [ 135.780874289, 34.573986859 ], [ 135.78128414, 34.573970573 ], [ 135.78092132, 34.572897127 ], [ 135.780495531000014, 34.572861933 ], [ 135.78027026800001, 34.572873612 ], [ 135.780238776, 34.572903846 ], [ 135.779962571, 34.572987006 ], [ 135.779864006, 34.572988074 ], [ 135.77835574, 34.573004411 ], [ 135.77830659599999, 34.573953868 ] ] ] } }
]
}
