{
"type": "FeatureCollection",
"name": "A29-19_29443",
"features": [
{ "type": "Feature", "properties": { "A29_001": "29443", "A29_002": "奈良県", "A29_003": "下市町", "A29_004": 10, "A29_005": "準工業地域", "A29_006": 60, "A29_007": 200, "A29_008": null }, "geometry": { "type": "Polygon", "coordinates": [ [ [ 135.78980461399999, 34.376637857 ], [ 135.78983961099999, 34.376667444 ], [ 135.789889, 34.376695722 ], [ 135.7900275, 34.376672972 ], [ 135.790231694, 34.376651889 ], [ 135.790476332999987, 34.376590361 ], [ 135.79052486099999, 34.376595417 ], [ 135.79056225, 34.376624083 ], [ 135.79065325, 34.376896333 ], [ 135.790669556000012, 34.376929278 ], [ 135.79071288899999, 34.377016861 ], [ 135.790829988000013, 34.377180652 ], [ 135.790828583, 34.377180472 ], [ 135.790848944, 34.377230639 ], [ 135.79090288899999, 34.377373833 ], [ 135.790956222, 34.377471389 ], [ 135.791021417, 34.377573889 ], [ 135.79109258299999, 34.377677611 ], [ 135.791151944, 34.377735694 ], [ 135.791214306, 34.377787611 ], [ 135.79127675, 34.377801306 ], [ 135.791333278, 34.377806333 ], [ 135.79137175, 34.377813222 ], [ 135.791408569, 34.377819828 ], [ 135.791425516, 34.377801023 ], [ 135.791502083000012, 34.377705139 ], [ 135.791534667, 34.377667472 ], [ 135.791599216, 34.377562005 ], [ 135.791665518, 34.37747447 ], [ 135.791692417, 34.377439389 ], [ 135.791743567, 34.377345527 ], [ 135.791790889, 34.377279056 ], [ 135.791858611, 34.377212389 ], [ 135.79188602799999, 34.377158583 ], [ 135.791925256000013, 34.377055801 ], [ 135.792006328000014, 34.376898315 ], [ 135.792096722, 34.376787333 ], [ 135.792168752, 34.37672957 ], [ 135.792351129, 34.376495081 ], [ 135.792526888999987, 34.376360944 ], [ 135.79269654, 34.37608538 ], [ 135.79273284300001, 34.375862406 ], [ 135.792448917, 34.375846056 ], [ 135.792201917, 34.375806694 ], [ 135.79210680599999, 34.375792556 ], [ 135.791956389, 34.375761194 ], [ 135.79190988900001, 34.375751361 ], [ 135.791770555999989, 34.375721861 ], [ 135.791666666999987, 34.37569825 ], [ 135.791559694, 34.375673917 ], [ 135.79139830599999, 34.375650778 ], [ 135.791390304, 34.375649631 ], [ 135.791323721999987, 34.375640083 ], [ 135.791291726999987, 34.375633693 ], [ 135.79098825, 34.375573083 ], [ 135.790927963, 34.375560575 ], [ 135.790782861, 34.375530472 ], [ 135.79069475, 34.375512194 ], [ 135.79057605599999, 34.375494389 ], [ 135.790509694, 34.375493167 ], [ 135.790459833, 34.375505806 ], [ 135.790374, 34.375527583 ], [ 135.790275388999987, 34.375358083 ], [ 135.790174556000011, 34.375176778 ], [ 135.790123838999989, 34.375086601 ], [ 135.790099833, 34.375043917 ], [ 135.790075806, 34.375 ], [ 135.790051854000012, 34.374956235 ], [ 135.79003366399999, 34.374922999 ], [ 135.789866694000011, 34.37465225 ], [ 135.789743304000012, 34.374540173 ], [ 135.789600029000013, 34.374410035 ], [ 135.789559806, 34.3743735 ], [ 135.7893833, 34.374472861 ], [ 135.789253634, 34.374546524 ], [ 135.789134762, 34.374618659 ], [ 135.78911108299999, 34.374633028 ], [ 135.788970806, 34.374736083 ], [ 135.78882877800001, 34.374825278 ], [ 135.788724444, 34.374869139 ], [ 135.788692083, 34.374875917 ], [ 135.788706158, 34.374896055 ], [ 135.788911181, 34.37523288 ], [ 135.788987722, 34.375354639 ], [ 135.78927902800001, 34.375645972 ], [ 135.789488417, 34.375851 ], [ 135.789440444, 34.375859056 ], [ 135.78936138899999, 34.375888194 ], [ 135.789272965, 34.375931442 ], [ 135.78936552799999, 34.376066361 ], [ 135.789414972, 34.376196694 ], [ 135.789500694, 34.376291778 ], [ 135.789633861, 34.376453333 ], [ 135.789680577000013, 34.376513465 ], [ 135.78972477799999, 34.376570361 ], [ 135.78980461399999, 34.376637857 ] ] ] } },
{ "type": "Feature", "properties": { "A29_001": "29443", "A29_002": "奈良県", "A29_003": "下市町", "A29_004": 11, "A29_005": "工業地域", "A29_006": 60, "A29_007": 200, "A29_008": null }, "geometry": { "type": "Polygon", "coordinates": [ [ [ 135.795833996999988, 34.377064696 ], [ 135.795842056, 34.377059056 ], [ 135.79594747199999, 34.377213333 ], [ 135.796054389, 34.377378111 ], [ 135.796129028, 34.3774915 ], [ 135.79622683299999, 34.377622167 ], [ 135.796256972, 34.377641889 ], [ 135.796352500000012, 34.377687778 ], [ 135.79651280600001, 34.377767833 ], [ 135.796593800000011, 34.377811947 ], [ 135.796798854, 34.377926502 ], [ 135.796839611, 34.377948944 ], [ 135.796912056, 34.378006361 ], [ 135.796945972, 34.378054306 ], [ 135.796951629, 34.378067447 ], [ 135.79697804700001, 34.378128407 ], [ 135.79700672199999, 34.3781845 ], [ 135.797072832999987, 34.378149333 ], [ 135.797126703, 34.378101727 ], [ 135.797200139000012, 34.378032333 ], [ 135.797234806, 34.378005389 ], [ 135.797425476, 34.377904775 ], [ 135.797525639000014, 34.377838611 ], [ 135.79760766699999, 34.377767028 ], [ 135.797638350999989, 34.377668926 ], [ 135.797655028, 34.377614222 ], [ 135.797705638999986, 34.377489556 ], [ 135.797732472, 34.377433917 ], [ 135.797700278, 34.37736425 ], [ 135.79768875, 34.377252361 ], [ 135.797641610999989, 34.376956333 ], [ 135.797642139, 34.376896417 ], [ 135.797642389, 34.37686875 ], [ 135.797666916999987, 34.376810556 ], [ 135.797721722, 34.37676325 ], [ 135.797797639, 34.376710833 ], [ 135.79791036099999, 34.376600861 ], [ 135.79795561099999, 34.376570806 ], [ 135.797959177, 34.376569929 ], [ 135.798081610999986, 34.376539833 ], [ 135.79825388899999, 34.376521583 ], [ 135.798391917, 34.376485139 ], [ 135.798414917, 34.3764615 ], [ 135.798463222, 34.376393722 ], [ 135.798502917, 34.376360611 ], [ 135.798542972, 34.376327222 ], [ 135.798648778, 34.376287583 ], [ 135.798739278, 34.376241556 ], [ 135.798789889, 34.376203833 ], [ 135.798862722, 34.376132222 ], [ 135.79892359199999, 34.376064939 ], [ 135.799036639, 34.375946694 ], [ 135.799124968, 34.375864001 ], [ 135.799249745999987, 34.375762429 ], [ 135.79930747200001, 34.375716 ], [ 135.799456147, 34.375620916 ], [ 135.799585056000012, 34.375545278 ], [ 135.799691639, 34.375482639 ], [ 135.799749917000014, 34.375437861 ], [ 135.79979975, 34.375383528 ], [ 135.79984577799999, 34.37531575 ], [ 135.799884889, 34.375240944 ], [ 135.799933261, 34.375134498 ], [ 135.800027418000013, 34.374994718 ], [ 135.800068568, 34.374966462 ], [ 135.799939032999987, 34.374884167 ], [ 135.799684332999988, 34.374736083 ], [ 135.79963398699999, 34.37471209 ], [ 135.799405949, 34.374597405 ], [ 135.79927527800001, 34.374583528 ], [ 135.798994851, 34.374572905 ], [ 135.79842413599999, 34.374549459 ], [ 135.798307028000011, 34.374575056 ], [ 135.79812695699999, 34.374795236 ], [ 135.798029608, 34.374908585 ], [ 135.797819417999989, 34.375063115 ], [ 135.797275848999988, 34.375518376 ], [ 135.796941927, 34.375812381 ], [ 135.79662920199999, 34.376128951 ], [ 135.796417706, 34.376353768 ], [ 135.796321906, 34.376459306 ], [ 135.796264274, 34.376522796 ], [ 135.796216861, 34.376575028 ], [ 135.796168647, 34.376632995 ], [ 135.796115375, 34.376697043 ], [ 135.79600849799999, 34.376849741 ], [ 135.79591158299999, 34.376989972 ], [ 135.79584069, 34.37705825 ], [ 135.795833996999988, 34.377064696 ] ] ] } },
{ "type": "Feature", "properties": { "A29_001": "29443", "A29_002": "奈良県", "A29_003": "下市町", "A29_004": 8, "A29_005": "近隣商業地域", "A29_006": 80, "A29_007": 200, "A29_008": null }, "geometry": { "type": "Polygon", "coordinates": [ [ [ 135.789086139, 34.370133556 ], [ 135.789081884000012, 34.370193026 ], [ 135.789054585, 34.370334777 ], [ 135.78900372699999, 34.370526183 ], [ 135.78891877800001, 34.3707855 ], [ 135.788838139, 34.370996306 ], [ 135.788421285, 34.371023741 ], [ 135.788400634999988, 34.371100091 ], [ 135.788632455999988, 34.371364669 ], [ 135.788722113, 34.371514756 ], [ 135.788448017, 34.371833329 ], [ 135.788361462000012, 34.371933067 ], [ 135.788224353, 34.372116207 ], [ 135.788058366, 34.372342532 ], [ 135.78793918, 34.372548065 ], [ 135.787902761, 34.372729888 ], [ 135.787884037, 34.373025047 ], [ 135.787906907, 34.373224863 ], [ 135.787945863, 34.373463469 ], [ 135.787986393000011, 34.373622659 ], [ 135.78797321499999, 34.373742404 ], [ 135.787898227, 34.373815232 ], [ 135.78780807699999, 34.373913473 ], [ 135.787692642, 34.374056396 ], [ 135.787526748, 34.374243957 ], [ 135.78743269, 34.374356761 ], [ 135.78736071, 34.374488171 ], [ 135.787288313, 34.374675895 ], [ 135.787287996, 34.374801127 ], [ 135.787300667000011, 34.374946361 ], [ 135.78742780799999, 34.374974311 ], [ 135.787452717, 34.375078715 ], [ 135.787533035, 34.375314411 ], [ 135.787561444, 34.375385251 ], [ 135.787685743, 34.375365366 ], [ 135.787793529999988, 34.37567917 ], [ 135.78787317199999, 34.375908366 ], [ 135.787944384000014, 34.376127629 ], [ 135.787913761, 34.376212574 ], [ 135.78787656, 34.376347433 ], [ 135.78781265500001, 34.376376394 ], [ 135.78780621300001, 34.376448313 ], [ 135.787727862, 34.376488062 ], [ 135.787677331, 34.376561027 ], [ 135.787621301, 34.376675726 ], [ 135.787385524, 34.377120341 ], [ 135.787295934000014, 34.377126551 ], [ 135.78727242, 34.37735223 ], [ 135.78728711299999, 34.377412073 ], [ 135.787253956, 34.377419031 ], [ 135.787244890000011, 34.377448832 ], [ 135.78726185, 34.37748376 ], [ 135.787274997999987, 34.37763077 ], [ 135.787258517, 34.37774852 ], [ 135.787248973, 34.377967661 ], [ 135.78727885699999, 34.378238305 ], [ 135.78734126399999, 34.378268977 ], [ 135.787397848000012, 34.378298275 ], [ 135.787327413000014, 34.378632831 ], [ 135.787646373, 34.378675022 ], [ 135.787789562, 34.378376586 ], [ 135.787661914000012, 34.378310543 ], [ 135.78766445, 34.37815914 ], [ 135.78770835, 34.37799797 ], [ 135.78782673, 34.37773297 ], [ 135.78793169, 34.3777183 ], [ 135.78806497, 34.37762942 ], [ 135.78814968, 34.37752561 ], [ 135.78838219, 34.377095978 ], [ 135.788596866, 34.376817557 ], [ 135.78888722, 34.376475158 ], [ 135.788704724000013, 34.376112563 ], [ 135.788607624, 34.376113886 ], [ 135.788618194, 34.375969479 ], [ 135.78835048900001, 34.375402298 ], [ 135.788058392000011, 34.37483079 ], [ 135.78805229299999, 34.374482765 ], [ 135.788140492, 34.374488281 ], [ 135.78841649200001, 34.374494809 ], [ 135.788497707, 34.374512326 ], [ 135.788485541999989, 34.37442974 ], [ 135.788483705, 34.374087583 ], [ 135.788527757, 34.374087659 ], [ 135.788558365, 34.374071312 ], [ 135.788579129999988, 34.374036313 ], [ 135.788574734, 34.373996797 ], [ 135.788554102, 34.373978871 ], [ 135.78853343599999, 34.373974363 ], [ 135.788538574, 34.373956964 ], [ 135.788555968999987, 34.373951293 ], [ 135.788583843, 34.373949851 ], [ 135.788614411, 34.373949158 ], [ 135.788656550000013, 34.373940114 ], [ 135.788666627, 34.373920176 ], [ 135.788672209999987, 34.373893886 ], [ 135.788661396, 34.373855314 ], [ 135.788647077, 34.3738292 ], [ 135.78860398399999, 34.373805271 ], [ 135.78854744899999, 34.373764175 ], [ 135.788563917, 34.373550444 ], [ 135.78862184799999, 34.373442403 ], [ 135.788694807000013, 34.373275644 ], [ 135.788775477, 34.373152844 ], [ 135.788857138999987, 34.3730465 ], [ 135.788858889000011, 34.372981167 ], [ 135.788844944, 34.372965194 ], [ 135.788738722, 34.372941972 ], [ 135.78868647199999, 34.372925972 ], [ 135.788508971999988, 34.372950532 ], [ 135.788465661, 34.372861313 ], [ 135.78846400899999, 34.372803166 ], [ 135.788462173999989, 34.372761424 ], [ 135.788484517, 34.372691386 ], [ 135.78852280800001, 34.372479749 ], [ 135.788620807, 34.372476937 ], [ 135.788745307, 34.37230272 ], [ 135.788592525000013, 34.372283075 ], [ 135.788738486, 34.372155113 ], [ 135.78884133, 34.37212723 ], [ 135.78881175699999, 34.371974844 ], [ 135.7888245, 34.371912249 ], [ 135.788901949, 34.371858712 ], [ 135.78899521400001, 34.37169931 ], [ 135.789228423999987, 34.37155331 ], [ 135.789402693999989, 34.37144329 ], [ 135.78953608399999, 34.37130985 ], [ 135.78962336399999, 34.37119331 ], [ 135.78972074399999, 34.37113196 ], [ 135.789836033, 34.37107274 ], [ 135.78990026299999, 34.37096889 ], [ 135.790036393, 34.37076121 ], [ 135.790235991, 34.370446171 ], [ 135.790378479999987, 34.37026602 ], [ 135.790504723, 34.370111186 ], [ 135.790804871, 34.370156425 ], [ 135.790851655000012, 34.370141597 ], [ 135.790929748999986, 34.369681803 ], [ 135.79110995, 34.369663469 ], [ 135.79110470099999, 34.369605316 ], [ 135.791031118, 34.369551519 ], [ 135.79107775, 34.369477694 ], [ 135.791222075, 34.369470736 ], [ 135.79131013599999, 34.369294053 ], [ 135.791256616, 34.369247767 ], [ 135.791289097, 34.369200114 ], [ 135.791332391999987, 34.369142044 ], [ 135.791433202, 34.369091526 ], [ 135.79152432399999, 34.369050379 ], [ 135.7915175, 34.368969333 ], [ 135.791651973, 34.36874349 ], [ 135.79173375, 34.368473472 ], [ 135.791816528, 34.368435444 ], [ 135.791817955999988, 34.368400326 ], [ 135.791858749999989, 34.368281889 ], [ 135.79194030799999, 34.3681461 ], [ 135.792065763000011, 34.367763493 ], [ 135.792096843, 34.367554824 ], [ 135.792233495, 34.367550583 ], [ 135.79226881, 34.36743367 ], [ 135.792205324, 34.367309015 ], [ 135.79219538000001, 34.36712379 ], [ 135.792175574, 34.366979482 ], [ 135.792172408999988, 34.366805045 ], [ 135.792185638, 34.366544165 ], [ 135.79216627, 34.36647769 ], [ 135.792165043000011, 34.366147559 ], [ 135.791619035999986, 34.365925982 ], [ 135.791623789, 34.366234935 ], [ 135.791359478, 34.366193896 ], [ 135.791248061, 34.366172834 ], [ 135.79113818, 34.366257626 ], [ 135.791166602, 34.366396325 ], [ 135.791166166000011, 34.366572247 ], [ 135.791190441, 34.366933079 ], [ 135.79116095, 34.367225239 ], [ 135.791136247, 34.367410149 ], [ 135.79112437500001, 34.367499619 ], [ 135.791113316, 34.367582967 ], [ 135.791058920000012, 34.367767742 ], [ 135.79100803099999, 34.367988303 ], [ 135.79095726700001, 34.368158176 ], [ 135.79081993599999, 34.368435243 ], [ 135.790659154999986, 34.368675682 ], [ 135.790649266, 34.368700037 ], [ 135.790603333, 34.368777772 ], [ 135.790448481, 34.368869941 ], [ 135.790145841, 34.36910498 ], [ 135.789897324, 34.369265568 ], [ 135.789735159, 34.369405431 ], [ 135.789418043000012, 34.369676224 ], [ 135.789219738000014, 34.369887586 ], [ 135.78906333, 34.370017014 ], [ 135.789079447, 34.370066856 ], [ 135.789086139, 34.370133556 ] ] ] } },
{ "type": "Feature", "properties": { "A29_001": "29443", "A29_002": "奈良県", "A29_003": "下市町", "A29_004": 1, "A29_005": "第一種低層住居専用地域", "A29_006": 50, "A29_007": 80, "A29_008": null }, "geometry": { "type": "Polygon", "coordinates": [ [ [ 135.797959177, 34.376569929 ], [ 135.79795561099999, 34.376570806 ], [ 135.79791036099999, 34.376600861 ], [ 135.797797639, 34.376710833 ], [ 135.797721722, 34.37676325 ], [ 135.797666916999987, 34.376810556 ], [ 135.797642389, 34.37686875 ], [ 135.797642139, 34.376896417 ], [ 135.797641610999989, 34.376956333 ], [ 135.79768875, 34.377252361 ], [ 135.797700278, 34.37736425 ], [ 135.797732472, 34.377433917 ], [ 135.797705638999986, 34.377489556 ], [ 135.797655028, 34.377614222 ], [ 135.797638350999989, 34.377668926 ], [ 135.79763452899999, 34.377681145 ], [ 135.79760766699999, 34.377767028 ], [ 135.797525639000014, 34.377838611 ], [ 135.797425476, 34.377904775 ], [ 135.797234806, 34.378005389 ], [ 135.797200139000012, 34.378032333 ], [ 135.797126703, 34.378101727 ], [ 135.797072832999987, 34.378149333 ], [ 135.79700672199999, 34.3781845 ], [ 135.797087291999986, 34.378303726 ], [ 135.797109333, 34.378336056 ], [ 135.797152028, 34.378445333 ], [ 135.797195111, 34.378526472 ], [ 135.797217796000012, 34.378549373 ], [ 135.797254306000013, 34.378575833 ], [ 135.797320082999988, 34.378582778 ], [ 135.797477917, 34.378582028 ], [ 135.797547193000014, 34.378596306 ], [ 135.797595639, 34.378610917 ], [ 135.797616839, 34.378613419 ], [ 135.79775022199999, 34.378649694 ], [ 135.797903111000011, 34.378649694 ], [ 135.797951528, 34.378628222 ], [ 135.798135911, 34.378844097 ], [ 135.798177055999986, 34.378862972 ], [ 135.798202753999988, 34.378876495 ], [ 135.79837286599999, 34.378966013 ], [ 135.798513082999989, 34.379057306 ], [ 135.79853863400001, 34.379069174 ], [ 135.798586827, 34.379091556 ], [ 135.798630221, 34.37911171 ], [ 135.79866401000001, 34.37911869 ], [ 135.798731139000012, 34.379115167 ], [ 135.798740138999989, 34.379116639 ], [ 135.799117560000013, 34.379091705 ], [ 135.799241139, 34.379138083 ], [ 135.799286556, 34.3791835 ], [ 135.799335660999986, 34.379210014 ], [ 135.799471764, 34.379237927 ], [ 135.799599758999989, 34.379252018 ], [ 135.799803290999989, 34.379109228 ], [ 135.799893626999989, 34.379071272 ], [ 135.800012056000014, 34.378977476 ], [ 135.800037167, 34.378952972 ], [ 135.80005663899999, 34.378924139 ], [ 135.800110311, 34.378702099 ], [ 135.800200561, 34.378306429 ], [ 135.80027302799999, 34.37799125 ], [ 135.80032456699999, 34.377755408 ], [ 135.800336077, 34.377504466 ], [ 135.80034745399999, 34.377316462 ], [ 135.800348472, 34.377266056 ], [ 135.800447553999987, 34.377182962 ], [ 135.80051262, 34.3771263 ], [ 135.800579244, 34.377002781 ], [ 135.80061362699999, 34.376910404 ], [ 135.800651405999986, 34.376805392 ], [ 135.80072850799999, 34.37671842 ], [ 135.800805639, 34.376633444 ], [ 135.800959111, 34.376527083 ], [ 135.801114285000011, 34.376403066 ], [ 135.80118825, 34.376314417 ], [ 135.801215162, 34.376277791 ], [ 135.801359432999988, 34.376079784 ], [ 135.801597611, 34.375723639 ], [ 135.801757278, 34.375480861 ], [ 135.801872944, 34.375355583 ], [ 135.801891052, 34.375345016 ], [ 135.80195938899999, 34.375305139 ], [ 135.802068853, 34.375255183 ], [ 135.802407944, 34.375093361 ], [ 135.80248425, 34.375028861 ], [ 135.802383787999986, 34.374934148 ], [ 135.802180873999987, 34.374820514 ], [ 135.80209919399999, 34.374758833 ], [ 135.80208876399999, 34.374755664 ], [ 135.80198475, 34.374724056 ], [ 135.801897252, 34.374711653 ], [ 135.801769377999989, 34.374709524 ], [ 135.801501464000012, 34.374710581 ], [ 135.801377374, 34.374720815 ], [ 135.80122628399999, 34.374742933 ], [ 135.80106785800001, 34.374826164 ], [ 135.80095825, 34.374871194 ], [ 135.800832917, 34.374963111 ], [ 135.800765778, 34.375 ], [ 135.80064275, 34.375067611 ], [ 135.800579, 34.375085611 ], [ 135.800435278, 34.375086528 ], [ 135.800424682999989, 34.37508522 ], [ 135.800347778, 34.375075722 ], [ 135.800253403999989, 34.375041102 ], [ 135.800239721999986, 34.375036083 ], [ 135.800229344, 34.375032265 ], [ 135.80015475799999, 34.375004826 ], [ 135.800143915, 34.375 ], [ 135.800068568, 34.374966462 ], [ 135.800027418000013, 34.374994718 ], [ 135.799933261, 34.375134498 ], [ 135.799884889, 34.375240944 ], [ 135.79984577799999, 34.37531575 ], [ 135.79979975, 34.375383528 ], [ 135.799749917000014, 34.375437861 ], [ 135.799691639, 34.375482639 ], [ 135.799585056000012, 34.375545278 ], [ 135.799456147, 34.375620916 ], [ 135.79930747200001, 34.375716 ], [ 135.79927714199999, 34.375740395 ], [ 135.799249745999987, 34.375762429 ], [ 135.799124968, 34.375864001 ], [ 135.799036639, 34.375946694 ], [ 135.79892359199999, 34.376064939 ], [ 135.798862722, 34.376132222 ], [ 135.798789889, 34.376203833 ], [ 135.798739278, 34.376241556 ], [ 135.798648778, 34.376287583 ], [ 135.798542972, 34.376327222 ], [ 135.798502917, 34.376360611 ], [ 135.798463222, 34.376393722 ], [ 135.798414917, 34.3764615 ], [ 135.798391917, 34.376485139 ], [ 135.79825388899999, 34.376521583 ], [ 135.798081610999986, 34.376539833 ], [ 135.798022543, 34.376554353 ], [ 135.797991238, 34.376562048 ], [ 135.797959177, 34.376569929 ] ] ] } },
{ "type": "Feature", "properties": { "A29_001": "29443", "A29_002": "奈良県", "A29_003": "下市町", "A29_004": 5, "A29_005": "第一種住居地域", "A29_006": 60, "A29_007": 200, "A29_008": null }, "geometry": { "type": "Polygon", "coordinates": [ [ [ 135.789086139, 34.370133556 ], [ 135.789079447, 34.370066856 ], [ 135.78906333, 34.370017014 ], [ 135.789219738000014, 34.369887586 ], [ 135.789418043000012, 34.369676224 ], [ 135.789735159, 34.369405431 ], [ 135.789897324, 34.369265568 ], [ 135.790145841, 34.36910498 ], [ 135.790448481, 34.368869941 ], [ 135.790603333, 34.368777772 ], [ 135.790649266, 34.368700037 ], [ 135.790659154999986, 34.368675682 ], [ 135.79081993599999, 34.368435243 ], [ 135.79095726700001, 34.368158176 ], [ 135.79100803099999, 34.367988303 ], [ 135.791058920000012, 34.367767742 ], [ 135.791113316, 34.367582967 ], [ 135.79112437500001, 34.367499619 ], [ 135.791136247, 34.367410149 ], [ 135.79116095, 34.367225239 ], [ 135.791190441, 34.366933079 ], [ 135.791166166000011, 34.366572247 ], [ 135.791166602, 34.366396325 ], [ 135.79113818, 34.366257626 ], [ 135.791248061, 34.366172834 ], [ 135.791359478, 34.366193896 ], [ 135.791623789, 34.366234935 ], [ 135.791619035999986, 34.365925982 ], [ 135.792165043000011, 34.366147559 ], [ 135.79216627, 34.36647769 ], [ 135.792185638, 34.366544165 ], [ 135.792172408999988, 34.366805045 ], [ 135.792175574, 34.366979482 ], [ 135.79219538000001, 34.36712379 ], [ 135.792205324, 34.367309015 ], [ 135.79226881, 34.36743367 ], [ 135.792233495, 34.367550583 ], [ 135.792096843, 34.367554824 ], [ 135.792065763000011, 34.367763493 ], [ 135.79194030799999, 34.3681461 ], [ 135.791858749999989, 34.368281889 ], [ 135.791817955999988, 34.368400326 ], [ 135.791816528, 34.368435444 ], [ 135.79173375, 34.368473472 ], [ 135.791651973, 34.36874349 ], [ 135.7915175, 34.368969333 ], [ 135.79152432399999, 34.369050379 ], [ 135.791433202, 34.369091526 ], [ 135.791332391999987, 34.369142044 ], [ 135.791289097, 34.369200114 ], [ 135.791256616, 34.369247767 ], [ 135.79131013599999, 34.369294053 ], [ 135.791222075, 34.369470736 ], [ 135.79107775, 34.369477694 ], [ 135.791031118, 34.369551519 ], [ 135.79110470099999, 34.369605316 ], [ 135.79110995, 34.369663469 ], [ 135.790929748999986, 34.369681803 ], [ 135.790851655000012, 34.370141597 ], [ 135.790804871, 34.370156425 ], [ 135.790504723, 34.370111186 ], [ 135.790378479999987, 34.37026602 ], [ 135.790235991, 34.370446171 ], [ 135.790036393, 34.37076121 ], [ 135.78990026299999, 34.37096889 ], [ 135.789836033, 34.37107274 ], [ 135.78972074399999, 34.37113196 ], [ 135.78962336399999, 34.37119331 ], [ 135.78953608399999, 34.37130985 ], [ 135.789402693999989, 34.37144329 ], [ 135.789228423999987, 34.37155331 ], [ 135.78899521400001, 34.37169931 ], [ 135.788901949, 34.371858712 ], [ 135.7888245, 34.371912249 ], [ 135.78881175699999, 34.371974844 ], [ 135.78884133, 34.37212723 ], [ 135.788738486, 34.372155113 ], [ 135.788592525000013, 34.372283075 ], [ 135.788745307, 34.37230272 ], [ 135.788620807, 34.372476937 ], [ 135.78852280800001, 34.372479749 ], [ 135.788484517, 34.372691386 ], [ 135.788462173999989, 34.372761424 ], [ 135.78846400899999, 34.372803166 ], [ 135.788465661, 34.372861313 ], [ 135.788508971999988, 34.372950532 ], [ 135.78868647199999, 34.372925972 ], [ 135.788590147, 34.372871964 ], [ 135.788556067, 34.372839106 ], [ 135.788552587, 34.372792883 ], [ 135.788554530999988, 34.372734743 ], [ 135.788572691000013, 34.372663212 ], [ 135.788699911, 34.372480055 ], [ 135.78875399399999, 34.372423496 ], [ 135.78879361, 34.37239971 ], [ 135.788838631, 34.372371461 ], [ 135.788874556, 34.372441028 ], [ 135.788911194, 34.372452469 ], [ 135.788945401, 34.37245588 ], [ 135.78898645000001, 34.37241912 ], [ 135.788981629, 34.372349345 ], [ 135.789029416, 34.372362536 ], [ 135.789047259, 34.372347967 ], [ 135.789010729000012, 34.372216708 ], [ 135.789009943999986, 34.372171235 ], [ 135.7890027, 34.37205856 ], [ 135.788975341, 34.371988544 ], [ 135.788979180000013, 34.371891644 ], [ 135.789038764999987, 34.371791859 ], [ 135.789139643, 34.371715998 ], [ 135.789225751, 34.371643044 ], [ 135.789382681, 34.371592675 ], [ 135.789503262000011, 34.371546665 ], [ 135.78966176099999, 34.371436613 ], [ 135.789816640999987, 34.3713355 ], [ 135.789915627, 34.37121475 ], [ 135.789973497, 34.371162829 ], [ 135.790180283000012, 34.371155729 ], [ 135.790266645, 34.371132023 ], [ 135.79034233499999, 34.371062082 ], [ 135.79044838199999, 34.371075682 ], [ 135.790536491000012, 34.371072851 ], [ 135.790522207, 34.371032573 ], [ 135.790498963, 34.37098159 ], [ 135.790424882999986, 34.37093691 ], [ 135.790125923, 34.37076879 ], [ 135.790494924, 34.370436179 ], [ 135.790678702, 34.370281443 ], [ 135.790892678, 34.370274354 ], [ 135.790955681000014, 34.370244644 ], [ 135.791000867, 34.370149306 ], [ 135.791061054000011, 34.369805018 ], [ 135.791300045000014, 34.369860588 ], [ 135.79128316399999, 34.370142333 ], [ 135.791331643, 34.370169252 ], [ 135.791592347, 34.370169696 ], [ 135.791744609, 34.370216172 ], [ 135.79184867699999, 34.370302819 ], [ 135.79191345000001, 34.37042776 ], [ 135.791960788000011, 34.370520274 ], [ 135.79206541799999, 34.370635024 ], [ 135.792043505, 34.370768302 ], [ 135.79209726799999, 34.370839955 ], [ 135.792127738, 34.370878769 ], [ 135.792071875, 34.370929364 ], [ 135.79199978299999, 34.370999312 ], [ 135.791957466000014, 34.37102533 ], [ 135.791942076, 34.371068539 ], [ 135.79196905, 34.371109885 ], [ 135.792009427000011, 34.371142464 ], [ 135.79210144699999, 34.371176564 ], [ 135.792247296, 34.371176814 ], [ 135.792349696, 34.371155774 ], [ 135.792462416, 34.371102924 ], [ 135.792576661, 34.371018584 ], [ 135.79271108399999, 34.37095441 ], [ 135.792783711, 34.370933527 ], [ 135.792873829, 34.370907615 ], [ 135.792954884000011, 34.370848117 ], [ 135.793034336, 34.370709601 ], [ 135.793177692, 34.370721227 ], [ 135.793243233999988, 34.370675757 ], [ 135.793307596, 34.370649418 ], [ 135.793368745, 34.370632808 ], [ 135.793470106, 34.370575058 ], [ 135.79355963399999, 34.370460946 ], [ 135.79366780399999, 34.370304162 ], [ 135.79369628399999, 34.370166292 ], [ 135.793686274, 34.370072932 ], [ 135.79365187, 34.36998516 ], [ 135.793618966, 34.36979173 ], [ 135.793647236, 34.36974511 ], [ 135.79373382599999, 34.369620894 ], [ 135.793692502999988, 34.369565725 ], [ 135.793571356, 34.369478305 ], [ 135.793496685, 34.369463252 ], [ 135.793348224999988, 34.369486332 ], [ 135.79301301699999, 34.36960825 ], [ 135.792664768, 34.36972223 ], [ 135.792470108, 34.36980252 ], [ 135.79239642499999, 34.369830399 ], [ 135.79231194, 34.369822801 ], [ 135.792252706999989, 34.369782447 ], [ 135.792206889999989, 34.36971751 ], [ 135.792175844000013, 34.369600431 ], [ 135.792194122000012, 34.369479701 ], [ 135.792224761999989, 34.369407716 ], [ 135.792282833, 34.369345444 ], [ 135.792352083, 34.369220056 ], [ 135.792510889, 34.368697444 ], [ 135.792594629, 34.368488865 ], [ 135.792529024, 34.36830341 ], [ 135.792533564, 34.368171294 ], [ 135.792435524000012, 34.367828228 ], [ 135.792427119, 34.367591165 ], [ 135.792440371999987, 34.367320595 ], [ 135.79240779, 34.36710399 ], [ 135.79236988, 34.36691297 ], [ 135.79238834, 34.36669236 ], [ 135.7923965, 34.3664993 ], [ 135.792363560000013, 34.36636559 ], [ 135.79228462, 34.36621269 ], [ 135.792213083, 34.366076583 ], [ 135.792244694, 34.365965167 ], [ 135.792322028, 34.365852139 ], [ 135.792345119, 34.365803368 ], [ 135.792426861, 34.365630722 ], [ 135.792548256, 34.365636043 ], [ 135.792585093000014, 34.365591085 ], [ 135.792612356, 34.365543463 ], [ 135.792676586, 34.365397918 ], [ 135.79267883599999, 34.365237955 ], [ 135.792699776, 34.365042785 ], [ 135.792736026, 34.364871005 ], [ 135.79277720799999, 34.364633515 ], [ 135.79288505299999, 34.364551491 ], [ 135.793018316, 34.364521405 ], [ 135.793233195999989, 34.364536625 ], [ 135.79340709600001, 34.364566615 ], [ 135.793458386, 34.364517905 ], [ 135.793330696, 34.364420095 ], [ 135.793366756000012, 34.364326805 ], [ 135.793277286, 34.364292705 ], [ 135.793173379, 34.364108936 ], [ 135.793301778999989, 34.363913966 ], [ 135.793355115999987, 34.363855775 ], [ 135.79340383600001, 34.363809185 ], [ 135.79341722, 34.363720838 ], [ 135.793525921999986, 34.363670705 ], [ 135.793545036000012, 34.363609985 ], [ 135.793550415999988, 34.363506035 ], [ 135.79354241199999, 34.363457548 ], [ 135.793538059000014, 34.363439706 ], [ 135.793344507, 34.363411754 ], [ 135.793353346, 34.363344371 ], [ 135.793358500000011, 34.363284722 ], [ 135.793389787, 34.363278755 ], [ 135.793456437, 34.363225825 ], [ 135.793510477000012, 34.363100735 ], [ 135.793508317, 34.362937365 ], [ 135.793452787, 34.362627515 ], [ 135.793371017, 34.362591305 ], [ 135.79338145700001, 34.362504335 ], [ 135.793453317, 34.362411105 ], [ 135.79357378, 34.362280971 ], [ 135.79365872, 34.362071071 ], [ 135.79373297, 34.362049981 ], [ 135.79387118, 34.362024751 ], [ 135.79395574, 34.361969731 ], [ 135.793978939999988, 34.361901881 ], [ 135.793942507999986, 34.361781876 ], [ 135.793907058, 34.361728068 ], [ 135.793855745, 34.361671655 ], [ 135.793890556, 34.361589583 ], [ 135.793971338, 34.361598758 ], [ 135.794119075999987, 34.361402148 ], [ 135.794283517, 34.36141037 ], [ 135.794389058, 34.361313039 ], [ 135.794507068, 34.361179569 ], [ 135.794578978, 34.361065119 ], [ 135.794709618000013, 34.361001689 ], [ 135.79482735799999, 34.360978549 ], [ 135.794899138, 34.360919259 ], [ 135.794891758, 34.360798319 ], [ 135.794960793, 34.360643511 ], [ 135.794975918, 34.360497619 ], [ 135.794788853999989, 34.360436659 ], [ 135.79501167399999, 34.360075546 ], [ 135.795117495999989, 34.359894317 ], [ 135.795221615, 34.359756782 ], [ 135.79542196700001, 34.359656556 ], [ 135.795726535999989, 34.359604027 ], [ 135.795918586, 34.359536447 ], [ 135.79610814599999, 34.359432807 ], [ 135.796279886, 34.359297307 ], [ 135.79639770599999, 34.359240217 ], [ 135.79656660500001, 34.359221407 ], [ 135.796668935000014, 34.359221577 ], [ 135.79678902500001, 34.359285417 ], [ 135.796926985, 34.359362027 ], [ 135.79703435499999, 34.359396157 ], [ 135.79720565400001, 34.359443117 ], [ 135.79740654599999, 34.359477054 ], [ 135.797559616, 34.3595647 ], [ 135.79772216399999, 34.359694733 ], [ 135.797767599999986, 34.35981451 ], [ 135.797852535, 34.359926671 ], [ 135.798008474999989, 34.359979961 ], [ 135.798218144, 34.360022741 ], [ 135.798205244, 34.360073641 ], [ 135.79809514499999, 34.360109531 ], [ 135.797916055, 34.360111351 ], [ 135.797913305, 34.360187721 ], [ 135.797982305, 34.360221781 ], [ 135.798168944, 34.360270891 ], [ 135.798314584, 34.360351751 ], [ 135.798388764, 34.360351871 ], [ 135.798457914000011, 34.360324411 ], [ 135.798473374, 34.360277761 ], [ 135.798435164000011, 34.360209801 ], [ 135.798598590000012, 34.360061524 ], [ 135.79869786099999, 34.360119194 ], [ 135.798885332999987, 34.360250861 ], [ 135.798990702999987, 34.360038448 ], [ 135.79904035199999, 34.359974971 ], [ 135.799251609, 34.359767429 ], [ 135.799159185, 34.359690478 ], [ 135.79900525299999, 34.359700008 ], [ 135.798961315000014, 34.359641161 ], [ 135.798859365999988, 34.359541022 ], [ 135.798673138999987, 34.359646444 ], [ 135.798606839, 34.359646537 ], [ 135.79841825, 34.359643972 ], [ 135.798358, 34.359618444 ], [ 135.798280417, 34.359603167 ], [ 135.79823525399999, 34.359587719 ], [ 135.798147, 34.359655361 ], [ 135.798038448999989, 34.359579981 ], [ 135.797773135, 34.35941344 ], [ 135.79759771799999, 34.359323109 ], [ 135.79746372, 34.359272571 ], [ 135.797550242, 34.359146921 ], [ 135.79741615399999, 34.359133458 ], [ 135.79743025, 34.359000222 ], [ 135.797403886000012, 34.358874453 ], [ 135.797365891, 34.358735711 ], [ 135.797403534000011, 34.358738185 ], [ 135.797442913, 34.358721498 ], [ 135.797443746, 34.358615108 ], [ 135.79741908599999, 34.358499082 ], [ 135.79733485599999, 34.358418322 ], [ 135.797222336, 34.358396922 ], [ 135.797012467, 34.358432642 ], [ 135.797109533999986, 34.358598626 ], [ 135.796980539, 34.35855252 ], [ 135.796710749999988, 34.358540028 ], [ 135.796695833, 34.358551194 ], [ 135.79669954900001, 34.3586033 ], [ 135.796632068, 34.358605817 ], [ 135.79662115799999, 34.358495234 ], [ 135.79662753, 34.358175773 ], [ 135.79661819399999, 34.357954944 ], [ 135.796628333, 34.357885889 ], [ 135.796645222, 34.357821083 ], [ 135.796659223, 34.357709214 ], [ 135.796665539, 34.357657963 ], [ 135.796667194, 34.357611167 ], [ 135.796650306, 34.357575944 ], [ 135.7966165, 34.357515361 ], [ 135.796555667, 34.357482944 ], [ 135.79651854, 34.357445923 ], [ 135.796483177999988, 34.357410663 ], [ 135.796360061, 34.357337617 ], [ 135.79652085399999, 34.35717635 ], [ 135.796605174, 34.3572168 ], [ 135.796692224, 34.35718937 ], [ 135.79677426399999, 34.35711737 ], [ 135.796857128999989, 34.356979333 ], [ 135.796863803, 34.356860172 ], [ 135.796817661, 34.356793889 ], [ 135.796768329, 34.356726276 ], [ 135.79684437, 34.356572903 ], [ 135.79687529, 34.356481723 ], [ 135.79685238, 34.356432883 ], [ 135.796757750000012, 34.356424243 ], [ 135.79662199, 34.356498283 ], [ 135.796642569999989, 34.356447393 ], [ 135.79671445, 34.356345673 ], [ 135.79692447, 34.356242063 ], [ 135.79721655, 34.356062203 ], [ 135.797631177, 34.355782277 ], [ 135.79773149, 34.355729809 ], [ 135.79776507599999, 34.35570603 ], [ 135.797803426, 34.355692852 ], [ 135.797859611, 34.355686167 ], [ 135.797924311, 34.355710441 ], [ 135.797972417000011, 34.355728789 ], [ 135.79807836099999, 34.355778806 ], [ 135.798132528, 34.355817111 ], [ 135.79821208300001, 34.355920611 ], [ 135.798253249999988, 34.355945778 ], [ 135.798362278000013, 34.355962917 ], [ 135.798476141, 34.355962917 ], [ 135.79872477, 34.355983031 ], [ 135.798778128, 34.356036746 ], [ 135.798854629, 34.356093809 ], [ 135.798924828999986, 34.35611511 ], [ 135.79900784599999, 34.356117895 ], [ 135.79909006, 34.356091985 ], [ 135.799332149, 34.356037655 ], [ 135.799520599, 34.356016778 ], [ 135.799745707, 34.356022443 ], [ 135.799971305000014, 34.356009545 ], [ 135.80018893499999, 34.355935635 ], [ 135.800327294999988, 34.355844635 ], [ 135.800445204999988, 34.355749355 ], [ 135.800550334, 34.355643445 ], [ 135.800624754000012, 34.355545965 ], [ 135.80065370299999, 34.355355244 ], [ 135.80062109299999, 34.355085734 ], [ 135.800618762999989, 34.354983894 ], [ 135.800647102999989, 34.354901204 ], [ 135.800698473000011, 34.354818544 ], [ 135.800770253, 34.354755004 ], [ 135.800939273000012, 34.354681014 ], [ 135.80106041499999, 34.354651185 ], [ 135.801209160000013, 34.35460205 ], [ 135.8013426, 34.35454864 ], [ 135.801447262000011, 34.354512396 ], [ 135.801523967, 34.354495553 ], [ 135.801537776, 34.354492521 ], [ 135.801560722, 34.354487483 ], [ 135.80160540599999, 34.354483978 ], [ 135.801646333, 34.354496417 ], [ 135.80169225, 34.3545225 ], [ 135.801786975, 34.354576314 ], [ 135.801862539000012, 34.354619243 ], [ 135.801953857, 34.354671121 ], [ 135.802103705, 34.354739619 ], [ 135.802114614, 34.354745064 ], [ 135.802217825000014, 34.354716657 ], [ 135.802253381000014, 34.354709503 ], [ 135.802354592, 34.354763606 ], [ 135.80250291199999, 34.354785056 ], [ 135.802682092, 34.354740786 ], [ 135.802940721, 34.354633007 ], [ 135.80339931099999, 34.354347317 ], [ 135.803696620000011, 34.354103807 ], [ 135.803599601, 34.354023037 ], [ 135.80338978099999, 34.354043907 ], [ 135.803228620999988, 34.354041527 ], [ 135.802993562000012, 34.353915977 ], [ 135.802888852, 34.353841547 ], [ 135.802771282, 34.353794686 ], [ 135.802605043, 34.353779566 ], [ 135.802400412999987, 34.353766506 ], [ 135.802264903, 34.353736586 ], [ 135.802172933, 34.353685516 ], [ 135.802116874, 34.353592076 ], [ 135.802066223999987, 34.353371336 ], [ 135.80179662399999, 34.353795226 ], [ 135.80142093500001, 34.353643986 ], [ 135.80102981600001, 34.353520295 ], [ 135.80081760600001, 34.353473275 ], [ 135.800623186, 34.353470835 ], [ 135.800472087, 34.353546965 ], [ 135.800328517, 34.353674035 ], [ 135.800179767, 34.353832915 ], [ 135.80009498699999, 34.353983415 ], [ 135.800079417, 34.354076735 ], [ 135.800101756, 34.354365325 ], [ 135.80010217, 34.354643016 ], [ 135.800044611, 34.354901444 ], [ 135.799948139, 34.355049444 ], [ 135.799818861, 34.355170083 ], [ 135.79967994399999, 34.355236056 ], [ 135.799525611, 34.355268222 ], [ 135.79930083299999, 34.355292361 ], [ 135.799015306, 34.355300389 ], [ 135.798825367, 34.355226704 ], [ 135.79861619799999, 34.355124554 ], [ 135.798407556, 34.35503175 ], [ 135.798102881, 34.354914758 ], [ 135.797774460999989, 34.35479082 ], [ 135.797801056, 34.354743972 ], [ 135.797783028, 34.354689639 ], [ 135.797642972, 34.354512722 ], [ 135.797504655000012, 34.354377502 ], [ 135.797461306, 34.354334667 ], [ 135.797396111000012, 34.354283778 ], [ 135.797335111, 34.354258333 ], [ 135.797283184, 34.354243237 ], [ 135.79722, 34.354236389 ], [ 135.797117082999989, 34.354259167 ], [ 135.797071434, 34.354272923 ], [ 135.79702111099999, 34.354311306 ], [ 135.79691923199999, 34.354423733 ], [ 135.79680383199999, 34.354544473 ], [ 135.7967665, 34.354589873 ], [ 135.796706319, 34.35462276 ], [ 135.796514333, 34.354646639 ], [ 135.796290543, 34.354699257 ], [ 135.796106063, 34.354817757 ], [ 135.7959937, 34.35494213 ], [ 135.795869415, 34.355131665 ], [ 135.795686466, 34.355525691 ], [ 135.795519111, 34.355764947 ], [ 135.79540063499999, 34.35589981 ], [ 135.795332639, 34.355949306 ], [ 135.795250146, 34.356030585 ], [ 135.795044366000013, 34.355992566 ], [ 135.794830402, 34.356000152 ], [ 135.794657698, 34.356111089 ], [ 135.794499835000011, 34.356254921 ], [ 135.79442002799999, 34.356370645 ], [ 135.794394345, 34.356502971 ], [ 135.794181129, 34.357071141 ], [ 135.79398168899999, 34.357026251 ], [ 135.793840499, 34.357225451 ], [ 135.793689379, 34.357301581 ], [ 135.79364307899999, 34.357403341 ], [ 135.79356364899999, 34.357454121 ], [ 135.793542909, 34.357562291 ], [ 135.793455658999989, 34.357672471 ], [ 135.79365224899999, 34.357834041 ], [ 135.793336849000013, 34.358134791 ], [ 135.793206469000012, 34.358094261 ], [ 135.793075909, 34.3581301 ], [ 135.792874919000013, 34.35871746 ], [ 135.792777429000012, 34.3588255 ], [ 135.792700137999987, 34.35904602 ], [ 135.79257719899999, 34.35910097 ], [ 135.792566518, 34.35928553 ], [ 135.792724908, 34.35937491 ], [ 135.79274938899999, 34.359500292 ], [ 135.79303586099999, 34.359665472 ], [ 135.79289583799999, 34.36030116 ], [ 135.792846981999986, 34.360464781 ], [ 135.792559856, 34.361033116 ], [ 135.792188419000013, 34.361714588 ], [ 135.792191003, 34.361718946 ], [ 135.792073111, 34.361970528 ], [ 135.792050889, 34.362022806 ], [ 135.792014028000011, 34.3621865 ], [ 135.792030469999986, 34.363110101 ], [ 135.792021518000013, 34.363310604 ], [ 135.791990139, 34.363465306 ], [ 135.791940165999989, 34.363606765 ], [ 135.79184300599999, 34.363770087 ], [ 135.79171625, 34.363925611 ], [ 135.791649691, 34.363850173 ], [ 135.791763788, 34.36355641 ], [ 135.791815667, 34.363457783 ], [ 135.79179263899999, 34.363456583 ], [ 135.791763333, 34.363460806 ], [ 135.791726057, 34.363478885 ], [ 135.791538384, 34.363639159 ], [ 135.79137636499999, 34.363807088 ], [ 135.79124430600001, 34.363773013 ], [ 135.79120064599999, 34.363840823 ], [ 135.791296569, 34.363946563 ], [ 135.791253321999989, 34.364000779 ], [ 135.79116060199999, 34.364044317 ], [ 135.79113479099999, 34.364150203 ], [ 135.791078747, 34.364213666 ], [ 135.790822053999989, 34.364058304 ], [ 135.790373405999986, 34.363822347 ], [ 135.790306945999987, 34.363798887 ], [ 135.79026333600001, 34.363843377 ], [ 135.790201666, 34.363951477 ], [ 135.79013992599999, 34.364085037 ], [ 135.79013195600001, 34.364205957 ], [ 135.790144575999989, 34.364275987 ], [ 135.79027641799999, 34.364355985 ], [ 135.790332497, 34.364438815 ], [ 135.790324607, 34.364525795 ], [ 135.79024758700001, 34.364629625 ], [ 135.790145037, 34.364716425 ], [ 135.790125331000013, 34.364828559 ], [ 135.790008459, 34.36490135 ], [ 135.789916129, 34.3649903 ], [ 135.789857049, 34.36508568 ], [ 135.789835501, 34.36523906 ], [ 135.789852649000011, 34.36540593 ], [ 135.789873859000011, 34.36552489 ], [ 135.789891458999989, 34.36564584 ], [ 135.789975628, 34.36575207 ], [ 135.790244258, 34.36576102 ], [ 135.79031292799999, 34.365832309 ], [ 135.79030390599999, 34.36598973 ], [ 135.79029381699999, 34.366137746 ], [ 135.790220038, 34.366268708 ], [ 135.790138923, 34.36639735 ], [ 135.790065311, 34.366500988 ], [ 135.78990602799999, 34.366487 ], [ 135.78985631899999, 34.36652029 ], [ 135.789744265, 34.366499421 ], [ 135.78985545899999, 34.366338101 ], [ 135.789862238000012, 34.366238141 ], [ 135.789831666999987, 34.366068167 ], [ 135.78972581799999, 34.365945801 ], [ 135.78959663, 34.365841814 ], [ 135.78943067899999, 34.36574477 ], [ 135.789321419, 34.36544331 ], [ 135.789232270000014, 34.36528616 ], [ 135.78917101, 34.36522877 ], [ 135.788813260000012, 34.365067596 ], [ 135.788209991, 34.36491582 ], [ 135.788051884, 34.364926139 ], [ 135.78802298, 34.36483904 ], [ 135.787754059, 34.364619749 ], [ 135.787640933, 34.364522892 ], [ 135.78733747699999, 34.364550172 ], [ 135.786575398, 34.364455439 ], [ 135.786410362999987, 34.364877366 ], [ 135.78637130300001, 34.36496675 ], [ 135.78646612, 34.365009853 ], [ 135.786539309, 34.365074386 ], [ 135.78655636, 34.365156712 ], [ 135.78655616899999, 34.365231852 ], [ 135.786551492, 34.365374967 ], [ 135.786551265000014, 34.365464419 ], [ 135.786546641, 34.365586067 ], [ 135.786542020000013, 34.365712274 ], [ 135.786459627, 34.365868584 ], [ 135.786244275, 34.365899661 ], [ 135.786212741000014, 34.365966683 ], [ 135.78624367399999, 34.366029338 ], [ 135.78610630599999, 34.36609725 ], [ 135.786079472000011, 34.366145306 ], [ 135.786077889000012, 34.366201944 ], [ 135.78609362899999, 34.366411119 ], [ 135.786014249, 34.366436449 ], [ 135.786008227, 34.36672472 ], [ 135.785979827, 34.36683075 ], [ 135.785936166999988, 34.36689432 ], [ 135.785876726, 34.366945619 ], [ 135.785820452, 34.366953458 ], [ 135.785783315, 34.366944794 ], [ 135.785743475, 34.366912945 ], [ 135.78560163899999, 34.366802794 ], [ 135.785392177, 34.366794639 ], [ 135.78516347199999, 34.366687716 ], [ 135.785027872, 34.366691726 ], [ 135.78464967299999, 34.366506476 ], [ 135.784511293, 34.366588976 ], [ 135.784314563, 34.366480426 ], [ 135.784031013, 34.366305955 ], [ 135.783837073, 34.366104055 ], [ 135.783691534000013, 34.365993475 ], [ 135.783568222000014, 34.36599275 ], [ 135.78348466700001, 34.366013556 ], [ 135.783336093, 34.366053984 ], [ 135.783133504, 34.366096445 ], [ 135.78305850000001, 34.366094444 ], [ 135.782975413, 34.366161355 ], [ 135.782877453999987, 34.36623455 ], [ 135.78281875, 34.366285889 ], [ 135.78270534399999, 34.366437274 ], [ 135.782669214, 34.366560264 ], [ 135.782686934, 34.366632424 ], [ 135.782911923, 34.366696474 ], [ 135.783077862999988, 34.366838925 ], [ 135.783723912, 34.367330165 ], [ 135.78399469199999, 34.367496135 ], [ 135.784158482, 34.367483695 ], [ 135.78431732199999, 34.367405466 ], [ 135.784460661999987, 34.367378136 ], [ 135.784626962, 34.367380556 ], [ 135.784751432, 34.367389876 ], [ 135.784860046, 34.36737815 ], [ 135.784898301999988, 34.367330116 ], [ 135.784880601999987, 34.367247336 ], [ 135.784803062, 34.367182079 ], [ 135.784707540999989, 34.367069361 ], [ 135.784655124000011, 34.36696069 ], [ 135.78506699499999, 34.367002462 ], [ 135.785315962, 34.367091106 ], [ 135.78560795300001, 34.367145092 ], [ 135.785826457000013, 34.367247432 ], [ 135.785893089000012, 34.367290643 ], [ 135.786022623, 34.367343113 ], [ 135.786246086, 34.367379254 ], [ 135.786418465, 34.36741001 ], [ 135.786619452, 34.367493781 ], [ 135.78686185699999, 34.367617347 ], [ 135.78711393399999, 34.367705178 ], [ 135.787299055, 34.367749196 ], [ 135.787465078, 34.367768022 ], [ 135.787495302, 34.367784208 ], [ 135.787497535999989, 34.367832394 ], [ 135.787420024999989, 34.367903005 ], [ 135.78735122099999, 34.367958499 ], [ 135.787341489999989, 34.368018067 ], [ 135.78737011199999, 34.368065786 ], [ 135.78744991, 34.368083138 ], [ 135.787529721999988, 34.368095194 ], [ 135.787650762999988, 34.368131585 ], [ 135.78772911199999, 34.368180284 ], [ 135.787899595999988, 34.368330206 ], [ 135.787756046, 34.368431806 ], [ 135.78745081, 34.368307181 ], [ 135.787412100000012, 34.368440771 ], [ 135.787090041, 34.368312911 ], [ 135.78702060099999, 34.368450701 ], [ 135.7873272, 34.368627331 ], [ 135.78741020199999, 34.368631257 ], [ 135.78753942, 34.368682861 ], [ 135.78749033, 34.368873721 ], [ 135.787425133, 34.369041763 ], [ 135.78735795899999, 34.369084018 ], [ 135.78730200199999, 34.369110403 ], [ 135.787204573999986, 34.369118179 ], [ 135.786746827, 34.369069116 ], [ 135.786708137, 34.369189986 ], [ 135.786706068, 34.369231186 ], [ 135.786854448000014, 34.369281761 ], [ 135.786964299, 34.369413041 ], [ 135.787015341999989, 34.36943564 ], [ 135.78714624700001, 34.369450433 ], [ 135.787231222, 34.369457667 ], [ 135.787332885000012, 34.369527557 ], [ 135.787401423, 34.369577993 ], [ 135.78753238499999, 34.369570275 ], [ 135.787693595, 34.369599686 ], [ 135.787648552, 34.369730696 ], [ 135.787579201, 34.370002022 ], [ 135.787530667, 34.370250873 ], [ 135.787517444, 34.370428283 ], [ 135.78747840299999, 34.370711578 ], [ 135.78752124799999, 34.37077973 ], [ 135.787733417, 34.370905343 ], [ 135.787886504, 34.370990353 ], [ 135.78799138, 34.371055384 ], [ 135.788050029, 34.371131874 ], [ 135.788075359, 34.371231624 ], [ 135.788047019, 34.371312194 ], [ 135.78797265899999, 34.371373594 ], [ 135.78781134, 34.371424234 ], [ 135.78765367299999, 34.371480951 ], [ 135.787512813, 34.371531621 ], [ 135.787358893, 34.371690481 ], [ 135.78727679299999, 34.371779451 ], [ 135.787187123, 34.371821721 ], [ 135.787015653, 34.371836281 ], [ 135.786989803000012, 34.371940191 ], [ 135.78717142299999, 34.371959611 ], [ 135.787260903, 34.371991591 ], [ 135.787314513000013, 34.372036231 ], [ 135.787353153, 34.372249995 ], [ 135.787436065, 34.372300456 ], [ 135.78750780499999, 34.372348249 ], [ 135.78750449099999, 34.372395912 ], [ 135.787482041, 34.372432948 ], [ 135.787403657999988, 34.372485777 ], [ 135.787441335000011, 34.372742723 ], [ 135.787427594, 34.372886427 ], [ 135.78733008399999, 34.372992347 ], [ 135.787163534, 34.373087527 ], [ 135.786961294, 34.373123237 ], [ 135.78692003399999, 34.373252586 ], [ 135.78697596399999, 34.373394837 ], [ 135.787203753999989, 34.373369767 ], [ 135.78743900399999, 34.373429587 ], [ 135.78743518600001, 34.373776556 ], [ 135.787348234, 34.373913157 ], [ 135.78721997400001, 34.374038117 ], [ 135.787030136, 34.374316393 ], [ 135.786986334, 34.374454415 ], [ 135.786806007, 34.374535808 ], [ 135.786735378, 34.37467869 ], [ 135.786575723, 34.374662523 ], [ 135.786597701, 34.374812187 ], [ 135.786642187000012, 34.374902305 ], [ 135.78671289, 34.37498882 ], [ 135.786970782, 34.375295389 ], [ 135.787131493, 34.375283181 ], [ 135.78721119, 34.375342905 ], [ 135.787261980000011, 34.375411789 ], [ 135.787200833000014, 34.375476667 ], [ 135.787024919, 34.375499857 ], [ 135.786870197000013, 34.375533916 ], [ 135.786814736, 34.375552004 ], [ 135.786783695999986, 34.375562127 ], [ 135.786567111000011, 34.375667139 ], [ 135.786507194, 34.3756925 ], [ 135.786396639, 34.375712833 ], [ 135.78629948, 34.375703074 ], [ 135.785912212, 34.375593548 ], [ 135.78567603499999, 34.37552428 ], [ 135.785592627999989, 34.375667139 ], [ 135.785605134, 34.375773091 ], [ 135.78555370699999, 34.375900117 ], [ 135.785521383, 34.376051011 ], [ 135.785556273, 34.376146409 ], [ 135.78564108899999, 34.376287437 ], [ 135.785847606, 34.37648566 ], [ 135.785948655999988, 34.376588105 ], [ 135.785885603999986, 34.37663625 ], [ 135.78564304299999, 34.376564322 ], [ 135.785598064, 34.376667525 ], [ 135.785663977000013, 34.376706483 ], [ 135.785795795000013, 34.376784394 ], [ 135.785784205999988, 34.37681024 ], [ 135.785753728, 34.376878214 ], [ 135.785600813, 34.376842314 ], [ 135.785501333000013, 34.377024869 ], [ 135.785497829, 34.377146683 ], [ 135.78543697399999, 34.377212782 ], [ 135.78546739, 34.377268958 ], [ 135.78545092499999, 34.377378322 ], [ 135.78541712099999, 34.377482869 ], [ 135.785383560000014, 34.377492079 ], [ 135.785340464, 34.377482734 ], [ 135.785310286999987, 34.377417799 ], [ 135.785267201000011, 34.377404482 ], [ 135.785227246, 34.377416329 ], [ 135.78514795800001, 34.377613761 ], [ 135.785068198, 34.377785481 ], [ 135.784924458, 34.377961321 ], [ 135.784796558000011, 34.378099835 ], [ 135.784655388, 34.378269315 ], [ 135.784562948, 34.378392215 ], [ 135.784544828, 34.378477045 ], [ 135.78449593799999, 34.378576675 ], [ 135.784334457999989, 34.378684595 ], [ 135.784275398, 34.378765115 ], [ 135.784290424, 34.37886385 ], [ 135.783985669, 34.378999386 ], [ 135.78388655399999, 34.378969815 ], [ 135.78376995, 34.378977554 ], [ 135.783569867000011, 34.379058602 ], [ 135.78339811699999, 34.379174992 ], [ 135.783293127, 34.379200262 ], [ 135.783073137, 34.379172291 ], [ 135.782707394, 34.379179587 ], [ 135.782610022999989, 34.379160877 ], [ 135.782539856, 34.379121028 ], [ 135.782498322, 34.379124927 ], [ 135.782309793, 34.379155047 ], [ 135.782149339999989, 34.379124918 ], [ 135.781789261, 34.379093501 ], [ 135.78156156, 34.37910102 ], [ 135.781413372, 34.379052565 ], [ 135.781418639, 34.378914806 ], [ 135.781412611, 34.378882028 ], [ 135.78134988, 34.37882694 ], [ 135.78138862, 34.37869123 ], [ 135.78126755299999, 34.378592515 ], [ 135.781343611000011, 34.378471028 ], [ 135.781355222, 34.378442333 ], [ 135.781369953, 34.378388558 ], [ 135.781047699999988, 34.378398044 ], [ 135.78095177, 34.37841251 ], [ 135.780801865, 34.37843319 ], [ 135.78068051, 34.37841839 ], [ 135.78047766200001, 34.378435257 ], [ 135.780424720000013, 34.378501494 ], [ 135.78016773499999, 34.378474425 ], [ 135.780036661, 34.378519209 ], [ 135.77980168, 34.378602207 ], [ 135.77962746899999, 34.378653534 ], [ 135.779545899, 34.378699731 ], [ 135.779515118, 34.378866515 ], [ 135.779456, 34.378877002 ], [ 135.779269379999988, 34.37886564 ], [ 135.77899297, 34.37887787 ], [ 135.77863192, 34.3789727 ], [ 135.77833737, 34.379074 ], [ 135.778119550000014, 34.37919029 ], [ 135.77794771, 34.37933849 ], [ 135.777797819999989, 34.37941142 ], [ 135.77747020000001, 34.37944053 ], [ 135.77741674, 34.37933435 ], [ 135.77729147, 34.37929169 ], [ 135.77723279, 34.37922793 ], [ 135.777086950000012, 34.37921918 ], [ 135.776965329, 34.37921014 ], [ 135.776884876, 34.379436418 ], [ 135.77686386900001, 34.379529069 ], [ 135.777248313, 34.379735473 ], [ 135.77750493, 34.37985643 ], [ 135.77770432, 34.37993105 ], [ 135.777908950000011, 34.37996749 ], [ 135.77818025900001, 34.379976367 ], [ 135.778546017999986, 34.379964451 ], [ 135.77897636, 34.37984637 ], [ 135.779980583, 34.379463278 ], [ 135.780683047, 34.379451336 ], [ 135.78135476, 34.37941146 ], [ 135.781841039999989, 34.37938263 ], [ 135.78229632, 34.37946194 ], [ 135.782575189999989, 34.37948365 ], [ 135.782756909999989, 34.37946912 ], [ 135.78306668, 34.37941875 ], [ 135.783443, 34.37935789 ], [ 135.78375556, 34.37921417 ], [ 135.784349920000011, 34.3789479 ], [ 135.784539529999989, 34.37885064 ], [ 135.78473236799999, 34.378684235 ], [ 135.785077980000011, 34.37842937 ], [ 135.78525506, 34.37822813 ], [ 135.785146547000011, 34.378158588 ], [ 135.785432785000012, 34.377823186 ], [ 135.785489332999987, 34.377750139 ], [ 135.78556125, 34.377597694 ], [ 135.78573011099999, 34.377265 ], [ 135.78578457399999, 34.377154173 ], [ 135.78598663299999, 34.377178159 ], [ 135.785973594000012, 34.377281418 ], [ 135.786393690000011, 34.377249048 ], [ 135.786476553, 34.377320696 ], [ 135.786693602000014, 34.377378012 ], [ 135.78679561199999, 34.377456313 ], [ 135.78685608, 34.37755625 ], [ 135.786909361, 34.377652194 ], [ 135.78691712, 34.37770487 ], [ 135.78686991699999, 34.37775437 ], [ 135.786860029, 34.377874848 ], [ 135.78707081499999, 34.37788316 ], [ 135.78704991, 34.37831825 ], [ 135.7871241, 34.37832474 ], [ 135.787158377999987, 34.378239587 ], [ 135.78727885699999, 34.378238305 ], [ 135.787248973, 34.377967661 ], [ 135.787258517, 34.37774852 ], [ 135.787274997999987, 34.37763077 ], [ 135.78726185, 34.37748376 ], [ 135.787244890000011, 34.377448832 ], [ 135.787253956, 34.377419031 ], [ 135.78728711299999, 34.377412073 ], [ 135.78727242, 34.37735223 ], [ 135.787295934000014, 34.377126551 ], [ 135.787385524, 34.377120341 ], [ 135.787621301, 34.376675726 ], [ 135.787677331, 34.376561027 ], [ 135.787727862, 34.376488062 ], [ 135.78780621300001, 34.376448313 ], [ 135.78781265500001, 34.376376394 ], [ 135.78787656, 34.376347433 ], [ 135.787913761, 34.376212574 ], [ 135.787944384000014, 34.376127629 ], [ 135.78787317199999, 34.375908366 ], [ 135.787793529999988, 34.37567917 ], [ 135.787685743, 34.375365366 ], [ 135.787561444, 34.375385251 ], [ 135.787533035, 34.375314411 ], [ 135.787452717, 34.375078715 ], [ 135.78742780799999, 34.374974311 ], [ 135.787300667000011, 34.374946361 ], [ 135.787287996, 34.374801127 ], [ 135.787288313, 34.374675895 ], [ 135.78736071, 34.374488171 ], [ 135.78743269, 34.374356761 ], [ 135.787526748, 34.374243957 ], [ 135.787692642, 34.374056396 ], [ 135.78780807699999, 34.373913473 ], [ 135.787898227, 34.373815232 ], [ 135.78797321499999, 34.373742404 ], [ 135.787986393000011, 34.373622659 ], [ 135.787945863, 34.373463469 ], [ 135.787906907, 34.373224863 ], [ 135.787884037, 34.373025047 ], [ 135.787902761, 34.372729888 ], [ 135.78793918, 34.372548065 ], [ 135.788058366, 34.372342532 ], [ 135.788224353, 34.372116207 ], [ 135.788361462000012, 34.371933067 ], [ 135.788448017, 34.371833329 ], [ 135.788722113, 34.371514756 ], [ 135.788632455999988, 34.371364669 ], [ 135.788400634999988, 34.371100091 ], [ 135.788421285, 34.371023741 ], [ 135.788838139, 34.370996306 ], [ 135.78891877800001, 34.3707855 ], [ 135.78900372699999, 34.370526183 ], [ 135.789054585, 34.370334777 ], [ 135.789081884000012, 34.370193026 ], [ 135.789086139, 34.370133556 ] ] ] } },
{ "type": "Feature", "properties": { "A29_001": "29443", "A29_002": "奈良県", "A29_003": "下市町", "A29_004": 10, "A29_005": "準工業地域", "A29_006": 60, "A29_007": 200, "A29_008": null }, "geometry": { "type": "Polygon", "coordinates": [ [ [ 135.777248313, 34.379735473 ], [ 135.77686386900001, 34.379529069 ], [ 135.776884876, 34.379436418 ], [ 135.776965329, 34.37921014 ], [ 135.777086950000012, 34.37921918 ], [ 135.77723279, 34.37922793 ], [ 135.777100170000011, 34.37905796 ], [ 135.77698752, 34.37907897 ], [ 135.77683657, 34.37906809 ], [ 135.77645038, 34.37899101 ], [ 135.775736810000012, 34.37884967 ], [ 135.77438895, 34.37859048 ], [ 135.773828759999986, 34.37850882 ], [ 135.773391229999987, 34.37849316 ], [ 135.773105929, 34.378514657 ], [ 135.772816678999988, 34.378550187 ], [ 135.772570779, 34.378643087 ], [ 135.772411819000013, 34.378755227 ], [ 135.772313454, 34.378870357 ], [ 135.77227994399999, 34.378986167 ], [ 135.77227654699999, 34.379122045 ], [ 135.77226586, 34.379386433 ], [ 135.772265792000013, 34.379528669 ], [ 135.77224902, 34.379783214 ], [ 135.772271399, 34.379821246 ], [ 135.772525554999987, 34.379719148 ], [ 135.77309306699999, 34.379900368 ], [ 135.773256253999989, 34.380021971 ], [ 135.77330458, 34.380022453 ], [ 135.773357376, 34.380022158 ], [ 135.77350826, 34.379918976 ], [ 135.773838842, 34.379908876 ], [ 135.77400131600001, 34.3797861 ], [ 135.77439329500001, 34.37963609 ], [ 135.77444364199999, 34.379679003 ], [ 135.774495312, 34.379985788 ], [ 135.774564696, 34.380265807 ], [ 135.775664333, 34.380234083 ], [ 135.775717944, 34.380059944 ], [ 135.775780056, 34.379961111 ], [ 135.775828028, 34.379904611 ], [ 135.77590175, 34.3798365 ], [ 135.77632179299999, 34.380010402 ], [ 135.776625814999989, 34.380127279 ], [ 135.777065222, 34.380304833 ], [ 135.777113805999988, 34.380321303 ], [ 135.777248313, 34.379735473 ] ] ] } },
{ "type": "Feature", "properties": { "A29_001": "29443", "A29_002": "奈良県", "A29_003": "下市町", "A29_004": 10, "A29_005": "準工業地域", "A29_006": 60, "A29_007": 200, "A29_008": null }, "geometry": { "type": "Polygon", "coordinates": [ [ [ 135.796626, 34.380109952 ], [ 135.796604602, 34.379809366 ], [ 135.796619663, 34.379604198 ], [ 135.796853836, 34.379688987 ], [ 135.796935676, 34.379708217 ], [ 135.796979185999987, 34.379705107 ], [ 135.79705858599999, 34.379673417 ], [ 135.797135416, 34.379650207 ], [ 135.797906974999989, 34.379631327 ], [ 135.797906082999987, 34.379546833 ], [ 135.797890919, 34.379497389 ], [ 135.797872625, 34.379437735 ], [ 135.797856972, 34.379386694 ], [ 135.797708613999987, 34.379173771 ], [ 135.797689171, 34.379143804 ], [ 135.797674556, 34.379121278 ], [ 135.797636, 34.379072278 ], [ 135.797598278, 34.379035 ], [ 135.797536889000014, 34.378977222 ], [ 135.797503556, 34.378915083 ], [ 135.797502694, 34.378867556 ], [ 135.797487167000014, 34.378865528 ], [ 135.79747211099999, 34.378870083 ], [ 135.797345417, 34.3789085 ], [ 135.797212, 34.378969472 ], [ 135.797103166999989, 34.379038167 ], [ 135.796994361, 34.379094417 ], [ 135.796930694, 34.379130861 ], [ 135.796912193999987, 34.379146139 ], [ 135.796887528000013, 34.379175861 ], [ 135.796855639, 34.379218306 ], [ 135.796824805999989, 34.379256 ], [ 135.796784667, 34.379312028 ], [ 135.796768383999989, 34.379325826 ], [ 135.796744611, 34.379345972 ], [ 135.796724705, 34.37935781 ], [ 135.796626924, 34.379355947 ], [ 135.796435495, 34.379360159 ], [ 135.796321164, 34.379386002 ], [ 135.79606185099999, 34.379541365 ], [ 135.795918703000012, 34.379621634 ], [ 135.79583332199999, 34.379608073 ], [ 135.795749715, 34.379604952 ], [ 135.795702850999987, 34.379651091 ], [ 135.795690420999989, 34.379667586 ], [ 135.795664581000011, 34.379773627 ], [ 135.795654101, 34.379875447 ], [ 135.795595080999988, 34.379938997 ], [ 135.79549520099999, 34.379970657 ], [ 135.79543221, 34.379974028 ], [ 135.79541842099999, 34.379974767 ], [ 135.795386052, 34.379961866 ], [ 135.795370706, 34.379945345 ], [ 135.79533805599999, 34.379910194 ], [ 135.79533088, 34.379903906 ], [ 135.795314056, 34.379889167 ], [ 135.795280416999987, 34.379866139 ], [ 135.79514111099999, 34.379783028 ], [ 135.79506425, 34.379721944 ], [ 135.795060639000013, 34.379669889 ], [ 135.79507425, 34.37953811 ], [ 135.79508303099999, 34.379426052 ], [ 135.795059836, 34.37935147 ], [ 135.79499351199999, 34.379266379 ], [ 135.794889036, 34.379201811 ], [ 135.794840596, 34.379127481 ], [ 135.794858686, 34.379053251 ], [ 135.79493311600001, 34.378962141 ], [ 135.79502455, 34.37892911 ], [ 135.795063199999987, 34.37882098 ], [ 135.795075878, 34.378671661 ], [ 135.795050943, 34.378573222 ], [ 135.795011533, 34.378512031 ], [ 135.79497741, 34.378322418 ], [ 135.79496746, 34.378205718 ], [ 135.794975349999987, 34.378120858 ], [ 135.795034359999988, 34.378059428 ], [ 135.79520082, 34.378002428 ], [ 135.795433910000014, 34.377907338 ], [ 135.79548018, 34.377822548 ], [ 135.79543941, 34.377752468 ], [ 135.795337280000012, 34.377656818 ], [ 135.795204180000013, 34.377671458 ], [ 135.795044463000011, 34.377707839 ], [ 135.795006042000011, 34.377762684 ], [ 135.79493758000001, 34.377866198 ], [ 135.794793442000014, 34.378076951 ], [ 135.794701432000011, 34.378214792 ], [ 135.7945535, 34.378436444 ], [ 135.794450332999986, 34.378652917 ], [ 135.794410860999989, 34.378827778 ], [ 135.794403167000013, 34.378960778 ], [ 135.794433860999987, 34.379485722 ], [ 135.794430389000013, 34.379631833 ], [ 135.794455803, 34.379947126 ], [ 135.794440830000013, 34.38009079 ], [ 135.794340889000011, 34.380230611 ], [ 135.794450167, 34.380236056 ], [ 135.794633333, 34.3802575 ], [ 135.795297333, 34.380317889 ], [ 135.795452055999988, 34.380338361 ], [ 135.795704083, 34.380351681 ], [ 135.796242901999989, 34.380395338 ], [ 135.796432487, 34.380411078 ], [ 135.796493406, 34.380376431 ], [ 135.7965106, 34.380240956 ], [ 135.79655398, 34.380148594 ], [ 135.796626, 34.380109952 ] ] ] } },
{ "type": "Feature", "properties": { "A29_001": "29443", "A29_002": "奈良県", "A29_003": "下市町", "A29_004": 10, "A29_005": "準工業地域", "A29_006": 60, "A29_007": 200, "A29_008": null }, "geometry": { "type": "Polygon", "coordinates": [ [ [ 135.779278194, 34.379992222 ], [ 135.779342861, 34.379989444 ], [ 135.779587139, 34.379978889 ], [ 135.779625778, 34.379978917 ], [ 135.779958722, 34.37997925 ], [ 135.78004875, 34.379969194 ], [ 135.780479133, 34.379957426 ], [ 135.780514, 34.379956472 ], [ 135.780640139000013, 34.379964944 ], [ 135.780770749999988, 34.379975333 ], [ 135.780768693999988, 34.3801435 ], [ 135.7807408, 34.38032267 ], [ 135.780742870000012, 34.38050938 ], [ 135.780786889000012, 34.380670611 ], [ 135.780798583, 34.380822556 ], [ 135.780807028, 34.380886528 ], [ 135.78084213299999, 34.380891378 ], [ 135.78093908299999, 34.380890528 ], [ 135.78111464, 34.380874967 ], [ 135.781274943999989, 34.38085425 ], [ 135.781558972, 34.380833944 ], [ 135.781896862, 34.380808308 ], [ 135.78208052799999, 34.380515944 ], [ 135.782104712, 34.380258888 ], [ 135.782115583, 34.379962972 ], [ 135.782301917000012, 34.37994525 ], [ 135.782672423, 34.379858323 ], [ 135.783129917, 34.379750778 ], [ 135.783461861, 34.379684917 ], [ 135.783665775, 34.379633941 ], [ 135.784101443999987, 34.379525028 ], [ 135.78434698699999, 34.379451985 ], [ 135.784568775, 34.379340382 ], [ 135.784743701999986, 34.379238991 ], [ 135.78499313, 34.37908905 ], [ 135.7851727, 34.37891539 ], [ 135.785308863000012, 34.378791973 ], [ 135.7855189, 34.37862322 ], [ 135.785810880000014, 34.37851977 ], [ 135.78586603799999, 34.378664001 ], [ 135.785954003, 34.378704817 ], [ 135.78603525, 34.37884265 ], [ 135.786500382000014, 34.378628972 ], [ 135.78697011, 34.3785027 ], [ 135.787105950000011, 34.37842019 ], [ 135.7871241, 34.37832474 ], [ 135.78704991, 34.37831825 ], [ 135.78707081499999, 34.37788316 ], [ 135.786860029, 34.377874848 ], [ 135.78686991699999, 34.37775437 ], [ 135.78691712, 34.37770487 ], [ 135.786909361, 34.377652194 ], [ 135.78685608, 34.37755625 ], [ 135.78679561199999, 34.377456313 ], [ 135.786693602000014, 34.377378012 ], [ 135.786476553, 34.377320696 ], [ 135.786393690000011, 34.377249048 ], [ 135.785973594000012, 34.377281418 ], [ 135.78598663299999, 34.377178159 ], [ 135.78578457399999, 34.377154173 ], [ 135.78573011099999, 34.377265 ], [ 135.78556125, 34.377597694 ], [ 135.785489332999987, 34.377750139 ], [ 135.785432785000012, 34.377823186 ], [ 135.785146547000011, 34.378158588 ], [ 135.78525506, 34.37822813 ], [ 135.785077980000011, 34.37842937 ], [ 135.78473236799999, 34.378684235 ], [ 135.784539529999989, 34.37885064 ], [ 135.784349920000011, 34.3789479 ], [ 135.78375556, 34.37921417 ], [ 135.783443, 34.37935789 ], [ 135.78306668, 34.37941875 ], [ 135.782756909999989, 34.37946912 ], [ 135.782575189999989, 34.37948365 ], [ 135.78229632, 34.37946194 ], [ 135.781841039999989, 34.37938263 ], [ 135.78135476, 34.37941146 ], [ 135.780683047, 34.379451336 ], [ 135.779980583, 34.379463278 ], [ 135.77897636, 34.37984637 ], [ 135.778546017999986, 34.379964451 ], [ 135.778656265, 34.379971974 ], [ 135.778742617, 34.379978316 ], [ 135.779042667, 34.379992222 ], [ 135.779278194, 34.379992222 ] ] ] } },
{ "type": "Feature", "properties": { "A29_001": "29443", "A29_002": "奈良県", "A29_003": "下市町", "A29_004": 3, "A29_005": "第一種中高層住居専用地域", "A29_006": 60, "A29_007": 200, "A29_008": null }, "geometry": { "type": "Polygon", "coordinates": [ [ [ 135.781662665999988, 34.381732786 ], [ 135.782285499000011, 34.381375304 ], [ 135.782298419, 34.381330774 ], [ 135.781896862, 34.380808308 ], [ 135.781558972, 34.380833944 ], [ 135.781274943999989, 34.38085425 ], [ 135.78111464, 34.380874967 ], [ 135.78093908299999, 34.380890528 ], [ 135.78084213299999, 34.380891378 ], [ 135.780807028, 34.380886528 ], [ 135.780798583, 34.380822556 ], [ 135.780786889000012, 34.380670611 ], [ 135.780742870000012, 34.38050938 ], [ 135.7807408, 34.38032267 ], [ 135.780768693999988, 34.3801435 ], [ 135.780770749999988, 34.379975333 ], [ 135.780640139000013, 34.379964944 ], [ 135.780514, 34.379956472 ], [ 135.780479133, 34.379957426 ], [ 135.78004875, 34.379969194 ], [ 135.779958722, 34.37997925 ], [ 135.779625778, 34.379978917 ], [ 135.779587139, 34.379978889 ], [ 135.779342861, 34.379989444 ], [ 135.779278194, 34.379992222 ], [ 135.779042667, 34.379992222 ], [ 135.778742617, 34.379978316 ], [ 135.778656265, 34.379971974 ], [ 135.778546017999986, 34.379964451 ], [ 135.77818025900001, 34.379976367 ], [ 135.777908950000011, 34.37996749 ], [ 135.77770432, 34.37993105 ], [ 135.77750493, 34.37985643 ], [ 135.777248313, 34.379735473 ], [ 135.777113805999988, 34.380321303 ], [ 135.777065222, 34.380304833 ], [ 135.776625814999989, 34.380127279 ], [ 135.77632179299999, 34.380010402 ], [ 135.77590175, 34.3798365 ], [ 135.775828028, 34.379904611 ], [ 135.775780056, 34.379961111 ], [ 135.775717944, 34.380059944 ], [ 135.77602779, 34.38008711 ], [ 135.77605316, 34.38016779 ], [ 135.776262401999986, 34.380250928 ], [ 135.776523698, 34.380307416 ], [ 135.776484833000012, 34.380388944 ], [ 135.776405806000014, 34.380637222 ], [ 135.776578667, 34.3807125 ], [ 135.776740198999988, 34.380744214 ], [ 135.77690256599999, 34.380773423 ], [ 135.776961083, 34.380791333 ], [ 135.776986056, 34.380810111 ], [ 135.77711305599999, 34.380837167 ], [ 135.777139889000011, 34.380859528 ], [ 135.777216083000013, 34.380976 ], [ 135.777614027999988, 34.381013667 ], [ 135.77763007199999, 34.380952745 ], [ 135.778144340000011, 34.38094811 ], [ 135.778514043, 34.38096656 ], [ 135.778526464, 34.381188251 ], [ 135.778700241, 34.38118785 ], [ 135.778741279, 34.381092312 ], [ 135.779194907, 34.381083059 ], [ 135.77963420899999, 34.381082094 ], [ 135.779631889, 34.381388833 ], [ 135.780170090000013, 34.38132518 ], [ 135.780555849, 34.381256754 ], [ 135.780663129, 34.381371111 ], [ 135.78065077, 34.38148092 ], [ 135.780882466, 34.381386947 ], [ 135.78093594399999, 34.381583472 ], [ 135.780952444, 34.3816495 ], [ 135.780992977000011, 34.381767573 ], [ 135.781039066, 34.381913564 ], [ 135.781662665999988, 34.381732786 ] ] ] } },
{ "type": "Feature", "properties": { "A29_001": "29443", "A29_002": "奈良県", "A29_003": "下市町", "A29_004": 5, "A29_005": "第一種住居地域", "A29_006": 60, "A29_007": 200, "A29_008": null }, "geometry": { "type": "Polygon", "coordinates": [ [ [ 135.78586603799999, 34.378664001 ], [ 135.785810880000014, 34.37851977 ], [ 135.7855189, 34.37862322 ], [ 135.785308863000012, 34.378791973 ], [ 135.7851727, 34.37891539 ], [ 135.78499313, 34.37908905 ], [ 135.784743701999986, 34.379238991 ], [ 135.784568775, 34.379340382 ], [ 135.78434698699999, 34.379451985 ], [ 135.784101443999987, 34.379525028 ], [ 135.783665775, 34.379633941 ], [ 135.783461861, 34.379684917 ], [ 135.783129917, 34.379750778 ], [ 135.782672423, 34.379858323 ], [ 135.782301917000012, 34.37994525 ], [ 135.782115583, 34.379962972 ], [ 135.782104712, 34.380258888 ], [ 135.78208052799999, 34.380515944 ], [ 135.781896862, 34.380808308 ], [ 135.782298419, 34.381330774 ], [ 135.782285499000011, 34.381375304 ], [ 135.781662665999988, 34.381732786 ], [ 135.781039066, 34.381913564 ], [ 135.78105602799999, 34.381977139 ], [ 135.78117038900001, 34.382276694 ], [ 135.781275724000011, 34.382467197 ], [ 135.781347788, 34.382614697 ], [ 135.781466943999988, 34.382858583 ], [ 135.78171416699999, 34.3827515 ], [ 135.78214129, 34.38251045 ], [ 135.782773033000012, 34.382162691 ], [ 135.78292475, 34.381974833 ], [ 135.78310743599999, 34.381736247 ], [ 135.78325195299999, 34.381595581 ], [ 135.783914277, 34.380897491 ], [ 135.784112069, 34.38066063 ], [ 135.784384972, 34.380383 ], [ 135.784931222000012, 34.379884306 ], [ 135.785095500000011, 34.379715417 ], [ 135.785187664, 34.379644676 ], [ 135.785265587999987, 34.379578945 ], [ 135.78542718, 34.37947172 ], [ 135.785691667, 34.379230333 ], [ 135.785766915000011, 34.379147246 ], [ 135.78583610699999, 34.379011796 ], [ 135.785882797, 34.378847542 ], [ 135.78586603799999, 34.378664001 ] ] ] } },
{ "type": "Feature", "properties": { "A29_001": "29443", "A29_002": "奈良県", "A29_003": "下市町", "A29_004": 5, "A29_005": "第一種住居地域", "A29_006": 60, "A29_007": 200, "A29_008": null }, "geometry": { "type": "Polygon", "coordinates": [ [ [ 135.796768383999989, 34.379325826 ], [ 135.796784667, 34.379312028 ], [ 135.796824805999989, 34.379256 ], [ 135.796855639, 34.379218306 ], [ 135.796887528000013, 34.379175861 ], [ 135.796912193999987, 34.379146139 ], [ 135.796930694, 34.379130861 ], [ 135.796994361, 34.379094417 ], [ 135.797103166999989, 34.379038167 ], [ 135.797212, 34.378969472 ], [ 135.797345417, 34.3789085 ], [ 135.79747211099999, 34.378870083 ], [ 135.797487167000014, 34.378865528 ], [ 135.797502694, 34.378867556 ], [ 135.797503556, 34.378915083 ], [ 135.797536889000014, 34.378977222 ], [ 135.797598278, 34.379035 ], [ 135.797636, 34.379072278 ], [ 135.797674556, 34.379121278 ], [ 135.797689171, 34.379143804 ], [ 135.797708613999987, 34.379173771 ], [ 135.797856972, 34.379386694 ], [ 135.797872625, 34.379437735 ], [ 135.797890919, 34.379497389 ], [ 135.797906082999987, 34.379546833 ], [ 135.797906974999989, 34.379631327 ], [ 135.797135416, 34.379650207 ], [ 135.79705858599999, 34.379673417 ], [ 135.796979185999987, 34.379705107 ], [ 135.796935676, 34.379708217 ], [ 135.796853836, 34.379688987 ], [ 135.796619663, 34.379604198 ], [ 135.796604602, 34.379809366 ], [ 135.796626, 34.380109952 ], [ 135.79655398, 34.380148594 ], [ 135.7965106, 34.380240956 ], [ 135.796493406, 34.380376431 ], [ 135.796432487, 34.380411078 ], [ 135.796242901999989, 34.380395338 ], [ 135.795704083, 34.380351681 ], [ 135.795452055999988, 34.380338361 ], [ 135.79542516699999, 34.380541472 ], [ 135.795372250000014, 34.380710917 ], [ 135.795386833, 34.380871417 ], [ 135.795404701, 34.380979671 ], [ 135.795408306000013, 34.38105425 ], [ 135.79538991699999, 34.381099667 ], [ 135.795328555999987, 34.381176389 ], [ 135.795316278, 34.3812205 ], [ 135.79532358, 34.381312937 ], [ 135.795570588, 34.381356048 ], [ 135.795948, 34.381443148 ], [ 135.79630577899999, 34.381628827 ], [ 135.796342194, 34.381435 ], [ 135.79635008299999, 34.38129975 ], [ 135.796440315000012, 34.381066132 ], [ 135.796493491, 34.380892291 ], [ 135.796498539999988, 34.380871354 ], [ 135.796977571000014, 34.380871646 ], [ 135.797044047000014, 34.380867633 ], [ 135.797036627000011, 34.380659331 ], [ 135.79731418099999, 34.380699613 ], [ 135.797492234, 34.38068649 ], [ 135.79789682099999, 34.38068865 ], [ 135.797850191, 34.380842984 ], [ 135.797812916, 34.380966351 ], [ 135.79855211200001, 34.381126554 ], [ 135.798633142, 34.38108047 ], [ 135.79870633499999, 34.380882162 ], [ 135.798798333, 34.380912917 ], [ 135.79872975, 34.381117667 ], [ 135.798734243000013, 34.381236985 ], [ 135.798744889, 34.381337278 ], [ 135.798744889, 34.381412373 ], [ 135.799115852, 34.381501688 ], [ 135.79928648, 34.381586202 ], [ 135.79945515899999, 34.381734074 ], [ 135.79950087200001, 34.381729322 ], [ 135.799512778, 34.38168875 ], [ 135.79951770400001, 34.381626657 ], [ 135.800034334, 34.381828529 ], [ 135.800576331, 34.382119059 ], [ 135.800651246, 34.382161616 ], [ 135.80056202899999, 34.382332209 ], [ 135.80053522, 34.38241394 ], [ 135.800521530999987, 34.382479014 ], [ 135.80072803499999, 34.382602347 ], [ 135.800912426, 34.382572084 ], [ 135.80109489099999, 34.382501424 ], [ 135.80120001099999, 34.382416734 ], [ 135.801296939999986, 34.382321498 ], [ 135.80147659, 34.382394842 ], [ 135.80152859399999, 34.382456052 ], [ 135.801524660000013, 34.382599169 ], [ 135.801526053, 34.382770621 ], [ 135.801498925, 34.382836175 ], [ 135.801558253, 34.382879026 ], [ 135.80158877299999, 34.382863156 ], [ 135.801662623999988, 34.382811095 ], [ 135.80186923799999, 34.382888955 ], [ 135.80213873, 34.382992261 ], [ 135.802316534999989, 34.383086473 ], [ 135.802460268, 34.383140376 ], [ 135.80265738, 34.383203226 ], [ 135.802705581999987, 34.383212409 ], [ 135.802738713, 34.383152217 ], [ 135.80288188899999, 34.38288275 ], [ 135.803077833, 34.38296925 ], [ 135.803216826000011, 34.383015489 ], [ 135.803431418, 34.383086346 ], [ 135.803590902, 34.383126178 ], [ 135.803823083, 34.383184167 ], [ 135.803966306, 34.383207694 ], [ 135.80434587900001, 34.383269337 ], [ 135.805031832999987, 34.383369579 ], [ 135.805517744000014, 34.383445781 ], [ 135.805784167000013, 34.383489361 ], [ 135.805780203000012, 34.383431946 ], [ 135.805775957, 34.38337045 ], [ 135.805767722000013, 34.383299667 ], [ 135.805751367, 34.38326559 ], [ 135.805686549, 34.383234528 ], [ 135.805515816, 34.383191021 ], [ 135.805351890999987, 34.383119572 ], [ 135.805335222, 34.383103429 ], [ 135.80527263, 34.383070626 ], [ 135.805168917, 34.383010167 ], [ 135.80479127000001, 34.382789916 ], [ 135.804702813, 34.382738803 ], [ 135.804618306, 34.382689972 ], [ 135.804589361000012, 34.382658528 ], [ 135.804575333, 34.382623444 ], [ 135.804573162999986, 34.382584973 ], [ 135.804572694, 34.382443611 ], [ 135.80454027799999, 34.382405611 ], [ 135.804444573000012, 34.382363102 ], [ 135.804293437000013, 34.382350686 ], [ 135.804153515, 34.382281843 ], [ 135.804108582999987, 34.382243778 ], [ 135.803846678000014, 34.382095592 ], [ 135.803816028, 34.38207825 ], [ 135.80377436099999, 34.382062111 ], [ 135.803726805999986, 34.38205875 ], [ 135.803612714, 34.382066673 ], [ 135.803435503, 34.382119678 ], [ 135.803373255999986, 34.38211231 ], [ 135.803339582, 34.382093993 ], [ 135.803306705000011, 34.382065696 ], [ 135.80326026899999, 34.382047263 ], [ 135.803246167, 34.382041556 ], [ 135.803213333, 34.382022167 ], [ 135.803145222000012, 34.381960545 ], [ 135.803113055000011, 34.381944684 ], [ 135.803070999, 34.381940712 ], [ 135.802857764, 34.38193087 ], [ 135.802820225, 34.381934882 ], [ 135.80273814099999, 34.381970867 ], [ 135.802686861000012, 34.381967306 ], [ 135.802377417, 34.381528861 ], [ 135.802368833, 34.381503833 ], [ 135.802377917, 34.381397778 ], [ 135.802362139, 34.381372917 ], [ 135.80233669399999, 34.381348806 ], [ 135.802198565999987, 34.381295695 ], [ 135.8020378, 34.381238743 ], [ 135.801970361, 34.381221972 ], [ 135.80184144399999, 34.381219472 ], [ 135.801817677, 34.381239102 ], [ 135.801757583000011, 34.38126775 ], [ 135.801722993, 34.381328048 ], [ 135.80170421599999, 34.381368707 ], [ 135.801699250000013, 34.381427213 ], [ 135.80171297199999, 34.38155675 ], [ 135.801710235, 34.381581629 ], [ 135.801659859000011, 34.38159442 ], [ 135.80138660599999, 34.381663799 ], [ 135.801179209, 34.381538229 ], [ 135.801188524999986, 34.381401085 ], [ 135.80101604399999, 34.381338933 ], [ 135.800850270000012, 34.381285313 ], [ 135.800726325999989, 34.381231305 ], [ 135.80062976, 34.381391771 ], [ 135.800341229999987, 34.381294062 ], [ 135.80039488700001, 34.381152086 ], [ 135.80045687099999, 34.381056134 ], [ 135.80050216699999, 34.380997278 ], [ 135.800522777999987, 34.380956524 ], [ 135.800284328, 34.3808957 ], [ 135.800490435, 34.380426413 ], [ 135.80024107599999, 34.380178522 ], [ 135.800043687999988, 34.380005259 ], [ 135.79980387399999, 34.380169329 ], [ 135.79973232399999, 34.380122529 ], [ 135.799721839999989, 34.379994297 ], [ 135.799745863, 34.379810528 ], [ 135.799645457, 34.379806252 ], [ 135.799156716999988, 34.379812372 ], [ 135.799109694, 34.379809667 ], [ 135.798601544, 34.379632414 ], [ 135.798601657, 34.379586443 ], [ 135.798740579999986, 34.37927474 ], [ 135.79875258300001, 34.379205611 ], [ 135.798749887000014, 34.379161151 ], [ 135.798747857, 34.379146482 ], [ 135.798731139000012, 34.379115167 ], [ 135.79866401000001, 34.37911869 ], [ 135.798630221, 34.37911171 ], [ 135.798586827, 34.379091556 ], [ 135.79853863400001, 34.379069174 ], [ 135.798513082999989, 34.379057306 ], [ 135.79837286599999, 34.378966013 ], [ 135.798202753999988, 34.378876495 ], [ 135.798177055999986, 34.378862972 ], [ 135.798135911, 34.378844097 ], [ 135.797951528, 34.378628222 ], [ 135.797903111000011, 34.378649694 ], [ 135.79775022199999, 34.378649694 ], [ 135.797616839, 34.378613419 ], [ 135.797595639, 34.378610917 ], [ 135.797547193000014, 34.378596306 ], [ 135.797477917, 34.378582028 ], [ 135.797320082999988, 34.378582778 ], [ 135.797254306000013, 34.378575833 ], [ 135.797217796000012, 34.378549373 ], [ 135.797195111, 34.378526472 ], [ 135.797152028, 34.378445333 ], [ 135.797109333, 34.378336056 ], [ 135.797087291999986, 34.378303726 ], [ 135.79700672199999, 34.3781845 ], [ 135.79697804700001, 34.378128407 ], [ 135.796951629, 34.378067447 ], [ 135.796945972, 34.378054306 ], [ 135.796912056, 34.378006361 ], [ 135.796839611, 34.377948944 ], [ 135.796798854, 34.377926502 ], [ 135.796593800000011, 34.377811947 ], [ 135.79651280600001, 34.377767833 ], [ 135.796352500000012, 34.377687778 ], [ 135.796256972, 34.377641889 ], [ 135.79622683299999, 34.377622167 ], [ 135.796129028, 34.3774915 ], [ 135.796054389, 34.377378111 ], [ 135.79594747199999, 34.377213333 ], [ 135.795842056, 34.377059056 ], [ 135.795833996999988, 34.377064696 ], [ 135.795747624, 34.377125148 ], [ 135.795639356, 34.377105329 ], [ 135.795484601, 34.377153524 ], [ 135.795346034, 34.377199509 ], [ 135.795164978, 34.377242329 ], [ 135.795112639, 34.377259417 ], [ 135.795022667000012, 34.377245889 ], [ 135.794993836, 34.377218294 ], [ 135.794928414, 34.377149006 ], [ 135.794859757000012, 34.377066776 ], [ 135.79484255599999, 34.376983528 ], [ 135.794837021, 34.376880721 ], [ 135.794843750000013, 34.37677325 ], [ 135.794884387, 34.376708112 ], [ 135.795117556, 34.376462833 ], [ 135.795028196, 34.376365167 ], [ 135.79498544399999, 34.376300611 ], [ 135.795004667, 34.376181444 ], [ 135.795037667, 34.376110366 ], [ 135.795125778, 34.375920583 ], [ 135.795195592, 34.375779239 ], [ 135.795295583000012, 34.375596778 ], [ 135.795418242000011, 34.375441922 ], [ 135.795503889, 34.375345306 ], [ 135.795559946999987, 34.375257219 ], [ 135.795581722, 34.375172917 ], [ 135.795561611000011, 34.375065028 ], [ 135.795506976000013, 34.374985614 ], [ 135.79549008, 34.374835306 ], [ 135.795487638, 34.374656398 ], [ 135.795487326, 34.374571234 ], [ 135.795400769, 34.37453546 ], [ 135.795298833, 34.374516806 ], [ 135.795093893, 34.374495918 ], [ 135.794996293999986, 34.374407495 ], [ 135.794910394, 34.374240373 ], [ 135.794835944, 34.374097125 ], [ 135.794697851, 34.37391692 ], [ 135.794446271, 34.373686551 ], [ 135.794254665000011, 34.373520441 ], [ 135.79422175, 34.373491083 ], [ 135.794180649, 34.373447117 ], [ 135.794031225999987, 34.37347973 ], [ 135.793525362, 34.373201671 ], [ 135.793300818, 34.373116313 ], [ 135.79309589499999, 34.373095094 ], [ 135.792827979, 34.373099114 ], [ 135.792656298999987, 34.373198544 ], [ 135.792520489, 34.373274684 ], [ 135.792415559, 34.373282994 ], [ 135.79228516, 34.373242464 ], [ 135.792185530000012, 34.373176524 ], [ 135.792142973000011, 34.373081553 ], [ 135.79212167, 34.372971192 ], [ 135.792073171, 34.372951729 ], [ 135.7915779, 34.373280368 ], [ 135.791481287000011, 34.373086391 ], [ 135.791429502999989, 34.372941688 ], [ 135.791334197, 34.372945998 ], [ 135.791254992, 34.372983135 ], [ 135.791105364, 34.373140912 ], [ 135.79088094299999, 34.373368631 ], [ 135.790674653999986, 34.373266421 ], [ 135.790622214, 34.373316902 ], [ 135.790496474, 34.373471157 ], [ 135.790303319, 34.373684467 ], [ 135.790267261999986, 34.373725793 ], [ 135.790216187, 34.373792469 ], [ 135.790192874000013, 34.373857949 ], [ 135.78988895, 34.373879791 ], [ 135.789784191, 34.374068951 ], [ 135.78970664, 34.374162743 ], [ 135.789666915999987, 34.374229764 ], [ 135.78958863599999, 34.374327224 ], [ 135.789559806, 34.3743735 ], [ 135.789600029000013, 34.374410035 ], [ 135.789743304000012, 34.374540173 ], [ 135.789866694000011, 34.37465225 ], [ 135.79003366399999, 34.374922999 ], [ 135.790051854000012, 34.374956235 ], [ 135.790075806, 34.375 ], [ 135.790099833, 34.375043917 ], [ 135.790123838999989, 34.375086601 ], [ 135.790174556000011, 34.375176778 ], [ 135.790275388999987, 34.375358083 ], [ 135.790374, 34.375527583 ], [ 135.790459833, 34.375505806 ], [ 135.790509694, 34.375493167 ], [ 135.79057605599999, 34.375494389 ], [ 135.79069475, 34.375512194 ], [ 135.790782861, 34.375530472 ], [ 135.790927963, 34.375560575 ], [ 135.79098825, 34.375573083 ], [ 135.791291726999987, 34.375633693 ], [ 135.791323721999987, 34.375640083 ], [ 135.791390304, 34.375649631 ], [ 135.79139830599999, 34.375650778 ], [ 135.791559694, 34.375673917 ], [ 135.791666666999987, 34.37569825 ], [ 135.791770555999989, 34.375721861 ], [ 135.79190988900001, 34.375751361 ], [ 135.791956389, 34.375761194 ], [ 135.79210680599999, 34.375792556 ], [ 135.792201917, 34.375806694 ], [ 135.792448917, 34.375846056 ], [ 135.79273284300001, 34.375862406 ], [ 135.79269654, 34.37608538 ], [ 135.792526888999987, 34.376360944 ], [ 135.792351129, 34.376495081 ], [ 135.792168752, 34.37672957 ], [ 135.792096722, 34.376787333 ], [ 135.792006328000014, 34.376898315 ], [ 135.791925256000013, 34.377055801 ], [ 135.79188602799999, 34.377158583 ], [ 135.791858611, 34.377212389 ], [ 135.791790889, 34.377279056 ], [ 135.791743567, 34.377345527 ], [ 135.791692417, 34.377439389 ], [ 135.791665518, 34.37747447 ], [ 135.791599216, 34.377562005 ], [ 135.791534667, 34.377667472 ], [ 135.791502083000012, 34.377705139 ], [ 135.791425516, 34.377801023 ], [ 135.791408569, 34.377819828 ], [ 135.79137175, 34.377813222 ], [ 135.791333278, 34.377806333 ], [ 135.79127675, 34.377801306 ], [ 135.791214306, 34.377787611 ], [ 135.791151944, 34.377735694 ], [ 135.79109258299999, 34.377677611 ], [ 135.791021417, 34.377573889 ], [ 135.790956222, 34.377471389 ], [ 135.79090288899999, 34.377373833 ], [ 135.790848944, 34.377230639 ], [ 135.790828583, 34.377180472 ], [ 135.790829988000013, 34.377180652 ], [ 135.79071288899999, 34.377016861 ], [ 135.790669556000012, 34.376929278 ], [ 135.79065325, 34.376896333 ], [ 135.79056225, 34.376624083 ], [ 135.79052486099999, 34.376595417 ], [ 135.790476332999987, 34.376590361 ], [ 135.790231694, 34.376651889 ], [ 135.7900275, 34.376672972 ], [ 135.789889, 34.376695722 ], [ 135.78983961099999, 34.376667444 ], [ 135.78980461399999, 34.376637857 ], [ 135.78972477799999, 34.376570361 ], [ 135.789633861, 34.376453333 ], [ 135.789500694, 34.376291778 ], [ 135.789414972, 34.376196694 ], [ 135.78936552799999, 34.376066361 ], [ 135.789272965, 34.375931442 ], [ 135.78936138899999, 34.375888194 ], [ 135.789440444, 34.375859056 ], [ 135.789488417, 34.375851 ], [ 135.78927902800001, 34.375645972 ], [ 135.788987722, 34.375354639 ], [ 135.788911181, 34.37523288 ], [ 135.788706158, 34.374896055 ], [ 135.788692083, 34.374875917 ], [ 135.788724444, 34.374869139 ], [ 135.78882877800001, 34.374825278 ], [ 135.788970806, 34.374736083 ], [ 135.78911108299999, 34.374633028 ], [ 135.789134762, 34.374618659 ], [ 135.789024876000013, 34.374656163 ], [ 135.788853396, 34.374672843 ], [ 135.788696096, 34.374642863 ], [ 135.788592566, 34.374601323 ], [ 135.788497707, 34.374512326 ], [ 135.78841649200001, 34.374494809 ], [ 135.788140492, 34.374488281 ], [ 135.78805229299999, 34.374482765 ], [ 135.788058392000011, 34.37483079 ], [ 135.78835048900001, 34.375402298 ], [ 135.788618194, 34.375969479 ], [ 135.788607624, 34.376113886 ], [ 135.788704724000013, 34.376112563 ], [ 135.78888722, 34.376475158 ], [ 135.788596866, 34.376817557 ], [ 135.78838219, 34.377095978 ], [ 135.78814968, 34.37752561 ], [ 135.78806497, 34.37762942 ], [ 135.78793169, 34.3777183 ], [ 135.78782673, 34.37773297 ], [ 135.78770835, 34.37799797 ], [ 135.78766445, 34.37815914 ], [ 135.787661914000012, 34.378310543 ], [ 135.787789562, 34.378376586 ], [ 135.787646373, 34.378675022 ], [ 135.787761483999986, 34.378663295 ], [ 135.788459366000012, 34.378940686 ], [ 135.789303640000014, 34.379283551 ], [ 135.789436779999988, 34.379256191 ], [ 135.789643909, 34.379313831 ], [ 135.789700439, 34.379220581 ], [ 135.78957513, 34.379188541 ], [ 135.789615168000012, 34.379105183 ], [ 135.78934384499999, 34.3790257 ], [ 135.78876962199999, 34.378743933 ], [ 135.788857927, 34.378720351 ], [ 135.789112249, 34.378695111 ], [ 135.789181987, 34.378692937 ], [ 135.78920807099999, 34.378682548 ], [ 135.789224265, 34.378667686 ], [ 135.789271216, 34.378588379 ], [ 135.789317597, 34.378434872 ], [ 135.78933258, 34.378350681 ], [ 135.789342190000013, 34.378250447 ], [ 135.789322657000014, 34.378152016 ], [ 135.78929740800001, 34.378100582 ], [ 135.789256583, 34.378061889 ], [ 135.78924855599999, 34.3780455 ], [ 135.78925133300001, 34.378013472 ], [ 135.789263944, 34.377988194 ], [ 135.789336472, 34.377896722 ], [ 135.789365161, 34.377838727 ], [ 135.789386345999986, 34.377780482 ], [ 135.789399722000013, 34.377746417 ], [ 135.789437604, 34.377683947 ], [ 135.789491610999988, 34.377637861 ], [ 135.78954770499999, 34.377680171 ], [ 135.789567276000014, 34.377763693 ], [ 135.789651549000013, 34.377859254 ], [ 135.78978279, 34.377905513 ], [ 135.789870573, 34.377998281 ], [ 135.789926278, 34.378056278 ], [ 135.78995965499999, 34.378129149 ], [ 135.790031606000014, 34.378318348 ], [ 135.790105891, 34.378341934 ], [ 135.790297938, 34.378235316 ], [ 135.790391564, 34.378186278 ], [ 135.79048745099999, 34.378164613 ], [ 135.790538883000011, 34.378186839 ], [ 135.790605191, 34.378215494 ], [ 135.79066583299999, 34.378251944 ], [ 135.790938305999987, 34.378361778 ], [ 135.791023583, 34.378380028 ], [ 135.791080521, 34.378380486 ], [ 135.791266852, 34.378375835 ], [ 135.79144152, 34.378390895 ], [ 135.7915336, 34.378408025 ], [ 135.791624395000014, 34.378464939 ], [ 135.79170867799999, 34.378553446 ], [ 135.791823134999987, 34.378680244 ], [ 135.791929, 34.378769528 ], [ 135.792001806, 34.378812806 ], [ 135.792269417, 34.378893444 ], [ 135.79235217199999, 34.378906776 ], [ 135.792480583000014, 34.378933278 ], [ 135.792630645, 34.378993887 ], [ 135.793018069999988, 34.379217165 ], [ 135.793163666999988, 34.379303778 ], [ 135.793429815, 34.379484546 ], [ 135.79351508799999, 34.379482687 ], [ 135.79371897199999, 34.379585 ], [ 135.793752, 34.379586 ], [ 135.793997248000011, 34.379515605 ], [ 135.794088882000011, 34.379513462 ], [ 135.79416972199999, 34.379544907 ], [ 135.794224837, 34.379579635 ], [ 135.794209367, 34.379626285 ], [ 135.79404522199999, 34.379719128 ], [ 135.79384726399999, 34.379848269 ], [ 135.793740887000013, 34.379900502 ], [ 135.79352684599999, 34.379923995 ], [ 135.793230964, 34.379957785 ], [ 135.793167955, 34.379987496 ], [ 135.79312841399999, 34.380036115 ], [ 135.79329171399999, 34.380227335 ], [ 135.793295083, 34.380260278 ], [ 135.793288144, 34.380309603 ], [ 135.793214796, 34.380317056 ], [ 135.793054466, 34.380318858 ], [ 135.792589912000011, 34.380323453 ], [ 135.79226635099999, 34.380278179 ], [ 135.792048154000014, 34.380223108 ], [ 135.791682564000013, 34.380084578 ], [ 135.79119943399999, 34.379875838 ], [ 135.790854335, 34.379733098 ], [ 135.790815735, 34.379822138 ], [ 135.79121448399999, 34.379998918 ], [ 135.792327046999986, 34.380457186 ], [ 135.792617830000012, 34.380669382 ], [ 135.792996617, 34.380920316 ], [ 135.793252187, 34.381056536 ], [ 135.793392817000012, 34.381101326 ], [ 135.793531046, 34.381086707 ], [ 135.793756406, 34.381014947 ], [ 135.793928066, 34.380932497 ], [ 135.794182033999988, 34.380759983 ], [ 135.794317189, 34.380640941 ], [ 135.794384087, 34.380491967 ], [ 135.794395306000013, 34.380316064 ], [ 135.794340889000011, 34.380230611 ], [ 135.794440830000013, 34.38009079 ], [ 135.794455803, 34.379947126 ], [ 135.794430389000013, 34.379631833 ], [ 135.794433860999987, 34.379485722 ], [ 135.794403167000013, 34.378960778 ], [ 135.794410860999989, 34.378827778 ], [ 135.794450332999986, 34.378652917 ], [ 135.7945535, 34.378436444 ], [ 135.794701432000011, 34.378214792 ], [ 135.794793442000014, 34.378076951 ], [ 135.79493758000001, 34.377866198 ], [ 135.795006042000011, 34.377762684 ], [ 135.795044463000011, 34.377707839 ], [ 135.795204180000013, 34.377671458 ], [ 135.795337280000012, 34.377656818 ], [ 135.79543941, 34.377752468 ], [ 135.79548018, 34.377822548 ], [ 135.795433910000014, 34.377907338 ], [ 135.79520082, 34.378002428 ], [ 135.795034359999988, 34.378059428 ], [ 135.794975349999987, 34.378120858 ], [ 135.79496746, 34.378205718 ], [ 135.79497741, 34.378322418 ], [ 135.795011533, 34.378512031 ], [ 135.795050943, 34.378573222 ], [ 135.795075878, 34.378671661 ], [ 135.795063199999987, 34.37882098 ], [ 135.79502455, 34.37892911 ], [ 135.79493311600001, 34.378962141 ], [ 135.794858686, 34.379053251 ], [ 135.794840596, 34.379127481 ], [ 135.794889036, 34.379201811 ], [ 135.79499351199999, 34.379266379 ], [ 135.795059836, 34.37935147 ], [ 135.79508303099999, 34.379426052 ], [ 135.79507425, 34.37953811 ], [ 135.795060639000013, 34.379669889 ], [ 135.79506425, 34.379721944 ], [ 135.79514111099999, 34.379783028 ], [ 135.795280416999987, 34.379866139 ], [ 135.795314056, 34.379889167 ], [ 135.79533088, 34.379903906 ], [ 135.79533805599999, 34.379910194 ], [ 135.795370706, 34.379945345 ], [ 135.795386052, 34.379961866 ], [ 135.79541842099999, 34.379974767 ], [ 135.79543221, 34.379974028 ], [ 135.79549520099999, 34.379970657 ], [ 135.795595080999988, 34.379938997 ], [ 135.795654101, 34.379875447 ], [ 135.795664581000011, 34.379773627 ], [ 135.795690420999989, 34.379667586 ], [ 135.795702850999987, 34.379651091 ], [ 135.795749715, 34.379604952 ], [ 135.79583332199999, 34.379608073 ], [ 135.795918703000012, 34.379621634 ], [ 135.79606185099999, 34.379541365 ], [ 135.796321164, 34.379386002 ], [ 135.796435495, 34.379360159 ], [ 135.796626924, 34.379355947 ], [ 135.796724705, 34.37935781 ], [ 135.796744611, 34.379345972 ], [ 135.796768383999989, 34.379325826 ] ] ] } },
{ "type": "Feature", "properties": { "A29_001": "29443", "A29_002": "奈良県", "A29_003": "下市町", "A29_004": 3, "A29_005": "第一種中高層住居専用地域", "A29_006": 60, "A29_007": 200, "A29_008": null }, "geometry": { "type": "Polygon", "coordinates": [ [ [ 135.816786312, 34.386024327 ], [ 135.816665841, 34.386013444 ], [ 135.816530333, 34.385991835 ], [ 135.81639586099999, 34.385922083 ], [ 135.816208222, 34.385828528 ], [ 135.815990806, 34.385698417 ], [ 135.81574708299999, 34.385577056 ], [ 135.81565121599999, 34.38553914 ], [ 135.815247239, 34.385379364 ], [ 135.81481382699999, 34.385207944 ], [ 135.814421306000014, 34.385052694 ], [ 135.814146083, 34.385014444 ], [ 135.813866, 34.384981424 ], [ 135.813586028, 34.384948417 ], [ 135.813397028, 34.384896339 ], [ 135.813069262999988, 34.384800469 ], [ 135.812959604000014, 34.384767931 ], [ 135.812843988, 34.384742644 ], [ 135.812721388999989, 34.3847175 ], [ 135.812525740000012, 34.384703257 ], [ 135.811850292, 34.384676167 ], [ 135.811417694, 34.384569556 ], [ 135.811169471999989, 34.38451225 ], [ 135.81104208299999, 34.384457528 ], [ 135.810819672, 34.384224073 ], [ 135.810551473, 34.384139518 ], [ 135.810264972999988, 34.384083908 ], [ 135.809881292999989, 34.384004809 ], [ 135.809579463, 34.383942819 ], [ 135.809451553, 34.383925639 ], [ 135.809316063000011, 34.383857539 ], [ 135.809165154, 34.383827599 ], [ 135.80899374399999, 34.383803999 ], [ 135.80878591699999, 34.383743288 ], [ 135.808658694, 34.38372285 ], [ 135.808504344999989, 34.383654648 ], [ 135.80835686399999, 34.38366085 ], [ 135.808170123999986, 34.38362661 ], [ 135.807968815, 34.38359175 ], [ 135.80779574499999, 34.383586036 ], [ 135.807655895000011, 34.383564281 ], [ 135.80737414, 34.383519873 ], [ 135.807228705, 34.383485111 ], [ 135.807049605, 34.383472101 ], [ 135.806735288999988, 34.383442161 ], [ 135.806300985, 34.383302335 ], [ 135.806210658999987, 34.383284354 ], [ 135.805995548, 34.383262607 ], [ 135.805751367, 34.38326559 ], [ 135.805767722000013, 34.383299667 ], [ 135.805775957, 34.38337045 ], [ 135.805780203000012, 34.383431946 ], [ 135.805784167000013, 34.383489361 ], [ 135.805517744000014, 34.383445781 ], [ 135.805031832999987, 34.383369579 ], [ 135.80434587900001, 34.383269337 ], [ 135.803966306, 34.383207694 ], [ 135.803823083, 34.383184167 ], [ 135.803590902, 34.383126178 ], [ 135.803431418, 34.383086346 ], [ 135.803216826000011, 34.383015489 ], [ 135.803077833, 34.38296925 ], [ 135.80288188899999, 34.38288275 ], [ 135.802738713, 34.383152217 ], [ 135.802705581999987, 34.383212409 ], [ 135.80303557799999, 34.383302977 ], [ 135.803428494, 34.383310856 ], [ 135.803528245, 34.383325174 ], [ 135.803612085999987, 34.383355634 ], [ 135.803863971999988, 34.383472972 ], [ 135.803971507, 34.383513657 ], [ 135.804248389, 34.383603306 ], [ 135.804584944, 34.383680444 ], [ 135.804867277999989, 34.383720333 ], [ 135.80505607500001, 34.383731635 ], [ 135.80523052699999, 34.383732539 ], [ 135.805487236, 34.383795555 ], [ 135.805599417, 34.38382275 ], [ 135.80566930099999, 34.383845275 ], [ 135.805979056000012, 34.383945111 ], [ 135.806234249999989, 34.384012917 ], [ 135.806489962, 34.384061029 ], [ 135.80677691599999, 34.384093301 ], [ 135.80677580299999, 34.384202194 ], [ 135.80676488899999, 34.384482111 ], [ 135.806742242000013, 34.384656448 ], [ 135.80672153, 34.3847333 ], [ 135.807081675, 34.384737316 ], [ 135.807833944, 34.384787296 ], [ 135.80812899599999, 34.38482739 ], [ 135.808496631999986, 34.384858881 ], [ 135.808826642000014, 34.384906071 ], [ 135.80896305499999, 34.384919929 ], [ 135.809254855, 34.384897049 ], [ 135.809447905000013, 34.384851235 ], [ 135.809625993999987, 34.384865799 ], [ 135.809997004, 34.384893959 ], [ 135.810324444, 34.384947498 ], [ 135.810713244, 34.385030848 ], [ 135.81100998299999, 34.385084348 ], [ 135.811255663, 34.385084727 ], [ 135.811887711999987, 34.385106927 ], [ 135.81235847799999, 34.38512509 ], [ 135.812614532, 34.385121915 ], [ 135.813481141000011, 34.385351569 ], [ 135.813850992999988, 34.385457378 ], [ 135.814203529999986, 34.385609539 ], [ 135.81452170099999, 34.38573489 ], [ 135.814857120999989, 34.385844211 ], [ 135.815102274, 34.385907016 ], [ 135.8155581, 34.385995104 ], [ 135.815850669000014, 34.386084743 ], [ 135.81602626899999, 34.386072193 ], [ 135.816422738999989, 34.386161893 ], [ 135.816578799000013, 34.386183343 ], [ 135.81676306899999, 34.386177253 ], [ 135.816786312, 34.386024327 ] ] ] } }
]
}
