{
"type": "FeatureCollection",
"name": "A29-19_21362",
"features": [
{ "type": "Feature", "properties": { "A29_001": "21362", "A29_002": "岐阜県", "A29_003": "関ケ原町", "A29_004": 11, "A29_005": "工業地域", "A29_006": 60, "A29_007": 200, "A29_008": null }, "geometry": { "type": "Polygon", "coordinates": [ [ [ 136.474081014, 35.352995726 ], [ 136.473962271, 35.352992184 ], [ 136.473828228, 35.353007633 ], [ 136.473697417000011, 35.353053628 ], [ 136.473530275, 35.353177448 ], [ 136.473395090999986, 35.353317164 ], [ 136.47332584599999, 35.353442559 ], [ 136.473289403, 35.353553024 ], [ 136.473263893, 35.353645577 ], [ 136.47323838299999, 35.353762014 ], [ 136.473227321, 35.353997426 ], [ 136.47297456199999, 35.354021787 ], [ 136.471753194, 35.354118523 ], [ 136.471610379, 35.35413121 ], [ 136.47146690400001, 35.354143955 ], [ 136.470908836, 35.354184389 ], [ 136.47004062100001, 35.354240033 ], [ 136.469931236, 35.354246434 ], [ 136.469847458, 35.354251336 ], [ 136.468699681, 35.354305734 ], [ 136.46857740199999, 35.354314522 ], [ 136.468503067, 35.354319864 ], [ 136.466666667, 35.354432028 ], [ 136.46525281800001, 35.354518383 ], [ 136.465102564, 35.354526895 ], [ 136.465119517, 35.354761215 ], [ 136.46516066699999, 35.355021182 ], [ 136.465272313000014, 35.356519419 ], [ 136.46527461, 35.356545559 ], [ 136.46530861299999, 35.356844966 ], [ 136.46530287600001, 35.356987662 ], [ 136.465988898, 35.357107312 ], [ 136.470304561, 35.357926044 ], [ 136.47088999799999, 35.358063644 ], [ 136.470925717, 35.358043501 ], [ 136.47121071399999, 35.357882784 ], [ 136.471542879, 35.357690235 ], [ 136.471935409999986, 35.357470586 ], [ 136.472834978, 35.356956073 ], [ 136.472998337, 35.356868523 ], [ 136.473176964, 35.356775969 ], [ 136.473528956, 35.356578745 ], [ 136.473845036, 35.356398595 ], [ 136.47412569299999, 35.356235613 ], [ 136.474289113, 35.356119197 ], [ 136.474502269999988, 35.3559242 ], [ 136.474768716999989, 35.355586593 ], [ 136.474924498, 35.355343593 ], [ 136.47496131, 35.355247299 ], [ 136.475, 35.355128833 ], [ 136.475353582999986, 35.354372583 ], [ 136.475491409999989, 35.354062489 ], [ 136.475616015000014, 35.353789477 ], [ 136.475689002, 35.353629559 ], [ 136.475482402000011, 35.353613343 ], [ 136.47529978599999, 35.353589403 ], [ 136.475177728, 35.353564856 ], [ 136.47503847199999, 35.353508728 ], [ 136.474922748000012, 35.353424115 ], [ 136.474823334, 35.353338642 ], [ 136.474742437, 35.35326663 ], [ 136.474621121000013, 35.353173457 ], [ 136.474488842999989, 35.353100139 ], [ 136.474355378000013, 35.353047859 ], [ 136.474264799999986, 35.353018721 ], [ 136.47419387, 35.353006867 ], [ 136.474081014, 35.352995726 ] ] ] } },
{ "type": "Feature", "properties": { "A29_001": "21362", "A29_002": "岐阜県", "A29_003": "関ケ原町", "A29_004": 5, "A29_005": "第一種住居地域", "A29_006": 60, "A29_007": 200, "A29_008": null }, "geometry": { "type": "Polygon", "coordinates": [ [ [ 136.478681567, 35.353955593 ], [ 136.478562812, 35.353884561 ], [ 136.478497476, 35.353865109 ], [ 136.478423316, 35.353856339 ], [ 136.478357799, 35.353858351 ], [ 136.478238194, 35.353887482 ], [ 136.478162437, 35.353895398 ], [ 136.47807801799999, 35.353894917 ], [ 136.47798944499999, 35.35386937 ], [ 136.477954382, 35.353854578 ], [ 136.477329249, 35.353944707 ], [ 136.476619373, 35.354029377 ], [ 136.475939261, 35.354105627 ], [ 136.475666874000012, 35.354709371 ], [ 136.47555485, 35.35494198 ], [ 136.475401592, 35.355298846 ], [ 136.475332216999988, 35.35544584 ], [ 136.475257736, 35.355577063 ], [ 136.475158448, 35.355749643 ], [ 136.475002816, 35.355974846 ], [ 136.474817624, 35.356184139 ], [ 136.47472256, 35.356270884 ], [ 136.47455722699999, 35.356404449 ], [ 136.47444822599999, 35.356486821 ], [ 136.47357534299999, 35.356988987 ], [ 136.47243502399999, 35.357618621 ], [ 136.471922455999987, 35.357911887 ], [ 136.473402141, 35.358301023 ], [ 136.474060828, 35.358487964 ], [ 136.474620390000013, 35.358661755 ], [ 136.475287138999988, 35.358889934 ], [ 136.475714283, 35.359047971 ], [ 136.476101346, 35.359205202 ], [ 136.47860001699999, 35.356466714 ], [ 136.478404673999989, 35.356064961 ], [ 136.479100167000013, 35.355314916 ], [ 136.479131117, 35.355269778 ], [ 136.478782235000011, 35.354957848 ], [ 136.478698452, 35.354882245 ], [ 136.478649571, 35.354810418 ], [ 136.478608068999989, 35.354726708 ], [ 136.47859121, 35.354655063 ], [ 136.478590290999989, 35.354591857 ], [ 136.47859961, 35.354522746 ], [ 136.47863526099999, 35.354438283 ], [ 136.47876076899999, 35.354227929 ], [ 136.47879786499999, 35.354144666 ], [ 136.47880117, 35.354098179 ], [ 136.478795702000014, 35.354056411 ], [ 136.478774112, 35.354027668 ], [ 136.478681567, 35.353955593 ] ] ] } },
{ "type": "Feature", "properties": { "A29_001": "21362", "A29_002": "岐阜県", "A29_003": "関ケ原町", "A29_004": 3, "A29_005": "第一種中高層住居専用地域", "A29_006": 60, "A29_007": 200, "A29_008": null }, "geometry": { "type": "Polygon", "coordinates": [ [ [ 136.463690684999989, 35.359989725 ], [ 136.463689194000011, 35.359877583 ], [ 136.463713829, 35.359880719 ], [ 136.463987199, 35.359914271 ], [ 136.464385348, 35.359930657 ], [ 136.46440825799999, 35.359750214 ], [ 136.46460892499999, 35.359821606 ], [ 136.465034981, 35.360061406 ], [ 136.46538448699999, 35.360215862 ], [ 136.465477249, 35.359964291 ], [ 136.46559591499999, 35.359672901 ], [ 136.46569678899999, 35.359474191 ], [ 136.46575522, 35.359340326 ], [ 136.465815845, 35.359173836 ], [ 136.465890984, 35.358913403 ], [ 136.465839518, 35.358604226 ], [ 136.465842011, 35.358573643 ], [ 136.465810076999986, 35.35830635 ], [ 136.465731143, 35.357688905 ], [ 136.465544177, 35.357699779 ], [ 136.46550311199999, 35.357735315 ], [ 136.463276949, 35.357675626 ], [ 136.463173911000013, 35.357769989 ], [ 136.463150926, 35.357787612 ], [ 136.46312708100001, 35.357803023 ], [ 136.463075379, 35.357826834 ], [ 136.46304813, 35.357835013 ], [ 136.463036980999988, 35.357836117 ], [ 136.463026215000014, 35.357837184 ], [ 136.462993355, 35.35784044 ], [ 136.461822882, 35.357716429 ], [ 136.461434497999988, 35.357592123 ], [ 136.461200815000012, 35.357870041 ], [ 136.461181962000012, 35.357898785 ], [ 136.460198394, 35.357665147 ], [ 136.459987506, 35.357357079 ], [ 136.459947588, 35.357276801 ], [ 136.459881524999986, 35.357321484 ], [ 136.459804330999987, 35.357391703 ], [ 136.459684955, 35.357517019 ], [ 136.459513262, 35.357755516 ], [ 136.45947858299999, 35.357808089 ], [ 136.459430419, 35.357893034 ], [ 136.459410565000013, 35.357936456 ], [ 136.459406597999987, 35.357949728 ], [ 136.459401944, 35.357978681 ], [ 136.459398298, 35.358062444 ], [ 136.459392968, 35.358086886 ], [ 136.459388405, 35.358099163 ], [ 136.459379861, 35.358113626 ], [ 136.45934823499999, 35.358147759 ], [ 136.45932986, 35.358164068 ], [ 136.45919991400001, 35.358276401 ], [ 136.45918348, 35.358288579 ], [ 136.45916225900001, 35.358304304 ], [ 136.459112814, 35.358333333 ], [ 136.459001503, 35.358398685 ], [ 136.45891942599999, 35.358454542 ], [ 136.458903635000013, 35.358473649 ], [ 136.458872391999989, 35.358523313 ], [ 136.458812489, 35.358629417 ], [ 136.45875411899999, 35.358723631 ], [ 136.458635528, 35.358922505 ], [ 136.45858740700001, 35.359008622 ], [ 136.45856795, 35.359056868 ], [ 136.45854214900001, 35.359113279 ], [ 136.458536458999987, 35.359122305 ], [ 136.45853405599999, 35.359126618 ], [ 136.458522047, 35.359148166 ], [ 136.458396282, 35.359129539 ], [ 136.458333333000013, 35.359122976 ], [ 136.458255395, 35.35911485 ], [ 136.458081348, 35.359116195 ], [ 136.457892522, 35.359132336 ], [ 136.45782356, 35.359145786 ], [ 136.45762324099999, 35.359211695 ], [ 136.457318691000012, 35.359321138 ], [ 136.45723618299999, 35.359348376 ], [ 136.457081054000014, 35.359417432 ], [ 136.45659675499999, 35.359682105 ], [ 136.457890615, 35.360196337 ], [ 136.458210912999988, 35.36032414 ], [ 136.458454890000013, 35.360390441 ], [ 136.45868268000001, 35.360443291 ], [ 136.458864057999989, 35.360476788 ], [ 136.45902690299999, 35.36049873 ], [ 136.45919918199999, 35.36050737 ], [ 136.45944603699999, 35.360510723 ], [ 136.45966744099999, 35.360494847 ], [ 136.459870212, 35.360478861 ], [ 136.460180349000012, 35.360436791 ], [ 136.460770429, 35.360342934 ], [ 136.461512148999986, 35.360213657 ], [ 136.46244282699999, 35.36006268 ], [ 136.462592097, 35.360038747 ], [ 136.46279250399999, 35.360026558 ], [ 136.46301628399999, 35.360004966 ], [ 136.463335468999986, 35.359993468 ], [ 136.463556755000013, 35.35999094 ], [ 136.463690684999989, 35.359989725 ] ] ] } },
{ "type": "Feature", "properties": { "A29_001": "21362", "A29_002": "岐阜県", "A29_003": "関ケ原町", "A29_004": 5, "A29_005": "第一種住居地域", "A29_006": 60, "A29_007": 200, "A29_008": null }, "geometry": { "type": "Polygon", "coordinates": [ [ [ 136.470304561, 35.357926044 ], [ 136.465988898, 35.357107312 ], [ 136.46572506199999, 35.35750771 ], [ 136.465731143, 35.357688905 ], [ 136.465810076999986, 35.35830635 ], [ 136.465842011, 35.358573643 ], [ 136.465839518, 35.358604226 ], [ 136.465890984, 35.358913403 ], [ 136.465815845, 35.359173836 ], [ 136.46575522, 35.359340326 ], [ 136.46569678899999, 35.359474191 ], [ 136.46559591499999, 35.359672901 ], [ 136.465477249, 35.359964291 ], [ 136.46538448699999, 35.360215862 ], [ 136.465369650000014, 35.36024871 ], [ 136.466086956, 35.36060586 ], [ 136.466186198, 35.360640596 ], [ 136.466388223, 35.360688829 ], [ 136.466419701, 35.360695955 ], [ 136.46665797599999, 35.360749896 ], [ 136.466666667, 35.36075204 ], [ 136.4668063, 35.360786488 ], [ 136.46711187, 35.360861873 ], [ 136.467437589000014, 35.360931049 ], [ 136.467503639, 35.360951019 ], [ 136.467637688, 35.360981299 ], [ 136.468184995, 35.359633363 ], [ 136.468260719999989, 35.359460892 ], [ 136.468327370999987, 35.35932772 ], [ 136.468424591, 35.359194724 ], [ 136.468520281999986, 35.359070067 ], [ 136.46860399, 35.358984692 ], [ 136.46871261699999, 35.358879189 ], [ 136.468927943000011, 35.358723025 ], [ 136.46909479199999, 35.358617858 ], [ 136.469222124999987, 35.358537505 ], [ 136.469544076, 35.358339026 ], [ 136.470304561, 35.357926044 ] ] ] } },
{ "type": "Feature", "properties": { "A29_001": "21362", "A29_002": "岐阜県", "A29_003": "関ケ原町", "A29_004": 10, "A29_005": "準工業地域", "A29_006": 60, "A29_007": 200, "A29_008": null }, "geometry": { "type": "Polygon", "coordinates": [ [ [ 136.475287138999988, 35.358889934 ], [ 136.474620390000013, 35.358661755 ], [ 136.474060828, 35.358487964 ], [ 136.473402141, 35.358301023 ], [ 136.471922455999987, 35.357911887 ], [ 136.47243502399999, 35.357618621 ], [ 136.47357534299999, 35.356988987 ], [ 136.47444822599999, 35.356486821 ], [ 136.47455722699999, 35.356404449 ], [ 136.47472256, 35.356270884 ], [ 136.474817624, 35.356184139 ], [ 136.475002816, 35.355974846 ], [ 136.475158448, 35.355749643 ], [ 136.475257736, 35.355577063 ], [ 136.475332216999988, 35.35544584 ], [ 136.475401592, 35.355298846 ], [ 136.47555485, 35.35494198 ], [ 136.475666874000012, 35.354709371 ], [ 136.475939261, 35.354105627 ], [ 136.476619373, 35.354029377 ], [ 136.477329249, 35.353944707 ], [ 136.477954382, 35.353854578 ], [ 136.47787196499999, 35.353819809 ], [ 136.477567443999988, 35.353684516 ], [ 136.477385954, 35.353587796 ], [ 136.475616015000014, 35.353789477 ], [ 136.475491409999989, 35.354062489 ], [ 136.475353582999986, 35.354372583 ], [ 136.475, 35.355128833 ], [ 136.47496131, 35.355247299 ], [ 136.474924498, 35.355343593 ], [ 136.474768716999989, 35.355586593 ], [ 136.474502269999988, 35.3559242 ], [ 136.474289113, 35.356119197 ], [ 136.47412569299999, 35.356235613 ], [ 136.473845036, 35.356398595 ], [ 136.473528956, 35.356578745 ], [ 136.473176964, 35.356775969 ], [ 136.472998337, 35.356868523 ], [ 136.472834978, 35.356956073 ], [ 136.471935409999986, 35.357470586 ], [ 136.471542879, 35.357690235 ], [ 136.47121071399999, 35.357882784 ], [ 136.470925717, 35.358043501 ], [ 136.47088999799999, 35.358063644 ], [ 136.470304561, 35.357926044 ], [ 136.469544076, 35.358339026 ], [ 136.469222124999987, 35.358537505 ], [ 136.46909479199999, 35.358617858 ], [ 136.468927943000011, 35.358723025 ], [ 136.46871261699999, 35.358879189 ], [ 136.46860399, 35.358984692 ], [ 136.468520281999986, 35.359070067 ], [ 136.468424591, 35.359194724 ], [ 136.468327370999987, 35.35932772 ], [ 136.468260719999989, 35.359460892 ], [ 136.468184995, 35.359633363 ], [ 136.467637688, 35.360981299 ], [ 136.46804738599999, 35.361097405 ], [ 136.468487098, 35.361203512 ], [ 136.46882001899999, 35.360381527 ], [ 136.46907621599999, 35.359740472 ], [ 136.469208943000012, 35.359540902 ], [ 136.469353477999988, 35.359390053 ], [ 136.469504828, 35.359259276 ], [ 136.469713756, 35.359135987 ], [ 136.469880530000012, 35.359039643 ], [ 136.47007186799999, 35.358930561 ], [ 136.470375878, 35.358770728 ], [ 136.470564722, 35.359037167 ], [ 136.470674722000012, 35.359127167 ], [ 136.470786737, 35.359220108 ], [ 136.470937455000012, 35.359305193 ], [ 136.471053903000012, 35.359350228 ], [ 136.47117979, 35.359381169 ], [ 136.47127420699999, 35.359400682 ], [ 136.471451871999989, 35.359421058 ], [ 136.47177522199999, 35.359442404 ], [ 136.471860978, 35.359450233 ], [ 136.47217911300001, 35.359479274 ], [ 136.472206355, 35.359481215 ], [ 136.47267679699999, 35.359519971 ], [ 136.473184331, 35.359590226 ], [ 136.473442573999989, 35.359629475 ], [ 136.474171968, 35.359747333 ], [ 136.4744536, 35.359788466 ], [ 136.474959833000014, 35.359882306 ], [ 136.475, 35.359893722 ], [ 136.47528513899999, 35.359974667 ], [ 136.475482167, 35.36005 ], [ 136.47617355599999, 35.360300167 ], [ 136.47649883299999, 35.360427139 ], [ 136.476938917000012, 35.360598889 ], [ 136.477090111, 35.360657917 ], [ 136.477151111000012, 35.360681722 ], [ 136.477207916999987, 35.360703889 ], [ 136.47784172199999, 35.361013194 ], [ 136.478516055999989, 35.36134225 ], [ 136.479229389000011, 35.361647972 ], [ 136.479323833, 35.361347611 ], [ 136.479449194000011, 35.360976222 ], [ 136.479494444000011, 35.36088125 ], [ 136.477117332, 35.359971263 ], [ 136.475836136, 35.359495851 ], [ 136.476101346, 35.359205202 ], [ 136.475714283, 35.359047971 ], [ 136.475287138999988, 35.358889934 ] ] ] } },
{ "type": "Feature", "properties": { "A29_001": "21362", "A29_002": "岐阜県", "A29_003": "関ケ原町", "A29_004": 5, "A29_005": "第一種住居地域", "A29_006": 60, "A29_007": 200, "A29_008": null }, "geometry": { "type": "Polygon", "coordinates": [ [ [ 136.46521546299999, 35.36105592 ], [ 136.465002201, 35.360938296 ], [ 136.464874568999988, 35.360884132 ], [ 136.464784035, 35.360849263 ], [ 136.464688843, 35.360814367 ], [ 136.464607527, 35.360790999 ], [ 136.464507529, 35.360773246 ], [ 136.464372529, 35.360762922 ], [ 136.464086485, 35.360744078 ], [ 136.463853461000014, 35.360725561 ], [ 136.46355312, 35.360712367 ], [ 136.463352794, 35.360715017 ], [ 136.463115136999988, 35.360725081 ], [ 136.462795766999989, 35.360757565 ], [ 136.462434392, 35.360799343 ], [ 136.46170903, 35.360915315 ], [ 136.461034554, 35.361040049 ], [ 136.46205350599999, 35.36101172 ], [ 136.462266027, 35.361012959 ], [ 136.462487157999988, 35.361028558 ], [ 136.462711159, 35.361048942 ], [ 136.462972799, 35.361093395 ], [ 136.46317039199999, 35.361137475 ], [ 136.463431826, 35.361205775 ], [ 136.463661257000012, 35.361271504 ], [ 136.464041372, 35.361419196 ], [ 136.46420655, 35.3615084 ], [ 136.465523988, 35.362218363 ], [ 136.466324756, 35.36266838 ], [ 136.46681572, 35.362117915 ], [ 136.467138471999988, 35.36182882 ], [ 136.466413061, 35.361545579 ], [ 136.465919587, 35.361375772 ], [ 136.465673684, 35.36127874 ], [ 136.465421754, 35.361171595 ], [ 136.46521546299999, 35.36105592 ] ] ] } },
{ "type": "Feature", "properties": { "A29_001": "21362", "A29_002": "岐阜県", "A29_003": "関ケ原町", "A29_004": 7, "A29_005": "準住居地域", "A29_006": 60, "A29_007": 200, "A29_008": null }, "geometry": { "type": "Polygon", "coordinates": [ [ [ 136.46665797599999, 35.360749896 ], [ 136.466419701, 35.360695955 ], [ 136.466388223, 35.360688829 ], [ 136.466186198, 35.360640596 ], [ 136.466086956, 35.36060586 ], [ 136.465369650000014, 35.36024871 ], [ 136.46538448699999, 35.360215862 ], [ 136.465034981, 35.360061406 ], [ 136.46460892499999, 35.359821606 ], [ 136.46440825799999, 35.359750214 ], [ 136.464385348, 35.359930657 ], [ 136.463987199, 35.359914271 ], [ 136.463713829, 35.359880719 ], [ 136.463689194000011, 35.359877583 ], [ 136.463690684999989, 35.359989725 ], [ 136.463556755000013, 35.35999094 ], [ 136.463335468999986, 35.359993468 ], [ 136.46301628399999, 35.360004966 ], [ 136.46279250399999, 35.360026558 ], [ 136.462592097, 35.360038747 ], [ 136.46244282699999, 35.36006268 ], [ 136.461512148999986, 35.360213657 ], [ 136.460770429, 35.360342934 ], [ 136.460180349000012, 35.360436791 ], [ 136.459870212, 35.360478861 ], [ 136.45966744099999, 35.360494847 ], [ 136.45944603699999, 35.360510723 ], [ 136.45919918199999, 35.36050737 ], [ 136.45902690299999, 35.36049873 ], [ 136.458864057999989, 35.360476788 ], [ 136.45868268000001, 35.360443291 ], [ 136.458454890000013, 35.360390441 ], [ 136.458210912999988, 35.36032414 ], [ 136.457890615, 35.360196337 ], [ 136.45659675499999, 35.359682105 ], [ 136.456568737999987, 35.359697416 ], [ 136.45630624899999, 35.359811486 ], [ 136.45613916100001, 35.359890998 ], [ 136.455549512, 35.359622131 ], [ 136.45524125899999, 35.359967746 ], [ 136.455913065, 35.36038191 ], [ 136.456492762000011, 35.360676282 ], [ 136.456820666999988, 35.360799841 ], [ 136.457099332000013, 35.360894491 ], [ 136.457372384, 35.360965257 ], [ 136.457680497000013, 35.361021919 ], [ 136.45813716699999, 35.361069911 ], [ 136.45872804699999, 35.361085299 ], [ 136.460775199000011, 35.361047259 ], [ 136.461034554, 35.361040049 ], [ 136.46170903, 35.360915315 ], [ 136.462434392, 35.360799343 ], [ 136.462795766999989, 35.360757565 ], [ 136.463115136999988, 35.360725081 ], [ 136.463352794, 35.360715017 ], [ 136.46355312, 35.360712367 ], [ 136.463853461000014, 35.360725561 ], [ 136.464086485, 35.360744078 ], [ 136.464372529, 35.360762922 ], [ 136.464507529, 35.360773246 ], [ 136.464607527, 35.360790999 ], [ 136.464688843, 35.360814367 ], [ 136.464784035, 35.360849263 ], [ 136.464874568999988, 35.360884132 ], [ 136.465002201, 35.360938296 ], [ 136.46521546299999, 35.36105592 ], [ 136.465421754, 35.361171595 ], [ 136.465673684, 35.36127874 ], [ 136.465919587, 35.361375772 ], [ 136.466413061, 35.361545579 ], [ 136.467138471999988, 35.36182882 ], [ 136.46681572, 35.362117915 ], [ 136.466324756, 35.36266838 ], [ 136.46669994199999, 35.362867648 ], [ 136.466774684, 35.362776283 ], [ 136.466776084, 35.362774361 ], [ 136.466810922, 35.362727646 ], [ 136.467017414999987, 35.362504697 ], [ 136.46742464, 35.362101933 ], [ 136.467517617999988, 35.362009637 ], [ 136.467528977, 35.361999458 ], [ 136.467706518, 35.361800068 ], [ 136.467799899999989, 35.361697744 ], [ 136.46804738599999, 35.361097405 ], [ 136.467637688, 35.360981299 ], [ 136.467503639, 35.360951019 ], [ 136.467437589000014, 35.360931049 ], [ 136.46711187, 35.360861873 ], [ 136.4668063, 35.360786488 ], [ 136.466666667, 35.36075204 ], [ 136.46665797599999, 35.360749896 ] ] ] } },
{ "type": "Feature", "properties": { "A29_001": "21362", "A29_002": "岐阜県", "A29_003": "関ケ原町", "A29_004": 5, "A29_005": "第一種住居地域", "A29_006": 60, "A29_007": 200, "A29_008": null }, "geometry": { "type": "Polygon", "coordinates": [ [ [ 136.46835262, 35.362754973 ], [ 136.468573751, 35.362505556 ], [ 136.468694965999987, 35.362508829 ], [ 136.468752243000012, 35.362445543 ], [ 136.468792481, 35.362381954 ], [ 136.46863796, 35.362349198 ], [ 136.46818625899999, 35.362229725 ], [ 136.46788858, 35.362143338 ], [ 136.467639061999989, 35.36204292 ], [ 136.467528977, 35.361999458 ], [ 136.467517617999988, 35.362009637 ], [ 136.46742464, 35.362101933 ], [ 136.467017414999987, 35.362504697 ], [ 136.466810922, 35.362727646 ], [ 136.466776084, 35.362774361 ], [ 136.466774684, 35.362776283 ], [ 136.46669994199999, 35.362867648 ], [ 136.467074364000013, 35.363041332 ], [ 136.46750950099999, 35.363225106 ], [ 136.467828822, 35.363334276 ], [ 136.467939911, 35.363145128 ], [ 136.46805543, 35.36305297 ], [ 136.468103004999989, 35.3630258 ], [ 136.46835262, 35.362754973 ] ] ] } },
{ "type": "Feature", "properties": { "A29_001": "21362", "A29_002": "岐阜県", "A29_003": "関ケ原町", "A29_004": 5, "A29_005": "第一種住居地域", "A29_006": 60, "A29_007": 200, "A29_008": null }, "geometry": { "type": "Polygon", "coordinates": [ [ [ 136.470564722, 35.359037167 ], [ 136.470375878, 35.358770728 ], [ 136.47007186799999, 35.358930561 ], [ 136.469880530000012, 35.359039643 ], [ 136.469713756, 35.359135987 ], [ 136.469504828, 35.359259276 ], [ 136.469353477999988, 35.359390053 ], [ 136.469208943000012, 35.359540902 ], [ 136.46907621599999, 35.359740472 ], [ 136.46882001899999, 35.360381527 ], [ 136.468487098, 35.361203512 ], [ 136.468688711, 35.361254481 ], [ 136.46887020599999, 35.361292505 ], [ 136.469309396999989, 35.361368121 ], [ 136.469774937000011, 35.361458259 ], [ 136.47018085799999, 35.361540443 ], [ 136.470311581, 35.361579799 ], [ 136.470344035000011, 35.361587629 ], [ 136.47045076399999, 35.361619072 ], [ 136.470891263, 35.361685206 ], [ 136.471124785, 35.361718032 ], [ 136.47183477199999, 35.361833735 ], [ 136.472984658, 35.362038182 ], [ 136.472898273, 35.362132837 ], [ 136.472840964, 35.362211079 ], [ 136.472732713999989, 35.362501444 ], [ 136.472716604, 35.362549777 ], [ 136.473166956, 35.362585176 ], [ 136.47341716599999, 35.362605691 ], [ 136.47370512099999, 35.362638347 ], [ 136.474030965, 35.36266645 ], [ 136.474350109999989, 35.362708051 ], [ 136.47444974699999, 35.362721318 ], [ 136.474644581, 35.362748668 ], [ 136.474821948, 35.362775918 ], [ 136.47495855599999, 35.362802935 ], [ 136.475129896999988, 35.362853999 ], [ 136.47529826600001, 35.362912202 ], [ 136.47548394099999, 35.362989582 ], [ 136.475727780999989, 35.36307445 ], [ 136.476995452000011, 35.363449371 ], [ 136.477256936, 35.363514065 ], [ 136.47743275799999, 35.363552034 ], [ 136.47755198199999, 35.363569409 ], [ 136.477683431, 35.363587092 ], [ 136.478023169000011, 35.363625279 ], [ 136.478251160000013, 35.363657106 ], [ 136.47910164000001, 35.363811417 ], [ 136.47925277499999, 35.363213491 ], [ 136.478814333, 35.363128028 ], [ 136.479229389000011, 35.361647972 ], [ 136.478516055999989, 35.36134225 ], [ 136.47784172199999, 35.361013194 ], [ 136.477207916999987, 35.360703889 ], [ 136.477151111000012, 35.360681722 ], [ 136.477090111, 35.360657917 ], [ 136.476938917000012, 35.360598889 ], [ 136.47649883299999, 35.360427139 ], [ 136.47617355599999, 35.360300167 ], [ 136.475482167, 35.36005 ], [ 136.47528513899999, 35.359974667 ], [ 136.475, 35.359893722 ], [ 136.474959833000014, 35.359882306 ], [ 136.4744536, 35.359788466 ], [ 136.474171968, 35.359747333 ], [ 136.473442573999989, 35.359629475 ], [ 136.473184331, 35.359590226 ], [ 136.47267679699999, 35.359519971 ], [ 136.472206355, 35.359481215 ], [ 136.47217911300001, 35.359479274 ], [ 136.471860978, 35.359450233 ], [ 136.47177522199999, 35.359442404 ], [ 136.471451871999989, 35.359421058 ], [ 136.47127420699999, 35.359400682 ], [ 136.47117979, 35.359381169 ], [ 136.471053903000012, 35.359350228 ], [ 136.470937455000012, 35.359305193 ], [ 136.470786737, 35.359220108 ], [ 136.470674722000012, 35.359127167 ], [ 136.470564722, 35.359037167 ] ] ] } },
{ "type": "Feature", "properties": { "A29_001": "21362", "A29_002": "岐阜県", "A29_003": "関ケ原町", "A29_004": 9, "A29_005": "商業地域", "A29_006": 80, "A29_007": 400, "A29_008": null }, "geometry": { "type": "Polygon", "coordinates": [ [ [ 136.470658891, 35.362443433 ], [ 136.469953229999987, 35.362261052 ], [ 136.46989704500001, 35.362415482 ], [ 136.469913529, 35.362427758 ], [ 136.46948916, 35.363748489 ], [ 136.469536887, 35.363758229 ], [ 136.47062754000001, 35.363893303 ], [ 136.470866822, 35.363917998 ], [ 136.47095037, 35.363563988 ], [ 136.471215656, 35.362582745 ], [ 136.470658891, 35.362443433 ] ] ] } },
{ "type": "Feature", "properties": { "A29_001": "21362", "A29_002": "岐阜県", "A29_003": "関ケ原町", "A29_004": 8, "A29_005": "近隣商業地域", "A29_006": 80, "A29_007": 300, "A29_008": null }, "geometry": { "type": "Polygon", "coordinates": [ [ [ 136.472732713999989, 35.362501444 ], [ 136.472840964, 35.362211079 ], [ 136.472898273, 35.362132837 ], [ 136.472984658, 35.362038182 ], [ 136.47183477199999, 35.361833735 ], [ 136.471124785, 35.361718032 ], [ 136.470891263, 35.361685206 ], [ 136.47045076399999, 35.361619072 ], [ 136.470344035000011, 35.361587629 ], [ 136.470311581, 35.361579799 ], [ 136.47018085799999, 35.361540443 ], [ 136.469774937000011, 35.361458259 ], [ 136.469309396999989, 35.361368121 ], [ 136.46887020599999, 35.361292505 ], [ 136.468688711, 35.361254481 ], [ 136.468487098, 35.361203512 ], [ 136.46804738599999, 35.361097405 ], [ 136.467799899999989, 35.361697744 ], [ 136.467706518, 35.361800068 ], [ 136.467528977, 35.361999458 ], [ 136.467639061999989, 35.36204292 ], [ 136.46788858, 35.362143338 ], [ 136.46818625899999, 35.362229725 ], [ 136.46863796, 35.362349198 ], [ 136.468792481, 35.362381954 ], [ 136.468752243000012, 35.362445543 ], [ 136.468694965999987, 35.362508829 ], [ 136.468573751, 35.362505556 ], [ 136.46835262, 35.362754973 ], [ 136.468103004999989, 35.3630258 ], [ 136.46805543, 35.36305297 ], [ 136.467939911, 35.363145128 ], [ 136.467828822, 35.363334276 ], [ 136.46853393399999, 35.36355355 ], [ 136.46948916, 35.363748489 ], [ 136.469913529, 35.362427758 ], [ 136.46989704500001, 35.362415482 ], [ 136.469953229999987, 35.362261052 ], [ 136.470658891, 35.362443433 ], [ 136.471215656, 35.362582745 ], [ 136.47095037, 35.363563988 ], [ 136.470866822, 35.363917998 ], [ 136.472288378, 35.3640647 ], [ 136.4723377, 35.363885421 ], [ 136.47234061, 35.363866153 ], [ 136.472360573, 35.363807686 ], [ 136.47250356699999, 35.363388888 ], [ 136.472613039, 35.362954559 ], [ 136.472613545, 35.36289695 ], [ 136.472619716, 35.362840455 ], [ 136.472716604, 35.362549777 ], [ 136.472732713999989, 35.362501444 ] ] ] } },
{ "type": "Feature", "properties": { "A29_001": "21362", "A29_002": "岐阜県", "A29_003": "関ケ原町", "A29_004": 7, "A29_005": "準住居地域", "A29_006": 60, "A29_007": 200, "A29_008": null }, "geometry": { "type": "Polygon", "coordinates": [ [ [ 136.473166956, 35.362585176 ], [ 136.472716604, 35.362549777 ], [ 136.472619716, 35.362840455 ], [ 136.472613545, 35.36289695 ], [ 136.472613039, 35.362954559 ], [ 136.472535205000014, 35.363263367 ], [ 136.47342554299999, 35.363328579 ], [ 136.474193434999989, 35.363415262 ], [ 136.474481389, 35.363448393 ], [ 136.47462095099999, 35.363470657 ], [ 136.47479521599999, 35.363520308 ], [ 136.47509642599999, 35.363637941 ], [ 136.475378462, 35.363729785 ], [ 136.475711356, 35.363840363 ], [ 136.476150507, 35.363960255 ], [ 136.47660946799999, 35.364107124 ], [ 136.476899989, 35.364181226 ], [ 136.477091795, 35.364222864 ], [ 136.477360661, 35.364275675 ], [ 136.4776427, 35.364320212 ], [ 136.47795680499999, 35.364360162 ], [ 136.47822142699999, 35.364398637 ], [ 136.478870194, 35.364510018 ], [ 136.478953458, 35.364201058 ], [ 136.479016804999986, 35.364147041 ], [ 136.47910164000001, 35.363811417 ], [ 136.478251160000013, 35.363657106 ], [ 136.478023169000011, 35.363625279 ], [ 136.477683431, 35.363587092 ], [ 136.47755198199999, 35.363569409 ], [ 136.47743275799999, 35.363552034 ], [ 136.477256936, 35.363514065 ], [ 136.476995452000011, 35.363449371 ], [ 136.475727780999989, 35.36307445 ], [ 136.47548394099999, 35.362989582 ], [ 136.47529826600001, 35.362912202 ], [ 136.475129896999988, 35.362853999 ], [ 136.47495855599999, 35.362802935 ], [ 136.474821948, 35.362775918 ], [ 136.474644581, 35.362748668 ], [ 136.47444974699999, 35.362721318 ], [ 136.474350109999989, 35.362708051 ], [ 136.474030965, 35.36266645 ], [ 136.47370512099999, 35.362638347 ], [ 136.47341716599999, 35.362605691 ], [ 136.473166956, 35.362585176 ] ] ] } },
{ "type": "Feature", "properties": { "A29_001": "21362", "A29_002": "岐阜県", "A29_003": "関ケ原町", "A29_004": 10, "A29_005": "準工業地域", "A29_006": 60, "A29_007": 200, "A29_008": null }, "geometry": { "type": "Polygon", "coordinates": [ [ [ 136.480676749999986, 35.363316639 ], [ 136.480445583, 35.363250222 ], [ 136.480389056, 35.363236167 ], [ 136.480321, 35.363235278 ], [ 136.48006591699999, 35.363260139 ], [ 136.479748139, 35.363287556 ], [ 136.479714083, 35.363285389 ], [ 136.47925277499999, 35.363213491 ], [ 136.479016804999986, 35.364147041 ], [ 136.478953458, 35.364201058 ], [ 136.478839225, 35.364624929 ], [ 136.47883153399999, 35.364707882 ], [ 136.47882501, 35.364778996 ], [ 136.48045397199999, 35.364956157 ], [ 136.480893998999989, 35.364979643 ], [ 136.481159276999989, 35.365009767 ], [ 136.48234598799999, 35.365151959 ], [ 136.482913733, 35.365221951 ], [ 136.482921909999988, 35.365080808 ], [ 136.4827545, 35.365055944 ], [ 136.482836608000014, 35.364786676 ], [ 136.482878389, 35.364655833 ], [ 136.482891333, 35.364587889 ], [ 136.482911667, 35.364533694 ], [ 136.483002277999987, 35.364348194 ], [ 136.483128943999986, 35.364100861 ], [ 136.483186, 35.363996056 ], [ 136.483239112, 35.363884429 ], [ 136.483062389, 35.363859364 ], [ 136.482951235, 35.363842995 ], [ 136.482380129, 35.363740097 ], [ 136.482318523, 35.36373071 ], [ 136.481842459, 35.363647957 ], [ 136.481738138, 35.363628104 ], [ 136.481637398, 35.36359478 ], [ 136.481576983, 35.363575214 ], [ 136.481124916999988, 35.363445389 ], [ 136.480676749999986, 35.363316639 ] ] ] } },
{ "type": "Feature", "properties": { "A29_001": "21362", "A29_002": "岐阜県", "A29_003": "関ケ原町", "A29_004": 5, "A29_005": "第一種住居地域", "A29_006": 60, "A29_007": 200, "A29_008": null }, "geometry": { "type": "Polygon", "coordinates": [ [ [ 136.472328616999988, 35.36637265 ], [ 136.47248590800001, 35.366364968 ], [ 136.472760627000014, 35.366380855 ], [ 136.472813089999988, 35.366374479 ], [ 136.472969522, 35.366195074 ], [ 136.473016660000013, 35.366130474 ], [ 136.473081396999987, 35.366050712 ], [ 136.47317397, 35.365984464 ], [ 136.473314045, 35.365947109 ], [ 136.47340272400001, 35.365927584 ], [ 136.473483112, 35.365924229 ], [ 136.47358085499999, 35.36593433 ], [ 136.473647064, 35.365954743 ], [ 136.473684281, 35.36596068 ], [ 136.47371797299999, 35.365970413 ], [ 136.473755239000013, 35.365970627 ], [ 136.473789044, 35.365967005 ], [ 136.473817075999989, 35.365957626 ], [ 136.473853291000012, 35.365944478 ], [ 136.473914306000012, 35.365891405 ], [ 136.473989662, 35.365795485 ], [ 136.474068584, 35.365690999 ], [ 136.474159820000011, 35.365508358 ], [ 136.474210728, 35.365411343 ], [ 136.474241919, 35.365304676 ], [ 136.474264543, 35.365246613 ], [ 136.47446062099999, 35.365060756 ], [ 136.474505224000012, 35.36501999 ], [ 136.474541448, 35.365005888 ], [ 136.474576377, 35.365007042 ], [ 136.474610076, 35.365015821 ], [ 136.47463309, 35.365048388 ], [ 136.474690626000012, 35.365129806 ], [ 136.474756363000012, 35.365205547 ], [ 136.47484297299999, 35.365291901 ], [ 136.474903302, 35.365318958 ], [ 136.475013432, 35.365378735 ], [ 136.475066513, 35.365436278 ], [ 136.475110230000013, 35.365499491 ], [ 136.475153979, 35.365558888 ], [ 136.47520353499999, 35.365620226 ], [ 136.47529961699999, 35.365688508 ], [ 136.47535294299999, 35.365717433 ], [ 136.475414535, 35.365733049 ], [ 136.47548666599999, 35.365742047 ], [ 136.47559734, 35.36573791 ], [ 136.47568952, 35.36571745 ], [ 136.475767733999987, 35.365695956 ], [ 136.475835547, 35.365664862 ], [ 136.47589877499999, 35.365625156 ], [ 136.476084093, 35.36547167 ], [ 136.476347874999988, 35.365267118 ], [ 136.47644628399999, 35.365198993 ], [ 136.476516433, 35.365166959 ], [ 136.476580517, 35.365163509 ], [ 136.476667835, 35.365166869 ], [ 136.476769079, 35.365176033 ], [ 136.476857383, 35.365200387 ], [ 136.476942177000012, 35.365226628 ], [ 136.47701636799999, 35.365267119 ], [ 136.47707304299999, 35.365313233 ], [ 136.477115637, 35.365371669 ], [ 136.47713844899999, 35.365428084 ], [ 136.47713697899999, 35.365532537 ], [ 136.47873007699999, 35.365519734 ], [ 136.478735368, 35.365461536 ], [ 136.47882501, 35.364778996 ], [ 136.47883153399999, 35.364707882 ], [ 136.478839225, 35.364624929 ], [ 136.478870194, 35.364510018 ], [ 136.47822142699999, 35.364398637 ], [ 136.47795680499999, 35.364360162 ], [ 136.4776427, 35.364320212 ], [ 136.477360661, 35.364275675 ], [ 136.477091795, 35.364222864 ], [ 136.476899989, 35.364181226 ], [ 136.47660946799999, 35.364107124 ], [ 136.476150507, 35.363960255 ], [ 136.475711356, 35.363840363 ], [ 136.475378462, 35.363729785 ], [ 136.47509642599999, 35.363637941 ], [ 136.47479521599999, 35.363520308 ], [ 136.47462095099999, 35.363470657 ], [ 136.474481389, 35.363448393 ], [ 136.474193434999989, 35.363415262 ], [ 136.47342554299999, 35.363328579 ], [ 136.472535205000014, 35.363263367 ], [ 136.47250356699999, 35.363388888 ], [ 136.472360573, 35.363807686 ], [ 136.47234061, 35.363866153 ], [ 136.4723377, 35.363885421 ], [ 136.472246934999987, 35.364215336 ], [ 136.472227198000013, 35.364362488 ], [ 136.472178103, 35.364637047 ], [ 136.472150704, 35.364859422 ], [ 136.472075912, 35.365471476 ], [ 136.472021348, 35.365964203 ], [ 136.471997735, 35.366174917 ], [ 136.47197348899999, 35.36626268 ], [ 136.471932114, 35.366406012 ], [ 136.471926292, 35.366426183 ], [ 136.47192404, 35.366433984 ], [ 136.47205582699999, 35.366403518 ], [ 136.472205081, 35.366382434 ], [ 136.472328616999988, 35.36637265 ] ] ] } },
{ "type": "Feature", "properties": { "A29_001": "21362", "A29_002": "岐阜県", "A29_003": "関ケ原町", "A29_004": 6, "A29_005": "第二種住居地域", "A29_006": 60, "A29_007": 200, "A29_008": null }, "geometry": { "type": "Polygon", "coordinates": [ [ [ 136.46853393399999, 35.36355355 ], [ 136.467828822, 35.363334276 ], [ 136.46779211399999, 35.363419649 ], [ 136.467748719000014, 35.363501614 ], [ 136.467640827, 35.363645881 ], [ 136.467591102, 35.363719655 ], [ 136.467558013, 35.363754977 ], [ 136.467499526000012, 35.363808206 ], [ 136.46717184100001, 35.364068234 ], [ 136.466702317999989, 35.36441126 ], [ 136.466666667, 35.364436456 ], [ 136.46586042199999, 35.364996838 ], [ 136.465771550999989, 35.365060625 ], [ 136.466003867000012, 35.366025915 ], [ 136.466148011, 35.366708109 ], [ 136.46614105899999, 35.366920461 ], [ 136.466151851, 35.366973473 ], [ 136.466166619, 35.366995019 ], [ 136.466188152, 35.367030203 ], [ 136.4662367, 35.367072698 ], [ 136.466330488000011, 35.367136204 ], [ 136.46649908099999, 35.367235976 ], [ 136.466566171000011, 35.367265224 ], [ 136.466630038, 35.367287059 ], [ 136.46673314899999, 35.367316276 ], [ 136.466856702, 35.367338456 ], [ 136.466967266000012, 35.367347443 ], [ 136.467157824, 35.367365241 ], [ 136.467316489000012, 35.367367352 ], [ 136.46752147399999, 35.366269922 ], [ 136.467653805, 35.365573269 ], [ 136.467859608999987, 35.364355538 ], [ 136.468084054, 35.364193316 ], [ 136.468247397999988, 35.36408198 ], [ 136.468470602, 35.363693681 ], [ 136.46852364, 35.363576327 ], [ 136.46853393399999, 35.36355355 ] ] ] } },
{ "type": "Feature", "properties": { "A29_001": "21362", "A29_002": "岐阜県", "A29_003": "関ケ原町", "A29_004": 10, "A29_005": "準工業地域", "A29_006": 60, "A29_007": 200, "A29_008": null }, "geometry": { "type": "Polygon", "coordinates": [ [ [ 136.465523988, 35.362218363 ], [ 136.46420655, 35.3615084 ], [ 136.464150636999989, 35.361577238 ], [ 136.46248552899999, 35.362557302 ], [ 136.462274189, 35.364430641 ], [ 136.46213184199999, 35.365533328 ], [ 136.461781112000011, 35.366357667 ], [ 136.461760379, 35.366556889 ], [ 136.461764783, 35.3666175 ], [ 136.46175684, 35.366693772 ], [ 136.461735495999989, 35.366804547 ], [ 136.461705521, 35.366903348 ], [ 136.461700912, 35.367014817 ], [ 136.461724198000013, 35.367183092 ], [ 136.461747473, 35.367352559 ], [ 136.461561941000014, 35.367426602 ], [ 136.461443694, 35.367464072 ], [ 136.462077222, 35.36762055 ], [ 136.463423664, 35.366688973 ], [ 136.46396406, 35.366315137 ], [ 136.464325401999986, 35.366078085 ], [ 136.465771550999989, 35.365060625 ], [ 136.46586042199999, 35.364996838 ], [ 136.466666667, 35.364436456 ], [ 136.466702317999989, 35.36441126 ], [ 136.46717184100001, 35.364068234 ], [ 136.467499526000012, 35.363808206 ], [ 136.467558013, 35.363754977 ], [ 136.467591102, 35.363719655 ], [ 136.467640827, 35.363645881 ], [ 136.467748719000014, 35.363501614 ], [ 136.46779211399999, 35.363419649 ], [ 136.467828822, 35.363334276 ], [ 136.46750950099999, 35.363225106 ], [ 136.467074364000013, 35.363041332 ], [ 136.46669994199999, 35.362867648 ], [ 136.466324756, 35.36266838 ], [ 136.465523988, 35.362218363 ] ] ] } },
{ "type": "Feature", "properties": { "A29_001": "21362", "A29_002": "岐阜県", "A29_003": "関ケ原町", "A29_004": 10, "A29_005": "準工業地域", "A29_006": 60, "A29_007": 200, "A29_008": null }, "geometry": { "type": "Polygon", "coordinates": [ [ [ 136.469536887, 35.363758229 ], [ 136.46853393399999, 35.36355355 ], [ 136.46852364, 35.363576327 ], [ 136.468470602, 35.363693681 ], [ 136.468247397999988, 35.36408198 ], [ 136.468084054, 35.364193316 ], [ 136.467859608999987, 35.364355538 ], [ 136.467653805, 35.365573269 ], [ 136.468540405, 35.365671408 ], [ 136.468433350999987, 35.366267895 ], [ 136.46824546900001, 35.367202146 ], [ 136.46819656400001, 35.367460995 ], [ 136.469006556000011, 35.367531499 ], [ 136.469196622, 35.367572663 ], [ 136.469368986, 35.367640914 ], [ 136.469595099, 35.367756696 ], [ 136.469632, 35.367681806 ], [ 136.46966890600001, 35.367622396 ], [ 136.46972476799999, 35.367559517 ], [ 136.46985216600001, 35.367473201 ], [ 136.470011426000013, 35.367406148 ], [ 136.470210032000011, 35.367334552 ], [ 136.470313522, 35.367319646 ], [ 136.47045609, 35.367191925 ], [ 136.470703246999989, 35.367030927 ], [ 136.471378783, 35.366686613 ], [ 136.47192404, 35.366433984 ], [ 136.471926292, 35.366426183 ], [ 136.471932114, 35.366406012 ], [ 136.47197348899999, 35.36626268 ], [ 136.471997735, 35.366174917 ], [ 136.472021348, 35.365964203 ], [ 136.472075912, 35.365471476 ], [ 136.472150704, 35.364859422 ], [ 136.472178103, 35.364637047 ], [ 136.472227198000013, 35.364362488 ], [ 136.472246934999987, 35.364215336 ], [ 136.472288378, 35.3640647 ], [ 136.47062754000001, 35.363893303 ], [ 136.469536887, 35.363758229 ] ] ] } },
{ "type": "Feature", "properties": { "A29_001": "21362", "A29_002": "岐阜県", "A29_003": "関ケ原町", "A29_004": 1, "A29_005": "第一種低層住居専用地域", "A29_006": 60, "A29_007": 100, "A29_008": null }, "geometry": { "type": "Polygon", "coordinates": [ [ [ 136.478646048, 35.367912057 ], [ 136.478665965, 35.36784267 ], [ 136.478932439, 35.367664123 ], [ 136.479465616999988, 35.367279602 ], [ 136.478101798000012, 35.367246796 ], [ 136.477746567, 35.367248349 ], [ 136.477542641000014, 35.367261496 ], [ 136.47733132499999, 35.367287718 ], [ 136.477064438000014, 35.367343434 ], [ 136.47679295899999, 35.367425358 ], [ 136.476317779, 35.367598584 ], [ 136.47617044399999, 35.367645528 ], [ 136.47590822699999, 35.367697316 ], [ 136.47593816700001, 35.367809674 ], [ 136.476085047999987, 35.367770133 ], [ 136.47619009600001, 35.367743306 ], [ 136.47625855699999, 35.367738928 ], [ 136.476328474000013, 35.367734557 ], [ 136.476447693000011, 35.367753125 ], [ 136.476592993999986, 35.367786152 ], [ 136.476793482, 35.367834996 ], [ 136.476902491, 35.36785589 ], [ 136.47700575799999, 35.367867212 ], [ 136.477148432, 35.367866834 ], [ 136.47730718, 35.367859392 ], [ 136.477658209, 35.367838737 ], [ 136.477796516000012, 35.367838333 ], [ 136.47794063500001, 35.367839154 ], [ 136.478134068, 35.367861721 ], [ 136.478363844, 35.367890457 ], [ 136.478615538000014, 35.367909778 ], [ 136.478646048, 35.367912057 ] ] ] } },
{ "type": "Feature", "properties": { "A29_001": "21362", "A29_002": "岐阜県", "A29_003": "関ケ原町", "A29_004": 5, "A29_005": "第一種住居地域", "A29_006": 60, "A29_007": 200, "A29_008": null }, "geometry": { "type": "Polygon", "coordinates": [ [ [ 136.46739213399999, 35.368771404 ], [ 136.46744064399999, 35.368210745 ], [ 136.467988904, 35.36824492 ], [ 136.46820022899999, 35.368252343 ], [ 136.468517096999989, 35.36817547 ], [ 136.469009123, 35.368045232 ], [ 136.46924589, 35.367937845 ], [ 136.46935279600001, 35.367898395 ], [ 136.46939827700001, 35.367891502 ], [ 136.46945599899999, 35.36788325 ], [ 136.469482301, 35.367871954 ], [ 136.469595099, 35.367756696 ], [ 136.469368986, 35.367640914 ], [ 136.469196622, 35.367572663 ], [ 136.469006556000011, 35.367531499 ], [ 136.46819656400001, 35.367460995 ], [ 136.46824546900001, 35.367202146 ], [ 136.468433350999987, 35.366267895 ], [ 136.468540405, 35.365671408 ], [ 136.467653805, 35.365573269 ], [ 136.46752147399999, 35.366269922 ], [ 136.467316489000012, 35.367367352 ], [ 136.467157824, 35.367365241 ], [ 136.466967266000012, 35.367347443 ], [ 136.466856702, 35.367338456 ], [ 136.46673314899999, 35.367316276 ], [ 136.466630038, 35.367287059 ], [ 136.466566171000011, 35.367265224 ], [ 136.46649908099999, 35.367235976 ], [ 136.466464245999987, 35.367421408 ], [ 136.466402910999989, 35.367745061 ], [ 136.46635759, 35.368004017 ], [ 136.46633058099999, 35.368159813 ], [ 136.46630017199999, 35.368375413 ], [ 136.466252911, 35.368697109 ], [ 136.466245621000013, 35.368788227 ], [ 136.466431562999986, 35.368738653 ], [ 136.46719074399999, 35.368827477 ], [ 136.46739213399999, 35.368771404 ] ] ] } },
{ "type": "Feature", "properties": { "A29_001": "21362", "A29_002": "岐阜県", "A29_003": "関ケ原町", "A29_004": 1, "A29_005": "第一種低層住居専用地域", "A29_006": 50, "A29_007": 80, "A29_008": null }, "geometry": { "type": "Polygon", "coordinates": [ [ [ 136.477746567, 35.367248349 ], [ 136.478101798000012, 35.367246796 ], [ 136.479465616999988, 35.367279602 ], [ 136.478932439, 35.367664123 ], [ 136.478665965, 35.36784267 ], [ 136.478646048, 35.367912057 ], [ 136.479030185, 35.367940757 ], [ 136.479236751, 35.36795982 ], [ 136.479454952999987, 35.36798014 ], [ 136.47968161599999, 35.368032706 ], [ 136.47981806300001, 35.368079988 ], [ 136.479964792, 35.368116596 ], [ 136.480013547, 35.368132345 ], [ 136.48002394400001, 35.368119361 ], [ 136.480046167000012, 35.368083944 ], [ 136.480065528000011, 35.368033944 ], [ 136.480088443999989, 35.367951278 ], [ 136.480092750000011, 35.367930222 ], [ 136.480094694, 35.367878611 ], [ 136.480090361, 35.367830972 ], [ 136.48007122199999, 35.367711222 ], [ 136.48002888900001, 35.367585056 ], [ 136.479989361, 35.367499306 ], [ 136.47989644399999, 35.367466972 ], [ 136.479780721999987, 35.367416917 ], [ 136.479697417000011, 35.367375806 ], [ 136.479633667, 35.367339278 ], [ 136.479602056, 35.367317056 ], [ 136.47958877799999, 35.367306722 ], [ 136.47955263899999, 35.367275639 ], [ 136.479530833000013, 35.367247444 ], [ 136.479389523, 35.366956994 ], [ 136.479386527, 35.366950837 ], [ 136.478937308000013, 35.366941351 ], [ 136.477245296, 35.366984179 ], [ 136.475863355, 35.367014446 ], [ 136.47558958499999, 35.367023613 ], [ 136.475295302, 35.367048164 ], [ 136.475025828000014, 35.367065702 ], [ 136.474834840999989, 35.367097998 ], [ 136.474584037, 35.367145453 ], [ 136.474325932999989, 35.367195251 ], [ 136.47407207399999, 35.367259383 ], [ 136.47383254799999, 35.36734983 ], [ 136.473188392999987, 35.367600133 ], [ 136.47320115799999, 35.367639558 ], [ 136.473232919999987, 35.367670744 ], [ 136.473392002, 35.367794482 ], [ 136.473425096999989, 35.367839986 ], [ 136.473430522, 35.367886523 ], [ 136.47342426, 35.367937764 ], [ 136.473402047, 35.367981758 ], [ 136.47336389099999, 35.368017313 ], [ 136.473289281, 35.368059814 ], [ 136.473157834, 35.368109144 ], [ 136.472915424, 35.368195996 ], [ 136.472830786, 35.368219359 ], [ 136.47278696, 35.368236995 ], [ 136.472743073, 35.368261785 ], [ 136.472712226, 35.368293805 ], [ 136.47269725000001, 35.36834261 ], [ 136.47269398200001, 35.368384328 ], [ 136.472717655, 35.368650064 ], [ 136.472708227999988, 35.368730859 ], [ 136.472723632, 35.368768153 ], [ 136.472747000999988, 35.368793329 ], [ 136.47280420300001, 35.368845888 ], [ 136.472829313, 35.36887179 ], [ 136.472836874, 35.368906892 ], [ 136.47284084899999, 35.368952706 ], [ 136.472831802, 35.368989144 ], [ 136.472811400000012, 35.369025516 ], [ 136.472793728999989, 35.369049026 ], [ 136.472764501, 35.36909608 ], [ 136.473038158, 35.369066885 ], [ 136.473290987000013, 35.36902183 ], [ 136.473580819, 35.368939781 ], [ 136.473885622000012, 35.368843507 ], [ 136.47407400899999, 35.368775185 ], [ 136.474141436999986, 35.368755538 ], [ 136.474200258, 35.368720816 ], [ 136.474258443999986, 35.368658187 ], [ 136.474362386, 35.368556468 ], [ 136.47448966799999, 35.368428791 ], [ 136.47459376, 35.368343529 ], [ 136.474734317000014, 35.368250129 ], [ 136.474966647, 35.368150098 ], [ 136.47522369399999, 35.368053787 ], [ 136.475768409000011, 35.367855374 ], [ 136.47593816700001, 35.367809674 ], [ 136.47590822699999, 35.367697316 ], [ 136.47617044399999, 35.367645528 ], [ 136.476317779, 35.367598584 ], [ 136.47679295899999, 35.367425358 ], [ 136.477064438000014, 35.367343434 ], [ 136.47733132499999, 35.367287718 ], [ 136.477542641000014, 35.367261496 ], [ 136.477746567, 35.367248349 ] ] ] } },
{ "type": "Feature", "properties": { "A29_001": "21362", "A29_002": "岐阜県", "A29_003": "関ケ原町", "A29_004": 5, "A29_005": "第一種住居地域", "A29_006": 60, "A29_007": 200, "A29_008": null }, "geometry": { "type": "Polygon", "coordinates": [ [ [ 136.48070766, 35.369102223 ], [ 136.48079536, 35.369060984 ], [ 136.480871302, 35.369032796 ], [ 136.48095722299999, 35.369029706 ], [ 136.481038767, 35.369027783 ], [ 136.481081025, 35.369023253 ], [ 136.481177226999989, 35.369009489 ], [ 136.481244283, 35.368999137 ], [ 136.481411909, 35.368975046 ], [ 136.481535962, 35.368938783 ], [ 136.48155951699999, 35.368907912 ], [ 136.48157441699999, 35.368867452 ], [ 136.481580556000011, 35.3687865 ], [ 136.482445845, 35.368768644 ], [ 136.48218359, 35.368526067 ], [ 136.481725187, 35.368081273 ], [ 136.48164717099999, 35.368010475 ], [ 136.481560601000012, 35.367918163 ], [ 136.481426817999989, 35.367727801 ], [ 136.480753142999987, 35.36682366 ], [ 136.48069385299999, 35.366776578 ], [ 136.480644315, 35.366746962 ], [ 136.48057629600001, 35.366733697 ], [ 136.480510866, 35.366724024 ], [ 136.480348552, 35.366705931 ], [ 136.480184557, 35.366679957 ], [ 136.480118333, 35.366660978 ], [ 136.480049580000014, 35.366631253 ], [ 136.480014108, 35.366590984 ], [ 136.479980504999986, 35.366536416 ], [ 136.479966141, 35.366479096 ], [ 136.479947349000014, 35.366428905 ], [ 136.479931075, 35.366390892 ], [ 136.479906035999988, 35.366356406 ], [ 136.479872203000014, 35.366329026 ], [ 136.479822587, 35.36630871 ], [ 136.47976588, 35.366300517 ], [ 136.47962005299999, 35.366295395 ], [ 136.479123910999988, 35.366296151 ], [ 136.47901757599999, 35.366372103 ], [ 136.47892462199999, 35.366415219 ], [ 136.478844957, 35.36643623 ], [ 136.478743529000013, 35.366448531 ], [ 136.47856711899999, 35.366444665 ], [ 136.47839528899999, 35.366415782 ], [ 136.477920071, 35.366318273 ], [ 136.47777005899999, 35.36629166 ], [ 136.477476731, 35.366272816 ], [ 136.47735090899999, 35.366459113 ], [ 136.477292818, 35.366535066 ], [ 136.477231361, 35.36657192 ], [ 136.477161376, 35.3665844 ], [ 136.47712461899999, 35.366592776 ], [ 136.477096558999989, 35.366605495 ], [ 136.477080679000011, 35.366624007 ], [ 136.47706637600001, 35.366662561 ], [ 136.476088002000012, 35.366671284 ], [ 136.475642463000014, 35.366678754 ], [ 136.47525094299999, 35.366702272 ], [ 136.47474025599999, 35.366769466 ], [ 136.474353498999989, 35.366848816 ], [ 136.474113725, 35.366900388 ], [ 136.47374602299999, 35.366998448 ], [ 136.473469147, 35.367098459 ], [ 136.47300288400001, 35.36728181 ], [ 136.472620506, 35.367461347 ], [ 136.472206279, 35.367687923 ], [ 136.471821819000013, 35.367906082 ], [ 136.47178161, 35.367942167 ], [ 136.470525571, 35.368680355 ], [ 136.470727161000013, 35.368684551 ], [ 136.470788406, 35.368672979 ], [ 136.470886248999989, 35.368637768 ], [ 136.470972323000012, 35.368616799 ], [ 136.471039278, 35.368618377 ], [ 136.47109598099999, 35.36862705 ], [ 136.471268788, 35.368678129 ], [ 136.471524389, 35.368751148 ], [ 136.471577561, 35.368758609 ], [ 136.471620069000011, 35.368758853 ], [ 136.471669614, 35.368753414 ], [ 136.47174609699999, 35.368730482 ], [ 136.471807374, 35.368715093 ], [ 136.471838085, 35.368652192 ], [ 136.471949243000012, 35.36861846 ], [ 136.472075260999986, 35.368591281 ], [ 136.472227377, 35.368576414 ], [ 136.472409118, 35.368570304 ], [ 136.472541853, 35.368574644 ], [ 136.472593307000011, 35.36858424 ], [ 136.472717655, 35.368650064 ], [ 136.47269398200001, 35.368384328 ], [ 136.47269725000001, 35.36834261 ], [ 136.472712226, 35.368293805 ], [ 136.472743073, 35.368261785 ], [ 136.47278696, 35.368236995 ], [ 136.472830786, 35.368219359 ], [ 136.472915424, 35.368195996 ], [ 136.473157834, 35.368109144 ], [ 136.473289281, 35.368059814 ], [ 136.47336389099999, 35.368017313 ], [ 136.473402047, 35.367981758 ], [ 136.47342426, 35.367937764 ], [ 136.473430522, 35.367886523 ], [ 136.473425096999989, 35.367839986 ], [ 136.473392002, 35.367794482 ], [ 136.473232919999987, 35.367670744 ], [ 136.47320115799999, 35.367639558 ], [ 136.473188392999987, 35.367600133 ], [ 136.47383254799999, 35.36734983 ], [ 136.47407207399999, 35.367259383 ], [ 136.474325932999989, 35.367195251 ], [ 136.474584037, 35.367145453 ], [ 136.474834840999989, 35.367097998 ], [ 136.475025828000014, 35.367065702 ], [ 136.475295302, 35.367048164 ], [ 136.47558958499999, 35.367023613 ], [ 136.475863355, 35.367014446 ], [ 136.477245296, 35.366984179 ], [ 136.478937308000013, 35.366941351 ], [ 136.479386527, 35.366950837 ], [ 136.479389523, 35.366956994 ], [ 136.479530833000013, 35.367247444 ], [ 136.47955263899999, 35.367275639 ], [ 136.47958877799999, 35.367306722 ], [ 136.479602056, 35.367317056 ], [ 136.479633667, 35.367339278 ], [ 136.479697417000011, 35.367375806 ], [ 136.479780721999987, 35.367416917 ], [ 136.47989644399999, 35.367466972 ], [ 136.479989361, 35.367499306 ], [ 136.48002888900001, 35.367585056 ], [ 136.48007122199999, 35.367711222 ], [ 136.480090361, 35.367830972 ], [ 136.480094694, 35.367878611 ], [ 136.480092750000011, 35.367930222 ], [ 136.480088443999989, 35.367951278 ], [ 136.480065528000011, 35.368033944 ], [ 136.480046167000012, 35.368083944 ], [ 136.48002394400001, 35.368119361 ], [ 136.480013547, 35.368132345 ], [ 136.48060361, 35.368322945 ], [ 136.480548281000011, 35.368323824 ], [ 136.48048845400001, 35.368340179 ], [ 136.480466355, 35.368371058 ], [ 136.480457296999987, 35.368409165 ], [ 136.48045839, 35.368452101 ], [ 136.480458086999988, 35.368487873 ], [ 136.480449181000012, 35.368508095 ], [ 136.480424271, 35.368527033 ], [ 136.480377455, 35.368554194 ], [ 136.480307326, 35.368583608 ], [ 136.480280920000013, 35.368607307 ], [ 136.480261732, 35.368638203 ], [ 136.480232445000013, 35.368658308 ], [ 136.48019589, 35.36867718 ], [ 136.480125851, 35.368695862 ], [ 136.480071786, 35.368719404 ], [ 136.480026474999988, 35.368740611 ], [ 136.479850852999988, 35.368849321 ], [ 136.479740811999989, 35.368950056 ], [ 136.479837126, 35.369094893 ], [ 136.47997128, 35.369069421 ], [ 136.479995280999987, 35.369157801 ], [ 136.47999944599999, 35.369181674 ], [ 136.480007575, 35.369253268 ], [ 136.480256563000012, 35.369248721 ], [ 136.480345457, 35.369238493 ], [ 136.480444712, 35.369208053 ], [ 136.480543998, 35.369174035 ], [ 136.48070766, 35.369102223 ] ] ] } },
{ "type": "Feature", "properties": { "A29_001": "21362", "A29_002": "岐阜県", "A29_003": "関ケ原町", "A29_004": 3, "A29_005": "第一種中高層住居専用地域", "A29_006": 60, "A29_007": 200, "A29_008": null }, "geometry": { "type": "Polygon", "coordinates": [ [ [ 136.466003867000012, 35.366025915 ], [ 136.465771550999989, 35.365060625 ], [ 136.464325401999986, 35.366078085 ], [ 136.464333775999989, 35.366197157 ], [ 136.464323443000012, 35.366280808 ], [ 136.464294466000013, 35.366367169 ], [ 136.46423161199999, 35.366486454 ], [ 136.464179828, 35.366541387 ], [ 136.464113144, 35.366600879 ], [ 136.46407326799999, 35.366643508 ], [ 136.46404193, 35.366705739 ], [ 136.464027797, 35.366741451 ], [ 136.46397103000001, 35.366783357 ], [ 136.463821438, 35.366890822 ], [ 136.463498027000014, 35.367117895 ], [ 136.462632676, 35.367731117 ], [ 136.46073598000001, 35.369024573 ], [ 136.460722143, 35.369083302 ], [ 136.4607274, 35.369141794 ], [ 136.46081990499999, 35.369218653 ], [ 136.460948535, 35.369326727 ], [ 136.461013951000012, 35.369337841 ], [ 136.461191213, 35.369378228 ], [ 136.461422204, 35.36943443 ], [ 136.462055217, 35.369599693 ], [ 136.462495620999988, 35.369717344 ], [ 136.462851613999987, 35.369796929 ], [ 136.46326130700001, 35.369895905 ], [ 136.463514479, 35.36991288 ], [ 136.463949487, 35.369933174 ], [ 136.464056513, 35.369846747 ], [ 136.464248219000012, 35.36969904 ], [ 136.464474888000012, 35.369548675 ], [ 136.464768088, 35.369381524 ], [ 136.46504898399999, 35.369222887 ], [ 136.465520715, 35.369016703 ], [ 136.465837959999988, 35.368896911 ], [ 136.466245621000013, 35.368788227 ], [ 136.466252911, 35.368697109 ], [ 136.46630017199999, 35.368375413 ], [ 136.46633058099999, 35.368159813 ], [ 136.46635759, 35.368004017 ], [ 136.466402910999989, 35.367745061 ], [ 136.466464245999987, 35.367421408 ], [ 136.46649908099999, 35.367235976 ], [ 136.466330488000011, 35.367136204 ], [ 136.4662367, 35.367072698 ], [ 136.466188152, 35.367030203 ], [ 136.466166619, 35.366995019 ], [ 136.466151851, 35.366973473 ], [ 136.46614105899999, 35.366920461 ], [ 136.466148011, 35.366708109 ], [ 136.466003867000012, 35.366025915 ] ] ] } },
{ "type": "Feature", "properties": { "A29_001": "21362", "A29_002": "岐阜県", "A29_003": "関ケ原町", "A29_004": 8, "A29_005": "近隣商業地域", "A29_006": 80, "A29_007": 200, "A29_008": null }, "geometry": { "type": "Polygon", "coordinates": [ [ [ 136.466302825000014, 35.36986945 ], [ 136.46639603700001, 35.36986522 ], [ 136.467053795, 35.369898842 ], [ 136.467467094, 35.369917929 ], [ 136.467743641999988, 35.369925491 ], [ 136.467794636, 35.369921016 ], [ 136.467848643999986, 35.369904634 ], [ 136.467921639, 35.369881206 ], [ 136.468020868999986, 35.369854353 ], [ 136.46813763, 35.369820447 ], [ 136.4682922, 35.369791528 ], [ 136.46845248, 35.36977576 ], [ 136.46864049199999, 35.369751804 ], [ 136.46877457799999, 35.369734691 ], [ 136.469020954, 35.36969557 ], [ 136.46922948, 35.369656229 ], [ 136.469402116999987, 35.369639921 ], [ 136.469402758, 35.369636363 ], [ 136.46941411899999, 35.369573217 ], [ 136.469437383000013, 35.369481118 ], [ 136.469492202, 35.369405423 ], [ 136.469722681, 35.369153712 ], [ 136.46997694, 35.368958936 ], [ 136.470145226, 35.368828586 ], [ 136.470226165000014, 35.368759078 ], [ 136.47028953, 35.368698114 ], [ 136.470312595, 35.368675923 ], [ 136.470525571, 35.368680355 ], [ 136.47178161, 35.367942167 ], [ 136.471821819000013, 35.367906082 ], [ 136.472206279, 35.367687923 ], [ 136.472620506, 35.367461347 ], [ 136.47300288400001, 35.36728181 ], [ 136.473469147, 35.367098459 ], [ 136.47374602299999, 35.366998448 ], [ 136.474113725, 35.366900388 ], [ 136.474353498999989, 35.366848816 ], [ 136.47474025599999, 35.366769466 ], [ 136.47525094299999, 35.366702272 ], [ 136.475642463000014, 35.366678754 ], [ 136.476088002000012, 35.366671284 ], [ 136.47706637600001, 35.366662561 ], [ 136.477080679000011, 35.366624007 ], [ 136.477096558999989, 35.366605495 ], [ 136.47712461899999, 35.366592776 ], [ 136.477161376, 35.3665844 ], [ 136.477231361, 35.36657192 ], [ 136.477292818, 35.366535066 ], [ 136.47735090899999, 35.366459113 ], [ 136.477476731, 35.366272816 ], [ 136.47777005899999, 35.36629166 ], [ 136.477920071, 35.366318273 ], [ 136.47839528899999, 35.366415782 ], [ 136.47856711899999, 35.366444665 ], [ 136.478743529000013, 35.366448531 ], [ 136.478844957, 35.36643623 ], [ 136.47892462199999, 35.366415219 ], [ 136.47901757599999, 35.366372103 ], [ 136.479123910999988, 35.366296151 ], [ 136.47962005299999, 35.366295395 ], [ 136.47976588, 35.366300517 ], [ 136.479822587, 35.36630871 ], [ 136.479872203000014, 35.366329026 ], [ 136.479906035999988, 35.366356406 ], [ 136.479931075, 35.366390892 ], [ 136.479947349000014, 35.366428905 ], [ 136.479966141, 35.366479096 ], [ 136.479980504999986, 35.366536416 ], [ 136.480014108, 35.366590984 ], [ 136.480049580000014, 35.366631253 ], [ 136.480118333, 35.366660978 ], [ 136.480184557, 35.366679957 ], [ 136.480348552, 35.366705931 ], [ 136.480510866, 35.366724024 ], [ 136.48057629600001, 35.366733697 ], [ 136.480644315, 35.366746962 ], [ 136.48069385299999, 35.366776578 ], [ 136.47993251599999, 35.366021654 ], [ 136.47960858499999, 35.365766054 ], [ 136.47947202200001, 35.365664155 ], [ 136.479346928000012, 35.365583309 ], [ 136.47925415, 35.36553699 ], [ 136.479193771000013, 35.365515659 ], [ 136.479082166000012, 35.365492129 ], [ 136.478735368, 35.365461536 ], [ 136.47873007699999, 35.365519734 ], [ 136.47713697899999, 35.365532537 ], [ 136.47713844899999, 35.365428084 ], [ 136.477115637, 35.365371669 ], [ 136.47707304299999, 35.365313233 ], [ 136.47701636799999, 35.365267119 ], [ 136.476942177000012, 35.365226628 ], [ 136.476857383, 35.365200387 ], [ 136.476769079, 35.365176033 ], [ 136.476667835, 35.365166869 ], [ 136.476580517, 35.365163509 ], [ 136.476516433, 35.365166959 ], [ 136.47644628399999, 35.365198993 ], [ 136.476347874999988, 35.365267118 ], [ 136.476084093, 35.36547167 ], [ 136.47589877499999, 35.365625156 ], [ 136.475835547, 35.365664862 ], [ 136.475767733999987, 35.365695956 ], [ 136.47568952, 35.36571745 ], [ 136.47559734, 35.36573791 ], [ 136.47548666599999, 35.365742047 ], [ 136.475414535, 35.365733049 ], [ 136.47535294299999, 35.365717433 ], [ 136.47529961699999, 35.365688508 ], [ 136.47520353499999, 35.365620226 ], [ 136.475153979, 35.365558888 ], [ 136.475110230000013, 35.365499491 ], [ 136.475066513, 35.365436278 ], [ 136.475013432, 35.365378735 ], [ 136.474903302, 35.365318958 ], [ 136.47484297299999, 35.365291901 ], [ 136.474756363000012, 35.365205547 ], [ 136.474690626000012, 35.365129806 ], [ 136.47463309, 35.365048388 ], [ 136.474610076, 35.365015821 ], [ 136.474576377, 35.365007042 ], [ 136.474541448, 35.365005888 ], [ 136.474505224000012, 35.36501999 ], [ 136.47446062099999, 35.365060756 ], [ 136.474264543, 35.365246613 ], [ 136.474241919, 35.365304676 ], [ 136.474210728, 35.365411343 ], [ 136.474159820000011, 35.365508358 ], [ 136.474068584, 35.365690999 ], [ 136.473989662, 35.365795485 ], [ 136.473914306000012, 35.365891405 ], [ 136.473853291000012, 35.365944478 ], [ 136.473817075999989, 35.365957626 ], [ 136.473789044, 35.365967005 ], [ 136.473755239000013, 35.365970627 ], [ 136.47371797299999, 35.365970413 ], [ 136.473684281, 35.36596068 ], [ 136.473647064, 35.365954743 ], [ 136.47358085499999, 35.36593433 ], [ 136.473483112, 35.365924229 ], [ 136.47340272400001, 35.365927584 ], [ 136.473314045, 35.365947109 ], [ 136.47317397, 35.365984464 ], [ 136.473081396999987, 35.366050712 ], [ 136.473016660000013, 35.366130474 ], [ 136.472969522, 35.366195074 ], [ 136.472813089999988, 35.366374479 ], [ 136.472760627000014, 35.366380855 ], [ 136.47248590800001, 35.366364968 ], [ 136.472328616999988, 35.36637265 ], [ 136.472205081, 35.366382434 ], [ 136.47205582699999, 35.366403518 ], [ 136.47192404, 35.366433984 ], [ 136.471378783, 35.366686613 ], [ 136.470703246999989, 35.367030927 ], [ 136.47045609, 35.367191925 ], [ 136.470313522, 35.367319646 ], [ 136.470210032000011, 35.367334552 ], [ 136.470011426000013, 35.367406148 ], [ 136.46985216600001, 35.367473201 ], [ 136.46972476799999, 35.367559517 ], [ 136.46966890600001, 35.367622396 ], [ 136.469632, 35.367681806 ], [ 136.469595099, 35.367756696 ], [ 136.469482301, 35.367871954 ], [ 136.46945599899999, 35.36788325 ], [ 136.46939827700001, 35.367891502 ], [ 136.46935279600001, 35.367898395 ], [ 136.46924589, 35.367937845 ], [ 136.469009123, 35.368045232 ], [ 136.468517096999989, 35.36817547 ], [ 136.46820022899999, 35.368252343 ], [ 136.467988904, 35.36824492 ], [ 136.46744064399999, 35.368210745 ], [ 136.46739213399999, 35.368771404 ], [ 136.46719074399999, 35.368827477 ], [ 136.466431562999986, 35.368738653 ], [ 136.465837959999988, 35.368896911 ], [ 136.465520715, 35.369016703 ], [ 136.46504898399999, 35.369222887 ], [ 136.464768088, 35.369381524 ], [ 136.464474888000012, 35.369548675 ], [ 136.464248219000012, 35.36969904 ], [ 136.464056513, 35.369846747 ], [ 136.463949487, 35.369933174 ], [ 136.463952516, 35.369933316 ], [ 136.46451122799999, 35.369972338 ], [ 136.46487926399999, 35.370006673 ], [ 136.46535211599999, 35.370041615 ], [ 136.465625877, 35.370034856 ], [ 136.46577149699999, 35.370030931 ], [ 136.465813755999989, 35.370026406 ], [ 136.46587513599999, 35.369999335 ], [ 136.465916114, 35.369974531 ], [ 136.465970215999988, 35.369947417 ], [ 136.46603370599999, 35.369934787 ], [ 136.466136546, 35.369905453 ], [ 136.466302825000014, 35.36986945 ] ] ] } },
{ "type": "Feature", "properties": { "A29_001": "21362", "A29_002": "岐阜県", "A29_003": "関ケ原町", "A29_004": 5, "A29_005": "第一種住居地域", "A29_006": 60, "A29_007": 200, "A29_008": null }, "geometry": { "type": "Polygon", "coordinates": [ [ [ 136.454420701, 35.370512938 ], [ 136.455463914, 35.370453735 ], [ 136.455624051, 35.370454677 ], [ 136.455906642, 35.37043726 ], [ 136.456113542999987, 35.370418205 ], [ 136.45626953199999, 35.37039408 ], [ 136.456390551, 35.370373327 ], [ 136.456606394, 35.370330474 ], [ 136.456904001999987, 35.370260674 ], [ 136.457156532, 35.370184647 ], [ 136.457290736, 35.37015443 ], [ 136.457541924, 35.370065277 ], [ 136.45776097000001, 35.369989051 ], [ 136.457969991999988, 35.369893687 ], [ 136.458208326, 35.369775837 ], [ 136.458438051, 35.369643627 ], [ 136.458697894000011, 35.369479992 ], [ 136.460096474000011, 35.368534198 ], [ 136.461588772999988, 35.367499906 ], [ 136.461443694, 35.367464072 ], [ 136.461561941000014, 35.367426602 ], [ 136.461747473, 35.367352559 ], [ 136.461724198000013, 35.367183092 ], [ 136.461700912, 35.367014817 ], [ 136.461705521, 35.366903348 ], [ 136.461735495999989, 35.366804547 ], [ 136.46175684, 35.366693772 ], [ 136.461764783, 35.3666175 ], [ 136.461760379, 35.366556889 ], [ 136.461520064000013, 35.366577944 ], [ 136.461451677000014, 35.366573968 ], [ 136.461358624000013, 35.366560308 ], [ 136.46108972, 35.366512231 ], [ 136.460922477999986, 35.366492175 ], [ 136.460692991, 35.366465203 ], [ 136.460544311, 35.366452999 ], [ 136.460432252, 35.366448767 ], [ 136.46034045799999, 35.36645777 ], [ 136.460247084, 35.366481074 ], [ 136.460147783, 35.366516268 ], [ 136.460074768999988, 35.366542075 ], [ 136.46014986599999, 35.366945571 ], [ 136.460185658, 35.36718189 ], [ 136.460199612, 35.367251135 ], [ 136.460255034999989, 35.367406481 ], [ 136.459776409, 35.367534854 ], [ 136.459306704999989, 35.367662032 ], [ 136.459159112, 35.367538396 ], [ 136.459127200000012, 35.367525092 ], [ 136.459083622, 35.367514105 ], [ 136.45900504299999, 35.367510067 ], [ 136.458490207000011, 35.3675147 ], [ 136.458428545, 35.367408473 ], [ 136.458365296000011, 35.36739002 ], [ 136.458333333000013, 35.367383156 ], [ 136.458241721, 35.367362666 ], [ 136.458189379, 35.367362666 ], [ 136.458107958, 35.367376957 ], [ 136.458041076, 35.367383508 ], [ 136.458001093, 35.367378744 ], [ 136.457958201999986, 35.367366239 ], [ 136.457897323, 35.367329893 ], [ 136.45790580900001, 35.367311978 ], [ 136.457862905000013, 35.367290771 ], [ 136.45780811, 35.367355781 ], [ 136.45771437499999, 35.367420221 ], [ 136.457607599999989, 35.36747743 ], [ 136.457234889, 35.367646362 ], [ 136.456787372, 35.367837461 ], [ 136.456728829000014, 35.367872892 ], [ 136.456648209, 35.367935619 ], [ 136.456497211999988, 35.368055172 ], [ 136.455727445, 35.368679678 ], [ 136.455725816000012, 35.368678787 ], [ 136.455634323999988, 35.368628738 ], [ 136.455524035, 35.368616577 ], [ 136.455393437999987, 35.368629675 ], [ 136.455290797, 35.368540907 ], [ 136.455183317, 35.368583833 ], [ 136.45508801299999, 35.368581553 ], [ 136.455077057000011, 35.368668676 ], [ 136.455008029, 35.36866406 ], [ 136.454807941000013, 35.368558775 ], [ 136.45447348499999, 35.36840148 ], [ 136.45446646, 35.368206827 ], [ 136.454382759999987, 35.367990258 ], [ 136.45434659, 35.367931375 ], [ 136.454296182, 35.367902458 ], [ 136.454205632, 35.367869012 ], [ 136.45410970399999, 35.367851275 ], [ 136.454001397000013, 35.367850636 ], [ 136.45394006699999, 35.367871739 ], [ 136.453894383, 35.36790152 ], [ 136.453841976, 35.367901211 ], [ 136.453763454000011, 35.367890731 ], [ 136.453721642, 35.367877605 ], [ 136.453678322, 35.367837283 ], [ 136.453647431, 35.367774138 ], [ 136.45360921, 35.367683761 ], [ 136.453581702, 35.367633277 ], [ 136.453556421, 35.367611067 ], [ 136.453523735, 35.367603123 ], [ 136.453503297, 35.367609561 ], [ 136.45348570199999, 35.367623767 ], [ 136.45347804799999, 35.367644343 ], [ 136.45347098900001, 35.36765241 ], [ 136.453461076999986, 35.367653783 ], [ 136.453448879, 35.367650372 ], [ 136.453444882000014, 35.367641285 ], [ 136.453441535, 35.367624571 ], [ 136.453438298, 35.367595456 ], [ 136.45342800099999, 35.367574407 ], [ 136.45340421899999, 35.367563773 ], [ 136.45335123800001, 35.367562506 ], [ 136.453310472999988, 35.367562743 ], [ 136.453286017000011, 35.367562598 ], [ 136.453265109, 35.367556274 ], [ 136.453243598, 35.367552331 ], [ 136.45322381599999, 35.367550307 ], [ 136.453201065, 35.367554942 ], [ 136.453178224999988, 35.367569594 ], [ 136.453157078, 35.367590457 ], [ 136.45314278399999, 35.367626623 ], [ 136.453079583, 35.36779415 ], [ 136.452961222, 35.367943226 ], [ 136.45280425199999, 35.368178409 ], [ 136.452802416999987, 35.368237347 ], [ 136.45290634599999, 35.368234516 ], [ 136.45295860600001, 35.368227685 ], [ 136.453011409999988, 35.368217226 ], [ 136.453057679000011, 35.368202811 ], [ 136.453114959, 35.368184966 ], [ 136.45316504199999, 35.368181764 ], [ 136.453210962000014, 35.368185772 ], [ 136.45324882700001, 35.368215377 ], [ 136.453331744, 35.36827782 ], [ 136.45333174699999, 35.36827936 ], [ 136.453332692, 35.368805747 ], [ 136.453324888, 35.369459244 ], [ 136.453324126000012, 35.369711167 ], [ 136.453318996, 35.36981155 ], [ 136.453197972, 35.369813944 ], [ 136.452947488, 35.369832666 ], [ 136.452936676, 35.369833325 ], [ 136.45212506499999, 35.369882786 ], [ 136.45172027699999, 35.369902261 ], [ 136.451704725000013, 35.369905436 ], [ 136.44968482499999, 35.370111387 ], [ 136.44930347799999, 35.370814998 ], [ 136.449235708, 35.370912661 ], [ 136.450407410999986, 35.370901807 ], [ 136.450407039, 35.370765294 ], [ 136.450735853, 35.370748736 ], [ 136.45192219399999, 35.370671809 ], [ 136.453052496, 35.370609803 ], [ 136.453576935, 35.370572832 ], [ 136.454420701, 35.370512938 ] ] ] } },
{ "type": "Feature", "properties": { "A29_001": "21362", "A29_002": "岐阜県", "A29_003": "関ケ原町", "A29_004": 6, "A29_005": "第二種住居地域", "A29_006": 60, "A29_007": 200, "A29_008": null }, "geometry": { "type": "Polygon", "coordinates": [ [ [ 136.427267789000012, 35.371065911 ], [ 136.427351695, 35.3710607 ], [ 136.427557482999987, 35.371100595 ], [ 136.42794014399999, 35.37109435 ], [ 136.428263931, 35.371222254 ], [ 136.428472091, 35.370809977 ], [ 136.42903934099999, 35.370869248 ], [ 136.429073484000014, 35.37073156 ], [ 136.429117037999987, 35.370586391 ], [ 136.429160344, 35.370434973 ], [ 136.42925995600001, 35.370239539 ], [ 136.429355930000014, 35.370059823 ], [ 136.42905873399999, 35.369313908 ], [ 136.429143638, 35.369006768 ], [ 136.429154978000014, 35.368912394 ], [ 136.429155551, 35.368849435 ], [ 136.429129855000014, 35.36879347 ], [ 136.42907148899999, 35.368680068 ], [ 136.429011441, 35.3685595 ], [ 136.42895891399999, 35.368380309 ], [ 136.428924768, 35.368101062 ], [ 136.429604156000011, 35.368314129 ], [ 136.429870001000012, 35.368473156 ], [ 136.430028163, 35.36856284 ], [ 136.43019173499999, 35.368633955 ], [ 136.430355268, 35.368709362 ], [ 136.43049294799999, 35.368745974 ], [ 136.43076799799999, 35.368853541 ], [ 136.43131808699999, 35.369070104 ], [ 136.43170974200001, 35.369227031 ], [ 136.43195336299999, 35.369332973 ], [ 136.431941247999987, 35.369513201 ], [ 136.434390845, 35.369737778 ], [ 136.434792703999989, 35.368680287 ], [ 136.435885315, 35.368879862 ], [ 136.435382059, 35.367872542 ], [ 136.43531073299999, 35.366903227 ], [ 136.436158678, 35.365697997 ], [ 136.43555908799999, 35.365595992 ], [ 136.434821236, 35.365490165 ], [ 136.434101285, 35.365417236 ], [ 136.432908478, 35.365314601 ], [ 136.431653105, 35.365240909 ], [ 136.431216646, 35.365210827 ], [ 136.43103338099999, 35.365193017 ], [ 136.430997064, 35.365184448 ], [ 136.43094042199999, 35.365169794 ], [ 136.430891123, 35.365148029 ], [ 136.43070538500001, 35.365242296 ], [ 136.43053594, 35.365305657 ], [ 136.43025988299999, 35.365406528 ], [ 136.429936994, 35.365534539 ], [ 136.42919813899999, 35.366100034 ], [ 136.429067648, 35.36620179 ], [ 136.429005890000013, 35.366269384 ], [ 136.42895432200001, 35.36633704 ], [ 136.428930595999987, 35.366384594 ], [ 136.428915171, 35.366479898 ], [ 136.42885212499999, 35.36700897 ], [ 136.428845774, 35.367386945 ], [ 136.428875847, 35.367601774 ], [ 136.428546296, 35.367500786 ], [ 136.428319789, 35.367435009 ], [ 136.428049479, 35.367383273 ], [ 136.427978268, 35.367529512 ], [ 136.42782780499999, 35.367905413 ], [ 136.427842405, 35.368380106 ], [ 136.427869119, 35.368484014 ], [ 136.427915953, 35.368616665 ], [ 136.42798410099999, 35.368806684 ], [ 136.428016617, 35.368913013 ], [ 136.428010218, 35.368976175 ], [ 136.427979278, 35.36901653 ], [ 136.42707112299999, 35.369942294 ], [ 136.427044048999988, 35.370037526 ], [ 136.42701129299999, 35.370117221 ], [ 136.42681335899999, 35.370269838 ], [ 136.426712900000012, 35.370270416 ], [ 136.426457605, 35.370327283 ], [ 136.42621142499999, 35.370342469 ], [ 136.425260169000012, 35.370317816 ], [ 136.42459878, 35.370293225 ], [ 136.42503814, 35.370963706 ], [ 136.425017115, 35.371033933 ], [ 136.42501451699999, 35.371210462 ], [ 136.425820789, 35.371241642 ], [ 136.426279099999988, 35.37124159 ], [ 136.426597308, 35.37121492 ], [ 136.42684417699999, 35.371156331 ], [ 136.42701929099999, 35.371111612 ], [ 136.42713663699999, 35.371079418 ], [ 136.427267789000012, 35.371065911 ] ] ] } },
{ "type": "Feature", "properties": { "A29_001": "21362", "A29_002": "岐阜県", "A29_003": "関ケ原町", "A29_004": 7, "A29_005": "準住居地域", "A29_006": 60, "A29_007": 200, "A29_008": null }, "geometry": { "type": "Polygon", "coordinates": [ [ [ 136.45664954899999, 35.370705039 ], [ 136.456935815, 35.370640795 ], [ 136.45698084, 35.370797383 ], [ 136.45708580499999, 35.371037704 ], [ 136.457421974999988, 35.37100901 ], [ 136.457595731, 35.370965114 ], [ 136.45781187899999, 35.370928033 ], [ 136.457826863, 35.370763546 ], [ 136.458087029000012, 35.370677226 ], [ 136.458345607000012, 35.370574646 ], [ 136.45853370399999, 35.370475693 ], [ 136.458698292, 35.37039788 ], [ 136.458693788, 35.370102376 ], [ 136.458518072, 35.370044663 ], [ 136.45874337699999, 35.369898656 ], [ 136.458890026, 35.369807064 ], [ 136.459102425999987, 35.369662873 ], [ 136.459407279, 35.369465584 ], [ 136.45959142699999, 35.369338848 ], [ 136.460468166999988, 35.368731089 ], [ 136.46073676899999, 35.36855 ], [ 136.460973521999989, 35.368382189 ], [ 136.460963498000012, 35.368467833 ], [ 136.460958326999986, 35.368512016 ], [ 136.46094567599999, 35.368589584 ], [ 136.460939827, 35.36861598 ], [ 136.46091984899999, 35.368657271 ], [ 136.46089297899999, 35.368666326 ], [ 136.460804989, 35.368820128 ], [ 136.46075276799999, 35.368953319 ], [ 136.46073598000001, 35.369024573 ], [ 136.462632676, 35.367731117 ], [ 136.463498027000014, 35.367117895 ], [ 136.463821438, 35.366890822 ], [ 136.46397103000001, 35.366783357 ], [ 136.464027797, 35.366741451 ], [ 136.46404193, 35.366705739 ], [ 136.46407326799999, 35.366643508 ], [ 136.464113144, 35.366600879 ], [ 136.464179828, 35.366541387 ], [ 136.46423161199999, 35.366486454 ], [ 136.464294466000013, 35.366367169 ], [ 136.464323443000012, 35.366280808 ], [ 136.464333775999989, 35.366197157 ], [ 136.464325401999986, 35.366078085 ], [ 136.46396406, 35.366315137 ], [ 136.463423664, 35.366688973 ], [ 136.462077222, 35.36762055 ], [ 136.461588772999988, 35.367499906 ], [ 136.460096474000011, 35.368534198 ], [ 136.458697894000011, 35.369479992 ], [ 136.458438051, 35.369643627 ], [ 136.458208326, 35.369775837 ], [ 136.457969991999988, 35.369893687 ], [ 136.45776097000001, 35.369989051 ], [ 136.457541924, 35.370065277 ], [ 136.457290736, 35.37015443 ], [ 136.457156532, 35.370184647 ], [ 136.456904001999987, 35.370260674 ], [ 136.456606394, 35.370330474 ], [ 136.456390551, 35.370373327 ], [ 136.45626953199999, 35.37039408 ], [ 136.456113542999987, 35.370418205 ], [ 136.455906642, 35.37043726 ], [ 136.455624051, 35.370454677 ], [ 136.455463914, 35.370453735 ], [ 136.454420701, 35.370512938 ], [ 136.453576935, 35.370572832 ], [ 136.453052496, 35.370609803 ], [ 136.45192219399999, 35.370671809 ], [ 136.450735853, 35.370748736 ], [ 136.450407039, 35.370765294 ], [ 136.450407410999986, 35.370901807 ], [ 136.449235708, 35.370912661 ], [ 136.44914889, 35.371037774 ], [ 136.44914444599999, 35.371228584 ], [ 136.449462270999987, 35.37134051 ], [ 136.449931198, 35.371480855 ], [ 136.450072255, 35.37149934 ], [ 136.450197936, 35.371511533 ], [ 136.450408427000013, 35.371514927 ], [ 136.450751067999988, 35.371490485 ], [ 136.453359780999989, 35.371309566 ], [ 136.453635354, 35.370924365 ], [ 136.455066748, 35.370835009 ], [ 136.455376701, 35.370818709 ], [ 136.455909184, 35.370794177 ], [ 136.45616331799999, 35.370768006 ], [ 136.45632183399999, 35.370754628 ], [ 136.456450095, 35.37073821 ], [ 136.45664954899999, 35.370705039 ] ] ] } },
{ "type": "Feature", "properties": { "A29_001": "21362", "A29_002": "岐阜県", "A29_003": "関ケ原町", "A29_004": 5, "A29_005": "第一種住居地域", "A29_006": 60, "A29_007": 200, "A29_008": null }, "geometry": { "type": "Polygon", "coordinates": [ [ [ 136.45749292299999, 35.371601268 ], [ 136.457591423999986, 35.371525289 ], [ 136.457699695, 35.371430765 ], [ 136.457774623, 35.371353217 ], [ 136.457782666000014, 35.371332515 ], [ 136.457792662, 35.371288214 ], [ 136.457800918, 35.371243187 ], [ 136.45781336499999, 35.371218218 ], [ 136.457835321, 35.371204753 ], [ 136.457908139000011, 35.37116869 ], [ 136.458148462, 35.371057053 ], [ 136.45871765199999, 35.370797091 ], [ 136.45869577799999, 35.370701088 ], [ 136.458698378, 35.370403462 ], [ 136.458698292, 35.37039788 ], [ 136.45853370399999, 35.370475693 ], [ 136.458345607000012, 35.370574646 ], [ 136.458087029000012, 35.370677226 ], [ 136.457826863, 35.370763546 ], [ 136.45781187899999, 35.370928033 ], [ 136.457595731, 35.370965114 ], [ 136.457421974999988, 35.37100901 ], [ 136.45708580499999, 35.371037704 ], [ 136.45698084, 35.370797383 ], [ 136.456935815, 35.370640795 ], [ 136.45664954899999, 35.370705039 ], [ 136.456450095, 35.37073821 ], [ 136.45632183399999, 35.370754628 ], [ 136.45616331799999, 35.370768006 ], [ 136.455909184, 35.370794177 ], [ 136.455376701, 35.370818709 ], [ 136.455066748, 35.370835009 ], [ 136.453635354, 35.370924365 ], [ 136.453359780999989, 35.371309566 ], [ 136.450751067999988, 35.371490485 ], [ 136.450408427000013, 35.371514927 ], [ 136.450197936, 35.371511533 ], [ 136.450072255, 35.37149934 ], [ 136.449931198, 35.371480855 ], [ 136.449462270999987, 35.37134051 ], [ 136.44914444599999, 35.371228584 ], [ 136.44913791, 35.371509255 ], [ 136.448849204, 35.372387688 ], [ 136.448833814000011, 35.372477435 ], [ 136.448853119, 35.372599181 ], [ 136.448917628, 35.372712849 ], [ 136.449072852, 35.372940341 ], [ 136.449164981, 35.373058943 ], [ 136.449592048, 35.373004239 ], [ 136.449822239000014, 35.372986526 ], [ 136.45006551099999, 35.372971274 ], [ 136.450298736, 35.372958112 ], [ 136.45297464699999, 35.372780703 ], [ 136.452964568999988, 35.372588656 ], [ 136.454771490000013, 35.37249409 ], [ 136.455284963999986, 35.37246567 ], [ 136.455335939, 35.372457157 ], [ 136.455381237000012, 35.372438344 ], [ 136.455471802, 35.372404296 ], [ 136.456457943, 35.372015387 ], [ 136.457371064, 35.371651352 ], [ 136.45749292299999, 35.371601268 ] ] ] } }
]
}
