{
"type": "FeatureCollection",
"name": "A29-19_21218",
"features": [
{ "type": "Feature", "properties": { "A29_001": "21218", "A29_002": "岐阜県", "A29_003": "本巣市", "A29_004": 5, "A29_005": "第一種住居地域", "A29_006": 60, "A29_007": 200, "A29_008": "条件付き公開" }, "geometry": { "type": "Polygon", "coordinates": [ [ [ 136.69023733, 35.442186063 ], [ 136.690253912, 35.44276407 ], [ 136.690255544, 35.443196429 ], [ 136.69039254899999, 35.443181915 ], [ 136.69054313800001, 35.443174846 ], [ 136.690917444, 35.443193269 ], [ 136.691278821999987, 35.443185407 ], [ 136.691600587000011, 35.443177479 ], [ 136.691626998, 35.443166765 ], [ 136.69178512799999, 35.443159724 ], [ 136.691787162, 35.443138187 ], [ 136.691800011, 35.442868784 ], [ 136.691791539, 35.442702427 ], [ 136.691717399, 35.442192436 ], [ 136.69143141399999, 35.442188245 ], [ 136.691245167, 35.442187512 ], [ 136.690806788, 35.442173435 ], [ 136.690581228000013, 35.442168218 ], [ 136.690417241, 35.442182717 ], [ 136.69023733, 35.442186063 ] ] ] } },
{ "type": "Feature", "properties": { "A29_001": "21218", "A29_002": "岐阜県", "A29_003": "本巣市", "A29_004": 5, "A29_005": "第一種住居地域", "A29_006": 60, "A29_007": 200, "A29_008": "条件付き公開" }, "geometry": { "type": "Polygon", "coordinates": [ [ [ 136.67332875299999, 35.468589806 ], [ 136.673400128, 35.468599564 ], [ 136.673420426, 35.468698809 ], [ 136.673454797, 35.468904307 ], [ 136.673469215000011, 35.469088358 ], [ 136.67348800900001, 35.469299922 ], [ 136.673506917, 35.469477771 ], [ 136.673539411, 35.469678303 ], [ 136.673589195, 35.469949761 ], [ 136.674235898, 35.4698664 ], [ 136.675140596, 35.469757673 ], [ 136.675170294, 35.469342933 ], [ 136.675192417, 35.469052927 ], [ 136.675291980999987, 35.468298434 ], [ 136.675366574, 35.467569891 ], [ 136.675386339, 35.467323597 ], [ 136.673232807, 35.467305887 ], [ 136.673243207000013, 35.467596928 ], [ 136.673245306000013, 35.467803916 ], [ 136.673252144, 35.467889494 ], [ 136.673269196, 35.468029113 ], [ 136.67329543, 35.468272259 ], [ 136.67330756199999, 35.468369128 ], [ 136.673319361000011, 35.468490695 ], [ 136.67332875299999, 35.468589806 ] ] ] } },
{ "type": "Feature", "properties": { "A29_001": "21218", "A29_002": "岐阜県", "A29_003": "本巣市", "A29_004": 6, "A29_005": "第二種住居地域", "A29_006": 60, "A29_007": 200, "A29_008": "条件付き公開" }, "geometry": { "type": "Polygon", "coordinates": [ [ [ 136.675080920999989, 35.474201543 ], [ 136.675278537999986, 35.474078484 ], [ 136.675472108, 35.474007965 ], [ 136.67584807099999, 35.473851466 ], [ 136.676175325, 35.473738308 ], [ 136.676155475, 35.473669445 ], [ 136.676112614, 35.473573353 ], [ 136.67592899600001, 35.473068229 ], [ 136.675834138, 35.472868797 ], [ 136.675715704, 35.472540898 ], [ 136.675565377999988, 35.472151749 ], [ 136.67572805399999, 35.471899816 ], [ 136.67580509699999, 35.47178501 ], [ 136.67587686499999, 35.471700653 ], [ 136.67626030400001, 35.471119406 ], [ 136.67620802499999, 35.471077545 ], [ 136.676169297, 35.471034387 ], [ 136.676122068000012, 35.470984163 ], [ 136.676096981, 35.470939708 ], [ 136.676075233, 35.470884089 ], [ 136.676050858, 35.470827196 ], [ 136.67603516299999, 35.470777551 ], [ 136.67599841099999, 35.470678419 ], [ 136.675951621, 35.470556078 ], [ 136.67591497399999, 35.470454693 ], [ 136.675890041, 35.470369943 ], [ 136.675865125, 35.470282398 ], [ 136.67585043, 35.470187954 ], [ 136.675847615, 35.470097794 ], [ 136.675849884, 35.469993682 ], [ 136.675848699999989, 35.469889376 ], [ 136.67585823499999, 35.469741122 ], [ 136.675860171000011, 35.469691638 ], [ 136.67586963299999, 35.469615231 ], [ 136.675871247, 35.469544111 ], [ 136.675860123, 35.469430299 ], [ 136.675849599, 35.46932262 ], [ 136.675836159999989, 35.469186081 ], [ 136.675825131000011, 35.469041709 ], [ 136.675823027, 35.468924238 ], [ 136.675816477000012, 35.468820631 ], [ 136.675817509000012, 35.468755459 ], [ 136.675813884, 35.468664124 ], [ 136.67581085, 35.468610023 ], [ 136.67580938399999, 35.468567016 ], [ 136.675803005, 35.468510107 ], [ 136.67579666099999, 35.468432374 ], [ 136.675776793000011, 35.468351791 ], [ 136.675763496, 35.468311531 ], [ 136.67575517899999, 35.46828923 ], [ 136.67574532099999, 35.468236453 ], [ 136.675733752000014, 35.468180965 ], [ 136.675720531, 35.468128175 ], [ 136.67570892099999, 35.468079538 ], [ 136.675704085, 35.46803787 ], [ 136.675694201999988, 35.46798924 ], [ 136.675686038, 35.467926824 ], [ 136.675679768, 35.467851886 ], [ 136.675670129999986, 35.467762961 ], [ 136.67566715699999, 35.467683889 ], [ 136.675664132, 35.467628345 ], [ 136.67567287, 35.467581234 ], [ 136.675366574, 35.467569891 ], [ 136.675291980999987, 35.468298434 ], [ 136.675192417, 35.469052927 ], [ 136.675170294, 35.469342933 ], [ 136.675140596, 35.469757673 ], [ 136.674235898, 35.4698664 ], [ 136.673589195, 35.469949761 ], [ 136.67364392499999, 35.470155432 ], [ 136.673664038, 35.47019572 ], [ 136.673702358000014, 35.470305496 ], [ 136.673800712, 35.470570933 ], [ 136.673877825, 35.470728015 ], [ 136.67396263, 35.470890628 ], [ 136.67413271800001, 35.471211978 ], [ 136.674223332, 35.471376057 ], [ 136.674325700999987, 35.471550009 ], [ 136.674478685, 35.471785108 ], [ 136.67453735699999, 35.471896409 ], [ 136.674559179999989, 35.471939499 ], [ 136.67457860799999, 35.472092198 ], [ 136.67461627099999, 35.472310239 ], [ 136.674755886000014, 35.473054529 ], [ 136.67479372, 35.47322957 ], [ 136.674808751, 35.47328372 ], [ 136.674825231, 35.473368436 ], [ 136.674848317999988, 35.473472651 ], [ 136.674876528, 35.473586533 ], [ 136.674889546, 35.473672587 ], [ 136.674877216999988, 35.47374195 ], [ 136.674857909999986, 35.473852844 ], [ 136.674836959, 35.473949938 ], [ 136.67482242599999, 35.474008024 ], [ 136.674797267, 35.474064985 ], [ 136.674776399, 35.474133503 ], [ 136.67477279900001, 35.474187396 ], [ 136.674792588, 35.47428096 ], [ 136.674852686, 35.474352422 ], [ 136.675080920999989, 35.474201543 ] ] ] } },
{ "type": "Feature", "properties": { "A29_001": "21218", "A29_002": "岐阜県", "A29_003": "本巣市", "A29_004": 8, "A29_005": "近隣商業地域", "A29_006": 80, "A29_007": 200, "A29_008": "条件付き公開" }, "geometry": { "type": "Polygon", "coordinates": [ [ [ 136.643046973999986, 35.428169355 ], [ 136.642981322, 35.428292032 ], [ 136.642944198, 35.428371743 ], [ 136.642939652, 35.428456553 ], [ 136.642936905, 35.428558138 ], [ 136.642946335, 35.428672938 ], [ 136.642960047, 35.428729791 ], [ 136.64241882499999, 35.428730508 ], [ 136.642390433, 35.429607168 ], [ 136.64042932800001, 35.429657504 ], [ 136.639102822000012, 35.429694807 ], [ 136.639027598000013, 35.429696101 ], [ 136.639025073999989, 35.42976271 ], [ 136.639013199, 35.430302016 ], [ 136.63900388499999, 35.430518241 ], [ 136.638986133, 35.431373581 ], [ 136.638944368000011, 35.433319431 ], [ 136.638933345999988, 35.434159475 ], [ 136.63895290100001, 35.434281081 ], [ 136.638928376, 35.435241233 ], [ 136.64060383099999, 35.435258551 ], [ 136.6406608, 35.435257177 ], [ 136.640681207, 35.434298538 ], [ 136.64150273199999, 35.434310498 ], [ 136.641512868, 35.433365156 ], [ 136.6417945, 35.433362775 ], [ 136.64182008899999, 35.432331228 ], [ 136.641826791, 35.432306376 ], [ 136.641837334, 35.431423509 ], [ 136.64236936399999, 35.431428254 ], [ 136.642377137000011, 35.430845749 ], [ 136.643078902000013, 35.430843295 ], [ 136.643160103000014, 35.430830846 ], [ 136.643469216, 35.430833899 ], [ 136.643570982999989, 35.430816039 ], [ 136.64369725, 35.43078828 ], [ 136.643874321, 35.430756863 ], [ 136.644006628, 35.430736341 ], [ 136.644159285, 35.430715366 ], [ 136.644352602, 35.430686274 ], [ 136.644497019, 35.430675269 ], [ 136.64467353399999, 35.430673598 ], [ 136.64488559099999, 35.430668294 ], [ 136.645003374999987, 35.430674122 ], [ 136.645103067, 35.430667882 ], [ 136.645180936, 35.430651 ], [ 136.64527949399999, 35.430623569 ], [ 136.645378142999988, 35.430596049 ], [ 136.64550712, 35.4305564 ], [ 136.645613158, 35.430538197 ], [ 136.645757124999989, 35.430526468 ], [ 136.645885733, 35.430530087 ], [ 136.646124175000011, 35.430546621 ], [ 136.646570489, 35.430601191 ], [ 136.646869138999989, 35.430648993 ], [ 136.647061912, 35.430690119 ], [ 136.647224595000012, 35.430706325 ], [ 136.648628989, 35.430693697 ], [ 136.64914726, 35.43069024 ], [ 136.649181827, 35.430697059 ], [ 136.649948499, 35.430687001 ], [ 136.650072504, 35.430685908 ], [ 136.650042203, 35.429897341 ], [ 136.65034601, 35.429891518 ], [ 136.650683574, 35.429891248 ], [ 136.65068370099999, 35.429871326 ], [ 136.650661308, 35.429565357 ], [ 136.65064731699999, 35.429195418 ], [ 136.65063113799999, 35.428954833 ], [ 136.650615956, 35.428686035 ], [ 136.65081983799999, 35.428608657 ], [ 136.651237645, 35.42844565 ], [ 136.651260165999986, 35.428432494 ], [ 136.651254886, 35.428305994 ], [ 136.651253518, 35.428192761 ], [ 136.651262551, 35.427730158 ], [ 136.651120201999987, 35.427731173 ], [ 136.649931095999989, 35.427737359 ], [ 136.648709408, 35.427738886 ], [ 136.648717296, 35.428053448 ], [ 136.64839210400001, 35.428052053 ], [ 136.648219334, 35.428363225 ], [ 136.648106387000013, 35.428567016 ], [ 136.647876636, 35.428541869 ], [ 136.64715690700001, 35.428600617 ], [ 136.646926896999986, 35.428615764 ], [ 136.64672663799999, 35.428609493 ], [ 136.646538166, 35.428549995 ], [ 136.646389824000011, 35.428508068 ], [ 136.646250958, 35.42848989 ], [ 136.645362032, 35.428345605 ], [ 136.645215766, 35.428320002 ], [ 136.644371682000013, 35.428181312 ], [ 136.643462026, 35.428167548 ], [ 136.643046973999986, 35.428169355 ] ] ] } },
{ "type": "Feature", "properties": { "A29_001": "21218", "A29_002": "岐阜県", "A29_003": "本巣市", "A29_004": 10, "A29_005": "準工業地域", "A29_006": 60, "A29_007": 200, "A29_008": "条件付き公開" }, "geometry": { "type": "Polygon", "coordinates": [ [ [ 136.68138032499999, 35.427347321 ], [ 136.68150459200001, 35.427453204 ], [ 136.681538413999988, 35.427493547 ], [ 136.681566291, 35.427464901 ], [ 136.68160011399999, 35.427414283 ], [ 136.68165592599999, 35.427332202 ], [ 136.681748191999986, 35.427048514 ], [ 136.681760953, 35.426995648 ], [ 136.68181292700001, 35.426871812 ], [ 136.68183406599999, 35.426785264 ], [ 136.681907204, 35.426813143 ], [ 136.68200579399999, 35.426853385 ], [ 136.682092461, 35.426381714 ], [ 136.682184282, 35.425823071 ], [ 136.682242013, 35.425480828 ], [ 136.682437999, 35.425502168 ], [ 136.68249025, 35.425179916 ], [ 136.683266350999986, 35.425178968 ], [ 136.683271260999987, 35.42491963 ], [ 136.683267527, 35.424693252 ], [ 136.683278793999989, 35.424221279 ], [ 136.68327460899999, 35.423887982 ], [ 136.683283487000011, 35.423709433 ], [ 136.683289183999989, 35.423318391 ], [ 136.683290332000013, 35.423126379 ], [ 136.683295249999986, 35.422865689 ], [ 136.683303827, 35.422828672 ], [ 136.683262012, 35.422818858 ], [ 136.683262086000013, 35.422806508 ], [ 136.683049532000013, 35.4227467 ], [ 136.682899394, 35.422699853 ], [ 136.682631144999988, 35.42262747 ], [ 136.682344136000012, 35.42251787 ], [ 136.68218940599999, 35.422449097 ], [ 136.682151296, 35.422442544 ], [ 136.68209124399999, 35.422399122 ], [ 136.681963223999986, 35.422284029 ], [ 136.68190115199999, 35.422213824 ], [ 136.681864646, 35.422151926 ], [ 136.681820759, 35.422063494 ], [ 136.681768827000013, 35.422074645 ], [ 136.681717963000011, 35.422089585 ], [ 136.681587009, 35.422236813 ], [ 136.681566178999987, 35.422272158 ], [ 136.68152086500001, 35.422270263 ], [ 136.681202616, 35.422704943 ], [ 136.681183782, 35.422770766 ], [ 136.68108212199999, 35.422955523 ], [ 136.681037906, 35.423058295 ], [ 136.681000444, 35.423155595 ], [ 136.680986737000012, 35.423199442 ], [ 136.680935514, 35.423258915 ], [ 136.680785234000012, 35.423265882 ], [ 136.680751421, 35.423315148 ], [ 136.680736354, 35.424145176 ], [ 136.680737577, 35.424228839 ], [ 136.68074444199999, 35.424477226 ], [ 136.68074294199999, 35.424727022 ], [ 136.680736413, 35.424982207 ], [ 136.680739311999986, 35.42504397 ], [ 136.680723895999989, 35.425100161 ], [ 136.680732154, 35.425131746 ], [ 136.680728514, 35.425178338 ], [ 136.680735102, 35.425745039 ], [ 136.68073431, 35.425876833 ], [ 136.68075988699999, 35.426095096 ], [ 136.680759349, 35.426124122 ], [ 136.68094234, 35.426131439 ], [ 136.68093385899999, 35.426152049 ], [ 136.68099165699999, 35.426299043 ], [ 136.681019767, 35.426367759 ], [ 136.68102975, 35.426369242 ], [ 136.681080990999988, 35.426488805 ], [ 136.681139011999988, 35.426598749 ], [ 136.681168606999989, 35.426677297 ], [ 136.681261828, 35.4269007 ], [ 136.681287739, 35.426957507 ], [ 136.681299, 35.427018583 ], [ 136.681327082, 35.427107222 ], [ 136.681344763999988, 35.427233501 ], [ 136.68138032499999, 35.427347321 ] ] ] } },
{ "type": "Feature", "properties": { "A29_001": "21218", "A29_002": "岐阜県", "A29_003": "本巣市", "A29_004": 5, "A29_005": "第一種住居地域", "A29_006": 60, "A29_007": 200, "A29_008": "条件付き公開" }, "geometry": { "type": "Polygon", "coordinates": [ [ [ 136.67547484100001, 35.437258262 ], [ 136.675444365, 35.437354868 ], [ 136.675405845, 35.437474608 ], [ 136.67544165699999, 35.437396866 ], [ 136.675455793, 35.437357979 ], [ 136.675515084000011, 35.437228767 ], [ 136.675557438999988, 35.437120942 ], [ 136.675593451, 35.437040135 ], [ 136.67562690599999, 35.436976626 ], [ 136.675655438, 35.436915712 ], [ 136.675668825, 35.436880608 ], [ 136.67568227699999, 35.436849472 ], [ 136.675710777, 35.436794056 ], [ 136.67580123, 35.436619626 ], [ 136.675841381999987, 35.436545326 ], [ 136.675866536, 35.436487193 ], [ 136.675900039999988, 35.436430445 ], [ 136.675971838, 35.436320936 ], [ 136.676072068, 35.436166919 ], [ 136.676093688, 35.436137258 ], [ 136.676097198, 35.436127717 ], [ 136.67614059499999, 35.436057487 ], [ 136.676155419999986, 35.436039788 ], [ 136.676157987000011, 35.436035832 ], [ 136.67617239, 35.436012903 ], [ 136.676297642, 35.435822387 ], [ 136.676317692999987, 35.435796776 ], [ 136.676337686000011, 35.435765666 ], [ 136.676347760999988, 35.435752184 ], [ 136.676384418999987, 35.435699506 ], [ 136.676427808, 35.435645413 ], [ 136.676444465, 35.435625197 ], [ 136.676467852, 35.435588692 ], [ 136.67648460800001, 35.435567124 ], [ 136.676511839999989, 35.435540731 ], [ 136.676523116, 35.435524009 ], [ 136.676535937000011, 35.435507023 ], [ 136.676550214, 35.435489682 ], [ 136.676680304, 35.435340113 ], [ 136.676680487, 35.435339934 ], [ 136.676681494, 35.435338766 ], [ 136.676879178, 35.435113295 ], [ 136.67688274599999, 35.435109253 ], [ 136.676961115000012, 35.435039345 ], [ 136.677207759999988, 35.434769449 ], [ 136.677361459999986, 35.434606182 ], [ 136.67748757699999, 35.434467143 ], [ 136.677503851000012, 35.434450081 ], [ 136.67752185, 35.434433026 ], [ 136.677534301, 35.43441721 ], [ 136.677565929999986, 35.434384794 ], [ 136.67768096399999, 35.434260675 ], [ 136.677561738, 35.434236754 ], [ 136.677292515, 35.434199693 ], [ 136.677270983999989, 35.434169767 ], [ 136.677186836, 35.434158969 ], [ 136.67694673599999, 35.434128336 ], [ 136.67667990699999, 35.434101201 ], [ 136.676275116999989, 35.434068547 ], [ 136.67628711099999, 35.433963212 ], [ 136.67617125000001, 35.433968871 ], [ 136.676090218000013, 35.433968632 ], [ 136.675985403999988, 35.433980016 ], [ 136.675889434, 35.433986387 ], [ 136.675811075000013, 35.433994723 ], [ 136.675764431, 35.434001384 ], [ 136.675635462, 35.434041156 ], [ 136.675526569, 35.434095974 ], [ 136.675533288, 35.434111597 ], [ 136.675594692, 35.434382022 ], [ 136.67559857099999, 35.43440151 ], [ 136.675619727, 35.434508152 ], [ 136.675634050000014, 35.434587991 ], [ 136.675664592, 35.434734697 ], [ 136.675685288000011, 35.434827273 ], [ 136.67570095799999, 35.434924607 ], [ 136.675712006, 35.435035264 ], [ 136.675731844000012, 35.435224206 ], [ 136.675746866, 35.435428363 ], [ 136.675750666, 35.435565765 ], [ 136.675749438, 35.435767963 ], [ 136.675736003999987, 35.436065489 ], [ 136.675705235, 35.436315165 ], [ 136.675703992, 35.436355366 ], [ 136.675660493, 35.43656199 ], [ 136.675622263, 35.43675367 ], [ 136.675607694, 35.436848988 ], [ 136.675582362, 35.436921454 ], [ 136.675551539999987, 35.437015174 ], [ 136.67551841400001, 35.437114292 ], [ 136.675489725, 35.437215863 ], [ 136.67547484100001, 35.437258262 ] ] ] } },
{ "type": "Feature", "properties": { "A29_001": "21218", "A29_002": "岐阜県", "A29_003": "本巣市", "A29_004": 5, "A29_005": "第一種住居地域", "A29_006": 60, "A29_007": 200, "A29_008": "条件付き公開" }, "geometry": { "type": "Polygon", "coordinates": [ [ [ 136.680124952, 35.440591307 ], [ 136.680054952, 35.440598507 ], [ 136.679735642999987, 35.440471733 ], [ 136.679309362, 35.440306304 ], [ 136.679043025999988, 35.44020877 ], [ 136.67890659299999, 35.440174233 ], [ 136.678785586, 35.440157968 ], [ 136.678672503, 35.440183474 ], [ 136.678524755000012, 35.440232368 ], [ 136.67844828599999, 35.440257841 ], [ 136.678346370000014, 35.440299618 ], [ 136.678176322000013, 35.440370418 ], [ 136.677931508, 35.440485268 ], [ 136.677717027, 35.440586989 ], [ 136.677550655, 35.440665555 ], [ 136.677492922999988, 35.440687318 ], [ 136.677336387999986, 35.440761777 ], [ 136.67712549699999, 35.440870543 ], [ 136.676907559, 35.440972518 ], [ 136.67681209, 35.441014771 ], [ 136.676809136, 35.440992492 ], [ 136.676910389999989, 35.440640152 ], [ 136.676967311, 35.440407259 ], [ 136.677124357999986, 35.440098146 ], [ 136.67726619199999, 35.439810517 ], [ 136.677538520000013, 35.439292275 ], [ 136.677575460000014, 35.439223281 ], [ 136.677669365000014, 35.439048593 ], [ 136.677782294, 35.438838013 ], [ 136.677884761, 35.438644609 ], [ 136.67799760599999, 35.438447731 ], [ 136.678131576999988, 35.438212535 ], [ 136.678198003, 35.438089751 ], [ 136.678252742000012, 35.437976565 ], [ 136.678304735000012, 35.437881849 ], [ 136.67839357, 35.437673786 ], [ 136.678453982, 35.437523662 ], [ 136.678518681000014, 35.437355617 ], [ 136.67858898099999, 35.437117638 ], [ 136.67861349, 35.437030654 ], [ 136.678642502, 35.436950179 ], [ 136.678700232000011, 35.436837907 ], [ 136.678748825000014, 35.436749307 ], [ 136.678771012999988, 35.436700716 ], [ 136.67878996799999, 35.436676002 ], [ 136.678984313, 35.436461513 ], [ 136.679076759999987, 35.436362001 ], [ 136.679409432, 35.436047284 ], [ 136.679972402, 35.435505598 ], [ 136.680116972, 35.435364287 ], [ 136.680211453999988, 35.435273257 ], [ 136.680497626, 35.435030558 ], [ 136.680783151000014, 35.434759098 ], [ 136.680891459, 35.434649914 ], [ 136.680987015999989, 35.434546086 ], [ 136.681020708, 35.43450268 ], [ 136.68102075499999, 35.434494928 ], [ 136.680679548, 35.434478229 ], [ 136.680403093, 35.434465127 ], [ 136.680198651000012, 35.434456641 ], [ 136.680126746000013, 35.434434174 ], [ 136.680024368, 35.434418346 ], [ 136.679889022999987, 35.434400763 ], [ 136.679750266000013, 35.434391639 ], [ 136.67968355799999, 35.434381093 ], [ 136.679649164000011, 35.434375005 ], [ 136.679553174, 35.434369479 ], [ 136.679502208, 35.434369724 ], [ 136.679386219, 35.434366281 ], [ 136.679305406999987, 35.434359645 ], [ 136.67919492499999, 35.434331794 ], [ 136.67906668099999, 35.434477587 ], [ 136.678949964999987, 35.434609814 ], [ 136.67878491499999, 35.434802876 ], [ 136.678709999, 35.434887944 ], [ 136.678673333, 35.434927101 ], [ 136.67859497399999, 35.435010712 ], [ 136.678444945, 35.435168046 ], [ 136.678382577, 35.435236126 ], [ 136.678382212, 35.435236395 ], [ 136.678223642, 35.43540911 ], [ 136.678223366999987, 35.435409469 ], [ 136.67822227, 35.435410637 ], [ 136.678220441, 35.435412612 ], [ 136.677889897999989, 35.435765468 ], [ 136.677842606000013, 35.435819095 ], [ 136.677738594, 35.435938031 ], [ 136.677627002, 35.436063516 ], [ 136.67754025799999, 35.436166115 ], [ 136.67747522499999, 35.436253926 ], [ 136.677428493, 35.436320086 ], [ 136.677360066, 35.436413293 ], [ 136.677301532, 35.436507892 ], [ 136.67720462299999, 35.43665381 ], [ 136.67711265299999, 35.436809214 ], [ 136.677032301, 35.436951142 ], [ 136.676915036999986, 35.437187757 ], [ 136.67686982399999, 35.437272854 ], [ 136.676824364, 35.437398697 ], [ 136.676740372000012, 35.437601551 ], [ 136.67663664, 35.437793507 ], [ 136.676592856000013, 35.437912595 ], [ 136.67655906499999, 35.43801676 ], [ 136.67649172099999, 35.438215625 ], [ 136.67646987, 35.438268363 ], [ 136.676456467, 35.438291296 ], [ 136.676438125, 35.438319709 ], [ 136.676413027, 35.438353503 ], [ 136.67638304, 35.438384482 ], [ 136.676354328, 35.438490019 ], [ 136.676339092, 35.438545489 ], [ 136.676290023, 35.438711974 ], [ 136.676276537, 35.43874852 ], [ 136.67626317599999, 35.438779567 ], [ 136.676221125000012, 35.438882345 ], [ 136.676209357, 35.43892025 ], [ 136.6761558, 35.439017573 ], [ 136.676137243999989, 35.439066268 ], [ 136.67608202, 35.439168993 ], [ 136.675958165999987, 35.439397467 ], [ 136.67591955, 35.439488089 ], [ 136.67582718700001, 35.439707135 ], [ 136.675822075000013, 35.439726136 ], [ 136.675813667999989, 35.439749089 ], [ 136.675806888000011, 35.439773492 ], [ 136.675808318, 35.439807303 ], [ 136.675798136, 35.439853328 ], [ 136.675782193, 35.439890494 ], [ 136.675754366, 35.439969712 ], [ 136.67564366, 35.44021717 ], [ 136.675616753000014, 35.440279353 ], [ 136.675603416, 35.440306343 ], [ 136.675584965000013, 35.440337459 ], [ 136.675558298, 35.440375303 ], [ 136.675526518, 35.440417183 ], [ 136.675519885999989, 35.440432031 ], [ 136.67549799299999, 35.44049153 ], [ 136.675479501000012, 35.440529407 ], [ 136.675452661, 35.440595647 ], [ 136.675351946, 35.440828271 ], [ 136.675294779000012, 35.440966236 ], [ 136.675276344999986, 35.441009522 ], [ 136.67526627, 35.441037878 ], [ 136.675249414, 35.441075762 ], [ 136.675220904000014, 35.441147494 ], [ 136.675121823000012, 35.441380034 ], [ 136.675086533000012, 35.441461204 ], [ 136.675073063000013, 35.441495045 ], [ 136.675052969, 35.441542381 ], [ 136.675027746000012, 35.441596458 ], [ 136.674997486, 35.441672149 ], [ 136.674942093, 35.441802008 ], [ 136.674898379000012, 35.441908836 ], [ 136.67485136900001, 35.442019707 ], [ 136.67474392, 35.44226853 ], [ 136.674659958, 35.442464621 ], [ 136.674638105000014, 35.442517359 ], [ 136.674614600000012, 35.442572794 ], [ 136.67458106699999, 35.442648563 ], [ 136.674515482, 35.442810833 ], [ 136.674446609, 35.442975884 ], [ 136.674404578, 35.44308948 ], [ 136.674379182, 35.443171952 ], [ 136.674365727, 35.443217963 ], [ 136.674340289000014, 35.443307377 ], [ 136.674338497, 35.443333062 ], [ 136.674331634, 35.443370896 ], [ 136.674316992, 35.443477662 ], [ 136.67430882299999, 35.443580849 ], [ 136.67431010300001, 35.44363909 ], [ 136.67430935199999, 35.44376241 ], [ 136.674310873, 35.443796222 ], [ 136.674312359, 35.443820658 ], [ 136.674320107, 35.44390606 ], [ 136.67433448, 35.443992751 ], [ 136.674343994999987, 35.444056435 ], [ 136.674345523, 35.44407411 ], [ 136.674348802, 35.444087646 ], [ 136.674355311, 35.444108046 ], [ 136.674368163, 35.444160925 ], [ 136.674385996000012, 35.444231403 ], [ 136.674411791000011, 35.444337163 ], [ 136.674426444, 35.444377879 ], [ 136.674436230999987, 35.444411815 ], [ 136.674520785999988, 35.444656011 ], [ 136.674563068, 35.444784825 ], [ 136.674374445000012, 35.444919729 ], [ 136.674412765999989, 35.445042487 ], [ 136.674684079, 35.445921277 ], [ 136.67471502399999, 35.44601705 ], [ 136.674770268, 35.446210914 ], [ 136.674825500999987, 35.446406491 ], [ 136.675625505999989, 35.446841557 ], [ 136.67630503399999, 35.445989263 ], [ 136.676449641, 35.446040784 ], [ 136.67685580700001, 35.446111035 ], [ 136.677510782000013, 35.446130007 ], [ 136.677262503, 35.447369532 ], [ 136.677000213000014, 35.448400847 ], [ 136.676837333, 35.448964965 ], [ 136.67666015, 35.449804789 ], [ 136.67644923899999, 35.44977797 ], [ 136.67630345, 35.449770436 ], [ 136.676140661, 35.449764276 ], [ 136.67611240799999, 35.450227613 ], [ 136.675569888000012, 35.45020873 ], [ 136.675684241999988, 35.451756409 ], [ 136.676155324, 35.451824944 ], [ 136.675987291000013, 35.452128151 ], [ 136.67593063699999, 35.452240335 ], [ 136.675903533, 35.452409343 ], [ 136.675888187, 35.452527375 ], [ 136.675875440999988, 35.452666151 ], [ 136.675871371, 35.452782697 ], [ 136.675863545, 35.452949169 ], [ 136.676299453000013, 35.452945441 ], [ 136.67639066699999, 35.452992959 ], [ 136.67650876799999, 35.453042119 ], [ 136.676749465, 35.453133244 ], [ 136.677002335, 35.453210175 ], [ 136.677167231999988, 35.453259433 ], [ 136.677181243, 35.453226496 ], [ 136.67720719, 35.453143304 ], [ 136.677229976, 35.453026835 ], [ 136.677248972, 35.452965881 ], [ 136.67728504499999, 35.452891114 ], [ 136.677302483, 35.452802389 ], [ 136.677309634000011, 35.452746887 ], [ 136.677308218, 35.452695587 ], [ 136.67726633, 35.452620414 ], [ 136.677209194, 35.452527239 ], [ 136.67714003399999, 35.452424009 ], [ 136.677135427, 35.452389554 ], [ 136.67713738899999, 35.452350708 ], [ 136.677146585, 35.452317661 ], [ 136.677176065999987, 35.452190852 ], [ 136.677081229, 35.452156572 ], [ 136.676880485999988, 35.452085171 ], [ 136.676716612, 35.452017346 ], [ 136.676751809, 35.451967096 ], [ 136.67679740599999, 35.451895072 ], [ 136.6768783, 35.451771086 ], [ 136.676954974000012, 35.451653754 ], [ 136.67700467899999, 35.451578411 ], [ 136.677039947, 35.451516352 ], [ 136.67707533699999, 35.45143419 ], [ 136.677085940000012, 35.451378792 ], [ 136.67712813899999, 35.451192536 ], [ 136.67718283799999, 35.450967658 ], [ 136.677193339000013, 35.450929027 ], [ 136.67711946899999, 35.450928727 ], [ 136.67688134, 35.450924426 ], [ 136.676712984, 35.45092203 ], [ 136.676639134, 35.450918395 ], [ 136.676666433, 35.450866761 ], [ 136.67687557, 35.4504971 ], [ 136.67700248700001, 35.450260345 ], [ 136.67716722599999, 35.449944592 ], [ 136.677338821, 35.449606781 ], [ 136.677378261, 35.44954582 ], [ 136.677429455, 35.449479498 ], [ 136.677575245000014, 35.449216405 ], [ 136.67769533500001, 35.448980974 ], [ 136.677726334, 35.448903392 ], [ 136.677767694000011, 35.448795291 ], [ 136.677835206999987, 35.448569382 ], [ 136.677871562, 35.448447469 ], [ 136.677892095, 35.448267345 ], [ 136.677930276000012, 35.447978665 ], [ 136.677942841, 35.447869095 ], [ 136.677976161, 35.44769299 ], [ 136.67797318699999, 35.447613828 ], [ 136.677987763, 35.447457119 ], [ 136.678002115, 35.447322496 ], [ 136.678041982, 35.447175625 ], [ 136.678128278, 35.446923469 ], [ 136.678238798, 35.446601906 ], [ 136.678356810999986, 35.446152814 ], [ 136.678435049, 35.445835358 ], [ 136.67851131899999, 35.445828725 ], [ 136.678638568, 35.445820945 ], [ 136.67872674, 35.44581436 ], [ 136.67879295, 35.44580354 ], [ 136.67883208500001, 35.44579261 ], [ 136.67887625099999, 35.445776111 ], [ 136.678920584, 35.445731847 ], [ 136.678990943, 35.445590598 ], [ 136.679208764, 35.445177967 ], [ 136.679729688, 35.444191142 ], [ 136.679828066, 35.44399817 ], [ 136.679857344, 35.443919138 ], [ 136.679878229, 35.443830426 ], [ 136.67989409399999, 35.443730606 ], [ 136.679902895, 35.443672315 ], [ 136.679932471, 35.443558667 ], [ 136.67995510099999, 35.443451933 ], [ 136.679962541, 35.443347841 ], [ 136.679963218000012, 35.443235519 ], [ 136.679950065000014, 35.443171551 ], [ 136.679999019, 35.4429178 ], [ 136.680318365, 35.442541726 ], [ 136.68041223099999, 35.442433836 ], [ 136.680462065, 35.442335504 ], [ 136.680496637, 35.442221876 ], [ 136.680757712, 35.442228516 ], [ 136.680883254, 35.442216491 ], [ 136.681042894, 35.44218477 ], [ 136.681669222000011, 35.44206703 ], [ 136.68212759, 35.441974485 ], [ 136.68241716899999, 35.441909117 ], [ 136.68266270399999, 35.441810127 ], [ 136.682747858999988, 35.441745201 ], [ 136.682675146, 35.441704703 ], [ 136.682595685, 35.441668325 ], [ 136.682501011999989, 35.441623502 ], [ 136.68240291, 35.441589844 ], [ 136.68228954599999, 35.441540799 ], [ 136.68215430399999, 35.441473637 ], [ 136.682022448, 35.441417576 ], [ 136.681790758, 35.441313967 ], [ 136.681630137000013, 35.441236966 ], [ 136.681462341000014, 35.441144431 ], [ 136.681339321, 35.441099854 ], [ 136.68124970299999, 35.44106064 ], [ 136.68112465499999, 35.440990723 ], [ 136.680915035, 35.440888643 ], [ 136.680740495, 35.44081501 ], [ 136.68051920100001, 35.440720545 ], [ 136.680179173, 35.44059423 ], [ 136.680124952, 35.440591307 ] ] ] } },
{ "type": "Feature", "properties": { "A29_001": "21218", "A29_002": "岐阜県", "A29_003": "本巣市", "A29_004": 5, "A29_005": "第一種住居地域", "A29_006": 60, "A29_007": 200, "A29_008": "条件付き公開" }, "geometry": { "type": "Polygon", "coordinates": [ [ [ 136.67394628299999, 35.445224937 ], [ 136.673775186, 35.444690381 ], [ 136.673671754, 35.444383634 ], [ 136.67309076, 35.444378015 ], [ 136.673073706999986, 35.444165105 ], [ 136.673041805, 35.443943661 ], [ 136.673040429999986, 35.443930764 ], [ 136.67303959899999, 35.44391805 ], [ 136.673039222, 35.443905427 ], [ 136.67303024099999, 35.443694804 ], [ 136.673028722, 35.443660992 ], [ 136.673035582000011, 35.443653358 ], [ 136.673030680000011, 35.443623048 ], [ 136.673033801, 35.44351362 ], [ 136.673033882, 35.443500279 ], [ 136.673034417999986, 35.443486939 ], [ 136.673035499, 35.443473511 ], [ 136.673040336000014, 35.443395553 ], [ 136.673042162, 35.443364369 ], [ 136.673050703, 35.44331969 ], [ 136.67306089499999, 35.443272314 ], [ 136.673066248, 35.4432141 ], [ 136.67307607, 35.443182678 ], [ 136.673078314, 35.44317223 ], [ 136.67308157, 35.443145019 ], [ 136.673115517000014, 35.443001551 ], [ 136.67313082199999, 35.442935265 ], [ 136.67314942199999, 35.442879809 ], [ 136.67316285199999, 35.442837855 ], [ 136.67317302, 35.44280941 ], [ 136.673199434, 35.442738932 ], [ 136.673208248, 35.442709038 ], [ 136.673214820999988, 35.442688962 ], [ 136.673222667, 35.442668711 ], [ 136.673231969, 35.442648195 ], [ 136.67326721, 35.442560625 ], [ 136.673319343, 35.442429401 ], [ 136.67336967599999, 35.442310341 ], [ 136.673398260999988, 35.442241404 ], [ 136.673413376000013, 35.442206218 ], [ 136.673467077999987, 35.442085909 ], [ 136.673512421, 35.44198044 ], [ 136.67353931400001, 35.441920872 ], [ 136.673551034000013, 35.441891171 ], [ 136.673576349, 35.44182213 ], [ 136.67369043299999, 35.441558461 ], [ 136.673703870999987, 35.441530029 ], [ 136.673727385, 35.441473242 ], [ 136.673740831, 35.441443548 ], [ 136.673817297, 35.441269963 ], [ 136.673818587, 35.441266904 ], [ 136.673820154, 35.441263304 ], [ 136.673821997, 35.441259075 ], [ 136.673883557000011, 35.441116261 ], [ 136.673974233, 35.440906675 ], [ 136.674075291, 35.440663146 ], [ 136.674075383, 35.440662966 ], [ 136.674075753000011, 35.440661976 ], [ 136.674195970999989, 35.440375163 ], [ 136.674222788, 35.44031298 ], [ 136.67424626799999, 35.440261511 ], [ 136.674261414999989, 35.440221006 ], [ 136.674321945, 35.440083055 ], [ 136.674335324, 35.440049304 ], [ 136.674337314000013, 35.439990986 ], [ 136.674350941, 35.439931454 ], [ 136.674366104, 35.439888154 ], [ 136.674534556999987, 35.439497687 ], [ 136.674542405000011, 35.439476985 ], [ 136.674554108, 35.439449988 ], [ 136.674577505, 35.439412131 ], [ 136.67462768499999, 35.439332464 ], [ 136.67476023, 35.439034973 ], [ 136.67479741, 35.438911802 ], [ 136.674832864, 35.438803588 ], [ 136.674876684, 35.438679091 ], [ 136.674990759999986, 35.438415421 ], [ 136.675015263, 35.438345024 ], [ 136.67498345199999, 35.438317309 ], [ 136.674966648, 35.438391614 ], [ 136.67496685, 35.438403063 ], [ 136.674852721, 35.43858587 ], [ 136.674755721, 35.438715739 ], [ 136.674658075, 35.438877068 ], [ 136.674610827, 35.4389526 ], [ 136.674524229000014, 35.439089904 ], [ 136.67445613699999, 35.439201681 ], [ 136.674137522, 35.439709089 ], [ 136.674091694, 35.439775161 ], [ 136.674042934, 35.439845278 ], [ 136.673997472, 35.439910901 ], [ 136.67394962899999, 35.439979579 ], [ 136.673898118000011, 35.440053741 ], [ 136.673850915, 35.4401217 ], [ 136.673804445, 35.440188671 ], [ 136.673753484, 35.440262024 ], [ 136.673702249, 35.440335737 ], [ 136.67369142199999, 35.440353181 ], [ 136.673512705, 35.440608112 ], [ 136.673235132, 35.441013277 ], [ 136.673130511000011, 35.441155284 ], [ 136.673110809, 35.441182879 ], [ 136.67307909499999, 35.441228635 ], [ 136.672916487, 35.441463528 ], [ 136.67278856199999, 35.44164267 ], [ 136.672729967, 35.441730956 ], [ 136.672542313, 35.441990447 ], [ 136.672554168, 35.441998068 ], [ 136.672543517, 35.442016414 ], [ 136.672235402000013, 35.442452192 ], [ 136.672139703, 35.442531131 ], [ 136.671758610000012, 35.443088489 ], [ 136.67147642899999, 35.443501293 ], [ 136.671311772, 35.443742936 ], [ 136.67129988799999, 35.443769572 ], [ 136.671064475, 35.444155792 ], [ 136.67101485, 35.444262505 ], [ 136.67093214, 35.444445256 ], [ 136.670873075, 35.444565182 ], [ 136.670809338, 35.444706092 ], [ 136.670735893999989, 35.444888972 ], [ 136.670669677, 35.445048893 ], [ 136.670615077, 35.445210846 ], [ 136.670581746000011, 35.44532709 ], [ 136.67055549299999, 35.445429932 ], [ 136.670550184, 35.445525287 ], [ 136.670504813, 35.445708282 ], [ 136.670490118, 35.44582271 ], [ 136.670468159, 35.44598092 ], [ 136.67044468, 35.446001828 ], [ 136.67040835099999, 35.446236335 ], [ 136.670355038, 35.446558486 ], [ 136.670278008999986, 35.446954912 ], [ 136.67021755499999, 35.447315256 ], [ 136.67017361, 35.447635552 ], [ 136.670146899, 35.447812854 ], [ 136.67012331399999, 35.44785089 ], [ 136.670108795, 35.447936652 ], [ 136.67011072299999, 35.448007246 ], [ 136.670033351, 35.448459111 ], [ 136.669972629, 35.448847941 ], [ 136.66991940299999, 35.449170182 ], [ 136.66986386100001, 35.449484661 ], [ 136.66983152099999, 35.44963138 ], [ 136.669813411, 35.449739483 ], [ 136.66979032099999, 35.44987425 ], [ 136.669777495, 35.450142749 ], [ 136.66992287, 35.450040217 ], [ 136.670074706, 35.449950784 ], [ 136.670201614, 35.449851692 ], [ 136.670531192, 35.449596936 ], [ 136.67054672399999, 35.449583027 ], [ 136.670895925999986, 35.449269032 ], [ 136.67134068199999, 35.448856176 ], [ 136.671650653, 35.448552476 ], [ 136.671925359999989, 35.448309571 ], [ 136.672085059000011, 35.448196458 ], [ 136.672094578000014, 35.448274205 ], [ 136.672105829, 35.448336092 ], [ 136.672108126000012, 35.448435986 ], [ 136.672122179000013, 35.448500229 ], [ 136.672141936, 35.44859776 ], [ 136.67215882799999, 35.448688248 ], [ 136.672177753999989, 35.448921359 ], [ 136.672186817000011, 35.448940147 ], [ 136.67219602599999, 35.449142838 ], [ 136.672184735, 35.449146758 ], [ 136.672202516, 35.449344436 ], [ 136.67220404599999, 35.449361751 ], [ 136.672217507999989, 35.449522721 ], [ 136.672219605, 35.449551306 ], [ 136.672228792999988, 35.449712799 ], [ 136.672230273999986, 35.449738137 ], [ 136.6722384, 35.449895118 ], [ 136.67223956699999, 35.449912251 ], [ 136.672249048999987, 35.450085375 ], [ 136.672247206, 35.450104298 ], [ 136.67224314, 35.450145209 ], [ 136.672284956999988, 35.451077874 ], [ 136.672317142999987, 35.451906468 ], [ 136.673495266, 35.451718369 ], [ 136.67436061399999, 35.451622017 ], [ 136.674222625999988, 35.451452156 ], [ 136.674297731, 35.451369165 ], [ 136.674333482, 35.450527056 ], [ 136.67439012599999, 35.449193273 ], [ 136.67442144899999, 35.448316889 ], [ 136.67441795799999, 35.448054543 ], [ 136.673678423000013, 35.448087585 ], [ 136.67373607799999, 35.447200311 ], [ 136.673802661, 35.446353729 ], [ 136.673817973000013, 35.446211718 ], [ 136.673836540999986, 35.446131832 ], [ 136.673869717, 35.446025412 ], [ 136.673924717, 35.445916017 ], [ 136.67401222399999, 35.445795034 ], [ 136.674088721, 35.44570646 ], [ 136.67394628299999, 35.445224937 ] ] ] } },
{ "type": "Feature", "properties": { "A29_001": "21218", "A29_002": "岐阜県", "A29_003": "本巣市", "A29_004": 4, "A29_005": "第二種中高層住居専用地域", "A29_006": 60, "A29_007": 200, "A29_008": "条件付き公開" }, "geometry": { "type": "Polygon", "coordinates": [ [ [ 136.67054672399999, 35.449583027 ], [ 136.670531192, 35.449596936 ], [ 136.670201614, 35.449851692 ], [ 136.670074706, 35.449950784 ], [ 136.66992287, 35.450040217 ], [ 136.669777495, 35.450142749 ], [ 136.66976332199999, 35.450231126 ], [ 136.669756619999987, 35.450345767 ], [ 136.66997382299999, 35.450354053 ], [ 136.669990824, 35.450485649 ], [ 136.670016987999986, 35.450634231 ], [ 136.670032862, 35.450816125 ], [ 136.670043349999986, 35.451046497 ], [ 136.670069047999988, 35.451285856 ], [ 136.67013200400001, 35.452057062 ], [ 136.67013007, 35.452105644 ], [ 136.67014796399999, 35.452225074 ], [ 136.671431090999988, 35.452044369 ], [ 136.672317142999987, 35.451906468 ], [ 136.672284956999988, 35.451077874 ], [ 136.67224314, 35.450145209 ], [ 136.672247206, 35.450104298 ], [ 136.672249048999987, 35.450085375 ], [ 136.67223956699999, 35.449912251 ], [ 136.6722384, 35.449895118 ], [ 136.672230273999986, 35.449738137 ], [ 136.672228792999988, 35.449712799 ], [ 136.672219605, 35.449551306 ], [ 136.672217507999989, 35.449522721 ], [ 136.67220404599999, 35.449361751 ], [ 136.672202516, 35.449344436 ], [ 136.672184735, 35.449146758 ], [ 136.67219602599999, 35.449142838 ], [ 136.672186817000011, 35.448940147 ], [ 136.672185461, 35.448909221 ], [ 136.672177753999989, 35.448921359 ], [ 136.67215882799999, 35.448688248 ], [ 136.672141936, 35.44859776 ], [ 136.672122179000013, 35.448500229 ], [ 136.672108126000012, 35.448435986 ], [ 136.672105829, 35.448336092 ], [ 136.672085059000011, 35.448196458 ], [ 136.671925359999989, 35.448309571 ], [ 136.671650653, 35.448552476 ], [ 136.67134068199999, 35.448856176 ], [ 136.670895925999986, 35.449269032 ], [ 136.67054672399999, 35.449583027 ] ] ] } },
{ "type": "Feature", "properties": { "A29_001": "21218", "A29_002": "岐阜県", "A29_003": "本巣市", "A29_004": 6, "A29_005": "第二種住居地域", "A29_006": 60, "A29_007": 200, "A29_008": "条件付き公開" }, "geometry": { "type": "Polygon", "coordinates": [ [ [ 136.674374445000012, 35.444919729 ], [ 136.674563068, 35.444784825 ], [ 136.674520785999988, 35.444656011 ], [ 136.674436230999987, 35.444411815 ], [ 136.674426444, 35.444377879 ], [ 136.674411791000011, 35.444337163 ], [ 136.674385996000012, 35.444231403 ], [ 136.674368163, 35.444160925 ], [ 136.674355311, 35.444108046 ], [ 136.674348802, 35.444087646 ], [ 136.674345523, 35.44407411 ], [ 136.674343994999987, 35.444056435 ], [ 136.67433448, 35.443992751 ], [ 136.674320107, 35.44390606 ], [ 136.674312359, 35.443820658 ], [ 136.674310873, 35.443796222 ], [ 136.67430935199999, 35.44376241 ], [ 136.67431010300001, 35.44363909 ], [ 136.67430882299999, 35.443580849 ], [ 136.674316992, 35.443477662 ], [ 136.674331634, 35.443370896 ], [ 136.674338497, 35.443333062 ], [ 136.674340289000014, 35.443307377 ], [ 136.674365727, 35.443217963 ], [ 136.674379182, 35.443171952 ], [ 136.674404578, 35.44308948 ], [ 136.674446609, 35.442975884 ], [ 136.674515482, 35.442810833 ], [ 136.67458106699999, 35.442648563 ], [ 136.674614600000012, 35.442572794 ], [ 136.674638105000014, 35.442517359 ], [ 136.674659958, 35.442464621 ], [ 136.67474392, 35.44226853 ], [ 136.67485136900001, 35.442019707 ], [ 136.674898379000012, 35.441908836 ], [ 136.674942093, 35.441802008 ], [ 136.674997486, 35.441672149 ], [ 136.675027746000012, 35.441596458 ], [ 136.675052969, 35.441542381 ], [ 136.675073063000013, 35.441495045 ], [ 136.675086533000012, 35.441461204 ], [ 136.675121823000012, 35.441380034 ], [ 136.675220904000014, 35.441147494 ], [ 136.675249414, 35.441075762 ], [ 136.67526627, 35.441037878 ], [ 136.675276344999986, 35.441009522 ], [ 136.675294779000012, 35.440966236 ], [ 136.675351946, 35.440828271 ], [ 136.675452661, 35.440595647 ], [ 136.675479501000012, 35.440529407 ], [ 136.67549799299999, 35.44049153 ], [ 136.675519885999989, 35.440432031 ], [ 136.675526518, 35.440417183 ], [ 136.675558298, 35.440375303 ], [ 136.675584965000013, 35.440337459 ], [ 136.675603416, 35.440306343 ], [ 136.675616753000014, 35.440279353 ], [ 136.67564366, 35.44021717 ], [ 136.675754366, 35.439969712 ], [ 136.675782193, 35.439890494 ], [ 136.675798136, 35.439853328 ], [ 136.675808318, 35.439807303 ], [ 136.675806888000011, 35.439773492 ], [ 136.675813667999989, 35.439749089 ], [ 136.675822075000013, 35.439726136 ], [ 136.67582718700001, 35.439707135 ], [ 136.67591955, 35.439488089 ], [ 136.675958165999987, 35.439397467 ], [ 136.67608202, 35.439168993 ], [ 136.676137243999989, 35.439066268 ], [ 136.6761558, 35.439017573 ], [ 136.676209357, 35.43892025 ], [ 136.676221125000012, 35.438882345 ], [ 136.67626317599999, 35.438779567 ], [ 136.676276537, 35.43874852 ], [ 136.676290023, 35.438711974 ], [ 136.676339092, 35.438545489 ], [ 136.676354328, 35.438490019 ], [ 136.67638304, 35.438384482 ], [ 136.676413027, 35.438353503 ], [ 136.676438125, 35.438319709 ], [ 136.676456467, 35.438291296 ], [ 136.67646987, 35.438268363 ], [ 136.67649172099999, 35.438215625 ], [ 136.67655906499999, 35.43801676 ], [ 136.676592856000013, 35.437912595 ], [ 136.67663664, 35.437793507 ], [ 136.676740372000012, 35.437601551 ], [ 136.676824364, 35.437398697 ], [ 136.67686982399999, 35.437272854 ], [ 136.676915036999986, 35.437187757 ], [ 136.677032301, 35.436951142 ], [ 136.67711265299999, 35.436809214 ], [ 136.67720462299999, 35.43665381 ], [ 136.677301532, 35.436507892 ], [ 136.677360066, 35.436413293 ], [ 136.677428493, 35.436320086 ], [ 136.67747522499999, 35.436253926 ], [ 136.67754025799999, 35.436166115 ], [ 136.677627002, 35.436063516 ], [ 136.677738594, 35.435938031 ], [ 136.677842606000013, 35.435819095 ], [ 136.677889897999989, 35.435765468 ], [ 136.678220441, 35.435412612 ], [ 136.67822227, 35.435410637 ], [ 136.678223366999987, 35.435409469 ], [ 136.678223642, 35.43540911 ], [ 136.678382212, 35.435236395 ], [ 136.678382577, 35.435236126 ], [ 136.678444945, 35.435168046 ], [ 136.67859497399999, 35.435010712 ], [ 136.678673333, 35.434927101 ], [ 136.678709999, 35.434887944 ], [ 136.67878491499999, 35.434802876 ], [ 136.678949964999987, 35.434609814 ], [ 136.67906668099999, 35.434477587 ], [ 136.67919492499999, 35.434331794 ], [ 136.679135393, 35.434306312 ], [ 136.679020759, 35.434228952 ], [ 136.678970803999988, 35.434197108 ], [ 136.67895021699999, 35.434161236 ], [ 136.678885353999988, 35.434010606 ], [ 136.678842433, 35.433927136 ], [ 136.678643722, 35.433932733 ], [ 136.67861344, 35.433937749 ], [ 136.678505776, 35.433894764 ], [ 136.678415139, 35.433860322 ], [ 136.6784016, 35.433936082 ], [ 136.67837033399999, 35.434104172 ], [ 136.67835848199999, 35.43415623 ], [ 136.678325495, 35.434278248 ], [ 136.678279624999988, 35.434352435 ], [ 136.67818233700001, 35.434471578 ], [ 136.678174942, 35.434477498 ], [ 136.678132263, 35.434459386 ], [ 136.678071988999989, 35.43442155 ], [ 136.677923717999988, 35.434363345 ], [ 136.67775551299999, 35.434296405 ], [ 136.67768096399999, 35.434260675 ], [ 136.677565929999986, 35.434384794 ], [ 136.677534301, 35.43441721 ], [ 136.67752185, 35.434433026 ], [ 136.677503851000012, 35.434450081 ], [ 136.67748757699999, 35.434467143 ], [ 136.677361459999986, 35.434606182 ], [ 136.677207759999988, 35.434769449 ], [ 136.676961115000012, 35.435039345 ], [ 136.67688274599999, 35.435109253 ], [ 136.676879178, 35.435113295 ], [ 136.676681494, 35.435338766 ], [ 136.676680487, 35.435339934 ], [ 136.676680304, 35.435340113 ], [ 136.676550214, 35.435489682 ], [ 136.676535937000011, 35.435507023 ], [ 136.676523116, 35.435524009 ], [ 136.676511839999989, 35.435540731 ], [ 136.67648460800001, 35.435567124 ], [ 136.676467852, 35.435588692 ], [ 136.676444465, 35.435625197 ], [ 136.676427808, 35.435645413 ], [ 136.676384418999987, 35.435699506 ], [ 136.676347760999988, 35.435752184 ], [ 136.676337686000011, 35.435765666 ], [ 136.676317692999987, 35.435796776 ], [ 136.676297642, 35.435822387 ], [ 136.67617239, 35.436012903 ], [ 136.676157987000011, 35.436035832 ], [ 136.676155419999986, 35.436039788 ], [ 136.67614059499999, 35.436057487 ], [ 136.676097198, 35.436127717 ], [ 136.676093688, 35.436137258 ], [ 136.676072068, 35.436166919 ], [ 136.675971838, 35.436320936 ], [ 136.675900039999988, 35.436430445 ], [ 136.675866536, 35.436487193 ], [ 136.675841381999987, 35.436545326 ], [ 136.67580123, 35.436619626 ], [ 136.675710777, 35.436794056 ], [ 136.67568227699999, 35.436849472 ], [ 136.675668825, 35.436880608 ], [ 136.675655438, 35.436915712 ], [ 136.67562690599999, 35.436976626 ], [ 136.675593451, 35.437040135 ], [ 136.675557438999988, 35.437120942 ], [ 136.675515084000011, 35.437228767 ], [ 136.675455793, 35.437357979 ], [ 136.67544165699999, 35.437396866 ], [ 136.675405845, 35.437474608 ], [ 136.675380639999986, 35.43755591 ], [ 136.675355542, 35.437634507 ], [ 136.675352843000013, 35.437645134 ], [ 136.675289413, 35.437767658 ], [ 136.675287096, 35.437775221 ], [ 136.67520183799999, 35.43799132 ], [ 136.675162465999989, 35.438101502 ], [ 136.675070258, 35.438265287 ], [ 136.675015263, 35.438345024 ], [ 136.674990759999986, 35.438415421 ], [ 136.674876684, 35.438679091 ], [ 136.674832864, 35.438803588 ], [ 136.67479741, 35.438911802 ], [ 136.67476023, 35.439034973 ], [ 136.67462768499999, 35.439332464 ], [ 136.674577505, 35.439412131 ], [ 136.674554108, 35.439449988 ], [ 136.674542405000011, 35.439476985 ], [ 136.674534556999987, 35.439497687 ], [ 136.674366104, 35.439888154 ], [ 136.674350941, 35.439931454 ], [ 136.674337314000013, 35.439990986 ], [ 136.674335324, 35.440049304 ], [ 136.674321945, 35.440083055 ], [ 136.674261414999989, 35.440221006 ], [ 136.67424626799999, 35.440261511 ], [ 136.674222788, 35.44031298 ], [ 136.674195970999989, 35.440375163 ], [ 136.674075753000011, 35.440661976 ], [ 136.674075383, 35.440662966 ], [ 136.674075291, 35.440663146 ], [ 136.673974233, 35.440906675 ], [ 136.673883557000011, 35.441116261 ], [ 136.673821997, 35.441259075 ], [ 136.673820154, 35.441263304 ], [ 136.673818587, 35.441266904 ], [ 136.673817297, 35.441269963 ], [ 136.673740831, 35.441443548 ], [ 136.673727385, 35.441473242 ], [ 136.673703870999987, 35.441530029 ], [ 136.67369043299999, 35.441558461 ], [ 136.673576349, 35.44182213 ], [ 136.673551034000013, 35.441891171 ], [ 136.67353931400001, 35.441920872 ], [ 136.673512421, 35.44198044 ], [ 136.673467077999987, 35.442085909 ], [ 136.673413376000013, 35.442206218 ], [ 136.673398260999988, 35.442241404 ], [ 136.67336967599999, 35.442310341 ], [ 136.673319343, 35.442429401 ], [ 136.67326721, 35.442560625 ], [ 136.673231969, 35.442648195 ], [ 136.673222667, 35.442668711 ], [ 136.673214820999988, 35.442688962 ], [ 136.673208248, 35.442709038 ], [ 136.673199434, 35.442738932 ], [ 136.67317302, 35.44280941 ], [ 136.67316285199999, 35.442837855 ], [ 136.67314942199999, 35.442879809 ], [ 136.67313082199999, 35.442935265 ], [ 136.673115517000014, 35.443001551 ], [ 136.67308157, 35.443145019 ], [ 136.673078314, 35.44317223 ], [ 136.67307607, 35.443182678 ], [ 136.673066248, 35.4432141 ], [ 136.67306089499999, 35.443272314 ], [ 136.673050703, 35.44331969 ], [ 136.673042162, 35.443364369 ], [ 136.673040336000014, 35.443395553 ], [ 136.673035499, 35.443473511 ], [ 136.673034417999986, 35.443486939 ], [ 136.673033882, 35.443500279 ], [ 136.673033801, 35.44351362 ], [ 136.673030680000011, 35.443623048 ], [ 136.673035582000011, 35.443653358 ], [ 136.673028722, 35.443660992 ], [ 136.67303024099999, 35.443694804 ], [ 136.673039222, 35.443905427 ], [ 136.67303959899999, 35.44391805 ], [ 136.673040429999986, 35.443930764 ], [ 136.673041805, 35.443943661 ], [ 136.673073706999986, 35.444165105 ], [ 136.67309076, 35.444378015 ], [ 136.673671754, 35.444383634 ], [ 136.673775186, 35.444690381 ], [ 136.67394628299999, 35.445224937 ], [ 136.674088721, 35.44570646 ], [ 136.67401222399999, 35.445795034 ], [ 136.673924717, 35.445916017 ], [ 136.673869717, 35.446025412 ], [ 136.673836540999986, 35.446131832 ], [ 136.673817973000013, 35.446211718 ], [ 136.673802661, 35.446353729 ], [ 136.67373607799999, 35.447200311 ], [ 136.673678423000013, 35.448087585 ], [ 136.67441795799999, 35.448054543 ], [ 136.67442144899999, 35.448316889 ], [ 136.67439012599999, 35.449193273 ], [ 136.674333482, 35.450527056 ], [ 136.674297731, 35.451369165 ], [ 136.674222625999988, 35.451452156 ], [ 136.67436061399999, 35.451622017 ], [ 136.67437965, 35.451644451 ], [ 136.674420322, 35.451709975 ], [ 136.674441707999989, 35.451764151 ], [ 136.674457589000014, 35.451827229 ], [ 136.674563342, 35.452307068 ], [ 136.674687747, 35.452768143 ], [ 136.67482353299999, 35.452747962 ], [ 136.675206812999988, 35.452746728 ], [ 136.675340696, 35.452755567 ], [ 136.675350619999989, 35.452797256 ], [ 136.675780486, 35.452950273 ], [ 136.675863545, 35.452949169 ], [ 136.675871371, 35.452782697 ], [ 136.675875440999988, 35.452666151 ], [ 136.675888187, 35.452527375 ], [ 136.675903533, 35.452409343 ], [ 136.67593063699999, 35.452240335 ], [ 136.675987291000013, 35.452128151 ], [ 136.676155324, 35.451824944 ], [ 136.675684241999988, 35.451756409 ], [ 136.675569888000012, 35.45020873 ], [ 136.67611240799999, 35.450227613 ], [ 136.676140661, 35.449764276 ], [ 136.67630345, 35.449770436 ], [ 136.67644923899999, 35.44977797 ], [ 136.67666015, 35.449804789 ], [ 136.676837333, 35.448964965 ], [ 136.677000213000014, 35.448400847 ], [ 136.677262503, 35.447369532 ], [ 136.677510782000013, 35.446130007 ], [ 136.67685580700001, 35.446111035 ], [ 136.676449641, 35.446040784 ], [ 136.67630503399999, 35.445989263 ], [ 136.675625505999989, 35.446841557 ], [ 136.674825500999987, 35.446406491 ], [ 136.674770268, 35.446210914 ], [ 136.67471502399999, 35.44601705 ], [ 136.674684079, 35.445921277 ], [ 136.674412765999989, 35.445042487 ], [ 136.674374445000012, 35.444919729 ] ] ] } },
{ "type": "Feature", "properties": { "A29_001": "21218", "A29_002": "岐阜県", "A29_003": "本巣市", "A29_004": 8, "A29_005": "近隣商業地域", "A29_006": 80, "A29_007": 200, "A29_008": "条件付き公開" }, "geometry": { "type": "Polygon", "coordinates": [ [ [ 136.674687747, 35.452768143 ], [ 136.674563342, 35.452307068 ], [ 136.674457589000014, 35.451827229 ], [ 136.674441707999989, 35.451764151 ], [ 136.674420322, 35.451709975 ], [ 136.67437965, 35.451644451 ], [ 136.67436061399999, 35.451622017 ], [ 136.673495266, 35.451718369 ], [ 136.672317142999987, 35.451906468 ], [ 136.671431090999988, 35.452044369 ], [ 136.67014796399999, 35.452225074 ], [ 136.67014657199999, 35.452288983 ], [ 136.67015139099999, 35.452347509 ], [ 136.670162584, 35.452418863 ], [ 136.670178101, 35.452540536 ], [ 136.670189786, 35.452679683 ], [ 136.67020925599999, 35.452779197 ], [ 136.670232892, 35.452925424 ], [ 136.670280071, 35.453218239 ], [ 136.670349101, 35.453533501 ], [ 136.670378527999986, 35.453639455 ], [ 136.670394375, 35.453751845 ], [ 136.670401829000014, 35.453825347 ], [ 136.670393646, 35.453870658 ], [ 136.670366897, 35.453935274 ], [ 136.67032052799999, 35.454028477 ], [ 136.670325991999988, 35.454159755 ], [ 136.67046693, 35.454410856 ], [ 136.670602916, 35.454625247 ], [ 136.670712844, 35.454776877 ], [ 136.670780785, 35.454885153 ], [ 136.670904492, 35.455442416 ], [ 136.67087946800001, 35.455448173 ], [ 136.67096367100001, 35.455808931 ], [ 136.670953645, 35.456036064 ], [ 136.670939056, 35.456177536 ], [ 136.67090535599999, 35.456353187 ], [ 136.670897779, 35.456358925 ], [ 136.67086659200001, 35.456480497 ], [ 136.67083871599999, 35.456595412 ], [ 136.670796972, 35.456749213 ], [ 136.670795344999988, 35.456777423 ], [ 136.670794734, 35.456788058 ], [ 136.67079530399999, 35.456798968 ], [ 136.670802482999989, 35.456946931 ], [ 136.670808136, 35.457062343 ], [ 136.67081217399999, 35.457144755 ], [ 136.670824294999989, 35.457168604 ], [ 136.670875919999986, 35.457270684 ], [ 136.670880675, 35.457325063 ], [ 136.670896709, 35.457510924 ], [ 136.670902207000012, 35.457533033 ], [ 136.670908149000013, 35.457556946 ], [ 136.670953020000013, 35.457737877 ], [ 136.670955682, 35.457748436 ], [ 136.670963596, 35.457791469 ], [ 136.670963486, 35.457794533 ], [ 136.670963174, 35.457801023 ], [ 136.671011553, 35.457943475 ], [ 136.671079091, 35.458117919 ], [ 136.671099593, 35.458197784 ], [ 136.67112135799999, 35.458279007 ], [ 136.671227007, 35.458418178 ], [ 136.671256817, 35.458432364 ], [ 136.67133124899999, 35.458742418 ], [ 136.671055642, 35.459200141 ], [ 136.671040498999986, 35.459387406 ], [ 136.672539922, 35.459177558 ], [ 136.675731664000011, 35.458713698 ], [ 136.675816160000011, 35.458701421 ], [ 136.676093124, 35.458689025 ], [ 136.67645258499999, 35.4587242 ], [ 136.676456349, 35.458672921 ], [ 136.676641012, 35.458701346 ], [ 136.676974816000012, 35.458741555 ], [ 136.67712228, 35.458760273 ], [ 136.677401894000013, 35.458790524 ], [ 136.677557802, 35.458810538 ], [ 136.678039122, 35.458861077 ], [ 136.678053887, 35.45883887 ], [ 136.67807158299999, 35.458827944 ], [ 136.678032776, 35.458798579 ], [ 136.677972028999989, 35.458745686 ], [ 136.67793661799999, 35.458710836 ], [ 136.677913337, 35.458638533 ], [ 136.677885432000011, 35.458564589 ], [ 136.677868268999987, 35.458517642 ], [ 136.677848258000012, 35.458460678 ], [ 136.677823259, 35.458387016 ], [ 136.677754851, 35.458203648 ], [ 136.67770975, 35.458088256 ], [ 136.67766301399999, 35.457957622 ], [ 136.677634688000012, 35.457878357 ], [ 136.67760757799999, 35.457763218 ], [ 136.677581849, 35.45764502 ], [ 136.67756225, 35.457520085 ], [ 136.677554337, 35.457431257 ], [ 136.67753634799999, 35.457310476 ], [ 136.67749836499999, 35.457145171 ], [ 136.677451924, 35.456921054 ], [ 136.677457616999988, 35.456881322 ], [ 136.677463243, 35.456792549 ], [ 136.677431864, 35.456662158 ], [ 136.67740187199999, 35.456557825 ], [ 136.677362323000011, 35.4563661 ], [ 136.677371453, 35.456268957 ], [ 136.677338334000012, 35.456125938 ], [ 136.677307023999987, 35.455984278 ], [ 136.677251696000013, 35.455877229 ], [ 136.677219943000011, 35.455793803 ], [ 136.677201634999989, 35.455740992 ], [ 136.677187446, 35.455563072 ], [ 136.677176924, 35.455500016 ], [ 136.677152422, 35.455464669 ], [ 136.677137332, 35.455435489 ], [ 136.677032628, 35.455364299 ], [ 136.676751880000012, 35.455238214 ], [ 136.676660548, 35.455194843 ], [ 136.67659305399999, 35.454861561 ], [ 136.676540566999989, 35.454855759 ], [ 136.67637428, 35.454585901 ], [ 136.67630551, 35.454448236 ], [ 136.676262146999989, 35.454331498 ], [ 136.676239036999988, 35.45423152 ], [ 136.67620588599999, 35.454109235 ], [ 136.676182584, 35.454025933 ], [ 136.676024066, 35.453599249 ], [ 136.675966046000013, 35.453382567 ], [ 136.67590799199999, 35.453171384 ], [ 136.675879812, 35.453068591 ], [ 136.675863545, 35.452949169 ], [ 136.675780486, 35.452950273 ], [ 136.675350619999989, 35.452797256 ], [ 136.675340696, 35.452755567 ], [ 136.675206812999988, 35.452746728 ], [ 136.67482353299999, 35.452747962 ], [ 136.674687747, 35.452768143 ] ] ] } },
{ "type": "Feature", "properties": { "A29_001": "21218", "A29_002": "岐阜県", "A29_003": "本巣市", "A29_004": 10, "A29_005": "準工業地域", "A29_006": 60, "A29_007": 200, "A29_008": "条件付き公開" }, "geometry": { "type": "Polygon", "coordinates": [ [ [ 136.675731664000011, 35.458713698 ], [ 136.672539922, 35.459177558 ], [ 136.671040498999986, 35.459387406 ], [ 136.670990816999989, 35.459679462 ], [ 136.670897, 35.459833411 ], [ 136.670873768, 35.459916973 ], [ 136.670871025, 35.459978983 ], [ 136.670876177999986, 35.460146229 ], [ 136.670877897, 35.46022151 ], [ 136.670876604, 35.460269373 ], [ 136.670871298, 35.460319654 ], [ 136.670855361, 35.460443542 ], [ 136.670851426000013, 35.460477602 ], [ 136.67088775, 35.460615137 ], [ 136.670902286, 35.460660271 ], [ 136.67090539599999, 35.460671822 ], [ 136.671232487999987, 35.460696063 ], [ 136.67136352, 35.460697592 ], [ 136.671535495, 35.460691086 ], [ 136.671728618, 35.460688813 ], [ 136.671861565, 35.460689358 ], [ 136.671986099, 35.460683648 ], [ 136.6721906, 35.460678266 ], [ 136.672371149000014, 35.460666655 ], [ 136.67253911899999, 35.460661122 ], [ 136.672536248, 35.460714568 ], [ 136.672476675000013, 35.461153616 ], [ 136.672460363, 35.461220439 ], [ 136.672463486999987, 35.461274361 ], [ 136.672489533, 35.461339464 ], [ 136.67254486499999, 35.461400811 ], [ 136.672674967, 35.461510152 ], [ 136.672768123999987, 35.461597797 ], [ 136.672843572, 35.461653817 ], [ 136.672871105000013, 35.461698823 ], [ 136.67289235199999, 35.461731454 ], [ 136.672977554, 35.462035421 ], [ 136.672892721000011, 35.46208754 ], [ 136.672844556, 35.462117272 ], [ 136.672838578000011, 35.462247872 ], [ 136.672835611000011, 35.462391376 ], [ 136.67282781599999, 35.462640784 ], [ 136.67283214299999, 35.462899256 ], [ 136.672820997, 35.464098269 ], [ 136.672873199, 35.464092173 ], [ 136.673002575, 35.46409784 ], [ 136.673050649, 35.464098037 ], [ 136.673178205, 35.464074489 ], [ 136.67334594, 35.464049212 ], [ 136.673475389, 35.464028105 ], [ 136.673407247, 35.464293223 ], [ 136.673348409999988, 35.464478146 ], [ 136.673298434, 35.464670318 ], [ 136.673257541, 35.464833499 ], [ 136.673228136, 35.465094808 ], [ 136.67322410599999, 35.465338011 ], [ 136.673254514, 35.465701251 ], [ 136.673221160999987, 35.465701115 ], [ 136.673216061, 35.465821893 ], [ 136.673216016999987, 35.465873818 ], [ 136.673218047, 35.466091984 ], [ 136.673212431, 35.466267479 ], [ 136.673218076000012, 35.466429318 ], [ 136.673212447, 35.466607067 ], [ 136.673229671, 35.466733164 ], [ 136.673229201999987, 35.466928874 ], [ 136.673216166, 35.467054577 ], [ 136.673229364, 35.467259447 ], [ 136.673232807, 35.467305887 ], [ 136.675386339, 35.467323597 ], [ 136.675366574, 35.467569891 ], [ 136.67567287, 35.467581234 ], [ 136.675681641000011, 35.467543858 ], [ 136.675653289, 35.467453504 ], [ 136.675653633, 35.467411857 ], [ 136.675679351000014, 35.467352284 ], [ 136.675699987, 35.467306573 ], [ 136.67571897, 35.467263649 ], [ 136.67573499, 35.467229639 ], [ 136.675744753, 35.467208223 ], [ 136.675760223, 35.467175021 ], [ 136.675770578999987, 35.467145946 ], [ 136.67578613399999, 35.467098771 ], [ 136.675804312999986, 35.467023482 ], [ 136.675819173, 35.466956021 ], [ 136.67582480199999, 35.466867248 ], [ 136.675827018, 35.466786755 ], [ 136.675829, 35.46672988 ], [ 136.675831047, 35.466677152 ], [ 136.675826202, 35.466636836 ], [ 136.675821509, 35.46657164 ], [ 136.675826978, 35.466509189 ], [ 136.675834258, 35.466432864 ], [ 136.67584248599999, 35.466364925 ], [ 136.675853638, 35.46630944 ], [ 136.675872505, 35.466270662 ], [ 136.675881401, 35.466212463 ], [ 136.675888523, 35.466147225 ], [ 136.675890595, 35.46609035 ], [ 136.675887026, 35.46598973 ], [ 136.675885795999989, 35.465892996 ], [ 136.675881984, 35.465832221 ], [ 136.675887605000014, 35.4657448 ], [ 136.675892846000011, 35.465719851 ], [ 136.675909361, 35.465514561 ], [ 136.675923635, 35.46539391 ], [ 136.675925833, 35.465316212 ], [ 136.67599186699999, 35.465052887 ], [ 136.675859659, 35.46503423 ], [ 136.676008644, 35.46452 ], [ 136.67610732599999, 35.464192984 ], [ 136.67621636199999, 35.463836711 ], [ 136.676289243000014, 35.463567825 ], [ 136.67639724899999, 35.463096519 ], [ 136.67648093, 35.462724908 ], [ 136.676554263000014, 35.46238111 ], [ 136.676605051, 35.462113487 ], [ 136.676650497, 35.46188749 ], [ 136.676668433, 35.461732147 ], [ 136.676667581, 35.461587817 ], [ 136.676659805000014, 35.461461488 ], [ 136.676643778, 35.461317095 ], [ 136.676606636, 35.461073004 ], [ 136.67657023699999, 35.460871375 ], [ 136.67652735199999, 35.460660254 ], [ 136.676489706000012, 35.460439509 ], [ 136.676455481, 35.460209042 ], [ 136.67643273199999, 35.460049387 ], [ 136.676429386, 35.459762072 ], [ 136.676432592999987, 35.459398247 ], [ 136.676440101, 35.459104394 ], [ 136.676445324000014, 35.458797551 ], [ 136.67645258499999, 35.4587242 ], [ 136.676093124, 35.458689025 ], [ 136.675816160000011, 35.458701421 ], [ 136.675731664000011, 35.458713698 ] ] ] } },
{ "type": "Feature", "properties": { "A29_001": "21218", "A29_002": "岐阜県", "A29_003": "本巣市", "A29_004": 3, "A29_005": "第一種中高層住居専用地域", "A29_006": 60, "A29_007": 200, "A29_008": "条件付き公開" }, "geometry": { "type": "Polygon", "coordinates": [ [ [ 136.69228559199999, 35.446700017 ], [ 136.692360979, 35.446642618 ], [ 136.69236718499999, 35.446606853 ], [ 136.69239821, 35.446429293 ], [ 136.69242849299999, 35.446378388 ], [ 136.69244939399999, 35.446207368 ], [ 136.692477039000011, 35.44606378 ], [ 136.69246697299999, 35.446014159 ], [ 136.692395420999986, 35.445882622 ], [ 136.692382759, 35.44582623 ], [ 136.692104048, 35.445880846 ], [ 136.692071051, 35.445899016 ], [ 136.692041754, 35.445967775 ], [ 136.69191293899999, 35.446226986 ], [ 136.691813859, 35.446234619 ], [ 136.691812062, 35.446416712 ], [ 136.691811287, 35.44650226 ], [ 136.69186124399999, 35.446613158 ], [ 136.691897613, 35.446717152 ], [ 136.691901368, 35.446804972 ], [ 136.691900207, 35.446863473 ], [ 136.691974225, 35.446868993 ], [ 136.692039924999989, 35.446821112 ], [ 136.692127766, 35.4467625 ], [ 136.692228295, 35.446725033 ], [ 136.69228559199999, 35.446700017 ] ] ] } },
{ "type": "Feature", "properties": { "A29_001": "21218", "A29_002": "岐阜県", "A29_003": "本巣市", "A29_004": 3, "A29_005": "第一種中高層住居専用地域", "A29_006": 60, "A29_007": 200, "A29_008": "条件付き公開" }, "geometry": { "type": "Polygon", "coordinates": [ [ [ 136.692405949, 35.446720953 ], [ 136.692421324, 35.447073764 ], [ 136.693029, 35.44708823 ], [ 136.69303255299999, 35.446481815 ], [ 136.692986388, 35.446452156 ], [ 136.692839733, 35.446453654 ], [ 136.69283060399999, 35.446662492 ], [ 136.692408835, 35.446662548 ], [ 136.69240508499999, 35.446682366 ], [ 136.692405949, 35.446720953 ] ] ] } }
]
}
