{
"type": "FeatureCollection",
"name": "A29-19_01424",
"features": [
{ "type": "Feature", "properties": { "A29_001": "01424", "A29_002": "北海道", "A29_003": "奈井江町", "A29_004": 11, "A29_005": "工業地域", "A29_006": 60, "A29_007": 200, "A29_008": null }, "geometry": { "type": "Polygon", "coordinates": [ [ [ 141.87305854499999, 43.401454895 ], [ 141.873478543, 43.401371418 ], [ 141.873609511000012, 43.401362428 ], [ 141.873762524, 43.401371621 ], [ 141.873922611000012, 43.401386333 ], [ 141.874045943999988, 43.401406194 ], [ 141.874213139, 43.401455083 ], [ 141.874474416999988, 43.401591083 ], [ 141.874637444, 43.401669028 ], [ 141.87474194399999, 43.401699583 ], [ 141.874875722000013, 43.401719444 ], [ 141.875, 43.401714722 ], [ 141.87504983299999, 43.401713111 ], [ 141.875243278, 43.401686861 ], [ 141.875434750000011, 43.401646056 ], [ 141.875656166999988, 43.401583333 ], [ 141.87583566699999, 43.40151625 ], [ 141.876025139, 43.401430222 ], [ 141.876184693999988, 43.401338361 ], [ 141.876324333000014, 43.401236306 ], [ 141.876380167, 43.401170667 ], [ 141.876410083, 43.401103611 ], [ 141.876420083, 43.401032167 ], [ 141.876420083, 43.400930083 ], [ 141.876428056, 43.400835306 ], [ 141.876438028, 43.400791556 ], [ 141.876473917, 43.400730306 ], [ 141.876521778000011, 43.400676361 ], [ 141.876615528, 43.400607833 ], [ 141.876703278, 43.400548028 ], [ 141.876801027999988, 43.400489722 ], [ 141.876908750000013, 43.400422639 ], [ 141.87698052799999, 43.400338056 ], [ 141.877022417, 43.400256417 ], [ 141.87702841699999, 43.400184944 ], [ 141.877025777999989, 43.400065333 ], [ 141.877024333, 43.4 ], [ 141.877022417, 43.399912278 ], [ 141.87701875, 43.399809583 ], [ 141.87702275, 43.399780306 ], [ 141.87706480599999, 43.399679306 ], [ 141.877142846999988, 43.399576605 ], [ 141.87714488899999, 43.399573917 ], [ 141.877279028, 43.399456833 ], [ 141.877423166999989, 43.39939975 ], [ 141.87758936099999, 43.399363167 ], [ 141.87767944399999, 43.399347056 ], [ 141.878005806, 43.399349972 ], [ 141.87805718199999, 43.399351595 ], [ 141.87799579, 43.399152393 ], [ 141.87767692, 43.39806642 ], [ 141.873161788, 43.398705792 ], [ 141.872964792, 43.398071269 ], [ 141.863724703, 43.399576001 ], [ 141.864435609999987, 43.40200698 ], [ 141.864910028, 43.40209175 ], [ 141.86538250000001, 43.402151722 ], [ 141.86581205600001, 43.402231639 ], [ 141.86619083299999, 43.40228875 ], [ 141.86663013899999, 43.402367333 ], [ 141.866666667, 43.402373222 ], [ 141.867171472, 43.402454417 ], [ 141.867622944, 43.40254 ], [ 141.868009639, 43.402599583 ], [ 141.86827091699999, 43.402617917 ], [ 141.86855358299999, 43.402629389 ], [ 141.868894305999987, 43.402627861 ], [ 141.869152944, 43.4026225 ], [ 141.869543806, 43.402599583 ], [ 141.86979041699999, 43.402565972 ], [ 141.870575376, 43.402443003 ], [ 141.870668306, 43.402428444 ], [ 141.871025909999986, 43.40232816 ], [ 141.87109207200001, 43.402309606 ], [ 141.87112602799999, 43.402300083 ], [ 141.871222194000012, 43.402261889 ], [ 141.87141248, 43.40215502 ], [ 141.87164611, 43.40201405 ], [ 141.871852152, 43.401891453 ], [ 141.872069524000011, 43.40175413 ], [ 141.872333015, 43.40161299 ], [ 141.872475126000012, 43.401582436 ], [ 141.872721291, 43.401522186 ], [ 141.87305854499999, 43.401454895 ] ] ] } },
{ "type": "Feature", "properties": { "A29_001": "01424", "A29_002": "北海道", "A29_003": "奈井江町", "A29_004": 11, "A29_005": "工業地域", "A29_006": 60, "A29_007": 200, "A29_008": null }, "geometry": { "type": "Polygon", "coordinates": [ [ [ 141.87462161, 43.40785157 ], [ 141.875222826999988, 43.407744408 ], [ 141.875314352, 43.408093506 ], [ 141.87569677, 43.408007289 ], [ 141.875954330000013, 43.40791471 ], [ 141.8761733, 43.40780547 ], [ 141.876282980000013, 43.40771672 ], [ 141.876435879000013, 43.407607911 ], [ 141.876617950999986, 43.407455032 ], [ 141.876891699999987, 43.407292477 ], [ 141.877135841000012, 43.407206613 ], [ 141.877785039, 43.407103009 ], [ 141.878639623, 43.406971016 ], [ 141.880176561000013, 43.406698882 ], [ 141.88005644399999, 43.406304361 ], [ 141.88005644399999, 43.406291944 ], [ 141.880030339, 43.406208048 ], [ 141.87998776, 43.406071209 ], [ 141.87991128199999, 43.405825427 ], [ 141.879831653, 43.405569513 ], [ 141.879736806000011, 43.405264694 ], [ 141.879726139000013, 43.4051905 ], [ 141.879643394, 43.404916512 ], [ 141.879553601, 43.404619186 ], [ 141.87943961, 43.404241342 ], [ 141.879194417, 43.40342845 ], [ 141.87908313, 43.403052851 ], [ 141.878907516, 43.402444656 ], [ 141.878891004, 43.402388828 ], [ 141.878885833, 43.402371345 ], [ 141.87888632799999, 43.402371268 ], [ 141.878850236, 43.402235715 ], [ 141.878823473000011, 43.402125117 ], [ 141.8787776, 43.401934431 ], [ 141.878708440999986, 43.401705561 ], [ 141.878638023, 43.401469067 ], [ 141.878577987999989, 43.401244038 ], [ 141.87853195299999, 43.401080026 ], [ 141.87846017699999, 43.400836529 ], [ 141.87841286, 43.400684274 ], [ 141.878351363, 43.400484963 ], [ 141.878273237, 43.400227484 ], [ 141.878217019, 43.400019615 ], [ 141.87817197199999, 43.399868139 ], [ 141.87810493399999, 43.399679067 ], [ 141.877823193000012, 43.399695595 ], [ 141.877699054, 43.399707318 ], [ 141.87760094399999, 43.399729262 ], [ 141.87747880500001, 43.399789262 ], [ 141.87743275, 43.399847819 ], [ 141.877410338, 43.39992289 ], [ 141.877439541, 43.400151917 ], [ 141.877430370000013, 43.400229163 ], [ 141.87734862, 43.400433302 ], [ 141.877296314, 43.400526263 ], [ 141.877216507000014, 43.400599151 ], [ 141.877120170000012, 43.400657669 ], [ 141.876943258000011, 43.400755179 ], [ 141.876881424, 43.400806206 ], [ 141.876842646999989, 43.400856133 ], [ 141.876827569999989, 43.400920224 ], [ 141.876789032, 43.401099489 ], [ 141.876767117000014, 43.40120449 ], [ 141.87672525, 43.4012815 ], [ 141.87665541699999, 43.40137775 ], [ 141.876561667, 43.401471056 ], [ 141.87617475, 43.4017 ], [ 141.876000671000014, 43.401786504 ], [ 141.87592541699999, 43.401821028 ], [ 141.875827694, 43.401851639 ], [ 141.875801290999988, 43.401858902 ], [ 141.875773229, 43.401869092 ], [ 141.87559542599999, 43.401915483 ], [ 141.87554953599999, 43.401923994 ], [ 141.87542677799999, 43.40195225 ], [ 141.875163500000014, 43.40200475 ], [ 141.87509169399999, 43.402010583 ], [ 141.875080951, 43.402010902 ], [ 141.87492021599999, 43.402016349 ], [ 141.874887139, 43.402017611 ], [ 141.874723139, 43.401993639 ], [ 141.87457932800001, 43.401956929 ], [ 141.874027971, 43.401806792 ], [ 141.87378808, 43.4018656 ], [ 141.873720233, 43.401852677 ], [ 141.873662137999986, 43.401664141 ], [ 141.87245246, 43.40187067 ], [ 141.871987033000011, 43.402148742 ], [ 141.872000363000012, 43.402284988 ], [ 141.871540633, 43.402517199 ], [ 141.871366380000012, 43.40269746 ], [ 141.871071648999987, 43.402674189 ], [ 141.869987132, 43.402892925 ], [ 141.869955245, 43.402948634 ], [ 141.86987505, 43.40308874 ], [ 141.86940422, 43.40317059 ], [ 141.869013853000013, 43.403064723 ], [ 141.868458374999989, 43.403020473 ], [ 141.867900322, 43.402999337 ], [ 141.867429617, 43.402982902 ], [ 141.867291634, 43.402841087 ], [ 141.86621860299999, 43.402667435 ], [ 141.86591227, 43.40269823 ], [ 141.865407154, 43.402628879 ], [ 141.865041475, 43.40257867 ], [ 141.864618353999987, 43.402577204 ], [ 141.865226944, 43.404480278 ], [ 141.86502754599999, 43.404525501 ], [ 141.8667075, 43.409804611 ], [ 141.86764426, 43.40991008 ], [ 141.868641770000011, 43.40997787 ], [ 141.86916679, 43.40996445 ], [ 141.86932024, 43.409946 ], [ 141.870660429999987, 43.40965091 ], [ 141.87073171, 43.40905397 ], [ 141.870849819999989, 43.40886667 ], [ 141.870941429999988, 43.40876081 ], [ 141.8710877, 43.40864185 ], [ 141.87129119, 43.40851551 ], [ 141.87152043, 43.40842526 ], [ 141.87173647, 43.4083691 ], [ 141.87202267, 43.40831508 ], [ 141.874279739, 43.407912545 ], [ 141.874280352, 43.407912436 ], [ 141.87462161, 43.40785157 ] ] ] } },
{ "type": "Feature", "properties": { "A29_001": "01424", "A29_002": "北海道", "A29_003": "奈井江町", "A29_004": 3, "A29_005": "第一種中高層住居専用地域", "A29_006": 60, "A29_007": 150, "A29_008": null }, "geometry": { "type": "Polygon", "coordinates": [ [ [ 141.877203146999989, 43.4127625 ], [ 141.87832814699999, 43.412589271 ], [ 141.87926603299999, 43.412444863 ], [ 141.880107912999989, 43.412315246 ], [ 141.881227188, 43.412142918 ], [ 141.881215735000012, 43.412106778 ], [ 141.88121558899999, 43.412106801 ], [ 141.88103515899999, 43.4115453 ], [ 141.88084870099999, 43.410842706 ], [ 141.879838522, 43.410973172 ], [ 141.879810181000011, 43.410976832 ], [ 141.876811800000013, 43.41143353 ], [ 141.877193260000013, 43.41273584 ], [ 141.87719461899999, 43.412735627 ], [ 141.877203146999989, 43.4127625 ] ] ] } },
{ "type": "Feature", "properties": { "A29_001": "01424", "A29_002": "北海道", "A29_003": "奈井江町", "A29_004": 2, "A29_005": "第二種低層住居専用地域", "A29_006": 40, "A29_007": 60, "A29_008": null }, "geometry": { "type": "Polygon", "coordinates": [ [ [ 141.87667733, 43.41337688 ], [ 141.87659045, 43.41306394 ], [ 141.873276299999986, 43.41359152 ], [ 141.873367019999989, 43.4138978 ], [ 141.87667733, 43.41337688 ] ] ] } },
{ "type": "Feature", "properties": { "A29_001": "01424", "A29_002": "北海道", "A29_003": "奈井江町", "A29_004": 10, "A29_005": "準工業地域", "A29_006": 60, "A29_007": 200, "A29_008": null }, "geometry": { "type": "Polygon", "coordinates": [ [ [ 141.886241903000013, 43.416790265 ], [ 141.88623327, 43.416764015 ], [ 141.886491648, 43.416743569 ], [ 141.886556216, 43.41673846 ], [ 141.886812287999987, 43.416696252 ], [ 141.88637136299999, 43.415209754 ], [ 141.886493116, 43.415193818 ], [ 141.885898852, 43.413311687 ], [ 141.884884699999986, 43.40985836 ], [ 141.88378977, 43.40612007 ], [ 141.88267703, 43.40233808 ], [ 141.882522497999986, 43.401823429 ], [ 141.882148279, 43.401883216 ], [ 141.882125072, 43.401819656 ], [ 141.882118889999987, 43.40182061 ], [ 141.882095877000012, 43.401739695 ], [ 141.88165584, 43.40019249 ], [ 141.88124832, 43.39883943 ], [ 141.880988132, 43.398008943 ], [ 141.881112694, 43.397874444 ], [ 141.88077554, 43.39668423 ], [ 141.881124228, 43.396565898 ], [ 141.88104275399999, 43.396280103 ], [ 141.879265223, 43.396513939 ], [ 141.879324384, 43.396719861 ], [ 141.879396566999986, 43.39697111 ], [ 141.879477283, 43.397252055 ], [ 141.879630975999987, 43.397785872 ], [ 141.87767692, 43.39806642 ], [ 141.87799579, 43.399152393 ], [ 141.87805718199999, 43.399351595 ], [ 141.878238055999986, 43.399357306 ], [ 141.87836619399999, 43.399345583 ], [ 141.87848563, 43.399311996 ], [ 141.87852236099999, 43.399301667 ], [ 141.878633183, 43.399247356 ], [ 141.878702166000011, 43.39918203 ], [ 141.878766222, 43.399127863 ], [ 141.87882430499999, 43.39905614 ], [ 141.878860333, 43.399009308 ], [ 141.87902940399999, 43.39883425 ], [ 141.8792316, 43.398626389 ], [ 141.879341110000013, 43.398532047 ], [ 141.879441539999988, 43.398454924 ], [ 141.879543543000011, 43.398397818 ], [ 141.879638285, 43.398351158 ], [ 141.879736371, 43.398323083 ], [ 141.87985609, 43.39875355 ], [ 141.879763524, 43.398827215 ], [ 141.87918611, 43.399289092 ], [ 141.87904569, 43.399405066 ], [ 141.87890955099999, 43.399526565 ], [ 141.878746723, 43.399605255 ], [ 141.87861387800001, 43.399646105 ], [ 141.87845105, 43.39966415 ], [ 141.87831863299999, 43.399669397 ], [ 141.878217396999986, 43.399672079 ], [ 141.87810493399999, 43.399679067 ], [ 141.87817197199999, 43.399868139 ], [ 141.878217019, 43.400019615 ], [ 141.878273237, 43.400227484 ], [ 141.878351363, 43.400484963 ], [ 141.87841286, 43.400684274 ], [ 141.87846017699999, 43.400836529 ], [ 141.87853195299999, 43.401080026 ], [ 141.878577987999989, 43.401244038 ], [ 141.878638023, 43.401469067 ], [ 141.878708440999986, 43.401705561 ], [ 141.8787776, 43.401934431 ], [ 141.878823473000011, 43.402125117 ], [ 141.878850236, 43.402235715 ], [ 141.87888632799999, 43.402371268 ], [ 141.878885833, 43.402371345 ], [ 141.878891004, 43.402388828 ], [ 141.878907516, 43.402444656 ], [ 141.87908313, 43.403052851 ], [ 141.879194417, 43.40342845 ], [ 141.87943961, 43.404241342 ], [ 141.879553601, 43.404619186 ], [ 141.879643394, 43.404916512 ], [ 141.879726139000013, 43.4051905 ], [ 141.879736806000011, 43.405264694 ], [ 141.879831653, 43.405569513 ], [ 141.87991128199999, 43.405825427 ], [ 141.87998776, 43.406071209 ], [ 141.880030339, 43.406208048 ], [ 141.88005644399999, 43.406291944 ], [ 141.88005644399999, 43.406304361 ], [ 141.880176561000013, 43.406698882 ], [ 141.878639623, 43.406971016 ], [ 141.8793303, 43.40914285 ], [ 141.879697555, 43.410613034 ], [ 141.879810181000011, 43.410976832 ], [ 141.879838522, 43.410973172 ], [ 141.88084870099999, 43.410842706 ], [ 141.88103515899999, 43.4115453 ], [ 141.88121558899999, 43.412106801 ], [ 141.881215735000012, 43.412106778 ], [ 141.881227188, 43.412142918 ], [ 141.881307443999987, 43.412396194 ], [ 141.883086176, 43.412116362 ], [ 141.883095379999986, 43.4123473 ], [ 141.884439250000014, 43.416666667 ], [ 141.884477253999989, 43.416782076 ], [ 141.884483249999988, 43.416800283 ], [ 141.88455869, 43.417029375 ], [ 141.884568527999988, 43.41705925 ], [ 141.88488388499999, 43.417010358 ], [ 141.885263694, 43.416951472 ], [ 141.886241903000013, 43.416790265 ] ] ] } },
{ "type": "Feature", "properties": { "A29_001": "01424", "A29_002": "北海道", "A29_003": "奈井江町", "A29_004": 3, "A29_005": "第一種中高層住居専用地域", "A29_006": 60, "A29_007": 150, "A29_008": null }, "geometry": { "type": "Polygon", "coordinates": [ [ [ 141.878710180000013, 43.41768582 ], [ 141.884443559, 43.416786862 ], [ 141.88444362199999, 43.41678708 ], [ 141.884477253999989, 43.416782076 ], [ 141.884439250000014, 43.416666667 ], [ 141.883095379999986, 43.4123473 ], [ 141.880612148000012, 43.412776663 ], [ 141.87739878, 43.41324305 ], [ 141.878710180000013, 43.41768582 ] ] ] } },
{ "type": "Feature", "properties": { "A29_001": "01424", "A29_002": "北海道", "A29_003": "奈井江町", "A29_004": 1, "A29_005": "第一種低層住居専用地域", "A29_006": 40, "A29_007": 60, "A29_008": null }, "geometry": { "type": "Polygon", "coordinates": [ [ [ 141.87792294, 43.417795529 ], [ 141.87667733, 43.41337688 ], [ 141.873367019999989, 43.4138978 ], [ 141.87469436, 43.418322168 ], [ 141.87792294, 43.417795529 ] ] ] } },
{ "type": "Feature", "properties": { "A29_001": "01424", "A29_002": "北海道", "A29_003": "奈井江町", "A29_004": 2, "A29_005": "第二種低層住居専用地域", "A29_006": 40, "A29_007": 60, "A29_008": null }, "geometry": { "type": "Polygon", "coordinates": [ [ [ 141.87808349, 43.418363545 ], [ 141.87792294, 43.417795529 ], [ 141.87469436, 43.418322168 ], [ 141.874774054999989, 43.418591741 ], [ 141.87494058199999, 43.418564422 ], [ 141.87502287699999, 43.418819463 ], [ 141.87808349, 43.418363545 ] ] ] } },
{ "type": "Feature", "properties": { "A29_001": "01424", "A29_002": "北海道", "A29_003": "奈井江町", "A29_004": 3, "A29_005": "第一種中高層住居専用地域", "A29_006": 60, "A29_007": 150, "A29_008": null }, "geometry": { "type": "Polygon", "coordinates": [ [ [ 141.884481749, 43.419506717 ], [ 141.884767167, 43.41942375 ], [ 141.884971814000011, 43.419398365 ], [ 141.885166, 43.419374278 ], [ 141.8855524, 43.41937673 ], [ 141.884961435, 43.41727602 ], [ 141.882188133, 43.41771296 ], [ 141.882973386, 43.420201027 ], [ 141.883333333, 43.420016194 ], [ 141.883488527999987, 43.419932194 ], [ 141.88358301299999, 43.419878176 ], [ 141.88368516, 43.419819777 ], [ 141.883779417, 43.419765889 ], [ 141.884215748, 43.419591284 ], [ 141.88428191700001, 43.419564806 ], [ 141.884481749, 43.419506717 ] ] ] } },
{ "type": "Feature", "properties": { "A29_001": "01424", "A29_002": "北海道", "A29_003": "奈井江町", "A29_004": 3, "A29_005": "第一種中高層住居専用地域", "A29_006": 60, "A29_007": 150, "A29_008": null }, "geometry": { "type": "Polygon", "coordinates": [ [ [ 141.89152015, 43.41939264 ], [ 141.891284563, 43.419112406 ], [ 141.889661679999989, 43.41940764 ], [ 141.88924529, 43.41949734 ], [ 141.88886254, 43.41960988 ], [ 141.88844597, 43.41972799 ], [ 141.888897402, 43.42126372 ], [ 141.88890654, 43.42129998 ], [ 141.894076070000011, 43.42049785 ], [ 141.89374215, 43.42032284 ], [ 141.89321557, 43.42014299 ], [ 141.89216527, 43.41974159 ], [ 141.89182818, 43.41960593 ], [ 141.89162607, 43.41950102 ], [ 141.89152015, 43.41939264 ] ] ] } },
{ "type": "Feature", "properties": { "A29_001": "01424", "A29_002": "北海道", "A29_003": "奈井江町", "A29_004": 3, "A29_005": "第一種中高層住居専用地域", "A29_006": 60, "A29_007": 150, "A29_008": null }, "geometry": { "type": "Polygon", "coordinates": [ [ [ 141.881700059999986, 43.41842732 ], [ 141.8815114, 43.41781621 ], [ 141.87879680099999, 43.418217744 ], [ 141.87924326800001, 43.419675401 ], [ 141.87983119399999, 43.42153225 ], [ 141.880404277999986, 43.421410139 ], [ 141.880712417000012, 43.421306972 ], [ 141.881101194, 43.421153306 ], [ 141.881245167, 43.42109225 ], [ 141.88143144, 43.421001463 ], [ 141.88161637499999, 43.420911328 ], [ 141.881884891999988, 43.420780455 ], [ 141.88195049, 43.420740939 ], [ 141.882112, 43.420656444 ], [ 141.882279173, 43.420557329 ], [ 141.881700059999986, 43.41842732 ] ] ] } },
{ "type": "Feature", "properties": { "A29_001": "01424", "A29_002": "北海道", "A29_003": "奈井江町", "A29_004": 10, "A29_005": "準工業地域", "A29_006": 60, "A29_007": 200, "A29_008": null }, "geometry": { "type": "Polygon", "coordinates": [ [ [ 141.900366, 43.419807778 ], [ 141.9, 43.419866111 ], [ 141.89951538299999, 43.419943373 ], [ 141.899588920000014, 43.42020701 ], [ 141.899991590000013, 43.42161316 ], [ 141.900852971, 43.42147521 ], [ 141.90066353899999, 43.42082659 ], [ 141.900626984000013, 43.420701424 ], [ 141.900454337000014, 43.42011026 ], [ 141.90041673499999, 43.419981505 ], [ 141.900366, 43.419807778 ] ] ] } },
{ "type": "Feature", "properties": { "A29_001": "01424", "A29_002": "北海道", "A29_003": "奈井江町", "A29_004": 5, "A29_005": "第一種住居地域", "A29_006": 60, "A29_007": 200, "A29_008": null }, "geometry": { "type": "Polygon", "coordinates": [ [ [ 141.888897402, 43.42126372 ], [ 141.88844597, 43.41972799 ], [ 141.88808652, 43.41985608 ], [ 141.88805001, 43.41972001 ], [ 141.88799262, 43.41952974 ], [ 141.88674133, 43.41922589 ], [ 141.886347876, 43.41765845 ], [ 141.886519392999986, 43.417634011 ], [ 141.886241903000013, 43.416790265 ], [ 141.885263694, 43.416951472 ], [ 141.88488388499999, 43.417010358 ], [ 141.884961435, 43.41727602 ], [ 141.8855524, 43.41937673 ], [ 141.885818809, 43.419406032 ], [ 141.885932209, 43.41981818 ], [ 141.88521208, 43.41981438 ], [ 141.884699649999988, 43.42001196 ], [ 141.884996629999989, 43.4203353 ], [ 141.88507429, 43.42125507 ], [ 141.88521967, 43.42171814 ], [ 141.88599498, 43.42160213 ], [ 141.88565558, 43.420435821 ], [ 141.886044750999986, 43.420374205 ], [ 141.886216058, 43.420347082 ], [ 141.88625166700001, 43.420341444 ], [ 141.88628196799999, 43.420445587 ], [ 141.88678219, 43.42036659 ], [ 141.88721723099999, 43.421827296 ], [ 141.887221274000012, 43.421844586 ], [ 141.887310098, 43.421830481 ], [ 141.88739087, 43.421817655 ], [ 141.8874705, 43.42180501 ], [ 141.88753491, 43.421794782 ], [ 141.887607319000011, 43.421783284 ], [ 141.887666559, 43.421773877 ], [ 141.888229532999986, 43.421684478 ], [ 141.888306491, 43.421672315 ], [ 141.88853129, 43.421636785 ], [ 141.88897977, 43.421565902 ], [ 141.888956306000011, 43.4214865 ], [ 141.888909119, 43.421308036 ], [ 141.88890654, 43.42129998 ], [ 141.888897402, 43.42126372 ] ] ] } },
{ "type": "Feature", "properties": { "A29_001": "01424", "A29_002": "北海道", "A29_003": "奈井江町", "A29_004": 3, "A29_005": "第一種中高層住居専用地域", "A29_006": 60, "A29_007": 150, "A29_008": null }, "geometry": { "type": "Polygon", "coordinates": [ [ [ 141.884996629999989, 43.4203353 ], [ 141.884699649999988, 43.42001196 ], [ 141.88419888199999, 43.420205029 ], [ 141.883429979999988, 43.42051961 ], [ 141.88268345, 43.42104046 ], [ 141.882215839999986, 43.421407348 ], [ 141.88192915, 43.4215556 ], [ 141.8815251, 43.42174956 ], [ 141.88135413399999, 43.421820274 ], [ 141.88127494, 43.42185303 ], [ 141.881073993, 43.421889962 ], [ 141.880902666999987, 43.421928611 ], [ 141.880680399999989, 43.421962298 ], [ 141.880064221999987, 43.42212475 ], [ 141.87996980599999, 43.422152 ], [ 141.879793389000014, 43.422188333 ], [ 141.87956229400001, 43.422233705 ], [ 141.879321471999987, 43.422307028 ], [ 141.879168861000011, 43.422361778 ], [ 141.879024861, 43.422448083 ], [ 141.878713823, 43.422735737 ], [ 141.879136530000011, 43.42266835 ], [ 141.88313822, 43.42204045 ], [ 141.88521967, 43.42171814 ], [ 141.88507429, 43.42125507 ], [ 141.884996629999989, 43.4203353 ] ] ] } },
{ "type": "Feature", "properties": { "A29_001": "01424", "A29_002": "北海道", "A29_003": "奈井江町", "A29_004": 8, "A29_005": "近隣商業地域", "A29_006": 80, "A29_007": 300, "A29_008": null }, "geometry": { "type": "Polygon", "coordinates": [ [ [ 141.886230243, 43.422388671 ], [ 141.88599498, 43.42160213 ], [ 141.88521967, 43.42171814 ], [ 141.88313822, 43.42204045 ], [ 141.883246164000013, 43.422393372 ], [ 141.883266346, 43.422459354 ], [ 141.88326541699999, 43.4224595 ], [ 141.883375118, 43.422841948 ], [ 141.886230243, 43.422388671 ] ] ] } },
{ "type": "Feature", "properties": { "A29_001": "01424", "A29_002": "北海道", "A29_003": "奈井江町", "A29_004": 1, "A29_005": "第一種低層住居専用地域", "A29_006": 40, "A29_007": 60, "A29_008": null }, "geometry": { "type": "Polygon", "coordinates": [ [ [ 141.87476806, 43.42537137 ], [ 141.875282270000014, 43.42502613 ], [ 141.87538315, 43.42510798 ], [ 141.877113017, 43.423889104 ], [ 141.877213794999989, 43.423804883 ], [ 141.8772356, 43.423774326 ], [ 141.87724835099999, 43.423756466 ], [ 141.877376457999986, 43.423546694 ], [ 141.87748851, 43.42319965 ], [ 141.877666307999988, 43.42283205 ], [ 141.877718394, 43.422763265 ], [ 141.877727357, 43.422744512 ], [ 141.877844167, 43.422593361 ], [ 141.878146528, 43.42231125 ], [ 141.878305563999987, 43.422189704 ], [ 141.87835937, 43.42214882 ], [ 141.878385200999986, 43.422132915 ], [ 141.87838776000001, 43.422131003 ], [ 141.878408583, 43.422115444 ], [ 141.878595778, 43.421997528 ], [ 141.87873463299999, 43.421920884 ], [ 141.878878, 43.42184175 ], [ 141.8791055, 43.421725944 ], [ 141.87890652499999, 43.421096612 ], [ 141.87848397, 43.419731828 ], [ 141.87808349, 43.418363545 ], [ 141.87502287699999, 43.418819463 ], [ 141.875039659, 43.418877449 ], [ 141.875130445, 43.419191131 ], [ 141.87530184900001, 43.419783358 ], [ 141.87531411099999, 43.419825722 ], [ 141.875378379000011, 43.420048916 ], [ 141.875542153999987, 43.420617674 ], [ 141.875552277999986, 43.420652833 ], [ 141.875659667, 43.421025806 ], [ 141.87588123399999, 43.421803686 ], [ 141.876430167, 43.423526337 ], [ 141.875318333, 43.423701583 ], [ 141.87467805599999, 43.423798083 ], [ 141.874330146, 43.423848949 ], [ 141.87476806, 43.42537137 ] ] ] } },
{ "type": "Feature", "properties": { "A29_001": "01424", "A29_002": "北海道", "A29_003": "奈井江町", "A29_004": 3, "A29_005": "第一種中高層住居専用地域", "A29_006": 60, "A29_007": 150, "A29_008": null }, "geometry": { "type": "Polygon", "coordinates": [ [ [ 141.901729347000014, 43.424482729 ], [ 141.901524583, 43.423790944 ], [ 141.901496557, 43.423693234 ], [ 141.901319035, 43.423074298 ], [ 141.901318194, 43.423071366 ], [ 141.901265943999988, 43.422889194 ], [ 141.901240722000011, 43.422802833 ], [ 141.90111200699999, 43.422362132 ], [ 141.900970074000014, 43.421876165 ], [ 141.900949263, 43.421804911 ], [ 141.900852971, 43.42147521 ], [ 141.899991590000013, 43.42161316 ], [ 141.899588920000014, 43.42020701 ], [ 141.89400031, 43.4210695 ], [ 141.89530037, 43.42546845 ], [ 141.901729347000014, 43.424482729 ] ] ] } },
{ "type": "Feature", "properties": { "A29_001": "01424", "A29_002": "北海道", "A29_003": "奈井江町", "A29_004": 3, "A29_005": "第一種中高層住居専用地域", "A29_006": 60, "A29_007": 150, "A29_008": null }, "geometry": { "type": "Polygon", "coordinates": [ [ [ 141.88907642, 43.421829 ], [ 141.88959988, 43.42361146 ], [ 141.890375940000013, 43.42624106 ], [ 141.89456765, 43.42558302 ], [ 141.89437142, 43.42491316 ], [ 141.89326519, 43.42117481 ], [ 141.88907642, 43.421829 ] ] ] } },
{ "type": "Feature", "properties": { "A29_001": "01424", "A29_002": "北海道", "A29_003": "奈井江町", "A29_004": 4, "A29_005": "第二種中高層住居専用地域", "A29_006": 60, "A29_007": 200, "A29_008": null }, "geometry": { "type": "Polygon", "coordinates": [ [ [ 141.90189897, 43.42500648 ], [ 141.901841107, 43.424809285 ], [ 141.901806443999988, 43.424743194 ], [ 141.901729347000014, 43.424482729 ], [ 141.89530037, 43.42546845 ], [ 141.89400031, 43.4210695 ], [ 141.899588920000014, 43.42020701 ], [ 141.899515345999987, 43.419943239 ], [ 141.896279808, 43.420452543 ], [ 141.894379824999987, 43.420734363 ], [ 141.894328389, 43.420690413 ], [ 141.89432742, 43.42069056 ], [ 141.894285501000013, 43.420653766 ], [ 141.89418002, 43.42056118 ], [ 141.894076070000011, 43.42049785 ], [ 141.88890654, 43.42129998 ], [ 141.888909119, 43.421308036 ], [ 141.888956306000011, 43.4214865 ], [ 141.88897977, 43.421565902 ], [ 141.889004277999987, 43.421648833 ], [ 141.88907642, 43.421829 ], [ 141.89326519, 43.42117481 ], [ 141.89437142, 43.42491316 ], [ 141.89456765, 43.42558302 ], [ 141.890375940000013, 43.42624106 ], [ 141.89045486, 43.42652001 ], [ 141.890455672, 43.426519884 ], [ 141.890458238, 43.426527547 ], [ 141.890510615000011, 43.426519347 ], [ 141.890568548, 43.426510278 ], [ 141.89069621199999, 43.426490292 ], [ 141.89078530899999, 43.426476344 ], [ 141.890909021999988, 43.426456976 ], [ 141.891034722, 43.426437297 ], [ 141.891175878000013, 43.426415198 ], [ 141.891293998, 43.426396706 ], [ 141.891433717000012, 43.426374831 ], [ 141.891553159000011, 43.426356132 ], [ 141.891674497999986, 43.426337135 ], [ 141.891769509, 43.426322264 ], [ 141.891841459, 43.426311002 ], [ 141.891917777, 43.426299055 ], [ 141.891943228, 43.42629507 ], [ 141.892256389000011, 43.426246028 ], [ 141.89233030599999, 43.426234535 ], [ 141.892750533999987, 43.426169195 ], [ 141.892848972, 43.426153889 ], [ 141.893082639, 43.426117556 ], [ 141.893266527, 43.426088967 ], [ 141.893576306, 43.426040806 ], [ 141.893619252, 43.426034129 ], [ 141.893802198, 43.426005684 ], [ 141.893954178, 43.425982055 ], [ 141.89405922200001, 43.425965722 ], [ 141.894161110999988, 43.425949861 ], [ 141.894439594, 43.425906568 ], [ 141.89452544400001, 43.425893222 ], [ 141.895689223, 43.425693353 ], [ 141.89598824399999, 43.425646059 ], [ 141.895963861000013, 43.425679954 ], [ 141.895805450000012, 43.42595467 ], [ 141.89932835, 43.42541003 ], [ 141.90189897, 43.42500648 ] ] ] } },
{ "type": "Feature", "properties": { "A29_001": "01424", "A29_002": "北海道", "A29_003": "奈井江町", "A29_004": 10, "A29_005": "準工業地域", "A29_006": 60, "A29_007": 200, "A29_008": null }, "geometry": { "type": "Polygon", "coordinates": [ [ [ 141.890458238, 43.426527547 ], [ 141.890455672, 43.426519884 ], [ 141.89045486, 43.42652001 ], [ 141.890375940000013, 43.42624106 ], [ 141.88959988, 43.42361146 ], [ 141.88907642, 43.421829 ], [ 141.889004277999987, 43.421648833 ], [ 141.888999539999986, 43.4216328 ], [ 141.88897977, 43.421565902 ], [ 141.88853129, 43.421636785 ], [ 141.888306491, 43.421672315 ], [ 141.888229532999986, 43.421684478 ], [ 141.887666559, 43.421773877 ], [ 141.887711431000014, 43.421928963 ], [ 141.888574205, 43.424910758 ], [ 141.88833487299999, 43.424948523 ], [ 141.88800863899999, 43.425 ], [ 141.887632806, 43.425059306 ], [ 141.887638092, 43.425077424 ], [ 141.88764065699999, 43.425086213 ], [ 141.887824083, 43.425714889 ], [ 141.887903711, 43.425987837 ], [ 141.88841742, 43.425907842 ], [ 141.888452567, 43.42602396 ], [ 141.88868295, 43.42679498 ], [ 141.888683394, 43.426796453 ], [ 141.88974869399999, 43.426634361 ], [ 141.889810305, 43.426625214 ], [ 141.890203813, 43.426566791 ], [ 141.890276306, 43.426556028 ], [ 141.890458238, 43.426527547 ] ] ] } },
{ "type": "Feature", "properties": { "A29_001": "01424", "A29_002": "北海道", "A29_003": "奈井江町", "A29_004": 3, "A29_005": "第一種中高層住居専用地域", "A29_006": 60, "A29_007": 150, "A29_008": null }, "geometry": { "type": "Polygon", "coordinates": [ [ [ 141.902323450000011, 43.42644054 ], [ 141.90189897, 43.42500648 ], [ 141.89932835, 43.42541003 ], [ 141.895805450000012, 43.42595467 ], [ 141.89553347, 43.42651013 ], [ 141.89550691, 43.42660675 ], [ 141.8955038, 43.42669396 ], [ 141.89550595, 43.4267698 ], [ 141.89573583, 43.42747203 ], [ 141.902323450000011, 43.42644054 ] ] ] } },
{ "type": "Feature", "properties": { "A29_001": "01424", "A29_002": "北海道", "A29_003": "奈井江町", "A29_004": 5, "A29_005": "第一種住居地域", "A29_006": 60, "A29_007": 200, "A29_008": null }, "geometry": { "type": "Polygon", "coordinates": [ [ [ 141.887649290000013, 43.42724937 ], [ 141.88757039, 43.42697619 ], [ 141.88707075, 43.42705802 ], [ 141.88680829399999, 43.426163236 ], [ 141.887311915, 43.426082597 ], [ 141.887310292, 43.426076716 ], [ 141.88731059, 43.42607667 ], [ 141.887305222, 43.426058346 ], [ 141.886234519999988, 43.42240297 ], [ 141.886230243, 43.422388671 ], [ 141.883375118, 43.422841948 ], [ 141.883577583, 43.42354775 ], [ 141.883692137, 43.423951187 ], [ 141.883727443999987, 43.424075528 ], [ 141.88378622799999, 43.42426851 ], [ 141.883863018, 43.424520604 ], [ 141.882267227999989, 43.424769383 ], [ 141.882235659, 43.424773732 ], [ 141.882257775, 43.424847287 ], [ 141.88227978, 43.424920469 ], [ 141.882297669, 43.424979962 ], [ 141.88232245399999, 43.425062676 ], [ 141.88233998699999, 43.425122288 ], [ 141.882360511, 43.425192065 ], [ 141.88239712, 43.425316531 ], [ 141.88242919699999, 43.425425588 ], [ 141.882450484, 43.425497961 ], [ 141.882479163, 43.425595464 ], [ 141.882499927999987, 43.42566606 ], [ 141.88253286299999, 43.425778031 ], [ 141.88258989900001, 43.425972141 ], [ 141.88260400499999, 43.426020587 ], [ 141.882635881, 43.426130064 ], [ 141.882663398, 43.426224573 ], [ 141.88269809900001, 43.426343749 ], [ 141.88272862299999, 43.426448596 ], [ 141.882768664999986, 43.426586142 ], [ 141.882806958, 43.426717675 ], [ 141.882827722, 43.426789 ], [ 141.882838536, 43.426787302 ], [ 141.88286136100001, 43.426783717 ], [ 141.883333333, 43.426709583 ], [ 141.88445358300001, 43.426533611 ], [ 141.884455972000012, 43.426541641 ], [ 141.884490677, 43.426659179 ], [ 141.884520368000011, 43.426759688 ], [ 141.88455364399999, 43.42687233 ], [ 141.884578721999986, 43.426957222 ], [ 141.884617275000011, 43.427087699 ], [ 141.884662287, 43.427240034 ], [ 141.884705266999987, 43.427385492 ], [ 141.884735509, 43.427488435 ], [ 141.884772214, 43.427613754 ], [ 141.884795749, 43.427694107 ], [ 141.884835552, 43.427688574 ], [ 141.88518381899999, 43.427639829 ], [ 141.887649290000013, 43.42724937 ] ] ] } },
{ "type": "Feature", "properties": { "A29_001": "01424", "A29_002": "北海道", "A29_003": "奈井江町", "A29_004": 5, "A29_005": "第一種住居地域", "A29_006": 60, "A29_007": 200, "A29_008": null }, "geometry": { "type": "Polygon", "coordinates": [ [ [ 141.895963861000013, 43.425679954 ], [ 141.89598824399999, 43.425646059 ], [ 141.895689223, 43.425693353 ], [ 141.89452544400001, 43.425893222 ], [ 141.894439594, 43.425906568 ], [ 141.894161110999988, 43.425949861 ], [ 141.89405922200001, 43.425965722 ], [ 141.893954178, 43.425982055 ], [ 141.893802198, 43.426005684 ], [ 141.893619252, 43.426034129 ], [ 141.893576306, 43.426040806 ], [ 141.893266527, 43.426088967 ], [ 141.893082639, 43.426117556 ], [ 141.892848972, 43.426153889 ], [ 141.892750533999987, 43.426169195 ], [ 141.89233030599999, 43.426234535 ], [ 141.892256389000011, 43.426246028 ], [ 141.891943228, 43.42629507 ], [ 141.891917777, 43.426299055 ], [ 141.891841459, 43.426311002 ], [ 141.891769509, 43.426322264 ], [ 141.891674497999986, 43.426337135 ], [ 141.891553159000011, 43.426356132 ], [ 141.891433717000012, 43.426374831 ], [ 141.891293998, 43.426396706 ], [ 141.891175878000013, 43.426415198 ], [ 141.891034722, 43.426437297 ], [ 141.890909021999988, 43.426456976 ], [ 141.89078530899999, 43.426476344 ], [ 141.89069621199999, 43.426490292 ], [ 141.890568548, 43.426510278 ], [ 141.890510615000011, 43.426519347 ], [ 141.890458238, 43.426527547 ], [ 141.890276306, 43.426556028 ], [ 141.890203813, 43.426566791 ], [ 141.889810305, 43.426625214 ], [ 141.88974869399999, 43.426634361 ], [ 141.888683394, 43.426796453 ], [ 141.88886648, 43.42740414 ], [ 141.889463505, 43.42938799 ], [ 141.890449518, 43.42922208 ], [ 141.890182829999986, 43.42833827 ], [ 141.89573583, 43.42747203 ], [ 141.89550595, 43.4267698 ], [ 141.8955038, 43.42669396 ], [ 141.89550691, 43.42660675 ], [ 141.89553347, 43.42651013 ], [ 141.895805450000012, 43.42595467 ], [ 141.895963861000013, 43.425679954 ] ] ] } },
{ "type": "Feature", "properties": { "A29_001": "01424", "A29_002": "北海道", "A29_003": "奈井江町", "A29_004": 9, "A29_005": "商業地域", "A29_006": 80, "A29_007": 400, "A29_008": null }, "geometry": { "type": "Polygon", "coordinates": [ [ [ 141.889463505, 43.42938799 ], [ 141.88886648, 43.42740414 ], [ 141.888683394, 43.426796453 ], [ 141.88868295, 43.42679498 ], [ 141.888452567, 43.42602396 ], [ 141.88841742, 43.425907842 ], [ 141.887903711, 43.425987837 ], [ 141.887824083, 43.425714889 ], [ 141.88764065699999, 43.425086213 ], [ 141.887638092, 43.425077424 ], [ 141.887632806, 43.425059306 ], [ 141.88800863899999, 43.425 ], [ 141.88833487299999, 43.424948523 ], [ 141.888574205, 43.424910758 ], [ 141.887711431000014, 43.421928963 ], [ 141.887666559, 43.421773877 ], [ 141.887607319000011, 43.421783284 ], [ 141.88753491, 43.421794782 ], [ 141.8874705, 43.42180501 ], [ 141.88739087, 43.421817655 ], [ 141.887310098, 43.421830481 ], [ 141.887221274000012, 43.421844586 ], [ 141.88721723099999, 43.421827296 ], [ 141.88678219, 43.42036659 ], [ 141.88628196799999, 43.420445587 ], [ 141.88625166700001, 43.420341444 ], [ 141.886216058, 43.420347082 ], [ 141.886044750999986, 43.420374205 ], [ 141.88565558, 43.420435821 ], [ 141.88599498, 43.42160213 ], [ 141.886230243, 43.422388671 ], [ 141.886234519999988, 43.42240297 ], [ 141.887305222, 43.426058346 ], [ 141.88731059, 43.42607667 ], [ 141.887310292, 43.426076716 ], [ 141.887311915, 43.426082597 ], [ 141.88680829399999, 43.426163236 ], [ 141.88707075, 43.42705802 ], [ 141.88757039, 43.42697619 ], [ 141.887649290000013, 43.42724937 ], [ 141.88823872899999, 43.429211675 ], [ 141.888317502, 43.429473699 ], [ 141.888895944000012, 43.429381528 ], [ 141.888921110000013, 43.429465383 ], [ 141.888925306, 43.429479361 ], [ 141.889463505, 43.42938799 ] ] ] } },
{ "type": "Feature", "properties": { "A29_001": "01424", "A29_002": "北海道", "A29_003": "奈井江町", "A29_004": 3, "A29_005": "第一種中高層住居専用地域", "A29_006": 60, "A29_007": 150, "A29_008": null }, "geometry": { "type": "Polygon", "coordinates": [ [ [ 141.876850939, 43.424711158 ], [ 141.877936721999987, 43.428483972 ], [ 141.878058194, 43.428906028 ], [ 141.878430282000011, 43.430198855 ], [ 141.878722227, 43.430152071 ], [ 141.88179777799999, 43.429659167 ], [ 141.881724778, 43.429407139 ], [ 141.881704176999989, 43.429335987 ], [ 141.881678806, 43.429248361 ], [ 141.881597527999986, 43.428967694 ], [ 141.881580992000011, 43.428911692 ], [ 141.88151527, 43.428689116 ], [ 141.881389523, 43.428263251 ], [ 141.881314863, 43.428010396 ], [ 141.88129819400001, 43.427953944 ], [ 141.88128269399999, 43.427867167 ], [ 141.881237085, 43.427710204 ], [ 141.881175028, 43.427496639 ], [ 141.88113898200001, 43.427372629 ], [ 141.881118, 43.427300444 ], [ 141.881048443999987, 43.427061083 ], [ 141.8810305, 43.42699979 ], [ 141.880929444, 43.426654611 ], [ 141.880903385000011, 43.426565594 ], [ 141.88080716799999, 43.426236923 ], [ 141.880805361, 43.42623075 ], [ 141.880744924999988, 43.426018776 ], [ 141.880613415, 43.425557511 ], [ 141.880547861, 43.425327583 ], [ 141.88051894899999, 43.425233136 ], [ 141.88044966699999, 43.425006808 ], [ 141.880447583, 43.425 ], [ 141.88035655600001, 43.424702583 ], [ 141.88032933299999, 43.424607944 ], [ 141.880320976, 43.424578166 ], [ 141.880221830000011, 43.424224872 ], [ 141.88017944399999, 43.424073833 ], [ 141.88015197199999, 43.423980806 ], [ 141.880133008, 43.423916553 ], [ 141.880083500000012, 43.423748806 ], [ 141.88004105600001, 43.423605043 ], [ 141.879972672, 43.423373418 ], [ 141.87802933, 43.42367607 ], [ 141.877959479999987, 43.42378173 ], [ 141.87783337, 43.42399934 ], [ 141.876850939, 43.424711158 ] ] ] } },
{ "type": "Feature", "properties": { "A29_001": "01424", "A29_002": "北海道", "A29_003": "奈井江町", "A29_004": 12, "A29_005": "工業専用地域", "A29_006": 60, "A29_007": 200, "A29_008": null }, "geometry": { "type": "Polygon", "coordinates": [ [ [ 141.896368556, 43.430795583 ], [ 141.896654305999988, 43.430750333 ], [ 141.89668525, 43.430748583 ], [ 141.899749111, 43.430279889 ], [ 141.903293972, 43.429718806 ], [ 141.90274931, 43.42788455 ], [ 141.902323450000011, 43.42644054 ], [ 141.89573583, 43.42747203 ], [ 141.890182829999986, 43.42833827 ], [ 141.890449518, 43.42922208 ], [ 141.891189207999986, 43.431599748 ], [ 141.892038111, 43.431466611 ], [ 141.89283655599999, 43.431341389 ], [ 141.89470166699999, 43.431048889 ], [ 141.895692222, 43.430898361 ], [ 141.896368556, 43.430795583 ] ] ] } },
{ "type": "Feature", "properties": { "A29_001": "01424", "A29_002": "北海道", "A29_003": "奈井江町", "A29_004": 3, "A29_005": "第一種中高層住居専用地域", "A29_006": 60, "A29_007": 150, "A29_008": null }, "geometry": { "type": "Polygon", "coordinates": [ [ [ 141.88823872899999, 43.429211675 ], [ 141.887649290000013, 43.42724937 ], [ 141.88518381899999, 43.427639829 ], [ 141.88647411, 43.43204817 ], [ 141.88896207, 43.431655405 ], [ 141.888317502, 43.429473699 ], [ 141.88823872899999, 43.429211675 ] ] ] } },
{ "type": "Feature", "properties": { "A29_001": "01424", "A29_002": "北海道", "A29_003": "奈井江町", "A29_004": 1, "A29_005": "第一種低層住居専用地域", "A29_006": 40, "A29_007": 60, "A29_008": null }, "geometry": { "type": "Polygon", "coordinates": [ [ [ 141.88480632299999, 43.432589904 ], [ 141.88548216699999, 43.432481444 ], [ 141.885731861000011, 43.432441389 ], [ 141.885833831000014, 43.432425024 ], [ 141.885015793, 43.429605382 ], [ 141.884720417000011, 43.429651361 ], [ 141.884221139, 43.429729083 ], [ 141.883716556, 43.429807639 ], [ 141.883333333, 43.429867722 ], [ 141.883201278, 43.429888444 ], [ 141.88313975, 43.429898111 ], [ 141.88270697199999, 43.429965972 ], [ 141.882365889, 43.43002025 ], [ 141.882106806, 43.430061472 ], [ 141.881922777999989, 43.43009075 ], [ 141.882169167, 43.430898889 ], [ 141.882347638999988, 43.431496556 ], [ 141.882767083, 43.432917139 ], [ 141.884254989, 43.432674914 ], [ 141.884533978, 43.432631897 ], [ 141.88480632299999, 43.432589904 ] ] ] } },
{ "type": "Feature", "properties": { "A29_001": "01424", "A29_002": "北海道", "A29_003": "奈井江町", "A29_004": 5, "A29_005": "第一種住居地域", "A29_006": 60, "A29_007": 200, "A29_008": null }, "geometry": { "type": "Polygon", "coordinates": [ [ [ 141.888925306, 43.429479361 ], [ 141.888895944000012, 43.429381528 ], [ 141.888317502, 43.429473699 ], [ 141.88896207, 43.431655405 ], [ 141.88912001, 43.43219715 ], [ 141.88950843399999, 43.433634706 ], [ 141.890143953, 43.433537177 ], [ 141.888925306, 43.429479361 ] ] ] } },
{ "type": "Feature", "properties": { "A29_001": "01424", "A29_002": "北海道", "A29_003": "奈井江町", "A29_004": 3, "A29_005": "第一種中高層住居専用地域", "A29_006": 60, "A29_007": 150, "A29_008": null }, "geometry": { "type": "Polygon", "coordinates": [ [ [ 141.88950843399999, 43.433634706 ], [ 141.88912001, 43.43219715 ], [ 141.887613778, 43.432440389 ], [ 141.886235397, 43.432639409 ], [ 141.886422444, 43.433276722 ], [ 141.88643866699999, 43.433333333 ], [ 141.88662350199999, 43.433978471 ], [ 141.88665943, 43.434101588 ], [ 141.88950843399999, 43.433634706 ] ] ] } },
{ "type": "Feature", "properties": { "A29_001": "01424", "A29_002": "北海道", "A29_003": "奈井江町", "A29_004": 10, "A29_005": "準工業地域", "A29_006": 60, "A29_007": 200, "A29_008": null }, "geometry": { "type": "Polygon", "coordinates": [ [ [ 141.891094111, 43.436815472 ], [ 141.890143953, 43.433537177 ], [ 141.88950843399999, 43.433634706 ], [ 141.88665943, 43.434101588 ], [ 141.887628108, 43.437359887 ], [ 141.889427481000013, 43.437070299 ], [ 141.891094111, 43.436815472 ] ] ] } },
{ "type": "Feature", "properties": { "A29_001": "01424", "A29_002": "北海道", "A29_003": "奈井江町", "A29_004": 10, "A29_005": "準工業地域", "A29_006": 60, "A29_007": 200, "A29_008": null }, "geometry": { "type": "Polygon", "coordinates": [ [ [ 141.891189207999986, 43.431599748 ], [ 141.890449518, 43.42922208 ], [ 141.889463505, 43.42938799 ], [ 141.888925306, 43.429479361 ], [ 141.890143953, 43.433537177 ], [ 141.891691365000014, 43.433306493 ], [ 141.891189207999986, 43.431599748 ] ] ] } },
{ "type": "Feature", "properties": { "A29_001": "01424", "A29_002": "北海道", "A29_003": "奈井江町", "A29_004": 4, "A29_005": "第二種中高層住居専用地域", "A29_006": 60, "A29_007": 200, "A29_008": null }, "geometry": { "type": "Polygon", "coordinates": [ [ [ 141.87879680099999, 43.418217744 ], [ 141.8815114, 43.41781621 ], [ 141.881700059999986, 43.41842732 ], [ 141.882279173, 43.420557329 ], [ 141.882973386, 43.420201027 ], [ 141.882188133, 43.41771296 ], [ 141.884961435, 43.41727602 ], [ 141.88488388499999, 43.417010358 ], [ 141.884568527999988, 43.41705925 ], [ 141.88455869, 43.417029375 ], [ 141.884483249999988, 43.416800283 ], [ 141.884477253999989, 43.416782076 ], [ 141.88444362199999, 43.41678708 ], [ 141.884443559, 43.416786862 ], [ 141.878710180000013, 43.41768582 ], [ 141.87739878, 43.41324305 ], [ 141.880612148000012, 43.412776663 ], [ 141.883095379999986, 43.4123473 ], [ 141.883086176, 43.412116362 ], [ 141.881307443999987, 43.412396194 ], [ 141.88122719, 43.412142917 ], [ 141.880107912999989, 43.412315246 ], [ 141.87926603299999, 43.412444863 ], [ 141.87832814699999, 43.412589271 ], [ 141.877203146999989, 43.4127625 ], [ 141.87719461899999, 43.412735627 ], [ 141.877193260000013, 43.41273584 ], [ 141.876811800000013, 43.41143353 ], [ 141.87643648, 43.41149373 ], [ 141.87688193, 43.41301753 ], [ 141.87659045, 43.41306394 ], [ 141.87667733, 43.41337688 ], [ 141.87792294, 43.417795529 ], [ 141.87808349, 43.418363545 ], [ 141.87848397, 43.419731828 ], [ 141.87890652499999, 43.421096612 ], [ 141.8791055, 43.421725944 ], [ 141.87983119399999, 43.42153225 ], [ 141.87924326800001, 43.419675401 ], [ 141.87879680099999, 43.418217744 ] ] ] } },
{ "type": "Feature", "properties": { "A29_001": "01424", "A29_002": "北海道", "A29_003": "奈井江町", "A29_004": 4, "A29_005": "第二種中高層住居専用地域", "A29_006": 60, "A29_007": 200, "A29_008": null }, "geometry": { "type": "Polygon", "coordinates": [ [ [ 141.88912001, 43.43219715 ], [ 141.88896207, 43.431655405 ], [ 141.88647411, 43.43204817 ], [ 141.88518381899999, 43.427639829 ], [ 141.884835552, 43.427688574 ], [ 141.884795749, 43.427694107 ], [ 141.884772214, 43.427613754 ], [ 141.884735509, 43.427488435 ], [ 141.884705266999987, 43.427385492 ], [ 141.884662287, 43.427240034 ], [ 141.884617275000011, 43.427087699 ], [ 141.884578721999986, 43.426957222 ], [ 141.88455364399999, 43.42687233 ], [ 141.884520368000011, 43.426759688 ], [ 141.884490677, 43.426659179 ], [ 141.884455972000012, 43.426541641 ], [ 141.88445358300001, 43.426533611 ], [ 141.883333333, 43.426709583 ], [ 141.88286136100001, 43.426783717 ], [ 141.882838536, 43.426787302 ], [ 141.882827722, 43.426789 ], [ 141.882806958, 43.426717675 ], [ 141.882768664999986, 43.426586142 ], [ 141.88272862299999, 43.426448596 ], [ 141.88269809900001, 43.426343749 ], [ 141.882663398, 43.426224573 ], [ 141.882635881, 43.426130064 ], [ 141.88260400499999, 43.426020587 ], [ 141.88258989900001, 43.425972141 ], [ 141.88253286299999, 43.425778031 ], [ 141.882499927999987, 43.42566606 ], [ 141.882479163, 43.425595464 ], [ 141.882450484, 43.425497961 ], [ 141.88242919699999, 43.425425588 ], [ 141.88239712, 43.425316531 ], [ 141.882360511, 43.425192065 ], [ 141.88233998699999, 43.425122288 ], [ 141.88232245399999, 43.425062676 ], [ 141.882297669, 43.424979962 ], [ 141.88227978, 43.424920469 ], [ 141.882257775, 43.424847287 ], [ 141.882235659, 43.424773732 ], [ 141.882267227999989, 43.424769383 ], [ 141.883863018, 43.424520604 ], [ 141.88378622799999, 43.42426851 ], [ 141.883727443999987, 43.424075528 ], [ 141.883692137, 43.423951187 ], [ 141.883577583, 43.42354775 ], [ 141.883375118, 43.422841948 ], [ 141.88326541699999, 43.4224595 ], [ 141.883266346, 43.422459354 ], [ 141.883246164000013, 43.422393372 ], [ 141.88313822, 43.42204045 ], [ 141.879136530000011, 43.42266835 ], [ 141.878713823, 43.422735737 ], [ 141.87843748099999, 43.423050485 ], [ 141.87802933, 43.42367607 ], [ 141.879972672, 43.423373418 ], [ 141.88004105600001, 43.423605043 ], [ 141.880083500000012, 43.423748806 ], [ 141.880133008, 43.423916553 ], [ 141.88015197199999, 43.423980806 ], [ 141.88017944399999, 43.424073833 ], [ 141.880221830000011, 43.424224872 ], [ 141.880320976, 43.424578166 ], [ 141.88032933299999, 43.424607944 ], [ 141.88035655600001, 43.424702583 ], [ 141.880447583, 43.425 ], [ 141.88044966699999, 43.425006808 ], [ 141.88051894899999, 43.425233136 ], [ 141.880547861, 43.425327583 ], [ 141.880613415, 43.425557511 ], [ 141.880744924999988, 43.426018776 ], [ 141.880805361, 43.42623075 ], [ 141.88080716799999, 43.426236923 ], [ 141.880903385000011, 43.426565594 ], [ 141.880929444, 43.426654611 ], [ 141.8810305, 43.42699979 ], [ 141.881048443999987, 43.427061083 ], [ 141.881118, 43.427300444 ], [ 141.88113898200001, 43.427372629 ], [ 141.881175028, 43.427496639 ], [ 141.881237085, 43.427710204 ], [ 141.88128269399999, 43.427867167 ], [ 141.88129819400001, 43.427953944 ], [ 141.881314863, 43.428010396 ], [ 141.881389523, 43.428263251 ], [ 141.88151527, 43.428689116 ], [ 141.881580992000011, 43.428911692 ], [ 141.881597527999986, 43.428967694 ], [ 141.881678806, 43.429248361 ], [ 141.881704176999989, 43.429335987 ], [ 141.881724778, 43.429407139 ], [ 141.88179777799999, 43.429659167 ], [ 141.881922777999989, 43.43009075 ], [ 141.882106806, 43.430061472 ], [ 141.882365889, 43.43002025 ], [ 141.88270697199999, 43.429965972 ], [ 141.88313975, 43.429898111 ], [ 141.883201278, 43.429888444 ], [ 141.883333333, 43.429867722 ], [ 141.883716556, 43.429807639 ], [ 141.884221139, 43.429729083 ], [ 141.884720417000011, 43.429651361 ], [ 141.885015793, 43.429605382 ], [ 141.885833831000014, 43.432425024 ], [ 141.886127184, 43.432377946 ], [ 141.88616475, 43.432371917 ], [ 141.886191889, 43.432491167 ], [ 141.886235397, 43.432639409 ], [ 141.887613778, 43.432440389 ], [ 141.88912001, 43.43219715 ] ] ] } }
]
}
