{
"type": "FeatureCollection",
"name": "A29-19_01668",
"features": [
{ "type": "Feature", "properties": { "A29_001": "01668", "A29_002": "北海道", "A29_003": "白糠町", "A29_004": 5, "A29_005": "第一種住居地域", "A29_006": 60, "A29_007": 200, "A29_008": null }, "geometry": { "type": "Polygon", "coordinates": [ [ [ 144.070689189, 42.951790952 ], [ 144.07070189, 42.951789031 ], [ 144.070699170000012, 42.951908985 ], [ 144.070696889, 42.952009583 ], [ 144.07069753499999, 42.952043189 ], [ 144.070702681, 42.95219309 ], [ 144.070707825, 42.952288135 ], [ 144.070712702, 42.952378242 ], [ 144.070728874999986, 42.952677077 ], [ 144.070731450000011, 42.952724648 ], [ 144.07073337599999, 42.952782007 ], [ 144.070745949000013, 42.953156312 ], [ 144.070752309, 42.953345643 ], [ 144.070753380000014, 42.953377515 ], [ 144.070754851, 42.953421314 ], [ 144.070760087, 42.953584055 ], [ 144.070761298, 42.953621672 ], [ 144.070765233, 42.953743972 ], [ 144.070765598, 42.953754749 ], [ 144.07262572799999, 42.953728797 ], [ 144.072578139, 42.953947687 ], [ 144.073639535000012, 42.954057309 ], [ 144.073579782, 42.954246936 ], [ 144.07482571, 42.95438518 ], [ 144.07533773, 42.95434758 ], [ 144.07807541, 42.95416508 ], [ 144.08020077899999, 42.954028236 ], [ 144.080206019, 42.953978752 ], [ 144.080175630000014, 42.953892471 ], [ 144.080141071000014, 42.953837679 ], [ 144.080046360000011, 42.95379231 ], [ 144.07991657, 42.95376167 ], [ 144.079387164, 42.953622366 ], [ 144.078645666999989, 42.953441333 ], [ 144.07840773, 42.95343466 ], [ 144.07805227, 42.95342959 ], [ 144.07648473, 42.95272537 ], [ 144.0744589, 42.95167952 ], [ 144.07424996200001, 42.951565658 ], [ 144.073866358, 42.951305987 ], [ 144.072748085, 42.951112292 ], [ 144.071589679999988, 42.951384947 ], [ 144.071548522, 42.951497365 ], [ 144.07069465699999, 42.951707583 ], [ 144.070688963, 42.951782251 ], [ 144.070689189, 42.951790952 ] ] ] } },
{ "type": "Feature", "properties": { "A29_001": "01668", "A29_002": "北海道", "A29_003": "白糠町", "A29_004": 10, "A29_005": "準工業地域", "A29_006": 60, "A29_007": 200, "A29_008": null }, "geometry": { "type": "Polygon", "coordinates": [ [ [ 144.083991669999989, 42.954148913 ], [ 144.08371455599999, 42.953865797 ], [ 144.082031879999988, 42.95371922 ], [ 144.08182926, 42.95370148 ], [ 144.081240567, 42.953644712 ], [ 144.08078141199999, 42.953558548 ], [ 144.080373189999989, 42.95348366 ], [ 144.0798017, 42.95331476 ], [ 144.078796250000011, 42.95298457 ], [ 144.077719, 42.95254755 ], [ 144.076726392000012, 42.952151713 ], [ 144.07521718000001, 42.95153607 ], [ 144.073866358, 42.951305987 ], [ 144.07424996200001, 42.951565658 ], [ 144.0744589, 42.95167952 ], [ 144.07648473, 42.95272537 ], [ 144.07805227, 42.95342959 ], [ 144.07840773, 42.95343466 ], [ 144.078645666999989, 42.953441333 ], [ 144.079387164, 42.953622366 ], [ 144.07991657, 42.95376167 ], [ 144.080046360000011, 42.95379231 ], [ 144.080141071000014, 42.953837679 ], [ 144.080175630000014, 42.953892471 ], [ 144.080206019, 42.953978752 ], [ 144.081111486, 42.953996589 ], [ 144.081121728999989, 42.954354456 ], [ 144.08213064, 42.95435469 ], [ 144.082632170000011, 42.95434946 ], [ 144.08295037, 42.95433735 ], [ 144.083493299999986, 42.95424874 ], [ 144.083991669999989, 42.954148913 ] ] ] } },
{ "type": "Feature", "properties": { "A29_001": "01668", "A29_002": "北海道", "A29_003": "白糠町", "A29_004": 7, "A29_005": "準住居地域", "A29_006": 60, "A29_007": 200, "A29_008": null }, "geometry": { "type": "Polygon", "coordinates": [ [ [ 144.07349004, 42.954570744 ], [ 144.073579782, 42.954246936 ], [ 144.073639535000012, 42.954057309 ], [ 144.072578139, 42.953947687 ], [ 144.07262572799999, 42.953728797 ], [ 144.070765598, 42.953754749 ], [ 144.070775891000011, 42.954058588 ], [ 144.070780926, 42.954207228 ], [ 144.070785322, 42.954336997 ], [ 144.070785556, 42.954343889 ], [ 144.070785957, 42.954343876 ], [ 144.070969166999987, 42.954338056 ], [ 144.071133777999989, 42.954339269 ], [ 144.07113750100001, 42.954339296 ], [ 144.07122666699999, 42.954337222 ], [ 144.071443611, 42.954349444 ], [ 144.071519181000014, 42.954358238 ], [ 144.071791807000011, 42.954389961 ], [ 144.071811795, 42.95439172 ], [ 144.07217719, 42.95442387 ], [ 144.07349004, 42.954570744 ] ] ] } },
{ "type": "Feature", "properties": { "A29_001": "01668", "A29_002": "北海道", "A29_003": "白糠町", "A29_004": 8, "A29_005": "近隣商業地域", "A29_006": 80, "A29_007": 200, "A29_008": null }, "geometry": { "type": "Polygon", "coordinates": [ [ [ 144.08022843399999, 42.954357859 ], [ 144.081121728999989, 42.954354456 ], [ 144.081111486, 42.953996589 ], [ 144.080206019, 42.953978752 ], [ 144.08020077899999, 42.954028236 ], [ 144.07807541, 42.95416508 ], [ 144.07533773, 42.95434758 ], [ 144.07482571, 42.95438518 ], [ 144.073579782, 42.954246936 ], [ 144.07349004, 42.954570744 ], [ 144.07455581, 42.954679 ], [ 144.074762600000014, 42.95470514 ], [ 144.075, 42.954708667 ], [ 144.07525275099999, 42.954690726 ], [ 144.07673718800001, 42.954594559 ], [ 144.08022843399999, 42.954357859 ] ] ] } },
{ "type": "Feature", "properties": { "A29_001": "01668", "A29_002": "北海道", "A29_003": "白糠町", "A29_004": 3, "A29_005": "第一種中高層住居専用地域", "A29_006": 60, "A29_007": 150, "A29_008": null }, "geometry": { "type": "Polygon", "coordinates": [ [ [ 144.068134226000012, 42.955300937 ], [ 144.06829859699999, 42.955249671 ], [ 144.068470198999989, 42.95518922 ], [ 144.068519637, 42.955169991 ], [ 144.068544349, 42.955160378 ], [ 144.06883103199999, 42.955048869 ], [ 144.068911378, 42.955009754 ], [ 144.06899975799999, 42.954966726 ], [ 144.06916807499999, 42.954884782 ], [ 144.06936215799999, 42.954792501 ], [ 144.069363059000011, 42.954792073 ], [ 144.069646618, 42.954657248 ], [ 144.069815758, 42.954576826 ], [ 144.06991857, 42.954527941 ], [ 144.069996972000013, 42.954497333 ], [ 144.070259986, 42.954429742 ], [ 144.07028865, 42.95442099 ], [ 144.070430750000014, 42.95438789 ], [ 144.07044157499999, 42.95438681 ], [ 144.070520832999989, 42.954368333 ], [ 144.07075247, 42.954346944 ], [ 144.070785556, 42.954343889 ], [ 144.070785322, 42.954336997 ], [ 144.070780926, 42.954207228 ], [ 144.070775891000011, 42.954058588 ], [ 144.070765598, 42.953754749 ], [ 144.070765233, 42.953743972 ], [ 144.070761298, 42.953621672 ], [ 144.070760087, 42.953584055 ], [ 144.070754851, 42.953421314 ], [ 144.070753380000014, 42.953377515 ], [ 144.070752309, 42.953345643 ], [ 144.070745949000013, 42.953156312 ], [ 144.07073337599999, 42.952782007 ], [ 144.070731450000011, 42.952724648 ], [ 144.070728874999986, 42.952677077 ], [ 144.070712702, 42.952378242 ], [ 144.070707825, 42.952288135 ], [ 144.070702681, 42.95219309 ], [ 144.07069753499999, 42.952043189 ], [ 144.070696889, 42.952009583 ], [ 144.070699170000012, 42.951908985 ], [ 144.07070189, 42.951789031 ], [ 144.070689189, 42.951790952 ], [ 144.070688963, 42.951782251 ], [ 144.069805178, 42.952115531 ], [ 144.06933503499999, 42.952305259 ], [ 144.068987478999986, 42.952465184 ], [ 144.06861116499999, 42.952683552 ], [ 144.06837905, 42.95282117 ], [ 144.06816873, 42.95299836 ], [ 144.067988912, 42.953217976 ], [ 144.06788852299999, 42.953334797 ], [ 144.06774092, 42.95349724 ], [ 144.06763919, 42.95366989 ], [ 144.067500733, 42.953979073 ], [ 144.0674177, 42.95418091 ], [ 144.06731709799999, 42.954628173 ], [ 144.067279512, 42.954910066 ], [ 144.067256307, 42.955161988 ], [ 144.06724025299999, 42.955297085 ], [ 144.06723337299999, 42.955322425 ], [ 144.067236226, 42.955445638 ], [ 144.067799705, 42.955370927 ], [ 144.068124468, 42.955303226 ], [ 144.068134226000012, 42.955300937 ] ] ] } },
{ "type": "Feature", "properties": { "A29_001": "01668", "A29_002": "北海道", "A29_003": "白糠町", "A29_004": 10, "A29_005": "準工業地域", "A29_006": 60, "A29_007": 200, "A29_008": null }, "geometry": { "type": "Polygon", "coordinates": [ [ [ 144.06724594799999, 42.955902849 ], [ 144.06777955699999, 42.955839585 ], [ 144.06812992, 42.955774153 ], [ 144.06841396199999, 42.955695867 ], [ 144.068734785, 42.95560714 ], [ 144.069472827999988, 42.955281361 ], [ 144.069804025, 42.955134907 ], [ 144.07000839, 42.95502606 ], [ 144.07030495, 42.954898733 ], [ 144.070550520000012, 42.95483932 ], [ 144.07075031, 42.954811696 ], [ 144.070948030000011, 42.95479513 ], [ 144.07126112, 42.95479997 ], [ 144.07189673, 42.95487119 ], [ 144.072781469, 42.954953586 ], [ 144.07342081199999, 42.955046745 ], [ 144.07341283299999, 42.954794838 ], [ 144.073429339, 42.954734873 ], [ 144.07349004, 42.954570744 ], [ 144.07217719, 42.95442387 ], [ 144.071791807000011, 42.954389961 ], [ 144.071519181000014, 42.954358238 ], [ 144.071443611, 42.954349444 ], [ 144.07122666699999, 42.954337222 ], [ 144.07113750100001, 42.954339296 ], [ 144.071133777999989, 42.954339269 ], [ 144.070969166999987, 42.954338056 ], [ 144.070785957, 42.954343876 ], [ 144.070785556, 42.954343889 ], [ 144.07075247, 42.954346944 ], [ 144.070520832999989, 42.954368333 ], [ 144.07044157499999, 42.95438681 ], [ 144.070430750000014, 42.95438789 ], [ 144.07028865, 42.95442099 ], [ 144.070259986, 42.954429742 ], [ 144.069996972000013, 42.954497333 ], [ 144.06991857, 42.954527941 ], [ 144.069815758, 42.954576826 ], [ 144.069646618, 42.954657248 ], [ 144.069363059000011, 42.954792073 ], [ 144.06936215799999, 42.954792501 ], [ 144.06916807499999, 42.954884782 ], [ 144.06899975799999, 42.954966726 ], [ 144.068911378, 42.955009754 ], [ 144.06883103199999, 42.955048869 ], [ 144.068544349, 42.955160378 ], [ 144.068519637, 42.955169991 ], [ 144.068470198999989, 42.95518922 ], [ 144.06829859699999, 42.955249671 ], [ 144.068134226000012, 42.955300937 ], [ 144.068124468, 42.955303226 ], [ 144.067799705, 42.955370927 ], [ 144.067236226, 42.955445638 ], [ 144.067169038, 42.955881639 ], [ 144.06724135799999, 42.955876289 ], [ 144.06724594799999, 42.955902849 ] ] ] } },
{ "type": "Feature", "properties": { "A29_001": "01668", "A29_002": "北海道", "A29_003": "白糠町", "A29_004": 10, "A29_005": "準工業地域", "A29_006": 60, "A29_007": 200, "A29_008": null }, "geometry": { "type": "Polygon", "coordinates": [ [ [ 144.08896, 42.95334001 ], [ 144.089201565, 42.953325074 ], [ 144.089753613, 42.953339276 ], [ 144.090009428, 42.9533798 ], [ 144.09030891, 42.953438207 ], [ 144.090631389, 42.953540493 ], [ 144.090917760999986, 42.953681204 ], [ 144.092299911999987, 42.954614418 ], [ 144.093097023000013, 42.95530847 ], [ 144.09328958, 42.955225371 ], [ 144.093346279, 42.955192207 ], [ 144.093434527999989, 42.955210078 ], [ 144.09371002899999, 42.955468734 ], [ 144.09458665599999, 42.955262034 ], [ 144.094615995, 42.955243997 ], [ 144.094735052, 42.955170804 ], [ 144.094738788, 42.955100721 ], [ 144.094703732999989, 42.95502599 ], [ 144.094289366, 42.954815172 ], [ 144.093541291, 42.954484591 ], [ 144.092601792000011, 42.95400862 ], [ 144.091663774000011, 42.95352366 ], [ 144.090971316, 42.953142075 ], [ 144.090619882, 42.953030343 ], [ 144.09005566799999, 42.952918317 ], [ 144.089097122, 42.952879153 ], [ 144.088964572, 42.952817477 ], [ 144.088953061000012, 42.952534007 ], [ 144.088771, 42.95253401 ], [ 144.088012, 42.95254401 ], [ 144.086788748, 42.952575935 ], [ 144.086810297999989, 42.952147036 ], [ 144.086546921, 42.95214666 ], [ 144.086543225000014, 42.952772052 ], [ 144.08566723199999, 42.952809791 ], [ 144.084858598000011, 42.95285362 ], [ 144.084799035, 42.953748887 ], [ 144.084288377, 42.953832135 ], [ 144.084100118, 42.953987836 ], [ 144.08417736199999, 42.954115427 ], [ 144.08405070500001, 42.954140739 ], [ 144.084105325, 42.954824872 ], [ 144.08435, 42.95472001 ], [ 144.08487, 42.95449001 ], [ 144.08560001, 42.95418001 ], [ 144.085980009999986, 42.95405001 ], [ 144.086430009999987, 42.95392001 ], [ 144.08692, 42.95381001 ], [ 144.08808, 42.95352001 ], [ 144.088491323, 42.953434708 ], [ 144.08876504700001, 42.953384103 ], [ 144.08896, 42.95334001 ] ] ] } },
{ "type": "Feature", "properties": { "A29_001": "01668", "A29_002": "北海道", "A29_003": "白糠町", "A29_004": 6, "A29_005": "第二種住居地域", "A29_006": 60, "A29_007": 200, "A29_008": null }, "geometry": { "type": "Polygon", "coordinates": [ [ [ 144.080243892999988, 42.955412465 ], [ 144.080245701, 42.955478961 ], [ 144.080250729, 42.95566384 ], [ 144.08025418299999, 42.955790861 ], [ 144.080256436000013, 42.955893831 ], [ 144.081006538, 42.955777354 ], [ 144.08101422499999, 42.955777026 ], [ 144.081037565, 42.955772536 ], [ 144.081377903, 42.955690577 ], [ 144.081958250000014, 42.955515959 ], [ 144.08248951499999, 42.955369762 ], [ 144.08328, 42.95513001 ], [ 144.08372, 42.95497001 ], [ 144.084, 42.95487001 ], [ 144.084105325, 42.954824872 ], [ 144.08405070500001, 42.954140739 ], [ 144.083991669999989, 42.954148913 ], [ 144.083493299999986, 42.95424874 ], [ 144.08295037, 42.95433735 ], [ 144.082632170000011, 42.95434946 ], [ 144.08213064, 42.95435469 ], [ 144.081121728999989, 42.954354456 ], [ 144.08022843399999, 42.954357859 ], [ 144.080224085, 42.954686085 ], [ 144.080223617, 42.954721422 ], [ 144.080227275999988, 42.954852242 ], [ 144.08023080800001, 42.954978506 ], [ 144.08023084300001, 42.954979741 ], [ 144.080234477, 42.955100262 ], [ 144.080238329999986, 42.955228022 ], [ 144.080243352, 42.955394522 ], [ 144.080243892999988, 42.955412465 ] ] ] } },
{ "type": "Feature", "properties": { "A29_001": "01668", "A29_002": "北海道", "A29_003": "白糠町", "A29_004": 9, "A29_005": "商業地域", "A29_006": 80, "A29_007": 400, "A29_008": null }, "geometry": { "type": "Polygon", "coordinates": [ [ [ 144.080223617, 42.954721422 ], [ 144.08022843399999, 42.954357859 ], [ 144.07673718800001, 42.954594559 ], [ 144.07525275099999, 42.954690726 ], [ 144.075, 42.954708667 ], [ 144.074762600000014, 42.95470514 ], [ 144.07455581, 42.954679 ], [ 144.07349004, 42.954570744 ], [ 144.073429339, 42.954734873 ], [ 144.07341283299999, 42.954794838 ], [ 144.07342081199999, 42.955046745 ], [ 144.073496025, 42.956048759 ], [ 144.07511115, 42.95584576 ], [ 144.07583412, 42.95578094 ], [ 144.07815865, 42.95555876 ], [ 144.079598120000014, 42.95546846 ], [ 144.08001480499999, 42.955429568 ], [ 144.08021469799999, 42.955414645 ], [ 144.080243892999988, 42.955412465 ], [ 144.080238329999986, 42.955228022 ], [ 144.080234477, 42.955100262 ], [ 144.08023084300001, 42.954979741 ], [ 144.08023080800001, 42.954978506 ], [ 144.080227275999988, 42.954852242 ], [ 144.080223617, 42.954721422 ] ] ] } },
{ "type": "Feature", "properties": { "A29_001": "01668", "A29_002": "北海道", "A29_003": "白糠町", "A29_004": 10, "A29_005": "準工業地域", "A29_006": 60, "A29_007": 200, "A29_008": null }, "geometry": { "type": "Polygon", "coordinates": [ [ [ 144.073555227000014, 42.957087266 ], [ 144.073672547, 42.957062992 ], [ 144.073709156, 42.95706159 ], [ 144.073717958, 42.957061253 ], [ 144.073799818, 42.957058117 ], [ 144.073898285000013, 42.957054346 ], [ 144.073992675999989, 42.95705073 ], [ 144.07414163199999, 42.9570432 ], [ 144.07420315499999, 42.957040089 ], [ 144.074348316999988, 42.95703275 ], [ 144.07443443599999, 42.957027678 ], [ 144.074520444, 42.957022611 ], [ 144.07457808800001, 42.957019536 ], [ 144.074806888000012, 42.957007331 ], [ 144.075, 42.956997028 ], [ 144.07506913200001, 42.956993272 ], [ 144.07516047199999, 42.956988309 ], [ 144.075522553000013, 42.956968635 ], [ 144.075569532, 42.956966082 ], [ 144.075618115, 42.956963442 ], [ 144.075771656, 42.956950433 ], [ 144.075976829000012, 42.956933048 ], [ 144.076100333, 42.956922583 ], [ 144.076105750000011, 42.956922141 ], [ 144.07620132299999, 42.956914336 ], [ 144.076390538, 42.956898884 ], [ 144.07642816, 42.956895812 ], [ 144.076514443, 42.956888766 ], [ 144.076588636, 42.956882707 ], [ 144.076839895, 42.956862187 ], [ 144.076912107999988, 42.95685629 ], [ 144.076993375, 42.956849653 ], [ 144.07702732300001, 42.95684688 ], [ 144.077087913000014, 42.956841426 ], [ 144.077239749, 42.956827758 ], [ 144.07736628399999, 42.956816505 ], [ 144.077477800999986, 42.956806587 ], [ 144.07748543, 42.956805909 ], [ 144.077599357999986, 42.956797743 ], [ 144.077676579000013, 42.956790197 ], [ 144.07783862, 42.956774363 ], [ 144.077926717999986, 42.956768237 ], [ 144.07802284600001, 42.956761552 ], [ 144.07807647300001, 42.956758183 ], [ 144.078254304000012, 42.956747011 ], [ 144.07829352499999, 42.956744547 ], [ 144.0784684, 42.956729159 ], [ 144.07881739699999, 42.956698447 ], [ 144.078835626999989, 42.956696842 ], [ 144.079117758, 42.956672014 ], [ 144.0792911, 42.956656759 ], [ 144.07943239, 42.956644324 ], [ 144.079564065, 42.956632736 ], [ 144.079625061, 42.956627368 ], [ 144.079817179, 42.956610456 ], [ 144.079818288000013, 42.95661035 ], [ 144.079876237, 42.956604636 ], [ 144.079912696, 42.956601041 ], [ 144.080012853, 42.956591165 ], [ 144.080251102, 42.956567672 ], [ 144.08025987900001, 42.956566806 ], [ 144.08026829, 42.956565977 ], [ 144.080265688, 42.956402774 ], [ 144.080264554, 42.956331609 ], [ 144.080261825, 42.95616041 ], [ 144.08026063299999, 42.956085596 ], [ 144.08025904199999, 42.956012887 ], [ 144.080256436000013, 42.955893831 ], [ 144.08025418299999, 42.955790861 ], [ 144.080250729, 42.95566384 ], [ 144.080245701, 42.955478961 ], [ 144.080243892999988, 42.955412465 ], [ 144.08021469799999, 42.955414645 ], [ 144.08001480499999, 42.955429568 ], [ 144.079598120000014, 42.95546846 ], [ 144.07815865, 42.95555876 ], [ 144.07583412, 42.95578094 ], [ 144.07511115, 42.95584576 ], [ 144.073496025, 42.956048759 ], [ 144.073541146999986, 42.957049913 ], [ 144.073553807, 42.957087343 ], [ 144.073555227000014, 42.957087266 ] ] ] } },
{ "type": "Feature", "properties": { "A29_001": "01668", "A29_002": "北海道", "A29_003": "白糠町", "A29_004": 6, "A29_005": "第二種住居地域", "A29_006": 60, "A29_007": 200, "A29_008": null }, "geometry": { "type": "Polygon", "coordinates": [ [ [ 144.075650876999987, 42.957183821 ], [ 144.075618115, 42.956963442 ], [ 144.07559281499999, 42.956964817 ], [ 144.075569532, 42.956966082 ], [ 144.075522553000013, 42.956968635 ], [ 144.07516047199999, 42.956988309 ], [ 144.07506913200001, 42.956993272 ], [ 144.075, 42.956997028 ], [ 144.074806888000012, 42.957007331 ], [ 144.07457808800001, 42.957019536 ], [ 144.074520444, 42.957022611 ], [ 144.07443443599999, 42.957027678 ], [ 144.074348316999988, 42.95703275 ], [ 144.07420315499999, 42.957040089 ], [ 144.07414163199999, 42.9570432 ], [ 144.073992675999989, 42.95705073 ], [ 144.073898285000013, 42.957054346 ], [ 144.073799818, 42.957058117 ], [ 144.073717958, 42.957061253 ], [ 144.073709156, 42.95706159 ], [ 144.073672547, 42.957062992 ], [ 144.073555227000014, 42.957087266 ], [ 144.073553807, 42.957087343 ], [ 144.073533378, 42.957096155 ], [ 144.073538014, 42.95716902 ], [ 144.07354150099999, 42.957216525 ], [ 144.073543865, 42.957248727 ], [ 144.073552561000014, 42.957367199 ], [ 144.073553591, 42.957381235 ], [ 144.073558362, 42.957446242 ], [ 144.073562267, 42.957482888 ], [ 144.073567319, 42.957530307 ], [ 144.073576632, 42.95761772 ], [ 144.073601371, 42.957704754 ], [ 144.073661578000014, 42.957916571 ], [ 144.073677978, 42.957974265 ], [ 144.073690905, 42.958019746 ], [ 144.073749806, 42.958178972 ], [ 144.07376722, 42.95817756 ], [ 144.07424257299999, 42.958140344 ], [ 144.07576136, 42.95802163 ], [ 144.075761354, 42.958021594 ], [ 144.075776028, 42.958020478 ], [ 144.07575344899999, 42.957870533 ], [ 144.075739633000012, 42.957778779 ], [ 144.07571540399999, 42.957617872 ], [ 144.075704, 42.95754116 ], [ 144.075693559, 42.957470925 ], [ 144.075655743, 42.957216552 ], [ 144.075650876999987, 42.957183821 ] ] ] } },
{ "type": "Feature", "properties": { "A29_001": "01668", "A29_002": "北海道", "A29_003": "白糠町", "A29_004": 4, "A29_005": "第二種中高層住居専用地域", "A29_006": 60, "A29_007": 200, "A29_008": null }, "geometry": { "type": "Polygon", "coordinates": [ [ [ 144.064772057, 42.957683577 ], [ 144.064796057, 42.957656567 ], [ 144.06448891, 42.957459655 ], [ 144.06507192, 42.957099159 ], [ 144.0651584, 42.956857838 ], [ 144.065117662, 42.956824778 ], [ 144.065214445, 42.956551979 ], [ 144.065219938000013, 42.956081066 ], [ 144.064930096000012, 42.956049103 ], [ 144.06455647199999, 42.9560395 ], [ 144.06426817, 42.956022028 ], [ 144.063928159, 42.956032028 ], [ 144.063439568, 42.956049683 ], [ 144.061850819, 42.956120571 ], [ 144.060333351999986, 42.957958022 ], [ 144.063010197000011, 42.959110351 ], [ 144.063243895, 42.958806283 ], [ 144.063712235999986, 42.958559587 ], [ 144.063904544, 42.95843692 ], [ 144.064066314, 42.958284208 ], [ 144.064156193, 42.958272356 ], [ 144.064772057, 42.957683577 ] ] ] } },
{ "type": "Feature", "properties": { "A29_001": "01668", "A29_002": "北海道", "A29_003": "白糠町", "A29_004": 5, "A29_005": "第一種住居地域", "A29_006": 60, "A29_007": 200, "A29_008": null }, "geometry": { "type": "Polygon", "coordinates": [ [ [ 144.075618115, 42.956963442 ], [ 144.075650876999987, 42.957183821 ], [ 144.075655743, 42.957216552 ], [ 144.075693559, 42.957470925 ], [ 144.075704, 42.95754116 ], [ 144.07571540399999, 42.957617872 ], [ 144.075739633000012, 42.957778779 ], [ 144.07575344899999, 42.957870533 ], [ 144.075776028, 42.958020478 ], [ 144.075761354, 42.958021594 ], [ 144.07576136, 42.95802163 ], [ 144.07424257299999, 42.958140344 ], [ 144.074400464, 42.958716589 ], [ 144.074409464000013, 42.958762719 ], [ 144.07439747399999, 42.958809179 ], [ 144.07729413199999, 42.959474504 ], [ 144.077419631999987, 42.959501513 ], [ 144.0770295, 42.956864021 ], [ 144.077026948, 42.956846911 ], [ 144.076993375, 42.956849653 ], [ 144.076912107999988, 42.95685629 ], [ 144.076839895, 42.956862187 ], [ 144.076588636, 42.956882707 ], [ 144.076514443, 42.956888766 ], [ 144.07642816, 42.956895812 ], [ 144.076390538, 42.956898884 ], [ 144.07620132299999, 42.956914336 ], [ 144.076105750000011, 42.956922141 ], [ 144.076100333, 42.956922583 ], [ 144.075976829000012, 42.956933048 ], [ 144.075771656, 42.956950433 ], [ 144.075618115, 42.956963442 ] ] ] } },
{ "type": "Feature", "properties": { "A29_001": "01668", "A29_002": "北海道", "A29_003": "白糠町", "A29_004": 5, "A29_005": "第一種住居地域", "A29_006": 60, "A29_007": 200, "A29_008": null }, "geometry": { "type": "Polygon", "coordinates": [ [ [ 144.07305152699999, 42.957436468 ], [ 144.073421386, 42.957144465 ], [ 144.073553807, 42.957087343 ], [ 144.073541146999986, 42.957049913 ], [ 144.073496025, 42.956048759 ], [ 144.07342081199999, 42.955046745 ], [ 144.072781469, 42.954953586 ], [ 144.07189673, 42.95487119 ], [ 144.07126112, 42.95479997 ], [ 144.070948030000011, 42.95479513 ], [ 144.07075031, 42.954811696 ], [ 144.070550520000012, 42.95483932 ], [ 144.07030495, 42.954898733 ], [ 144.07000839, 42.95502606 ], [ 144.069804025, 42.955134907 ], [ 144.069472827999988, 42.955281361 ], [ 144.068734785, 42.95560714 ], [ 144.06841396199999, 42.955695867 ], [ 144.06812992, 42.955774153 ], [ 144.06777955699999, 42.955839585 ], [ 144.06724594799999, 42.955902849 ], [ 144.067247608, 42.95603183 ], [ 144.06720370799999, 42.95603112 ], [ 144.067183575, 42.956280687 ], [ 144.06860833799999, 42.956426929 ], [ 144.068843058999988, 42.956457296 ], [ 144.069258213000012, 42.956928874 ], [ 144.069257553999989, 42.957153836 ], [ 144.069264049, 42.957267954 ], [ 144.06980203, 42.957393155 ], [ 144.070170439, 42.957794168 ], [ 144.07053334, 42.957952465 ], [ 144.07038635399999, 42.958243104 ], [ 144.070300237999987, 42.958450872 ], [ 144.070238114, 42.958676525 ], [ 144.07019509700001, 42.95891478 ], [ 144.07018740699999, 42.959274319 ], [ 144.070236165000011, 42.959642329 ], [ 144.07274234499999, 42.960226277 ], [ 144.073405384000012, 42.958649564 ], [ 144.07322118799999, 42.958084623 ], [ 144.07305152699999, 42.957436468 ] ] ] } },
{ "type": "Feature", "properties": { "A29_001": "01668", "A29_002": "北海道", "A29_003": "白糠町", "A29_004": 4, "A29_005": "第二種中高層住居専用地域", "A29_006": 60, "A29_007": 200, "A29_008": null }, "geometry": { "type": "Polygon", "coordinates": [ [ [ 144.081026372, 42.956561415 ], [ 144.08101422499999, 42.955777026 ], [ 144.081006538, 42.955777354 ], [ 144.080256436000013, 42.955893831 ], [ 144.08025904199999, 42.956012887 ], [ 144.08026063299999, 42.956085596 ], [ 144.080261825, 42.95616041 ], [ 144.080264554, 42.956331609 ], [ 144.080265688, 42.956402774 ], [ 144.08026829, 42.956565977 ], [ 144.080251102, 42.956567672 ], [ 144.079912696, 42.956601041 ], [ 144.079818288000013, 42.95661035 ], [ 144.079817179, 42.956610454 ], [ 144.079625061, 42.956627368 ], [ 144.079564065, 42.956632736 ], [ 144.07943239, 42.956644324 ], [ 144.0792911, 42.956656759 ], [ 144.079117758, 42.956672014 ], [ 144.078835626999989, 42.956696842 ], [ 144.07881739699999, 42.956698447 ], [ 144.0784684, 42.956729159 ], [ 144.07829352499999, 42.956744547 ], [ 144.078254304000012, 42.956747011 ], [ 144.07807647300001, 42.956758183 ], [ 144.07802284600001, 42.956761552 ], [ 144.077926717999986, 42.956768237 ], [ 144.07783862, 42.956774363 ], [ 144.077676579000013, 42.956790197 ], [ 144.077599357999986, 42.956797743 ], [ 144.07748543, 42.956805909 ], [ 144.077477800999986, 42.956806587 ], [ 144.07736628399999, 42.956816505 ], [ 144.077239749, 42.956827758 ], [ 144.077087913000014, 42.956841426 ], [ 144.07702732300001, 42.95684688 ], [ 144.077026948, 42.956846911 ], [ 144.0770295, 42.956864021 ], [ 144.077419631999987, 42.959501513 ], [ 144.080408019, 42.960188406 ], [ 144.080568354, 42.959951942 ], [ 144.08069866400001, 42.959699309 ], [ 144.080779764, 42.959463488 ], [ 144.080947993, 42.959412101 ], [ 144.081002383, 42.959380381 ], [ 144.081046683000011, 42.959330601 ], [ 144.081061913000013, 42.959297411 ], [ 144.081072173, 42.959225041 ], [ 144.081058181, 42.958368662 ], [ 144.081026372, 42.956561415 ] ] ] } },
{ "type": "Feature", "properties": { "A29_001": "01668", "A29_002": "北海道", "A29_003": "白糠町", "A29_004": 3, "A29_005": "第一種中高層住居専用地域", "A29_006": 60, "A29_007": 150, "A29_008": null }, "geometry": { "type": "Polygon", "coordinates": [ [ [ 144.064772057, 42.957683577 ], [ 144.064156193, 42.958272356 ], [ 144.064066314, 42.958284208 ], [ 144.063904544, 42.95843692 ], [ 144.063712235999986, 42.958559587 ], [ 144.063243895, 42.958806283 ], [ 144.063010197000011, 42.959110351 ], [ 144.060333351999986, 42.957958022 ], [ 144.061850819, 42.956120571 ], [ 144.060917681, 42.956129531 ], [ 144.06028, 42.95609 ], [ 144.059937889999986, 42.956037924 ], [ 144.059695006999988, 42.956007525 ], [ 144.059390955, 42.955950029 ], [ 144.059044094, 42.955869964 ], [ 144.05874, 42.95581001 ], [ 144.058269990000014, 42.95566001 ], [ 144.057590010000013, 42.95541001 ], [ 144.05661, 42.95496001 ], [ 144.056438429999986, 42.95488161 ], [ 144.05632931, 42.95501735 ], [ 144.05579862, 42.95558781 ], [ 144.055517718, 42.95593286 ], [ 144.055690803, 42.955897625 ], [ 144.056229048, 42.955795635 ], [ 144.056400379, 42.955774605 ], [ 144.05660436, 42.955796879 ], [ 144.056766425, 42.955854424 ], [ 144.05686332499999, 42.955906864 ], [ 144.056968110000014, 42.95605715 ], [ 144.05733741, 42.95655455 ], [ 144.057528240000011, 42.95675338 ], [ 144.057115, 42.95775233 ], [ 144.05650667899999, 42.959261708 ], [ 144.058951065, 42.959679278 ], [ 144.0585777, 42.960151867 ], [ 144.05828466, 42.960435437 ], [ 144.05859845, 42.960306427 ], [ 144.058723070000013, 42.960263117 ], [ 144.05884065, 42.960240217 ], [ 144.05896055, 42.960231317 ], [ 144.0590523, 42.960238277 ], [ 144.05981429, 42.96053411 ], [ 144.06257108, 42.961667832 ], [ 144.062913150000014, 42.96155455 ], [ 144.06464894199999, 42.96128578 ], [ 144.066514450999989, 42.961578237 ], [ 144.067617055, 42.96091261 ], [ 144.067722851000013, 42.960351872 ], [ 144.067604905, 42.960186712 ], [ 144.067344743, 42.959778364 ], [ 144.067088584, 42.959398518 ], [ 144.066832548, 42.958978179 ], [ 144.06668212400001, 42.958749976 ], [ 144.066370310999986, 42.958548509 ], [ 144.065728365000012, 42.958129047 ], [ 144.065573015000012, 42.958034797 ], [ 144.064772057, 42.957683577 ] ] ] } },
{ "type": "Feature", "properties": { "A29_001": "01668", "A29_002": "北海道", "A29_003": "白糠町", "A29_004": 4, "A29_005": "第二種中高層住居専用地域", "A29_006": 60, "A29_007": 200, "A29_008": null }, "geometry": { "type": "Polygon", "coordinates": [ [ [ 144.07729413199999, 42.959474504 ], [ 144.07439747399999, 42.958809179 ], [ 144.073865746, 42.96011178 ], [ 144.07343404, 42.961124947 ], [ 144.073058033, 42.961991604 ], [ 144.07593117799999, 42.962647269 ], [ 144.07729413199999, 42.959474504 ] ] ] } },
{ "type": "Feature", "properties": { "A29_001": "01668", "A29_002": "北海道", "A29_003": "白糠町", "A29_004": 3, "A29_005": "第一種中高層住居専用地域", "A29_006": 60, "A29_007": 150, "A29_008": null }, "geometry": { "type": "Polygon", "coordinates": [ [ [ 144.080408019, 42.960188406 ], [ 144.077419631999987, 42.959501513 ], [ 144.07729413199999, 42.959474504 ], [ 144.07593117799999, 42.962647269 ], [ 144.07905964, 42.963361365 ], [ 144.080346045999988, 42.960300999 ], [ 144.080408019, 42.960188406 ] ] ] } },
{ "type": "Feature", "properties": { "A29_001": "01668", "A29_002": "北海道", "A29_003": "白糠町", "A29_004": 4, "A29_005": "第二種中高層住居専用地域", "A29_006": 60, "A29_007": 200, "A29_008": null }, "geometry": { "type": "Polygon", "coordinates": [ [ [ 144.07274234499999, 42.960226277 ], [ 144.070236165000011, 42.959642329 ], [ 144.070297003, 42.959874533 ], [ 144.07037262099999, 42.960257259 ], [ 144.070400479999989, 42.960387562 ], [ 144.070421218, 42.960667084 ], [ 144.070416509000012, 42.960945532 ], [ 144.07034489599999, 42.961696794 ], [ 144.070344403, 42.9620951 ], [ 144.07030802599999, 42.962437613 ], [ 144.070181952000013, 42.962956329 ], [ 144.070163717000014, 42.963082279 ], [ 144.07014685199999, 42.963088627 ], [ 144.07005657799999, 42.963566762 ], [ 144.06998729, 42.964586251 ], [ 144.069992393, 42.964937201 ], [ 144.07004254, 42.965247728 ], [ 144.07018042499999, 42.965583888 ], [ 144.070354121, 42.965895359 ], [ 144.07274234499999, 42.960226277 ] ] ] } },
{ "type": "Feature", "properties": { "A29_001": "01668", "A29_002": "北海道", "A29_003": "白糠町", "A29_004": 3, "A29_005": "第一種中高層住居専用地域", "A29_006": 60, "A29_007": 150, "A29_008": null }, "geometry": { "type": "Polygon", "coordinates": [ [ [ 144.070354121, 42.965895359 ], [ 144.07018042499999, 42.965583888 ], [ 144.07004254, 42.965247728 ], [ 144.069992393, 42.964937201 ], [ 144.06998729, 42.964586251 ], [ 144.07005657799999, 42.963566762 ], [ 144.07014685199999, 42.963088627 ], [ 144.06946118799999, 42.962929699 ], [ 144.069055848, 42.963059071 ], [ 144.068972398999989, 42.963182384 ], [ 144.068598064000014, 42.96409514 ], [ 144.068299876, 42.964804048 ], [ 144.067985184, 42.965566921 ], [ 144.067744729, 42.966083952 ], [ 144.067457878, 42.967095826 ], [ 144.067370122999989, 42.967076189 ], [ 144.067304506, 42.967652253 ], [ 144.06941092299999, 42.96813191 ], [ 144.069763947000013, 42.967292947 ], [ 144.070354121, 42.965895359 ] ] ] } },
{ "type": "Feature", "properties": { "A29_001": "01668", "A29_002": "北海道", "A29_003": "白糠町", "A29_004": 10, "A29_005": "準工業地域", "A29_006": 60, "A29_007": 200, "A29_008": null }, "geometry": { "type": "Polygon", "coordinates": [ [ [ 144.073562267, 42.957482888 ], [ 144.073558362, 42.957446242 ], [ 144.073553591, 42.957381235 ], [ 144.073552561000014, 42.957367199 ], [ 144.073543865, 42.957248727 ], [ 144.07354150099999, 42.957216525 ], [ 144.073538014, 42.95716902 ], [ 144.073533378, 42.957096155 ], [ 144.073421386, 42.957144465 ], [ 144.07305152699999, 42.957436468 ], [ 144.07322118799999, 42.958084623 ], [ 144.073405384000012, 42.958649564 ], [ 144.07274234499999, 42.960226277 ], [ 144.070354121, 42.965895359 ], [ 144.069763947000013, 42.967292947 ], [ 144.06941092299999, 42.96813191 ], [ 144.070361644, 42.968349053 ], [ 144.071785659999989, 42.96499336 ], [ 144.073058033, 42.961991604 ], [ 144.07343404, 42.961124947 ], [ 144.073865746, 42.96011178 ], [ 144.07439747399999, 42.958809179 ], [ 144.074409464000013, 42.958762719 ], [ 144.074400464, 42.958716589 ], [ 144.07424257299999, 42.958140344 ], [ 144.07376722, 42.95817756 ], [ 144.073749806, 42.958178972 ], [ 144.073690905, 42.958019746 ], [ 144.073677978, 42.957974265 ], [ 144.073661578000014, 42.957916571 ], [ 144.073601371, 42.957704754 ], [ 144.073576632, 42.95761772 ], [ 144.073567319, 42.957530307 ], [ 144.073565747, 42.95751555 ], [ 144.073562267, 42.957482888 ] ] ] } },
{ "type": "Feature", "properties": { "A29_001": "01668", "A29_002": "北海道", "A29_003": "白糠町", "A29_004": 3, "A29_005": "第一種中高層住居専用地域", "A29_006": 60, "A29_007": 150, "A29_008": null }, "geometry": { "type": "Polygon", "coordinates": [ [ [ 144.071785659999989, 42.96499336 ], [ 144.070361644, 42.968349053 ], [ 144.073144054000011, 42.968974939 ], [ 144.074770483, 42.96509459 ], [ 144.073215459000011, 42.964721761 ], [ 144.072984985, 42.965255102 ], [ 144.071785659999989, 42.96499336 ] ] ] } },
{ "type": "Feature", "properties": { "A29_001": "01668", "A29_002": "北海道", "A29_003": "白糠町", "A29_004": 10, "A29_005": "準工業地域", "A29_006": 60, "A29_007": 200, "A29_008": null }, "geometry": { "type": "Polygon", "coordinates": [ [ [ 144.07905964, 42.963361365 ], [ 144.07593117799999, 42.962647269 ], [ 144.073058033, 42.961991604 ], [ 144.071785659999989, 42.96499336 ], [ 144.072984985, 42.965255102 ], [ 144.073215459000011, 42.964721761 ], [ 144.074770483, 42.96509459 ], [ 144.073144054000011, 42.968974939 ], [ 144.076386617, 42.969721447 ], [ 144.07905964, 42.963361365 ] ] ] } },
{ "type": "Feature", "properties": { "A29_001": "01668", "A29_002": "北海道", "A29_003": "白糠町", "A29_004": 5, "A29_005": "第一種住居地域", "A29_006": 60, "A29_007": 200, "A29_008": null }, "geometry": { "type": "Polygon", "coordinates": [ [ [ 144.128987865, 42.973021196 ], [ 144.12874745, 42.972880316 ], [ 144.128467179000012, 42.972716078 ], [ 144.128436232000013, 42.972697942 ], [ 144.128180918999988, 42.972548328 ], [ 144.128157703999989, 42.972534725 ], [ 144.128034786, 42.972462694 ], [ 144.127751313, 42.972300633 ], [ 144.12757640699999, 42.972200639 ], [ 144.127561832999987, 42.972192306 ], [ 144.127109295, 42.971922599 ], [ 144.127089680000012, 42.971911432 ], [ 144.126858284, 42.971779701 ], [ 144.126359686, 42.971495852 ], [ 144.126101549999987, 42.971778032 ], [ 144.127912247000012, 42.972828631 ], [ 144.128420258, 42.97314569 ], [ 144.128712643999989, 42.973338706 ], [ 144.128987865, 42.973021196 ] ] ] } },
{ "type": "Feature", "properties": { "A29_001": "01668", "A29_002": "北海道", "A29_003": "白糠町", "A29_004": 11, "A29_005": "工業地域", "A29_006": 60, "A29_007": 200, "A29_008": null }, "geometry": { "type": "Polygon", "coordinates": [ [ [ 144.125699579000013, 42.97217587 ], [ 144.125817804, 42.972045258 ], [ 144.125537971, 42.971867056 ], [ 144.121357354, 42.969392348 ], [ 144.121153373, 42.969275139 ], [ 144.120510867, 42.968891978 ], [ 144.119962197, 42.969532498 ], [ 144.118745114, 42.970923626 ], [ 144.117126654, 42.972788945 ], [ 144.11715086800001, 42.97292545 ], [ 144.11862297, 42.973617033 ], [ 144.11867306900001, 42.973588595 ], [ 144.122490613999986, 42.975413902 ], [ 144.122786456999989, 42.975538821 ], [ 144.125699579000013, 42.97217587 ] ] ] } },
{ "type": "Feature", "properties": { "A29_001": "01668", "A29_002": "北海道", "A29_003": "白糠町", "A29_004": 10, "A29_005": "準工業地域", "A29_006": 60, "A29_007": 200, "A29_008": null }, "geometry": { "type": "Polygon", "coordinates": [ [ [ 144.131723674, 42.976344459 ], [ 144.13221237499999, 42.976128153 ], [ 144.132640963999989, 42.976302564 ], [ 144.1325579, 42.975946289 ], [ 144.133068697, 42.975313169 ], [ 144.13262182299999, 42.975120556 ], [ 144.13199158399999, 42.975845325 ], [ 144.13099468199999, 42.974733628 ], [ 144.130570785, 42.974253268 ], [ 144.130087562999989, 42.973825334 ], [ 144.129023705, 42.972979883 ], [ 144.129000646, 42.973006459 ], [ 144.128712643999989, 42.973338706 ], [ 144.128420258, 42.97314569 ], [ 144.127912247000012, 42.972828631 ], [ 144.126101549999987, 42.971778032 ], [ 144.1260001, 42.97185805 ], [ 144.125817804, 42.972045258 ], [ 144.125699579000013, 42.97217587 ], [ 144.126095365, 42.972457812 ], [ 144.126625526, 42.972884313 ], [ 144.126921146, 42.973147087 ], [ 144.127357354, 42.973580982 ], [ 144.127989144, 42.974265542 ], [ 144.128058767, 42.974174132 ], [ 144.13036317800001, 42.975279274 ], [ 144.13103286, 42.975589274 ], [ 144.131723674, 42.976344459 ] ] ] } },
{ "type": "Feature", "properties": { "A29_001": "01668", "A29_002": "北海道", "A29_003": "白糠町", "A29_004": 4, "A29_005": "第二種中高層住居専用地域", "A29_006": 60, "A29_007": 200, "A29_008": null }, "geometry": { "type": "Polygon", "coordinates": [ [ [ 144.133956753, 42.976618102 ], [ 144.13495561900001, 42.975477053 ], [ 144.135006651999987, 42.975492102 ], [ 144.135902571, 42.974477892 ], [ 144.13296162099999, 42.973078435 ], [ 144.13244956599999, 42.973683975 ], [ 144.130057830999988, 42.972309058 ], [ 144.129234295, 42.97202624 ], [ 144.12805970799999, 42.971629811 ], [ 144.126688761, 42.971123555 ], [ 144.126370967000014, 42.971483521 ], [ 144.126359686, 42.971495852 ], [ 144.126858284, 42.971779701 ], [ 144.127089680000012, 42.971911432 ], [ 144.127109295, 42.971922599 ], [ 144.127561832999987, 42.972192306 ], [ 144.12757640699999, 42.972200639 ], [ 144.127751313, 42.972300633 ], [ 144.128034786, 42.972462694 ], [ 144.128157703999989, 42.972534725 ], [ 144.128180918999988, 42.972548328 ], [ 144.128436232000013, 42.972697942 ], [ 144.128467179000012, 42.972716078 ], [ 144.12874745, 42.972880316 ], [ 144.128987865, 42.973021196 ], [ 144.12899227599999, 42.97301611 ], [ 144.129000646, 42.973006459 ], [ 144.129023705, 42.972979883 ], [ 144.130087562999989, 42.973825334 ], [ 144.130570785, 42.974253268 ], [ 144.13099468199999, 42.974733628 ], [ 144.13199158399999, 42.975845325 ], [ 144.13262182299999, 42.975120556 ], [ 144.133068697, 42.975313169 ], [ 144.1325579, 42.975946289 ], [ 144.133778205, 42.976527936 ], [ 144.133956753, 42.976618102 ] ] ] } },
{ "type": "Feature", "properties": { "A29_001": "01668", "A29_002": "北海道", "A29_003": "白糠町", "A29_004": 4, "A29_005": "第二種中高層住居専用地域", "A29_006": 60, "A29_007": 200, "A29_008": null }, "geometry": { "type": "Polygon", "coordinates": [ [ [ 144.127989144, 42.974265542 ], [ 144.127357354, 42.973580982 ], [ 144.126921146, 42.973147087 ], [ 144.126625526, 42.972884313 ], [ 144.126095365, 42.972457812 ], [ 144.125699579000013, 42.97217587 ], [ 144.122786456999989, 42.975538821 ], [ 144.122698453999988, 42.975655296 ], [ 144.121936876, 42.976513801 ], [ 144.124830777999989, 42.977860806 ], [ 144.127989144, 42.974265542 ] ] ] } },
{ "type": "Feature", "properties": { "A29_001": "01668", "A29_002": "北海道", "A29_003": "白糠町", "A29_004": 3, "A29_005": "第一種中高層住居専用地域", "A29_006": 60, "A29_007": 150, "A29_008": null }, "geometry": { "type": "Polygon", "coordinates": [ [ [ 144.14081882, 42.977026786 ], [ 144.136431224, 42.974961114 ], [ 144.137215117000011, 42.97406504 ], [ 144.134730229000013, 42.973128222 ], [ 144.133437308999987, 42.972636495 ], [ 144.13336855899999, 42.972634825 ], [ 144.133328799, 42.972645295 ], [ 144.13296162099999, 42.973078435 ], [ 144.135902571, 42.974477892 ], [ 144.135006651999987, 42.975492102 ], [ 144.137239169, 42.976550895 ], [ 144.13775139099999, 42.976795107 ], [ 144.13689886899999, 42.97778785 ], [ 144.13933039, 42.977853216 ], [ 144.139491760999988, 42.977847373 ], [ 144.139945372, 42.977753326 ], [ 144.140300223, 42.977488212 ], [ 144.140624365, 42.97726206 ], [ 144.14081882, 42.977026786 ] ] ] } },
{ "type": "Feature", "properties": { "A29_001": "01668", "A29_002": "北海道", "A29_003": "白糠町", "A29_004": 7, "A29_005": "準住居地域", "A29_006": 60, "A29_007": 200, "A29_008": null }, "geometry": { "type": "Polygon", "coordinates": [ [ [ 144.135047257, 42.979961352 ], [ 144.13474359, 42.97976516 ], [ 144.13449055699999, 42.979511653 ], [ 144.133211206999988, 42.978044263 ], [ 144.131723674, 42.976344459 ], [ 144.13103286, 42.975589274 ], [ 144.13036317800001, 42.975279274 ], [ 144.130197697999989, 42.97548342 ], [ 144.131160747, 42.976528998 ], [ 144.1315133, 42.976944794 ], [ 144.131949469, 42.977429662 ], [ 144.13310686, 42.97878077 ], [ 144.134158875, 42.979928248 ], [ 144.134432166000011, 42.980151236 ], [ 144.134696326000011, 42.980368988 ], [ 144.135047257, 42.979961352 ] ] ] } },
{ "type": "Feature", "properties": { "A29_001": "01668", "A29_002": "北海道", "A29_003": "白糠町", "A29_004": 5, "A29_005": "第一種住居地域", "A29_006": 60, "A29_007": 200, "A29_008": null }, "geometry": { "type": "Polygon", "coordinates": [ [ [ 144.134696326000011, 42.980368988 ], [ 144.134432166000011, 42.980151236 ], [ 144.134158875, 42.979928248 ], [ 144.13310686, 42.97878077 ], [ 144.131949469, 42.977429662 ], [ 144.1315133, 42.976944794 ], [ 144.131160747, 42.976528998 ], [ 144.130197697999989, 42.97548342 ], [ 144.13036317800001, 42.975279274 ], [ 144.128058767, 42.974174132 ], [ 144.127989144, 42.974265542 ], [ 144.128525638000013, 42.974896372 ], [ 144.129946547, 42.976498619 ], [ 144.130523974999988, 42.977116616 ], [ 144.133708106, 42.980668665 ], [ 144.13398941, 42.980976398 ], [ 144.134077092000012, 42.981057474 ], [ 144.134696326000011, 42.980368988 ] ] ] } },
{ "type": "Feature", "properties": { "A29_001": "01668", "A29_002": "北海道", "A29_003": "白糠町", "A29_004": 5, "A29_005": "第一種住居地域", "A29_006": 60, "A29_007": 200, "A29_008": null }, "geometry": { "type": "Polygon", "coordinates": [ [ [ 144.140823372999989, 42.980225749 ], [ 144.140437932, 42.981030744 ], [ 144.14416647499999, 42.981802122 ], [ 144.140823372999989, 42.980225749 ] ] ] } },
{ "type": "Feature", "properties": { "A29_001": "01668", "A29_002": "北海道", "A29_003": "白糠町", "A29_004": 3, "A29_005": "第一種中高層住居専用地域", "A29_006": 60, "A29_007": 150, "A29_008": null }, "geometry": { "type": "Polygon", "coordinates": [ [ [ 144.129946546000014, 42.976498618 ], [ 144.128525638000013, 42.974896372 ], [ 144.127989143, 42.974265543 ], [ 144.124830777999989, 42.977860806 ], [ 144.126175004, 42.978497756 ], [ 144.124562200000014, 42.98036152 ], [ 144.124018253, 42.980978606 ], [ 144.123893791, 42.980910981 ], [ 144.123219146999986, 42.981687103 ], [ 144.124772113, 42.982425138 ], [ 144.129946546000014, 42.976498618 ] ] ] } },
{ "type": "Feature", "properties": { "A29_001": "01668", "A29_002": "北海道", "A29_003": "白糠町", "A29_004": 10, "A29_005": "準工業地域", "A29_006": 60, "A29_007": 200, "A29_008": null }, "geometry": { "type": "Polygon", "coordinates": [ [ [ 144.13526558699999, 42.980132578 ], [ 144.135047257, 42.979961352 ], [ 144.134696326000011, 42.980368988 ], [ 144.134077092000012, 42.981057474 ], [ 144.134323599999988, 42.98130327 ], [ 144.13469292, 42.98158327 ], [ 144.13559841, 42.98216853 ], [ 144.136224277, 42.98252038 ], [ 144.13628294, 42.98227823 ], [ 144.136286222, 42.982159753 ], [ 144.13647030199999, 42.982030208 ], [ 144.136281211000011, 42.981333484 ], [ 144.136240178, 42.981097137 ], [ 144.136133910000012, 42.980571371 ], [ 144.13573695, 42.980392506 ], [ 144.135503304, 42.980266293 ], [ 144.13526558699999, 42.980132578 ] ] ] } },
{ "type": "Feature", "properties": { "A29_001": "01668", "A29_002": "北海道", "A29_003": "白糠町", "A29_004": 10, "A29_005": "準工業地域", "A29_006": 60, "A29_007": 200, "A29_008": null }, "geometry": { "type": "Polygon", "coordinates": [ [ [ 144.146001939, 42.982167362 ], [ 144.145285862, 42.982224828 ], [ 144.145191065, 42.982290482 ], [ 144.14416647499999, 42.981802122 ], [ 144.140437932, 42.981030744 ], [ 144.140374369999989, 42.981165661 ], [ 144.140439442, 42.981330695 ], [ 144.140401352, 42.981519193 ], [ 144.1448388, 42.98242709 ], [ 144.14595411, 42.982650715 ], [ 144.146001939, 42.982167362 ] ] ] } },
{ "type": "Feature", "properties": { "A29_001": "01668", "A29_002": "北海道", "A29_003": "白糠町", "A29_004": 7, "A29_005": "準住居地域", "A29_006": 60, "A29_007": 200, "A29_008": null }, "geometry": { "type": "Polygon", "coordinates": [ [ [ 144.146109790999986, 42.982948521 ], [ 144.1468366, 42.98281296 ], [ 144.14595411, 42.982650715 ], [ 144.1448388, 42.98242709 ], [ 144.140401352, 42.981519193 ], [ 144.140342823999987, 42.981675544 ], [ 144.14021589399999, 42.981835895 ], [ 144.14028524299999, 42.981892952 ], [ 144.140295345, 42.981955951 ], [ 144.143280694, 42.982557172 ], [ 144.145565, 42.9830528 ], [ 144.146109790999986, 42.982948521 ] ] ] } },
{ "type": "Feature", "properties": { "A29_001": "01668", "A29_002": "北海道", "A29_003": "白糠町", "A29_004": 9, "A29_005": "商業地域", "A29_006": 80, "A29_007": 400, "A29_008": null }, "geometry": { "type": "Polygon", "coordinates": [ [ [ 144.146001939, 42.982167362 ], [ 144.14595411, 42.982650715 ], [ 144.1468366, 42.98281296 ], [ 144.14746871, 42.98288383 ], [ 144.14800643, 42.98292679 ], [ 144.149112659999986, 42.98302061 ], [ 144.14954036099999, 42.983051316 ], [ 144.14948778199999, 42.982615118 ], [ 144.149453023, 42.982354295 ], [ 144.14930371599999, 42.982359297 ], [ 144.147757133, 42.982631746 ], [ 144.146719272000013, 42.9821239 ], [ 144.146001939, 42.982167362 ] ] ] } },
{ "type": "Feature", "properties": { "A29_001": "01668", "A29_002": "北海道", "A29_003": "白糠町", "A29_004": 5, "A29_005": "第一種住居地域", "A29_006": 60, "A29_007": 200, "A29_008": null }, "geometry": { "type": "Polygon", "coordinates": [ [ [ 144.145285862, 42.982224828 ], [ 144.146001939, 42.982167362 ], [ 144.146719272000013, 42.9821239 ], [ 144.147757133, 42.982631746 ], [ 144.14930371599999, 42.982359297 ], [ 144.149453023, 42.982354295 ], [ 144.14948778199999, 42.982615118 ], [ 144.14954036099999, 42.983051316 ], [ 144.15257621399999, 42.983299101 ], [ 144.152008630000012, 42.982867925 ], [ 144.15161683, 42.982617131 ], [ 144.151186216000013, 42.982370802 ], [ 144.149965493, 42.981874826 ], [ 144.149812047000012, 42.982026166 ], [ 144.149156994, 42.981631158 ], [ 144.148781366, 42.981495849 ], [ 144.147975613, 42.981692805 ], [ 144.146376092, 42.980913295 ], [ 144.145285862, 42.982224828 ] ] ] } },
{ "type": "Feature", "properties": { "A29_001": "01668", "A29_002": "北海道", "A29_003": "白糠町", "A29_004": 5, "A29_005": "第一種住居地域", "A29_006": 60, "A29_007": 200, "A29_008": null }, "geometry": { "type": "Polygon", "coordinates": [ [ [ 144.15670861699999, 42.982036119 ], [ 144.155479492000012, 42.981666173 ], [ 144.15513073, 42.98161614 ], [ 144.154983276, 42.981568279 ], [ 144.153436750999987, 42.981140539 ], [ 144.153410861, 42.981291009 ], [ 144.151520530999989, 42.981129449 ], [ 144.151382971, 42.981001329 ], [ 144.150137664999988, 42.980565323 ], [ 144.149980749, 42.980904166 ], [ 144.151343501000014, 42.981413725 ], [ 144.151737494, 42.981564039 ], [ 144.15252316199999, 42.982043129 ], [ 144.153182242000014, 42.982492113 ], [ 144.153476023, 42.982726321 ], [ 144.15374934, 42.982986007 ], [ 144.15407257199999, 42.983333333 ], [ 144.154152329, 42.983427797 ], [ 144.15628800799999, 42.983605513 ], [ 144.156451787, 42.98247096 ], [ 144.156638918, 42.982486206 ], [ 144.15670861699999, 42.982036119 ] ] ] } },
{ "type": "Feature", "properties": { "A29_001": "01668", "A29_002": "北海道", "A29_003": "白糠町", "A29_004": 3, "A29_005": "第一種中高層住居専用地域", "A29_006": 60, "A29_007": 150, "A29_008": null }, "geometry": { "type": "Polygon", "coordinates": [ [ [ 144.136224277, 42.98252038 ], [ 144.13559841, 42.98216853 ], [ 144.13469292, 42.98158327 ], [ 144.134323599999988, 42.98130327 ], [ 144.134077092000012, 42.981057474 ], [ 144.131702467999986, 42.983747087 ], [ 144.13437808, 42.985033603 ], [ 144.134356201, 42.984717884 ], [ 144.135075809999989, 42.98414065 ], [ 144.135264522999989, 42.984000421 ], [ 144.135704291, 42.983688164 ], [ 144.13542673500001, 42.98355066 ], [ 144.135771334999987, 42.983334291 ], [ 144.136483403999989, 42.98268036 ], [ 144.136224277, 42.98252038 ] ] ] } },
{ "type": "Feature", "properties": { "A29_001": "01668", "A29_002": "北海道", "A29_003": "白糠町", "A29_004": 4, "A29_005": "第二種中高層住居専用地域", "A29_006": 60, "A29_007": 200, "A29_008": null }, "geometry": { "type": "Polygon", "coordinates": [ [ [ 144.131702467999986, 42.983747087 ], [ 144.134077092000012, 42.981057474 ], [ 144.13398941, 42.980976398 ], [ 144.133708106, 42.980668665 ], [ 144.130523974999988, 42.977116616 ], [ 144.129946547, 42.976498619 ], [ 144.124772113, 42.982425138 ], [ 144.130494586, 42.985125598 ], [ 144.131702467999986, 42.983747087 ] ] ] } },
{ "type": "Feature", "properties": { "A29_001": "01668", "A29_002": "北海道", "A29_003": "白糠町", "A29_004": 5, "A29_005": "第一種住居地域", "A29_006": 60, "A29_007": 200, "A29_008": null }, "geometry": { "type": "Polygon", "coordinates": [ [ [ 144.145760642, 42.983696264 ], [ 144.14596710399999, 42.983609467 ], [ 144.146055353, 42.983157602 ], [ 144.146160579, 42.983152064 ], [ 144.146109790999986, 42.982948521 ], [ 144.145565, 42.9830528 ], [ 144.143280694, 42.982557172 ], [ 144.140295345, 42.981955951 ], [ 144.139544922, 42.983522463 ], [ 144.138703076000013, 42.983899514 ], [ 144.13927806800001, 42.984246582 ], [ 144.139671959, 42.984447928 ], [ 144.140127228000011, 42.984596841 ], [ 144.14041101399999, 42.984685598 ], [ 144.140721383999988, 42.984759382 ], [ 144.14091946799999, 42.984795565 ], [ 144.141135953, 42.984822767 ], [ 144.141419866, 42.984841033 ], [ 144.141660914999989, 42.984839762 ], [ 144.14195304899999, 42.98482954 ], [ 144.1422677, 42.984792343 ], [ 144.14263066699999, 42.984969905 ], [ 144.143853689999986, 42.98445121 ], [ 144.14503547000001, 42.98395906 ], [ 144.145760642, 42.983696264 ] ] ] } },
{ "type": "Feature", "properties": { "A29_001": "01668", "A29_002": "北海道", "A29_003": "白糠町", "A29_004": 10, "A29_005": "準工業地域", "A29_006": 60, "A29_007": 200, "A29_008": null }, "geometry": { "type": "Polygon", "coordinates": [ [ [ 144.152541025, 42.985929359 ], [ 144.153680046, 42.985798936 ], [ 144.15402834599999, 42.985827133 ], [ 144.153303505, 42.984298283 ], [ 144.152918591, 42.983557083 ], [ 144.15257621399999, 42.983299101 ], [ 144.14954036099999, 42.983051316 ], [ 144.149112659999986, 42.98302061 ], [ 144.14800643, 42.98292679 ], [ 144.14746871, 42.98288383 ], [ 144.1468366, 42.98281296 ], [ 144.146109790999986, 42.982948521 ], [ 144.146160579, 42.983152064 ], [ 144.146055353, 42.983157602 ], [ 144.14596710399999, 42.983609467 ], [ 144.148045035, 42.983983077 ], [ 144.14862901, 42.98405306 ], [ 144.14902432, 42.984066627 ], [ 144.149822925, 42.984133318 ], [ 144.15027920599999, 42.986197365 ], [ 144.152541025, 42.985929359 ] ] ] } },
{ "type": "Feature", "properties": { "A29_001": "01668", "A29_002": "北海道", "A29_003": "白糠町", "A29_004": 3, "A29_005": "第一種中高層住居専用地域", "A29_006": 60, "A29_007": 150, "A29_008": null }, "geometry": { "type": "Polygon", "coordinates": [ [ [ 144.130494586, 42.985125598 ], [ 144.124772113, 42.982425138 ], [ 144.123556920999988, 42.983820115 ], [ 144.12308493399999, 42.984372998 ], [ 144.12331458700001, 42.98444899 ], [ 144.12347386499999, 42.984476911 ], [ 144.12394077, 42.98456333 ], [ 144.124391569000011, 42.984676203 ], [ 144.12490338, 42.98480485 ], [ 144.12554115399999, 42.984974094 ], [ 144.125910119999986, 42.98506434 ], [ 144.126525140000012, 42.98522413 ], [ 144.126608728, 42.985249758 ], [ 144.127001062, 42.985427227 ], [ 144.127486600999987, 42.985664086 ], [ 144.12863223, 42.9862236 ], [ 144.129273946000012, 42.986518332 ], [ 144.130078964, 42.985608081 ], [ 144.130494586, 42.985125598 ] ] ] } },
{ "type": "Feature", "properties": { "A29_001": "01668", "A29_002": "北海道", "A29_003": "白糠町", "A29_004": 1, "A29_005": "第一種低層住居専用地域", "A29_006": 50, "A29_007": 80, "A29_008": null }, "geometry": { "type": "Polygon", "coordinates": [ [ [ 144.145760642, 42.983696264 ], [ 144.14503547000001, 42.98395906 ], [ 144.143853689999986, 42.98445121 ], [ 144.14263066699999, 42.984969905 ], [ 144.145609017999988, 42.986383668 ], [ 144.147364477, 42.984426869 ], [ 144.145760642, 42.983696264 ] ] ] } },
{ "type": "Feature", "properties": { "A29_001": "01668", "A29_002": "北海道", "A29_003": "白糠町", "A29_004": 10, "A29_005": "準工業地域", "A29_006": 60, "A29_007": 200, "A29_008": null }, "geometry": { "type": "Polygon", "coordinates": [ [ [ 144.13437808, 42.985033603 ], [ 144.131702467999986, 42.983747087 ], [ 144.130494586, 42.985125598 ], [ 144.130078964, 42.985608081 ], [ 144.129273946000012, 42.986518332 ], [ 144.129698415, 42.986696121 ], [ 144.130254572000013, 42.986960659 ], [ 144.130685699999987, 42.98658946 ], [ 144.1308529, 42.98647034 ], [ 144.13106435, 42.9863624 ], [ 144.131179440000011, 42.98641239 ], [ 144.13128208, 42.98630484 ], [ 144.13185739, 42.98617481 ], [ 144.132265280000013, 42.98621858 ], [ 144.13254928, 42.98620549 ], [ 144.13268543, 42.98619484 ], [ 144.13282222, 42.98617437 ], [ 144.13320442, 42.98634544 ], [ 144.13390879, 42.98606605 ], [ 144.13441866, 42.98505936 ], [ 144.13437808, 42.985033603 ] ] ] } },
{ "type": "Feature", "properties": { "A29_001": "01668", "A29_002": "北海道", "A29_003": "白糠町", "A29_004": 4, "A29_005": "第二種中高層住居専用地域", "A29_006": 60, "A29_007": 200, "A29_008": null }, "geometry": { "type": "Polygon", "coordinates": [ [ [ 144.152541025, 42.985929359 ], [ 144.15027920599999, 42.986197365 ], [ 144.149822925, 42.984133318 ], [ 144.14902432, 42.984066627 ], [ 144.14862901, 42.98405306 ], [ 144.148045035, 42.983983077 ], [ 144.148626495, 42.986562026 ], [ 144.14884310299999, 42.987487901 ], [ 144.15055479899999, 42.987260025 ], [ 144.15054320499999, 42.987125613 ], [ 144.152809208, 42.986860928 ], [ 144.152711900000014, 42.986470396 ], [ 144.15264804, 42.986473566 ], [ 144.152541025, 42.985929359 ] ] ] } },
{ "type": "Feature", "properties": { "A29_001": "01668", "A29_002": "北海道", "A29_003": "白糠町", "A29_004": 3, "A29_005": "第一種中高層住居専用地域", "A29_006": 60, "A29_007": 150, "A29_008": null }, "geometry": { "type": "Polygon", "coordinates": [ [ [ 144.15402834599999, 42.985827133 ], [ 144.153680046, 42.985798936 ], [ 144.152541025, 42.985929359 ], [ 144.15264804, 42.986473566 ], [ 144.152711900000014, 42.986470396 ], [ 144.152809208, 42.986860928 ], [ 144.15054320499999, 42.987125613 ], [ 144.15055479899999, 42.987260025 ], [ 144.14884310299999, 42.987487901 ], [ 144.148626495, 42.986562026 ], [ 144.148045035, 42.983983077 ], [ 144.14596710399999, 42.983609467 ], [ 144.145760642, 42.983696264 ], [ 144.147364477, 42.984426869 ], [ 144.145609017999988, 42.986383668 ], [ 144.14535375299999, 42.986712023 ], [ 144.14767773, 42.987826375 ], [ 144.14877428, 42.98815791 ], [ 144.149025833, 42.988232522 ], [ 144.149102899000013, 42.988237699 ], [ 144.15074422, 42.988127333 ], [ 144.150859287, 42.988446806 ], [ 144.151022331, 42.988717111 ], [ 144.151662576, 42.989800947 ], [ 144.153611159, 42.98971741 ], [ 144.153256241, 42.988385047 ], [ 144.155278125, 42.988758675 ], [ 144.154518924, 42.986949352 ], [ 144.15402834599999, 42.985827133 ] ] ] } },
{ "type": "Feature", "properties": { "A29_001": "01668", "A29_002": "北海道", "A29_003": "白糠町", "A29_004": 11, "A29_005": "工業地域", "A29_006": 60, "A29_007": 200, "A29_008": null }, "geometry": { "type": "Polygon", "coordinates": [ [ [ 144.22264709, 42.998484062 ], [ 144.218083009, 42.997566538 ], [ 144.216262728, 42.99719558 ], [ 144.215541565, 42.997054389 ], [ 144.21173765399999, 42.996283814 ], [ 144.208616148, 42.995649836 ], [ 144.20549, 42.99506001 ], [ 144.196390009999988, 42.99323 ], [ 144.194725353, 42.992893443 ], [ 144.19372041, 42.992640997 ], [ 144.192215048, 42.992268311 ], [ 144.190156207, 42.991733344 ], [ 144.186110133999989, 42.990666339 ], [ 144.184192325, 42.990167338 ], [ 144.18074076799999, 42.989257957 ], [ 144.17658268, 42.98817555 ], [ 144.173788927, 42.987441848 ], [ 144.174303047, 42.986330879 ], [ 144.173522961, 42.986112897 ], [ 144.173457651, 42.986221967 ], [ 144.171962654, 42.985795398 ], [ 144.17212026199999, 42.985548048 ], [ 144.169939346, 42.984942146 ], [ 144.168132136999986, 42.98445645 ], [ 144.166359695000011, 42.983961752 ], [ 144.164236042, 42.983388778 ], [ 144.16214306, 42.982821787 ], [ 144.16012566500001, 42.982275813 ], [ 144.159861420999988, 42.982781019 ], [ 144.159698279999986, 42.98278518 ], [ 144.15956608, 42.98276915 ], [ 144.159250788, 42.982689052 ], [ 144.158082726, 42.982446661 ], [ 144.15745909, 42.98228547 ], [ 144.15670861699999, 42.982036119 ], [ 144.156638918, 42.982486206 ], [ 144.156451787, 42.98247096 ], [ 144.15628800799999, 42.983605513 ], [ 144.154152329, 42.983427797 ], [ 144.154362768999988, 42.983905865 ], [ 144.154814918999989, 42.984773095 ], [ 144.154902502999988, 42.984938139 ], [ 144.155004372, 42.985113694 ], [ 144.155228341999987, 42.985592298 ], [ 144.155505385, 42.986099441 ], [ 144.155627589, 42.986338001 ], [ 144.15563964899999, 42.986466989 ], [ 144.155668085, 42.986573495 ], [ 144.155696444, 42.986730991 ], [ 144.155991539000013, 42.987463109 ], [ 144.156274475, 42.988135226 ], [ 144.156343572999987, 42.988372242 ], [ 144.15648518, 42.98850599 ], [ 144.1567335, 42.98866592 ], [ 144.15684482, 42.98871595 ], [ 144.157102814000012, 42.988845281 ], [ 144.157114758, 42.989053755 ], [ 144.157684554000014, 42.989171196 ], [ 144.15827882, 42.989320148 ], [ 144.15936932, 42.989604468 ], [ 144.160686516, 42.989944446 ], [ 144.160232322000013, 42.99124833 ], [ 144.162369539999986, 42.99210462 ], [ 144.16272382, 42.99220106 ], [ 144.163883059999989, 42.99246211 ], [ 144.16621103, 42.99297985 ], [ 144.16859310000001, 42.99351765 ], [ 144.17397374, 42.99476783 ], [ 144.17926315, 42.99602489 ], [ 144.195096199, 42.99978919 ], [ 144.195214419, 42.99978438 ], [ 144.195297509, 42.99975492 ], [ 144.19540809899999, 42.99968994 ], [ 144.195493719000012, 42.99961978 ], [ 144.196111564, 42.998726226 ], [ 144.204168646, 43.000629908 ], [ 144.211876878, 43.002424925 ], [ 144.212368207, 43.00258331 ], [ 144.21644411, 43.00392585 ], [ 144.219202078, 43.004903201 ], [ 144.221753170999989, 43.005790974 ], [ 144.222008303, 43.005852132 ], [ 144.222126892, 43.005702187 ], [ 144.222398838, 43.005333317 ], [ 144.22248283799999, 43.005211318 ], [ 144.222977476000011, 43.004550591 ], [ 144.223099487000013, 43.004388592 ], [ 144.223533616999987, 43.003782854 ], [ 144.223638617, 43.003640855 ], [ 144.224476154, 43.002499291 ], [ 144.224913676, 43.001899491 ], [ 144.22581738299999, 43.000627241 ], [ 144.22608338500001, 43.000266241 ], [ 144.226234385, 43.000061241 ], [ 144.226277395000011, 43.000003241 ], [ 144.226444386, 42.999776242 ], [ 144.226571387, 42.999605242 ], [ 144.226776836999989, 42.999325932 ], [ 144.226350423000014, 42.999208531 ], [ 144.225831476, 42.999112439 ], [ 144.22264709, 42.998484062 ] ] ] } }
]
}
