{
"type": "FeatureCollection",
"name": "A29-19_01221",
"features": [
{ "type": "Feature", "properties": { "A29_001": "01221", "A29_002": "北海道", "A29_003": "名寄市", "A29_004": 5, "A29_005": "第一種住居地域", "A29_006": 60, "A29_007": 200, "A29_008": null }, "geometry": { "type": "Polygon", "coordinates": [ [ [ 142.416932972000012, 44.289710722 ], [ 142.416667647999986, 44.289311906 ], [ 142.415993925, 44.289057014 ], [ 142.415489408000013, 44.289068191 ], [ 142.415483224000013, 44.288620347 ], [ 142.413297121, 44.288624911 ], [ 142.413110708, 44.288644275 ], [ 142.413140301999988, 44.290336806 ], [ 142.413156406000013, 44.290628295 ], [ 142.41197106300001, 44.29062385 ], [ 142.411974243, 44.290278514 ], [ 142.410801413, 44.290276861 ], [ 142.410853992999989, 44.291157222 ], [ 142.410855666, 44.291374494 ], [ 142.411986531999986, 44.291355891 ], [ 142.411971956, 44.292394476 ], [ 142.41202014000001, 44.292392616 ], [ 142.412017088999988, 44.293271915 ], [ 142.412012091, 44.293550934 ], [ 142.412132587, 44.293547476 ], [ 142.41546388899999, 44.293548056 ], [ 142.41545179900001, 44.296158546 ], [ 142.422412917, 44.296127778 ], [ 142.423436028, 44.296133 ], [ 142.420420766, 44.293483248 ], [ 142.41952269399999, 44.294011778 ], [ 142.41927877099999, 44.293813817 ], [ 142.417277592, 44.2949997 ], [ 142.416781499, 44.294569928 ], [ 142.417228711, 44.294308816 ], [ 142.418812021, 44.293389153 ], [ 142.418567222, 44.293182333 ], [ 142.419475358999989, 44.292639339 ], [ 142.417536973000011, 44.290963287 ], [ 142.417854806, 44.290785528 ], [ 142.417491944, 44.290504633 ], [ 142.417184959999986, 44.29018155 ], [ 142.41705883, 44.28995123 ], [ 142.416932972000012, 44.289710722 ] ] ] } },
{ "type": "Feature", "properties": { "A29_001": "01221", "A29_002": "北海道", "A29_003": "名寄市", "A29_004": 9, "A29_005": "商業地域", "A29_006": 80, "A29_007": 400, "A29_008": null }, "geometry": { "type": "Polygon", "coordinates": [ [ [ 142.416932972000012, 44.289710722 ], [ 142.41705883, 44.28995123 ], [ 142.417184959999986, 44.29018155 ], [ 142.417491944, 44.290504633 ], [ 142.417854806, 44.290785528 ], [ 142.417536973000011, 44.290963287 ], [ 142.419475358999989, 44.292639339 ], [ 142.418567222, 44.293182333 ], [ 142.418812021, 44.293389153 ], [ 142.417228711, 44.294308816 ], [ 142.416781499, 44.294569928 ], [ 142.417277592, 44.2949997 ], [ 142.41927877099999, 44.293813817 ], [ 142.41952269399999, 44.294011778 ], [ 142.420420766, 44.293483248 ], [ 142.423436028, 44.296133 ], [ 142.423886944, 44.296115556 ], [ 142.424813728, 44.296116151 ], [ 142.42349022799999, 44.294960852 ], [ 142.4221995, 44.29384425 ], [ 142.42123211099999, 44.293010278 ], [ 142.42134975, 44.292928639 ], [ 142.420391916999989, 44.292098639 ], [ 142.420294711, 44.292151704 ], [ 142.41926349, 44.29129112 ], [ 142.41832283, 44.29046541 ], [ 142.417599669999987, 44.28958833 ], [ 142.417273306, 44.289223917 ], [ 142.416932972000012, 44.289710722 ] ] ] } },
{ "type": "Feature", "properties": { "A29_001": "01221", "A29_002": "北海道", "A29_003": "名寄市", "A29_004": 10, "A29_005": "準工業地域", "A29_006": 60, "A29_007": 200, "A29_008": null }, "geometry": { "type": "Polygon", "coordinates": [ [ [ 142.417498362, 44.288978175 ], [ 142.417348806, 44.288843761 ], [ 142.415228402, 44.287018977 ], [ 142.414140261999989, 44.286057431 ], [ 142.413117277999987, 44.28607754 ], [ 142.41311264, 44.287759411 ], [ 142.415068092000013, 44.287741274 ], [ 142.415056373, 44.287613441 ], [ 142.415487101, 44.287604498 ], [ 142.415483224000013, 44.288620347 ], [ 142.415489408000013, 44.289068191 ], [ 142.415993925, 44.289057014 ], [ 142.416667647999986, 44.289311906 ], [ 142.416932972000012, 44.289710722 ], [ 142.417273306, 44.289223917 ], [ 142.417599669999987, 44.28958833 ], [ 142.41832283, 44.29046541 ], [ 142.41926349, 44.29129112 ], [ 142.420294711, 44.292151704 ], [ 142.420391916999989, 44.292098639 ], [ 142.42134975, 44.292928639 ], [ 142.42123211099999, 44.293010278 ], [ 142.4221995, 44.29384425 ], [ 142.42349022799999, 44.294960852 ], [ 142.424813728, 44.296116151 ], [ 142.426381515, 44.296117141 ], [ 142.42604750000001, 44.295717556 ], [ 142.42580805599999, 44.295458472 ], [ 142.42566596, 44.29531005 ], [ 142.425591176000012, 44.295082453 ], [ 142.425506446000014, 44.294757895 ], [ 142.425404385, 44.294562004 ], [ 142.425303082999989, 44.294348722 ], [ 142.423217419, 44.292539465 ], [ 142.422368834999986, 44.291818905 ], [ 142.419900896, 44.289652604 ], [ 142.419386179000014, 44.289285833 ], [ 142.41885371399999, 44.289687656 ], [ 142.418237349, 44.289142332 ], [ 142.417732410000013, 44.288721514 ], [ 142.417498362, 44.288978175 ] ] ] } },
{ "type": "Feature", "properties": { "A29_001": "01221", "A29_002": "北海道", "A29_003": "名寄市", "A29_004": 1, "A29_005": "第一種低層住居専用地域", "A29_006": 50, "A29_007": 80, "A29_008": null }, "geometry": { "type": "Polygon", "coordinates": [ [ [ 142.41545654399999, 44.296631987 ], [ 142.41545179900001, 44.296158546 ], [ 142.41546388899999, 44.293548056 ], [ 142.412132587, 44.293547476 ], [ 142.41212861599999, 44.294640629 ], [ 142.411092593, 44.294648974 ], [ 142.411065807999989, 44.295721912 ], [ 142.408405377, 44.295735511 ], [ 142.408407323, 44.29614007 ], [ 142.410731328, 44.296130294 ], [ 142.410747082, 44.296490858 ], [ 142.411444074, 44.296492379 ], [ 142.411447700999986, 44.29671055 ], [ 142.41193544399999, 44.296703809 ], [ 142.411908966999988, 44.298612418 ], [ 142.415460556, 44.298618167 ], [ 142.415466167, 44.297311778 ], [ 142.41546, 44.296816444 ], [ 142.41545654399999, 44.296631987 ] ] ] } },
{ "type": "Feature", "properties": { "A29_001": "01221", "A29_002": "北海道", "A29_003": "名寄市", "A29_004": 5, "A29_005": "第一種住居地域", "A29_006": 60, "A29_007": 200, "A29_008": null }, "geometry": { "type": "Polygon", "coordinates": [ [ [ 142.417354407, 44.288538454 ], [ 142.417348806, 44.288843761 ], [ 142.417498362, 44.288978175 ], [ 142.417732410000013, 44.288721514 ], [ 142.418237349, 44.289142332 ], [ 142.41885371399999, 44.289687656 ], [ 142.419386179000014, 44.289285833 ], [ 142.419900896, 44.289652604 ], [ 142.422368834999986, 44.291818905 ], [ 142.423217419, 44.292539465 ], [ 142.425303082999989, 44.294348722 ], [ 142.425404385, 44.294562004 ], [ 142.425506446000014, 44.294757895 ], [ 142.425591176000012, 44.295082453 ], [ 142.42566596, 44.29531005 ], [ 142.42580805599999, 44.295458472 ], [ 142.42604750000001, 44.295717556 ], [ 142.426381515, 44.296117141 ], [ 142.427744194000013, 44.297323083 ], [ 142.42942827499999, 44.298881213 ], [ 142.429442142999989, 44.296065849 ], [ 142.429457563, 44.293103589 ], [ 142.429480683, 44.291081148 ], [ 142.427080017, 44.291093696 ], [ 142.427106258, 44.290552039 ], [ 142.42599639299999, 44.290554934 ], [ 142.426041125000012, 44.291129169 ], [ 142.422420745000011, 44.291108082 ], [ 142.422423922, 44.290516689 ], [ 142.42247295300001, 44.288984301 ], [ 142.420188857, 44.289007709 ], [ 142.420210028000014, 44.288253611 ], [ 142.420209758, 44.286794801 ], [ 142.420208008, 44.286087593 ], [ 142.417766222000012, 44.286086833 ], [ 142.41776637699999, 44.286629221 ], [ 142.41730066, 44.286627319 ], [ 142.41726868, 44.288046292 ], [ 142.417358191, 44.288046924 ], [ 142.417354407, 44.288538454 ] ] ] } },
{ "type": "Feature", "properties": { "A29_001": "01221", "A29_002": "北海道", "A29_003": "名寄市", "A29_004": 3, "A29_005": "第一種中高層住居専用地域", "A29_006": 60, "A29_007": 200, "A29_008": null }, "geometry": { "type": "Polygon", "coordinates": [ [ [ 142.42241249700001, 44.298574465 ], [ 142.422412917, 44.296127778 ], [ 142.41545179900001, 44.296158546 ], [ 142.41545654399999, 44.296631987 ], [ 142.416248978999988, 44.296629965 ], [ 142.416241934999988, 44.29636781 ], [ 142.417132396999989, 44.296374409 ], [ 142.417139255, 44.296505725 ], [ 142.417419876, 44.296508204 ], [ 142.41742313, 44.296629216 ], [ 142.417820623000011, 44.296631249 ], [ 142.41781891799999, 44.297409004 ], [ 142.417777339, 44.297417357 ], [ 142.417753357, 44.298558363 ], [ 142.417823938, 44.298708705 ], [ 142.417826694000013, 44.299800569 ], [ 142.420009889, 44.299780972 ], [ 142.41999878499999, 44.301122691 ], [ 142.421637944, 44.301136056 ], [ 142.422406028000012, 44.30113212 ], [ 142.422401243, 44.2992261 ], [ 142.42241249700001, 44.298574465 ] ] ] } },
{ "type": "Feature", "properties": { "A29_001": "01221", "A29_002": "北海道", "A29_003": "名寄市", "A29_004": 11, "A29_005": "工業地域", "A29_006": 60, "A29_007": 200, "A29_008": null }, "geometry": { "type": "Polygon", "coordinates": [ [ [ 142.42942827499999, 44.298881213 ], [ 142.427744194000013, 44.297323083 ], [ 142.426381515, 44.296117141 ], [ 142.423886944, 44.296115556 ], [ 142.423436028, 44.296133 ], [ 142.422412917, 44.296127778 ], [ 142.42241249700001, 44.298574465 ], [ 142.424741366, 44.298577079 ], [ 142.424780000999988, 44.299842861 ], [ 142.427017806, 44.299869111 ], [ 142.427021991, 44.298351087 ], [ 142.426934861, 44.298185327 ], [ 142.426925361, 44.297979567 ], [ 142.427923904000011, 44.298325614 ], [ 142.428175922, 44.298459081 ], [ 142.428182400999987, 44.299312761 ], [ 142.428814698, 44.299851872 ], [ 142.428825585, 44.300171884 ], [ 142.429408861000013, 44.300170105 ], [ 142.429399232, 44.30112436 ], [ 142.43088874599999, 44.301103187 ], [ 142.431183886000014, 44.301011796 ], [ 142.429432951, 44.299503954 ], [ 142.42942827499999, 44.298881213 ] ] ] } },
{ "type": "Feature", "properties": { "A29_001": "01221", "A29_002": "北海道", "A29_003": "名寄市", "A29_004": 3, "A29_005": "第一種中高層住居専用地域", "A29_006": 60, "A29_007": 200, "A29_008": null }, "geometry": { "type": "Polygon", "coordinates": [ [ [ 142.465425016000012, 44.327995201 ], [ 142.461631657, 44.32800364 ], [ 142.459555220999988, 44.328002139 ], [ 142.45954076699999, 44.330691242 ], [ 142.45930486, 44.330714192 ], [ 142.45926653, 44.331302459 ], [ 142.46544432799999, 44.331265537 ], [ 142.465431736999989, 44.329336709 ], [ 142.465425016000012, 44.327995201 ] ] ] } },
{ "type": "Feature", "properties": { "A29_001": "01221", "A29_002": "北海道", "A29_003": "名寄市", "A29_004": 3, "A29_005": "第一種中高層住居専用地域", "A29_006": 60, "A29_007": 200, "A29_008": null }, "geometry": { "type": "Polygon", "coordinates": [ [ [ 142.468760433, 44.333812709 ], [ 142.46564398000001, 44.333824732 ], [ 142.465625705, 44.336000014 ], [ 142.467309763, 44.336008673 ], [ 142.470777777, 44.336020864 ], [ 142.47100333, 44.3356587 ], [ 142.472239034000012, 44.333806731 ], [ 142.468760433, 44.333812709 ] ] ] } },
{ "type": "Feature", "properties": { "A29_001": "01221", "A29_002": "北海道", "A29_003": "名寄市", "A29_004": 5, "A29_005": "第一種住居地域", "A29_006": 60, "A29_007": 200, "A29_008": null }, "geometry": { "type": "Polygon", "coordinates": [ [ [ 142.474992398000012, 44.336370426 ], [ 142.470520327, 44.336360419 ], [ 142.470777777, 44.336020864 ], [ 142.467309763, 44.336008673 ], [ 142.465625705, 44.336000014 ], [ 142.465601834000012, 44.336634376 ], [ 142.466982859000012, 44.336632488 ], [ 142.46833478, 44.336628023 ], [ 142.4696998, 44.336647168 ], [ 142.47106855199999, 44.336651359 ], [ 142.47298876799999, 44.336650594 ], [ 142.474987585, 44.336642714 ], [ 142.474992398000012, 44.336370426 ] ] ] } },
{ "type": "Feature", "properties": { "A29_001": "01221", "A29_002": "北海道", "A29_003": "名寄市", "A29_004": 11, "A29_005": "工業地域", "A29_006": 60, "A29_007": 200, "A29_008": null }, "geometry": { "type": "Polygon", "coordinates": [ [ [ 142.464185041, 44.341374602 ], [ 142.465599203000011, 44.341363843 ], [ 142.465601834000012, 44.336634376 ], [ 142.465625705, 44.336000014 ], [ 142.46564398000001, 44.333824732 ], [ 142.465416033, 44.333824122 ], [ 142.46544432799999, 44.331265537 ], [ 142.45926653, 44.331302459 ], [ 142.45930486, 44.330714192 ], [ 142.45954076699999, 44.330691242 ], [ 142.459555220999988, 44.328002139 ], [ 142.459605446000012, 44.321254825 ], [ 142.450278472, 44.321262667 ], [ 142.450270120999988, 44.32434973 ], [ 142.450240979, 44.326304037 ], [ 142.452208471, 44.326269084 ], [ 142.45330327, 44.326273381 ], [ 142.454776855, 44.326280785 ], [ 142.454753583000013, 44.331295556 ], [ 142.450842037, 44.331289811 ], [ 142.450252889000012, 44.33128963 ], [ 142.450235165, 44.333216547 ], [ 142.450263122, 44.337007974 ], [ 142.450241408000011, 44.339526251 ], [ 142.45023970299999, 44.340935412 ], [ 142.450263174000014, 44.341360685 ], [ 142.450671959, 44.341337059 ], [ 142.451293615, 44.341327666 ], [ 142.453117084000013, 44.341328548 ], [ 142.454920058999988, 44.341344069 ], [ 142.457216326, 44.341354977 ], [ 142.458744696999986, 44.341392567 ], [ 142.46116942399999, 44.341363076 ], [ 142.464185041, 44.341374602 ] ] ] } },
{ "type": "Feature", "properties": { "A29_001": "01221", "A29_002": "北海道", "A29_003": "名寄市", "A29_004": 6, "A29_005": "第二種住居地域", "A29_006": 60, "A29_007": 200, "A29_008": null }, "geometry": { "type": "Polygon", "coordinates": [ [ [ 142.453117084000013, 44.341328548 ], [ 142.451293615, 44.341327666 ], [ 142.450671959, 44.341337059 ], [ 142.450690001, 44.343650176 ], [ 142.45314295, 44.34365255 ], [ 142.45311913099999, 44.342733681 ], [ 142.453117084000013, 44.341328548 ] ] ] } },
{ "type": "Feature", "properties": { "A29_001": "01221", "A29_002": "北海道", "A29_003": "名寄市", "A29_004": 1, "A29_005": "第一種低層住居専用地域", "A29_006": 40, "A29_007": 60, "A29_008": null }, "geometry": { "type": "Polygon", "coordinates": [ [ [ 142.448108080999987, 44.341338255 ], [ 142.44580179, 44.34133941 ], [ 142.44581222799999, 44.341595746 ], [ 142.444502492999987, 44.341593947 ], [ 142.443650332, 44.341627385 ], [ 142.44328334, 44.341680345 ], [ 142.442898859, 44.341743107 ], [ 142.442749297, 44.341793 ], [ 142.44294949499999, 44.3426876 ], [ 142.44318578299999, 44.343604486 ], [ 142.443142951, 44.344591714 ], [ 142.443184788999986, 44.345828044 ], [ 142.443111980999987, 44.34612361 ], [ 142.448053498, 44.346111073 ], [ 142.448108080999987, 44.341338255 ] ] ] } },
{ "type": "Feature", "properties": { "A29_001": "01221", "A29_002": "北海道", "A29_003": "名寄市", "A29_004": 1, "A29_005": "第一種低層住居専用地域", "A29_006": 50, "A29_007": 80, "A29_008": null }, "geometry": { "type": "Polygon", "coordinates": [ [ [ 142.448108080999987, 44.341338255 ], [ 142.448053498, 44.346111073 ], [ 142.449808370999989, 44.346093354 ], [ 142.44980719599999, 44.343993818 ], [ 142.449794071000014, 44.341342624 ], [ 142.448108080999987, 44.341338255 ] ] ] } },
{ "type": "Feature", "properties": { "A29_001": "01221", "A29_002": "北海道", "A29_003": "名寄市", "A29_004": 4, "A29_005": "第二種中高層住居専用地域", "A29_006": 60, "A29_007": 200, "A29_008": null }, "geometry": { "type": "Polygon", "coordinates": [ [ [ 142.454920058999988, 44.341344069 ], [ 142.453117084000013, 44.341328548 ], [ 142.45311913099999, 44.342733681 ], [ 142.45314295, 44.34365255 ], [ 142.450690001, 44.343650176 ], [ 142.450669632, 44.346105683 ], [ 142.454908429, 44.346087244 ], [ 142.454914548, 44.343902318 ], [ 142.454920058999988, 44.341344069 ] ] ] } },
{ "type": "Feature", "properties": { "A29_001": "01221", "A29_002": "北海道", "A29_003": "名寄市", "A29_004": 3, "A29_005": "第一種中高層住居専用地域", "A29_006": 60, "A29_007": 200, "A29_008": null }, "geometry": { "type": "Polygon", "coordinates": [ [ [ 142.474987585, 44.336642714 ], [ 142.47298876799999, 44.336650594 ], [ 142.47106855199999, 44.336651359 ], [ 142.4696998, 44.336647168 ], [ 142.46833478, 44.336628023 ], [ 142.466982859000012, 44.336632488 ], [ 142.465601834000012, 44.336634376 ], [ 142.465599203000011, 44.341363843 ], [ 142.465579823000013, 44.34453769 ], [ 142.46573920599999, 44.344538392 ], [ 142.46574664900001, 44.344719856 ], [ 142.46787394899999, 44.344698357 ], [ 142.468344499000011, 44.345510191 ], [ 142.468684464, 44.346100647 ], [ 142.474172528999986, 44.346079899 ], [ 142.474294929, 44.344817542 ], [ 142.474445968999987, 44.343392548 ], [ 142.47455936099999, 44.342105018 ], [ 142.474606185, 44.341404839 ], [ 142.47466153900001, 44.340415805 ], [ 142.47469435799999, 44.339956934 ], [ 142.474781885999988, 44.339080549 ], [ 142.474814619999989, 44.338618701 ], [ 142.474874043, 44.337924294 ], [ 142.474924842, 44.337218104 ], [ 142.474987585, 44.336642714 ] ] ] } },
{ "type": "Feature", "properties": { "A29_001": "01221", "A29_002": "北海道", "A29_003": "名寄市", "A29_004": 10, "A29_005": "準工業地域", "A29_006": 60, "A29_007": 200, "A29_008": null }, "geometry": { "type": "Polygon", "coordinates": [ [ [ 142.458744696999986, 44.341392567 ], [ 142.457216326, 44.341354977 ], [ 142.454920058999988, 44.341344069 ], [ 142.454914548, 44.343902318 ], [ 142.454908429, 44.346087244 ], [ 142.454894513, 44.346380923 ], [ 142.456381222, 44.346381694 ], [ 142.458032637, 44.346396104 ], [ 142.458007243999987, 44.345166104 ], [ 142.458045725, 44.343689537 ], [ 142.458850023999986, 44.34369773 ], [ 142.45881569299999, 44.343080104 ], [ 142.458769539, 44.343016339 ], [ 142.458744696999986, 44.341392567 ] ] ] } },
{ "type": "Feature", "properties": { "A29_001": "01221", "A29_002": "北海道", "A29_003": "名寄市", "A29_004": 6, "A29_005": "第二種住居地域", "A29_006": 60, "A29_007": 200, "A29_008": null }, "geometry": { "type": "Polygon", "coordinates": [ [ [ 142.456356774, 44.346631745 ], [ 142.456381222, 44.346381694 ], [ 142.454894513, 44.346380923 ], [ 142.454908429, 44.346087244 ], [ 142.450669632, 44.346105683 ], [ 142.45063738799999, 44.346743136 ], [ 142.45635670199999, 44.34673595 ], [ 142.456356774, 44.346631745 ] ] ] } },
{ "type": "Feature", "properties": { "A29_001": "01221", "A29_002": "北海道", "A29_003": "名寄市", "A29_004": 6, "A29_005": "第二種住居地域", "A29_006": 60, "A29_007": 200, "A29_008": null }, "geometry": { "type": "Polygon", "coordinates": [ [ [ 142.463840025, 44.346349356 ], [ 142.463938520999989, 44.346194732 ], [ 142.464091969, 44.345553402 ], [ 142.46418731899999, 44.345121672 ], [ 142.46420864000001, 44.344626852 ], [ 142.464237449, 44.342944398 ], [ 142.464185041, 44.341374602 ], [ 142.46116942399999, 44.341363076 ], [ 142.458744696999986, 44.341392567 ], [ 142.458769539, 44.343016339 ], [ 142.45881569299999, 44.343080104 ], [ 142.458850023999986, 44.34369773 ], [ 142.458045725, 44.343689537 ], [ 142.458007243999987, 44.345166104 ], [ 142.458032637, 44.346396104 ], [ 142.458017732, 44.347618674 ], [ 142.46046504899999, 44.347609394 ], [ 142.462731170000012, 44.347606737 ], [ 142.462713072000014, 44.346411215 ], [ 142.46383957899999, 44.346414323 ], [ 142.463840025, 44.346349356 ] ] ] } },
{ "type": "Feature", "properties": { "A29_001": "01221", "A29_002": "北海道", "A29_003": "名寄市", "A29_004": 7, "A29_005": "準住居地域", "A29_006": 60, "A29_007": 200, "A29_008": null }, "geometry": { "type": "Polygon", "coordinates": [ [ [ 142.458017732, 44.347618674 ], [ 142.458032637, 44.346396104 ], [ 142.456381222, 44.346381694 ], [ 142.456356774, 44.346631745 ], [ 142.45635670199999, 44.34673595 ], [ 142.456355828999989, 44.348010076 ], [ 142.457219235999986, 44.347992882 ], [ 142.457222605999988, 44.347620073 ], [ 142.458017732, 44.347618674 ] ] ] } },
{ "type": "Feature", "properties": { "A29_001": "01221", "A29_002": "北海道", "A29_003": "名寄市", "A29_004": 4, "A29_005": "第二種中高層住居専用地域", "A29_006": 60, "A29_007": 200, "A29_008": null }, "geometry": { "type": "Polygon", "coordinates": [ [ [ 142.450640224000011, 44.348052808 ], [ 142.45227114, 44.34803443 ], [ 142.45227387700001, 44.348922135 ], [ 142.45561384199999, 44.348909875 ], [ 142.456348101, 44.348909611 ], [ 142.456355828999989, 44.348010076 ], [ 142.45635670199999, 44.34673595 ], [ 142.45063738799999, 44.346743136 ], [ 142.450640224000011, 44.348052808 ] ] ] } },
{ "type": "Feature", "properties": { "A29_001": "01221", "A29_002": "北海道", "A29_003": "名寄市", "A29_004": 1, "A29_005": "第一種低層住居専用地域", "A29_006": 40, "A29_007": 60, "A29_008": null }, "geometry": { "type": "Polygon", "coordinates": [ [ [ 142.442909652999987, 44.346740198 ], [ 142.44197542, 44.34912302 ], [ 142.44211296899999, 44.3496069 ], [ 142.44178595299999, 44.350787779 ], [ 142.44168576300001, 44.351259138 ], [ 142.44167154499999, 44.351428384 ], [ 142.443236788, 44.351418096 ], [ 142.446238537, 44.351428259 ], [ 142.447377566, 44.35142564 ], [ 142.447426635, 44.346747082 ], [ 142.445727484, 44.346752851 ], [ 142.442909652999987, 44.346740198 ] ] ] } },
{ "type": "Feature", "properties": { "A29_001": "01221", "A29_002": "北海道", "A29_003": "名寄市", "A29_004": 3, "A29_005": "第一種中高層住居専用地域", "A29_006": 60, "A29_007": 200, "A29_008": null }, "geometry": { "type": "Polygon", "coordinates": [ [ [ 142.476221673, 44.336314962 ], [ 142.47622167599999, 44.33722864 ], [ 142.47605348799999, 44.338521966 ], [ 142.47598059500001, 44.339773196 ], [ 142.47587244499999, 44.341072533 ], [ 142.47577490399999, 44.342346833 ], [ 142.47566753000001, 44.34341513 ], [ 142.475578358, 44.344380837 ], [ 142.475499054000011, 44.345402958 ], [ 142.475430434, 44.346213585 ], [ 142.47529940199999, 44.347052321 ], [ 142.475037683000011, 44.348054534 ], [ 142.474843958, 44.348560349 ], [ 142.474408188000012, 44.349514168 ], [ 142.474115430000012, 44.35025743 ], [ 142.473930069, 44.350717937 ], [ 142.473894941999987, 44.351385538 ], [ 142.477298101, 44.351388738 ], [ 142.477778668000013, 44.35139173 ], [ 142.47814614699999, 44.351062108 ], [ 142.478137202999989, 44.349556069 ], [ 142.478105996000011, 44.346942262 ], [ 142.47811689299999, 44.346395195 ], [ 142.477901342, 44.346394811 ], [ 142.477910063, 44.345488325 ], [ 142.4819589, 44.345477586 ], [ 142.48135090299999, 44.344762857 ], [ 142.48127989299999, 44.344693089 ], [ 142.48097936799999, 44.343844904 ], [ 142.480735665999987, 44.342803361 ], [ 142.480547683, 44.342150609 ], [ 142.480286697, 44.341666667 ], [ 142.480128438, 44.341372941 ], [ 142.478144541, 44.34136925 ], [ 142.478155227, 44.339819287 ], [ 142.478159076999987, 44.338473798 ], [ 142.478143039, 44.337108588 ], [ 142.478146197, 44.336331139 ], [ 142.476221673, 44.336314962 ] ] ] } },
{ "type": "Feature", "properties": { "A29_001": "01221", "A29_002": "北海道", "A29_003": "名寄市", "A29_004": 9, "A29_005": "商業地域", "A29_006": 80, "A29_007": 400, "A29_008": null }, "geometry": { "type": "Polygon", "coordinates": [ [ [ 142.462713072000014, 44.346411215 ], [ 142.462731170000012, 44.347606737 ], [ 142.46046504899999, 44.347609394 ], [ 142.458017732, 44.347618674 ], [ 142.457222605999988, 44.347620073 ], [ 142.457219235999986, 44.347992882 ], [ 142.456355828999989, 44.348010076 ], [ 142.456348101, 44.348909611 ], [ 142.45561384199999, 44.348909875 ], [ 142.455595944, 44.349721686 ], [ 142.455587025, 44.350880463 ], [ 142.454497049, 44.350886884 ], [ 142.45450178199999, 44.351398724 ], [ 142.453637528, 44.351399663 ], [ 142.45365897, 44.352464085 ], [ 142.456340989000012, 44.352476262 ], [ 142.45633684, 44.352763939 ], [ 142.457224137, 44.352756383 ], [ 142.457219880999986, 44.352826719 ], [ 142.458032255, 44.352821758 ], [ 142.458026235, 44.35167418 ], [ 142.459390447, 44.351673804 ], [ 142.46290069299999, 44.351675627 ], [ 142.463816132, 44.351679184 ], [ 142.464514392000012, 44.351688334 ], [ 142.464485731, 44.35122084 ], [ 142.464515035, 44.349622232 ], [ 142.463817556, 44.349623698 ], [ 142.46383957899999, 44.346414323 ], [ 142.462713072000014, 44.346411215 ] ] ] } },
{ "type": "Feature", "properties": { "A29_001": "01221", "A29_002": "北海道", "A29_003": "名寄市", "A29_004": 1, "A29_005": "第一種低層住居専用地域", "A29_006": 50, "A29_007": 80, "A29_008": null }, "geometry": { "type": "Polygon", "coordinates": [ [ [ 142.446266243, 44.353773327 ], [ 142.447847741, 44.353764518 ], [ 142.449785351, 44.353739631 ], [ 142.449784419, 44.35136305 ], [ 142.449793324000012, 44.350509217 ], [ 142.449779041, 44.350510943 ], [ 142.449771723, 44.348702254 ], [ 142.449802613, 44.346740882 ], [ 142.447426635, 44.346747082 ], [ 142.447377566, 44.35142564 ], [ 142.446238537, 44.351428259 ], [ 142.446266243, 44.353773327 ] ] ] } },
{ "type": "Feature", "properties": { "A29_001": "01221", "A29_002": "北海道", "A29_003": "名寄市", "A29_004": 6, "A29_005": "第二種住居地域", "A29_006": 60, "A29_007": 200, "A29_008": null }, "geometry": { "type": "Polygon", "coordinates": [ [ [ 142.446255978000011, 44.354410609 ], [ 142.446266243, 44.353773327 ], [ 142.446238537, 44.351428259 ], [ 142.443236788, 44.351418096 ], [ 142.443249177000013, 44.355188133 ], [ 142.446070139, 44.355486012 ], [ 142.44617929899999, 44.354933347 ], [ 142.446255978000011, 44.354410609 ] ] ] } },
{ "type": "Feature", "properties": { "A29_001": "01221", "A29_002": "北海道", "A29_003": "名寄市", "A29_004": 4, "A29_005": "第二種中高層住居専用地域", "A29_006": 60, "A29_007": 200, "A29_008": null }, "geometry": { "type": "Polygon", "coordinates": [ [ [ 142.45633684, 44.352763939 ], [ 142.456340989000012, 44.352476262 ], [ 142.45365897, 44.352464085 ], [ 142.453637528, 44.351399663 ], [ 142.45450178199999, 44.351398724 ], [ 142.454497049, 44.350886884 ], [ 142.455587025, 44.350880463 ], [ 142.455595944, 44.349721686 ], [ 142.45251954599999, 44.349716896 ], [ 142.451856076000013, 44.349726302 ], [ 142.45066996, 44.349737153 ], [ 142.45068207700001, 44.351987304 ], [ 142.450633192, 44.354131161 ], [ 142.45065857099999, 44.355958443 ], [ 142.45372046, 44.355962664 ], [ 142.45633608899999, 44.355954212 ], [ 142.45633684, 44.352763939 ] ] ] } },
{ "type": "Feature", "properties": { "A29_001": "01221", "A29_002": "北海道", "A29_003": "名寄市", "A29_004": 6, "A29_005": "第二種住居地域", "A29_006": 60, "A29_007": 200, "A29_008": null }, "geometry": { "type": "Polygon", "coordinates": [ [ [ 142.458032255, 44.352821758 ], [ 142.458033621999988, 44.355964717 ], [ 142.462829161, 44.355971651 ], [ 142.462853306, 44.352838188 ], [ 142.461281699000011, 44.352827719 ], [ 142.458032255, 44.352821758 ] ] ] } },
{ "type": "Feature", "properties": { "A29_001": "01221", "A29_002": "北海道", "A29_003": "名寄市", "A29_004": 8, "A29_005": "近隣商業地域", "A29_006": 80, "A29_007": 200, "A29_008": null }, "geometry": { "type": "Polygon", "coordinates": [ [ [ 142.464514392000012, 44.351688334 ], [ 142.463816132, 44.351679184 ], [ 142.46290069299999, 44.351675627 ], [ 142.459390447, 44.351673804 ], [ 142.458026235, 44.35167418 ], [ 142.458032255, 44.352821758 ], [ 142.461281699000011, 44.352827719 ], [ 142.462853306, 44.352838188 ], [ 142.462829161, 44.355971651 ], [ 142.46471602299999, 44.355964621 ], [ 142.464728693000012, 44.355261201 ], [ 142.464718361, 44.353986722 ], [ 142.46472272, 44.352840329 ], [ 142.464509407, 44.352838835 ], [ 142.464514392000012, 44.351688334 ] ] ] } },
{ "type": "Feature", "properties": { "A29_001": "01221", "A29_002": "北海道", "A29_003": "名寄市", "A29_004": 4, "A29_005": "第二種中高層住居専用地域", "A29_006": 60, "A29_007": 200, "A29_008": null }, "geometry": { "type": "Polygon", "coordinates": [ [ [ 142.46677731299999, 44.346732196 ], [ 142.466778869, 44.346937561 ], [ 142.466802535, 44.347429885 ], [ 142.46690235599999, 44.347799014 ], [ 142.46718796799999, 44.348459073 ], [ 142.467359128999988, 44.348751947 ], [ 142.467266558, 44.3489594 ], [ 142.46726138599999, 44.349971273 ], [ 142.467472577, 44.349957833 ], [ 142.467478312, 44.350313457 ], [ 142.467137787000013, 44.35030047 ], [ 142.467128120000012, 44.350848306 ], [ 142.467124191000011, 44.352199746 ], [ 142.467142236, 44.353993295 ], [ 142.46631150499999, 44.353986496 ], [ 142.466378569, 44.355964353 ], [ 142.469598888, 44.35597729 ], [ 142.472618297999986, 44.355945893 ], [ 142.472607823, 44.353487359 ], [ 142.472651727, 44.351072761 ], [ 142.472657031000011, 44.350667865 ], [ 142.472910136, 44.34992603 ], [ 142.47393143, 44.347576206 ], [ 142.474092377, 44.34695178 ], [ 142.47411476, 44.346713329 ], [ 142.47292407099999, 44.346706618 ], [ 142.47112393899999, 44.346711613 ], [ 142.46854021199999, 44.34673078 ], [ 142.46677731299999, 44.346732196 ] ] ] } },
{ "type": "Feature", "properties": { "A29_001": "01221", "A29_002": "北海道", "A29_003": "名寄市", "A29_004": 10, "A29_005": "準工業地域", "A29_006": 60, "A29_007": 200, "A29_008": null }, "geometry": { "type": "Polygon", "coordinates": [ [ [ 142.466375277, 44.356395263 ], [ 142.466385185, 44.356170399 ], [ 142.466378569, 44.355964353 ], [ 142.46631150499999, 44.353986496 ], [ 142.467142236, 44.353993295 ], [ 142.467124191000011, 44.352199746 ], [ 142.467128120000012, 44.350848306 ], [ 142.467137787000013, 44.35030047 ], [ 142.467478312, 44.350313457 ], [ 142.467472577, 44.349957833 ], [ 142.46726138599999, 44.349971273 ], [ 142.467266558, 44.3489594 ], [ 142.467359128999988, 44.348751947 ], [ 142.46718796799999, 44.348459073 ], [ 142.46690235599999, 44.347799014 ], [ 142.466802535, 44.347429885 ], [ 142.466778869, 44.346937561 ], [ 142.46677731299999, 44.346732196 ], [ 142.466767917999988, 44.346095334 ], [ 142.468684464, 44.346100647 ], [ 142.468344499000011, 44.345510191 ], [ 142.46787394899999, 44.344698357 ], [ 142.46574664900001, 44.344719856 ], [ 142.46573920599999, 44.344538392 ], [ 142.465579823000013, 44.34453769 ], [ 142.465599203000011, 44.341363843 ], [ 142.464185041, 44.341374602 ], [ 142.464237449, 44.342944398 ], [ 142.46420864000001, 44.344626852 ], [ 142.46418731899999, 44.345121672 ], [ 142.464091969, 44.345553402 ], [ 142.463938520999989, 44.346194732 ], [ 142.463840025, 44.346349356 ], [ 142.463817556, 44.349623698 ], [ 142.464515035, 44.349622232 ], [ 142.464485731, 44.35122084 ], [ 142.464514392000012, 44.351688334 ], [ 142.464509407, 44.352838835 ], [ 142.46472272, 44.352840329 ], [ 142.464718361, 44.353986722 ], [ 142.464728693000012, 44.355261201 ], [ 142.46471602299999, 44.355964621 ], [ 142.46469094599999, 44.35642093 ], [ 142.466375277, 44.356395263 ] ] ] } },
{ "type": "Feature", "properties": { "A29_001": "01221", "A29_002": "北海道", "A29_003": "名寄市", "A29_004": 7, "A29_005": "準住居地域", "A29_006": 60, "A29_007": 200, "A29_008": null }, "geometry": { "type": "Polygon", "coordinates": [ [ [ 142.466375277, 44.356395263 ], [ 142.46469094599999, 44.35642093 ], [ 142.46471602299999, 44.355964621 ], [ 142.462829161, 44.355971651 ], [ 142.458033621999988, 44.355964717 ], [ 142.458026773, 44.356861584 ], [ 142.466318057, 44.356852457 ], [ 142.466375277, 44.356395263 ] ] ] } },
{ "type": "Feature", "properties": { "A29_001": "01221", "A29_002": "北海道", "A29_003": "名寄市", "A29_004": 6, "A29_005": "第二種住居地域", "A29_006": 60, "A29_007": 200, "A29_008": null }, "geometry": { "type": "Polygon", "coordinates": [ [ [ 142.473894941999987, 44.351385538 ], [ 142.473930069, 44.350717937 ], [ 142.474115430000012, 44.35025743 ], [ 142.474408188000012, 44.349514168 ], [ 142.474843958, 44.348560349 ], [ 142.475037683000011, 44.348054534 ], [ 142.47529940199999, 44.347052321 ], [ 142.475430434, 44.346213585 ], [ 142.475499054000011, 44.345402958 ], [ 142.475578358, 44.344380837 ], [ 142.47566753000001, 44.34341513 ], [ 142.47577490399999, 44.342346833 ], [ 142.47587244499999, 44.341072533 ], [ 142.47598059500001, 44.339773196 ], [ 142.47605348799999, 44.338521966 ], [ 142.47622167599999, 44.33722864 ], [ 142.476221673, 44.3363177 ], [ 142.474992398000012, 44.336370426 ], [ 142.474987585, 44.336642714 ], [ 142.474924842, 44.337218104 ], [ 142.474874043, 44.337924294 ], [ 142.474814619999989, 44.338618701 ], [ 142.474781885999988, 44.339080549 ], [ 142.47469435799999, 44.339956934 ], [ 142.47466153900001, 44.340415805 ], [ 142.474606185, 44.341404839 ], [ 142.47455936099999, 44.342105018 ], [ 142.474445968999987, 44.343392548 ], [ 142.474294929, 44.344817542 ], [ 142.474172528999986, 44.346079899 ], [ 142.468684464, 44.346100647 ], [ 142.466767917999988, 44.346095334 ], [ 142.46677731299999, 44.346732196 ], [ 142.46854021199999, 44.34673078 ], [ 142.47112393899999, 44.346711613 ], [ 142.47292407099999, 44.346706618 ], [ 142.47411476, 44.346713329 ], [ 142.474092377, 44.34695178 ], [ 142.47393143, 44.347576206 ], [ 142.472910136, 44.34992603 ], [ 142.472657031000011, 44.350667865 ], [ 142.472651727, 44.351072761 ], [ 142.472607823, 44.353487359 ], [ 142.472618297999986, 44.355945893 ], [ 142.469598888, 44.35597729 ], [ 142.466378569, 44.355964353 ], [ 142.466385185, 44.356170399 ], [ 142.466375277, 44.356395263 ], [ 142.466318057, 44.356852457 ], [ 142.467391787, 44.356871064 ], [ 142.47388037499999, 44.35685331 ], [ 142.473849026000011, 44.352701888 ], [ 142.473894941999987, 44.351385538 ] ] ] } },
{ "type": "Feature", "properties": { "A29_001": "01221", "A29_002": "北海道", "A29_003": "名寄市", "A29_004": 5, "A29_005": "第一種住居地域", "A29_006": 60, "A29_007": 200, "A29_008": null }, "geometry": { "type": "Polygon", "coordinates": [ [ [ 142.449784419, 44.35136305 ], [ 142.449785351, 44.353739631 ], [ 142.449789385, 44.354379762 ], [ 142.449756329, 44.3581501 ], [ 142.449310615, 44.358333333 ], [ 142.449305450999987, 44.358660205 ], [ 142.449778533, 44.35865581 ], [ 142.449783478, 44.360947732 ], [ 142.450222948, 44.360954095 ], [ 142.450218401, 44.360455077 ], [ 142.45065598799999, 44.360463585 ], [ 142.450658411, 44.356857383 ], [ 142.456335141000011, 44.356853581 ], [ 142.45632692699999, 44.356567187 ], [ 142.45633608899999, 44.355954212 ], [ 142.45372046, 44.355962664 ], [ 142.45065857099999, 44.355958443 ], [ 142.450633192, 44.354131161 ], [ 142.45068207700001, 44.351987304 ], [ 142.45066996, 44.349737153 ], [ 142.451856076000013, 44.349726302 ], [ 142.45251954599999, 44.349716896 ], [ 142.455595944, 44.349721686 ], [ 142.45561384199999, 44.348909875 ], [ 142.45227387700001, 44.348922135 ], [ 142.45227114, 44.34803443 ], [ 142.450640224000011, 44.348052808 ], [ 142.45063738799999, 44.346743136 ], [ 142.450669632, 44.346105683 ], [ 142.450690001, 44.343650176 ], [ 142.450671959, 44.341337059 ], [ 142.450263174000014, 44.341360685 ], [ 142.45023970299999, 44.340935412 ], [ 142.450241408000011, 44.339526251 ], [ 142.446924481999986, 44.339698427 ], [ 142.445775265, 44.339877129 ], [ 142.44580179, 44.34133941 ], [ 142.448108080999987, 44.341338255 ], [ 142.449794071000014, 44.341342624 ], [ 142.44980719599999, 44.343993818 ], [ 142.449808370999989, 44.346093354 ], [ 142.448053498, 44.346111073 ], [ 142.443111980999987, 44.34612361 ], [ 142.442967270999986, 44.34660753 ], [ 142.442909652999987, 44.346740198 ], [ 142.445727484, 44.346752851 ], [ 142.447426635, 44.346747082 ], [ 142.449802613, 44.346740882 ], [ 142.449771723, 44.348702254 ], [ 142.449779041, 44.350510943 ], [ 142.449793324000012, 44.350509217 ], [ 142.449784419, 44.35136305 ] ] ] } },
{ "type": "Feature", "properties": { "A29_001": "01221", "A29_002": "北海道", "A29_003": "名寄市", "A29_004": 4, "A29_005": "第二種中高層住居専用地域", "A29_006": 60, "A29_007": 200, "A29_008": null }, "geometry": { "type": "Polygon", "coordinates": [ [ [ 142.456335141000011, 44.356853581 ], [ 142.450658411, 44.356857383 ], [ 142.45065598799999, 44.360463585 ], [ 142.450959079, 44.360471199 ], [ 142.450979074, 44.361119818 ], [ 142.456346273, 44.361125783 ], [ 142.456335141000011, 44.356853581 ] ] ] } },
{ "type": "Feature", "properties": { "A29_001": "01221", "A29_002": "北海道", "A29_003": "名寄市", "A29_004": 3, "A29_005": "第一種中高層住居専用地域", "A29_006": 60, "A29_007": 200, "A29_008": null }, "geometry": { "type": "Polygon", "coordinates": [ [ [ 142.44709903399999, 44.361224019 ], [ 142.447107079, 44.361173333 ], [ 142.447103519, 44.360944011 ], [ 142.447212971999988, 44.360944014 ], [ 142.449783478, 44.360947732 ], [ 142.449778533, 44.35865581 ], [ 142.449305450999987, 44.358660205 ], [ 142.449310615, 44.358333333 ], [ 142.449756329, 44.3581501 ], [ 142.449789385, 44.354379762 ], [ 142.446255978000011, 44.354410609 ], [ 142.44617929899999, 44.354933347 ], [ 142.446070139, 44.355486012 ], [ 142.443249177000013, 44.355188133 ], [ 142.443236788, 44.351418096 ], [ 142.44167154499999, 44.351428384 ], [ 142.44163516399999, 44.351648656 ], [ 142.441596202999989, 44.352119153 ], [ 142.441621715, 44.3528795 ], [ 142.441620151, 44.353177029 ], [ 142.441562027, 44.353486859 ], [ 142.441661466, 44.354160309 ], [ 142.441834738000011, 44.354772423 ], [ 142.441927279, 44.35507137 ], [ 142.442166148000013, 44.355618611 ], [ 142.442351898999988, 44.355985254 ], [ 142.442519005, 44.356250496 ], [ 142.442526146, 44.356349152 ], [ 142.442887961, 44.35707676 ], [ 142.443197669, 44.357571521 ], [ 142.443577299999987, 44.358101959 ], [ 142.44364335, 44.358392736 ], [ 142.443980700999987, 44.358894003 ], [ 142.44441158399999, 44.359477294 ], [ 142.444708289, 44.360008899 ], [ 142.445018237, 44.360527321 ], [ 142.446312815, 44.360507199 ], [ 142.446443009, 44.360801628 ], [ 142.44709903399999, 44.361224019 ] ] ] } },
{ "type": "Feature", "properties": { "A29_001": "01221", "A29_002": "北海道", "A29_003": "名寄市", "A29_004": 7, "A29_005": "準住居地域", "A29_006": 60, "A29_007": 200, "A29_008": null }, "geometry": { "type": "Polygon", "coordinates": [ [ [ 142.456346273, 44.361125783 ], [ 142.450979074, 44.361119818 ], [ 142.450978295, 44.36145226 ], [ 142.45114802, 44.361456758 ], [ 142.451158265, 44.361769473 ], [ 142.453222665999988, 44.361760728 ], [ 142.45673728599999, 44.361759189 ], [ 142.457172759, 44.361756641 ], [ 142.457169377000014, 44.361440532 ], [ 142.45634453299999, 44.361446204 ], [ 142.456346273, 44.361125783 ] ] ] } },
{ "type": "Feature", "properties": { "A29_001": "01221", "A29_002": "北海道", "A29_003": "名寄市", "A29_004": 10, "A29_005": "準工業地域", "A29_006": 60, "A29_007": 200, "A29_008": null }, "geometry": { "type": "Polygon", "coordinates": [ [ [ 142.44709903399999, 44.361224019 ], [ 142.446443009, 44.360801628 ], [ 142.446312815, 44.360507199 ], [ 142.445018237, 44.360527321 ], [ 142.445260037, 44.360897974 ], [ 142.445636379, 44.361343435 ], [ 142.446154447, 44.362017855 ], [ 142.449777264, 44.361992117 ], [ 142.450208335000013, 44.361987997 ], [ 142.450208358999987, 44.361763016 ], [ 142.450661494, 44.361770139 ], [ 142.451158265, 44.361769473 ], [ 142.45114802, 44.361456758 ], [ 142.450978295, 44.36145226 ], [ 142.450979074, 44.361119818 ], [ 142.450959079, 44.360471199 ], [ 142.45065598799999, 44.360463585 ], [ 142.450218401, 44.360455077 ], [ 142.450222948, 44.360954095 ], [ 142.449783478, 44.360947732 ], [ 142.447212971999988, 44.360944014 ], [ 142.447103519, 44.360944011 ], [ 142.447107079, 44.361173333 ], [ 142.44709903399999, 44.361224019 ] ] ] } },
{ "type": "Feature", "properties": { "A29_001": "01221", "A29_002": "北海道", "A29_003": "名寄市", "A29_004": 8, "A29_005": "近隣商業地域", "A29_006": 80, "A29_007": 200, "A29_008": null }, "geometry": { "type": "Polygon", "coordinates": [ [ [ 142.458026773, 44.356861584 ], [ 142.458033621999988, 44.355964717 ], [ 142.458032255, 44.352821758 ], [ 142.457219880999986, 44.352826719 ], [ 142.457224137, 44.352756383 ], [ 142.45633684, 44.352763939 ], [ 142.45633608899999, 44.355954212 ], [ 142.45632692699999, 44.356567187 ], [ 142.456335141000011, 44.356853581 ], [ 142.456346273, 44.361125783 ], [ 142.45634453299999, 44.361446204 ], [ 142.457169377000014, 44.361440532 ], [ 142.457172759, 44.361756641 ], [ 142.457179817, 44.362326717 ], [ 142.458040656, 44.362323632 ], [ 142.458023430999987, 44.359938084 ], [ 142.458026773, 44.356861584 ] ] ] } },
{ "type": "Feature", "properties": { "A29_001": "01221", "A29_002": "北海道", "A29_003": "名寄市", "A29_004": 1, "A29_005": "第一種低層住居専用地域", "A29_006": 50, "A29_007": 80, "A29_008": null }, "geometry": { "type": "Polygon", "coordinates": [ [ [ 142.477298101, 44.351388738 ], [ 142.473894941999987, 44.351385538 ], [ 142.473849026000011, 44.352701888 ], [ 142.47388037499999, 44.35685331 ], [ 142.467391787, 44.356871064 ], [ 142.468815858999989, 44.358252966 ], [ 142.470718247, 44.36011883 ], [ 142.473020418, 44.362330163 ], [ 142.47400864299999, 44.363308721 ], [ 142.474507273, 44.361225202 ], [ 142.474519276, 44.361028689 ], [ 142.474468623, 44.359809006 ], [ 142.474487708, 44.359570346 ], [ 142.474510310999989, 44.359461001 ], [ 142.474556189999987, 44.359337162 ], [ 142.47472681299999, 44.358980745 ], [ 142.47497153, 44.358662907 ], [ 142.47542943, 44.35812868 ], [ 142.475540962, 44.357924137 ], [ 142.475716909, 44.357487161 ], [ 142.47598032799999, 44.35698052 ], [ 142.47632296099999, 44.35624784 ], [ 142.476501887000012, 44.355871479 ], [ 142.476526022, 44.355746536 ], [ 142.47650289399999, 44.355625105 ], [ 142.476432799, 44.35534263 ], [ 142.476311411000012, 44.354710358 ], [ 142.476235073999987, 44.354232922 ], [ 142.476198836, 44.353924787 ], [ 142.47622610499999, 44.35348831 ], [ 142.476210364, 44.353172902 ], [ 142.47621953, 44.352610189 ], [ 142.47668447699999, 44.351955419 ], [ 142.477298101, 44.351388738 ] ] ] } },
{ "type": "Feature", "properties": { "A29_001": "01221", "A29_002": "北海道", "A29_003": "名寄市", "A29_004": 3, "A29_005": "第一種中高層住居専用地域", "A29_006": 60, "A29_007": 200, "A29_008": null }, "geometry": { "type": "Polygon", "coordinates": [ [ [ 142.449777264, 44.361992117 ], [ 142.446154447, 44.362017855 ], [ 142.446889774, 44.363149676 ], [ 142.447424348, 44.363880322 ], [ 142.447690126999987, 44.363888471 ], [ 142.448321856, 44.364832054 ], [ 142.448890911, 44.365721453 ], [ 142.449771231, 44.365744715 ], [ 142.449777264, 44.361992117 ] ] ] } },
{ "type": "Feature", "properties": { "A29_001": "01221", "A29_002": "北海道", "A29_003": "名寄市", "A29_004": 3, "A29_005": "第一種中高層住居専用地域", "A29_006": 60, "A29_007": 200, "A29_008": null }, "geometry": { "type": "Polygon", "coordinates": [ [ [ 142.45673728599999, 44.361759189 ], [ 142.453222665999988, 44.361760728 ], [ 142.451158265, 44.361769473 ], [ 142.450661494, 44.361770139 ], [ 142.450636906999989, 44.36614986 ], [ 142.45675312099999, 44.36614642 ], [ 142.45673728599999, 44.361759189 ] ] ] } },
{ "type": "Feature", "properties": { "A29_001": "01221", "A29_002": "北海道", "A29_003": "名寄市", "A29_004": 3, "A29_005": "第一種中高層住居専用地域", "A29_006": 60, "A29_007": 200, "A29_008": null }, "geometry": { "type": "Polygon", "coordinates": [ [ [ 142.47400616499999, 44.364032967 ], [ 142.473851472, 44.363860112 ], [ 142.47400864299999, 44.363308721 ], [ 142.473020418, 44.362330163 ], [ 142.4705966, 44.362305408 ], [ 142.46915292599999, 44.362314191 ], [ 142.467108266, 44.362302318 ], [ 142.467142685999988, 44.363463824 ], [ 142.46580691, 44.363445559 ], [ 142.46424194799999, 44.363463845 ], [ 142.464253074, 44.36367512 ], [ 142.464261935, 44.363991518 ], [ 142.464371223, 44.364341197 ], [ 142.464570219, 44.364861797 ], [ 142.464652245, 44.365257065 ], [ 142.464682887, 44.365507706 ], [ 142.464662468, 44.366462337 ], [ 142.465657291000014, 44.366460484 ], [ 142.465675129, 44.367456591 ], [ 142.468903637000011, 44.366108051 ], [ 142.470016923, 44.36555631 ], [ 142.470411296, 44.365413733 ], [ 142.471160588, 44.365111283 ], [ 142.47116451299999, 44.365287501 ], [ 142.47248201, 44.364675596 ], [ 142.47306505200001, 44.364362928 ], [ 142.47323329, 44.36445434 ], [ 142.47400616499999, 44.364032967 ] ] ] } },
{ "type": "Feature", "properties": { "A29_001": "01221", "A29_002": "北海道", "A29_003": "名寄市", "A29_004": 4, "A29_005": "第二種中高層住居専用地域", "A29_006": 60, "A29_007": 200, "A29_008": null }, "geometry": { "type": "Polygon", "coordinates": [ [ [ 142.463699195, 44.368277262 ], [ 142.464094353, 44.36802307 ], [ 142.46411019300001, 44.368134469 ], [ 142.465343166999986, 44.367593716 ], [ 142.465675129, 44.367456591 ], [ 142.465657291000014, 44.366460484 ], [ 142.464662468, 44.366462337 ], [ 142.464682887, 44.365507706 ], [ 142.464652245, 44.365257065 ], [ 142.464570219, 44.364861797 ], [ 142.464371223, 44.364341197 ], [ 142.464261935, 44.363991518 ], [ 142.464253074, 44.36367512 ], [ 142.46424194799999, 44.363463845 ], [ 142.46580691, 44.363445559 ], [ 142.467142685999988, 44.363463824 ], [ 142.467108266, 44.362302318 ], [ 142.46915292599999, 44.362314191 ], [ 142.4705966, 44.362305408 ], [ 142.473020418, 44.362330163 ], [ 142.470718247, 44.36011883 ], [ 142.468815858999989, 44.358252966 ], [ 142.467391787, 44.356871064 ], [ 142.466318057, 44.356852457 ], [ 142.458026773, 44.356861584 ], [ 142.458023430999987, 44.359938084 ], [ 142.458040656, 44.362323632 ], [ 142.457179817, 44.362326717 ], [ 142.457172759, 44.361756641 ], [ 142.45673728599999, 44.361759189 ], [ 142.45675312099999, 44.36614642 ], [ 142.450636906999989, 44.36614986 ], [ 142.450661494, 44.361770139 ], [ 142.450208358999987, 44.361763016 ], [ 142.450208335000013, 44.361987997 ], [ 142.449777264, 44.361992117 ], [ 142.449771231, 44.365744715 ], [ 142.448890911, 44.365721453 ], [ 142.449454035, 44.366466063 ], [ 142.457187876, 44.366462014 ], [ 142.457195899999988, 44.366644111 ], [ 142.45717738799999, 44.36844758 ], [ 142.45763772399999, 44.368457255 ], [ 142.45763753899999, 44.365717118 ], [ 142.457631932999988, 44.363904761 ], [ 142.46193385699999, 44.363893015 ], [ 142.461955913, 44.365117165 ], [ 142.46378646299999, 44.365099654 ], [ 142.463810443999989, 44.365664867 ], [ 142.463756077, 44.366533751 ], [ 142.46363381099999, 44.367603249 ], [ 142.463620031, 44.367817018 ], [ 142.463637924000011, 44.368013218 ], [ 142.463699195, 44.368277262 ] ] ] } },
{ "type": "Feature", "properties": { "A29_001": "01221", "A29_002": "北海道", "A29_003": "名寄市", "A29_004": 3, "A29_005": "第一種中高層住居専用地域", "A29_006": 60, "A29_007": 200, "A29_008": null }, "geometry": { "type": "Polygon", "coordinates": [ [ [ 142.463699195, 44.368277262 ], [ 142.463637924000011, 44.368013218 ], [ 142.463620031, 44.367817018 ], [ 142.46363381099999, 44.367603249 ], [ 142.463756077, 44.366533751 ], [ 142.463810443999989, 44.365664867 ], [ 142.46378646299999, 44.365099654 ], [ 142.461955913, 44.365117165 ], [ 142.46193385699999, 44.363893015 ], [ 142.457631932999988, 44.363904761 ], [ 142.45763753899999, 44.365717118 ], [ 142.45763772399999, 44.368457255 ], [ 142.460782728999988, 44.368452811 ], [ 142.460669387, 44.369005098 ], [ 142.460422564999988, 44.369083031 ], [ 142.460354384, 44.369018517 ], [ 142.46015766299999, 44.369557109 ], [ 142.460577, 44.370164315 ], [ 142.461288575, 44.369636244 ], [ 142.46170367900001, 44.369341594 ], [ 142.462245247, 44.368818917 ], [ 142.463041213999986, 44.36849204 ], [ 142.46342068199999, 44.368409232 ], [ 142.463699195, 44.368277262 ] ] ] } },
{ "type": "Feature", "properties": { "A29_001": "01221", "A29_002": "北海道", "A29_003": "名寄市", "A29_004": 10, "A29_005": "準工業地域", "A29_006": 60, "A29_007": 200, "A29_008": null }, "geometry": { "type": "Polygon", "coordinates": [ [ [ 142.457198852, 44.368987209 ], [ 142.45717738799999, 44.36844758 ], [ 142.457195899999988, 44.366644111 ], [ 142.457187876, 44.366462014 ], [ 142.449454035, 44.366466063 ], [ 142.449480885000014, 44.366516338 ], [ 142.450088767000011, 44.367699364 ], [ 142.450214902, 44.367929827 ], [ 142.450345481, 44.368193971 ], [ 142.450440721, 44.368247429 ], [ 142.450775107, 44.369082232 ], [ 142.450722065, 44.369168424 ], [ 142.451135741, 44.370025781 ], [ 142.45120997699999, 44.370310483 ], [ 142.451527723, 44.371493651 ], [ 142.45202548, 44.371491579 ], [ 142.45200501, 44.369992159 ], [ 142.452274831000011, 44.370121199 ], [ 142.452227891, 44.369005802 ], [ 142.457198852, 44.368987209 ] ] ] } },
{ "type": "Feature", "properties": { "A29_001": "01221", "A29_002": "北海道", "A29_003": "名寄市", "A29_004": 4, "A29_005": "第二種中高層住居専用地域", "A29_006": 60, "A29_007": 200, "A29_008": null }, "geometry": { "type": "Polygon", "coordinates": [ [ [ 142.446255978000011, 44.354410609 ], [ 142.449789385, 44.354379762 ], [ 142.449785351, 44.353739631 ], [ 142.447847741, 44.353764518 ], [ 142.446266243, 44.353773327 ], [ 142.446255978000011, 44.354410609 ] ] ] } }
]
}
