{
"type": "FeatureCollection",
"name": "A29-19_01228",
"features": [
{ "type": "Feature", "properties": { "A29_001": "01228", "A29_002": "北海道", "A29_003": "深川市", "A29_004": 5, "A29_005": "第一種住居地域", "A29_006": 60, "A29_007": 200, "A29_008": "条件付き公開" }, "geometry": { "type": "Polygon", "coordinates": [ [ [ 142.047696417, 43.705155611 ], [ 142.047552110999987, 43.705171139 ], [ 142.047332611, 43.70512925 ], [ 142.047049722, 43.705075278 ], [ 142.046650889, 43.705686028 ], [ 142.046326556, 43.706175417 ], [ 142.04624197199999, 43.706304917 ], [ 142.046198833, 43.706345917 ], [ 142.046128861, 43.706373972 ], [ 142.04600291700001, 43.706363056 ], [ 142.045887472, 43.7063545 ], [ 142.045593139, 43.706346917 ], [ 142.045530861, 43.706343639 ], [ 142.04544352799999, 43.706337556 ], [ 142.045443474, 43.706337527 ], [ 142.04455728100001, 43.706554847 ], [ 142.043828853, 43.706757555 ], [ 142.043003808, 43.707053566 ], [ 142.042561887, 43.70730307 ], [ 142.042679744, 43.707422047 ], [ 142.042888533, 43.707628893 ], [ 142.043027222, 43.707766222 ], [ 142.04310641699999, 43.707842472 ], [ 142.043604972, 43.708333333 ], [ 142.043814889, 43.7085325 ], [ 142.044462388999989, 43.709088194 ], [ 142.045186218999987, 43.709667813 ], [ 142.045261556000014, 43.709728139 ], [ 142.04576094399999, 43.710099194 ], [ 142.0463225, 43.710499861 ], [ 142.046740046, 43.710775296 ], [ 142.046833333, 43.710837444 ], [ 142.047597028000013, 43.711304 ], [ 142.047783667, 43.711418444 ], [ 142.04782586799999, 43.711441569 ], [ 142.048811911, 43.710419531 ], [ 142.05238494, 43.70805115 ], [ 142.051812436, 43.707661065 ], [ 142.05172903, 43.70747348 ], [ 142.051630589000013, 43.707192646 ], [ 142.0515244, 43.70702051 ], [ 142.051319866999989, 43.706844677 ], [ 142.051020630000011, 43.70666077 ], [ 142.050434489999986, 43.70654935 ], [ 142.04969545, 43.70644089 ], [ 142.04937268399999, 43.706338491 ], [ 142.049050630000011, 43.70617182 ], [ 142.04872408, 43.70594483 ], [ 142.048448396, 43.705681485 ], [ 142.048190494000011, 43.705306154 ], [ 142.047930476, 43.705560758 ], [ 142.04780625, 43.705350389 ], [ 142.047747042999987, 43.705245391 ], [ 142.047696417, 43.705155611 ] ] ] } },
{ "type": "Feature", "properties": { "A29_001": "01228", "A29_002": "北海道", "A29_003": "深川市", "A29_004": 1, "A29_005": "第一種低層住居専用地域", "A29_006": 40, "A29_007": 60, "A29_008": "条件付き公開" }, "geometry": { "type": "Polygon", "coordinates": [ [ [ 142.030602171, 43.711550343 ], [ 142.031574088000013, 43.709897946 ], [ 142.031321306, 43.709819444 ], [ 142.030644278000011, 43.709612917 ], [ 142.030368720000013, 43.709526303 ], [ 142.030306693999989, 43.709506806 ], [ 142.027853166999989, 43.708735889 ], [ 142.026552861, 43.708333333 ], [ 142.026128417, 43.708201833 ], [ 142.025183778000013, 43.707909194 ], [ 142.025, 43.707853556 ], [ 142.024209055999989, 43.707598472 ], [ 142.023644122, 43.707423637 ], [ 142.022136155, 43.710003945 ], [ 142.023682667, 43.710478444 ], [ 142.0249765, 43.710892167 ], [ 142.025, 43.710901833 ], [ 142.025013, 43.710905194 ], [ 142.026004129, 43.711204728 ], [ 142.026544553, 43.710299837 ], [ 142.028749842, 43.710979503 ], [ 142.030602171, 43.711550343 ] ] ] } },
{ "type": "Feature", "properties": { "A29_001": "01228", "A29_002": "北海道", "A29_003": "深川市", "A29_004": 7, "A29_005": "準住居地域", "A29_006": 60, "A29_007": 200, "A29_008": "条件付き公開" }, "geometry": { "type": "Polygon", "coordinates": [ [ [ 142.052592819000012, 43.708250738 ], [ 142.05238494, 43.70805115 ], [ 142.048811911, 43.710419531 ], [ 142.04782586799999, 43.711441569 ], [ 142.047875721999986, 43.711468889 ], [ 142.047986444, 43.711521167 ], [ 142.048109611, 43.711564417 ], [ 142.048277582999987, 43.711606778 ], [ 142.048371417, 43.711643389 ], [ 142.04872937499999, 43.711205624 ], [ 142.049186217999988, 43.710788229 ], [ 142.051884777999987, 43.708983306 ], [ 142.052635356, 43.708490255 ], [ 142.052578489000012, 43.708353595 ], [ 142.052592819000012, 43.708250738 ] ] ] } },
{ "type": "Feature", "properties": { "A29_001": "01228", "A29_002": "北海道", "A29_003": "深川市", "A29_004": 3, "A29_005": "第一種中高層住居専用地域", "A29_006": 60, "A29_007": 150, "A29_008": "条件付き公開" }, "geometry": { "type": "Polygon", "coordinates": [ [ [ 142.031136167999989, 43.708748968 ], [ 142.030762415, 43.70864872 ], [ 142.030762220000014, 43.70868588 ], [ 142.03077472199999, 43.708774753 ], [ 142.030708554, 43.708896277 ], [ 142.03051047299999, 43.709282168 ], [ 142.030368720000013, 43.709526303 ], [ 142.030644278000011, 43.709612917 ], [ 142.031321306, 43.709819444 ], [ 142.031574088000013, 43.709897946 ], [ 142.030602171, 43.711550343 ], [ 142.032922923, 43.712210124 ], [ 142.032946689, 43.711705671 ], [ 142.033101374000012, 43.711267353 ], [ 142.033457860999988, 43.710479861 ], [ 142.033561079, 43.710321837 ], [ 142.033644611, 43.710161472 ], [ 142.033684972, 43.710083111 ], [ 142.033698694, 43.710042694 ], [ 142.033702139000013, 43.709986722 ], [ 142.033691833, 43.709920806 ], [ 142.033659222000011, 43.709863583 ], [ 142.03362402799999, 43.709803278 ], [ 142.033568222000014, 43.709728667 ], [ 142.033476, 43.709671083 ], [ 142.03341291699999, 43.709650778 ], [ 142.033339028, 43.709625861 ], [ 142.033333333, 43.709624083 ], [ 142.032915083, 43.709493417 ], [ 142.031499778000011, 43.709054139 ], [ 142.031045806, 43.70891825 ], [ 142.031072389, 43.708863556 ], [ 142.031111583000012, 43.708789028 ], [ 142.031136167999989, 43.708748968 ] ] ] } },
{ "type": "Feature", "properties": { "A29_001": "01228", "A29_002": "北海道", "A29_003": "深川市", "A29_004": 10, "A29_005": "準工業地域", "A29_006": 60, "A29_007": 200, "A29_008": "条件付き公開" }, "geometry": { "type": "Polygon", "coordinates": [ [ [ 142.05432295, 43.71239652 ], [ 142.052752344, 43.708413405 ], [ 142.052635356, 43.708490255 ], [ 142.051884777999987, 43.708983306 ], [ 142.049186217999988, 43.710788229 ], [ 142.04872937499999, 43.711205624 ], [ 142.048371417, 43.711643389 ], [ 142.04845002799999, 43.711692972 ], [ 142.048670472, 43.711795667 ], [ 142.048803278, 43.711848833 ], [ 142.049116722, 43.711953333 ], [ 142.04926972199999, 43.711995667 ], [ 142.049579443999988, 43.712070444 ], [ 142.04980086099999, 43.712113694 ], [ 142.05, 43.712148222 ], [ 142.050150972000012, 43.712170306 ], [ 142.050353389, 43.712195833 ], [ 142.050621056000011, 43.712219472 ], [ 142.05227675899999, 43.712296807 ], [ 142.053031221999987, 43.712331444 ], [ 142.05432295, 43.71239652 ] ] ] } },
{ "type": "Feature", "properties": { "A29_001": "01228", "A29_002": "北海道", "A29_003": "深川市", "A29_004": 11, "A29_005": "工業地域", "A29_006": 60, "A29_007": 200, "A29_008": "条件付き公開" }, "geometry": { "type": "Polygon", "coordinates": [ [ [ 142.066356444, 43.702658667 ], [ 142.066258721999986, 43.702711972 ], [ 142.065819972000014, 43.70298675 ], [ 142.0657385, 43.703034056 ], [ 142.065306083, 43.703271278 ], [ 142.064002499999987, 43.703973222 ], [ 142.06392538899999, 43.704016028 ], [ 142.062938444, 43.704543944 ], [ 142.062623444, 43.704715139 ], [ 142.062190944, 43.704948472 ], [ 142.061674444, 43.705204306 ], [ 142.06162533299999, 43.705224583 ], [ 142.061380917, 43.705321889 ], [ 142.061246917, 43.705371444 ], [ 142.060051528, 43.7057755 ], [ 142.05934205599999, 43.706020972 ], [ 142.058998777999989, 43.706133583 ], [ 142.05870138899999, 43.706234861 ], [ 142.058333333, 43.706360194 ], [ 142.058064444, 43.70644825 ], [ 142.057327861, 43.706696944 ], [ 142.056744778, 43.706892444 ], [ 142.05645377799999, 43.706990889 ], [ 142.055621444, 43.707276472 ], [ 142.05394616699999, 43.707838861 ], [ 142.05351475, 43.70800775 ], [ 142.053216611000011, 43.708144083 ], [ 142.052954277999987, 43.708290083 ], [ 142.052752344, 43.708413405 ], [ 142.05432295, 43.71239652 ], [ 142.054633583, 43.712412167 ], [ 142.05587119399999, 43.712471028 ], [ 142.058333333, 43.712591167 ], [ 142.05865538899999, 43.71260525 ], [ 142.058972250000011, 43.712612222 ], [ 142.059135556, 43.712612917 ], [ 142.059296611, 43.712610444 ], [ 142.059503389000014, 43.712602333 ], [ 142.05972044399999, 43.712588806 ], [ 142.059762433, 43.712585391 ], [ 142.059845110999987, 43.712578667 ], [ 142.059963333000013, 43.712565278 ], [ 142.060255583000014, 43.712524611 ], [ 142.060458305999987, 43.712494667 ], [ 142.060645806, 43.712458167 ], [ 142.060895944, 43.712407056 ], [ 142.0610175, 43.712379444 ], [ 142.061211194, 43.712328639 ], [ 142.06140497199999, 43.712275056 ], [ 142.061585278, 43.712215833 ], [ 142.06162658299999, 43.712205333 ], [ 142.061688444, 43.712184917 ], [ 142.06195622199999, 43.712085556 ], [ 142.062130861000014, 43.712013361 ], [ 142.062308056, 43.711934833 ], [ 142.062436472, 43.711875556 ], [ 142.062692972, 43.711746167 ], [ 142.062809944, 43.711683944 ], [ 142.062937833, 43.711610722 ], [ 142.063127556000012, 43.71149475 ], [ 142.063326028, 43.711361944 ], [ 142.063634721999989, 43.711127389 ], [ 142.063828639, 43.710971917 ], [ 142.064352528, 43.710535528 ], [ 142.06500119399999, 43.709997944 ], [ 142.066387389, 43.70884725 ], [ 142.06666666699999, 43.708612194 ], [ 142.066760778, 43.708532972 ], [ 142.066997332999989, 43.708337056 ], [ 142.06700186099999, 43.708333333 ], [ 142.067773278, 43.7076935 ], [ 142.068419213, 43.707153975 ], [ 142.068423579000012, 43.707147207 ], [ 142.068424778, 43.707111111 ], [ 142.06809375, 43.706388 ], [ 142.0675975, 43.705250056 ], [ 142.067564056, 43.705213556 ], [ 142.066762333000014, 43.703378694 ], [ 142.066692444000012, 43.703220556 ], [ 142.066669917000013, 43.703160528 ], [ 142.066507417, 43.7027895 ], [ 142.066464056, 43.702712278 ], [ 142.066356444, 43.702658667 ] ] ] } },
{ "type": "Feature", "properties": { "A29_001": "01228", "A29_002": "北海道", "A29_003": "深川市", "A29_004": 3, "A29_005": "第一種中高層住居専用地域", "A29_006": 60, "A29_007": 150, "A29_008": "条件付き公開" }, "geometry": { "type": "Polygon", "coordinates": [ [ [ 142.025188019000012, 43.71257938 ], [ 142.026004129, 43.711204728 ], [ 142.025013, 43.710905194 ], [ 142.025, 43.710901833 ], [ 142.0249765, 43.710892167 ], [ 142.023682667, 43.710478444 ], [ 142.022136155, 43.710003945 ], [ 142.02180453, 43.71035178 ], [ 142.016152905000013, 43.708565444 ], [ 142.016149945, 43.708566394 ], [ 142.016035499999987, 43.708760417 ], [ 142.015818889, 43.70912575 ], [ 142.015598361, 43.709493111 ], [ 142.015543, 43.709570306 ], [ 142.015374611, 43.709862889 ], [ 142.01637230599999, 43.710180556 ], [ 142.016857, 43.710327167 ], [ 142.019041582999989, 43.710996222 ], [ 142.019483361, 43.711132333 ], [ 142.020366389, 43.711430472 ], [ 142.020569556, 43.711501583 ], [ 142.02267730599999, 43.712178801 ], [ 142.022861611, 43.711855944 ], [ 142.02421, 43.712273083 ], [ 142.025188019000012, 43.71257938 ] ] ] } },
{ "type": "Feature", "properties": { "A29_001": "01228", "A29_002": "北海道", "A29_003": "深川市", "A29_004": 4, "A29_005": "第二種中高層住居専用地域", "A29_006": 60, "A29_007": 200, "A29_008": "条件付き公開" }, "geometry": { "type": "Polygon", "coordinates": [ [ [ 142.026352472000013, 43.71131 ], [ 142.026004129, 43.711204728 ], [ 142.025188019000012, 43.71257938 ], [ 142.025540361, 43.712690167 ], [ 142.025889983000013, 43.712796627 ], [ 142.02668512599999, 43.711417976 ], [ 142.026688314000012, 43.711412834 ], [ 142.026352472000013, 43.71131 ] ] ] } },
{ "type": "Feature", "properties": { "A29_001": "01228", "A29_002": "北海道", "A29_003": "深川市", "A29_004": 5, "A29_005": "第一種住居地域", "A29_006": 60, "A29_007": 200, "A29_008": "条件付き公開" }, "geometry": { "type": "Polygon", "coordinates": [ [ [ 142.02267730599999, 43.712178801 ], [ 142.020569556, 43.711501583 ], [ 142.020366389, 43.711430472 ], [ 142.019483361, 43.711132333 ], [ 142.019041582999989, 43.710996222 ], [ 142.016857, 43.710327167 ], [ 142.01637230599999, 43.710180556 ], [ 142.015374611, 43.709862889 ], [ 142.015110666999988, 43.710307361 ], [ 142.016010472, 43.71058575 ], [ 142.01611827799999, 43.710616056 ], [ 142.016608686000012, 43.710766517 ], [ 142.016370502, 43.71122265 ], [ 142.016401236, 43.711231868 ], [ 142.016665988, 43.71131842 ], [ 142.016889002, 43.711383078 ], [ 142.01740290399999, 43.711536783 ], [ 142.017454269000012, 43.71152435 ], [ 142.01795762399999, 43.711705842 ], [ 142.01793208699999, 43.711734066 ], [ 142.018403189999987, 43.71189066 ], [ 142.018508472, 43.71188133 ], [ 142.020566895, 43.712522658 ], [ 142.02218288099999, 43.713039496 ], [ 142.02244586099999, 43.712593417 ], [ 142.022492556, 43.712489361 ], [ 142.02267161099999, 43.712188778 ], [ 142.02267730599999, 43.712178801 ] ] ] } },
{ "type": "Feature", "properties": { "A29_001": "01228", "A29_002": "北海道", "A29_003": "深川市", "A29_004": 3, "A29_005": "第一種中高層住居専用地域", "A29_006": 60, "A29_007": 150, "A29_008": "条件付き公開" }, "geometry": { "type": "Polygon", "coordinates": [ [ [ 142.039021908, 43.713515954 ], [ 142.040651193, 43.7124386 ], [ 142.04058364799999, 43.71239065 ], [ 142.040350972, 43.712225472 ], [ 142.039676832999987, 43.711773222 ], [ 142.03801172199999, 43.710690778 ], [ 142.037565806, 43.710398778 ], [ 142.037034639000012, 43.710055556 ], [ 142.036509443999989, 43.709711417 ], [ 142.035985028, 43.709369417 ], [ 142.03584788500001, 43.709279658 ], [ 142.035790765, 43.709354674 ], [ 142.03573273399999, 43.7093926 ], [ 142.03563338699999, 43.709446953 ], [ 142.035560764, 43.709445696 ], [ 142.03550694, 43.709416086 ], [ 142.035431749999987, 43.709374722 ], [ 142.035378944, 43.709419917 ], [ 142.035157056, 43.70964175 ], [ 142.034603944, 43.710189306 ], [ 142.034349972, 43.710437944 ], [ 142.03429833300001, 43.7105065 ], [ 142.034348639, 43.710539861 ], [ 142.03440715, 43.710591042 ], [ 142.034513583, 43.710684139 ], [ 142.03472725, 43.71089525 ], [ 142.034905028, 43.711075889 ], [ 142.035215333, 43.711363361 ], [ 142.03539997199999, 43.711549694 ], [ 142.035496481, 43.711644302 ], [ 142.035725722, 43.711869028 ], [ 142.035869889, 43.712004278 ], [ 142.035995555999989, 43.712080556 ], [ 142.036149306, 43.71216425 ], [ 142.036182344, 43.712182239 ], [ 142.036367500000011, 43.712283056 ], [ 142.036417056, 43.712307917 ], [ 142.036646499999989, 43.712412667 ], [ 142.037523193999988, 43.712864056 ], [ 142.037848806, 43.713024417 ], [ 142.038083556, 43.713148944 ], [ 142.038368694000013, 43.71329825 ], [ 142.038447667000014, 43.713216278 ], [ 142.039021908, 43.713515954 ] ] ] } },
{ "type": "Feature", "properties": { "A29_001": "01228", "A29_002": "北海道", "A29_003": "深川市", "A29_004": 3, "A29_005": "第一種中高層住居専用地域", "A29_006": 60, "A29_007": 150, "A29_008": "条件付き公開" }, "geometry": { "type": "Polygon", "coordinates": [ [ [ 142.032236540000014, 43.713102429 ], [ 142.032336148000013, 43.712937907 ], [ 142.03246677199999, 43.712977406 ], [ 142.032563904, 43.712790642 ], [ 142.03182327799999, 43.712557639 ], [ 142.03178513200001, 43.712545578 ], [ 142.031713532, 43.712611264 ], [ 142.03074694, 43.712300466 ], [ 142.030251541000013, 43.712149285 ], [ 142.030125516999988, 43.712340736 ], [ 142.03014316, 43.712491301 ], [ 142.030065388999986, 43.712467389 ], [ 142.030040861, 43.712459333 ], [ 142.029542139, 43.712307028 ], [ 142.02845413899999, 43.7119685 ], [ 142.028003125, 43.711823863 ], [ 142.028001308, 43.71182328 ], [ 142.027421056, 43.711637194 ], [ 142.026821684999987, 43.711453672 ], [ 142.026818838, 43.7114528 ], [ 142.026688314000012, 43.711412834 ], [ 142.02668512599999, 43.711417976 ], [ 142.025889983000013, 43.712796627 ], [ 142.02605513899999, 43.712846917 ], [ 142.026602860999986, 43.71302275 ], [ 142.027647889, 43.713355028 ], [ 142.02871636099999, 43.713688861 ], [ 142.029461472, 43.713919583 ], [ 142.029964471999989, 43.714079917 ], [ 142.030441389, 43.714225972 ], [ 142.030722610999987, 43.714315583 ], [ 142.030751056000014, 43.714324 ], [ 142.031509809, 43.7145665 ], [ 142.03241128499999, 43.713143242 ], [ 142.032236540000014, 43.713102429 ] ] ] } },
{ "type": "Feature", "properties": { "A29_001": "01228", "A29_002": "北海道", "A29_003": "深川市", "A29_004": 6, "A29_005": "第二種住居地域", "A29_006": 60, "A29_007": 200, "A29_008": "条件付き公開" }, "geometry": { "type": "Polygon", "coordinates": [ [ [ 142.03137725, 43.715492694 ], [ 142.03143458299999, 43.715403139 ], [ 142.031593861, 43.715128667 ], [ 142.031658889, 43.715022833 ], [ 142.03186025, 43.7146785 ], [ 142.031509809, 43.7145665 ], [ 142.030751056000014, 43.714324 ], [ 142.030722610999987, 43.714315583 ], [ 142.030441389, 43.714225972 ], [ 142.029964471999989, 43.714079917 ], [ 142.029461472, 43.713919583 ], [ 142.02871636099999, 43.713688861 ], [ 142.027647889, 43.713355028 ], [ 142.026602860999986, 43.71302275 ], [ 142.02605513899999, 43.712846917 ], [ 142.025889983000013, 43.712796627 ], [ 142.025540361, 43.712690167 ], [ 142.025188019000012, 43.71257938 ], [ 142.02421, 43.712273083 ], [ 142.022861611, 43.711855944 ], [ 142.02267730599999, 43.712178801 ], [ 142.02267161099999, 43.712188778 ], [ 142.022492556, 43.712489361 ], [ 142.02244586099999, 43.712593417 ], [ 142.02218288099999, 43.713039496 ], [ 142.022855806, 43.713239083 ], [ 142.023087306, 43.713309389 ], [ 142.02900746099999, 43.715138646 ], [ 142.03013945, 43.715496927 ], [ 142.03017953599999, 43.715448876 ], [ 142.03120475899999, 43.715774811 ], [ 142.03137725, 43.715492694 ] ] ] } },
{ "type": "Feature", "properties": { "A29_001": "01228", "A29_002": "北海道", "A29_003": "深川市", "A29_004": 4, "A29_005": "第二種中高層住居専用地域", "A29_006": 60, "A29_007": 200, "A29_008": "条件付き公開" }, "geometry": { "type": "Polygon", "coordinates": [ [ [ 142.03947744199999, 43.714940426 ], [ 142.039662666999988, 43.714623303 ], [ 142.04013708299999, 43.714775944 ], [ 142.040875527999987, 43.71500475 ], [ 142.04103412500001, 43.714739079 ], [ 142.042995523, 43.715317969 ], [ 142.04302302100001, 43.715223501 ], [ 142.043229833999987, 43.715274619 ], [ 142.043603010999988, 43.714661599 ], [ 142.04363809, 43.714603973 ], [ 142.042942611, 43.714094222 ], [ 142.042390833000013, 43.713689111 ], [ 142.04187552799999, 43.713317361 ], [ 142.041666666999987, 43.713159472 ], [ 142.040651193, 43.7124386 ], [ 142.039021908, 43.713515954 ], [ 142.038447667000014, 43.713216278 ], [ 142.038368694000013, 43.71329825 ], [ 142.038083556, 43.713148944 ], [ 142.037848806, 43.713024417 ], [ 142.037523193999988, 43.712864056 ], [ 142.036646499999989, 43.712412667 ], [ 142.036417056, 43.712307917 ], [ 142.036367500000011, 43.712283056 ], [ 142.036182344, 43.712182239 ], [ 142.036149306, 43.71216425 ], [ 142.035995555999989, 43.712080556 ], [ 142.035869889, 43.712004278 ], [ 142.035725722, 43.711869028 ], [ 142.035496481, 43.711644302 ], [ 142.03539997199999, 43.711549694 ], [ 142.035215333, 43.711363361 ], [ 142.034905028, 43.711075889 ], [ 142.03472725, 43.71089525 ], [ 142.034513583, 43.710684139 ], [ 142.03440715, 43.710591042 ], [ 142.034348639, 43.710539861 ], [ 142.03429833300001, 43.7105065 ], [ 142.03427369, 43.71054623 ], [ 142.033561079, 43.710321837 ], [ 142.033457860999988, 43.710479861 ], [ 142.033101374000012, 43.711267353 ], [ 142.032946689, 43.711705671 ], [ 142.032922923, 43.712210124 ], [ 142.030602171, 43.711550343 ], [ 142.030251541000013, 43.712149285 ], [ 142.03074694, 43.712300466 ], [ 142.031713532, 43.712611264 ], [ 142.03178513200001, 43.712545578 ], [ 142.03182327799999, 43.712557639 ], [ 142.032563904, 43.712790642 ], [ 142.03246677199999, 43.712977406 ], [ 142.032336148000013, 43.712937907 ], [ 142.032236540000014, 43.713102429 ], [ 142.03241128499999, 43.713143242 ], [ 142.031509809, 43.7145665 ], [ 142.03186025, 43.7146785 ], [ 142.032024028, 43.714400639 ], [ 142.03228272199999, 43.713973722 ], [ 142.03238425, 43.714016639 ], [ 142.03309430600001, 43.714233 ], [ 142.033333333, 43.714311639 ], [ 142.033488417, 43.714359444 ], [ 142.033553833000013, 43.714368889 ], [ 142.034030222000013, 43.714523389 ], [ 142.034262805999987, 43.714595917 ], [ 142.03429825, 43.714607611 ], [ 142.034971944, 43.714820833 ], [ 142.03546772199999, 43.714977889 ], [ 142.03549444399999, 43.714986 ], [ 142.035758750000014, 43.715066167 ], [ 142.036402111, 43.715268889 ], [ 142.036606083, 43.715331056 ], [ 142.037274, 43.71554275 ], [ 142.037865167, 43.715726306 ], [ 142.038578389, 43.715954361 ], [ 142.038916306, 43.716061408 ], [ 142.03937271800001, 43.715372693 ], [ 142.039539698, 43.715011957 ], [ 142.03947744199999, 43.714940426 ] ] ] } },
{ "type": "Feature", "properties": { "A29_001": "01228", "A29_002": "北海道", "A29_003": "深川市", "A29_004": 4, "A29_005": "第二種中高層住居専用地域", "A29_006": 60, "A29_007": 200, "A29_008": "条件付き公開" }, "geometry": { "type": "Polygon", "coordinates": [ [ [ 142.02731162500001, 43.716946639 ], [ 142.02820327, 43.71549504 ], [ 142.028238528, 43.715506972 ], [ 142.028349389, 43.715541556 ], [ 142.028691041, 43.715657773 ], [ 142.02900746099999, 43.715138646 ], [ 142.023087306, 43.713309389 ], [ 142.022855806, 43.713239083 ], [ 142.02218288099999, 43.713039496 ], [ 142.021974556, 43.713392861 ], [ 142.021753278, 43.713773 ], [ 142.021546889, 43.714104694 ], [ 142.02152672299999, 43.714135167 ], [ 142.021671922, 43.714179679 ], [ 142.02114773, 43.715067741 ], [ 142.022728332000014, 43.715541735 ], [ 142.02731162500001, 43.716946639 ] ] ] } },
{ "type": "Feature", "properties": { "A29_001": "01228", "A29_002": "北海道", "A29_003": "深川市", "A29_004": 7, "A29_005": "準住居地域", "A29_006": 60, "A29_007": 200, "A29_008": "条件付き公開" }, "geometry": { "type": "Polygon", "coordinates": [ [ [ 142.044871777999987, 43.7153355 ], [ 142.044634910000013, 43.715220399 ], [ 142.04400207899999, 43.716001914 ], [ 142.043558561999987, 43.716700601 ], [ 142.044680053, 43.717049154 ], [ 142.045130257000011, 43.716371788 ], [ 142.045657146, 43.715707173 ], [ 142.045404166999987, 43.7155915 ], [ 142.0452555, 43.715514472 ], [ 142.045137638999989, 43.715473056 ], [ 142.045023805999989, 43.715416389 ], [ 142.044891471999989, 43.715346111 ], [ 142.044871777999987, 43.7153355 ] ] ] } },
{ "type": "Feature", "properties": { "A29_001": "01228", "A29_002": "北海道", "A29_003": "深川市", "A29_004": 8, "A29_005": "近隣商業地域", "A29_006": 80, "A29_007": 200, "A29_008": "条件付き公開" }, "geometry": { "type": "Polygon", "coordinates": [ [ [ 142.032168778, 43.715195417 ], [ 142.031658889, 43.715022833 ], [ 142.031593861, 43.715128667 ], [ 142.03143458299999, 43.715403139 ], [ 142.03137725, 43.715492694 ], [ 142.03120475899999, 43.715774811 ], [ 142.03532153399999, 43.717077133 ], [ 142.035498639, 43.716779444 ], [ 142.03556111099999, 43.716688889 ], [ 142.03559641699999, 43.716604278 ], [ 142.035771632, 43.716322056 ], [ 142.032168778, 43.715195417 ] ] ] } },
{ "type": "Feature", "properties": { "A29_001": "01228", "A29_002": "北海道", "A29_003": "深川市", "A29_004": 5, "A29_005": "第一種住居地域", "A29_006": 60, "A29_007": 200, "A29_008": "条件付き公開" }, "geometry": { "type": "Polygon", "coordinates": [ [ [ 142.042551221999986, 43.718022842 ], [ 142.043378862999987, 43.716644483 ], [ 142.043558561999987, 43.716700601 ], [ 142.04400207899999, 43.716001914 ], [ 142.044634910000013, 43.715220399 ], [ 142.044474889000014, 43.715142639 ], [ 142.04431975, 43.715059417 ], [ 142.044167139, 43.714970139 ], [ 142.044053528, 43.714899056 ], [ 142.043833194, 43.714746972 ], [ 142.04363809, 43.714603973 ], [ 142.043603010999988, 43.714661599 ], [ 142.043229833999987, 43.715274619 ], [ 142.04302302100001, 43.715223501 ], [ 142.042995523, 43.715317969 ], [ 142.04103412500001, 43.714739079 ], [ 142.040875527999987, 43.71500475 ], [ 142.04013708299999, 43.714775944 ], [ 142.039662666999988, 43.714623303 ], [ 142.03947744199999, 43.714940426 ], [ 142.039539698, 43.715011957 ], [ 142.03937271800001, 43.715372693 ], [ 142.038916306, 43.716061408 ], [ 142.038578389, 43.715954361 ], [ 142.037865167, 43.715726306 ], [ 142.037274, 43.71554275 ], [ 142.036606083, 43.715331056 ], [ 142.036402111, 43.715268889 ], [ 142.035758750000014, 43.715066167 ], [ 142.03549444399999, 43.714986 ], [ 142.03546772199999, 43.714977889 ], [ 142.034971944, 43.714820833 ], [ 142.03429825, 43.714607611 ], [ 142.034262805999987, 43.714595917 ], [ 142.034030222000013, 43.714523389 ], [ 142.033553833000013, 43.714368889 ], [ 142.033488417, 43.714359444 ], [ 142.033333333, 43.714311639 ], [ 142.03309430600001, 43.714233 ], [ 142.03238425, 43.714016639 ], [ 142.03228272199999, 43.713973722 ], [ 142.032024028, 43.714400639 ], [ 142.03186025, 43.7146785 ], [ 142.031658889, 43.715022833 ], [ 142.032168778, 43.715195417 ], [ 142.035771632, 43.716322056 ], [ 142.035992166999989, 43.715966833 ], [ 142.037442083, 43.716418083 ], [ 142.037997944000011, 43.716596722 ], [ 142.038216111, 43.716666667 ], [ 142.038888222, 43.716868278 ], [ 142.039793917, 43.717159889 ], [ 142.040348139, 43.717339694 ], [ 142.041666666999987, 43.717736194 ], [ 142.04185519399999, 43.7178075 ], [ 142.042551221999986, 43.718022842 ] ] ] } },
{ "type": "Feature", "properties": { "A29_001": "01228", "A29_002": "北海道", "A29_003": "深川市", "A29_004": 3, "A29_005": "第一種中高層住居専用地域", "A29_006": 60, "A29_007": 150, "A29_008": "条件付き公開" }, "geometry": { "type": "Polygon", "coordinates": [ [ [ 142.052768904, 43.718267749 ], [ 142.053688552000011, 43.716746329 ], [ 142.0531825, 43.716707667 ], [ 142.052918583, 43.716697083 ], [ 142.052251667, 43.716666667 ], [ 142.052235222, 43.716665917 ], [ 142.051709222, 43.716642194 ], [ 142.05, 43.716559472 ], [ 142.04991675, 43.716553778 ], [ 142.049279205, 43.716523811 ], [ 142.049176611, 43.716704083 ], [ 142.049149556, 43.716753778 ], [ 142.04897936099999, 43.717043361 ], [ 142.05, 43.717374333 ], [ 142.051229721999988, 43.717765833 ], [ 142.051350103, 43.717805429 ], [ 142.051267139, 43.717847028 ], [ 142.051212561, 43.717873875 ], [ 142.051429563, 43.717934614 ], [ 142.051445833, 43.717909444 ], [ 142.051457876, 43.717887183 ], [ 142.052277761, 43.718150381 ], [ 142.05234095899999, 43.718125718 ], [ 142.052768904, 43.718267749 ] ] ] } },
{ "type": "Feature", "properties": { "A29_001": "01228", "A29_002": "北海道", "A29_003": "深川市", "A29_004": 5, "A29_005": "第一種住居地域", "A29_006": 60, "A29_007": 200, "A29_008": "条件付き公開" }, "geometry": { "type": "Polygon", "coordinates": [ [ [ 142.03120475899999, 43.715774811 ], [ 142.03017953599999, 43.715448876 ], [ 142.03013945, 43.715496927 ], [ 142.02900746099999, 43.715138646 ], [ 142.028691041, 43.715657773 ], [ 142.028349389, 43.715541556 ], [ 142.028238528, 43.715506972 ], [ 142.02820327, 43.71549504 ], [ 142.02731162500001, 43.716946639 ], [ 142.029076194, 43.717526111 ], [ 142.029310917, 43.717604 ], [ 142.02936025, 43.717616194 ], [ 142.02961759499999, 43.717687761 ], [ 142.029974417, 43.717814528 ], [ 142.030079056, 43.717858111 ], [ 142.030146222000013, 43.71788425 ], [ 142.030291917, 43.717926867 ], [ 142.03043036299999, 43.717968168 ], [ 142.030593361, 43.718020167 ], [ 142.030691778, 43.718043389 ], [ 142.030847889, 43.718061944 ], [ 142.031554333, 43.718285722 ], [ 142.03188673, 43.718393537 ], [ 142.03189379599999, 43.718395829 ], [ 142.032048306, 43.718445944 ], [ 142.03228088899999, 43.718505861 ], [ 142.03252566, 43.718565929 ], [ 142.034066013, 43.719043687 ], [ 142.034163704, 43.719073986 ], [ 142.034473666999986, 43.718515944 ], [ 142.034713944, 43.718117889 ], [ 142.035110972000012, 43.717430111 ], [ 142.03532153399999, 43.717077133 ], [ 142.03120475899999, 43.715774811 ] ] ] } },
{ "type": "Feature", "properties": { "A29_001": "01228", "A29_002": "北海道", "A29_003": "深川市", "A29_004": 3, "A29_005": "第一種中高層住居専用地域", "A29_006": 60, "A29_007": 150, "A29_008": "条件付き公開" }, "geometry": { "type": "Polygon", "coordinates": [ [ [ 142.020566895, 43.712522658 ], [ 142.018508472, 43.71188133 ], [ 142.018403189999987, 43.71189066 ], [ 142.01793208699999, 43.711734066 ], [ 142.01795762399999, 43.711705842 ], [ 142.017454269000012, 43.71152435 ], [ 142.01740290399999, 43.711536783 ], [ 142.016889002, 43.711383078 ], [ 142.016665988, 43.71131842 ], [ 142.016401236, 43.711231868 ], [ 142.016370502, 43.71122265 ], [ 142.015317788, 43.713063455 ], [ 142.01956428599999, 43.71442951 ], [ 142.018213976, 43.716769282 ], [ 142.01867791699999, 43.716906278 ], [ 142.01921536099999, 43.717078556 ], [ 142.019256667, 43.71709165 ], [ 142.019270073, 43.7170959 ], [ 142.021230258, 43.717717248 ], [ 142.02150211099999, 43.717803417 ], [ 142.021764558, 43.717886323 ], [ 142.022227722, 43.718032631 ], [ 142.02224167599999, 43.718037039 ], [ 142.022363082999988, 43.718075389 ], [ 142.023688333, 43.718485 ], [ 142.024020568999987, 43.718587675 ], [ 142.024022355999989, 43.718588227 ], [ 142.024203277999987, 43.718644139 ], [ 142.02421825, 43.718648778 ], [ 142.025, 43.718890389 ], [ 142.02525480599999, 43.718972083 ], [ 142.025264389, 43.718975167 ], [ 142.025389528, 43.719015278 ], [ 142.02540180599999, 43.719019222 ], [ 142.02579875, 43.7191465 ], [ 142.025818111, 43.719152722 ], [ 142.026232778, 43.719285667 ], [ 142.026304627, 43.719308705 ], [ 142.02630962, 43.719310306 ], [ 142.026718604, 43.719441441 ], [ 142.027381722, 43.719654056 ], [ 142.027589482, 43.719714219 ], [ 142.028303131, 43.719920875 ], [ 142.028354443000012, 43.719833706 ], [ 142.028355177, 43.719832458 ], [ 142.02961759499999, 43.717687761 ], [ 142.02936025, 43.717616194 ], [ 142.029310917, 43.717604 ], [ 142.029076194, 43.717526111 ], [ 142.02731162500001, 43.716946639 ], [ 142.022728332000014, 43.715541735 ], [ 142.02114773, 43.715067741 ], [ 142.021671922, 43.714179679 ], [ 142.02152672299999, 43.714135167 ], [ 142.021546889, 43.714104694 ], [ 142.021753278, 43.713773 ], [ 142.021974556, 43.713392861 ], [ 142.02218288099999, 43.713039496 ], [ 142.020566895, 43.712522658 ] ] ] } },
{ "type": "Feature", "properties": { "A29_001": "01228", "A29_002": "北海道", "A29_003": "深川市", "A29_004": 5, "A29_005": "第一種住居地域", "A29_006": 60, "A29_007": 200, "A29_008": "条件付き公開" }, "geometry": { "type": "Polygon", "coordinates": [ [ [ 142.045364275, 43.718090423 ], [ 142.045327861, 43.718078528 ], [ 142.045251306000011, 43.71808425 ], [ 142.04526692799999, 43.718058121 ], [ 142.045420611, 43.717801083 ], [ 142.04569213900001, 43.717365611 ], [ 142.045724087999986, 43.717316036 ], [ 142.04572424599999, 43.717315791 ], [ 142.045905221999988, 43.717034972 ], [ 142.04591358499999, 43.717021944 ], [ 142.04604759599999, 43.71681318 ], [ 142.046127417, 43.716688833 ], [ 142.046140138999988, 43.716666667 ], [ 142.046177806, 43.716600972 ], [ 142.046344319000013, 43.716302562 ], [ 142.046356586, 43.716280579 ], [ 142.046406166999986, 43.716191722 ], [ 142.046491247, 43.716049364 ], [ 142.046447167, 43.716034806 ], [ 142.04620275, 43.715942444 ], [ 142.04587808299999, 43.715808194 ], [ 142.045860404, 43.71580011 ], [ 142.04585338199999, 43.7157969 ], [ 142.045657146, 43.715707173 ], [ 142.045130257000011, 43.716371788 ], [ 142.044680053, 43.717049154 ], [ 142.0450397, 43.717161609 ], [ 142.044788250000011, 43.717575528 ], [ 142.044611417, 43.717861472 ], [ 142.04417943499999, 43.718569598 ], [ 142.04425344399999, 43.71859725 ], [ 142.04478663899999, 43.718767 ], [ 142.044849639, 43.718772972 ], [ 142.04609475, 43.719165611 ], [ 142.046223637999987, 43.719206255 ], [ 142.047420167000013, 43.719583556 ], [ 142.047443695, 43.719596245 ], [ 142.047514056000011, 43.719634194 ], [ 142.047831944, 43.719737667 ], [ 142.048434500000013, 43.719928944 ], [ 142.048857247, 43.720056928 ], [ 142.048858224000014, 43.720057224 ], [ 142.04891441699999, 43.720074236 ], [ 142.048980301, 43.720094181 ], [ 142.04898538899999, 43.720095722 ], [ 142.049072096, 43.719946208 ], [ 142.049186528, 43.719748889 ], [ 142.049368343999987, 43.719456213 ], [ 142.04940725, 43.719393583 ], [ 142.049398614000012, 43.719390762 ], [ 142.04876409799999, 43.719183453 ], [ 142.048762387000011, 43.719182893 ], [ 142.04871977799999, 43.719168972 ], [ 142.048409442, 43.719071869 ], [ 142.048405519, 43.719070641 ], [ 142.048336444, 43.719049028 ], [ 142.047853833, 43.71889325 ], [ 142.04711131900001, 43.71865649 ], [ 142.047109032, 43.718655761 ], [ 142.046518722, 43.718467528 ], [ 142.046064222000012, 43.718319065 ], [ 142.046062127999988, 43.718318381 ], [ 142.045365908, 43.718090956 ], [ 142.045364275, 43.718090423 ] ] ] } },
{ "type": "Feature", "properties": { "A29_001": "01228", "A29_002": "北海道", "A29_003": "深川市", "A29_004": 3, "A29_005": "第一種中高層住居専用地域", "A29_006": 60, "A29_007": 150, "A29_008": "条件付き公開" }, "geometry": { "type": "Polygon", "coordinates": [ [ [ 142.05300417699999, 43.718998878 ], [ 142.052998347, 43.718950305 ], [ 142.052521315, 43.718800027 ], [ 142.05240788899999, 43.71899025 ], [ 142.052356889, 43.718962778 ], [ 142.051849417, 43.718809639 ], [ 142.051003759999986, 43.718562 ], [ 142.05091019, 43.7187206 ], [ 142.05003881, 43.71844547 ], [ 142.049965895000014, 43.718617469 ], [ 142.04989376, 43.718611708 ], [ 142.049854583000013, 43.718672194 ], [ 142.04940725, 43.719393583 ], [ 142.049368343999987, 43.719456213 ], [ 142.049186528, 43.719748889 ], [ 142.049072096, 43.719946208 ], [ 142.04898538899999, 43.720095722 ], [ 142.049027185999989, 43.720108734 ], [ 142.04902806199999, 43.720109007 ], [ 142.049221875, 43.720169347 ], [ 142.049223627, 43.720169892 ], [ 142.04955302799999, 43.720272444 ], [ 142.049835073, 43.720364507 ], [ 142.049902831, 43.72038582 ], [ 142.04996609299999, 43.720405718 ], [ 142.049965082999989, 43.720406944 ], [ 142.05, 43.720416472 ], [ 142.050169778, 43.720471134 ], [ 142.050170071, 43.720471229 ], [ 142.050610667, 43.720613083 ], [ 142.051291389, 43.720829611 ], [ 142.052451778, 43.721201361 ], [ 142.05282261, 43.721319811 ], [ 142.052832443, 43.721322951 ], [ 142.053457487, 43.721522597 ], [ 142.053466727, 43.721506739 ], [ 142.054631768, 43.719518357 ], [ 142.05367336, 43.719190341 ], [ 142.05300417699999, 43.718998878 ] ] ] } },
{ "type": "Feature", "properties": { "A29_001": "01228", "A29_002": "北海道", "A29_003": "深川市", "A29_004": 4, "A29_005": "第二種中高層住居専用地域", "A29_006": 60, "A29_007": 200, "A29_008": "条件付き公開" }, "geometry": { "type": "Polygon", "coordinates": [ [ [ 142.055576962, 43.719312791 ], [ 142.05269362199999, 43.718421368 ], [ 142.052768904, 43.718267749 ], [ 142.05234095899999, 43.718125718 ], [ 142.052277761, 43.718150381 ], [ 142.051457876, 43.717887183 ], [ 142.051445833, 43.717909444 ], [ 142.051429563, 43.717934614 ], [ 142.051212561, 43.717873875 ], [ 142.051267139, 43.717847028 ], [ 142.051350103, 43.717805429 ], [ 142.051229721999988, 43.717765833 ], [ 142.05, 43.717374333 ], [ 142.04897936099999, 43.717043361 ], [ 142.049149556, 43.716753778 ], [ 142.049176611, 43.716704083 ], [ 142.049279205, 43.716523811 ], [ 142.048766777999987, 43.716499722 ], [ 142.048220694, 43.716442056 ], [ 142.047857139, 43.716390694 ], [ 142.047560471999986, 43.716336639 ], [ 142.047477476000012, 43.716318091 ], [ 142.047225860999987, 43.716261861 ], [ 142.046893888999989, 43.7161775 ], [ 142.046655832999988, 43.716103722 ], [ 142.046494169, 43.716050329 ], [ 142.046491247, 43.716049364 ], [ 142.046406166999986, 43.716191722 ], [ 142.046356586, 43.716280579 ], [ 142.046344319000013, 43.716302562 ], [ 142.046177806, 43.716600972 ], [ 142.046140138999988, 43.716666667 ], [ 142.046127417, 43.716688833 ], [ 142.04604759599999, 43.71681318 ], [ 142.04591358499999, 43.717021944 ], [ 142.045905221999988, 43.717034972 ], [ 142.04572424599999, 43.717315791 ], [ 142.045724087999986, 43.717316036 ], [ 142.04569213900001, 43.717365611 ], [ 142.045420611, 43.717801083 ], [ 142.04526692799999, 43.718058121 ], [ 142.045251306000011, 43.71808425 ], [ 142.045327861, 43.718078528 ], [ 142.045364275, 43.718090423 ], [ 142.045365908, 43.718090956 ], [ 142.046062127999988, 43.718318381 ], [ 142.046064222000012, 43.718319065 ], [ 142.046518722, 43.718467528 ], [ 142.047109032, 43.718655761 ], [ 142.04711131900001, 43.71865649 ], [ 142.047853833, 43.71889325 ], [ 142.048336444, 43.719049028 ], [ 142.048405519, 43.719070641 ], [ 142.048409442, 43.719071869 ], [ 142.04871977799999, 43.719168972 ], [ 142.048762387000011, 43.719182893 ], [ 142.04876409799999, 43.719183453 ], [ 142.049398614000012, 43.719390762 ], [ 142.04940725, 43.719393583 ], [ 142.049854583000013, 43.718672194 ], [ 142.04989376, 43.718611708 ], [ 142.049965895000014, 43.718617469 ], [ 142.05003881, 43.71844547 ], [ 142.05091019, 43.7187206 ], [ 142.051003759999986, 43.718562 ], [ 142.051849417, 43.718809639 ], [ 142.052356889, 43.718962778 ], [ 142.05240788899999, 43.71899025 ], [ 142.052521315, 43.718800027 ], [ 142.052998347, 43.718950305 ], [ 142.05300417699999, 43.718998878 ], [ 142.05367336, 43.719190341 ], [ 142.054631768, 43.719518357 ], [ 142.053466727, 43.721506739 ], [ 142.053457487, 43.721522597 ], [ 142.053766948, 43.72162144 ], [ 142.053707417999988, 43.721716512 ], [ 142.05405288099999, 43.721837207 ], [ 142.055576962, 43.719312791 ] ] ] } },
{ "type": "Feature", "properties": { "A29_001": "01228", "A29_002": "北海道", "A29_003": "深川市", "A29_004": 3, "A29_005": "第一種中高層住居専用地域", "A29_006": 60, "A29_007": 150, "A29_008": "条件付き公開" }, "geometry": { "type": "Polygon", "coordinates": [ [ [ 142.03043036299999, 43.717968168 ], [ 142.030291917, 43.717926867 ], [ 142.02959851, 43.71908853 ], [ 142.029367321, 43.719600498 ], [ 142.029641088, 43.719691809 ], [ 142.029520805, 43.719803237 ], [ 142.029230117, 43.719969756 ], [ 142.0342929, 43.72156667 ], [ 142.035499769000012, 43.721933225 ], [ 142.03638225, 43.720381361 ], [ 142.036327527999987, 43.7203685 ], [ 142.036185361, 43.720323722 ], [ 142.03634851000001, 43.720024763 ], [ 142.034021986999988, 43.71933846 ], [ 142.034163704, 43.719073986 ], [ 142.034066013, 43.719043687 ], [ 142.03252566, 43.718565929 ], [ 142.03228088899999, 43.718505861 ], [ 142.032048306, 43.718445944 ], [ 142.03189379599999, 43.718395829 ], [ 142.03188673, 43.718393537 ], [ 142.031554333, 43.718285722 ], [ 142.030847889, 43.718061944 ], [ 142.030691778, 43.718043389 ], [ 142.030593361, 43.718020167 ], [ 142.03043036299999, 43.717968168 ] ] ] } },
{ "type": "Feature", "properties": { "A29_001": "01228", "A29_002": "北海道", "A29_003": "深川市", "A29_004": 9, "A29_005": "商業地域", "A29_006": 80, "A29_007": 400, "A29_008": "条件付き公開" }, "geometry": { "type": "Polygon", "coordinates": [ [ [ 142.04330275, 43.71868001 ], [ 142.038676186, 43.717226335 ], [ 142.037619333, 43.719017528 ], [ 142.037742278, 43.719069417 ], [ 142.03906177799999, 43.719481389 ], [ 142.040543555999989, 43.719944028 ], [ 142.040194187, 43.720511081 ], [ 142.04501261499999, 43.722024942 ], [ 142.046425961000011, 43.719665898 ], [ 142.04330275, 43.71868001 ] ] ] } },
{ "type": "Feature", "properties": { "A29_001": "01228", "A29_002": "北海道", "A29_003": "深川市", "A29_004": 8, "A29_005": "近隣商業地域", "A29_006": 80, "A29_007": 300, "A29_008": "条件付き公開" }, "geometry": { "type": "Polygon", "coordinates": [ [ [ 142.04417943499999, 43.718569598 ], [ 142.044611417, 43.717861472 ], [ 142.044788250000011, 43.717575528 ], [ 142.0450397, 43.717161609 ], [ 142.044680053, 43.717049154 ], [ 142.043558561999987, 43.716700601 ], [ 142.043378862999987, 43.716644483 ], [ 142.042551221999986, 43.718022842 ], [ 142.04185519399999, 43.7178075 ], [ 142.041666666999987, 43.717736194 ], [ 142.040348139, 43.717339694 ], [ 142.039793917, 43.717159889 ], [ 142.038888222, 43.716868278 ], [ 142.038216111, 43.716666667 ], [ 142.037997944000011, 43.716596722 ], [ 142.037442083, 43.716418083 ], [ 142.035992166999989, 43.715966833 ], [ 142.035771632, 43.716322056 ], [ 142.03559641699999, 43.716604278 ], [ 142.03556111099999, 43.716688889 ], [ 142.035498639, 43.716779444 ], [ 142.03532153399999, 43.717077133 ], [ 142.035110972000012, 43.717430111 ], [ 142.034713944, 43.718117889 ], [ 142.036156194, 43.718572306 ], [ 142.036659778, 43.718727556 ], [ 142.037482806000014, 43.718981167 ], [ 142.037619333, 43.719017528 ], [ 142.038676186, 43.717226335 ], [ 142.04330275, 43.71868001 ], [ 142.046425961000011, 43.719665898 ], [ 142.04501261499999, 43.722024942 ], [ 142.04565338899999, 43.722239417 ], [ 142.04576136, 43.722267661 ], [ 142.04580282399999, 43.722278507 ], [ 142.045806277999986, 43.722273 ], [ 142.04583889, 43.722217671 ], [ 142.046103722, 43.721768361 ], [ 142.04616681600001, 43.721661629 ], [ 142.046494967, 43.721106516 ], [ 142.046550556, 43.721018639 ], [ 142.046986694, 43.720290083 ], [ 142.047253694, 43.719849417 ], [ 142.047417478999989, 43.71958785 ], [ 142.047420167000013, 43.719583556 ], [ 142.046223637999987, 43.719206255 ], [ 142.04609475, 43.719165611 ], [ 142.044849639, 43.718772972 ], [ 142.04478663899999, 43.718767 ], [ 142.04425344399999, 43.71859725 ], [ 142.04417943499999, 43.718569598 ] ] ] } },
{ "type": "Feature", "properties": { "A29_001": "01228", "A29_002": "北海道", "A29_003": "深川市", "A29_004": 3, "A29_005": "第一種中高層住居専用地域", "A29_006": 60, "A29_007": 150, "A29_008": "条件付き公開" }, "geometry": { "type": "Polygon", "coordinates": [ [ [ 142.033453321, 43.721870539 ], [ 142.028843919, 43.720446459 ], [ 142.028199984, 43.720835923 ], [ 142.030444713, 43.721538502 ], [ 142.030274127000013, 43.721830816 ], [ 142.032995675, 43.722664976 ], [ 142.033453321, 43.721870539 ] ] ] } },
{ "type": "Feature", "properties": { "A29_001": "01228", "A29_002": "北海道", "A29_003": "深川市", "A29_004": 1, "A29_005": "第一種低層住居専用地域", "A29_006": 40, "A29_007": 60, "A29_008": "条件付き公開" }, "geometry": { "type": "Polygon", "coordinates": [ [ [ 142.057383232, 43.722833089 ], [ 142.059738694, 43.722081917 ], [ 142.05979869399999, 43.722062667 ], [ 142.059908611, 43.722029028 ], [ 142.06054136899999, 43.721838552 ], [ 142.061556700000011, 43.721488932 ], [ 142.062012900000013, 43.721401853 ], [ 142.062394399999988, 43.721402483 ], [ 142.062663378, 43.721401077 ], [ 142.06298483, 43.721425161 ], [ 142.06298474799999, 43.721264939 ], [ 142.06270294399999, 43.7211415 ], [ 142.062680194, 43.720897889 ], [ 142.062671333, 43.720838556 ], [ 142.06266313899999, 43.720804917 ], [ 142.062648110999987, 43.720757944 ], [ 142.06262286099999, 43.720712444 ], [ 142.062590083, 43.720665972 ], [ 142.062545527999987, 43.72061825 ], [ 142.062456610999988, 43.720539361 ], [ 142.062285239, 43.720381142 ], [ 142.062282767999989, 43.72037886 ], [ 142.062167417000012, 43.720272361 ], [ 142.062101861, 43.720230306 ], [ 142.061681744, 43.719862702 ], [ 142.06167474, 43.719856573 ], [ 142.060994939000011, 43.71926173 ], [ 142.060985139, 43.719253155 ], [ 142.059557, 43.718003444 ], [ 142.059331555999989, 43.717820083 ], [ 142.059219361, 43.7177385 ], [ 142.059070444000014, 43.717642556 ], [ 142.058875306, 43.717533278 ], [ 142.058715361, 43.71745775 ], [ 142.058518056, 43.71737075 ], [ 142.058341332999987, 43.717305417 ], [ 142.058333333, 43.717302889 ], [ 142.058152111, 43.717245917 ], [ 142.05799213899999, 43.717201333 ], [ 142.057922194000014, 43.717186028 ], [ 142.057862583, 43.717154556 ], [ 142.057808443999988, 43.717157528 ], [ 142.057565167, 43.717114833 ], [ 142.057347389, 43.717086167 ], [ 142.05704722199999, 43.717059111 ], [ 142.056145444, 43.716974694 ], [ 142.053867860999986, 43.716760028 ], [ 142.053688552000011, 43.716746329 ], [ 142.052768904, 43.718267749 ], [ 142.05269362199999, 43.718421368 ], [ 142.055576962, 43.719312791 ], [ 142.05405288099999, 43.721837207 ], [ 142.055304138999986, 43.722222754 ], [ 142.055329174, 43.722188725 ], [ 142.057383232, 43.722833089 ] ] ] } },
{ "type": "Feature", "properties": { "A29_001": "01228", "A29_002": "北海道", "A29_003": "深川市", "A29_004": 3, "A29_005": "第一種中高層住居専用地域", "A29_006": 60, "A29_007": 150, "A29_008": "条件付き公開" }, "geometry": { "type": "Polygon", "coordinates": [ [ [ 142.03997163, 43.723336035 ], [ 142.040350469, 43.722723082 ], [ 142.040503777999987, 43.722763778 ], [ 142.040550943999989, 43.722801639 ], [ 142.04098347199999, 43.722911111 ], [ 142.04116198700001, 43.722956515 ], [ 142.041396956999989, 43.722566322 ], [ 142.04134449099999, 43.722508826 ], [ 142.041659439, 43.721975574 ], [ 142.041049528, 43.721787694 ], [ 142.040809806, 43.721713833 ], [ 142.040659139000013, 43.721684472 ], [ 142.040540443999987, 43.721675194 ], [ 142.040337139, 43.721675194 ], [ 142.04019572199999, 43.721655139 ], [ 142.040098333, 43.721630917 ], [ 142.040035417000013, 43.721610667 ], [ 142.03997644399999, 43.721587167 ], [ 142.039911389, 43.721550944 ], [ 142.039736194, 43.7214245 ], [ 142.039632444, 43.721360139 ], [ 142.03949952799999, 43.721304028 ], [ 142.039079111, 43.721172722 ], [ 142.038430221999988, 43.720975056 ], [ 142.03722224399999, 43.720599635 ], [ 142.03658134299999, 43.721710644 ], [ 142.036692843, 43.721754764 ], [ 142.03663669299999, 43.721845864 ], [ 142.036499359, 43.721818678 ], [ 142.03638832199999, 43.722013348 ], [ 142.036545342000011, 43.72206528 ], [ 142.036456186, 43.722229642 ], [ 142.036951769000012, 43.722374608 ], [ 142.03795977499999, 43.722690759 ], [ 142.03800279, 43.722623069 ], [ 142.038472973000012, 43.722774974 ], [ 142.03845029199999, 43.72281089 ], [ 142.038890326, 43.722942582 ], [ 142.038889407999989, 43.722999154 ], [ 142.03997163, 43.723336035 ] ] ] } },
{ "type": "Feature", "properties": { "A29_001": "01228", "A29_002": "北海道", "A29_003": "深川市", "A29_004": 1, "A29_005": "第一種低層住居専用地域", "A29_006": 40, "A29_007": 60, "A29_008": "条件付き公開" }, "geometry": { "type": "Polygon", "coordinates": [ [ [ 142.03447134000001, 43.72220192 ], [ 142.033453321, 43.721870539 ], [ 142.032995675, 43.722664976 ], [ 142.032105949999988, 43.724211332 ], [ 142.034158611, 43.724876306 ], [ 142.034246028000013, 43.72473225 ], [ 142.034444278, 43.724405528 ], [ 142.034544528, 43.724240278 ], [ 142.03481450000001, 43.723761722 ], [ 142.035093249999989, 43.723279917 ], [ 142.035108361, 43.723260194 ], [ 142.035292778000013, 43.722943306 ], [ 142.034938361, 43.722833778 ], [ 142.034844193999987, 43.722798778 ], [ 142.03459097199999, 43.722718222 ], [ 142.034560889, 43.722705667 ], [ 142.034281472, 43.72262909 ], [ 142.034512330000013, 43.722215006 ], [ 142.03447134000001, 43.72220192 ] ] ] } },
{ "type": "Feature", "properties": { "A29_001": "01228", "A29_002": "北海道", "A29_003": "深川市", "A29_004": 1, "A29_005": "第一種低層住居専用地域", "A29_006": 50, "A29_007": 80, "A29_008": "条件付き公開" }, "geometry": { "type": "Polygon", "coordinates": [ [ [ 142.034605733, 43.72501158 ], [ 142.034990351, 43.724369794 ], [ 142.035075944, 43.724395556 ], [ 142.035548589, 43.724552501 ], [ 142.035645781999989, 43.724398745 ], [ 142.03677249, 43.72474809 ], [ 142.037638, 43.72331178 ], [ 142.03747605, 43.72326626 ], [ 142.03752929, 43.72317808 ], [ 142.036074722, 43.722757417 ], [ 142.03550983299999, 43.72257025 ], [ 142.034512330000013, 43.722215006 ], [ 142.034281472, 43.72262909 ], [ 142.034560889, 43.722705667 ], [ 142.03459097199999, 43.722718222 ], [ 142.034844193999987, 43.722798778 ], [ 142.034938361, 43.722833778 ], [ 142.035292778000013, 43.722943306 ], [ 142.035108361, 43.723260194 ], [ 142.035093249999989, 43.723279917 ], [ 142.03481450000001, 43.723761722 ], [ 142.034544528, 43.724240278 ], [ 142.034444278, 43.724405528 ], [ 142.034246028000013, 43.72473225 ], [ 142.034158611, 43.724876306 ], [ 142.034451722, 43.724965639 ], [ 142.034605733, 43.72501158 ] ] ] } },
{ "type": "Feature", "properties": { "A29_001": "01228", "A29_002": "北海道", "A29_003": "深川市", "A29_004": 4, "A29_005": "第二種中高層住居専用地域", "A29_006": 60, "A29_007": 200, "A29_008": "条件付き公開" }, "geometry": { "type": "Polygon", "coordinates": [ [ [ 142.04326232, 43.72535126 ], [ 142.043994317, 43.724152871 ], [ 142.043995639, 43.724100722 ], [ 142.043988805999987, 43.723771 ], [ 142.043995333, 43.723697056 ], [ 142.04399394399999, 43.723492722 ], [ 142.043993222000012, 43.723447639 ], [ 142.04398027799999, 43.722703917 ], [ 142.04368330599999, 43.722609861 ], [ 142.0420485, 43.722098028 ], [ 142.041659439, 43.721975574 ], [ 142.04134449099999, 43.722508826 ], [ 142.041396956999989, 43.722566322 ], [ 142.04116198700001, 43.722956515 ], [ 142.04098347199999, 43.722911111 ], [ 142.040550943999989, 43.722801639 ], [ 142.040503777999987, 43.722763778 ], [ 142.040350469, 43.722723082 ], [ 142.03997163, 43.723336035 ], [ 142.038889407999989, 43.722999154 ], [ 142.038890326, 43.722942582 ], [ 142.03845029199999, 43.72281089 ], [ 142.038472973000012, 43.722774974 ], [ 142.03800279, 43.722623069 ], [ 142.03795977499999, 43.722690759 ], [ 142.036951769000012, 43.722374608 ], [ 142.036456186, 43.722229642 ], [ 142.036545342000011, 43.72206528 ], [ 142.03638832199999, 43.722013348 ], [ 142.036499359, 43.721818678 ], [ 142.03663669299999, 43.721845864 ], [ 142.036692843, 43.721754764 ], [ 142.03658134299999, 43.721710644 ], [ 142.03722224399999, 43.720599635 ], [ 142.0370915, 43.720559 ], [ 142.036903806, 43.720502361 ], [ 142.036775068999987, 43.720462228 ], [ 142.03673855299999, 43.720523816 ], [ 142.036590249999989, 43.720478056 ], [ 142.036420639, 43.720421 ], [ 142.03638225, 43.720381361 ], [ 142.035499769000012, 43.721933225 ], [ 142.0342929, 43.72156667 ], [ 142.029230117, 43.719969756 ], [ 142.029520805, 43.719803237 ], [ 142.029641088, 43.719691809 ], [ 142.029367321, 43.719600498 ], [ 142.02959851, 43.71908853 ], [ 142.030291917, 43.717926867 ], [ 142.030146222000013, 43.71788425 ], [ 142.030079056, 43.717858111 ], [ 142.029974417, 43.717814528 ], [ 142.02961759499999, 43.717687761 ], [ 142.028355177, 43.719832458 ], [ 142.028354443000012, 43.719833706 ], [ 142.028303131, 43.719920875 ], [ 142.027589482, 43.719714219 ], [ 142.027381722, 43.719654056 ], [ 142.026718604, 43.719441441 ], [ 142.02630962, 43.719310306 ], [ 142.026304627, 43.719308705 ], [ 142.026232778, 43.719285667 ], [ 142.025818111, 43.719152722 ], [ 142.02579875, 43.7191465 ], [ 142.02540180599999, 43.719019222 ], [ 142.025389528, 43.719015278 ], [ 142.025264389, 43.718975167 ], [ 142.02525480599999, 43.718972083 ], [ 142.025, 43.718890389 ], [ 142.02421825, 43.718648778 ], [ 142.024203277999987, 43.718644139 ], [ 142.024022355999989, 43.718588227 ], [ 142.024020568999987, 43.718587675 ], [ 142.023688333, 43.718485 ], [ 142.022363082999988, 43.718075389 ], [ 142.02224167599999, 43.718037039 ], [ 142.022227722, 43.718032631 ], [ 142.021764558, 43.717886323 ], [ 142.02150211099999, 43.717803417 ], [ 142.021230258, 43.717717248 ], [ 142.02122782399999, 43.717721396 ], [ 142.020565909999988, 43.71889376 ], [ 142.01955483, 43.71858703 ], [ 142.018919312, 43.719698641 ], [ 142.020988361, 43.720327389 ], [ 142.02102811099999, 43.720360111 ], [ 142.021222889, 43.720025306 ], [ 142.021734269, 43.71916862 ], [ 142.027889063, 43.721102228 ], [ 142.027926323, 43.721065788 ], [ 142.028199984, 43.720835923 ], [ 142.028843919, 43.720446459 ], [ 142.033453321, 43.721870539 ], [ 142.03447134000001, 43.72220192 ], [ 142.034512330000013, 43.722215006 ], [ 142.03550983299999, 43.72257025 ], [ 142.036074722, 43.722757417 ], [ 142.03752929, 43.72317808 ], [ 142.039190147999989, 43.723667282 ], [ 142.039557851000012, 43.723785456 ], [ 142.03976157, 43.72391606 ], [ 142.03990272499999, 43.723993179 ], [ 142.039685698999989, 43.72412199 ], [ 142.03946649299999, 43.724252466 ], [ 142.03966333299999, 43.724318194 ], [ 142.04054655600001, 43.724596472 ], [ 142.04214602799999, 43.725104833 ], [ 142.042204634, 43.725009498 ], [ 142.04326232, 43.72535126 ] ] ] } },
{ "type": "Feature", "properties": { "A29_001": "01228", "A29_002": "北海道", "A29_003": "深川市", "A29_004": 6, "A29_005": "第二種住居地域", "A29_006": 60, "A29_007": 200, "A29_008": "条件付き公開" }, "geometry": { "type": "Polygon", "coordinates": [ [ [ 142.06755377799999, 43.723939611 ], [ 142.06793238899999, 43.723305778 ], [ 142.068098083, 43.723033889 ], [ 142.06813802799999, 43.72296725 ], [ 142.068381111, 43.722547778 ], [ 142.068565611, 43.722254056 ], [ 142.068322056, 43.722219472 ], [ 142.06544911, 43.72175621 ], [ 142.06298483, 43.721425161 ], [ 142.062663378, 43.721401077 ], [ 142.062394399999988, 43.721402483 ], [ 142.062012900000013, 43.721401853 ], [ 142.061556700000011, 43.721488932 ], [ 142.06054136899999, 43.721838552 ], [ 142.059908611, 43.722029028 ], [ 142.05979869399999, 43.722062667 ], [ 142.059738694, 43.722081917 ], [ 142.057383232, 43.722833089 ], [ 142.055329174, 43.722188725 ], [ 142.055304138999986, 43.722222754 ], [ 142.05405288099999, 43.721837207 ], [ 142.053707417999988, 43.721716512 ], [ 142.053766948, 43.72162144 ], [ 142.053457487, 43.721522597 ], [ 142.052832443, 43.721322951 ], [ 142.05282261, 43.721319811 ], [ 142.052451778, 43.721201361 ], [ 142.051291389, 43.720829611 ], [ 142.050610667, 43.720613083 ], [ 142.050170071, 43.720471229 ], [ 142.050169778, 43.720471134 ], [ 142.05, 43.720416472 ], [ 142.049965082999989, 43.720406944 ], [ 142.04996609299999, 43.720405718 ], [ 142.049902831, 43.72038582 ], [ 142.049835073, 43.720364507 ], [ 142.04955302799999, 43.720272444 ], [ 142.049223627, 43.720169892 ], [ 142.049221875, 43.720169347 ], [ 142.04902806199999, 43.720109007 ], [ 142.049027185999989, 43.720108734 ], [ 142.04898538899999, 43.720095722 ], [ 142.048980301, 43.720094181 ], [ 142.04891441699999, 43.720074236 ], [ 142.048858224000014, 43.720057224 ], [ 142.048857247, 43.720056928 ], [ 142.048434500000013, 43.719928944 ], [ 142.047831944, 43.719737667 ], [ 142.047514056000011, 43.719634194 ], [ 142.047443695, 43.719596245 ], [ 142.047420167000013, 43.719583556 ], [ 142.047417478999989, 43.71958785 ], [ 142.047253694, 43.719849417 ], [ 142.046986694, 43.720290083 ], [ 142.046550556, 43.721018639 ], [ 142.046690805999987, 43.721071694 ], [ 142.047787222000011, 43.721421417 ], [ 142.0485425, 43.721664444 ], [ 142.049144278, 43.721851583 ], [ 142.05, 43.722126639 ], [ 142.050344333, 43.722234028 ], [ 142.051252, 43.722523667 ], [ 142.051821944000011, 43.722707 ], [ 142.052459634, 43.722910703 ], [ 142.052910583, 43.72305475 ], [ 142.053025, 43.722879056 ], [ 142.053527167, 43.72303675 ], [ 142.05422477799999, 43.723256139 ], [ 142.054404971999986, 43.723312833 ], [ 142.054788444, 43.723518139 ], [ 142.055071083, 43.723608222 ], [ 142.055083028000013, 43.723590361 ], [ 142.05550175, 43.723720778 ], [ 142.055501056, 43.72369775 ], [ 142.055802527999987, 43.723791889 ], [ 142.05614301599999, 43.723918572 ], [ 142.056075123999989, 43.724065029 ], [ 142.056771778000012, 43.724279639 ], [ 142.057958694, 43.724659583 ], [ 142.05857947199999, 43.724860889 ], [ 142.059021417, 43.724994889 ], [ 142.05928269399999, 43.725079556 ], [ 142.059313167, 43.725 ], [ 142.059706944, 43.724348056 ], [ 142.059768889, 43.7242525 ], [ 142.060079341, 43.723746213 ], [ 142.060091787, 43.723750227 ], [ 142.066430872000012, 43.725773586 ], [ 142.06659835799999, 43.725487521 ], [ 142.066648512, 43.725409114 ], [ 142.066654819, 43.725400402 ], [ 142.06666666699999, 43.725379886 ], [ 142.066715861, 43.725294694 ], [ 142.066785764, 43.725202421 ], [ 142.06690236099999, 43.72502425 ], [ 142.066907167000011, 43.7250035 ], [ 142.066909306000014, 43.725 ], [ 142.067154778, 43.724598278 ], [ 142.067193139000011, 43.724531944 ], [ 142.06755377799999, 43.723939611 ] ] ] } },
{ "type": "Feature", "properties": { "A29_001": "01228", "A29_002": "北海道", "A29_003": "深川市", "A29_004": 10, "A29_005": "準工業地域", "A29_006": 60, "A29_007": 200, "A29_008": "条件付き公開" }, "geometry": { "type": "Polygon", "coordinates": [ [ [ 142.04574492, 43.72557022 ], [ 142.04661526000001, 43.72410579 ], [ 142.04838436, 43.72445685 ], [ 142.04904263899999, 43.723305472 ], [ 142.047014667000013, 43.722640167 ], [ 142.04699388899999, 43.722639306 ], [ 142.046974417, 43.722635806 ], [ 142.046941694, 43.722625583 ], [ 142.046767913, 43.722571955 ], [ 142.04676769400001, 43.722571888 ], [ 142.046714861, 43.722555583 ], [ 142.046392056, 43.722442306 ], [ 142.046249111, 43.722396139 ], [ 142.045959944, 43.722323222 ], [ 142.04593202800001, 43.722312306 ], [ 142.04580282399999, 43.722278507 ], [ 142.04576136, 43.722267661 ], [ 142.04565338899999, 43.722239417 ], [ 142.04501261499999, 43.722024942 ], [ 142.040194187, 43.720511081 ], [ 142.040543555999989, 43.719944028 ], [ 142.03906177799999, 43.719481389 ], [ 142.037742278, 43.719069417 ], [ 142.037619333, 43.719017528 ], [ 142.037482806000014, 43.718981167 ], [ 142.036659778, 43.718727556 ], [ 142.036156194, 43.718572306 ], [ 142.034713944, 43.718117889 ], [ 142.034473666999986, 43.718515944 ], [ 142.034163704, 43.719073986 ], [ 142.034021986999988, 43.71933846 ], [ 142.03634851000001, 43.720024763 ], [ 142.036185361, 43.720323722 ], [ 142.036327527999987, 43.7203685 ], [ 142.03638225, 43.720381361 ], [ 142.036420639, 43.720421 ], [ 142.036590249999989, 43.720478056 ], [ 142.03673855299999, 43.720523816 ], [ 142.036775068999987, 43.720462228 ], [ 142.036903806, 43.720502361 ], [ 142.0370915, 43.720559 ], [ 142.03722224399999, 43.720599635 ], [ 142.038430221999988, 43.720975056 ], [ 142.039079111, 43.721172722 ], [ 142.03949952799999, 43.721304028 ], [ 142.039632444, 43.721360139 ], [ 142.039736194, 43.7214245 ], [ 142.039911389, 43.721550944 ], [ 142.03997644399999, 43.721587167 ], [ 142.040035417000013, 43.721610667 ], [ 142.040098333, 43.721630917 ], [ 142.04019572199999, 43.721655139 ], [ 142.040337139, 43.721675194 ], [ 142.040540443999987, 43.721675194 ], [ 142.040659139000013, 43.721684472 ], [ 142.040809806, 43.721713833 ], [ 142.041049528, 43.721787694 ], [ 142.041659439, 43.721975574 ], [ 142.0420485, 43.722098028 ], [ 142.04368330599999, 43.722609861 ], [ 142.04398027799999, 43.722703917 ], [ 142.043993222000012, 43.723447639 ], [ 142.04399394399999, 43.723492722 ], [ 142.043995333, 43.723697056 ], [ 142.043988805999987, 43.723771 ], [ 142.043995639, 43.724100722 ], [ 142.043994317, 43.724152871 ], [ 142.043975611, 43.724935444 ], [ 142.043946556, 43.725270083 ], [ 142.04454296599999, 43.725456462 ], [ 142.045199639, 43.725661667 ], [ 142.045614268, 43.725795992 ], [ 142.04574492, 43.72557022 ] ] ] } },
{ "type": "Feature", "properties": { "A29_001": "01228", "A29_002": "北海道", "A29_003": "深川市", "A29_004": 3, "A29_005": "第一種中高層住居専用地域", "A29_006": 60, "A29_007": 150, "A29_008": "条件付き公開" }, "geometry": { "type": "Polygon", "coordinates": [ [ [ 142.048084265999989, 43.726151869 ], [ 142.049020431, 43.724583977 ], [ 142.04838436, 43.72445685 ], [ 142.04661526000001, 43.72410579 ], [ 142.04574492, 43.72557022 ], [ 142.04599822, 43.72565175 ], [ 142.046049509999989, 43.72561806 ], [ 142.04624008, 43.72567244 ], [ 142.04629158, 43.72557796 ], [ 142.0464868, 43.72563572 ], [ 142.046449324, 43.725688459 ], [ 142.047592213, 43.726049229 ], [ 142.047616174000012, 43.726009414 ], [ 142.048084265999989, 43.726151869 ] ] ] } },
{ "type": "Feature", "properties": { "A29_001": "01228", "A29_002": "北海道", "A29_003": "深川市", "A29_004": 1, "A29_005": "第一種低層住居専用地域", "A29_006": 40, "A29_007": 60, "A29_008": "条件付き公開" }, "geometry": { "type": "Polygon", "coordinates": [ [ [ 142.04036919399999, 43.724899611 ], [ 142.04054655600001, 43.724596472 ], [ 142.03966333299999, 43.724318194 ], [ 142.03946649299999, 43.724252466 ], [ 142.039685698999989, 43.72412199 ], [ 142.03990272499999, 43.723993179 ], [ 142.03976157, 43.72391606 ], [ 142.039557851000012, 43.723785456 ], [ 142.039190147999989, 43.723667282 ], [ 142.03752929, 43.72317808 ], [ 142.03747605, 43.72326626 ], [ 142.037638, 43.72331178 ], [ 142.03677249, 43.72474809 ], [ 142.035645781999989, 43.724398745 ], [ 142.035548589, 43.724552501 ], [ 142.035075944, 43.724395556 ], [ 142.034990351, 43.724369794 ], [ 142.034605733, 43.72501158 ], [ 142.039360706999986, 43.72655068 ], [ 142.03962930599999, 43.726109917 ], [ 142.039839139, 43.725770222 ], [ 142.039961919, 43.725561454 ], [ 142.039984111, 43.725515639 ], [ 142.040189583, 43.725186389 ], [ 142.04036919399999, 43.724899611 ] ] ] } },
{ "type": "Feature", "properties": { "A29_001": "01228", "A29_002": "北海道", "A29_003": "深川市", "A29_004": 4, "A29_005": "第二種中高層住居専用地域", "A29_006": 60, "A29_007": 200, "A29_008": "条件付き公開" }, "geometry": { "type": "Polygon", "coordinates": [ [ [ 142.047865193, 43.726509879 ], [ 142.04802076499999, 43.726259713 ], [ 142.048084265999989, 43.726151869 ], [ 142.047616174000012, 43.726009414 ], [ 142.047592213, 43.726049229 ], [ 142.046449324, 43.725688459 ], [ 142.0464868, 43.72563572 ], [ 142.04629158, 43.72557796 ], [ 142.04624008, 43.72567244 ], [ 142.046049509999989, 43.72561806 ], [ 142.04599822, 43.72565175 ], [ 142.04574492, 43.72557022 ], [ 142.045614268, 43.725795992 ], [ 142.045199639, 43.725661667 ], [ 142.04454296599999, 43.725456462 ], [ 142.044319755, 43.725811549 ], [ 142.045013361, 43.726025972 ], [ 142.046183555999988, 43.72639775 ], [ 142.046736417, 43.726570667 ], [ 142.046838183, 43.726599542 ], [ 142.046875949999986, 43.72647244 ], [ 142.046950470000013, 43.7264523 ], [ 142.047085360000011, 43.72646605 ], [ 142.04758578, 43.72662779 ], [ 142.04768345, 43.7266381 ], [ 142.04777428, 43.72660617 ], [ 142.047856349999989, 43.726524099 ], [ 142.047865193, 43.726509879 ] ] ] } },
{ "type": "Feature", "properties": { "A29_001": "01228", "A29_002": "北海道", "A29_003": "深川市", "A29_004": 1, "A29_005": "第一種低層住居専用地域", "A29_006": 40, "A29_007": 60, "A29_008": "条件付き公開" }, "geometry": { "type": "Polygon", "coordinates": [ [ [ 142.05020095099999, 43.726556862 ], [ 142.050348, 43.726310806 ], [ 142.050489551, 43.726358538 ], [ 142.051317059000013, 43.725042041 ], [ 142.049020431, 43.724583977 ], [ 142.048084265999989, 43.726151869 ], [ 142.04802076499999, 43.726259713 ], [ 142.04999541, 43.726874286 ], [ 142.050008795999986, 43.726878388 ], [ 142.05006004099999, 43.726792643 ], [ 142.05020095099999, 43.726556862 ] ] ] } },
{ "type": "Feature", "properties": { "A29_001": "01228", "A29_002": "北海道", "A29_003": "深川市", "A29_004": 10, "A29_005": "準工業地域", "A29_006": 60, "A29_007": 200, "A29_008": "条件付き公開" }, "geometry": { "type": "Polygon", "coordinates": [ [ [ 142.060091787, 43.723750227 ], [ 142.060079341, 43.723746213 ], [ 142.059768889, 43.7242525 ], [ 142.059706944, 43.724348056 ], [ 142.059313167, 43.725 ], [ 142.05928269399999, 43.725079556 ], [ 142.059957056, 43.725295278 ], [ 142.06019971, 43.725372668 ], [ 142.060203324000014, 43.725373821 ], [ 142.060346638999988, 43.725419528 ], [ 142.060606611, 43.725501056 ], [ 142.061837806, 43.725889361 ], [ 142.06308302799999, 43.726287167 ], [ 142.063425509000012, 43.72639674 ], [ 142.063438303999988, 43.726400833 ], [ 142.06370225, 43.726485278 ], [ 142.064314639, 43.72667625 ], [ 142.065257287, 43.726979676 ], [ 142.065258758999988, 43.72698015 ], [ 142.06562886099999, 43.727099278 ], [ 142.065628248, 43.727100321 ], [ 142.06563719, 43.727085651 ], [ 142.065850305999987, 43.726736972 ], [ 142.06607330599999, 43.726371528 ], [ 142.06636669400001, 43.725877111 ], [ 142.066407389, 43.725813694 ], [ 142.066430872000012, 43.725773586 ], [ 142.060091787, 43.723750227 ] ] ] } },
{ "type": "Feature", "properties": { "A29_001": "01228", "A29_002": "北海道", "A29_003": "深川市", "A29_004": 2, "A29_005": "第二種低層住居専用地域", "A29_006": 50, "A29_007": 80, "A29_008": "条件付き公開" }, "geometry": { "type": "Polygon", "coordinates": [ [ [ 142.050489551, 43.726358538 ], [ 142.050348, 43.726310806 ], [ 142.05020095099999, 43.726556862 ], [ 142.05006004099999, 43.726792643 ], [ 142.050008795999986, 43.726878388 ], [ 142.04999541, 43.726874286 ], [ 142.04802076499999, 43.726259713 ], [ 142.047865193, 43.726509879 ], [ 142.048296472, 43.72664875 ], [ 142.04939586099999, 43.726992833 ], [ 142.049714427999987, 43.727094747 ], [ 142.04985397199999, 43.727139389 ], [ 142.05, 43.727187056 ], [ 142.05001138899999, 43.727190778 ], [ 142.050345972, 43.727292556 ], [ 142.050452385, 43.727326996 ], [ 142.05045275, 43.727327114 ], [ 142.05081125000001, 43.727443139 ], [ 142.050926304, 43.727480389 ], [ 142.051201631999987, 43.726993168 ], [ 142.05123172099999, 43.726857396 ], [ 142.05144644, 43.726514248 ], [ 142.051419613, 43.726405876 ], [ 142.051341244000014, 43.726286145 ], [ 142.051682344999989, 43.72569754 ], [ 142.05174881, 43.725685668 ], [ 142.051874666, 43.72547813 ], [ 142.05181892600001, 43.72545101 ], [ 142.05198542, 43.72516574 ], [ 142.051317059000013, 43.725042041 ], [ 142.050489551, 43.726358538 ] ] ] } },
{ "type": "Feature", "properties": { "A29_001": "01228", "A29_002": "北海道", "A29_003": "深川市", "A29_004": 1, "A29_005": "第一種低層住居専用地域", "A29_006": 40, "A29_007": 60, "A29_008": "条件付き公開" }, "geometry": { "type": "Polygon", "coordinates": [ [ [ 142.04047986099999, 43.727430528 ], [ 142.039095, 43.726986667 ], [ 142.03903758300001, 43.727080639 ], [ 142.038892444, 43.727318139 ], [ 142.038828889, 43.727422139 ], [ 142.03873055599999, 43.727583056 ], [ 142.037967417, 43.728860917 ], [ 142.039577611, 43.729371667 ], [ 142.0398835, 43.728847083 ], [ 142.040341332999986, 43.728084611 ], [ 142.04043197199999, 43.727922278 ], [ 142.040695027999988, 43.727499389 ], [ 142.04047986099999, 43.727430528 ] ] ] } },
{ "type": "Feature", "properties": { "A29_001": "01228", "A29_002": "北海道", "A29_003": "深川市", "A29_004": 3, "A29_005": "第一種中高層住居専用地域", "A29_006": 60, "A29_007": 150, "A29_008": "条件付き公開" }, "geometry": { "type": "Polygon", "coordinates": [ [ [ 142.04326232, 43.72535126 ], [ 142.042204634, 43.725009498 ], [ 142.04214602799999, 43.725104833 ], [ 142.04054655600001, 43.724596472 ], [ 142.04036919399999, 43.724899611 ], [ 142.040189583, 43.725186389 ], [ 142.039984111, 43.725515639 ], [ 142.039961919, 43.725561454 ], [ 142.039839139, 43.725770222 ], [ 142.03962930599999, 43.726109917 ], [ 142.039360706999986, 43.72655068 ], [ 142.039265056, 43.726707639 ], [ 142.039095, 43.726986667 ], [ 142.04047986099999, 43.727430528 ], [ 142.040695027999988, 43.727499389 ], [ 142.04043197199999, 43.727922278 ], [ 142.040341332999986, 43.728084611 ], [ 142.0398835, 43.728847083 ], [ 142.039577611, 43.729371667 ], [ 142.040387444, 43.729620167 ], [ 142.040642228, 43.729701245 ], [ 142.04326232, 43.72535126 ] ] ] } },
{ "type": "Feature", "properties": { "A29_001": "01228", "A29_002": "北海道", "A29_003": "深川市", "A29_004": 7, "A29_005": "準住居地域", "A29_006": 60, "A29_007": 200, "A29_008": "条件付き公開" }, "geometry": { "type": "Polygon", "coordinates": [ [ [ 142.043975611, 43.724935444 ], [ 142.043994317, 43.724152871 ], [ 142.04326232, 43.72535126 ], [ 142.040642228, 43.729701245 ], [ 142.041217972, 43.7298835 ], [ 142.04178055, 43.730060682 ], [ 142.044319755, 43.725811549 ], [ 142.04454296599999, 43.725456462 ], [ 142.043946556, 43.725270083 ], [ 142.043975611, 43.724935444 ] ] ] } },
{ "type": "Feature", "properties": { "A29_001": "01228", "A29_002": "北海道", "A29_003": "深川市", "A29_004": 3, "A29_005": "第一種中高層住居専用地域", "A29_006": 60, "A29_007": 150, "A29_008": "条件付き公開" }, "geometry": { "type": "Polygon", "coordinates": [ [ [ 142.044557583, 43.726774639 ], [ 142.044653584, 43.726613788 ], [ 142.04648885200001, 43.72720225 ], [ 142.046838183, 43.726599542 ], [ 142.046736417, 43.726570667 ], [ 142.046183555999988, 43.72639775 ], [ 142.045013361, 43.726025972 ], [ 142.044319755, 43.725811549 ], [ 142.04178055, 43.730060682 ], [ 142.042407889, 43.730256167 ], [ 142.04245644400001, 43.730292611 ], [ 142.04275063899999, 43.729789111 ], [ 142.043007528, 43.729355806 ], [ 142.04303113899999, 43.729320306 ], [ 142.043312555999989, 43.728865806 ], [ 142.043549250000012, 43.728472611 ], [ 142.043596194, 43.728391306 ], [ 142.043827083, 43.7280095 ], [ 142.043855138999987, 43.727973278 ], [ 142.043866556000012, 43.72794225 ], [ 142.044066, 43.72760675 ], [ 142.044103167, 43.7275335 ], [ 142.044367111000014, 43.727093778 ], [ 142.044557583, 43.726774639 ] ] ] } },
{ "type": "Feature", "properties": { "A29_001": "01228", "A29_002": "北海道", "A29_003": "深川市", "A29_004": 1, "A29_005": "第一種低層住居専用地域", "A29_006": 40, "A29_007": 60, "A29_008": "条件付き公開" }, "geometry": { "type": "Polygon", "coordinates": [ [ [ 142.045043916999987, 43.729425972 ], [ 142.045570472, 43.728538 ], [ 142.04724927800001, 43.729067278 ], [ 142.047324833, 43.729084833 ], [ 142.048960722, 43.729595194 ], [ 142.052064788, 43.730586201 ], [ 142.052220833, 43.730328083 ], [ 142.05242252799999, 43.729991194 ], [ 142.052656611, 43.729597528 ], [ 142.052778194000012, 43.729350972 ], [ 142.052859332999986, 43.729208778 ], [ 142.05297844399999, 43.729031306 ], [ 142.053223444, 43.728624111 ], [ 142.05342794399999, 43.728275056 ], [ 142.0534625, 43.728198694 ], [ 142.05422213899999, 43.72695725 ], [ 142.054250222, 43.726938583 ], [ 142.054302971999988, 43.726906722 ], [ 142.05435241699999, 43.726879778 ], [ 142.054372027999989, 43.726864694 ], [ 142.05465444399999, 43.7264045 ], [ 142.054991333, 43.725883222 ], [ 142.055004028000013, 43.725862917 ], [ 142.055022083000011, 43.725834028 ], [ 142.055044083000013, 43.725773567 ], [ 142.05198542, 43.72516574 ], [ 142.05181892600001, 43.72545101 ], [ 142.051874666, 43.72547813 ], [ 142.05174881, 43.725685668 ], [ 142.051682344999989, 43.72569754 ], [ 142.051341244000014, 43.726286145 ], [ 142.051419613, 43.726405876 ], [ 142.05144644, 43.726514248 ], [ 142.05123172099999, 43.726857396 ], [ 142.051201631999987, 43.726993168 ], [ 142.050926304, 43.727480389 ], [ 142.05081125000001, 43.727443139 ], [ 142.05045275, 43.727327114 ], [ 142.050452385, 43.727326996 ], [ 142.050345972, 43.727292556 ], [ 142.05001138899999, 43.727190778 ], [ 142.05, 43.727187056 ], [ 142.04985397199999, 43.727139389 ], [ 142.049714427999987, 43.727094747 ], [ 142.04939586099999, 43.726992833 ], [ 142.048296472, 43.72664875 ], [ 142.047865193, 43.726509879 ], [ 142.047856349999989, 43.726524099 ], [ 142.04777428, 43.72660617 ], [ 142.04768345, 43.7266381 ], [ 142.04758578, 43.72662779 ], [ 142.047085360000011, 43.72646605 ], [ 142.046950470000013, 43.7264523 ], [ 142.046875949999986, 43.72647244 ], [ 142.046838183, 43.726599542 ], [ 142.04648885200001, 43.72720225 ], [ 142.044653584, 43.726613788 ], [ 142.044557583, 43.726774639 ], [ 142.044367111000014, 43.727093778 ], [ 142.044103167, 43.7275335 ], [ 142.044066, 43.72760675 ], [ 142.043866556000012, 43.72794225 ], [ 142.043855138999987, 43.727973278 ], [ 142.043827083, 43.7280095 ], [ 142.043596194, 43.728391306 ], [ 142.043549250000012, 43.728472611 ], [ 142.043312555999989, 43.728865806 ], [ 142.04303113899999, 43.729320306 ], [ 142.043007528, 43.729355806 ], [ 142.04275063899999, 43.729789111 ], [ 142.04245644400001, 43.730292611 ], [ 142.044194583, 43.73084525 ], [ 142.044352833, 43.730592083 ], [ 142.045043916999987, 43.729425972 ] ] ] } },
{ "type": "Feature", "properties": { "A29_001": "01228", "A29_002": "北海道", "A29_003": "深川市", "A29_004": 3, "A29_005": "第一種中高層住居専用地域", "A29_006": 60, "A29_007": 150, "A29_008": "条件付き公開" }, "geometry": { "type": "Polygon", "coordinates": [ [ [ 142.03454836099999, 43.744122333 ], [ 142.03441, 43.74407775 ], [ 142.034160611, 43.744000722 ], [ 142.034067333, 43.743970528 ], [ 142.033731096999986, 43.743865458 ], [ 142.033729195, 43.743864864 ], [ 142.033396556000014, 43.743760917 ], [ 142.033333333, 43.743741389 ], [ 142.033321578, 43.743737904 ], [ 142.033147922000012, 43.744019976 ], [ 142.033113979, 43.744038546 ], [ 142.033069098, 43.744061673 ], [ 142.032526639, 43.744269361 ], [ 142.031288889, 43.746289972 ], [ 142.031558964, 43.746373409 ], [ 142.03171741700001, 43.746422361 ], [ 142.031984139, 43.746504444 ], [ 142.032730622, 43.745331767 ], [ 142.03273065, 43.745331724 ], [ 142.034582508, 43.745916056 ], [ 142.03629780599999, 43.746457222 ], [ 142.036399749, 43.746491366 ], [ 142.03675566699999, 43.745831 ], [ 142.036842028, 43.745673833 ], [ 142.036866306, 43.745662722 ], [ 142.036886083000013, 43.745648278 ], [ 142.03696725, 43.745516611 ], [ 142.037069722000012, 43.745352472 ], [ 142.03716877799999, 43.745196278 ], [ 142.03720402799999, 43.745145778 ], [ 142.037222528, 43.745116583 ], [ 142.03724066699999, 43.745090056 ], [ 142.037273083, 43.745052306 ], [ 142.037345972, 43.744983889 ], [ 142.037380778, 43.744942694 ], [ 142.037828377000011, 43.744196252 ], [ 142.03782896300001, 43.744195274 ], [ 142.037829111, 43.744195028 ], [ 142.037820348, 43.744192291 ], [ 142.037820165999989, 43.744192234 ], [ 142.037263916, 43.7440185 ], [ 142.036587895999986, 43.74380231 ], [ 142.036583194, 43.743800806 ], [ 142.036083861, 43.7436465 ], [ 142.035778325, 43.743547319 ], [ 142.035777172, 43.743546945 ], [ 142.035583694, 43.743484139 ], [ 142.035052138999987, 43.743322639 ], [ 142.034827664, 43.74368052 ], [ 142.034827802, 43.743680562 ], [ 142.03483888, 43.743683952 ], [ 142.036203626, 43.744134554 ], [ 142.036203871, 43.744134635 ], [ 142.036410585, 43.744341199 ], [ 142.036411148000013, 43.744341926 ], [ 142.03645286299999, 43.744383611 ], [ 142.036464736999989, 43.744411058 ], [ 142.036484139, 43.744455528 ], [ 142.03650511399999, 43.744484564 ], [ 142.036527919, 43.744515889 ], [ 142.036543196, 43.744566651 ], [ 142.036543803, 43.744567958 ], [ 142.036543779, 43.744568043 ], [ 142.036555424999989, 43.74460674 ], [ 142.036555432, 43.744606771 ], [ 142.036555668, 43.744608091 ], [ 142.036574308000013, 43.744670028 ], [ 142.036589029999988, 43.744786833 ], [ 142.03658878600001, 43.744792606 ], [ 142.03658536399999, 43.744873778 ], [ 142.03655958600001, 43.745014056 ], [ 142.036541725, 43.745061249 ], [ 142.036512447, 43.745120194 ], [ 142.03648561899999, 43.745167948 ], [ 142.036466114, 43.745202667 ], [ 142.036425392000012, 43.745267666 ], [ 142.036383586, 43.745335139 ], [ 142.036325717000011, 43.745423975 ], [ 142.036274982, 43.745501859 ], [ 142.036272085, 43.745506306 ], [ 142.03614403, 43.745466278 ], [ 142.035450086, 43.745250528 ], [ 142.035453483, 43.745244822 ], [ 142.035473835, 43.745210638 ], [ 142.035496289, 43.745169754 ], [ 142.035521585999987, 43.745123694 ], [ 142.035557503, 43.745055443 ], [ 142.035578364, 43.744985389 ], [ 142.035584252, 43.744925389 ], [ 142.03558686400001, 43.74486175 ], [ 142.03558344699999, 43.744812861 ], [ 142.035570697, 43.744741472 ], [ 142.035540225, 43.7446775 ], [ 142.035514419, 43.744627971 ], [ 142.035477113000013, 43.744571667 ], [ 142.03542983599999, 43.744520305 ], [ 142.035376364, 43.744474806 ], [ 142.035363456999988, 43.744465708 ], [ 142.035249196, 43.744385167 ], [ 142.035167086, 43.744342832 ], [ 142.035096392000014, 43.744316028 ], [ 142.03471554, 43.74419045 ], [ 142.034690418999986, 43.744182167 ], [ 142.034588552, 43.744148578 ], [ 142.034586838, 43.744148013 ], [ 142.03456978, 43.744142389 ], [ 142.03454836099999, 43.744122333 ] ] ] } },
{ "type": "Feature", "properties": { "A29_001": "01228", "A29_002": "北海道", "A29_003": "深川市", "A29_004": 1, "A29_005": "第一種低層住居専用地域", "A29_006": 40, "A29_007": 60, "A29_008": "条件付き公開" }, "geometry": { "type": "Polygon", "coordinates": [ [ [ 142.036101566000013, 43.746395312 ], [ 142.034582508, 43.745916056 ], [ 142.03273065, 43.745331724 ], [ 142.032730622, 43.745331767 ], [ 142.03270067299999, 43.745378817 ], [ 142.032360767, 43.745912792 ], [ 142.031984139, 43.746504444 ], [ 142.03171741700001, 43.746422361 ], [ 142.031288889, 43.746289972 ], [ 142.031087, 43.746638056 ], [ 142.030709777999988, 43.747268306 ], [ 142.030681472, 43.747319778 ], [ 142.031095361000013, 43.747450722 ], [ 142.031250639, 43.747500833 ], [ 142.031361056, 43.747536194 ], [ 142.031358583000014, 43.74754925 ], [ 142.031671667000012, 43.747692139 ], [ 142.032010555999989, 43.747810306 ], [ 142.032262417, 43.747894556 ], [ 142.032278861, 43.747899889 ], [ 142.032289444000014, 43.747903361 ], [ 142.03264769399999, 43.748016111 ], [ 142.033333333, 43.748239333 ], [ 142.03446258299999, 43.74860275 ], [ 142.03464893200001, 43.748582056 ], [ 142.03573430599999, 43.748921722 ], [ 142.03599488899999, 43.749001444 ], [ 142.036492083000013, 43.749163611 ], [ 142.036891028000014, 43.749287472 ], [ 142.037016972, 43.749332389 ], [ 142.037499110999988, 43.748548778 ], [ 142.03761777, 43.748352043 ], [ 142.037639055999989, 43.74831675 ], [ 142.03764375, 43.748308889 ], [ 142.03775322199999, 43.74812625 ], [ 142.037757778000014, 43.748118639 ], [ 142.03835602800001, 43.7471205 ], [ 142.03904822199999, 43.745980556 ], [ 142.039458222, 43.745302972 ], [ 142.039480528000013, 43.745266778 ], [ 142.039485111, 43.745259083 ], [ 142.039755944, 43.7448065 ], [ 142.04000244400001, 43.744404528 ], [ 142.040268056, 43.743964722 ], [ 142.040565249999986, 43.743481278 ], [ 142.040764028000012, 43.743166333 ], [ 142.040855685999986, 43.743011181 ], [ 142.040951167, 43.742849556 ], [ 142.04113336099999, 43.742559778 ], [ 142.041165932000013, 43.742519951 ], [ 142.041159951, 43.742518036 ], [ 142.03921725, 43.741896083 ], [ 142.03848568399999, 43.741666667 ], [ 142.038458461, 43.74165813 ], [ 142.038280832999988, 43.741598333 ], [ 142.03821372199999, 43.741576722 ], [ 142.037616917, 43.742093333 ], [ 142.037251083, 43.74240625 ], [ 142.037047238000014, 43.74258174 ], [ 142.036992994, 43.742600749 ], [ 142.036936529, 43.74261281 ], [ 142.036883433000014, 43.742614695 ], [ 142.036069004000012, 43.742578846 ], [ 142.035023489999986, 43.742508106 ], [ 142.033851548, 43.742978868 ], [ 142.033332062999989, 43.743720856 ], [ 142.033321578, 43.743737904 ], [ 142.033333333, 43.743741389 ], [ 142.033396556000014, 43.743760917 ], [ 142.033729195, 43.743864864 ], [ 142.033731096999986, 43.743865458 ], [ 142.034067333, 43.743970528 ], [ 142.034160611, 43.744000722 ], [ 142.03441, 43.74407775 ], [ 142.03454836099999, 43.744122333 ], [ 142.034557798, 43.74410887 ], [ 142.034696083, 43.743911583 ], [ 142.034795667, 43.743731833 ], [ 142.034827664, 43.74368052 ], [ 142.035052113, 43.743322681 ], [ 142.035052138999987, 43.743322639 ], [ 142.035583694, 43.743484139 ], [ 142.035777172, 43.743546945 ], [ 142.035778325, 43.743547319 ], [ 142.036083861, 43.7436465 ], [ 142.036583194, 43.743800806 ], [ 142.036587895999986, 43.74380231 ], [ 142.03726391699999, 43.7440185 ], [ 142.037820348, 43.744192291 ], [ 142.037829111, 43.744195028 ], [ 142.037380778, 43.744942694 ], [ 142.037345972, 43.744983889 ], [ 142.037273083, 43.745052306 ], [ 142.03724066699999, 43.745090056 ], [ 142.037222528, 43.745116583 ], [ 142.03720402799999, 43.745145778 ], [ 142.03716877799999, 43.745196278 ], [ 142.037069722000012, 43.745352472 ], [ 142.03696725, 43.745516611 ], [ 142.036886083000013, 43.745648278 ], [ 142.036866306, 43.745662722 ], [ 142.036842028, 43.745673833 ], [ 142.03675566699999, 43.745831 ], [ 142.036399749, 43.746491366 ], [ 142.03629780599999, 43.746457222 ], [ 142.036111387, 43.74639841 ], [ 142.036101566000013, 43.746395312 ] ] ] } },
{ "type": "Feature", "properties": { "A29_001": "01228", "A29_002": "北海道", "A29_003": "深川市", "A29_004": 2, "A29_005": "第二種低層住居専用地域", "A29_006": 50, "A29_007": 80, "A29_008": "条件付き公開" }, "geometry": { "type": "Polygon", "coordinates": [ [ [ 142.026004129, 43.711204728 ], [ 142.026352472000013, 43.71131 ], [ 142.026688314000012, 43.711412834 ], [ 142.026818838, 43.7114528 ], [ 142.026821684999987, 43.711453672 ], [ 142.027421056, 43.711637194 ], [ 142.028001308, 43.71182328 ], [ 142.028003125, 43.711823863 ], [ 142.02845413899999, 43.7119685 ], [ 142.029542139, 43.712307028 ], [ 142.030040861, 43.712459333 ], [ 142.030065388999986, 43.712467389 ], [ 142.03014316, 43.712491301 ], [ 142.030142727999987, 43.71248761 ], [ 142.030125516999988, 43.712340736 ], [ 142.030251541000013, 43.712149285 ], [ 142.030602171, 43.711550343 ], [ 142.028749842, 43.710979503 ], [ 142.026544553, 43.710299837 ], [ 142.026079009999989, 43.711079349 ], [ 142.026004129, 43.711204728 ] ] ] } },
{ "type": "Feature", "properties": { "A29_001": "01228", "A29_002": "北海道", "A29_003": "深川市", "A29_004": 5, "A29_005": "第一種住居地域", "A29_006": 60, "A29_007": 200, "A29_008": "条件付き公開" }, "geometry": { "type": "Polygon", "coordinates": [ [ [ 142.034827664, 43.74368052 ], [ 142.034795667, 43.743731833 ], [ 142.034696083, 43.743911583 ], [ 142.034557798, 43.74410887 ], [ 142.03454836099999, 43.744122333 ], [ 142.03456978, 43.744142389 ], [ 142.034586838, 43.744148013 ], [ 142.034588552, 43.744148578 ], [ 142.034690418999986, 43.744182167 ], [ 142.03471554, 43.74419045 ], [ 142.035096392000014, 43.744316028 ], [ 142.035167086, 43.744342832 ], [ 142.035249196, 43.744385167 ], [ 142.035363456999988, 43.744465708 ], [ 142.035376364, 43.744474806 ], [ 142.03542983599999, 43.744520305 ], [ 142.035477113000013, 43.744571667 ], [ 142.035514419, 43.744627971 ], [ 142.035540225, 43.7446775 ], [ 142.035570697, 43.744741472 ], [ 142.03558344699999, 43.744812861 ], [ 142.03558686400001, 43.74486175 ], [ 142.035584252, 43.744925389 ], [ 142.035578364, 43.744985389 ], [ 142.035557503, 43.745055443 ], [ 142.035521585999987, 43.745123694 ], [ 142.035496289, 43.745169754 ], [ 142.035473835, 43.745210638 ], [ 142.035453483, 43.745244822 ], [ 142.035450086, 43.745250528 ], [ 142.03614403, 43.745466278 ], [ 142.036272085, 43.745506306 ], [ 142.036274982, 43.745501859 ], [ 142.036325717000011, 43.745423975 ], [ 142.036383586, 43.745335139 ], [ 142.036425392000012, 43.745267666 ], [ 142.036466114, 43.745202667 ], [ 142.03648561899999, 43.745167948 ], [ 142.036512447, 43.745120194 ], [ 142.036541725, 43.745061249 ], [ 142.03655958600001, 43.745014056 ], [ 142.03658536399999, 43.744873778 ], [ 142.03658878600001, 43.744792606 ], [ 142.036589029999988, 43.744786833 ], [ 142.036574308000013, 43.744670028 ], [ 142.036555668, 43.744608091 ], [ 142.036555432, 43.744606771 ], [ 142.036555424999989, 43.74460674 ], [ 142.036543779, 43.744568043 ], [ 142.036543803, 43.744567958 ], [ 142.036543196, 43.744566651 ], [ 142.036527919, 43.744515889 ], [ 142.03650511399999, 43.744484564 ], [ 142.036484139, 43.744455528 ], [ 142.036464736999989, 43.744411058 ], [ 142.03645286299999, 43.744383611 ], [ 142.036411148000013, 43.744341926 ], [ 142.036410585, 43.744341199 ], [ 142.036203871, 43.744134635 ], [ 142.036203626, 43.744134554 ], [ 142.03483888, 43.743683952 ], [ 142.03482853700001, 43.743680787 ], [ 142.034827802, 43.743680562 ], [ 142.034827664, 43.74368052 ] ] ] } },
{ "type": "Feature", "properties": { "A29_001": "01228", "A29_002": "北海道", "A29_003": "深川市", "A29_004": 5, "A29_005": "第一種住居地域", "A29_006": 60, "A29_007": 200, "A29_008": "条件付き公開" }, "geometry": { "type": "Polygon", "coordinates": [ [ [ 142.060606611, 43.725501056 ], [ 142.060346638999988, 43.725419528 ], [ 142.060203324000014, 43.725373821 ], [ 142.06019971, 43.725372668 ], [ 142.059957056, 43.725295278 ], [ 142.05928269399999, 43.725079556 ], [ 142.059021417, 43.724994889 ], [ 142.05857947199999, 43.724860889 ], [ 142.057958694, 43.724659583 ], [ 142.056771778000012, 43.724279639 ], [ 142.056075123999989, 43.724065029 ], [ 142.05614301599999, 43.723918572 ], [ 142.055802527999987, 43.723791889 ], [ 142.055501056, 43.72369775 ], [ 142.05550175, 43.723720778 ], [ 142.055083028000013, 43.723590361 ], [ 142.055071083, 43.723608222 ], [ 142.054788444, 43.723518139 ], [ 142.054404971999986, 43.723312833 ], [ 142.05422477799999, 43.723256139 ], [ 142.053527167, 43.72303675 ], [ 142.053025, 43.722879056 ], [ 142.052910583, 43.72305475 ], [ 142.052459634, 43.722910703 ], [ 142.051821944000011, 43.722707 ], [ 142.051252, 43.722523667 ], [ 142.050344333, 43.722234028 ], [ 142.05, 43.722126639 ], [ 142.049144278, 43.721851583 ], [ 142.0485425, 43.721664444 ], [ 142.047787222000011, 43.721421417 ], [ 142.046690805999987, 43.721071694 ], [ 142.046550556, 43.721018639 ], [ 142.046494967, 43.721106516 ], [ 142.04616681600001, 43.721661629 ], [ 142.046103722, 43.721768361 ], [ 142.04583889, 43.722217671 ], [ 142.045806277999986, 43.722273 ], [ 142.04580282399999, 43.722278507 ], [ 142.04593202800001, 43.722312306 ], [ 142.045959944, 43.722323222 ], [ 142.046249111, 43.722396139 ], [ 142.046392056, 43.722442306 ], [ 142.046714861, 43.722555583 ], [ 142.04676769400001, 43.722571888 ], [ 142.046767913, 43.722571955 ], [ 142.046941694, 43.722625583 ], [ 142.046974417, 43.722635806 ], [ 142.04699388899999, 43.722639306 ], [ 142.047014667000013, 43.722640167 ], [ 142.04904263899999, 43.723305472 ], [ 142.048555098, 43.72415822 ], [ 142.04838436, 43.72445685 ], [ 142.049020431, 43.724583977 ], [ 142.051317059000013, 43.725042041 ], [ 142.051667766, 43.72510695 ], [ 142.05198542, 43.72516574 ], [ 142.055044083000013, 43.725773567 ], [ 142.055084031, 43.725775381 ], [ 142.055121512999989, 43.725771848 ], [ 142.055153847000014, 43.725762646 ], [ 142.05518616, 43.725751356 ], [ 142.05522042199999, 43.725732114 ], [ 142.055533922, 43.725526273 ], [ 142.06485527800001, 43.728412341 ], [ 142.064910389, 43.72832175 ], [ 142.064932639, 43.728262472 ], [ 142.065213222000011, 43.727785944 ], [ 142.065408194000014, 43.727474222 ], [ 142.065628248, 43.727100321 ], [ 142.065628857, 43.727099277 ], [ 142.065258758999988, 43.72698015 ], [ 142.065257287, 43.726979676 ], [ 142.064314639, 43.72667625 ], [ 142.06370225, 43.726485278 ], [ 142.063438303999988, 43.726400833 ], [ 142.063425509000012, 43.72639674 ], [ 142.06308302799999, 43.726287167 ], [ 142.061837806, 43.725889361 ], [ 142.060606611, 43.725501056 ] ] ] } }
]
}
