{
"type": "FeatureCollection",
"name": "A29-19_01664",
"features": [
{ "type": "Feature", "properties": { "A29_001": "01664", "A29_002": "北海道", "A29_003": "標茶町", "A29_004": 10, "A29_005": "準工業地域", "A29_006": 60, "A29_007": 200, "A29_008": "条件付き公開" }, "geometry": { "type": "Polygon", "coordinates": [ [ [ 144.607521808, 43.289881281 ], [ 144.606724705, 43.28840136 ], [ 144.60527853, 43.288845892 ], [ 144.60601864899999, 43.290172159 ], [ 144.60632361099999, 43.290120833 ], [ 144.607055194, 43.289962361 ], [ 144.607521808, 43.289881281 ] ] ] } },
{ "type": "Feature", "properties": { "A29_001": "01664", "A29_002": "北海道", "A29_003": "標茶町", "A29_004": 1, "A29_005": "第一種低層住居専用地域", "A29_006": 40, "A29_007": 60, "A29_008": "条件付き公開" }, "geometry": { "type": "Polygon", "coordinates": [ [ [ 144.604027167, 43.295277972 ], [ 144.604320222000013, 43.294916417 ], [ 144.60463354800001, 43.294531294 ], [ 144.604676500000011, 43.2944785 ], [ 144.60470125, 43.294443694 ], [ 144.604829856, 43.294294762 ], [ 144.604998443999989, 43.294099528 ], [ 144.605758478000013, 43.293202112 ], [ 144.605969187999989, 43.293102375 ], [ 144.605206272, 43.291435132 ], [ 144.604895287, 43.290943072 ], [ 144.603353621, 43.288934744 ], [ 144.600579667, 43.291159201 ], [ 144.600241806000014, 43.290943722 ], [ 144.599279222, 43.2902905 ], [ 144.59926483000001, 43.290280993 ], [ 144.598017019999986, 43.292059246 ], [ 144.598367139, 43.292579222 ], [ 144.597774111, 43.292900806 ], [ 144.59758996, 43.293009295 ], [ 144.598342105, 43.293622454 ], [ 144.59890457899999, 43.293908456 ], [ 144.60012601299999, 43.294472536 ], [ 144.601057129999987, 43.294900305 ], [ 144.6013477, 43.295076615 ], [ 144.601682958, 43.295311856 ], [ 144.602065855, 43.295665084 ], [ 144.602925230000011, 43.295237431 ], [ 144.603678651, 43.295689787 ], [ 144.603833194, 43.295502417 ], [ 144.60385939, 43.295472105 ], [ 144.604027167, 43.295277972 ] ] ] } },
{ "type": "Feature", "properties": { "A29_001": "01664", "A29_002": "北海道", "A29_003": "標茶町", "A29_004": 10, "A29_005": "準工業地域", "A29_006": 60, "A29_007": 200, "A29_008": "条件付き公開" }, "geometry": { "type": "Polygon", "coordinates": [ [ [ 144.594749846000013, 43.296742575 ], [ 144.594627643, 43.29646785 ], [ 144.594883857000013, 43.296509949 ], [ 144.595133347, 43.296516342 ], [ 144.595402349000011, 43.296513149 ], [ 144.596085562000013, 43.296467497 ], [ 144.596474777999987, 43.296444883 ], [ 144.596705714, 43.296457045 ], [ 144.59691131400001, 43.296486432 ], [ 144.597074002, 43.296538813 ], [ 144.597207101, 43.296595457 ], [ 144.59707872199999, 43.296312389 ], [ 144.596975081000011, 43.296059427 ], [ 144.597234394, 43.295699214 ], [ 144.596127674, 43.295227231 ], [ 144.595735268, 43.295030731 ], [ 144.595486618, 43.294883813 ], [ 144.593548993000013, 43.293015203 ], [ 144.590739766000013, 43.293276073 ], [ 144.590280901999989, 43.293713518 ], [ 144.590311648000011, 43.293731327 ], [ 144.591191306000013, 43.294240861 ], [ 144.591666667, 43.294516444 ], [ 144.591898917, 43.294651083 ], [ 144.592367139, 43.29492375 ], [ 144.593321194, 43.295469861 ], [ 144.593458139, 43.295549472 ], [ 144.593508399, 43.295578684 ], [ 144.593517139, 43.29582725 ], [ 144.5935345, 43.295901944 ], [ 144.593588028, 43.296019361 ], [ 144.593636550000014, 43.296120558 ], [ 144.593775838, 43.296411056 ], [ 144.59383438899999, 43.296533167 ], [ 144.593882994000012, 43.296638292 ], [ 144.59401576, 43.296925446 ], [ 144.594749846000013, 43.296742575 ] ] ] } },
{ "type": "Feature", "properties": { "A29_001": "01664", "A29_002": "北海道", "A29_003": "標茶町", "A29_004": 4, "A29_005": "第二種中高層住居専用地域", "A29_006": 60, "A29_007": 200, "A29_008": "条件付き公開" }, "geometry": { "type": "Polygon", "coordinates": [ [ [ 144.607022949999987, 43.292252137 ], [ 144.606931417999988, 43.292211932 ], [ 144.606559839999989, 43.292234527 ], [ 144.606507655, 43.291906685 ], [ 144.607392083, 43.291823889 ], [ 144.607266028, 43.291107472 ], [ 144.607055194, 43.289962361 ], [ 144.60632361099999, 43.290120833 ], [ 144.60601864899999, 43.290172159 ], [ 144.60527853, 43.288845892 ], [ 144.606724705, 43.28840136 ], [ 144.60740435, 43.288208697 ], [ 144.607697852, 43.28883705 ], [ 144.60788338, 43.287856731 ], [ 144.607597293999987, 43.28755276 ], [ 144.60667411599999, 43.286686775 ], [ 144.605972137, 43.28573054 ], [ 144.605934045, 43.28546009 ], [ 144.601395066, 43.286242957 ], [ 144.60346542100001, 43.288845086 ], [ 144.603353621, 43.288934744 ], [ 144.604895287, 43.290943072 ], [ 144.605206272, 43.291435132 ], [ 144.605969187999989, 43.293102375 ], [ 144.605758478000013, 43.293202112 ], [ 144.604998443999989, 43.294099528 ], [ 144.604829856, 43.294294762 ], [ 144.60470125, 43.294443694 ], [ 144.604676500000011, 43.2944785 ], [ 144.60463354800001, 43.294531294 ], [ 144.604320222000013, 43.294916417 ], [ 144.604027167, 43.295277972 ], [ 144.60385939, 43.295472105 ], [ 144.603833194, 43.295502417 ], [ 144.603678651, 43.295689787 ], [ 144.603929583, 43.295840444 ], [ 144.60419941699999, 43.296002472 ], [ 144.60538455599999, 43.296711556 ], [ 144.6054631, 43.296755997 ], [ 144.607329459, 43.294434639 ], [ 144.607091306, 43.294324806 ], [ 144.60731072199999, 43.2940345 ], [ 144.60743280599999, 43.294009861 ], [ 144.60753585, 43.293984933 ], [ 144.60773169399999, 43.293937556 ], [ 144.607707971999986, 43.293897556 ], [ 144.607551333, 43.293531333 ], [ 144.60731561599999, 43.292983577 ], [ 144.607274749999988, 43.292888611 ], [ 144.607086111, 43.292484222 ], [ 144.607056875000012, 43.292444768 ], [ 144.607022949999987, 43.292252137 ] ] ] } },
{ "type": "Feature", "properties": { "A29_001": "01664", "A29_002": "北海道", "A29_003": "標茶町", "A29_004": 8, "A29_005": "近隣商業地域", "A29_006": 80, "A29_007": 300, "A29_008": "条件付き公開" }, "geometry": { "type": "Polygon", "coordinates": [ [ [ 144.606630306, 43.296854806 ], [ 144.60658559399999, 43.296735419 ], [ 144.606012778, 43.2968535 ], [ 144.605908389, 43.296995444 ], [ 144.6053805, 43.297884222 ], [ 144.605079944000011, 43.298403111 ], [ 144.605396332999987, 43.298490667 ], [ 144.60578833299999, 43.2983995 ], [ 144.605618083, 43.297969611 ], [ 144.606348610999987, 43.297813306 ], [ 144.606805194, 43.297709351 ], [ 144.606850693000013, 43.297698991 ], [ 144.606858923, 43.297697117 ], [ 144.606946666999988, 43.297677139 ], [ 144.606630306, 43.296854806 ] ] ] } },
{ "type": "Feature", "properties": { "A29_001": "01664", "A29_002": "北海道", "A29_003": "標茶町", "A29_004": 7, "A29_005": "準住居地域", "A29_006": 60, "A29_007": 200, "A29_008": "条件付き公開" }, "geometry": { "type": "Polygon", "coordinates": [ [ [ 144.597242302000012, 43.295702586 ], [ 144.597234394, 43.295699214 ], [ 144.596975081000011, 43.296059427 ], [ 144.59707872199999, 43.296312389 ], [ 144.597207101, 43.296595457 ], [ 144.597307390999987, 43.296638139 ], [ 144.597745013, 43.296869745 ], [ 144.598306459000014, 43.297199578 ], [ 144.59852461700001, 43.297371829 ], [ 144.598745223, 43.297629816 ], [ 144.59903666400001, 43.298206634 ], [ 144.59876855600001, 43.298269028 ], [ 144.599235136, 43.29929644 ], [ 144.600302166, 43.299042011 ], [ 144.60022752099999, 43.297968066 ], [ 144.600166967, 43.297644332 ], [ 144.600083969999986, 43.297387356 ], [ 144.599929304, 43.297142508 ], [ 144.599771679000014, 43.296950068 ], [ 144.599545510000013, 43.296745928 ], [ 144.599232992999987, 43.296552769 ], [ 144.598825997, 43.296374188 ], [ 144.597242302000012, 43.295702586 ] ] ] } },
{ "type": "Feature", "properties": { "A29_001": "01664", "A29_002": "北海道", "A29_003": "標茶町", "A29_004": 9, "A29_005": "商業地域", "A29_006": 80, "A29_007": 400, "A29_008": "条件付き公開" }, "geometry": { "type": "Polygon", "coordinates": [ [ [ 144.6057835, 43.299991194 ], [ 144.605605056, 43.299546472 ], [ 144.606210583, 43.299423111 ], [ 144.60639236099999, 43.299888583 ], [ 144.607117444000011, 43.299748111 ], [ 144.607176054, 43.299864943 ], [ 144.60741587699999, 43.299809466 ], [ 144.607144589, 43.299145802 ], [ 144.607998629, 43.298950402 ], [ 144.607823722, 43.298540806 ], [ 144.607636528, 43.298581972 ], [ 144.607475, 43.298615556 ], [ 144.607263722, 43.298655833 ], [ 144.606858923, 43.297697117 ], [ 144.606850693000013, 43.297698991 ], [ 144.606805194, 43.297709351 ], [ 144.606348610999987, 43.297813306 ], [ 144.605618083, 43.297969611 ], [ 144.60578833299999, 43.2983995 ], [ 144.605396332999987, 43.298490667 ], [ 144.605079944000011, 43.298403111 ], [ 144.604942972, 43.298647 ], [ 144.60492045399999, 43.29868005 ], [ 144.604750833, 43.298929 ], [ 144.604718799000011, 43.298964773 ], [ 144.60438988199999, 43.298753996 ], [ 144.60420131699999, 43.298964652 ], [ 144.603441185, 43.299127784 ], [ 144.603442417, 43.299130586 ], [ 144.603806662000011, 43.299917201 ], [ 144.60428675, 43.299817194 ], [ 144.604558942000011, 43.299760504 ], [ 144.604711138999988, 43.299728806 ], [ 144.604821528, 43.3 ], [ 144.60490669399999, 43.30020925 ], [ 144.605068361, 43.300168389 ], [ 144.60522983300001, 43.300127583 ], [ 144.605337940999988, 43.300107023 ], [ 144.605763389, 43.300026111 ], [ 144.605779222, 43.3 ], [ 144.6057835, 43.299991194 ] ] ] } },
{ "type": "Feature", "properties": { "A29_001": "01664", "A29_002": "北海道", "A29_003": "標茶町", "A29_004": 3, "A29_005": "第一種中高層住居専用地域", "A29_006": 60, "A29_007": 200, "A29_008": "条件付き公開" }, "geometry": { "type": "Polygon", "coordinates": [ [ [ 144.592649454, 43.30119762 ], [ 144.594352818, 43.300798577 ], [ 144.594372662000012, 43.30084782 ], [ 144.594450943999988, 43.300829 ], [ 144.59480752799999, 43.300743028 ], [ 144.5947385, 43.300589806 ], [ 144.59567402799999, 43.300346861 ], [ 144.595712123, 43.300421593 ], [ 144.597190675, 43.300066421 ], [ 144.59708323000001, 43.299809517 ], [ 144.599235136, 43.29929644 ], [ 144.59876855600001, 43.298269028 ], [ 144.59903666400001, 43.298206634 ], [ 144.598745223, 43.297629816 ], [ 144.59852461700001, 43.297371829 ], [ 144.598306459000014, 43.297199578 ], [ 144.597745013, 43.296869745 ], [ 144.597307390999987, 43.296638139 ], [ 144.597074002, 43.296538813 ], [ 144.59691131400001, 43.296486432 ], [ 144.596705714, 43.296457045 ], [ 144.596474777999987, 43.296444883 ], [ 144.596085562000013, 43.296467497 ], [ 144.595402349000011, 43.296513149 ], [ 144.595133347, 43.296516342 ], [ 144.594883857000013, 43.296509949 ], [ 144.594627643, 43.29646785 ], [ 144.594749846000013, 43.296742575 ], [ 144.59401576, 43.296925446 ], [ 144.594084111, 43.297073278 ], [ 144.594109100999987, 43.297127575 ], [ 144.59434347199999, 43.297636806 ], [ 144.594638417, 43.298277722 ], [ 144.594662230000012, 43.298323935 ], [ 144.594805083000011, 43.298601167 ], [ 144.594924111000012, 43.298794833 ], [ 144.595058028000011, 43.299027611 ], [ 144.595133471999986, 43.2991435 ], [ 144.595245833, 43.299387139 ], [ 144.595305515, 43.299516548 ], [ 144.595314730000013, 43.29953653 ], [ 144.59401147299999, 43.299842598 ], [ 144.594162473000011, 43.300249901 ], [ 144.592468384999989, 43.300544607 ], [ 144.592649454, 43.30119762 ] ] ] } },
{ "type": "Feature", "properties": { "A29_001": "01664", "A29_002": "北海道", "A29_003": "標茶町", "A29_004": 8, "A29_005": "近隣商業地域", "A29_006": 80, "A29_007": 300, "A29_008": "条件付き公開" }, "geometry": { "type": "Polygon", "coordinates": [ [ [ 144.607993018, 43.30091101 ], [ 144.60741587699999, 43.299809466 ], [ 144.607176054, 43.299864943 ], [ 144.607117444000011, 43.299748111 ], [ 144.60672696, 43.299823761 ], [ 144.60737075, 43.301103991 ], [ 144.60774469399999, 43.300988667 ], [ 144.607993018, 43.30091101 ] ] ] } },
{ "type": "Feature", "properties": { "A29_001": "01664", "A29_002": "北海道", "A29_003": "標茶町", "A29_004": 5, "A29_005": "第一種住居地域", "A29_006": 60, "A29_007": 200, "A29_008": "条件付き公開" }, "geometry": { "type": "Polygon", "coordinates": [ [ [ 144.61108088899999, 43.300871361 ], [ 144.608978822000012, 43.296072084 ], [ 144.609946342, 43.295843272 ], [ 144.610152844, 43.295748543 ], [ 144.610623414, 43.295475127 ], [ 144.609867167, 43.294411548 ], [ 144.60957957299999, 43.293747941 ], [ 144.609268735, 43.292458003 ], [ 144.609451137, 43.291871516 ], [ 144.609421147, 43.29176205 ], [ 144.609167073, 43.291250769 ], [ 144.608753338000014, 43.290756661 ], [ 144.60831088099999, 43.290367438 ], [ 144.608003902, 43.289727705 ], [ 144.607668332, 43.288993029 ], [ 144.607697852, 43.28883705 ], [ 144.60740435, 43.288208697 ], [ 144.606724705, 43.28840136 ], [ 144.607521808, 43.289881281 ], [ 144.607055194, 43.289962361 ], [ 144.607266028, 43.291107472 ], [ 144.607392083, 43.291823889 ], [ 144.606507655, 43.291906685 ], [ 144.606559839999989, 43.292234527 ], [ 144.606931417999988, 43.292211932 ], [ 144.607022949999987, 43.292252137 ], [ 144.607056875000012, 43.292444768 ], [ 144.607086111, 43.292484222 ], [ 144.607274749999988, 43.292888611 ], [ 144.60731561599999, 43.292983577 ], [ 144.607551333, 43.293531333 ], [ 144.607707971999986, 43.293897556 ], [ 144.60773169399999, 43.293937556 ], [ 144.60753585, 43.293984933 ], [ 144.60743280599999, 43.294009861 ], [ 144.60731072199999, 43.2940345 ], [ 144.607091306, 43.294324806 ], [ 144.607329459, 43.294434639 ], [ 144.6054631, 43.296755997 ], [ 144.60538455599999, 43.296711556 ], [ 144.60419941699999, 43.296002472 ], [ 144.603929583, 43.295840444 ], [ 144.603678651, 43.295689787 ], [ 144.602925230000011, 43.295237431 ], [ 144.602065855, 43.295665084 ], [ 144.602391883, 43.29610804 ], [ 144.602573595, 43.296404724 ], [ 144.602935460999987, 43.297179109 ], [ 144.603071104, 43.297628367 ], [ 144.603115677, 43.298117919 ], [ 144.60315955499999, 43.298487432 ], [ 144.603441185, 43.299127784 ], [ 144.60420131699999, 43.298964652 ], [ 144.60438988199999, 43.298753996 ], [ 144.604718799000011, 43.298964773 ], [ 144.604750833, 43.298929 ], [ 144.60492045399999, 43.29868005 ], [ 144.604942972, 43.298647 ], [ 144.605079944000011, 43.298403111 ], [ 144.6053805, 43.297884222 ], [ 144.605908389, 43.296995444 ], [ 144.606012778, 43.2968535 ], [ 144.60658559399999, 43.296735419 ], [ 144.606630306, 43.296854806 ], [ 144.606946666999988, 43.297677139 ], [ 144.606858923, 43.297697117 ], [ 144.607263722, 43.298655833 ], [ 144.607475, 43.298615556 ], [ 144.607636528, 43.298581972 ], [ 144.607823722, 43.298540806 ], [ 144.608026701, 43.298500168 ], [ 144.607909256, 43.298194956 ], [ 144.608044718, 43.29816214 ], [ 144.607383371999987, 43.296597963 ], [ 144.607774119, 43.296503377 ], [ 144.608356128, 43.297882975 ], [ 144.608430043999988, 43.298031366 ], [ 144.608640065, 43.29825618 ], [ 144.608898898, 43.298186298 ], [ 144.608912471999986, 43.298222667 ], [ 144.60926838899999, 43.299060028 ], [ 144.609443356000014, 43.299502964 ], [ 144.609447694000011, 43.299513944 ], [ 144.60913991699999, 43.299590222 ], [ 144.609299416999988, 43.3 ], [ 144.60929983299999, 43.300001083 ], [ 144.609382806000013, 43.300254472 ], [ 144.609401345, 43.30029734 ], [ 144.609489833, 43.300501944 ], [ 144.609786028, 43.301161944 ], [ 144.61034780599999, 43.301038083 ], [ 144.61108088899999, 43.300871361 ] ] ] } },
{ "type": "Feature", "properties": { "A29_001": "01664", "A29_002": "北海道", "A29_003": "標茶町", "A29_004": 8, "A29_005": "近隣商業地域", "A29_006": 80, "A29_007": 300, "A29_008": "条件付き公開" }, "geometry": { "type": "Polygon", "coordinates": [ [ [ 144.60137087199999, 43.301141053 ], [ 144.60086426699999, 43.300103743 ], [ 144.60077141799999, 43.30011951 ], [ 144.600302166, 43.299042011 ], [ 144.59951380199999, 43.299229994 ], [ 144.599890033, 43.300059049 ], [ 144.599569557, 43.300130529 ], [ 144.599812547, 43.300649962 ], [ 144.600125177, 43.300574694 ], [ 144.600477519, 43.301368465 ], [ 144.600941389000013, 43.301256389 ], [ 144.60137087199999, 43.301141053 ] ] ] } },
{ "type": "Feature", "properties": { "A29_001": "01664", "A29_002": "北海道", "A29_003": "標茶町", "A29_004": 10, "A29_005": "準工業地域", "A29_006": 60, "A29_007": 200, "A29_008": "条件付き公開" }, "geometry": { "type": "Polygon", "coordinates": [ [ [ 144.609489833, 43.300501944 ], [ 144.609401345, 43.30029734 ], [ 144.609382806000013, 43.300254472 ], [ 144.60929983299999, 43.300001083 ], [ 144.609299416999988, 43.3 ], [ 144.60913991699999, 43.299590222 ], [ 144.609447694000011, 43.299513944 ], [ 144.609443356000014, 43.299502964 ], [ 144.60926838899999, 43.299060028 ], [ 144.608912471999986, 43.298222667 ], [ 144.608898898, 43.298186298 ], [ 144.608640065, 43.29825618 ], [ 144.608430043999988, 43.298031366 ], [ 144.608356128, 43.297882975 ], [ 144.607774119, 43.296503377 ], [ 144.607383371999987, 43.296597963 ], [ 144.608044718, 43.29816214 ], [ 144.607909256, 43.298194956 ], [ 144.608026701, 43.298500168 ], [ 144.607823722, 43.298540806 ], [ 144.607998629, 43.298950402 ], [ 144.607144589, 43.299145802 ], [ 144.607395821000011, 43.2997604 ], [ 144.60741587699999, 43.299809466 ], [ 144.607832774, 43.300605169 ], [ 144.608948192000014, 43.300329726 ], [ 144.609400889, 43.301252928 ], [ 144.609441425999989, 43.301243351 ], [ 144.6094779, 43.301234735 ], [ 144.609786028, 43.301161944 ], [ 144.609489833, 43.300501944 ] ] ] } },
{ "type": "Feature", "properties": { "A29_001": "01664", "A29_002": "北海道", "A29_003": "標茶町", "A29_004": 11, "A29_005": "工業地域", "A29_006": 60, "A29_007": 200, "A29_008": "条件付き公開" }, "geometry": { "type": "Polygon", "coordinates": [ [ [ 144.611039971999986, 43.295685139 ], [ 144.610623414, 43.295475127 ], [ 144.610152844, 43.295748543 ], [ 144.609946342, 43.295843272 ], [ 144.608978822000012, 43.296072084 ], [ 144.61108088899999, 43.300871361 ], [ 144.611408452, 43.301605276 ], [ 144.611865668, 43.301505268 ], [ 144.616594596, 43.300473199 ], [ 144.61389362, 43.2981477 ], [ 144.614504713, 43.297819453 ], [ 144.61372565, 43.297321763 ], [ 144.612306437, 43.296649848 ], [ 144.61211817, 43.296245545 ], [ 144.611039971999986, 43.295685139 ] ] ] } },
{ "type": "Feature", "properties": { "A29_001": "01664", "A29_002": "北海道", "A29_003": "標茶町", "A29_004": 5, "A29_005": "第一種住居地域", "A29_006": 60, "A29_007": 200, "A29_008": "条件付き公開" }, "geometry": { "type": "Polygon", "coordinates": [ [ [ 144.609607082999986, 43.303404972 ], [ 144.609323639, 43.30286175 ], [ 144.608807111, 43.301719361 ], [ 144.60865456, 43.301419495 ], [ 144.608663166000014, 43.301417612 ], [ 144.60913025, 43.301315389 ], [ 144.609215971999987, 43.301296611 ], [ 144.609400889, 43.301252928 ], [ 144.608948192000014, 43.300329726 ], [ 144.607832774, 43.300605169 ], [ 144.607993018, 43.30091101 ], [ 144.60774469399999, 43.300988667 ], [ 144.60737075, 43.301103991 ], [ 144.60672696, 43.299823761 ], [ 144.60639236099999, 43.299888583 ], [ 144.606210583, 43.299423111 ], [ 144.605605056, 43.299546472 ], [ 144.6057835, 43.299991194 ], [ 144.605779222, 43.3 ], [ 144.605763389, 43.300026111 ], [ 144.605337940999988, 43.300107023 ], [ 144.60522983300001, 43.300127583 ], [ 144.605068361, 43.300168389 ], [ 144.60490669399999, 43.30020925 ], [ 144.604821528, 43.3 ], [ 144.604711138999988, 43.299728806 ], [ 144.604558942000011, 43.299760504 ], [ 144.60428675, 43.299817194 ], [ 144.603806662000011, 43.299917201 ], [ 144.604026256, 43.300388255 ], [ 144.604258053, 43.300770524 ], [ 144.604651245000014, 43.301267692 ], [ 144.60474944399999, 43.301247 ], [ 144.60554108299999, 43.301090028 ], [ 144.606123056, 43.30097175 ], [ 144.606348972, 43.301355611 ], [ 144.606688222, 43.301898222 ], [ 144.607297194000012, 43.301730417 ], [ 144.607543278, 43.302184333 ], [ 144.607909417, 43.302834167 ], [ 144.6080775, 43.303125917 ], [ 144.608113306, 43.303180639 ], [ 144.60843403199999, 43.303091854 ], [ 144.60929101799999, 43.304581476 ], [ 144.60967116099999, 43.304477984 ], [ 144.609458819999986, 43.304167952 ], [ 144.609955444, 43.304057333 ], [ 144.609607082999986, 43.303404972 ] ] ] } },
{ "type": "Feature", "properties": { "A29_001": "01664", "A29_002": "北海道", "A29_003": "標茶町", "A29_004": 10, "A29_005": "準工業地域", "A29_006": 60, "A29_007": 200, "A29_008": "条件付き公開" }, "geometry": { "type": "Polygon", "coordinates": [ [ [ 144.61105084, 43.305868311 ], [ 144.610560112, 43.305100517 ], [ 144.609955444, 43.304057333 ], [ 144.609458819999986, 43.304167952 ], [ 144.60967116099999, 43.304477984 ], [ 144.60929101799999, 43.304581476 ], [ 144.609701817, 43.305224688 ], [ 144.61005864099999, 43.305110863 ], [ 144.610059371, 43.305112056 ], [ 144.610240056, 43.305407167 ], [ 144.610261802, 43.305440736 ], [ 144.610609083000014, 43.305976806 ], [ 144.61105084, 43.305868311 ] ] ] } },
{ "type": "Feature", "properties": { "A29_001": "01664", "A29_002": "北海道", "A29_003": "標茶町", "A29_004": 4, "A29_005": "第二種中高層住居専用地域", "A29_006": 60, "A29_007": 200, "A29_008": "条件付き公開" }, "geometry": { "type": "Polygon", "coordinates": [ [ [ 144.614313653000011, 43.307365871 ], [ 144.612510076, 43.303250068 ], [ 144.612635141999988, 43.303222519 ], [ 144.611865668, 43.301505268 ], [ 144.611408452, 43.301605276 ], [ 144.61108088899999, 43.300871361 ], [ 144.61034780599999, 43.301038083 ], [ 144.609786028, 43.301161944 ], [ 144.6094779, 43.301234735 ], [ 144.609441425999989, 43.301243351 ], [ 144.609215971999987, 43.301296611 ], [ 144.60913025, 43.301315389 ], [ 144.608663166000014, 43.301417612 ], [ 144.60865456, 43.301419495 ], [ 144.608807111, 43.301719361 ], [ 144.609323639, 43.30286175 ], [ 144.609607082999986, 43.303404972 ], [ 144.609955444, 43.304057333 ], [ 144.610560112, 43.305100517 ], [ 144.61105084, 43.305868311 ], [ 144.61124082399999, 43.306167287 ], [ 144.611578922, 43.306089372 ], [ 144.61228522499999, 43.30782176 ], [ 144.61298944399999, 43.307678833 ], [ 144.61392077799999, 43.307459417 ], [ 144.614313653000011, 43.307365871 ] ] ] } },
{ "type": "Feature", "properties": { "A29_001": "01664", "A29_002": "北海道", "A29_003": "標茶町", "A29_004": 5, "A29_005": "第一種住居地域", "A29_006": 60, "A29_007": 200, "A29_008": "条件付き公開" }, "geometry": { "type": "Polygon", "coordinates": [ [ [ 144.61228522499999, 43.30782176 ], [ 144.611578922, 43.306089372 ], [ 144.61124082399999, 43.306167287 ], [ 144.61105084, 43.305868311 ], [ 144.610609083000014, 43.305976806 ], [ 144.610261802, 43.305440736 ], [ 144.610240056, 43.305407167 ], [ 144.610059371, 43.305112056 ], [ 144.61005864099999, 43.305110863 ], [ 144.609701817, 43.305224688 ], [ 144.611427846999987, 43.30800933 ], [ 144.61178764600001, 43.307922745 ], [ 144.61228522499999, 43.30782176 ] ] ] } },
{ "type": "Feature", "properties": { "A29_001": "01664", "A29_002": "北海道", "A29_003": "標茶町", "A29_004": 3, "A29_005": "第一種中高層住居専用地域", "A29_006": 60, "A29_007": 200, "A29_008": "条件付き公開" }, "geometry": { "type": "Polygon", "coordinates": [ [ [ 144.60929101799999, 43.304581476 ], [ 144.60843403199999, 43.303091854 ], [ 144.608113306, 43.303180639 ], [ 144.6080775, 43.303125917 ], [ 144.607909417, 43.302834167 ], [ 144.607543278, 43.302184333 ], [ 144.607297194000012, 43.301730417 ], [ 144.606688222, 43.301898222 ], [ 144.606348972, 43.301355611 ], [ 144.606123056, 43.30097175 ], [ 144.60554108299999, 43.301090028 ], [ 144.60474944399999, 43.301247 ], [ 144.604651245000014, 43.301267692 ], [ 144.604654907, 43.301272321 ], [ 144.60519804, 43.30180415 ], [ 144.605924515999988, 43.302457351 ], [ 144.607142118000013, 43.303663489 ], [ 144.607921229999988, 43.304387013 ], [ 144.60908226, 43.305277009 ], [ 144.609905113999986, 43.306773977 ], [ 144.60974685799999, 43.307368961 ], [ 144.60976508600001, 43.307805241 ], [ 144.609711643999987, 43.308422311 ], [ 144.611427846999987, 43.30800933 ], [ 144.609701817, 43.305224688 ], [ 144.60929101799999, 43.304581476 ] ] ] } },
{ "type": "Feature", "properties": { "A29_001": "01664", "A29_002": "北海道", "A29_003": "標茶町", "A29_004": 4, "A29_005": "第二種中高層住居専用地域", "A29_006": 60, "A29_007": 200, "A29_008": "条件付き公開" }, "geometry": { "type": "Polygon", "coordinates": [ [ [ 144.60217710399999, 43.3061374 ], [ 144.6018855, 43.305414877 ], [ 144.600952906, 43.305590501 ], [ 144.600089806, 43.302976083 ], [ 144.59916973, 43.300995356 ], [ 144.59871382899999, 43.301109165 ], [ 144.598695241, 43.30105206 ], [ 144.596246278, 43.301590361 ], [ 144.596350980000011, 43.301830324 ], [ 144.593245521999989, 43.302453165 ], [ 144.593483834000011, 43.303017876 ], [ 144.593680108, 43.30297271 ], [ 144.594171859999989, 43.304159052 ], [ 144.59711383199999, 43.303642847 ], [ 144.597970358, 43.306867525 ], [ 144.597863, 43.308361944 ], [ 144.59970485, 43.308474684 ], [ 144.599688023999988, 43.308931064 ], [ 144.599703801, 43.309437134 ], [ 144.599763781, 43.31022033 ], [ 144.602661049, 43.310345573 ], [ 144.602698328, 43.30975773 ], [ 144.602824148, 43.309519166 ], [ 144.602966049, 43.307045351 ], [ 144.6021178, 43.307028995 ], [ 144.60217710399999, 43.3061374 ] ] ] } },
{ "type": "Feature", "properties": { "A29_001": "01664", "A29_002": "北海道", "A29_003": "標茶町", "A29_004": 5, "A29_005": "第一種住居地域", "A29_006": 60, "A29_007": 200, "A29_008": "条件付き公開" }, "geometry": { "type": "Polygon", "coordinates": [ [ [ 144.60484440799999, 43.313020563 ], [ 144.60486687, 43.312471416 ], [ 144.60572940599999, 43.312536579 ], [ 144.60575945, 43.31166557 ], [ 144.605220753, 43.311015596 ], [ 144.605806769999987, 43.310051463 ], [ 144.60578361099999, 43.310055694 ], [ 144.605697056, 43.310070472 ], [ 144.605568306, 43.310075556 ], [ 144.60532625, 43.310072444 ], [ 144.605259249999989, 43.310071583 ], [ 144.60522675499999, 43.310071019 ], [ 144.605269740000011, 43.30847273 ], [ 144.605264648, 43.308438449 ], [ 144.605248826, 43.308409917 ], [ 144.60521732, 43.308379037 ], [ 144.605167639, 43.3083645 ], [ 144.604999, 43.308354389 ], [ 144.604889399, 43.308351727 ], [ 144.604963268, 43.3075664 ], [ 144.604941854, 43.307249216 ], [ 144.60502670299999, 43.306585872 ], [ 144.604838311, 43.305991895 ], [ 144.60465591799999, 43.305441979 ], [ 144.604550378999988, 43.305098752 ], [ 144.60411200199999, 43.304955626 ], [ 144.603876934999988, 43.305045104 ], [ 144.603342193, 43.303909826 ], [ 144.601841971999988, 43.302204349 ], [ 144.60137087199999, 43.301141053 ], [ 144.600941389000013, 43.301256389 ], [ 144.600477519, 43.301368465 ], [ 144.600125177, 43.300574694 ], [ 144.599812547, 43.300649962 ], [ 144.599569557, 43.300130529 ], [ 144.599890033, 43.300059049 ], [ 144.59951380199999, 43.299229994 ], [ 144.59708323000001, 43.299809517 ], [ 144.597190675, 43.300066421 ], [ 144.595712123, 43.300421593 ], [ 144.59567402799999, 43.300346861 ], [ 144.5947385, 43.300589806 ], [ 144.59480752799999, 43.300743028 ], [ 144.594450943999988, 43.300829 ], [ 144.594372662000012, 43.30084782 ], [ 144.594352818, 43.300798577 ], [ 144.592649454, 43.30119762 ], [ 144.592708890000011, 43.30141144 ], [ 144.592804902000012, 43.301409026 ], [ 144.593245521999989, 43.302453165 ], [ 144.596350980000011, 43.301830324 ], [ 144.596246278, 43.301590361 ], [ 144.598695241, 43.30105206 ], [ 144.59871382899999, 43.301109165 ], [ 144.59916973, 43.300995356 ], [ 144.600089806, 43.302976083 ], [ 144.600952906, 43.305590501 ], [ 144.6018855, 43.305414877 ], [ 144.60217710399999, 43.3061374 ], [ 144.6021178, 43.307028995 ], [ 144.602966049, 43.307045351 ], [ 144.602824148, 43.309519166 ], [ 144.602698328, 43.30975773 ], [ 144.602661049, 43.310345573 ], [ 144.602949117, 43.310358022 ], [ 144.603616104999986, 43.310378144 ], [ 144.603618278, 43.310337556 ], [ 144.60363472200001, 43.310036944 ], [ 144.603657139, 43.309479528 ], [ 144.60368993899999, 43.308663229 ], [ 144.603692, 43.308611944 ], [ 144.60370319399999, 43.308333333 ], [ 144.603703889, 43.308315833 ], [ 144.60472938699999, 43.308343593 ], [ 144.60464328399999, 43.31003759 ], [ 144.60451280699999, 43.310035136 ], [ 144.604413338, 43.31169255 ], [ 144.604186254000012, 43.311679916 ], [ 144.60413427899999, 43.312411693 ], [ 144.604092278, 43.312408764 ], [ 144.604064244999989, 43.31298789 ], [ 144.60484440799999, 43.313020563 ] ] ] } },
{ "type": "Feature", "properties": { "A29_001": "01664", "A29_002": "北海道", "A29_003": "標茶町", "A29_004": 10, "A29_005": "準工業地域", "A29_006": 60, "A29_007": 200, "A29_008": "条件付き公開" }, "geometry": { "type": "Polygon", "coordinates": [ [ [ 144.603934047, 43.313655144 ], [ 144.603983919, 43.312984526 ], [ 144.604064244999989, 43.31298789 ], [ 144.604092278, 43.312408764 ], [ 144.60413427899999, 43.312411693 ], [ 144.604186254000012, 43.311679916 ], [ 144.604413338, 43.31169255 ], [ 144.60451280699999, 43.310035136 ], [ 144.60464328399999, 43.31003759 ], [ 144.60472938699999, 43.308343593 ], [ 144.603703889, 43.308315833 ], [ 144.60370319399999, 43.308333333 ], [ 144.603692, 43.308611944 ], [ 144.60368993899999, 43.308663229 ], [ 144.603657139, 43.309479528 ], [ 144.60363472200001, 43.310036944 ], [ 144.603618278, 43.310337556 ], [ 144.603616104999986, 43.310378144 ], [ 144.602949117, 43.310358022 ], [ 144.602920387000012, 43.310817621 ], [ 144.603591900999987, 43.31083024 ], [ 144.60359110600001, 43.310845101 ], [ 144.603547778, 43.311654389 ], [ 144.603529361, 43.3123695 ], [ 144.603463721999987, 43.313644278 ], [ 144.603934047, 43.313655144 ] ] ] } }
]
}
