{
"type": "FeatureCollection",
"name": "A29-19_01428",
"features": [
{ "type": "Feature", "properties": { "A29_001": "01428", "A29_002": "北海道", "A29_003": "長沼町", "A29_004": 1, "A29_005": "第一種低層住居専用地域", "A29_006": 40, "A29_007": 60, "A29_008": "条件付き公開" }, "geometry": { "type": "Polygon", "coordinates": [ [ [ 141.701927778999988, 43.001185787 ], [ 141.697794515, 43.002688316 ], [ 141.69884570100001, 43.004238556 ], [ 141.699345685999987, 43.004964351 ], [ 141.702352112999989, 43.003861806 ], [ 141.702266664, 43.003699227 ], [ 141.702113501000014, 43.002495882 ], [ 141.702436455999987, 43.001912522 ], [ 141.701927778999988, 43.001185787 ] ] ] } },
{ "type": "Feature", "properties": { "A29_001": "01428", "A29_002": "北海道", "A29_003": "長沼町", "A29_004": 5, "A29_005": "第一種住居地域", "A29_006": 60, "A29_007": 200, "A29_008": "条件付き公開" }, "geometry": { "type": "Polygon", "coordinates": [ [ [ 141.692243639, 43.004713917 ], [ 141.695713340999987, 43.003460865 ], [ 141.69547448099999, 43.003105302 ], [ 141.69310936299999, 43.003974822 ], [ 141.690080375, 43.005082481 ], [ 141.690308015, 43.005440733 ], [ 141.692243639, 43.004713917 ] ] ] } },
{ "type": "Feature", "properties": { "A29_001": "01428", "A29_002": "北海道", "A29_003": "長沼町", "A29_004": 3, "A29_005": "第一種中高層住居専用地域", "A29_006": 60, "A29_007": 200, "A29_008": "条件付き公開" }, "geometry": { "type": "Polygon", "coordinates": [ [ [ 141.707044857999989, 43.003099733 ], [ 141.704946452, 43.000075942 ], [ 141.701927778999988, 43.001185787 ], [ 141.702436455999987, 43.001912522 ], [ 141.702113501000014, 43.002495882 ], [ 141.702266664, 43.003699227 ], [ 141.702352112999989, 43.003861806 ], [ 141.699345685999987, 43.004964351 ], [ 141.69884570100001, 43.004238556 ], [ 141.69721662399999, 43.004841116 ], [ 141.698226589, 43.006283655 ], [ 141.701661454, 43.005031956 ], [ 141.707044857999989, 43.003099733 ] ] ] } },
{ "type": "Feature", "properties": { "A29_001": "01428", "A29_002": "北海道", "A29_003": "長沼町", "A29_004": 4, "A29_005": "第二種中高層住居専用地域", "A29_006": 60, "A29_007": 200, "A29_008": "条件付き公開" }, "geometry": { "type": "Polygon", "coordinates": [ [ [ 141.70048966600001, 43.006697235 ], [ 141.704651855, 43.005175615 ], [ 141.705029345000014, 43.005724054 ], [ 141.707564991999988, 43.00479041 ], [ 141.70766442499999, 43.004635089 ], [ 141.707854145, 43.004235117 ], [ 141.707044857999989, 43.003099733 ], [ 141.701661454, 43.005031956 ], [ 141.698226589, 43.006283655 ], [ 141.698892994, 43.007279931 ], [ 141.70048966600001, 43.006697235 ] ] ] } },
{ "type": "Feature", "properties": { "A29_001": "01428", "A29_002": "北海道", "A29_003": "長沼町", "A29_004": 10, "A29_005": "準工業地域", "A29_006": 60, "A29_007": 200, "A29_008": "条件付き公開" }, "geometry": { "type": "Polygon", "coordinates": [ [ [ 141.698892994, 43.007279931 ], [ 141.698226589, 43.006283655 ], [ 141.69721662399999, 43.004841116 ], [ 141.69884570100001, 43.004238556 ], [ 141.697794515, 43.002688316 ], [ 141.701927778999988, 43.001185787 ], [ 141.70140569599999, 43.000432564 ], [ 141.69847938, 43.001477163 ], [ 141.695171684, 43.00268201 ], [ 141.69547448099999, 43.003105302 ], [ 141.695713340999987, 43.003460865 ], [ 141.69690298099999, 43.005209494 ], [ 141.69778299399999, 43.006469196 ], [ 141.698263090000012, 43.007198544 ], [ 141.698442027999988, 43.007456328 ], [ 141.698892994, 43.007279931 ] ] ] } },
{ "type": "Feature", "properties": { "A29_001": "01428", "A29_002": "北海道", "A29_003": "長沼町", "A29_004": 3, "A29_005": "第一種中高層住居専用地域", "A29_006": 60, "A29_007": 200, "A29_008": "条件付き公開" }, "geometry": { "type": "Polygon", "coordinates": [ [ [ 141.69778299399999, 43.006469196 ], [ 141.69690298099999, 43.005209494 ], [ 141.695713340999987, 43.003460865 ], [ 141.692243639, 43.004713917 ], [ 141.69429442, 43.007739651 ], [ 141.69778299399999, 43.006469196 ] ] ] } },
{ "type": "Feature", "properties": { "A29_001": "01428", "A29_002": "北海道", "A29_003": "長沼町", "A29_004": 6, "A29_005": "第二種住居地域", "A29_006": 60, "A29_007": 200, "A29_008": "条件付き公開" }, "geometry": { "type": "Polygon", "coordinates": [ [ [ 141.689309127, 43.005259097 ], [ 141.688263113, 43.003710617 ], [ 141.686528548000013, 43.001176608 ], [ 141.683432186, 43.002323846 ], [ 141.684481105, 43.003810432 ], [ 141.681379623999987, 43.004955767 ], [ 141.680872539, 43.004215281 ], [ 141.677858168, 43.005328155 ], [ 141.678722541000013, 43.00662619 ], [ 141.683292881999989, 43.007755858 ], [ 141.682883935, 43.007137951 ], [ 141.68594557599999, 43.006014245 ], [ 141.68620033799999, 43.00639086 ], [ 141.689309127, 43.005259097 ] ] ] } },
{ "type": "Feature", "properties": { "A29_001": "01428", "A29_002": "北海道", "A29_003": "長沼町", "A29_004": 10, "A29_005": "準工業地域", "A29_006": 60, "A29_007": 200, "A29_008": "条件付き公開" }, "geometry": { "type": "Polygon", "coordinates": [ [ [ 141.70231816399999, 43.007403878 ], [ 141.705424367, 43.006256176 ], [ 141.707238944000011, 43.005587872 ], [ 141.707338862, 43.005236673 ], [ 141.707564991999988, 43.00479041 ], [ 141.705029345000014, 43.005724054 ], [ 141.704651855, 43.005175615 ], [ 141.70048966600001, 43.006697235 ], [ 141.70085532600001, 43.007248104 ], [ 141.700777476000013, 43.007276234 ], [ 141.70113002, 43.007835499 ], [ 141.70231816399999, 43.007403878 ] ] ] } },
{ "type": "Feature", "properties": { "A29_001": "01428", "A29_002": "北海道", "A29_003": "長沼町", "A29_004": 8, "A29_005": "近隣商業地域", "A29_006": 80, "A29_007": 200, "A29_008": "条件付き公開" }, "geometry": { "type": "Polygon", "coordinates": [ [ [ 141.70047490499999, 43.0080747 ], [ 141.70113002, 43.007835499 ], [ 141.700777476000013, 43.007276234 ], [ 141.70085532600001, 43.007248104 ], [ 141.70048966600001, 43.006697235 ], [ 141.698892994, 43.007279931 ], [ 141.698442027999988, 43.007456328 ], [ 141.699182167, 43.008538597 ], [ 141.70047490499999, 43.0080747 ] ] ] } },
{ "type": "Feature", "properties": { "A29_001": "01428", "A29_002": "北海道", "A29_003": "長沼町", "A29_004": 4, "A29_005": "第二種中高層住居専用地域", "A29_006": 60, "A29_007": 200, "A29_008": "条件付き公開" }, "geometry": { "type": "Polygon", "coordinates": [ [ [ 141.69429442, 43.007739651 ], [ 141.692243639, 43.004713917 ], [ 141.690308015, 43.005440733 ], [ 141.689603148, 43.005688739 ], [ 141.691698686, 43.00869275 ], [ 141.69429442, 43.007739651 ] ] ] } },
{ "type": "Feature", "properties": { "A29_001": "01428", "A29_002": "北海道", "A29_003": "長沼町", "A29_004": 1, "A29_005": "第一種低層住居専用地域", "A29_006": 40, "A29_007": 60, "A29_008": "条件付き公開" }, "geometry": { "type": "Polygon", "coordinates": [ [ [ 141.685477381, 43.007203057 ], [ 141.686043488, 43.008034745 ], [ 141.687007066, 43.00767998 ], [ 141.687323678000013, 43.00810397 ], [ 141.687794728, 43.008219705 ], [ 141.68948994499999, 43.008638095 ], [ 141.690929008000012, 43.008989016 ], [ 141.69019741, 43.007908388 ], [ 141.689523708, 43.008159653 ], [ 141.68821964899999, 43.006195771 ], [ 141.685477381, 43.007203057 ] ] ] } },
{ "type": "Feature", "properties": { "A29_001": "01428", "A29_002": "北海道", "A29_003": "長沼町", "A29_004": 4, "A29_005": "第二種中高層住居専用地域", "A29_006": 60, "A29_007": 200, "A29_008": "条件付き公開" }, "geometry": { "type": "Polygon", "coordinates": [ [ [ 141.701203765, 43.009069288 ], [ 141.70299954399999, 43.008400201 ], [ 141.70231816399999, 43.007403878 ], [ 141.70113002, 43.007835499 ], [ 141.70047490499999, 43.0080747 ], [ 141.701164855, 43.009082008 ], [ 141.701203765, 43.009069288 ] ] ] } },
{ "type": "Feature", "properties": { "A29_001": "01428", "A29_002": "北海道", "A29_003": "長沼町", "A29_004": 5, "A29_005": "第一種住居地域", "A29_006": 60, "A29_007": 200, "A29_008": "条件付き公開" }, "geometry": { "type": "Polygon", "coordinates": [ [ [ 141.698263090000012, 43.007198544 ], [ 141.69778299399999, 43.006469196 ], [ 141.69429442, 43.007739651 ], [ 141.691698686, 43.00869275 ], [ 141.689603148, 43.005688739 ], [ 141.689309127, 43.005259097 ], [ 141.68620033799999, 43.00639086 ], [ 141.68594557599999, 43.006014245 ], [ 141.682883935, 43.007137951 ], [ 141.683292881999989, 43.007755858 ], [ 141.687554455999987, 43.008798053 ], [ 141.687794728, 43.008219705 ], [ 141.687323678000013, 43.00810397 ], [ 141.687007066, 43.00767998 ], [ 141.686043488, 43.008034745 ], [ 141.685477381, 43.007203057 ], [ 141.68821964899999, 43.006195771 ], [ 141.689523708, 43.008159653 ], [ 141.69019741, 43.007908388 ], [ 141.690929008000012, 43.008989016 ], [ 141.69240781, 43.009349443 ], [ 141.694811832, 43.00845735 ], [ 141.698263090000012, 43.007198544 ] ] ] } },
{ "type": "Feature", "properties": { "A29_001": "01428", "A29_002": "北海道", "A29_003": "長沼町", "A29_004": 5, "A29_005": "第一種住居地域", "A29_006": 60, "A29_007": 200, "A29_008": "条件付き公開" }, "geometry": { "type": "Polygon", "coordinates": [ [ [ 141.707238944000011, 43.005587872 ], [ 141.705424367, 43.006256176 ], [ 141.707804629, 43.00972407 ], [ 141.707836249, 43.009657712 ], [ 141.70780291599999, 43.009495384 ], [ 141.70771371399999, 43.009192487 ], [ 141.707611074999988, 43.008723712 ], [ 141.707490898, 43.008273074 ], [ 141.707404325999988, 43.00795379 ], [ 141.707266965, 43.007481205 ], [ 141.707175638, 43.00713821 ], [ 141.70713482799999, 43.006979491 ], [ 141.707079528, 43.006492718 ], [ 141.707052432000012, 43.00618647 ], [ 141.707238944000011, 43.005587872 ] ] ] } },
{ "type": "Feature", "properties": { "A29_001": "01428", "A29_002": "北海道", "A29_003": "長沼町", "A29_004": 10, "A29_005": "準工業地域", "A29_006": 60, "A29_007": 200, "A29_008": "条件付き公開" }, "geometry": { "type": "Polygon", "coordinates": [ [ [ 141.69240781, 43.009349443 ], [ 141.690929008000012, 43.008989016 ], [ 141.68948994499999, 43.008638095 ], [ 141.687794728, 43.008219705 ], [ 141.687554455999987, 43.008798053 ], [ 141.689876314, 43.009345182 ], [ 141.691904185, 43.009853542 ], [ 141.69214945499999, 43.009913046 ], [ 141.69240781, 43.009349443 ] ] ] } },
{ "type": "Feature", "properties": { "A29_001": "01428", "A29_002": "北海道", "A29_003": "長沼町", "A29_004": 10, "A29_005": "準工業地域", "A29_006": 60, "A29_007": 200, "A29_008": "条件付き公開" }, "geometry": { "type": "Polygon", "coordinates": [ [ [ 141.70139759700001, 43.01082873 ], [ 141.702184765999988, 43.010540958 ], [ 141.701203765, 43.009069288 ], [ 141.701164855, 43.009082008 ], [ 141.70047490499999, 43.0080747 ], [ 141.699182167, 43.008538597 ], [ 141.70045459, 43.01033402 ], [ 141.700914367, 43.011001337 ], [ 141.70139759700001, 43.01082873 ] ] ] } },
{ "type": "Feature", "properties": { "A29_001": "01428", "A29_002": "北海道", "A29_003": "長沼町", "A29_004": 5, "A29_005": "第一種住居地域", "A29_006": 60, "A29_007": 200, "A29_008": "条件付き公開" }, "geometry": { "type": "Polygon", "coordinates": [ [ [ 141.689657165, 43.010671635 ], [ 141.69096751399999, 43.010195177 ], [ 141.691904185, 43.009853542 ], [ 141.689876314, 43.009345182 ], [ 141.688096255, 43.009987438 ], [ 141.68877280699999, 43.010991642 ], [ 141.689657165, 43.010671635 ] ] ] } },
{ "type": "Feature", "properties": { "A29_001": "01428", "A29_002": "北海道", "A29_003": "長沼町", "A29_004": 1, "A29_005": "第一種低層住居専用地域", "A29_006": 40, "A29_007": 60, "A29_008": "条件付き公開" }, "geometry": { "type": "Polygon", "coordinates": [ [ [ 141.705285257000014, 43.01118166 ], [ 141.706204308999986, 43.010859868 ], [ 141.70726292, 43.0104786 ], [ 141.707327746, 43.010447931 ], [ 141.70754852799999, 43.010188413 ], [ 141.70762157199999, 43.01007032 ], [ 141.707804629, 43.00972407 ], [ 141.705424367, 43.006256176 ], [ 141.70231816399999, 43.007403878 ], [ 141.70299954399999, 43.008400201 ], [ 141.70497406199999, 43.01127493 ], [ 141.705285257000014, 43.01118166 ] ] ] } },
{ "type": "Feature", "properties": { "A29_001": "01428", "A29_002": "北海道", "A29_003": "長沼町", "A29_004": 9, "A29_005": "商業地域", "A29_006": 80, "A29_007": 400, "A29_008": "条件付き公開" }, "geometry": { "type": "Polygon", "coordinates": [ [ [ 141.699182167, 43.008538597 ], [ 141.698442027999988, 43.007456328 ], [ 141.698263090000012, 43.007198544 ], [ 141.694811832, 43.00845735 ], [ 141.69240781, 43.009349443 ], [ 141.69214945499999, 43.009913046 ], [ 141.691904185, 43.009853542 ], [ 141.69096751399999, 43.010195177 ], [ 141.69170262, 43.011273825 ], [ 141.693575912999989, 43.010597824 ], [ 141.693744877, 43.010308926 ], [ 141.695413972000011, 43.009693856 ], [ 141.695528958000011, 43.009883915 ], [ 141.697474413, 43.009180868 ], [ 141.699182167, 43.008538597 ] ] ] } },
{ "type": "Feature", "properties": { "A29_001": "01428", "A29_002": "北海道", "A29_003": "長沼町", "A29_004": 8, "A29_005": "近隣商業地域", "A29_006": 80, "A29_007": 200, "A29_008": "条件付き公開" }, "geometry": { "type": "Polygon", "coordinates": [ [ [ 141.69170262, 43.011273825 ], [ 141.69096751399999, 43.010195177 ], [ 141.689657165, 43.010671635 ], [ 141.69038224, 43.011759353 ], [ 141.69170262, 43.011273825 ] ] ] } },
{ "type": "Feature", "properties": { "A29_001": "01428", "A29_002": "北海道", "A29_003": "長沼町", "A29_004": 3, "A29_005": "第一種中高層住居専用地域", "A29_006": 60, "A29_007": 200, "A29_008": "条件付き公開" }, "geometry": { "type": "Polygon", "coordinates": [ [ [ 141.68877280699999, 43.010991642 ], [ 141.688096255, 43.009987438 ], [ 141.689876314, 43.009345182 ], [ 141.687554455999987, 43.008798053 ], [ 141.683292881999989, 43.007755858 ], [ 141.68461054799999, 43.00972846 ], [ 141.686139442000012, 43.011962651 ], [ 141.68877280699999, 43.010991642 ] ] ] } },
{ "type": "Feature", "properties": { "A29_001": "01428", "A29_002": "北海道", "A29_003": "長沼町", "A29_004": 1, "A29_005": "第一種低層住居専用地域", "A29_006": 40, "A29_007": 60, "A29_008": "条件付き公開" }, "geometry": { "type": "Polygon", "coordinates": [ [ [ 141.686139442000012, 43.011962651 ], [ 141.68461054799999, 43.00972846 ], [ 141.683292881999989, 43.007755858 ], [ 141.678722541000013, 43.00662619 ], [ 141.67895888699999, 43.007110235 ], [ 141.679470853999987, 43.007859864 ], [ 141.680340464000011, 43.009136047 ], [ 141.679426135999989, 43.009472231 ], [ 141.679906205, 43.010183434 ], [ 141.680962317, 43.011702884 ], [ 141.681846759, 43.011379294 ], [ 141.683032706, 43.013097982 ], [ 141.686139442000012, 43.011962651 ] ] ] } },
{ "type": "Feature", "properties": { "A29_001": "01428", "A29_002": "北海道", "A29_003": "長沼町", "A29_004": 3, "A29_005": "第一種中高層住居専用地域", "A29_006": 60, "A29_007": 200, "A29_008": "条件付き公開" }, "geometry": { "type": "Polygon", "coordinates": [ [ [ 141.705285257000014, 43.01118166 ], [ 141.70497406199999, 43.01127493 ], [ 141.70299954399999, 43.008400201 ], [ 141.701203765, 43.009069288 ], [ 141.702184765999988, 43.010540958 ], [ 141.70139759700001, 43.01082873 ], [ 141.702174536, 43.011971286 ], [ 141.703901429000013, 43.012394985 ], [ 141.705061029, 43.012672011 ], [ 141.70797478, 43.013386458 ], [ 141.707661873, 43.01226254 ], [ 141.706979375, 43.012507114 ], [ 141.70690684600001, 43.01228447 ], [ 141.70627281, 43.01185035 ], [ 141.705497720000011, 43.0113267 ], [ 141.705285257000014, 43.01118166 ] ] ] } },
{ "type": "Feature", "properties": { "A29_001": "01428", "A29_002": "北海道", "A29_003": "長沼町", "A29_004": 3, "A29_005": "第一種中高層住居専用地域", "A29_006": 60, "A29_007": 200, "A29_008": "条件付き公開" }, "geometry": { "type": "Polygon", "coordinates": [ [ [ 141.698478263999988, 43.013118789 ], [ 141.700673053, 43.012307562 ], [ 141.701160179999988, 43.012116752 ], [ 141.696248421, 43.010915994 ], [ 141.694223298, 43.011635032 ], [ 141.69550502199999, 43.013510759 ], [ 141.698103433, 43.01255212 ], [ 141.698478263999988, 43.013118789 ] ] ] } },
{ "type": "Feature", "properties": { "A29_001": "01428", "A29_002": "北海道", "A29_003": "長沼町", "A29_004": 1, "A29_005": "第一種低層住居専用地域", "A29_006": 40, "A29_007": 60, "A29_008": "条件付き公開" }, "geometry": { "type": "Polygon", "coordinates": [ [ [ 141.706648051, 43.013474918 ], [ 141.702490605, 43.012448375 ], [ 141.70387284200001, 43.014500326 ], [ 141.706648051, 43.013474918 ] ] ] } },
{ "type": "Feature", "properties": { "A29_001": "01428", "A29_002": "北海道", "A29_003": "長沼町", "A29_004": 5, "A29_005": "第一種住居地域", "A29_006": 60, "A29_007": 200, "A29_008": "条件付き公開" }, "geometry": { "type": "Polygon", "coordinates": [ [ [ 141.686139442000012, 43.011962651 ], [ 141.683032706, 43.013097982 ], [ 141.683174839, 43.013302765 ], [ 141.6801252, 43.014426454 ], [ 141.68035322, 43.014740997 ], [ 141.686512009000012, 43.012492905 ], [ 141.686139442000012, 43.011962651 ] ] ] } },
{ "type": "Feature", "properties": { "A29_001": "01428", "A29_002": "北海道", "A29_003": "長沼町", "A29_004": 5, "A29_005": "第一種住居地域", "A29_006": 60, "A29_007": 200, "A29_008": "条件付き公開" }, "geometry": { "type": "Polygon", "coordinates": [ [ [ 141.695845128, 43.014761479 ], [ 141.69549109799999, 43.014230435 ], [ 141.695096424000013, 43.01366366 ], [ 141.69550502199999, 43.013510759 ], [ 141.694223298, 43.011635032 ], [ 141.696248421, 43.010915994 ], [ 141.701160179999988, 43.012116752 ], [ 141.701789553999987, 43.012263717 ], [ 141.703439347, 43.014662248 ], [ 141.70387284200001, 43.014500326 ], [ 141.702490605, 43.012448375 ], [ 141.706648051, 43.013474918 ], [ 141.708082811999986, 43.013807882 ], [ 141.70797478, 43.013386458 ], [ 141.705061029, 43.012672011 ], [ 141.703901429000013, 43.012394985 ], [ 141.702174536, 43.011971286 ], [ 141.70139759700001, 43.01082873 ], [ 141.700914367, 43.011001337 ], [ 141.70045459, 43.01033402 ], [ 141.699182167, 43.008538597 ], [ 141.697474413, 43.009180868 ], [ 141.695528958000011, 43.009883915 ], [ 141.695413972000011, 43.009693856 ], [ 141.693744877, 43.010308926 ], [ 141.693575912999989, 43.010597824 ], [ 141.69170262, 43.011273825 ], [ 141.69038224, 43.011759353 ], [ 141.685803115999988, 43.013441478 ], [ 141.68646476399999, 43.014401359 ], [ 141.687533637, 43.014003925 ], [ 141.687583437, 43.014073505 ], [ 141.693330054, 43.011977807 ], [ 141.69534711, 43.014916682 ], [ 141.695845128, 43.014761479 ] ] ] } },
{ "type": "Feature", "properties": { "A29_001": "01428", "A29_002": "北海道", "A29_003": "長沼町", "A29_004": 10, "A29_005": "準工業地域", "A29_006": 60, "A29_007": 200, "A29_008": "条件付き公開" }, "geometry": { "type": "Polygon", "coordinates": [ [ [ 141.685803115999988, 43.013441478 ], [ 141.69038224, 43.011759353 ], [ 141.689657165, 43.010671635 ], [ 141.68877280699999, 43.010991642 ], [ 141.686139442000012, 43.011962651 ], [ 141.686512009000012, 43.012492905 ], [ 141.68035322, 43.014740997 ], [ 141.680573608, 43.015075544 ], [ 141.683613138999988, 43.013973658 ], [ 141.683765056999988, 43.014194888 ], [ 141.685803115999988, 43.013441478 ] ] ] } },
{ "type": "Feature", "properties": { "A29_001": "01428", "A29_002": "北海道", "A29_003": "長沼町", "A29_004": 1, "A29_005": "第一種低層住居専用地域", "A29_006": 40, "A29_007": 60, "A29_008": "条件付き公開" }, "geometry": { "type": "Polygon", "coordinates": [ [ [ 141.69534711, 43.014916682 ], [ 141.693330054, 43.011977807 ], [ 141.687583437, 43.014073505 ], [ 141.68867068099999, 43.015662183 ], [ 141.68960943799999, 43.01701334 ], [ 141.690695635, 43.016625072 ], [ 141.69220542299999, 43.016074868 ], [ 141.69406654, 43.015387868 ], [ 141.69534711, 43.014916682 ] ] ] } },
{ "type": "Feature", "properties": { "A29_001": "01428", "A29_002": "北海道", "A29_003": "長沼町", "A29_004": 11, "A29_005": "工業地域", "A29_006": 60, "A29_007": 200, "A29_008": "条件付き公開" }, "geometry": { "type": "Polygon", "coordinates": [ [ [ 141.703439347, 43.014662248 ], [ 141.701789553999987, 43.012263717 ], [ 141.701160179999988, 43.012116752 ], [ 141.700673053, 43.012307562 ], [ 141.698478263999988, 43.013118789 ], [ 141.69549109799999, 43.014230435 ], [ 141.695845128, 43.014761479 ], [ 141.698944057, 43.019203316 ], [ 141.700289395, 43.018714165 ], [ 141.7027894, 43.01780779 ], [ 141.705057632, 43.01698772 ], [ 141.704447085, 43.016110187 ], [ 141.703439347, 43.014662248 ] ] ] } }
]
}
