{
"type": "FeatureCollection",
"name": "A29-19_01423",
"features": [
{ "type": "Feature", "properties": { "A29_001": "01423", "A29_002": "北海道", "A29_003": "南幌町", "A29_004": 11, "A29_005": "工業地域", "A29_006": 60, "A29_007": 200, "A29_008": null }, "geometry": { "type": "Polygon", "coordinates": [ [ [ 141.583476, 43.018351422 ], [ 141.581887483, 43.017575333 ], [ 141.581628381, 43.017647057 ], [ 141.581287397000011, 43.018230954 ], [ 141.580773466000011, 43.018520895 ], [ 141.58033058800001, 43.018755245 ], [ 141.57946386899999, 43.019361908 ], [ 141.5791661, 43.019209383 ], [ 141.578557937999989, 43.01979386 ], [ 141.578408983, 43.019724058 ], [ 141.576807304999988, 43.02072117 ], [ 141.576348139, 43.020986889 ], [ 141.57615777800001, 43.021085333 ], [ 141.575770806, 43.021213583 ], [ 141.575408806000013, 43.021312028 ], [ 141.575011972, 43.021383667 ], [ 141.575, 43.021384861 ], [ 141.57425027799999, 43.021459167 ], [ 141.573711556, 43.021534111 ], [ 141.572813278000012, 43.021640472 ], [ 141.571824083, 43.021754333 ], [ 141.580864455000011, 43.026424407 ], [ 141.582089298, 43.025125708 ], [ 141.583711982000011, 43.023436518 ], [ 141.584804862999988, 43.022293758 ], [ 141.585354548999987, 43.021730964 ], [ 141.585478896000012, 43.02160365 ], [ 141.58552306199999, 43.021554801 ], [ 141.586076961, 43.020942172 ], [ 141.586760083, 43.020210583 ], [ 141.586827164999988, 43.020141073 ], [ 141.583476, 43.018351422 ] ] ] } },
{ "type": "Feature", "properties": { "A29_001": "01423", "A29_002": "北海道", "A29_003": "南幌町", "A29_004": 3, "A29_005": "第一種中高層住居専用地域", "A29_006": 60, "A29_007": 200, "A29_008": null }, "geometry": { "type": "Polygon", "coordinates": [ [ [ 141.649845336999988, 43.05145391 ], [ 141.64923080599999, 43.052105944 ], [ 141.648572660000013, 43.052803648 ], [ 141.651325289999988, 43.054196919 ], [ 141.65394358399999, 43.051456434 ], [ 141.653159361, 43.051057778 ], [ 141.65202974499999, 43.050467729 ], [ 141.651282278, 43.050072528 ], [ 141.65121558300001, 43.050024111 ], [ 141.65, 43.051289806 ], [ 141.649935983, 43.051357732 ], [ 141.649845336999988, 43.05145391 ] ] ] } },
{ "type": "Feature", "properties": { "A29_001": "01423", "A29_002": "北海道", "A29_003": "南幌町", "A29_004": 3, "A29_005": "第一種中高層住居専用地域", "A29_006": 60, "A29_007": 200, "A29_008": null }, "geometry": { "type": "Polygon", "coordinates": [ [ [ 141.65940712599999, 43.054923882 ], [ 141.658565371, 43.054488736 ], [ 141.65715373, 43.054670984 ], [ 141.656082176000012, 43.054167414 ], [ 141.655886361, 43.05407539 ], [ 141.655774417, 43.054192444 ], [ 141.65528319399999, 43.054702856 ], [ 141.65521189, 43.054776945 ], [ 141.655798865, 43.055074221 ], [ 141.65712238899999, 43.055752769 ], [ 141.658887037999989, 43.055483816 ], [ 141.65940712599999, 43.054923882 ] ] ] } },
{ "type": "Feature", "properties": { "A29_001": "01423", "A29_002": "北海道", "A29_003": "南幌町", "A29_004": 5, "A29_005": "第一種住居地域", "A29_006": 60, "A29_007": 200, "A29_008": null }, "geometry": { "type": "Polygon", "coordinates": [ [ [ 141.651206398, 43.056001344 ], [ 141.65179655099999, 43.055422852 ], [ 141.650826322, 43.054913742 ], [ 141.650262453000011, 43.055507444 ], [ 141.650150966000012, 43.055621124 ], [ 141.65099565599999, 43.056055755 ], [ 141.651102382, 43.056110672 ], [ 141.651206398, 43.056001344 ] ] ] } },
{ "type": "Feature", "properties": { "A29_001": "01423", "A29_002": "北海道", "A29_003": "南幌町", "A29_004": 7, "A29_005": "準住居地域", "A29_006": 60, "A29_007": 200, "A29_008": null }, "geometry": { "type": "Polygon", "coordinates": [ [ [ 141.654832666, 43.057666734 ], [ 141.655264053, 43.057207199 ], [ 141.653668966999987, 43.056399743 ], [ 141.65318083, 43.056913762 ], [ 141.653009083, 43.057091778 ], [ 141.65461394499999, 43.057901957 ], [ 141.654832666, 43.057666734 ] ] ] } },
{ "type": "Feature", "properties": { "A29_001": "01423", "A29_002": "北海道", "A29_003": "南幌町", "A29_004": 8, "A29_005": "近隣商業地域", "A29_006": 80, "A29_007": 200, "A29_008": null }, "geometry": { "type": "Polygon", "coordinates": [ [ [ 141.655468778, 43.058333333 ], [ 141.655408666999989, 43.058303139 ], [ 141.655379769, 43.058333329 ], [ 141.655338319, 43.058376634 ], [ 141.655063361, 43.058663889 ], [ 141.654040138999989, 43.059732889 ], [ 141.65350101199999, 43.060296148 ], [ 141.653503891000014, 43.060297859 ], [ 141.653898572, 43.060511788 ], [ 141.65405313799999, 43.06059163 ], [ 141.656822129, 43.060327753 ], [ 141.657588100999988, 43.059516142 ], [ 141.657621506999988, 43.059480745 ], [ 141.657661652, 43.059438207 ], [ 141.65750163300001, 43.059357374 ], [ 141.656637518999986, 43.058920862 ], [ 141.656424, 43.058813 ], [ 141.655539833, 43.058369028 ], [ 141.655468778, 43.058333333 ] ] ] } },
{ "type": "Feature", "properties": { "A29_001": "01423", "A29_002": "北海道", "A29_003": "南幌町", "A29_004": 6, "A29_005": "第二種住居地域", "A29_006": 60, "A29_007": 200, "A29_008": null }, "geometry": { "type": "Polygon", "coordinates": [ [ [ 141.65047155900001, 43.059746577 ], [ 141.650355206, 43.059865409 ], [ 141.650338444, 43.059882528 ], [ 141.650127887999986, 43.060110054 ], [ 141.650015225, 43.060231798 ], [ 141.65, 43.06024825 ], [ 141.64993137, 43.060322409 ], [ 141.64985402100001, 43.060405991 ], [ 141.64983441199999, 43.060427178 ], [ 141.64974817699999, 43.06052036 ], [ 141.64971740199999, 43.060553615 ], [ 141.649694898, 43.060577932 ], [ 141.649631483, 43.060646455 ], [ 141.649612039, 43.060667466 ], [ 141.649600791000012, 43.06067962 ], [ 141.649564082000012, 43.060719286 ], [ 141.649563827, 43.060719562 ], [ 141.649568033, 43.060719114 ], [ 141.64985471599999, 43.060688578 ], [ 141.653186882, 43.060448764 ], [ 141.65339974299999, 43.060237651 ], [ 141.65350101199999, 43.060296148 ], [ 141.654040138999989, 43.059732889 ], [ 141.655063361, 43.058663889 ], [ 141.655338319, 43.058376634 ], [ 141.655379769, 43.058333329 ], [ 141.655408666999989, 43.058303139 ], [ 141.65461394499999, 43.057901957 ], [ 141.653009083, 43.057091778 ], [ 141.65283330599999, 43.057279694 ], [ 141.651767446, 43.058419069 ], [ 141.651713459, 43.058476776 ], [ 141.651683861, 43.058508417 ], [ 141.651437595, 43.058759941 ], [ 141.65131653899999, 43.058883581 ], [ 141.651091885, 43.059113028 ], [ 141.651063391, 43.05914213 ], [ 141.65091582299999, 43.059292845 ], [ 141.650763571999988, 43.059448342 ], [ 141.650593222, 43.059622322 ], [ 141.65047155900001, 43.059746577 ] ] ] } },
{ "type": "Feature", "properties": { "A29_001": "01423", "A29_002": "北海道", "A29_003": "南幌町", "A29_004": 2, "A29_005": "第二種低層住居専用地域", "A29_006": 40, "A29_007": 60, "A29_008": null }, "geometry": { "type": "Polygon", "coordinates": [ [ [ 141.661444211, 43.060982832 ], [ 141.661831957, 43.06118227 ], [ 141.663026459, 43.059918299 ], [ 141.662954778, 43.059676639 ], [ 141.662847910000011, 43.0593432 ], [ 141.662770139, 43.059034028 ], [ 141.66273880599999, 43.058945 ], [ 141.662707444, 43.058901333 ], [ 141.662669806, 43.05886525 ], [ 141.662624134, 43.058834144 ], [ 141.66261580599999, 43.058828472 ], [ 141.66232326799999, 43.058673461 ], [ 141.662592018, 43.059755527 ], [ 141.661444211, 43.060982832 ] ] ] } },
{ "type": "Feature", "properties": { "A29_001": "01423", "A29_002": "北海道", "A29_003": "南幌町", "A29_004": 5, "A29_005": "第一種住居地域", "A29_006": 60, "A29_007": 200, "A29_008": null }, "geometry": { "type": "Polygon", "coordinates": [ [ [ 141.66174118699999, 43.061278317 ], [ 141.662674439999989, 43.061763512 ], [ 141.662740958, 43.061693807 ], [ 141.663296034000012, 43.061091382 ], [ 141.662397422999987, 43.060617394 ], [ 141.662376316, 43.060606261 ], [ 141.66211054199999, 43.06088749 ], [ 141.661819529000013, 43.061195421 ], [ 141.661801567999987, 43.061214426 ], [ 141.66174118699999, 43.061278317 ] ] ] } },
{ "type": "Feature", "properties": { "A29_001": "01423", "A29_002": "北海道", "A29_003": "南幌町", "A29_004": 3, "A29_005": "第一種中高層住居専用地域", "A29_006": 60, "A29_007": 200, "A29_008": null }, "geometry": { "type": "Polygon", "coordinates": [ [ [ 141.648451722, 43.061892889 ], [ 141.649453472, 43.060838806 ], [ 141.649563827, 43.060719562 ], [ 141.649564082000012, 43.060719286 ], [ 141.649600791000012, 43.06067962 ], [ 141.649612039, 43.060667466 ], [ 141.649454502, 43.060666958 ], [ 141.648636837, 43.06066432 ], [ 141.64814465399999, 43.060386798 ], [ 141.647858708, 43.060717319 ], [ 141.647767111, 43.060669833 ], [ 141.64657805600001, 43.06007007 ], [ 141.64585811, 43.060827347 ], [ 141.645921028, 43.060995028 ], [ 141.647758606, 43.060833809 ], [ 141.647311796999986, 43.061321609 ], [ 141.648451722, 43.061892889 ] ] ] } },
{ "type": "Feature", "properties": { "A29_001": "01423", "A29_002": "北海道", "A29_003": "南幌町", "A29_004": 3, "A29_005": "第一種中高層住居専用地域", "A29_006": 60, "A29_007": 200, "A29_008": null }, "geometry": { "type": "Polygon", "coordinates": [ [ [ 141.643610528000011, 43.062358111 ], [ 141.643589722, 43.062147611 ], [ 141.64298975, 43.062180417 ], [ 141.64290805600001, 43.062174444 ], [ 141.6429255, 43.062397667 ], [ 141.642927332999989, 43.062518556 ], [ 141.642933301, 43.06252019 ], [ 141.64293462099999, 43.062520551 ], [ 141.642934723, 43.062520579 ], [ 141.642997944, 43.062537889 ], [ 141.643029332999987, 43.062555139 ], [ 141.64335336100001, 43.062720639 ], [ 141.64337134199999, 43.062745237 ], [ 141.643380306000012, 43.0627575 ], [ 141.643468805999987, 43.062800056 ], [ 141.64363630599999, 43.062618667 ], [ 141.643609042, 43.062359067 ], [ 141.643610528000011, 43.062358111 ] ] ] } },
{ "type": "Feature", "properties": { "A29_001": "01423", "A29_002": "北海道", "A29_003": "南幌町", "A29_004": 3, "A29_005": "第一種中高層住居専用地域", "A29_006": 60, "A29_007": 200, "A29_008": null }, "geometry": { "type": "Polygon", "coordinates": [ [ [ 141.658333333, 43.0597775 ], [ 141.657661652, 43.059438207 ], [ 141.657621506999988, 43.059480745 ], [ 141.657588100999988, 43.059516142 ], [ 141.656822129, 43.060327753 ], [ 141.65405313799999, 43.06059163 ], [ 141.654213972, 43.060674708 ], [ 141.65346255599999, 43.061477972 ], [ 141.653681056000011, 43.061592194 ], [ 141.65322148300001, 43.062089283 ], [ 141.653878187, 43.062393218 ], [ 141.65344773699999, 43.062853706 ], [ 141.654466114, 43.063396423 ], [ 141.654542951, 43.063437371 ], [ 141.655127263, 43.063744778 ], [ 141.65513532, 43.063733145 ], [ 141.655222667, 43.063607028 ], [ 141.655375222, 43.063392806 ], [ 141.655498583, 43.063154778 ], [ 141.655667389, 43.062935833 ], [ 141.655860667000013, 43.062714194 ], [ 141.655938556, 43.062617944 ], [ 141.656292694, 43.06223675 ], [ 141.656579056, 43.06193125 ], [ 141.656857806, 43.061636556 ], [ 141.657159338000014, 43.061307724 ], [ 141.657357889, 43.061091194 ], [ 141.657976377000011, 43.06046276 ], [ 141.658333333, 43.060100056 ], [ 141.65839617899999, 43.060036198 ], [ 141.65854536099999, 43.059884611 ], [ 141.658425268, 43.059823943 ], [ 141.658333333, 43.0597775 ] ] ] } },
{ "type": "Feature", "properties": { "A29_001": "01423", "A29_002": "北海道", "A29_003": "南幌町", "A29_004": 9, "A29_005": "商業地域", "A29_006": 80, "A29_007": 400, "A29_008": null }, "geometry": { "type": "Polygon", "coordinates": [ [ [ 141.648451722, 43.061892889 ], [ 141.648328193999987, 43.062041278 ], [ 141.650285864000011, 43.063068358 ], [ 141.650686361, 43.063269583 ], [ 141.653281994999986, 43.064611599 ], [ 141.654417349999989, 43.063446467 ], [ 141.654466114, 43.063396423 ], [ 141.65344773699999, 43.062853706 ], [ 141.653878187, 43.062393218 ], [ 141.65322148300001, 43.062089283 ], [ 141.653681056000011, 43.061592194 ], [ 141.65346255599999, 43.061477972 ], [ 141.654213972, 43.060674708 ], [ 141.65405313799999, 43.06059163 ], [ 141.653898572, 43.060511788 ], [ 141.653503891000014, 43.060297859 ], [ 141.65350101199999, 43.060296148 ], [ 141.65339974299999, 43.060237651 ], [ 141.653186882, 43.060448764 ], [ 141.64985471599999, 43.060688578 ], [ 141.649568033, 43.060719114 ], [ 141.649564082000012, 43.060719286 ], [ 141.649453472, 43.060838806 ], [ 141.648451722, 43.061892889 ] ] ] } },
{ "type": "Feature", "properties": { "A29_001": "01423", "A29_002": "北海道", "A29_003": "南幌町", "A29_004": 5, "A29_005": "第一種住居地域", "A29_006": 60, "A29_007": 200, "A29_008": null }, "geometry": { "type": "Polygon", "coordinates": [ [ [ 141.653281994999986, 43.064611599 ], [ 141.650686361, 43.063269583 ], [ 141.650285864000011, 43.063068358 ], [ 141.649688774, 43.063678916 ], [ 141.652072639000011, 43.064864194 ], [ 141.652758986, 43.065210503 ], [ 141.653281994999986, 43.064611599 ] ] ] } },
{ "type": "Feature", "properties": { "A29_001": "01423", "A29_002": "北海道", "A29_003": "南幌町", "A29_004": 4, "A29_005": "第二種中高層住居専用地域", "A29_006": 60, "A29_007": 200, "A29_008": null }, "geometry": { "type": "Polygon", "coordinates": [ [ [ 141.655281535, 43.06447809 ], [ 141.65526447, 43.064469362 ], [ 141.65526442800001, 43.064469801 ], [ 141.655248244, 43.064656616 ], [ 141.654332984, 43.065656774 ], [ 141.65587824, 43.066419781 ], [ 141.656862528, 43.065286639 ], [ 141.655281535, 43.06447809 ] ] ] } },
{ "type": "Feature", "properties": { "A29_001": "01423", "A29_002": "北海道", "A29_003": "南幌町", "A29_004": 4, "A29_005": "第二種中高層住居専用地域", "A29_006": 60, "A29_007": 200, "A29_008": null }, "geometry": { "type": "Polygon", "coordinates": [ [ [ 141.645630082999986, 43.06483725 ], [ 141.645085472, 43.065453 ], [ 141.645355972, 43.065615722 ], [ 141.646472389, 43.06617325 ], [ 141.647011888, 43.066451983 ], [ 141.648964522999989, 43.064390554 ], [ 141.648453028, 43.064131444 ], [ 141.647966222, 43.063877583 ], [ 141.647609722, 43.063694889 ], [ 141.64703191699999, 43.063362389 ], [ 141.645630082999986, 43.06483725 ] ] ] } },
{ "type": "Feature", "properties": { "A29_001": "01423", "A29_002": "北海道", "A29_003": "南幌町", "A29_004": 1, "A29_005": "第一種低層住居専用地域", "A29_006": 40, "A29_007": 60, "A29_008": null }, "geometry": { "type": "Polygon", "coordinates": [ [ [ 141.646390516, 43.067089441 ], [ 141.647011888, 43.066451983 ], [ 141.646472389, 43.06617325 ], [ 141.645355972, 43.065615722 ], [ 141.645085472, 43.065453 ], [ 141.645630082999986, 43.06483725 ], [ 141.64703191699999, 43.063362389 ], [ 141.647609722, 43.063694889 ], [ 141.647966222, 43.063877583 ], [ 141.648453028, 43.064131444 ], [ 141.648964522999989, 43.064390554 ], [ 141.649048706, 43.064301677 ], [ 141.649688774, 43.063678916 ], [ 141.650285864000011, 43.063068358 ], [ 141.648328193999987, 43.062041278 ], [ 141.648451722, 43.061892889 ], [ 141.647311796999986, 43.061321609 ], [ 141.647758606, 43.060833809 ], [ 141.645921028, 43.060995028 ], [ 141.64585811, 43.060827347 ], [ 141.64657805600001, 43.06007007 ], [ 141.647767111, 43.060669833 ], [ 141.647858708, 43.060717319 ], [ 141.64814465399999, 43.060386798 ], [ 141.648636837, 43.06066432 ], [ 141.649454502, 43.060666958 ], [ 141.649612039, 43.060667466 ], [ 141.649631483, 43.060646455 ], [ 141.649694898, 43.060577932 ], [ 141.649717401, 43.060553615 ], [ 141.64974817699999, 43.06052036 ], [ 141.64983441199999, 43.060427178 ], [ 141.64985402, 43.06040599 ], [ 141.649931369, 43.060322408 ], [ 141.649999998999988, 43.060248249 ], [ 141.650015223, 43.060231798 ], [ 141.650127887999986, 43.060110054 ], [ 141.650338444, 43.059882528 ], [ 141.650355206, 43.059865409 ], [ 141.65047155900001, 43.059746577 ], [ 141.650593222, 43.059622322 ], [ 141.650763571999988, 43.059448342 ], [ 141.65091582299999, 43.059292845 ], [ 141.651063391, 43.05914213 ], [ 141.651091885, 43.059113028 ], [ 141.65131653899999, 43.058883581 ], [ 141.651437595, 43.058759941 ], [ 141.651683861, 43.058508417 ], [ 141.65171346, 43.058476777 ], [ 141.651767446, 43.058419069 ], [ 141.65283330599999, 43.057279694 ], [ 141.653009083, 43.057091778 ], [ 141.65318083, 43.056913762 ], [ 141.653668966999987, 43.056399743 ], [ 141.655264053, 43.057207199 ], [ 141.654832666, 43.057666734 ], [ 141.65477290199999, 43.057730397 ], [ 141.654773288, 43.057730593 ], [ 141.65461394499999, 43.057901957 ], [ 141.655408666999989, 43.058303139 ], [ 141.655468778, 43.058333333 ], [ 141.655539833, 43.058369028 ], [ 141.656424, 43.058813 ], [ 141.656637518999986, 43.058920862 ], [ 141.65750163300001, 43.059357374 ], [ 141.657661652, 43.059438207 ], [ 141.658333333, 43.0597775 ], [ 141.658425268, 43.059823943 ], [ 141.65854536099999, 43.059884611 ], [ 141.65839617899999, 43.060036198 ], [ 141.658333333, 43.060100056 ], [ 141.657976377000011, 43.06046276 ], [ 141.657357889, 43.061091194 ], [ 141.657159338000014, 43.061307724 ], [ 141.656857806, 43.061636556 ], [ 141.656579056, 43.06193125 ], [ 141.656292694, 43.06223675 ], [ 141.655938556, 43.062617944 ], [ 141.655860667000013, 43.062714194 ], [ 141.655667389, 43.062935833 ], [ 141.655498583, 43.063154778 ], [ 141.655375222, 43.063392806 ], [ 141.655222667, 43.063607028 ], [ 141.65513532, 43.063733145 ], [ 141.655127263, 43.063744778 ], [ 141.65539166100001, 43.063873126 ], [ 141.65547297, 43.0637483 ], [ 141.657602806, 43.064842692 ], [ 141.657767713, 43.064690242 ], [ 141.659198444, 43.065407833 ], [ 141.659452944, 43.065142111 ], [ 141.659878139, 43.065071417 ], [ 141.66029, 43.065020556 ], [ 141.660895528, 43.064379917 ], [ 141.662260583, 43.06508375 ], [ 141.66434569399999, 43.062895806 ], [ 141.664523806, 43.06274825 ], [ 141.664945499999988, 43.062296194 ], [ 141.66560980599999, 43.061584056 ], [ 141.665631499, 43.061561313 ], [ 141.666666666999987, 43.060461861 ], [ 141.66690675000001, 43.060224306 ], [ 141.66717408299999, 43.059957083 ], [ 141.667621083, 43.05945275 ], [ 141.668167055999987, 43.058878667 ], [ 141.66834555599999, 43.058707306 ], [ 141.66827025, 43.058674028 ], [ 141.666824472, 43.057930944 ], [ 141.666420472, 43.057715556 ], [ 141.66506399799999, 43.057040731 ], [ 141.664584166999987, 43.056797028 ], [ 141.659894694, 43.054504083 ], [ 141.65885302800001, 43.053970972 ], [ 141.657063416999989, 43.053056722 ], [ 141.656914667, 43.052967333 ], [ 141.65394358399999, 43.051456434 ], [ 141.651325289999988, 43.054196919 ], [ 141.648572660000013, 43.052803648 ], [ 141.647303556, 43.054160139 ], [ 141.65, 43.055543444 ], [ 141.647331958, 43.05841071 ], [ 141.644686422, 43.056954649 ], [ 141.643357417, 43.058371194 ], [ 141.640980194, 43.060879889 ], [ 141.639481944000011, 43.062470917 ], [ 141.63854616, 43.063424907 ], [ 141.64524027499999, 43.066801317 ], [ 141.645437735, 43.066610073 ], [ 141.646390516, 43.067089441 ] ], [ [ 141.6429255, 43.062397667 ], [ 141.64290805600001, 43.062174444 ], [ 141.64298975, 43.062180417 ], [ 141.643589722, 43.062147611 ], [ 141.643610528000011, 43.062358111 ], [ 141.643609042, 43.062359067 ], [ 141.64363630599999, 43.062618667 ], [ 141.643468805999987, 43.062800056 ], [ 141.643380306000012, 43.0627575 ], [ 141.64337134199999, 43.062745237 ], [ 141.64335336100001, 43.062720639 ], [ 141.643029332999987, 43.062555139 ], [ 141.642997944, 43.062537889 ], [ 141.642934723, 43.062520579 ], [ 141.64293462099999, 43.062520551 ], [ 141.642933301, 43.06252019 ], [ 141.642927332999989, 43.062518556 ], [ 141.6429255, 43.062397667 ] ], [ [ 141.650262453000011, 43.055507444 ], [ 141.650826322, 43.054913742 ], [ 141.65179655099999, 43.055422852 ], [ 141.651206398, 43.056001344 ], [ 141.651102382, 43.056110672 ], [ 141.65099565599999, 43.056055755 ], [ 141.650150966000012, 43.055621124 ], [ 141.650262453000011, 43.055507444 ] ], [ [ 141.655798865, 43.055074221 ], [ 141.65521189, 43.054776945 ], [ 141.65528319399999, 43.054702856 ], [ 141.655774417, 43.054192444 ], [ 141.655886361, 43.05407539 ], [ 141.656082176000012, 43.054167414 ], [ 141.65715373, 43.054670984 ], [ 141.658565371, 43.054488736 ], [ 141.65940712599999, 43.054923882 ], [ 141.658887037999989, 43.055483816 ], [ 141.65712238899999, 43.055752769 ], [ 141.655798865, 43.055074221 ] ], [ [ 141.662740958, 43.061693807 ], [ 141.662674439999989, 43.061763512 ], [ 141.66174118699999, 43.061278317 ], [ 141.661831957, 43.06118227 ], [ 141.661444211, 43.060982832 ], [ 141.66146057, 43.060965341 ], [ 141.662592018, 43.059755527 ], [ 141.66232326799999, 43.058673461 ], [ 141.662436179, 43.058733291 ], [ 141.66261580599999, 43.058828472 ], [ 141.662624134, 43.058834144 ], [ 141.662669806, 43.05886525 ], [ 141.662707444, 43.058901333 ], [ 141.66273880599999, 43.058945 ], [ 141.662770139, 43.059034028 ], [ 141.662814314, 43.059209645 ], [ 141.662847910000011, 43.0593432 ], [ 141.662884625, 43.059457755 ], [ 141.66292826, 43.059593898 ], [ 141.662954778, 43.059676639 ], [ 141.66300149, 43.059834121 ], [ 141.663026459, 43.059918299 ], [ 141.66281222500001, 43.060144997 ], [ 141.662811088000012, 43.0601462 ], [ 141.662477337000013, 43.060499365 ], [ 141.662376316, 43.060606261 ], [ 141.662397422999987, 43.060617394 ], [ 141.663296034000012, 43.061091382 ], [ 141.66276846400001, 43.061663954 ], [ 141.662740958, 43.061693807 ] ] ] } },
{ "type": "Feature", "properties": { "A29_001": "01423", "A29_002": "北海道", "A29_003": "南幌町", "A29_004": 3, "A29_005": "第一種中高層住居専用地域", "A29_006": 60, "A29_007": 200, "A29_008": null }, "geometry": { "type": "Polygon", "coordinates": [ [ [ 141.660388250000011, 43.067070833 ], [ 141.662260583, 43.06508375 ], [ 141.660895528, 43.064379917 ], [ 141.66029, 43.065020556 ], [ 141.659878139, 43.065071417 ], [ 141.659452944, 43.065142111 ], [ 141.659198444, 43.065407833 ], [ 141.657767713, 43.064690242 ], [ 141.657602806, 43.064842692 ], [ 141.65547297, 43.0637483 ], [ 141.65539166100001, 43.063873126 ], [ 141.655310068, 43.064117021 ], [ 141.655278899, 43.064316935 ], [ 141.65526447, 43.064469362 ], [ 141.655281535, 43.06447809 ], [ 141.656862528, 43.065286639 ], [ 141.65783138899999, 43.065781944 ], [ 141.658536778000013, 43.066114583 ], [ 141.660388250000011, 43.067070833 ] ] ] } },
{ "type": "Feature", "properties": { "A29_001": "01423", "A29_002": "北海道", "A29_003": "南幌町", "A29_004": 8, "A29_005": "近隣商業地域", "A29_006": 80, "A29_007": 300, "A29_008": null }, "geometry": { "type": "Polygon", "coordinates": [ [ [ 141.654542951, 43.063437371 ], [ 141.654466114, 43.063396423 ], [ 141.654417349999989, 43.063446467 ], [ 141.653281994999986, 43.064611599 ], [ 141.652758986, 43.065210503 ], [ 141.650108361, 43.068032056 ], [ 141.651283217000014, 43.068634366 ], [ 141.651402667000013, 43.068695194 ], [ 141.654332984, 43.065656774 ], [ 141.655248244, 43.064656616 ], [ 141.65526442800001, 43.064469801 ], [ 141.65526447, 43.064469362 ], [ 141.655278899, 43.064316935 ], [ 141.655310068, 43.064117021 ], [ 141.65539166100001, 43.063873126 ], [ 141.655127263, 43.063744778 ], [ 141.654542951, 43.063437371 ] ] ] } },
{ "type": "Feature", "properties": { "A29_001": "01423", "A29_002": "北海道", "A29_003": "南幌町", "A29_004": 3, "A29_005": "第一種中高層住居専用地域", "A29_006": 60, "A29_007": 200, "A29_008": null }, "geometry": { "type": "Polygon", "coordinates": [ [ [ 141.646924082999988, 43.069445404 ], [ 141.64647494499999, 43.069913781 ], [ 141.647730096, 43.070574979 ], [ 141.650108361, 43.068032056 ], [ 141.652758986, 43.065210503 ], [ 141.652072639000011, 43.064864194 ], [ 141.649688774, 43.063678916 ], [ 141.649048706, 43.064301677 ], [ 141.647011888, 43.066451983 ], [ 141.646390516, 43.067089441 ], [ 141.646255397, 43.067234201 ], [ 141.648118909, 43.068199354 ], [ 141.647823971, 43.068506943 ], [ 141.64773125, 43.06861 ], [ 141.647637056, 43.068727333 ], [ 141.647559222000012, 43.068812528 ], [ 141.647488638999988, 43.0688815 ], [ 141.64734234299999, 43.06903944 ], [ 141.646924082999988, 43.069445404 ] ] ] } },
{ "type": "Feature", "properties": { "A29_001": "01423", "A29_002": "北海道", "A29_003": "南幌町", "A29_004": 11, "A29_005": "工業地域", "A29_006": 60, "A29_007": 200, "A29_008": null }, "geometry": { "type": "Polygon", "coordinates": [ [ [ 141.612247528000012, 43.064392472 ], [ 141.6130005, 43.063631806 ], [ 141.611786052000014, 43.063847987 ], [ 141.60678483, 43.061297664 ], [ 141.604717556, 43.063442 ], [ 141.601117329, 43.067222697 ], [ 141.600434783999987, 43.06744925 ], [ 141.600739333, 43.067598861 ], [ 141.601193278000011, 43.067809972 ], [ 141.602335028, 43.068401667 ], [ 141.6064155, 43.07049575 ], [ 141.607316333, 43.069508611 ], [ 141.608471194, 43.068372306 ], [ 141.610411306, 43.066331972 ], [ 141.612247528000012, 43.064392472 ] ] ] } },
{ "type": "Feature", "properties": { "A29_001": "01423", "A29_002": "北海道", "A29_003": "南幌町", "A29_004": 1, "A29_005": "第一種低層住居専用地域", "A29_006": 40, "A29_007": 60, "A29_008": null }, "geometry": { "type": "Polygon", "coordinates": [ [ [ 141.660388250000011, 43.067070833 ], [ 141.658536778000013, 43.066114583 ], [ 141.65783138899999, 43.065781944 ], [ 141.656862528, 43.065286639 ], [ 141.65587824, 43.066419781 ], [ 141.654332984, 43.065656774 ], [ 141.651402667000013, 43.068695194 ], [ 141.65199833299999, 43.068999583 ], [ 141.652402833, 43.069206278 ], [ 141.652673, 43.069352139 ], [ 141.653131389, 43.069583833 ], [ 141.65403975000001, 43.070042972 ], [ 141.654340972, 43.070195222 ], [ 141.655269444, 43.070685806 ], [ 141.656423694000011, 43.071254194 ], [ 141.657163528000012, 43.070466861 ], [ 141.657553444, 43.070093583 ], [ 141.657728556, 43.069917278 ], [ 141.65883472199999, 43.068761222 ], [ 141.660388250000011, 43.067070833 ] ] ] } },
{ "type": "Feature", "properties": { "A29_001": "01423", "A29_002": "北海道", "A29_003": "南幌町", "A29_004": 7, "A29_005": "準住居地域", "A29_006": 60, "A29_007": 200, "A29_008": null }, "geometry": { "type": "Polygon", "coordinates": [ [ [ 141.651283217000014, 43.068634366 ], [ 141.650108361, 43.068032056 ], [ 141.647730096, 43.070574979 ], [ 141.64668638500001, 43.071720046 ], [ 141.646552422000013, 43.071861016 ], [ 141.648106829, 43.071921823 ], [ 141.651283217000014, 43.068634366 ] ] ] } },
{ "type": "Feature", "properties": { "A29_001": "01423", "A29_002": "北海道", "A29_003": "南幌町", "A29_004": 3, "A29_005": "第一種中高層住居専用地域", "A29_006": 60, "A29_007": 200, "A29_008": null }, "geometry": { "type": "Polygon", "coordinates": [ [ [ 141.651402667000013, 43.068695194 ], [ 141.651283217000014, 43.068634366 ], [ 141.648106829, 43.071921823 ], [ 141.64926286299999, 43.071972456 ], [ 141.65062534399999, 43.072018096 ], [ 141.65080134499999, 43.072026254 ], [ 141.652490139, 43.072095671 ], [ 141.652554748, 43.072097935 ], [ 141.652740806, 43.071897361 ], [ 141.652943222, 43.071668583 ], [ 141.653279972, 43.07131 ], [ 141.653319388999989, 43.071243 ], [ 141.653425958000014, 43.071134784 ], [ 141.654340972, 43.070195222 ], [ 141.65403975000001, 43.070042972 ], [ 141.653131389, 43.069583833 ], [ 141.652673, 43.069352139 ], [ 141.652402833, 43.069206278 ], [ 141.65199833299999, 43.068999583 ], [ 141.651402667000013, 43.068695194 ] ] ] } },
{ "type": "Feature", "properties": { "A29_001": "01423", "A29_002": "北海道", "A29_003": "南幌町", "A29_004": 10, "A29_005": "準工業地域", "A29_006": 60, "A29_007": 200, "A29_008": null }, "geometry": { "type": "Polygon", "coordinates": [ [ [ 141.65834233699999, 43.072300551 ], [ 141.65758383299999, 43.0701945 ], [ 141.657553444, 43.070093583 ], [ 141.657163528000012, 43.070466861 ], [ 141.656423694000011, 43.071254194 ], [ 141.655269444, 43.070685806 ], [ 141.654340972, 43.070195222 ], [ 141.653425958000014, 43.071134784 ], [ 141.653319388999989, 43.071243 ], [ 141.653279972, 43.07131 ], [ 141.652943222, 43.071668583 ], [ 141.652740806, 43.071897361 ], [ 141.652554748, 43.072097935 ], [ 141.65834233699999, 43.072300551 ] ] ] } }
]
}
