{
"type": "FeatureCollection",
"name": "A29-19_35321",
"features": [
{ "type": "Feature", "properties": { "A29_001": "35321", "A29_002": "山口県", "A29_003": "和木町", "A29_004": 4, "A29_005": "第二種中高層住居専用地域", "A29_006": 60, "A29_007": 200, "A29_008": null }, "geometry": { "type": "Polygon", "coordinates": [ [ [ 132.212756151, 34.199122015 ], [ 132.212930586, 34.198952409 ], [ 132.212965481999987, 34.19895748 ], [ 132.212986667, 34.198939111 ], [ 132.213033583, 34.1988975 ], [ 132.21315012, 34.19880365 ], [ 132.21318126, 34.198778572 ], [ 132.21330021599999, 34.198682774 ], [ 132.213347639, 34.198644583 ], [ 132.213448123, 34.198563291 ], [ 132.213827611, 34.198256278 ], [ 132.213966325, 34.198394742 ], [ 132.2140685, 34.198571667 ], [ 132.214107754999986, 34.198562451 ], [ 132.214823518, 34.198394408 ], [ 132.214826104999986, 34.198254032 ], [ 132.214794805999986, 34.198208139 ], [ 132.21475394399999, 34.198160833 ], [ 132.21472216699999, 34.198157056 ], [ 132.214748586000013, 34.19790968 ], [ 132.214801415000011, 34.197917293 ], [ 132.214849641, 34.197907732 ], [ 132.215025249, 34.197749268 ], [ 132.215137739, 34.197663347 ], [ 132.215059204999989, 34.19744518 ], [ 132.21507263699999, 34.197441716 ], [ 132.215102187000014, 34.197434097 ], [ 132.21497051599999, 34.197211065 ], [ 132.2148498, 34.197178972 ], [ 132.214849939, 34.197154722 ], [ 132.214866027999989, 34.196825638 ], [ 132.215080132, 34.196494222 ], [ 132.215156682000014, 34.196493321 ], [ 132.215192777999988, 34.196519235 ], [ 132.215204844999988, 34.196534974 ], [ 132.21525367000001, 34.19649218 ], [ 132.215549052999989, 34.196088067 ], [ 132.215557243, 34.19596886 ], [ 132.215494807, 34.195887743 ], [ 132.215570543000013, 34.195687376 ], [ 132.215570643, 34.19568711 ], [ 132.215567639999989, 34.19564018 ], [ 132.215546114, 34.195486518 ], [ 132.21562583299999, 34.195326556 ], [ 132.215781894, 34.195121283 ], [ 132.21587679000001, 34.195049118 ], [ 132.21601234100001, 34.194918334 ], [ 132.21611007300001, 34.194744867 ], [ 132.216135981, 34.194282839 ], [ 132.216123288, 34.194177884 ], [ 132.216071297000013, 34.194114712 ], [ 132.21603891699999, 34.1941925 ], [ 132.216010667, 34.1942015 ], [ 132.215997155, 34.194224033 ], [ 132.21589605599999, 34.194392639 ], [ 132.215793056, 34.194471556 ], [ 132.215766472000013, 34.1944965 ], [ 132.21575785600001, 34.194514806 ], [ 132.215748222, 34.194535278 ], [ 132.215764615000012, 34.194657411 ], [ 132.21566375, 34.194673192 ], [ 132.215594528999986, 34.194774248 ], [ 132.21544541, 34.194896021 ], [ 132.21541560899999, 34.194959144 ], [ 132.215442773, 34.195026752 ], [ 132.215312602000012, 34.195079771 ], [ 132.215290982999989, 34.195221779 ], [ 132.215280774, 34.195269417 ], [ 132.21526393, 34.195348012 ], [ 132.215145404, 34.195480323 ], [ 132.215265093, 34.195557222 ], [ 132.215117972, 34.195677111 ], [ 132.214973472, 34.195871694 ], [ 132.214885444, 34.196026806 ], [ 132.214800722, 34.196082889 ], [ 132.214779111000013, 34.196168778 ], [ 132.21473841299999, 34.196263528 ], [ 132.214677607, 34.196362788 ], [ 132.214468556000014, 34.196267451 ], [ 132.214365523999987, 34.196194454 ], [ 132.214283032999987, 34.196244082 ], [ 132.21431515899999, 34.196286728 ], [ 132.214293391000012, 34.19632661 ], [ 132.214133425999989, 34.196464163 ], [ 132.214189471999987, 34.196547334 ], [ 132.214223016, 34.196597112 ], [ 132.21412812, 34.196676037 ], [ 132.214168911, 34.196858592 ], [ 132.214060503000013, 34.197029934 ], [ 132.214143931, 34.197069014 ], [ 132.214129754, 34.197107619 ], [ 132.214095996999987, 34.197199546 ], [ 132.214011813000013, 34.197273381 ], [ 132.214001069, 34.197464971 ], [ 132.213857389999987, 34.197625057 ], [ 132.213716412, 34.197764857 ], [ 132.213578109999986, 34.19783929 ], [ 132.213515752, 34.197897917 ], [ 132.213482645999989, 34.197937949 ], [ 132.213241611, 34.197786111 ], [ 132.213130333, 34.197714111 ], [ 132.212983184, 34.197632067 ], [ 132.212709249999989, 34.197479333 ], [ 132.212556417, 34.197368528 ], [ 132.212339667, 34.197176722 ], [ 132.212201778, 34.197096389 ], [ 132.212157479000012, 34.197082259 ], [ 132.212094557, 34.19706219 ], [ 132.21207169199999, 34.197054897 ], [ 132.211815583, 34.196993222 ], [ 132.211714836999988, 34.196974476 ], [ 132.21136317599999, 34.196909039 ], [ 132.21136953300001, 34.196882183 ], [ 132.2113813, 34.19673704 ], [ 132.21119576000001, 34.196564439 ], [ 132.211214697, 34.196467512 ], [ 132.210970489, 34.196321093 ], [ 132.21082667499999, 34.196230986 ], [ 132.210615053, 34.19614992 ], [ 132.210406022, 34.196047964 ], [ 132.210287569, 34.196150323 ], [ 132.21028036300001, 34.19609546 ], [ 132.210235219999987, 34.196005802 ], [ 132.21009408, 34.195836805 ], [ 132.209901417999987, 34.195699382 ], [ 132.209716930000013, 34.195631828 ], [ 132.209711442000014, 34.195507862 ], [ 132.209674689, 34.195476324 ], [ 132.209656013, 34.195445319 ], [ 132.209634462, 34.195404774 ], [ 132.209614347000013, 34.195367806 ], [ 132.209597099, 34.195321295 ], [ 132.209606334999989, 34.195295544 ], [ 132.209442644, 34.195000816 ], [ 132.209412703, 34.194795716 ], [ 132.209369224, 34.194640208 ], [ 132.209326624, 34.194457641 ], [ 132.209339472000011, 34.194447333 ], [ 132.209335888999988, 34.194417583 ], [ 132.209302, 34.194352111 ], [ 132.209394613, 34.194302144 ], [ 132.209484, 34.194253917 ], [ 132.20959819399999, 34.194143833 ], [ 132.209666, 34.194041167 ], [ 132.20968625099999, 34.19397518 ], [ 132.209694555999988, 34.193947444 ], [ 132.209702626, 34.193894258 ], [ 132.209712389, 34.193829917 ], [ 132.209717506, 34.193820724 ], [ 132.209735583, 34.19378825 ], [ 132.209776611, 34.193528639 ], [ 132.20982033300001, 34.1933925 ], [ 132.2098935, 34.193267528 ], [ 132.209900655000013, 34.193257677 ], [ 132.210046944, 34.193056278 ], [ 132.21012188899999, 34.192961056 ], [ 132.210175416999988, 34.192889639 ], [ 132.210227206000013, 34.192760147 ], [ 132.210137285, 34.192811979 ], [ 132.21012469499999, 34.192819159 ], [ 132.209947468, 34.192920236 ], [ 132.209754946, 34.193044271 ], [ 132.209703437, 34.193098384 ], [ 132.20958130599999, 34.19322825 ], [ 132.209370361, 34.193426306 ], [ 132.209042278, 34.193691528 ], [ 132.208955917, 34.193769111 ], [ 132.208833233, 34.193723409 ], [ 132.208786677, 34.19377852 ], [ 132.208740010000014, 34.193803324 ], [ 132.208682156, 34.193791453 ], [ 132.20862975899999, 34.193776645 ], [ 132.208591868000013, 34.193781429 ], [ 132.208547091000014, 34.193794803 ], [ 132.208490831, 34.193810089 ], [ 132.208448350999987, 34.193823462 ], [ 132.208420808, 34.193844888 ], [ 132.208247254000014, 34.193937359 ], [ 132.20812520699999, 34.193968956 ], [ 132.208089992, 34.194065888 ], [ 132.20810087699999, 34.194138011 ], [ 132.20806556, 34.194166622 ], [ 132.207997815, 34.194165093 ], [ 132.207902904, 34.19421922 ], [ 132.207851406, 34.19430038 ], [ 132.20780805199999, 34.19439506 ], [ 132.207915245, 34.194399972 ], [ 132.207815504, 34.194451359 ], [ 132.207775478, 34.194491992 ], [ 132.207783374, 34.194496164 ], [ 132.207802757, 34.194506295 ], [ 132.207814246, 34.194518815 ], [ 132.207829831999987, 34.194559592 ], [ 132.20781787199999, 34.19458464 ], [ 132.207797642, 34.194602538 ], [ 132.207781283, 34.194613278 ], [ 132.207760619999988, 34.194625808 ], [ 132.207745985, 34.194637979 ], [ 132.207718002, 34.194653017 ], [ 132.20769217099999, 34.194666265 ], [ 132.20767365899999, 34.194674859 ], [ 132.207650409, 34.194683096 ], [ 132.207634592, 34.194685879 ], [ 132.207550583, 34.194850446 ], [ 132.207208801, 34.194841543 ], [ 132.207134464, 34.19484704 ], [ 132.207117238, 34.194843468 ], [ 132.20710144200001, 34.194830353 ], [ 132.20707416, 34.194810085 ], [ 132.20704831399999, 34.194792203 ], [ 132.207031081999986, 34.19477551 ], [ 132.20701528399999, 34.194758817 ], [ 132.207027009, 34.194731159 ], [ 132.20695902599999, 34.194372803 ], [ 132.206869488, 34.194320991 ], [ 132.20672571899999, 34.194307514 ], [ 132.206633667, 34.194304556 ], [ 132.206655082999987, 34.194352167 ], [ 132.20665866499999, 34.194404344 ], [ 132.206659527999989, 34.194416917 ], [ 132.206667583000012, 34.194439944 ], [ 132.20661191, 34.194553233 ], [ 132.20658212399999, 34.194663686 ], [ 132.206544165999986, 34.194699762 ], [ 132.206441093, 34.194706557 ], [ 132.20633532, 34.194738147 ], [ 132.206167171, 34.194796804 ], [ 132.20604244099999, 34.194896018 ], [ 132.205936691, 34.194979449 ], [ 132.205916308000013, 34.194991891 ], [ 132.20590884500001, 34.19500642 ], [ 132.205910582, 34.195024336 ], [ 132.20591346, 34.195039602 ], [ 132.205917484999986, 34.195052959 ], [ 132.205933597000012, 34.195064634 ], [ 132.205981602, 34.195090376 ], [ 132.20602409599999, 34.195102766 ], [ 132.20606888899999, 34.195121995 ], [ 132.20610449, 34.195127709 ], [ 132.206137791, 34.195128175 ], [ 132.20618745499999, 34.195125535 ], [ 132.206231378000012, 34.195125521 ], [ 132.206246881, 34.195127663 ], [ 132.206265835000011, 34.195140538 ], [ 132.20630201899999, 34.195167005 ], [ 132.20631347, 34.195177217 ], [ 132.20633891899999, 34.195182739 ], [ 132.20635538499999, 34.195186036 ], [ 132.206401069, 34.195183433 ], [ 132.20642863099999, 34.195187718 ], [ 132.20646911, 34.195189852 ], [ 132.206516486, 34.19520558 ], [ 132.206574931, 34.195229996 ], [ 132.206667196000012, 34.195311108 ], [ 132.206680791999986, 34.195380976 ], [ 132.206998242999987, 34.195556681 ], [ 132.20705780599999, 34.195585194 ], [ 132.207078083, 34.19558275 ], [ 132.207090139, 34.195578333 ], [ 132.20713491699999, 34.195537389 ], [ 132.207171028, 34.195480944 ], [ 132.2071785, 34.195453611 ], [ 132.207326438, 34.195509239 ], [ 132.207407786, 34.19545061 ], [ 132.207627559, 34.195567742 ], [ 132.207711628, 34.195527143 ], [ 132.207852749000011, 34.195669095 ], [ 132.20785496900001, 34.195693849 ], [ 132.207864144000013, 34.195711703 ], [ 132.20786774199999, 34.195730786 ], [ 132.207882109, 34.195757618 ], [ 132.207896471999987, 34.195774907 ], [ 132.207918724, 34.195782653 ], [ 132.20789505499999, 34.195813274 ], [ 132.207883708, 34.1958281 ], [ 132.207878689000012, 34.19583824 ], [ 132.20787582599999, 34.195854044 ], [ 132.20787655, 34.195867462 ], [ 132.207878477, 34.195875672 ], [ 132.207935193999987, 34.195932111 ], [ 132.207942589, 34.195937874 ], [ 132.208003561, 34.195985385 ], [ 132.208044027999989, 34.196016917 ], [ 132.208151111, 34.196048167 ], [ 132.20812752099999, 34.196102751 ], [ 132.208218851999987, 34.196181441 ], [ 132.20826709799999, 34.196212913 ], [ 132.20834167000001, 34.196246809 ], [ 132.208369232, 34.196249662 ], [ 132.208383586, 34.196250134 ], [ 132.208406196, 34.196247858 ], [ 132.208448787, 34.196312464 ], [ 132.20841175699999, 34.196321065 ], [ 132.208340306, 34.196388359 ], [ 132.208471255, 34.196465604 ], [ 132.20851170200001, 34.196401898 ], [ 132.20852979599999, 34.196416205 ], [ 132.20856684200001, 34.196440524 ], [ 132.208576319, 34.196448392 ], [ 132.20860302599999, 34.196464843 ], [ 132.208628871, 34.196479147 ], [ 132.208652992999987, 34.196492736 ], [ 132.208671084, 34.196502391 ], [ 132.208694192, 34.196516318 ], [ 132.20873742, 34.19655722 ], [ 132.208879610999986, 34.196649925 ], [ 132.208900629999988, 34.196630143 ], [ 132.20914175499999, 34.196755063 ], [ 132.20926920799999, 34.196678384 ], [ 132.209275620999989, 34.196693014 ], [ 132.209284959, 34.196709113 ], [ 132.20931368, 34.19673415 ], [ 132.209335939, 34.196753226 ], [ 132.209358915, 34.196772302 ], [ 132.209383327000012, 34.196790781 ], [ 132.209403431, 34.19680628 ], [ 132.209424251, 34.196819989 ], [ 132.209442918, 34.196831313 ], [ 132.20946876, 34.196839653 ], [ 132.20949244900001, 34.196849783 ], [ 132.209511115, 34.196859915 ], [ 132.20953695899999, 34.19687243 ], [ 132.20957500599999, 34.196888518 ], [ 132.209605157, 34.196901031 ], [ 132.20964177, 34.196919983 ], [ 132.20967852199999, 34.196929512 ], [ 132.209707807, 34.196933796 ], [ 132.209730775999986, 34.196938559 ], [ 132.20975202299999, 34.196943322 ], [ 132.20977187299999, 34.196946231 ], [ 132.209965896999989, 34.197049617 ], [ 132.209993104, 34.196988314 ], [ 132.210006053, 34.197046992 ], [ 132.21001209, 34.197064165 ], [ 132.210026402000011, 34.197081857 ], [ 132.210240021, 34.197195683 ], [ 132.210303724999989, 34.197183075 ], [ 132.21038412499999, 34.197213581 ], [ 132.210405568999988, 34.197227427 ], [ 132.210390015, 34.197266768 ], [ 132.210395197999986, 34.197296823 ], [ 132.210414156000013, 34.197316854 ], [ 132.210458958, 34.197348326 ], [ 132.210507201000013, 34.197372641 ], [ 132.21057267099999, 34.197366232 ], [ 132.210557892, 34.197382471 ], [ 132.210508721999986, 34.1974365 ], [ 132.210508809, 34.197436565 ], [ 132.210590661, 34.197498358 ], [ 132.210699169, 34.197505081 ], [ 132.210718421, 34.197479061 ], [ 132.210742540000012, 34.197446463 ], [ 132.210924336, 34.197545572 ], [ 132.211030231, 34.197741628 ], [ 132.21112795799999, 34.197881337 ], [ 132.211296229999988, 34.198050323 ], [ 132.211491916999989, 34.198161056 ], [ 132.211857989, 34.198509925 ], [ 132.212045225, 34.198629315 ], [ 132.212267736, 34.198766724 ], [ 132.212476693000013, 34.198919915 ], [ 132.212593327, 34.19890184 ], [ 132.212617805, 34.199019036 ], [ 132.212633614, 34.199087367 ], [ 132.21273581299999, 34.19914179 ], [ 132.212756151, 34.199122015 ] ] ] } },
{ "type": "Feature", "properties": { "A29_001": "35321", "A29_002": "山口県", "A29_003": "和木町", "A29_004": 11, "A29_005": "工業地域", "A29_006": 60, "A29_007": 200, "A29_008": null }, "geometry": { "type": "Polygon", "coordinates": [ [ [ 132.21571408, 34.203041806 ], [ 132.2157119, 34.202996722 ], [ 132.215757981, 34.202996942 ], [ 132.215779502, 34.20297618 ], [ 132.215781187, 34.202882438 ], [ 132.215818915, 34.20282529 ], [ 132.215813168000011, 34.202661862 ], [ 132.21589494700001, 34.202583109 ], [ 132.215890593000012, 34.202500812 ], [ 132.215844231, 34.202387357 ], [ 132.215866061000014, 34.202261782 ], [ 132.215878917, 34.20217043 ], [ 132.215847305000011, 34.202119155 ], [ 132.21570947, 34.202155338 ], [ 132.215648061, 34.202014191 ], [ 132.215753713999987, 34.201979191 ], [ 132.2158015, 34.201963361 ], [ 132.215792139, 34.201910167 ], [ 132.215763583000012, 34.201861083 ], [ 132.21565830599999, 34.201739083 ], [ 132.215622639, 34.201731639 ], [ 132.215540556, 34.201673639 ], [ 132.21549816699999, 34.201610722 ], [ 132.215391081, 34.201487945 ], [ 132.215360995999987, 34.201407735 ], [ 132.215327876, 34.201353624 ], [ 132.215420978999987, 34.201345233 ], [ 132.215245775, 34.201220066 ], [ 132.215189305, 34.201204366 ], [ 132.215181575, 34.201193925 ], [ 132.215161042, 34.201119778 ], [ 132.215165477999989, 34.201055173 ], [ 132.21506244, 34.20105584 ], [ 132.21494601, 34.20085187 ], [ 132.21493299, 34.20068723 ], [ 132.21496735, 34.20050467 ], [ 132.2150706, 34.20026123 ], [ 132.215149778000011, 34.200148694 ], [ 132.21524258299999, 34.200011806 ], [ 132.215252972, 34.2 ], [ 132.21532108299999, 34.199922528 ], [ 132.215351152000011, 34.199895437 ], [ 132.215436696000012, 34.199818367 ], [ 132.21553576299999, 34.199782907 ], [ 132.21562305, 34.199799093 ], [ 132.215686229999989, 34.199831511 ], [ 132.215735607999989, 34.199827674 ], [ 132.215772343999987, 34.199806667 ], [ 132.215787271000011, 34.199802845 ], [ 132.215852743, 34.199827627 ], [ 132.21587687600001, 34.199856243 ], [ 132.21589525499999, 34.199865778 ], [ 132.215965627, 34.199879325 ], [ 132.216030147999987, 34.199874778 ], [ 132.21612777199999, 34.199818389 ], [ 132.216099619, 34.199697842 ], [ 132.216062778, 34.199684117 ], [ 132.21605702, 34.199656686 ], [ 132.21606423899999, 34.199619489 ], [ 132.21602453, 34.199543448 ], [ 132.21585555499999, 34.199462929 ], [ 132.215792781, 34.199465478 ], [ 132.215754866, 34.199432573 ], [ 132.215704917000011, 34.199442612 ], [ 132.21550162, 34.199384011 ], [ 132.215339691999986, 34.199371194 ], [ 132.21529830099999, 34.199285333 ], [ 132.214848225, 34.198910554 ], [ 132.214918729, 34.198865448 ], [ 132.21488072299999, 34.198630437 ], [ 132.214894471, 34.19857318 ], [ 132.214823518, 34.198394408 ], [ 132.214107754999986, 34.198562451 ], [ 132.2140685, 34.198571667 ], [ 132.213966325, 34.198394742 ], [ 132.213827611, 34.198256278 ], [ 132.213448123, 34.198563291 ], [ 132.213347639, 34.198644583 ], [ 132.21330021599999, 34.198682774 ], [ 132.21318126, 34.198778572 ], [ 132.21315012, 34.19880365 ], [ 132.213033583, 34.1988975 ], [ 132.212986667, 34.198939111 ], [ 132.212965481999987, 34.19895748 ], [ 132.212930586, 34.198952409 ], [ 132.212756151, 34.199122015 ], [ 132.212836608, 34.199172077 ], [ 132.212891746999986, 34.199203544 ], [ 132.212953777, 34.199235009 ], [ 132.213024413, 34.19925502 ], [ 132.21310365799999, 34.199267872 ], [ 132.21317673199999, 34.199281445 ], [ 132.213328746, 34.199427861 ], [ 132.213291105, 34.199460434 ], [ 132.213277333, 34.199475706 ], [ 132.213289987, 34.199514823 ], [ 132.213335925, 34.199520531 ], [ 132.21336234099999, 34.199525292 ], [ 132.213385313, 34.199533871 ], [ 132.21340068399999, 34.199539865 ], [ 132.213425139, 34.199596871 ], [ 132.21317296399999, 34.199786299 ], [ 132.213072708999988, 34.199993701 ], [ 132.21293992599999, 34.200248448 ], [ 132.212877843, 34.200814215 ], [ 132.212997424, 34.201219881 ], [ 132.21321181499999, 34.201375323 ], [ 132.213195425, 34.201503736 ], [ 132.213187505, 34.201565792 ], [ 132.21353898000001, 34.20182061 ], [ 132.213797559999989, 34.20201737 ], [ 132.214068156, 34.202222482 ], [ 132.214057415000013, 34.202418581 ], [ 132.213970726000014, 34.20263274 ], [ 132.21380531, 34.202745501 ], [ 132.21368225, 34.20286122 ], [ 132.213995290000014, 34.202898697 ], [ 132.214193333999987, 34.202918906 ], [ 132.21444925, 34.202944778 ], [ 132.214645722, 34.202998806 ], [ 132.21489463899999, 34.203082861 ], [ 132.215071556, 34.203166889 ], [ 132.21510154399999, 34.20318798 ], [ 132.21512465699999, 34.203199722 ], [ 132.215455015, 34.203330884 ], [ 132.215537211999987, 34.203339657 ], [ 132.21554519599999, 34.203296476 ], [ 132.215534228, 34.203093624 ], [ 132.215647784999987, 34.203087633 ], [ 132.21571408, 34.203041806 ] ] ] } },
{ "type": "Feature", "properties": { "A29_001": "35321", "A29_002": "山口県", "A29_003": "和木町", "A29_004": 8, "A29_005": "近隣商業地域", "A29_006": 80, "A29_007": 200, "A29_008": null }, "geometry": { "type": "Polygon", "coordinates": [ [ [ 132.22086542, 34.20583802 ], [ 132.222748722, 34.206637917 ], [ 132.223079567000013, 34.2067463 ], [ 132.223407342, 34.206020375 ], [ 132.222870075, 34.205844814 ], [ 132.22124089, 34.20520431 ], [ 132.22117952799999, 34.205182915 ], [ 132.22119872799999, 34.20550973 ], [ 132.22086542, 34.20583802 ] ] ] } },
{ "type": "Feature", "properties": { "A29_001": "35321", "A29_002": "山口県", "A29_003": "和木町", "A29_004": 4, "A29_005": "第二種中高層住居専用地域", "A29_006": 60, "A29_007": 200, "A29_008": null }, "geometry": { "type": "Polygon", "coordinates": [ [ [ 132.201056877000013, 34.206036138 ], [ 132.201120632999988, 34.206077976 ], [ 132.201096326, 34.206144309 ], [ 132.201108197, 34.20617686 ], [ 132.201167951, 34.206348144 ], [ 132.200907551, 34.206442883 ], [ 132.200831607999987, 34.206487983 ], [ 132.20024018399999, 34.206456591 ], [ 132.200107967, 34.206463181 ], [ 132.20009221, 34.206485421 ], [ 132.200109013, 34.206500803 ], [ 132.20013874, 34.206526558 ], [ 132.200164590000014, 34.206550167 ], [ 132.200245039, 34.206608561 ], [ 132.200297584, 34.206655488 ], [ 132.200330495, 34.206684881 ], [ 132.200351, 34.206703194 ], [ 132.200460725999989, 34.206791981 ], [ 132.20052013899999, 34.206840056 ], [ 132.200838987999987, 34.207034731 ], [ 132.20084902799999, 34.207040861 ], [ 132.200849525, 34.207041097 ], [ 132.200852077, 34.207042313 ], [ 132.200974449, 34.207100575 ], [ 132.201089056, 34.207155139 ], [ 132.201206125, 34.207172638 ], [ 132.201236720999987, 34.207157416 ], [ 132.201282295, 34.207154629 ], [ 132.201411871, 34.207171679 ], [ 132.201515237, 34.207179999 ], [ 132.20158558599999, 34.207189521 ], [ 132.201634221, 34.207225485 ], [ 132.201937425000011, 34.207235983 ], [ 132.202226319, 34.207159265 ], [ 132.202431108000013, 34.207073555 ], [ 132.202690104999988, 34.206869497 ], [ 132.202898936, 34.206722928 ], [ 132.20381833, 34.206083657 ], [ 132.204488609, 34.205133583 ], [ 132.204560644999987, 34.205153633 ], [ 132.204733317, 34.204969345 ], [ 132.204916989, 34.204789186 ], [ 132.204924153, 34.204760558 ], [ 132.205044007999987, 34.20461922 ], [ 132.205007161, 34.204584919 ], [ 132.20508570199999, 34.204574162 ], [ 132.205678404, 34.203989157 ], [ 132.206316985, 34.203377003 ], [ 132.20659087199999, 34.203151519 ], [ 132.206900037999986, 34.202958705 ], [ 132.207030257000014, 34.202969932 ], [ 132.207667585, 34.202606834 ], [ 132.207565855000013, 34.202604614 ], [ 132.20756756599999, 34.202582207 ], [ 132.207471806, 34.202587389 ], [ 132.20743370299999, 34.202546648 ], [ 132.207431915, 34.202546583 ], [ 132.2074065, 34.202524361 ], [ 132.207383310000012, 34.202516631 ], [ 132.207345806, 34.202513194 ], [ 132.207093278, 34.202596833 ], [ 132.206815834, 34.20273221 ], [ 132.20591403099999, 34.203367767 ], [ 132.205646222000013, 34.203518667 ], [ 132.205298972, 34.203733833 ], [ 132.204893528000014, 34.203967306 ], [ 132.204391750000013, 34.204219361 ], [ 132.20436989699999, 34.204233026 ], [ 132.204337333000012, 34.204253389 ], [ 132.20426680599999, 34.204176306 ], [ 132.204109466, 34.203989317 ], [ 132.204090165999986, 34.204003429 ], [ 132.20387310000001, 34.204162145 ], [ 132.203847809, 34.204177917 ], [ 132.20384454, 34.204215625 ], [ 132.203715799, 34.20426024 ], [ 132.203447278999988, 34.204373018 ], [ 132.20320997799999, 34.204538755 ], [ 132.20308655, 34.204553442 ], [ 132.202984906000012, 34.204756328 ], [ 132.202947615, 34.204793643 ], [ 132.20292833100001, 34.204797953 ], [ 132.202872066, 34.204819916 ], [ 132.202831884, 34.204850462 ], [ 132.20280433100001, 34.204875279 ], [ 132.202777929, 34.204902958 ], [ 132.202753822, 34.204927774 ], [ 132.202735456, 34.204950679 ], [ 132.202737735, 34.205006694 ], [ 132.202635109, 34.205131715 ], [ 132.202414022999989, 34.205159954 ], [ 132.202293292, 34.205137449 ], [ 132.202251901000011, 34.2050925 ], [ 132.202190836999989, 34.205093446 ], [ 132.20223038, 34.205069128 ], [ 132.202220399999987, 34.20505829 ], [ 132.202121260000013, 34.20492589 ], [ 132.2021126, 34.20481135 ], [ 132.20197474, 34.20481139 ], [ 132.201935920000011, 34.20470044 ], [ 132.202173722, 34.20465063 ], [ 132.202154631000013, 34.204409462 ], [ 132.202107023999986, 34.204405903 ], [ 132.202085003, 34.204330632 ], [ 132.202050138, 34.20429116 ], [ 132.20173745, 34.20397033 ], [ 132.201571051, 34.203628635 ], [ 132.201454403000014, 34.20363543 ], [ 132.201404908, 34.203391804 ], [ 132.201434311000014, 34.203387812 ], [ 132.201453140000012, 34.203387544 ], [ 132.201454555999987, 34.203339358 ], [ 132.201540679, 34.203317228 ], [ 132.201524793, 34.203288301 ], [ 132.201589721, 34.202855523 ], [ 132.201662937, 34.202783375 ], [ 132.201555278, 34.20233125 ], [ 132.201681729, 34.202307785 ], [ 132.201605863, 34.202112354 ], [ 132.201662593, 34.202112514 ], [ 132.201549279, 34.201874072 ], [ 132.201469134, 34.201737791 ], [ 132.20143934699999, 34.201714406 ], [ 132.201412057999988, 34.201681018 ], [ 132.201381110999989, 34.201661709 ], [ 132.201346008, 34.201640483 ], [ 132.20135316299999, 34.201585616 ], [ 132.201249754, 34.201455637 ], [ 132.201241125, 34.201416279 ], [ 132.201249633, 34.201385198 ], [ 132.20103407, 34.20104267 ], [ 132.200784090000013, 34.20074209 ], [ 132.200715344, 34.200712257 ], [ 132.200694535999986, 34.200564198 ], [ 132.200669096000013, 34.200383192 ], [ 132.200743448, 34.200380887 ], [ 132.20073143499999, 34.200250192 ], [ 132.200860874, 34.199804862 ], [ 132.20086032399999, 34.19973487 ], [ 132.200911636, 34.199739488 ], [ 132.20094809599999, 34.199715331 ], [ 132.200952175, 34.199688686 ], [ 132.200980347000012, 34.199693962 ], [ 132.20103084199999, 34.199694866 ], [ 132.201045864, 34.199650552 ], [ 132.20106012799999, 34.199529619 ], [ 132.200948778, 34.199550778 ], [ 132.200677555999988, 34.199582028 ], [ 132.200588556000014, 34.199622944 ], [ 132.200574139, 34.199676139 ], [ 132.200545361, 34.199712167 ], [ 132.200463555999988, 34.199776889 ], [ 132.200403746, 34.199822255 ], [ 132.200224416999987, 34.199958278 ], [ 132.200053306, 34.199811444 ], [ 132.199944861, 34.199705722 ], [ 132.199913056000014, 34.199666944 ], [ 132.19989225399999, 34.19963674 ], [ 132.199760222, 34.199505972 ], [ 132.19970512, 34.199542098 ], [ 132.199627106, 34.199578815 ], [ 132.19927155, 34.199411 ], [ 132.19904895, 34.199367096 ], [ 132.199028317999989, 34.199330967 ], [ 132.19908335, 34.199264722 ], [ 132.19886648, 34.19903887 ], [ 132.198801307999986, 34.198883556 ], [ 132.198798616, 34.198784859 ], [ 132.19880002799999, 34.198722836 ], [ 132.198731818999988, 34.198645359 ], [ 132.19872877099999, 34.198417138 ], [ 132.198644601000012, 34.19821205 ], [ 132.198432954999987, 34.19804982 ], [ 132.1981251, 34.19781494 ], [ 132.197795288, 34.197504526 ], [ 132.197553784, 34.197281445 ], [ 132.197337381000011, 34.197127678 ], [ 132.197262064, 34.197101111 ], [ 132.197256673, 34.19705737 ], [ 132.19718747499999, 34.196981761 ], [ 132.196935810000014, 34.19673071 ], [ 132.196715250000011, 34.196323722 ], [ 132.196574457999986, 34.196360374 ], [ 132.196543861, 34.196314833 ], [ 132.19647186099999, 34.196247917 ], [ 132.196375167000014, 34.196179306 ], [ 132.196172528, 34.196056667 ], [ 132.195760056000012, 34.195805389 ], [ 132.19571686099999, 34.195748778 ], [ 132.195552278, 34.195338833 ], [ 132.195513194, 34.195271944 ], [ 132.195480221999986, 34.195247972 ], [ 132.195278667, 34.195199889 ], [ 132.194878528, 34.195108139 ], [ 132.194798306, 34.195072111 ], [ 132.194734528, 34.195013806 ], [ 132.194479444, 34.194657 ], [ 132.19439485, 34.194599297 ], [ 132.194388917, 34.19459525 ], [ 132.19432925000001, 34.194567833 ], [ 132.194103805999987, 34.19450825 ], [ 132.193776939, 34.194458129 ], [ 132.19362447200001, 34.1944345 ], [ 132.193323111000012, 34.194474806 ], [ 132.193351497, 34.194567993 ], [ 132.193372677000013, 34.194574616 ], [ 132.193432271, 34.194574407 ], [ 132.193484211999987, 34.194560853 ], [ 132.193497581, 34.194557365 ], [ 132.193665778, 34.194622693 ], [ 132.193693112, 34.194638652 ], [ 132.193680762000014, 34.194653787 ], [ 132.193642528, 34.194702972 ], [ 132.193602833, 34.194758611 ], [ 132.19357104299999, 34.194804731 ], [ 132.193566167, 34.194811806 ], [ 132.193550004, 34.194837852 ], [ 132.193538639, 34.194856167 ], [ 132.19363544399999, 34.194857236 ], [ 132.193640893, 34.194837185 ], [ 132.193648348000011, 34.194810717 ], [ 132.193899112, 34.194800704 ], [ 132.193928789000012, 34.194702593 ], [ 132.19397502699999, 34.194690243 ], [ 132.194086113, 34.19471866 ], [ 132.19413922199999, 34.194717455 ], [ 132.19420094899999, 34.194731754 ], [ 132.194248999, 34.194712721 ], [ 132.19434127400001, 34.194863716 ], [ 132.194386619999989, 34.194913382 ], [ 132.194409137, 34.194903461 ], [ 132.194481171, 34.19501694 ], [ 132.19452850499999, 34.195068784 ], [ 132.194685892, 34.195251318 ], [ 132.194778101, 34.195199456 ], [ 132.195073802, 34.195300816 ], [ 132.195168789, 34.195445048 ], [ 132.195266487999987, 34.19558477 ], [ 132.195326219, 34.195656418 ], [ 132.19536417899999, 34.195701953 ], [ 132.19541131299999, 34.195696399 ], [ 132.195451, 34.195758282 ], [ 132.19558666899999, 34.195879964 ], [ 132.195647329, 34.195921824 ], [ 132.195779307, 34.196012901 ], [ 132.19589871, 34.19615938 ], [ 132.196064226, 34.19630134 ], [ 132.196156481, 34.19638246 ], [ 132.19612394399999, 34.196420785 ], [ 132.19612889699999, 34.196429011 ], [ 132.196167370000012, 34.196492902 ], [ 132.196248744, 34.196483866 ], [ 132.19628279299999, 34.196478054 ], [ 132.196354528, 34.196465809 ], [ 132.196415843000011, 34.196617349 ], [ 132.196473985000011, 34.196761048 ], [ 132.196577064, 34.196761023 ], [ 132.196651726, 34.196816449 ], [ 132.196756142, 34.196893963 ], [ 132.196723711, 34.196929915 ], [ 132.196715469, 34.196939052 ], [ 132.197043995, 34.197227476 ], [ 132.197024507, 34.197245799 ], [ 132.19722467, 34.19743576 ], [ 132.197293445000014, 34.197477605 ], [ 132.19729902, 34.197500729 ], [ 132.197304651, 34.197572648 ], [ 132.197399415, 34.197641326 ], [ 132.19738824, 34.197698222 ], [ 132.197531852, 34.197883656 ], [ 132.197493095999988, 34.197887244 ], [ 132.197462957999988, 34.197904546 ], [ 132.197459377, 34.197927209 ], [ 132.197488928000013, 34.197957649 ], [ 132.197727735, 34.198219048 ], [ 132.19774944400001, 34.198244528 ], [ 132.19776101299999, 34.198275798 ], [ 132.19772556699999, 34.198303955 ], [ 132.19776304199999, 34.198336244 ], [ 132.19789874599999, 34.198532304 ], [ 132.19789337899999, 34.198690082 ], [ 132.198042593, 34.198739631 ], [ 132.19808605599999, 34.198904159 ], [ 132.198132206999986, 34.199001067 ], [ 132.198189361, 34.198942188 ], [ 132.19819031899999, 34.199027274 ], [ 132.198322176, 34.199221906 ], [ 132.19852843000001, 34.19946528 ], [ 132.198457921, 34.199521647 ], [ 132.19857464, 34.199717711 ], [ 132.198607186, 34.199699671 ], [ 132.198962693, 34.20008275 ], [ 132.198992527, 34.200069219 ], [ 132.199158066, 34.200238222 ], [ 132.199136348, 34.200258403 ], [ 132.19911196699999, 34.200281059 ], [ 132.199269358, 34.200423017 ], [ 132.19934553600001, 34.200421886 ], [ 132.199423981, 34.200420721 ], [ 132.200058931, 34.200871341 ], [ 132.20005895700001, 34.200936706 ], [ 132.200289639, 34.20119134 ], [ 132.20029513099999, 34.201360385 ], [ 132.20056386600001, 34.201795325 ], [ 132.20060734099999, 34.201973375 ], [ 132.20074697199999, 34.202286639 ], [ 132.200792029000013, 34.202521035 ], [ 132.200887255999987, 34.203212973 ], [ 132.20090630499999, 34.203361728 ], [ 132.200814086, 34.203400071 ], [ 132.200827863, 34.203927493 ], [ 132.200814369999989, 34.204105559 ], [ 132.200871505, 34.204515763 ], [ 132.200836334, 34.204752438 ], [ 132.200934047, 34.204759391 ], [ 132.20084418799999, 34.204845311 ], [ 132.200850984, 34.204925668 ], [ 132.200887617, 34.204961214 ], [ 132.200885926000012, 34.205039935 ], [ 132.20089112799999, 34.205124379 ], [ 132.200888373999987, 34.205232029 ], [ 132.200931816, 34.205507752 ], [ 132.200925748, 34.205536292 ], [ 132.200922315000014, 34.205566349 ], [ 132.200925783, 34.2056236 ], [ 132.200927525, 34.2056694 ], [ 132.20093874599999, 34.205728795 ], [ 132.200943923000011, 34.205750978 ], [ 132.200960302, 34.205783177 ], [ 132.200983266, 34.205834294 ], [ 132.201056877000013, 34.206036138 ] ] ] } },
{ "type": "Feature", "properties": { "A29_001": "35321", "A29_002": "山口県", "A29_003": "和木町", "A29_004": 10, "A29_005": "準工業地域", "A29_006": 60, "A29_007": 200, "A29_008": null }, "geometry": { "type": "Polygon", "coordinates": [ [ [ 132.230802024000013, 34.201364675 ], [ 132.23084797199999, 34.201846111 ], [ 132.230961056000012, 34.201885861 ], [ 132.23109088699999, 34.201931522 ], [ 132.231092167000014, 34.201931972 ], [ 132.231259943999987, 34.201972139 ], [ 132.23141125, 34.202016083 ], [ 132.231673722000011, 34.202059806 ], [ 132.231672698000011, 34.202070845 ], [ 132.23165875, 34.202221333 ], [ 132.231642064999988, 34.202322482 ], [ 132.231634429, 34.202368779 ], [ 132.231634004, 34.202371354 ], [ 132.231633778, 34.202372722 ], [ 132.231542601, 34.202787532 ], [ 132.231504417, 34.20296125 ], [ 132.23150279, 34.202973654 ], [ 132.231403168000014, 34.203733161 ], [ 132.231129727, 34.204459078 ], [ 132.230834283, 34.204795072 ], [ 132.23047911, 34.205072494 ], [ 132.229873166, 34.205338986 ], [ 132.229965166999989, 34.20554075 ], [ 132.229983768000011, 34.205578736 ], [ 132.229986595000014, 34.205584508 ], [ 132.230061551, 34.20573758 ], [ 132.230136226000013, 34.205890078 ], [ 132.230259167000014, 34.206141139 ], [ 132.230324301, 34.206277204 ], [ 132.230379972, 34.2063935 ], [ 132.230496732, 34.206630339 ], [ 132.23063498499999, 34.206910774 ], [ 132.230682917, 34.207008 ], [ 132.230806333, 34.207256722 ], [ 132.230473167000014, 34.207376417 ], [ 132.230495501, 34.207422313 ], [ 132.230635078, 34.207709151 ], [ 132.230802250000011, 34.208052694 ], [ 132.230842206, 34.20811498 ], [ 132.231127074999989, 34.208102595 ], [ 132.23130608299999, 34.207062056 ], [ 132.231394611000013, 34.206590861 ], [ 132.23142775, 34.206195889 ], [ 132.23147266699999, 34.205960222 ], [ 132.231522528, 34.205721083 ], [ 132.231621472, 34.205242444 ], [ 132.231676333, 34.204983194 ], [ 132.231687139, 34.204910778 ], [ 132.231824417000013, 34.204490778 ], [ 132.23195072199999, 34.203874222 ], [ 132.231996444, 34.203641139 ], [ 132.232065299999988, 34.203300976 ], [ 132.232141055999989, 34.202926722 ], [ 132.232181889, 34.202856722 ], [ 132.23221038299999, 34.202714041 ], [ 132.232255285, 34.202489203 ], [ 132.23226162, 34.202457484 ], [ 132.23227722199999, 34.202379361 ], [ 132.232302256999986, 34.201716521 ], [ 132.230802024000013, 34.201364675 ] ] ] } },
{ "type": "Feature", "properties": { "A29_001": "35321", "A29_002": "山口県", "A29_003": "和木町", "A29_004": 6, "A29_005": "第二種住居地域", "A29_006": 60, "A29_007": 200, "A29_008": null }, "geometry": { "type": "Polygon", "coordinates": [ [ [ 132.229062507, 34.20808225 ], [ 132.229453156, 34.208061765 ], [ 132.229884524, 34.208075067 ], [ 132.230478664, 34.208081522 ], [ 132.23077942, 34.20811771 ], [ 132.230842206, 34.20811498 ], [ 132.230802250000011, 34.208052694 ], [ 132.230635078, 34.207709151 ], [ 132.230495501, 34.207422313 ], [ 132.230473167000014, 34.207376417 ], [ 132.230806333, 34.207256722 ], [ 132.230682917, 34.207008 ], [ 132.23063498499999, 34.206910774 ], [ 132.230496732, 34.206630339 ], [ 132.230379972, 34.2063935 ], [ 132.230324301, 34.206277204 ], [ 132.230259167000014, 34.206141139 ], [ 132.230136226000013, 34.205890078 ], [ 132.230061551, 34.20573758 ], [ 132.229986595000014, 34.205584508 ], [ 132.229983768000011, 34.205578736 ], [ 132.229965166999989, 34.20554075 ], [ 132.229873166, 34.205338986 ], [ 132.229837731, 34.20535457 ], [ 132.22896193, 34.20666457 ], [ 132.22874156, 34.20724094 ], [ 132.228541237, 34.208039369 ], [ 132.228534639, 34.208061611 ], [ 132.22853206100001, 34.208067999 ], [ 132.22853047699999, 34.208071922 ], [ 132.228529422, 34.208074537 ], [ 132.228527586000013, 34.208079085 ], [ 132.228527573, 34.208079117 ], [ 132.228524429, 34.208086908 ], [ 132.228521207999989, 34.208094889 ], [ 132.228518868, 34.208100687 ], [ 132.228517653000011, 34.208103695 ], [ 132.228513566, 34.208113821 ], [ 132.228510688, 34.208120953 ], [ 132.228509827000011, 34.208123087 ], [ 132.228509548, 34.208123777 ], [ 132.22850843099999, 34.208126545 ], [ 132.228508166000012, 34.208127202 ], [ 132.228508086, 34.208127399 ], [ 132.228507576999988, 34.208128662 ], [ 132.228507502000014, 34.208128847 ], [ 132.228505356999989, 34.208134162 ], [ 132.228503831000012, 34.208137943 ], [ 132.228503284, 34.208139298 ], [ 132.22850179400001, 34.20814299 ], [ 132.228500284, 34.208146729 ], [ 132.228498639, 34.208150806 ], [ 132.228497498, 34.208156016 ], [ 132.228497164, 34.208157541 ], [ 132.22870987499999, 34.208152302 ], [ 132.229062507, 34.20808225 ] ] ] } },
{ "type": "Feature", "properties": { "A29_001": "35321", "A29_002": "山口県", "A29_003": "和木町", "A29_004": 5, "A29_005": "第一種住居地域", "A29_006": 60, "A29_007": 200, "A29_008": null }, "geometry": { "type": "Polygon", "coordinates": [ [ [ 132.227196786, 34.2082342 ], [ 132.22749755000001, 34.20719145 ], [ 132.22772544, 34.20657213 ], [ 132.22812986, 34.20583102 ], [ 132.22865911, 34.20496098 ], [ 132.229422897, 34.203838999 ], [ 132.229451188000013, 34.203789073 ], [ 132.229179417000012, 34.203845944 ], [ 132.229124504999987, 34.203862789 ], [ 132.229119110999989, 34.203864444 ], [ 132.22895783300001, 34.203888 ], [ 132.22894663299999, 34.20387697 ], [ 132.228945188000012, 34.203875547 ], [ 132.228889667, 34.203864444 ], [ 132.228636825, 34.203901668 ], [ 132.227319883, 34.203022999 ], [ 132.227173461, 34.203117737 ], [ 132.22692923299999, 34.203009667 ], [ 132.22658234799999, 34.203238936 ], [ 132.226533351, 34.20327132 ], [ 132.22634092199999, 34.20352611 ], [ 132.226341695, 34.203527225 ], [ 132.226392518000011, 34.203600466 ], [ 132.226080604, 34.203684014 ], [ 132.22613494399999, 34.203803447 ], [ 132.22612451, 34.203805348 ], [ 132.226035778000011, 34.203835278 ], [ 132.225914417000013, 34.2038665 ], [ 132.225827, 34.203912639 ], [ 132.225739556, 34.203940889 ], [ 132.225636056000013, 34.203933472 ], [ 132.225536139000013, 34.203914111 ], [ 132.225256, 34.203817417 ], [ 132.225034026, 34.203768113 ], [ 132.22502985700001, 34.203733615 ], [ 132.22501345399999, 34.203605817 ], [ 132.225011695, 34.203592115 ], [ 132.224941078, 34.203470435 ], [ 132.22486235299999, 34.203391584 ], [ 132.224740277, 34.203391641 ], [ 132.22463723300001, 34.203452547 ], [ 132.224602016, 34.20352469 ], [ 132.224602083, 34.203623864 ], [ 132.224640103000013, 34.203682449 ], [ 132.224695722, 34.203754917 ], [ 132.224638639, 34.203807 ], [ 132.224608104, 34.203839508 ], [ 132.223823497000012, 34.203606198 ], [ 132.223704048, 34.203480032 ], [ 132.223495109999988, 34.20340124 ], [ 132.223468036000014, 34.203482395 ], [ 132.223153279, 34.203374351 ], [ 132.22300676899999, 34.203345117 ], [ 132.22307449600001, 34.20320534 ], [ 132.22321001, 34.2030182 ], [ 132.223112285000013, 34.202921325 ], [ 132.22305788599999, 34.20270497 ], [ 132.223036095999987, 34.202574251 ], [ 132.22310386, 34.202490823 ], [ 132.22306583299999, 34.202418714 ], [ 132.22298167299999, 34.202321833 ], [ 132.22290142, 34.20232187 ], [ 132.22280498, 34.202362324 ], [ 132.22271855299999, 34.202349001 ], [ 132.222631767, 34.20238285 ], [ 132.22247980899999, 34.202317554 ], [ 132.222449907999987, 34.202225156 ], [ 132.22241734, 34.202202631 ], [ 132.222306108, 34.202189158 ], [ 132.222175850000013, 34.202119344 ], [ 132.22222597199999, 34.201969333 ], [ 132.221999361, 34.20195 ], [ 132.221655, 34.201945528 ], [ 132.221503305999988, 34.201949972 ], [ 132.221484002000011, 34.201973148 ], [ 132.221384746000012, 34.202091901 ], [ 132.221337588000011, 34.202088165 ], [ 132.22096594199999, 34.202090584 ], [ 132.220911758999989, 34.202203306 ], [ 132.220901277, 34.202221982 ], [ 132.220147222, 34.202216306 ], [ 132.219922389, 34.202133 ], [ 132.21970272199999, 34.202119258 ], [ 132.218784725, 34.202061823 ], [ 132.21872688900001, 34.2020705 ], [ 132.218651943999987, 34.202073472 ], [ 132.218409278, 34.20204075 ], [ 132.21835223299999, 34.202038904 ], [ 132.218243701, 34.202027499 ], [ 132.21819116, 34.202025374 ], [ 132.2181455, 34.202008218 ], [ 132.21809896100001, 34.201961721 ], [ 132.218173220000011, 34.20194581 ], [ 132.218206552, 34.201861067 ], [ 132.21821282, 34.201762153 ], [ 132.21822885099999, 34.201685811 ], [ 132.21823110599999, 34.201617109 ], [ 132.218267809999986, 34.201542667 ], [ 132.218311382, 34.201431963 ], [ 132.218371029999986, 34.201319344 ], [ 132.218564455, 34.200951122 ], [ 132.218486961, 34.200902395 ], [ 132.218462216, 34.200901014 ], [ 132.218438531, 34.200902813 ], [ 132.218429195999988, 34.200896257 ], [ 132.218424887, 34.200890892 ], [ 132.218426756000014, 34.200864538 ], [ 132.218426432, 34.200834952 ], [ 132.218385347, 34.2008385 ], [ 132.217980049, 34.201216063 ], [ 132.217755992, 34.201020072 ], [ 132.217750552000012, 34.200945201 ], [ 132.217704231999988, 34.200884122 ], [ 132.217987306, 34.200759889 ], [ 132.218032103000013, 34.200726302 ], [ 132.21816378, 34.200627578 ], [ 132.218380139, 34.200465361 ], [ 132.21844651699999, 34.200416735 ], [ 132.218448942, 34.200332661 ], [ 132.218641377000012, 34.200135159 ], [ 132.218673107, 34.2001657 ], [ 132.218908354, 34.199952474 ], [ 132.219064457, 34.199627728 ], [ 132.219103417000014, 34.199546679 ], [ 132.21910751499999, 34.199458692 ], [ 132.219035510999987, 34.199402455 ], [ 132.218696701, 34.199848882 ], [ 132.218401207, 34.200157799 ], [ 132.218322634, 34.200313355 ], [ 132.218116694, 34.200431 ], [ 132.217882944, 34.200523222 ], [ 132.217740193999987, 34.200548528 ], [ 132.217574250000013, 34.200631833 ], [ 132.217451583000013, 34.2006745 ], [ 132.217400110999989, 34.200665028 ], [ 132.21733863899999, 34.200663417 ], [ 132.217235667000011, 34.2006745 ], [ 132.21722029899999, 34.200680737 ], [ 132.217150221999987, 34.200709175 ], [ 132.217112947, 34.200724303 ], [ 132.217100278, 34.200729444 ], [ 132.21699603, 34.20079051 ], [ 132.216974193999988, 34.200803301 ], [ 132.216885144, 34.200855465 ], [ 132.216851776, 34.200875012 ], [ 132.216821469, 34.200892765 ], [ 132.21668893899999, 34.200970398 ], [ 132.216666667, 34.200983444 ], [ 132.216188184, 34.201248896 ], [ 132.21613736, 34.20123532 ], [ 132.215876759, 34.201390504 ], [ 132.21583257099999, 34.201432929 ], [ 132.21580884299999, 34.201435522 ], [ 132.215640661, 34.201431022 ], [ 132.21553442699999, 34.20142033 ], [ 132.215420978999987, 34.201345233 ], [ 132.215327876, 34.201353624 ], [ 132.215360995999987, 34.201407735 ], [ 132.215391081, 34.201487945 ], [ 132.21549816699999, 34.201610722 ], [ 132.215540556, 34.201673639 ], [ 132.215622639, 34.201731639 ], [ 132.21565830599999, 34.201739083 ], [ 132.215763583000012, 34.201861083 ], [ 132.215792139, 34.201910167 ], [ 132.2158015, 34.201963361 ], [ 132.215753713999987, 34.201979191 ], [ 132.215648061, 34.202014191 ], [ 132.21570947, 34.202155338 ], [ 132.215847305000011, 34.202119155 ], [ 132.215878917, 34.20217043 ], [ 132.215866061000014, 34.202261782 ], [ 132.215844231, 34.202387357 ], [ 132.215890593000012, 34.202500812 ], [ 132.21589494700001, 34.202583109 ], [ 132.215813168000011, 34.202661862 ], [ 132.215818915, 34.20282529 ], [ 132.215781187, 34.202882438 ], [ 132.215779502, 34.20297618 ], [ 132.215757981, 34.202996942 ], [ 132.2157119, 34.202996722 ], [ 132.21571408, 34.203041806 ], [ 132.215647784999987, 34.203087633 ], [ 132.215534228, 34.203093624 ], [ 132.21554519599999, 34.203296476 ], [ 132.215537211999987, 34.203339657 ], [ 132.215455015, 34.203330884 ], [ 132.21512465699999, 34.203199722 ], [ 132.21510154399999, 34.20318798 ], [ 132.215071556, 34.203166889 ], [ 132.21489463899999, 34.203082861 ], [ 132.214645722, 34.202998806 ], [ 132.21444925, 34.202944778 ], [ 132.214193333999987, 34.202918906 ], [ 132.213995290000014, 34.202898697 ], [ 132.21368225, 34.20286122 ], [ 132.214174485, 34.203025363 ], [ 132.214225889, 34.203047889 ], [ 132.21452009399999, 34.203156008 ], [ 132.214558866, 34.203170256 ], [ 132.21460238899999, 34.20318625 ], [ 132.21484005100001, 34.203295767 ], [ 132.21495916399999, 34.203350655 ], [ 132.21500922199999, 34.203373722 ], [ 132.215039972, 34.203393887 ], [ 132.21516802799999, 34.203477861 ], [ 132.215382139000013, 34.203616222 ], [ 132.21556653799999, 34.203846996 ], [ 132.215705014, 34.204058812 ], [ 132.215808178, 34.204191754 ], [ 132.215979228, 34.204435112 ], [ 132.216120396, 34.20460861 ], [ 132.216237138, 34.204761832 ], [ 132.216383681999986, 34.204847423 ], [ 132.216560052, 34.204908208 ], [ 132.216641442999986, 34.204917191 ], [ 132.216759270000011, 34.204897886 ], [ 132.216763320000013, 34.204902477 ], [ 132.216781051999988, 34.204922576 ], [ 132.216789611, 34.204932278 ], [ 132.216808195999988, 34.20494978 ], [ 132.21697688399999, 34.205108633 ], [ 132.217139333, 34.205261611 ], [ 132.21733169399999, 34.205547194 ], [ 132.217553861, 34.205780472 ], [ 132.217722556000012, 34.205917694 ], [ 132.21794988900001, 34.206076361 ], [ 132.218209889, 34.206242639 ], [ 132.218289660000011, 34.206293658 ], [ 132.218312985000011, 34.206308577 ], [ 132.218462139, 34.206403972 ], [ 132.21871425, 34.206575139 ], [ 132.218864837000012, 34.206676949 ], [ 132.21945380599999, 34.207075139 ], [ 132.219876556, 34.207280111 ], [ 132.220065833, 34.207381306 ], [ 132.220237610999988, 34.207447361 ], [ 132.220492694, 34.207524528 ], [ 132.220824943999986, 34.207609444 ], [ 132.220979222000011, 34.207640306 ], [ 132.22190394399999, 34.207781833 ], [ 132.22258283299999, 34.207857306 ], [ 132.222811167, 34.207871028 ], [ 132.22291197199999, 34.207879611 ], [ 132.223362153000011, 34.207892066 ], [ 132.223624806, 34.207899333 ], [ 132.224049535, 34.207905723 ], [ 132.224104917, 34.207906556 ], [ 132.22432526899999, 34.207925888 ], [ 132.224456694, 34.207937417 ], [ 132.224937055999987, 34.207962306 ], [ 132.225, 34.207963778 ], [ 132.225099847, 34.207966095 ], [ 132.225467398, 34.207974621 ], [ 132.225859722, 34.207983722 ], [ 132.225947166999987, 34.207976028 ], [ 132.22621252799999, 34.207991444 ], [ 132.226635278, 34.208026611 ], [ 132.227196786, 34.2082342 ] ], [ [ 132.22119872799999, 34.20550973 ], [ 132.22117952799999, 34.205182915 ], [ 132.22124089, 34.20520431 ], [ 132.222870075, 34.205844814 ], [ 132.223407342, 34.206020375 ], [ 132.223079567000013, 34.2067463 ], [ 132.222748722, 34.206637917 ], [ 132.22086542, 34.20583802 ], [ 132.22119872799999, 34.20550973 ] ] ] } },
{ "type": "Feature", "properties": { "A29_001": "35321", "A29_002": "山口県", "A29_003": "和木町", "A29_004": 8, "A29_005": "近隣商業地域", "A29_006": 80, "A29_007": 200, "A29_008": null }, "geometry": { "type": "Polygon", "coordinates": [ [ [ 132.230095369999987, 34.203432942 ], [ 132.230068343, 34.203481575 ], [ 132.230054585, 34.203512116 ], [ 132.230022448999989, 34.20353885 ], [ 132.229990313, 34.203565584 ], [ 132.229939789000014, 34.203575152 ], [ 132.22988007699999, 34.203584724 ], [ 132.229846548000012, 34.203577109 ], [ 132.229719565000011, 34.203611768 ], [ 132.229719917000011, 34.203612 ], [ 132.229649333, 34.203649333 ], [ 132.229613194, 34.203703861 ], [ 132.22960576700001, 34.203749674 ], [ 132.229604583, 34.203756972 ], [ 132.229451188000013, 34.203789073 ], [ 132.229422897, 34.203838999 ], [ 132.22865911, 34.20496098 ], [ 132.22812986, 34.20583102 ], [ 132.22772544, 34.20657213 ], [ 132.22749755000001, 34.20719145 ], [ 132.227196786, 34.2082342 ], [ 132.22731072900001, 34.208234144 ], [ 132.227434611, 34.208233539 ], [ 132.227434713, 34.208212661 ], [ 132.227435259, 34.208186998 ], [ 132.227579099, 34.208188301 ], [ 132.22789771, 34.208187822 ], [ 132.228128414, 34.208174407 ], [ 132.228180865000013, 34.208173981 ], [ 132.22829751899999, 34.208169414 ], [ 132.228484657, 34.208161446 ], [ 132.228484294, 34.208156079 ], [ 132.228497164, 34.208157541 ], [ 132.228497498, 34.208156016 ], [ 132.228498639, 34.208150806 ], [ 132.228500284, 34.208146729 ], [ 132.22850179400001, 34.20814299 ], [ 132.228503284, 34.208139298 ], [ 132.228503831000012, 34.208137943 ], [ 132.228505356999989, 34.208134162 ], [ 132.228507502000014, 34.208128847 ], [ 132.228507576999988, 34.208128662 ], [ 132.228508086, 34.208127399 ], [ 132.228508166000012, 34.208127202 ], [ 132.22850843099999, 34.208126545 ], [ 132.228509548, 34.208123777 ], [ 132.228509827000011, 34.208123087 ], [ 132.228510688, 34.208120953 ], [ 132.228513566, 34.208113821 ], [ 132.228517653000011, 34.208103695 ], [ 132.228518868, 34.208100687 ], [ 132.228521207999989, 34.208094889 ], [ 132.228524429, 34.208086908 ], [ 132.228527573, 34.208079117 ], [ 132.228527586000013, 34.208079085 ], [ 132.228529422, 34.208074537 ], [ 132.22853047699999, 34.208071922 ], [ 132.22853206100001, 34.208067999 ], [ 132.228534639, 34.208061611 ], [ 132.22854123499999, 34.208039369 ], [ 132.22854127299999, 34.208039228 ], [ 132.22874156, 34.20724094 ], [ 132.22896193, 34.20666457 ], [ 132.229837731, 34.20535457 ], [ 132.229873166, 34.205338986 ], [ 132.23047911, 34.205072494 ], [ 132.230834283, 34.204795072 ], [ 132.231129727, 34.204459078 ], [ 132.231403168000014, 34.203733161 ], [ 132.23150279, 34.202973654 ], [ 132.231504417, 34.20296125 ], [ 132.231542601, 34.202787532 ], [ 132.231633778, 34.202372722 ], [ 132.231634004, 34.202371354 ], [ 132.231634429, 34.202368779 ], [ 132.231642064999988, 34.202322482 ], [ 132.23165875, 34.202221333 ], [ 132.231672698000011, 34.202070845 ], [ 132.231673722000011, 34.202059806 ], [ 132.23141125, 34.202016083 ], [ 132.231259943999987, 34.201972139 ], [ 132.231092167000014, 34.201931972 ], [ 132.23109088699999, 34.201931522 ], [ 132.230961056000012, 34.201885861 ], [ 132.23084797199999, 34.201846111 ], [ 132.23082355599999, 34.202262972 ], [ 132.23078725, 34.202465472 ], [ 132.230712333000014, 34.202615917 ], [ 132.23046936899999, 34.202945893 ], [ 132.23025251199999, 34.203166894 ], [ 132.230095369999987, 34.203432942 ] ] ] } },
{ "type": "Feature", "properties": { "A29_001": "35321", "A29_002": "山口県", "A29_003": "和木町", "A29_004": 12, "A29_005": "工業専用地域", "A29_006": 60, "A29_007": 200, "A29_008": null }, "geometry": { "type": "Polygon", "coordinates": [ [ [ 132.23738486, 34.20805502 ], [ 132.238091972, 34.208000414 ], [ 132.238094287, 34.208072539 ], [ 132.238657569999987, 34.208009234 ], [ 132.23917437099999, 34.207983882 ], [ 132.239907205, 34.207927388 ], [ 132.240063670000012, 34.207908211 ], [ 132.240288717999988, 34.207875412 ], [ 132.24165313899999, 34.20778475 ], [ 132.24340075, 34.207656111 ], [ 132.24615638899999, 34.207452833 ], [ 132.24618725, 34.207433972 ], [ 132.24622633300001, 34.2073585 ], [ 132.24624279, 34.207278126 ], [ 132.24635137300001, 34.206747798 ], [ 132.246399494, 34.206512768 ], [ 132.246494180000013, 34.206050307 ], [ 132.246529232, 34.205879104 ], [ 132.246564111, 34.20570875 ], [ 132.246656797000014, 34.205284085 ], [ 132.246744639000013, 34.204881556 ], [ 132.246653083000012, 34.204760611 ], [ 132.246345006000013, 34.204396419 ], [ 132.24625649399999, 34.204291785 ], [ 132.246155778, 34.204172722 ], [ 132.245848203, 34.203811257 ], [ 132.245817039, 34.203774632 ], [ 132.245419427, 34.203307347 ], [ 132.244925028000011, 34.202726306 ], [ 132.24469205599999, 34.20246175 ], [ 132.24456075399999, 34.20230424 ], [ 132.243880049000012, 34.201487649 ], [ 132.243647194, 34.201208306 ], [ 132.24353376799999, 34.20108105 ], [ 132.243353305999989, 34.200878583 ], [ 132.243089233, 34.200592978 ], [ 132.242899556, 34.200387833 ], [ 132.242565194, 34.2 ], [ 132.24230875, 34.199696167 ], [ 132.241999278, 34.199322111 ], [ 132.24138299, 34.198497174 ], [ 132.240653702, 34.197588157 ], [ 132.24054238, 34.197501751 ], [ 132.2402849, 34.197490332 ], [ 132.240307597, 34.197398394 ], [ 132.240425483, 34.196700131 ], [ 132.240365279, 34.196675914 ], [ 132.240300443, 34.196647343 ], [ 132.237622337, 34.196224908 ], [ 132.237424728, 34.196193736 ], [ 132.236849006999989, 34.19697935 ], [ 132.237280163, 34.198488347 ], [ 132.23710203600001, 34.199579364 ], [ 132.236805796, 34.202180598 ], [ 132.23680453, 34.202182822 ], [ 132.236708278, 34.202351954 ], [ 132.23610614099999, 34.202469502 ], [ 132.23504, 34.20247201 ], [ 132.234603265, 34.202465835 ], [ 132.234510868, 34.202263031 ], [ 132.232302256999986, 34.201716521 ], [ 132.23227722199999, 34.202379361 ], [ 132.23226162, 34.202457484 ], [ 132.232255285, 34.202489203 ], [ 132.23221038299999, 34.202714041 ], [ 132.232181889, 34.202856722 ], [ 132.232141055999989, 34.202926722 ], [ 132.232065299999988, 34.203300976 ], [ 132.231996444, 34.203641139 ], [ 132.23195072199999, 34.203874222 ], [ 132.231824417000013, 34.204490778 ], [ 132.231687139, 34.204910778 ], [ 132.231676333, 34.204983194 ], [ 132.231621472, 34.205242444 ], [ 132.231522528, 34.205721083 ], [ 132.23147266699999, 34.205960222 ], [ 132.23142775, 34.206195889 ], [ 132.231394611000013, 34.206590861 ], [ 132.23130608299999, 34.207062056 ], [ 132.231127074999989, 34.208102595 ], [ 132.23188018, 34.20813145 ], [ 132.233102699999989, 34.2082507 ], [ 132.23393854, 34.20830751 ], [ 132.2343349, 34.20831982 ], [ 132.2349929, 34.20822639 ], [ 132.23570154, 34.20815799 ], [ 132.23738486, 34.20805502 ] ] ] } },
{ "type": "Feature", "properties": { "A29_001": "35321", "A29_002": "山口県", "A29_003": "和木町", "A29_004": 3, "A29_005": "第一種中高層住居専用地域", "A29_006": 60, "A29_007": 200, "A29_008": null }, "geometry": { "type": "Polygon", "coordinates": [ [ [ 132.21868905299999, 34.200239061 ], [ 132.218820333, 34.200142889 ], [ 132.218873179000013, 34.200091732 ], [ 132.218913332999989, 34.200052861 ], [ 132.218915938, 34.200048794 ], [ 132.218947194, 34.2 ], [ 132.219031277999989, 34.199868667 ], [ 132.2191185, 34.199697611 ], [ 132.219246778000013, 34.199541889 ], [ 132.219248483, 34.199540327 ], [ 132.219326943999988, 34.199468417 ], [ 132.219332215, 34.199463298 ], [ 132.219332912, 34.199358117 ], [ 132.219401065, 34.199307397 ], [ 132.219747186, 34.199010555 ], [ 132.21988615399999, 34.19886364 ], [ 132.220178518000012, 34.198687585 ], [ 132.220341751, 34.198609241 ], [ 132.220473604, 34.198562219 ], [ 132.220542646000013, 34.198500316 ], [ 132.22055964899999, 34.198433218 ], [ 132.220503987, 34.19837286 ], [ 132.22035677299999, 34.198246197 ], [ 132.22008387599999, 34.197989879 ], [ 132.219992353, 34.197969046 ], [ 132.219917576, 34.197951042 ], [ 132.21973838, 34.197868106 ], [ 132.219669274000012, 34.197803694 ], [ 132.219710048, 34.197766872 ], [ 132.219761602, 34.197759378 ], [ 132.219823579, 34.197703531 ], [ 132.219826187, 34.19766199 ], [ 132.219826936, 34.197563264 ], [ 132.21984753699999, 34.197453047 ], [ 132.219884337, 34.197399563 ], [ 132.22003325599999, 34.197388317 ], [ 132.22020271299999, 34.197224242 ], [ 132.22019629, 34.196997626 ], [ 132.220293171, 34.196981184 ], [ 132.220336202999988, 34.196931965 ], [ 132.220305661, 34.196870851 ], [ 132.220127961, 34.196766564 ], [ 132.219959378999988, 34.196893365 ], [ 132.219821207, 34.196874043 ], [ 132.219726138, 34.196918812 ], [ 132.219586085, 34.196760836 ], [ 132.219439881, 34.196758891 ], [ 132.219368975, 34.196757947 ], [ 132.21905315399999, 34.196713355 ], [ 132.218884451, 34.196647827 ], [ 132.218753428000014, 34.196580791 ], [ 132.21856492399999, 34.196410907 ], [ 132.21843035399999, 34.196410964 ], [ 132.218329882, 34.196422933 ], [ 132.218209696, 34.196472184 ], [ 132.21805888, 34.19631272 ], [ 132.21799428599999, 34.196312747 ], [ 132.217924288, 34.196276994 ], [ 132.217753792, 34.196209974 ], [ 132.217574332, 34.196156376 ], [ 132.217504381999987, 34.196199641 ], [ 132.217403948999987, 34.19627721 ], [ 132.21721925599999, 34.196472596 ], [ 132.216894661999987, 34.196758985 ], [ 132.216708143, 34.196905171 ], [ 132.21665979299999, 34.197066209 ], [ 132.216738795999987, 34.197158614 ], [ 132.216794439000012, 34.197192882 ], [ 132.216885928000011, 34.197158554 ], [ 132.216954162, 34.197244999 ], [ 132.21743130499999, 34.197013711 ], [ 132.21764117399999, 34.196910751 ], [ 132.217674726000013, 34.196902865 ], [ 132.21774348, 34.19696289 ], [ 132.217548087000011, 34.1972701 ], [ 132.217598400000014, 34.197390843 ], [ 132.217544686, 34.197581702 ], [ 132.21718951599999, 34.197751813 ], [ 132.216988656000012, 34.19792186 ], [ 132.217053353000011, 34.198094779 ], [ 132.21742677200001, 34.198431572 ], [ 132.217848491000012, 34.198522343 ], [ 132.217993783999987, 34.198446245 ], [ 132.218175136000013, 34.198653406 ], [ 132.21810163699999, 34.198765256 ], [ 132.218090955, 34.198903915 ], [ 132.21805522, 34.199152913 ], [ 132.218067854, 34.199275162 ], [ 132.218306517, 34.199301899 ], [ 132.218428467, 34.199195992 ], [ 132.21867061099999, 34.199046798 ], [ 132.218878620999988, 34.198833509 ], [ 132.21899159, 34.198714188 ], [ 132.219307278, 34.198532162 ], [ 132.219427376, 34.198338291 ], [ 132.21953678700001, 34.198269662 ], [ 132.21977721499999, 34.198254649 ], [ 132.22000682, 34.198148695 ], [ 132.220060651000011, 34.198150162 ], [ 132.219981897999986, 34.198463288 ], [ 132.21967696499999, 34.198624439 ], [ 132.219689597000013, 34.198739234 ], [ 132.21926455799999, 34.199085309 ], [ 132.219035510999987, 34.199402455 ], [ 132.21910751499999, 34.199458692 ], [ 132.219103417000014, 34.199546679 ], [ 132.219064457, 34.199627728 ], [ 132.218908354, 34.199952474 ], [ 132.218673107, 34.2001657 ], [ 132.218641377000012, 34.200135159 ], [ 132.218448942, 34.200332661 ], [ 132.21844651699999, 34.200416735 ], [ 132.21868905299999, 34.200239061 ] ] ] } },
{ "type": "Feature", "properties": { "A29_001": "35321", "A29_002": "山口県", "A29_003": "和木町", "A29_004": 2, "A29_005": "第二種低層住居専用地域", "A29_006": 60, "A29_007": 150, "A29_008": null }, "geometry": { "type": "Polygon", "coordinates": [ [ [ 132.221069099, 34.19679546 ], [ 132.221144823, 34.196690466 ], [ 132.22177582, 34.195783706 ], [ 132.222212312000011, 34.195976255 ], [ 132.222460125999987, 34.195634544 ], [ 132.22266229600001, 34.195731779 ], [ 132.22276561000001, 34.195678297 ], [ 132.222836742999988, 34.195582846 ], [ 132.222834124, 34.195096212 ], [ 132.222935123000013, 34.195016014 ], [ 132.223107429, 34.19510372 ], [ 132.223179230999989, 34.195204216 ], [ 132.22331772199999, 34.19519761 ], [ 132.223332556, 34.195187584 ], [ 132.223357727, 34.19505017 ], [ 132.22347605600001, 34.195211194 ], [ 132.223445306, 34.195296389 ], [ 132.223431215, 34.195364863 ], [ 132.223493483, 34.195429873 ], [ 132.223609632, 34.195388035 ], [ 132.223883414999989, 34.195178059 ], [ 132.223954899, 34.195118594 ], [ 132.224043139, 34.195019528 ], [ 132.224056749999988, 34.194966556 ], [ 132.224052222000012, 34.194921139 ], [ 132.224002278, 34.194784861 ], [ 132.22390013899999, 34.194599417 ], [ 132.223885599, 34.194525122 ], [ 132.223883373, 34.19450866 ], [ 132.223885087000014, 34.194496493 ], [ 132.22389454899999, 34.194479314 ], [ 132.223906602, 34.194472152 ], [ 132.223916073999987, 34.19447 ], [ 132.22393501900001, 34.194467129 ], [ 132.223953107, 34.194469983 ], [ 132.223968245, 34.194477374 ], [ 132.224055533000012, 34.194502142 ], [ 132.22420483799999, 34.194538331 ], [ 132.224351782000014, 34.194479102 ], [ 132.224631885, 34.194354926 ], [ 132.224718997999986, 34.194123971 ], [ 132.224953115, 34.193923481 ], [ 132.225191851, 34.193763064 ], [ 132.225286004, 34.193751569 ], [ 132.225345693, 34.193719098 ], [ 132.22535713, 34.193652299 ], [ 132.225304188, 34.193478662 ], [ 132.225246860999988, 34.193368583 ], [ 132.22518786099999, 34.193315583 ], [ 132.225140194, 34.193258833 ], [ 132.225089516999986, 34.193188752 ], [ 132.22512844, 34.193140229 ], [ 132.225174358, 34.19315069 ], [ 132.225175498, 34.193139239 ], [ 132.225188115, 34.193118241 ], [ 132.225209920999987, 34.193102009 ], [ 132.225238623, 34.193094362 ], [ 132.225270773, 34.193091484 ], [ 132.225308410999986, 34.192944315 ], [ 132.225299165, 34.192858443 ], [ 132.225239399, 34.192778319 ], [ 132.225168147, 34.192694385 ], [ 132.22511070199999, 34.19265052 ], [ 132.22508310399999, 34.192593281 ], [ 132.22511062699999, 34.192541742 ], [ 132.225207039999987, 34.19247872 ], [ 132.225305767, 34.192442414 ], [ 132.225376906, 34.192364136 ], [ 132.22538373399999, 34.192274439 ], [ 132.22532624199999, 34.192161873 ], [ 132.22521365899999, 34.1920875 ], [ 132.225160820000013, 34.192060808 ], [ 132.22506656499999, 34.191921541 ], [ 132.224999895, 34.191820429 ], [ 132.224940169, 34.191797557 ], [ 132.224747240999989, 34.191770931 ], [ 132.224646205999989, 34.191790063 ], [ 132.22446941199999, 34.191849306 ], [ 132.224400467, 34.191778728 ], [ 132.22415696600001, 34.191679607 ], [ 132.224071990999988, 34.19167583 ], [ 132.22386983199999, 34.191582414 ], [ 132.22384450199999, 34.191481282 ], [ 132.223731931, 34.191422175 ], [ 132.223594146000011, 34.191431781 ], [ 132.223472455, 34.191470004 ], [ 132.223401344, 34.191592173 ], [ 132.22340831599999, 34.191716215 ], [ 132.223507160999986, 34.19185548 ], [ 132.223539367, 34.191935617 ], [ 132.223470585, 34.192107403 ], [ 132.223328245, 34.19217617 ], [ 132.223177012, 34.192253781 ], [ 132.223136417, 34.1922605 ], [ 132.223037361, 34.192295056 ], [ 132.222948889, 34.192340556 ], [ 132.22287508299999, 34.192387778 ], [ 132.22274669399999, 34.192482167 ], [ 132.22264511099999, 34.192558056 ], [ 132.222564221999988, 34.192612 ], [ 132.22246616699999, 34.192663417 ], [ 132.22240652799999, 34.192684472 ], [ 132.222332722, 34.192704722 ], [ 132.222250833, 34.19271825 ], [ 132.222205333, 34.192725778 ], [ 132.222158632, 34.192728256 ], [ 132.222060967, 34.192823688 ], [ 132.221861467, 34.193287513 ], [ 132.22129729400001, 34.194509126 ], [ 132.221250927, 34.194726701 ], [ 132.221241857, 34.194907643 ], [ 132.22127645, 34.195129476 ], [ 132.22135982, 34.195310735 ], [ 132.221512122, 34.195542057 ], [ 132.221681609, 34.195708964 ], [ 132.221059242, 34.196644345 ], [ 132.221004732000011, 34.196701621 ], [ 132.220927233, 34.196723124 ], [ 132.220792307000011, 34.19673034 ], [ 132.219879241, 34.196516047 ], [ 132.219712735, 34.19652089 ], [ 132.219586467, 34.196599665 ], [ 132.21949752, 34.196678424 ], [ 132.219439881, 34.196758891 ], [ 132.219586085, 34.196760836 ], [ 132.219773663000012, 34.196626183 ], [ 132.219941330000012, 34.196641377 ], [ 132.22068325399999, 34.196791814 ], [ 132.22090605599999, 34.196827975 ], [ 132.221069099, 34.19679546 ] ] ] } }
]
}
