{
"type": "FeatureCollection",
"name": "A29-19_40647",
"features": [
{ "type": "Feature", "properties": { "A29_001": "40647", "A29_002": "福岡県", "A29_003": "築上町", "A29_004": 9, "A29_005": "商業地域", "A29_006": 80, "A29_007": 300, "A29_008": "条件付き公開" }, "geometry": { "type": "Polygon", "coordinates": [ [ [ 131.058006218, 33.65311555 ], [ 131.056933679999986, 33.65424637 ], [ 131.056674398000013, 33.654506568 ], [ 131.056951797000011, 33.654735316 ], [ 131.057103635, 33.655046745 ], [ 131.057157722, 33.655123889 ], [ 131.05720812199999, 33.6551771 ], [ 131.05729996299999, 33.655257295 ], [ 131.057554904999989, 33.655441793 ], [ 131.058520592, 33.654434884 ], [ 131.05854908500001, 33.65438492 ], [ 131.05821875399999, 33.653662664 ], [ 131.058006218, 33.65311555 ] ] ] } },
{ "type": "Feature", "properties": { "A29_001": "40647", "A29_002": "福岡県", "A29_003": "築上町", "A29_004": 5, "A29_005": "第一種住居地域", "A29_006": 60, "A29_007": 200, "A29_008": "条件付き公開" }, "geometry": { "type": "Polygon", "coordinates": [ [ [ 131.059712358000013, 33.656236375 ], [ 131.059832271, 33.656188844 ], [ 131.060111917, 33.656084778 ], [ 131.060490972, 33.655958528 ], [ 131.0608675, 33.655818306 ], [ 131.06102626099999, 33.655744847 ], [ 131.061138556, 33.655692889 ], [ 131.061583444, 33.655452472 ], [ 131.062419861, 33.654977861 ], [ 131.062827, 33.654840167 ], [ 131.06315080600001, 33.654764389 ], [ 131.063686722, 33.654669444 ], [ 131.063817056, 33.65463375 ], [ 131.063849139000013, 33.654613694 ], [ 131.063880243, 33.654590654 ], [ 131.063898039, 33.654545913 ], [ 131.06389622899999, 33.654508638 ], [ 131.063881936, 33.654469133 ], [ 131.063830203, 33.654431883 ], [ 131.063724986000011, 33.654400626 ], [ 131.063565383999986, 33.654361941 ], [ 131.063367398, 33.654318564 ], [ 131.063283633999987, 33.654300952 ], [ 131.06319268199999, 33.654270432 ], [ 131.063070504, 33.654207125 ], [ 131.06270737299999, 33.653789817 ], [ 131.06245934399999, 33.653511863 ], [ 131.062573402, 33.653443217 ], [ 131.062617714999988, 33.653488351 ], [ 131.062803124, 33.653677195 ], [ 131.0630975, 33.653941705 ], [ 131.06321782, 33.65402144 ], [ 131.063307968, 33.654053426 ], [ 131.06349789, 33.654106261 ], [ 131.063647669, 33.65412184 ], [ 131.063888518999988, 33.654146913 ], [ 131.063984583, 33.654039659 ], [ 131.064321568, 33.654052903 ], [ 131.064512283, 33.653973033 ], [ 131.06479845199999, 33.653983693 ], [ 131.065229483, 33.653990922 ], [ 131.0654506, 33.654034791 ], [ 131.065657437, 33.654056301 ], [ 131.065697752, 33.654105837 ], [ 131.065735068, 33.654151687 ], [ 131.065840576999989, 33.654172061 ], [ 131.066158578999989, 33.654233469 ], [ 131.066345867, 33.654336996 ], [ 131.066539971999987, 33.654440639 ], [ 131.066613499999988, 33.6544725 ], [ 131.06664633299999, 33.65448125 ], [ 131.06668975, 33.654492833 ], [ 131.066854917, 33.654525167 ], [ 131.066928147999988, 33.654530518 ], [ 131.066986114, 33.654557325 ], [ 131.067343247999986, 33.654880825 ], [ 131.067490155, 33.655015548 ], [ 131.06765341799999, 33.655172018 ], [ 131.067694533, 33.655131797 ], [ 131.067939364000011, 33.65489229 ], [ 131.068188318000011, 33.654637574 ], [ 131.068218172, 33.654608838 ], [ 131.068132074, 33.654598828 ], [ 131.068096921, 33.65459474 ], [ 131.067648472, 33.654277194 ], [ 131.067509589, 33.654183478 ], [ 131.06736371400001, 33.654062838 ], [ 131.067164165, 33.654243364 ], [ 131.066618492, 33.654122884 ], [ 131.06633091, 33.654014565 ], [ 131.066349382999988, 33.653690998 ], [ 131.06664530399999, 33.653632688 ], [ 131.067062400999987, 33.653492304 ], [ 131.06740461199999, 33.653350469 ], [ 131.067328946, 33.653094896 ], [ 131.06729556, 33.652973294 ], [ 131.066965786, 33.653056971 ], [ 131.066717965, 33.65306307 ], [ 131.06653116699999, 33.65308625 ], [ 131.06620631199999, 33.653121495 ], [ 131.065955049, 33.653134078 ], [ 131.065831909999986, 33.653135115 ], [ 131.065762294, 33.653027796 ], [ 131.065722472, 33.652858306 ], [ 131.065751427, 33.652804145 ], [ 131.066048972, 33.652541563 ], [ 131.06653533299999, 33.652146111 ], [ 131.066756287, 33.651894069 ], [ 131.066968222000014, 33.65173 ], [ 131.067151853000013, 33.651589681 ], [ 131.06727658299999, 33.651497168 ], [ 131.067463651, 33.651324105 ], [ 131.067575882, 33.651209233 ], [ 131.06764888399999, 33.651085436 ], [ 131.067750318, 33.650843831 ], [ 131.067846385, 33.650578372 ], [ 131.067921141999989, 33.650420653 ], [ 131.068143662000011, 33.6499926 ], [ 131.068204184, 33.649871792 ], [ 131.068474694, 33.649270333 ], [ 131.068690306, 33.648724333 ], [ 131.068707794, 33.648692095 ], [ 131.068871475, 33.648267055 ], [ 131.068406073, 33.648156976 ], [ 131.067760572999987, 33.648003754 ], [ 131.067531639, 33.647914139 ], [ 131.067108115, 33.647745268 ], [ 131.066877801, 33.647642655 ], [ 131.066828874, 33.647772403 ], [ 131.06674080499999, 33.648005054 ], [ 131.066481025, 33.648670201 ], [ 131.066321781, 33.649085543 ], [ 131.066207037, 33.649411398 ], [ 131.066004854, 33.649889967 ], [ 131.06597657399999, 33.649954449 ], [ 131.065950265999987, 33.649940298 ], [ 131.065561424, 33.649703428 ], [ 131.065543494, 33.649569244 ], [ 131.065406588, 33.649494723 ], [ 131.065243853, 33.649406878 ], [ 131.065140636, 33.649655937 ], [ 131.06501403499999, 33.649630656 ], [ 131.064981964, 33.649657512 ], [ 131.064871536999988, 33.649803692 ], [ 131.064823464999989, 33.649890198 ], [ 131.06465828, 33.650124379 ], [ 131.06438373099999, 33.650403862 ], [ 131.064328697, 33.650454073 ], [ 131.064112722, 33.650309667 ], [ 131.063862185, 33.65005695 ], [ 131.063567428999988, 33.64977158 ], [ 131.06349555, 33.649705998 ], [ 131.063312935999988, 33.649880544 ], [ 131.063323736, 33.650021442 ], [ 131.063311343, 33.650139241 ], [ 131.06322613899999, 33.650334861 ], [ 131.0631502, 33.650337933 ], [ 131.063149917, 33.650337944 ], [ 131.063051722000012, 33.650326861 ], [ 131.062858588000012, 33.65026472 ], [ 131.062692561, 33.650197434 ], [ 131.062633008, 33.650197738 ], [ 131.062388921, 33.650426737 ], [ 131.06239262599999, 33.65061908 ], [ 131.06239983899999, 33.650732396 ], [ 131.062380284999989, 33.650811431 ], [ 131.06226450299999, 33.650957612 ], [ 131.0622043, 33.65098449 ], [ 131.06213793399999, 33.65097855 ], [ 131.06205406, 33.650868255 ], [ 131.061866955, 33.651004034 ], [ 131.061826943999989, 33.650946111 ], [ 131.06176530799999, 33.650971282 ], [ 131.06165839, 33.651047379 ], [ 131.061546131999989, 33.651136897 ], [ 131.06149628, 33.651232349 ], [ 131.061383959000011, 33.651233896 ], [ 131.0611523, 33.651396535 ], [ 131.06135447299999, 33.652392454 ], [ 131.06131991699999, 33.652398417 ], [ 131.061144861, 33.652432694 ], [ 131.060937056, 33.652442417 ], [ 131.060629444, 33.65218575 ], [ 131.06070635399999, 33.651813907 ], [ 131.060688137999989, 33.651794128 ], [ 131.060623937, 33.651770302 ], [ 131.06040740200001, 33.651894165 ], [ 131.060347510000014, 33.65190611 ], [ 131.06020088, 33.65190618 ], [ 131.06000537599999, 33.651917472 ], [ 131.059934851, 33.651771384 ], [ 131.05976710499999, 33.651549299 ], [ 131.059715347, 33.651470299 ], [ 131.06041731900001, 33.650776621 ], [ 131.059967535, 33.650055173 ], [ 131.05846161, 33.650925175 ], [ 131.05805916, 33.65117532 ], [ 131.05675608300001, 33.651799389 ], [ 131.056392383, 33.651981797 ], [ 131.05610711700001, 33.651977454 ], [ 131.055884255, 33.651977555 ], [ 131.055732361, 33.651818222 ], [ 131.05542675, 33.651507194 ], [ 131.055377193999988, 33.651413 ], [ 131.055338261, 33.65130832 ], [ 131.055275779999988, 33.6511831 ], [ 131.05516847199999, 33.651041306 ], [ 131.055077333000014, 33.650918611 ], [ 131.054997750000013, 33.65075675 ], [ 131.054995509, 33.650619609 ], [ 131.054997299, 33.65051769 ], [ 131.054920076, 33.650450409 ], [ 131.054803972, 33.650395111 ], [ 131.054654314, 33.650268619 ], [ 131.054572306000011, 33.650192806 ], [ 131.054336833, 33.650058522 ], [ 131.054194321000011, 33.650244219 ], [ 131.053902738, 33.650107171 ], [ 131.05387601000001, 33.650130293 ], [ 131.053832355999987, 33.650173553 ], [ 131.053762866999989, 33.65024068 ], [ 131.053639976999989, 33.650446498 ], [ 131.053601218000011, 33.65047559 ], [ 131.053266087, 33.65055327 ], [ 131.053151861, 33.650580778 ], [ 131.05307177099999, 33.650580192 ], [ 131.052959441000013, 33.650563839 ], [ 131.052864943, 33.650554933 ], [ 131.052738358999989, 33.650553496 ], [ 131.052643875, 33.650566955 ], [ 131.052472768, 33.650646054 ], [ 131.052296316, 33.650732609 ], [ 131.053161292999988, 33.651195956 ], [ 131.053049077, 33.651367474 ], [ 131.052990302000012, 33.651465909 ], [ 131.052976077000011, 33.651528539 ], [ 131.05343272799999, 33.651770192 ], [ 131.05343917499999, 33.651854311 ], [ 131.053441561, 33.651951562 ], [ 131.05345269, 33.652084305 ], [ 131.05348179500001, 33.652137294 ], [ 131.053562658, 33.65220728 ], [ 131.05366273300001, 33.652318103 ], [ 131.05370463599999, 33.652381298 ], [ 131.05370001, 33.652422146 ], [ 131.05368937, 33.65248364 ], [ 131.053632642, 33.652548602 ], [ 131.05340944400001, 33.65266929 ], [ 131.05329783, 33.652705321 ], [ 131.053207754, 33.652681517 ], [ 131.053111806, 33.6525535 ], [ 131.053088333, 33.652502417 ], [ 131.05280418000001, 33.652690459 ], [ 131.052660038999989, 33.652781937 ], [ 131.052555407999989, 33.652828662 ], [ 131.05223454, 33.652970785 ], [ 131.052060719, 33.653020456 ], [ 131.052751402000013, 33.653860901 ], [ 131.053323439, 33.654632344 ], [ 131.052740997, 33.654914623 ], [ 131.053134343000011, 33.655211169 ], [ 131.053389477, 33.655486902 ], [ 131.053765993000013, 33.655984748 ], [ 131.05392744400001, 33.65621375 ], [ 131.054105389, 33.656421056 ], [ 131.054442666999989, 33.656717194 ], [ 131.05546453, 33.65570701 ], [ 131.056674398000013, 33.654506568 ], [ 131.056933679999986, 33.65424637 ], [ 131.058006218, 33.65311555 ], [ 131.05840173499999, 33.652684452 ], [ 131.058780361, 33.65229675 ], [ 131.058829347999989, 33.652265265 ], [ 131.059041648, 33.652461982 ], [ 131.059164778, 33.652622956 ], [ 131.059275434, 33.652790646 ], [ 131.059579711, 33.653212465 ], [ 131.05966981099999, 33.653303376 ], [ 131.059795571, 33.65339576 ], [ 131.060117537999986, 33.653609569 ], [ 131.060418988, 33.653802512 ], [ 131.0599638, 33.654310435 ], [ 131.05983558299999, 33.65444575 ], [ 131.059631861000014, 33.654676361 ], [ 131.059555861, 33.654744833 ], [ 131.059484110999989, 33.654801611 ], [ 131.05900722199999, 33.65496475 ], [ 131.05891055, 33.654999805 ], [ 131.058827556000011, 33.655030889 ], [ 131.058754111000013, 33.655082028 ], [ 131.058671417, 33.655162694 ], [ 131.058516028000014, 33.655344917 ], [ 131.058333333, 33.655512694 ], [ 131.057951443, 33.655850154 ], [ 131.057750098000014, 33.656045575 ], [ 131.057244067, 33.656552766 ], [ 131.05699817499999, 33.65679592 ], [ 131.05699643, 33.656852581 ], [ 131.057035715000012, 33.656943516 ], [ 131.059712358000013, 33.656236375 ] ] ] } },
{ "type": "Feature", "properties": { "A29_001": "40647", "A29_002": "福岡県", "A29_003": "築上町", "A29_004": 8, "A29_005": "近隣商業地域", "A29_006": 80, "A29_007": 200, "A29_008": "条件付き公開" }, "geometry": { "type": "Polygon", "coordinates": [ [ [ 131.057035715000012, 33.656943516 ], [ 131.05699643, 33.656852581 ], [ 131.05699817499999, 33.65679592 ], [ 131.057244067, 33.656552766 ], [ 131.057750098000014, 33.656045575 ], [ 131.057951443, 33.655850154 ], [ 131.058333333, 33.655512694 ], [ 131.058516028000014, 33.655344917 ], [ 131.058671417, 33.655162694 ], [ 131.058754111000013, 33.655082028 ], [ 131.058827556000011, 33.655030889 ], [ 131.05891055, 33.654999805 ], [ 131.05900722199999, 33.65496475 ], [ 131.059484110999989, 33.654801611 ], [ 131.059555861, 33.654744833 ], [ 131.059631861000014, 33.654676361 ], [ 131.05983558299999, 33.65444575 ], [ 131.0599638, 33.654310435 ], [ 131.060418988, 33.653802512 ], [ 131.060117537999986, 33.653609569 ], [ 131.059795571, 33.65339576 ], [ 131.05966981099999, 33.653303376 ], [ 131.059579711, 33.653212465 ], [ 131.059275434, 33.652790646 ], [ 131.059164778, 33.652622956 ], [ 131.059041648, 33.652461982 ], [ 131.058829347999989, 33.652265265 ], [ 131.058780361, 33.65229675 ], [ 131.05840173499999, 33.652684452 ], [ 131.058006218, 33.65311555 ], [ 131.05821875399999, 33.653662664 ], [ 131.05854908500001, 33.65438492 ], [ 131.058520592, 33.654434884 ], [ 131.057554904999989, 33.655441793 ], [ 131.05729996299999, 33.655257295 ], [ 131.05720812199999, 33.6551771 ], [ 131.057157722, 33.655123889 ], [ 131.057103635, 33.655046745 ], [ 131.056951797000011, 33.654735316 ], [ 131.056674398000013, 33.654506568 ], [ 131.05546453, 33.65570701 ], [ 131.054442666999989, 33.656717194 ], [ 131.054612361000011, 33.656767722 ], [ 131.054804778, 33.656867028 ], [ 131.05497444400001, 33.656936694 ], [ 131.055186787999986, 33.65700847 ], [ 131.055411056, 33.657046444 ], [ 131.055769027999986, 33.65709 ], [ 131.055954667, 33.657095556 ], [ 131.05632772199999, 33.657095222 ], [ 131.056491991, 33.657080942 ], [ 131.056796838, 33.657010723 ], [ 131.057035715000012, 33.656943516 ] ] ] } },
{ "type": "Feature", "properties": { "A29_001": "40647", "A29_002": "福岡県", "A29_003": "築上町", "A29_004": 5, "A29_005": "第一種住居地域", "A29_006": 60, "A29_007": 200, "A29_008": "条件付き公開" }, "geometry": { "type": "Polygon", "coordinates": [ [ [ 131.053125961, 33.658254023 ], [ 131.052981640000013, 33.658424064 ], [ 131.052605709, 33.658896886 ], [ 131.052422231, 33.659186227 ], [ 131.05281453399999, 33.659239737 ], [ 131.053173039, 33.659424473 ], [ 131.05374186099999, 33.659471941 ], [ 131.055531723, 33.657584978 ], [ 131.055382444, 33.657542333 ], [ 131.054828219, 33.657416804 ], [ 131.05447362000001, 33.657765865 ], [ 131.053926416, 33.658056859 ], [ 131.053493272, 33.658267284 ], [ 131.053125961, 33.658254023 ] ] ] } },
{ "type": "Feature", "properties": { "A29_001": "40647", "A29_002": "福岡県", "A29_003": "築上町", "A29_004": 5, "A29_005": "第一種住居地域", "A29_006": 60, "A29_007": 200, "A29_008": "条件付き公開" }, "geometry": { "type": "Polygon", "coordinates": [ [ [ 131.06236905599999, 33.656914056 ], [ 131.06285952799999, 33.656788806 ], [ 131.062991861, 33.656750472 ], [ 131.063365444, 33.656477417 ], [ 131.063552167000012, 33.656302167 ], [ 131.063768, 33.656099556 ], [ 131.063782543, 33.656052474 ], [ 131.06362859, 33.6559069 ], [ 131.06358074799999, 33.655857824 ], [ 131.063433666, 33.655876911 ], [ 131.063187204, 33.655923632 ], [ 131.062962599, 33.655992335 ], [ 131.062545488000012, 33.656138669 ], [ 131.062203256, 33.656279 ], [ 131.061743425, 33.656528235 ], [ 131.06158302599999, 33.656626724 ], [ 131.061399666999989, 33.656784417 ], [ 131.061321528, 33.656833278 ], [ 131.061010993, 33.657062393 ], [ 131.060868437000011, 33.657181747 ], [ 131.06047109, 33.657557685 ], [ 131.060129913999987, 33.657946269 ], [ 131.05989564699999, 33.658234154 ], [ 131.05974279, 33.65849898 ], [ 131.05956049, 33.65885108 ], [ 131.05920531000001, 33.65948035 ], [ 131.059140039999988, 33.65958452 ], [ 131.058991490000011, 33.65994553 ], [ 131.05964741299999, 33.660249049 ], [ 131.059880813, 33.659986512 ], [ 131.060332390000013, 33.65975517 ], [ 131.061058085000013, 33.65936417 ], [ 131.061047417, 33.659288278 ], [ 131.06106383299999, 33.659236444 ], [ 131.061088444, 33.659206222 ], [ 131.061214639000013, 33.659089639 ], [ 131.061355166999988, 33.658973889 ], [ 131.061460444, 33.658915972 ], [ 131.061509056, 33.65888925 ], [ 131.06155522200001, 33.658848667 ], [ 131.061681676, 33.658696618 ], [ 131.061806358000013, 33.658515394 ], [ 131.06182148900001, 33.658480347 ], [ 131.061636052000011, 33.658478203 ], [ 131.061441645, 33.658397038 ], [ 131.061124154, 33.658239144 ], [ 131.061041221000011, 33.658207128 ], [ 131.06102882799999, 33.6581585 ], [ 131.06105538599999, 33.658067708 ], [ 131.06112926599999, 33.657904402 ], [ 131.061296606000013, 33.657532676 ], [ 131.061362514, 33.657442436 ], [ 131.061405272, 33.657393955 ], [ 131.061465857, 33.657341739 ], [ 131.061612876, 33.657232074 ], [ 131.061795557000011, 33.657123882 ], [ 131.061917654000013, 33.657069397 ], [ 131.062038867000012, 33.657026096 ], [ 131.06226793, 33.656953665 ], [ 131.06236905599999, 33.656914056 ] ] ] } }
]
}
