{
"type": "FeatureCollection",
"name": "A29-19_40231",
"features": [
{ "type": "Feature", "properties": { "A29_001": "40231", "A29_002": "福岡県", "A29_003": "那珂川市", "A29_004": 1, "A29_005": "第一種低層住居専用地域", "A29_006": 40, "A29_007": 60, "A29_008": null }, "geometry": { "type": "Polygon", "coordinates": [ [ [ 130.43940988899999, 33.503921778 ], [ 130.43987185099999, 33.503483934 ], [ 130.439983222, 33.503323361 ], [ 130.440058193999988, 33.503164583 ], [ 130.440063028, 33.503005806 ], [ 130.440031583, 33.502877556 ], [ 130.43989944399999, 33.502593056 ], [ 130.439816278, 33.502446083 ], [ 130.43959883299999, 33.502062111 ], [ 130.439555167, 33.501985722 ], [ 130.43943870199999, 33.501615633 ], [ 130.439524115000012, 33.501614764 ], [ 130.43954949799999, 33.501615218 ], [ 130.43944624299999, 33.501205064 ], [ 130.43945077699999, 33.501031883 ], [ 130.43952868400001, 33.500873348 ], [ 130.439593833, 33.500717528 ], [ 130.439611944, 33.500581139 ], [ 130.439534422, 33.50043847 ], [ 130.439472916999989, 33.500362306 ], [ 130.43919599099999, 33.500199114 ], [ 130.43847258299999, 33.499791222 ], [ 130.43831927799999, 33.499705861 ], [ 130.438182278, 33.499598944 ], [ 130.438076851, 33.499450158 ], [ 130.437958056000014, 33.499293056 ], [ 130.437792583, 33.499165639 ], [ 130.43753449, 33.499041826 ], [ 130.43699473, 33.498761718 ], [ 130.436800721999987, 33.498659194 ], [ 130.43643662299999, 33.498497546 ], [ 130.436195602999987, 33.498390434 ], [ 130.436107556, 33.498292306 ], [ 130.435829528, 33.498067222 ], [ 130.435721538, 33.497994027 ], [ 130.43556494399999, 33.497852306 ], [ 130.435492848, 33.497720122 ], [ 130.43542907, 33.4975283 ], [ 130.435367082999988, 33.497402167 ], [ 130.43513716699999, 33.497442667 ], [ 130.434995472, 33.497456167 ], [ 130.43469869399999, 33.497438167 ], [ 130.434497908, 33.497431487 ], [ 130.434361567, 33.49734772 ], [ 130.434118555999987, 33.497291861 ], [ 130.434059722, 33.497318861 ], [ 130.434016944, 33.497393139 ], [ 130.433793667, 33.497340638 ], [ 130.433483861000013, 33.497319306 ], [ 130.433417861, 33.49726375 ], [ 130.43310358299999, 33.49715525 ], [ 130.432996694, 33.497131444 ], [ 130.432680495999989, 33.497271948 ], [ 130.432854972, 33.497717917 ], [ 130.432994063, 33.498004839 ], [ 130.433247638000012, 33.498558861 ], [ 130.433350166999986, 33.498783778 ], [ 130.433414833, 33.498850056 ], [ 130.43358527800001, 33.498740472 ], [ 130.433717417, 33.4988775 ], [ 130.43373139, 33.49895887 ], [ 130.43375186, 33.49905923 ], [ 130.433783583, 33.499160417 ], [ 130.433819, 33.499235389 ], [ 130.43381292, 33.49941339 ], [ 130.43379737, 33.49963744 ], [ 130.433797610999989, 33.499705833 ], [ 130.433914582999989, 33.5 ], [ 130.433975, 33.500120111 ], [ 130.43413675, 33.500469722 ], [ 130.434458639000013, 33.501178667 ], [ 130.434783888999988, 33.501864667 ], [ 130.436356972, 33.501746611 ], [ 130.436286861000013, 33.501032111 ], [ 130.43674875, 33.50099725 ], [ 130.43686230599999, 33.502086556 ], [ 130.434960417000013, 33.502228056 ], [ 130.435743722000012, 33.5039175 ], [ 130.43588917, 33.50383458 ], [ 130.43608988, 33.50436632 ], [ 130.43627622, 33.50494517 ], [ 130.43646922, 33.50558303 ], [ 130.438197202, 33.505473726 ], [ 130.438443056000011, 33.504976278 ], [ 130.438568543, 33.504830184 ], [ 130.43887225, 33.504499583 ], [ 130.43940988899999, 33.503921778 ] ] ] } },
{ "type": "Feature", "properties": { "A29_001": "40231", "A29_002": "福岡県", "A29_003": "那珂川市", "A29_004": 1, "A29_005": "第一種低層住居専用地域", "A29_006": 40, "A29_007": 60, "A29_008": null }, "geometry": { "type": "Polygon", "coordinates": [ [ [ 130.43466935, 33.50411802 ], [ 130.434568157, 33.50394581 ], [ 130.434407706, 33.503986827 ], [ 130.43394494, 33.50344197 ], [ 130.43438756099999, 33.503253136 ], [ 130.433455939999988, 33.50125783 ], [ 130.43249975, 33.499203361 ], [ 130.43210847200001, 33.4993355 ], [ 130.43194466700001, 33.498971556 ], [ 130.432336666999987, 33.49884875 ], [ 130.431616596, 33.497220331 ], [ 130.431494238, 33.497165338 ], [ 130.43084074, 33.496947626 ], [ 130.430392821999988, 33.496862068 ], [ 130.430290111, 33.496784061 ], [ 130.430254948999988, 33.496718293 ], [ 130.43021550899999, 33.496654058 ], [ 130.43021363, 33.49665022 ], [ 130.43020132, 33.49654679 ], [ 130.43016935, 33.49647047 ], [ 130.43005949, 33.49638836 ], [ 130.429869983, 33.49626026 ], [ 130.42969813900001, 33.496157667 ], [ 130.429590526999988, 33.496123862 ], [ 130.429525278, 33.496102111 ], [ 130.429324111, 33.496059778 ], [ 130.42895325, 33.496078306 ], [ 130.42884492799999, 33.496255539 ], [ 130.428822282, 33.496701825 ], [ 130.428772435000013, 33.496921079 ], [ 130.428814405999987, 33.497467596 ], [ 130.42886467299999, 33.497618127 ], [ 130.42897808399999, 33.497692606 ], [ 130.42938989699999, 33.49785673 ], [ 130.42990365599999, 33.498107207 ], [ 130.430025594999989, 33.49818411 ], [ 130.43010429200001, 33.498341928 ], [ 130.430168455, 33.498545007 ], [ 130.430216502, 33.498600099 ], [ 130.431144851, 33.499463213 ], [ 130.431149734, 33.499587292 ], [ 130.431100421999986, 33.499725436 ], [ 130.431312393000013, 33.499969749 ], [ 130.43143908, 33.5001922 ], [ 130.431536684, 33.500507559 ], [ 130.43163744899999, 33.500775219 ], [ 130.431627518, 33.5009875 ], [ 130.43159524399999, 33.501132879 ], [ 130.43160868699999, 33.501254611 ], [ 130.431746627, 33.501498584 ], [ 130.431977555, 33.501893282 ], [ 130.432095283, 33.502180105 ], [ 130.432130992999987, 33.502380667 ], [ 130.43214429599999, 33.502523869 ], [ 130.432128578, 33.502750438 ], [ 130.43203571, 33.503017209 ], [ 130.431917274999989, 33.503274321 ], [ 130.432401086999988, 33.503756062 ], [ 130.432624928, 33.503928857 ], [ 130.432993, 33.504178611 ], [ 130.433144306, 33.504307417 ], [ 130.433245889, 33.504407417 ], [ 130.433294499999988, 33.504491194 ], [ 130.43330638899999, 33.504571389 ], [ 130.433302056, 33.504683083 ], [ 130.433265333, 33.504826333 ], [ 130.433263167, 33.504898417 ], [ 130.433265556, 33.504922389 ], [ 130.433290973999988, 33.505114015 ], [ 130.433268684000012, 33.505257055 ], [ 130.43318832, 33.505702573 ], [ 130.43319286799999, 33.505791341 ], [ 130.433235368, 33.505824458 ], [ 130.433440151000013, 33.505864043 ], [ 130.43360714799999, 33.505926109 ], [ 130.433639973, 33.505982646 ], [ 130.434284569999988, 33.50590927 ], [ 130.43511830599999, 33.505842833 ], [ 130.43510963899999, 33.505426611 ], [ 130.43496063, 33.50479763 ], [ 130.43466935, 33.50411802 ] ] ] } },
{ "type": "Feature", "properties": { "A29_001": "40231", "A29_002": "福岡県", "A29_003": "那珂川市", "A29_004": 1, "A29_005": "第一種低層住居専用地域", "A29_006": 40, "A29_007": 80, "A29_008": null }, "geometry": { "type": "Polygon", "coordinates": [ [ [ 130.412238419, 33.522283469 ], [ 130.412247799999989, 33.522119778 ], [ 130.412319328, 33.521620783 ], [ 130.412367558, 33.521297839 ], [ 130.412728778, 33.520730639 ], [ 130.412855194, 33.520716944 ], [ 130.41327603, 33.51997857 ], [ 130.413659919999986, 33.51943777 ], [ 130.41421367, 33.51876802 ], [ 130.41473806, 33.51827507 ], [ 130.41509219, 33.51797004 ], [ 130.41544647, 33.51764142 ], [ 130.41567333, 33.51741247 ], [ 130.41594984, 33.51713067 ], [ 130.41628334, 33.51674887 ], [ 130.417731376, 33.515077295 ], [ 130.41785151, 33.51495146 ], [ 130.417875594, 33.514723231 ], [ 130.418069222000014, 33.514710556 ], [ 130.41817895, 33.51442218 ], [ 130.418222667, 33.514293444 ], [ 130.418242443999986, 33.514096917 ], [ 130.41822844399999, 33.513312861 ], [ 130.418604667000011, 33.513261028 ], [ 130.418665471999986, 33.513252639 ], [ 130.418823221999986, 33.513276639 ], [ 130.418896404, 33.513314601 ], [ 130.418929276, 33.513272739 ], [ 130.418860641, 33.51321658 ], [ 130.418680013999989, 33.513068786 ], [ 130.418668411, 33.513024327 ], [ 130.418649468000012, 33.512951744 ], [ 130.418656054, 33.512818654 ], [ 130.41882174, 33.512573229 ], [ 130.41880586100001, 33.512436667 ], [ 130.418784249999987, 33.512336667 ], [ 130.418840321, 33.512186012 ], [ 130.41855161, 33.512061902 ], [ 130.418376243000012, 33.511966605 ], [ 130.418110124, 33.511799274 ], [ 130.417842068, 33.51173299 ], [ 130.41762147, 33.51172134 ], [ 130.41775242, 33.51143794 ], [ 130.417814722, 33.511259222 ], [ 130.417097611, 33.511240389 ], [ 130.416722166999989, 33.511245306 ], [ 130.416184528, 33.511292667 ], [ 130.416012943999988, 33.51167125 ], [ 130.41586627800001, 33.511994861 ], [ 130.415724531, 33.512389427 ], [ 130.41511556, 33.51241189 ], [ 130.414426, 33.51238292 ], [ 130.41370269, 33.512273616 ], [ 130.413074580999989, 33.512126811 ], [ 130.413004593000011, 33.512340038 ], [ 130.412717111, 33.512307139 ], [ 130.412613419, 33.512288174 ], [ 130.412536482, 33.512250489 ], [ 130.41245182, 33.5124015 ], [ 130.412371678999989, 33.512490615 ], [ 130.412276850000012, 33.51268777 ], [ 130.412286454999986, 33.51298524 ], [ 130.412293984, 33.513188058 ], [ 130.412287767, 33.51331775 ], [ 130.412362132, 33.513376254 ], [ 130.41235197200001, 33.513562587 ], [ 130.412323750000013, 33.513787601 ], [ 130.412376947000013, 33.513846218 ], [ 130.412368668, 33.513989106 ], [ 130.411999492, 33.513909321 ], [ 130.41168038, 33.51478992 ], [ 130.41181347, 33.51490953 ], [ 130.41182994499999, 33.515212192 ], [ 130.411428411, 33.515379302 ], [ 130.411369312, 33.515808771 ], [ 130.41162782, 33.51674077 ], [ 130.412436555, 33.516787235 ], [ 130.41246053, 33.51694029 ], [ 130.412497975, 33.517161324 ], [ 130.41262932, 33.51735038 ], [ 130.41275384, 33.51747712 ], [ 130.41288635699999, 33.517546551 ], [ 130.41304882, 33.51766971 ], [ 130.413202680000012, 33.51782522 ], [ 130.41331317, 33.518051953 ], [ 130.413454271, 33.518186613 ], [ 130.41334274799999, 33.518320932 ], [ 130.41318003, 33.518217316 ], [ 130.41289086, 33.518109859 ], [ 130.41274852699999, 33.518098747 ], [ 130.412671713, 33.518138641 ], [ 130.412612397, 33.518223349 ], [ 130.412576316000013, 33.518293787 ], [ 130.4125167, 33.51882178 ], [ 130.41199702, 33.5192222 ], [ 130.41180978, 33.5193329 ], [ 130.41170238, 33.519421522 ], [ 130.41163952, 33.519688194 ], [ 130.41210034299999, 33.520137821 ], [ 130.4121801, 33.520196439 ], [ 130.412192414, 33.520250395 ], [ 130.41219184, 33.52033623 ], [ 130.412157936, 33.520419421 ], [ 130.41210562099999, 33.520489646 ], [ 130.412067527, 33.520560227 ], [ 130.41196108299999, 33.520551609 ], [ 130.411899645, 33.520678236 ], [ 130.4117855, 33.52068067 ], [ 130.411687405, 33.520842825 ], [ 130.411648219999989, 33.52095544 ], [ 130.411329472, 33.520942861 ], [ 130.411084417000012, 33.520840167 ], [ 130.410864944, 33.520664944 ], [ 130.410756670000012, 33.52052717 ], [ 130.410596472, 33.520315833 ], [ 130.410412417, 33.520143778 ], [ 130.41043216700001, 33.520020778 ], [ 130.410459960999987, 33.519946838 ], [ 130.409952084, 33.519742101 ], [ 130.40977528799999, 33.519960069 ], [ 130.409753956, 33.519978996 ], [ 130.409731144, 33.519992842 ], [ 130.40970679899999, 33.520009218 ], [ 130.409584166, 33.520081626 ], [ 130.409563823000013, 33.520098607 ], [ 130.40953527799999, 33.520105556 ], [ 130.40943743, 33.520087855 ], [ 130.40907288, 33.52002015 ], [ 130.408983833, 33.520004139 ], [ 130.408902289999986, 33.52038374 ], [ 130.408822722, 33.520398611 ], [ 130.408497638999989, 33.520375333 ], [ 130.408450028, 33.52039725 ], [ 130.408441051000011, 33.520447188 ], [ 130.408396568, 33.520696254 ], [ 130.408382421, 33.520744235 ], [ 130.408382369, 33.520751846 ], [ 130.408384361, 33.520760028 ], [ 130.408389081, 33.520767101 ], [ 130.408544552, 33.520865686 ], [ 130.408634175, 33.520847062 ], [ 130.40877613, 33.52076897 ], [ 130.408836447, 33.520762701 ], [ 130.408896672999987, 33.520770167 ], [ 130.40897059, 33.520792876 ], [ 130.40902201, 33.520847809 ], [ 130.40914582799999, 33.521467855 ], [ 130.40809527799999, 33.521191253 ], [ 130.407786619, 33.521565038 ], [ 130.407784553, 33.521826027 ], [ 130.407888722, 33.521857833 ], [ 130.40797794400001, 33.521749778 ], [ 130.408374778, 33.521867667 ], [ 130.408812316, 33.521990045 ], [ 130.409108201, 33.522074927 ], [ 130.40906734699999, 33.52222293 ], [ 130.409269204999987, 33.52228989 ], [ 130.409208471999989, 33.522429167 ], [ 130.409398177000014, 33.522506721 ], [ 130.409756449000014, 33.522657403 ], [ 130.410057963000014, 33.522784151 ], [ 130.41012294399999, 33.522809083 ], [ 130.410185270999989, 33.52281763 ], [ 130.410203489, 33.522811374 ], [ 130.410233217000012, 33.52280334 ], [ 130.410253573, 33.522796389 ], [ 130.410372771999988, 33.522655066 ], [ 130.41038240099999, 33.522495271 ], [ 130.410323285, 33.522392406 ], [ 130.410283846999988, 33.522327804 ], [ 130.410307550999988, 33.522295949 ], [ 130.410384045, 33.522274127 ], [ 130.410479162, 33.522360464 ], [ 130.41059717600001, 33.522598639 ], [ 130.411003255, 33.522948403 ], [ 130.411432765, 33.523119351 ], [ 130.41161600800001, 33.522811037 ], [ 130.411716302, 33.522500899 ], [ 130.411957667, 33.522332917 ], [ 130.412238419, 33.522283469 ] ] ] } },
{ "type": "Feature", "properties": { "A29_001": "40231", "A29_002": "福岡県", "A29_003": "那珂川市", "A29_004": 1, "A29_005": "第一種低層住居専用地域", "A29_006": 40, "A29_007": 80, "A29_008": null }, "geometry": { "type": "Polygon", "coordinates": [ [ [ 130.423816278, 33.528473583 ], [ 130.42392227799999, 33.528458889 ], [ 130.423960111000014, 33.528468833 ], [ 130.42409611, 33.52846778 ], [ 130.424149949, 33.528151187 ], [ 130.424194717, 33.52783356 ], [ 130.42427959, 33.52778017 ], [ 130.42436833799999, 33.527754422 ], [ 130.42440339800001, 33.52766886 ], [ 130.42280628, 33.52164529 ], [ 130.422689389999988, 33.5212201 ], [ 130.422668969999989, 33.52111383 ], [ 130.422679499999987, 33.52058896 ], [ 130.422636028, 33.520183111 ], [ 130.422568667, 33.52016975 ], [ 130.421975667, 33.520052167 ], [ 130.422160111000011, 33.519480361 ], [ 130.422179083, 33.519332333 ], [ 130.421534333000011, 33.519203167 ], [ 130.421324389, 33.519139278 ], [ 130.421248166999987, 33.519116083 ], [ 130.421182667000011, 33.5190435 ], [ 130.421012, 33.518939028 ], [ 130.420820639, 33.518843222 ], [ 130.420631, 33.518769194 ], [ 130.420453444, 33.518722778 ], [ 130.420260361, 33.518599417 ], [ 130.42015002799999, 33.518579083 ], [ 130.41993627799999, 33.518555861 ], [ 130.419406161000012, 33.518521803 ], [ 130.418874361, 33.518490556 ], [ 130.418638167000012, 33.518449917 ], [ 130.41848819399999, 33.518413639 ], [ 130.418218208000013, 33.518266196 ], [ 130.418048887999987, 33.518277517 ], [ 130.417939854, 33.518227382 ], [ 130.417778274, 33.518197995 ], [ 130.417570715000011, 33.518229464 ], [ 130.41741362799999, 33.51820964 ], [ 130.41722013899999, 33.518118848 ], [ 130.417167869999986, 33.51819805 ], [ 130.417087186, 33.518328234 ], [ 130.41704761299999, 33.518357226 ], [ 130.41701493299999, 33.518374832 ], [ 130.416972285000014, 33.518382481 ], [ 130.416895055999987, 33.518375639 ], [ 130.416560839, 33.518167957 ], [ 130.41605898, 33.518658322 ], [ 130.415379453000014, 33.519327879 ], [ 130.415309589, 33.519551804 ], [ 130.415426028000013, 33.519880528 ], [ 130.415385406000013, 33.519924486 ], [ 130.41532047199999, 33.519995 ], [ 130.41517425, 33.520044778 ], [ 130.415025861, 33.520126194 ], [ 130.414854139, 33.520201972 ], [ 130.41474628, 33.52019195 ], [ 130.41473844, 33.52030987 ], [ 130.414674350000013, 33.52041573 ], [ 130.41460335, 33.52050387 ], [ 130.41453934, 33.52059794 ], [ 130.41453886, 33.52066871 ], [ 130.41452403, 33.52078071 ], [ 130.414495460000012, 33.52083955 ], [ 130.41445277, 33.52090422 ], [ 130.414403943999986, 33.5209305 ], [ 130.414310306, 33.520960389 ], [ 130.41422251, 33.521049615 ], [ 130.414164167, 33.521106889 ], [ 130.41396324199999, 33.521152726 ], [ 130.413830383, 33.521187883 ], [ 130.413741278, 33.521210972 ], [ 130.413757722000014, 33.521432806 ], [ 130.413736363999988, 33.521451801 ], [ 130.413730611, 33.5216245 ], [ 130.41366481, 33.52184418 ], [ 130.413536670000013, 33.52205 ], [ 130.413391778, 33.522173139 ], [ 130.413255528, 33.522336028 ], [ 130.413465639, 33.522467444 ], [ 130.41370043399999, 33.522665874 ], [ 130.41387475, 33.52282675 ], [ 130.413552339, 33.52306478 ], [ 130.413451888999987, 33.523135667 ], [ 130.41333872199999, 33.523145806 ], [ 130.413386016, 33.523471212 ], [ 130.41277279, 33.52359166 ], [ 130.412770669, 33.523811927 ], [ 130.412489666999988, 33.523851889 ], [ 130.412522722, 33.52441625 ], [ 130.412544860999986, 33.524424167 ], [ 130.412903472000011, 33.524477064 ], [ 130.413044066, 33.524483695 ], [ 130.413316646999988, 33.524568892 ], [ 130.413405974, 33.524574389 ], [ 130.413677381000014, 33.524585015 ], [ 130.414082799, 33.524592145 ], [ 130.414270738999988, 33.524588631 ], [ 130.414456186, 33.524586798 ], [ 130.414613046, 33.524578787 ], [ 130.414679825, 33.524568999 ], [ 130.41476836199999, 33.524514109 ], [ 130.415017471999988, 33.524213333 ], [ 130.415049047999986, 33.524171135 ], [ 130.415094673, 33.524143442 ], [ 130.415606079000014, 33.523998699 ], [ 130.415944932, 33.523836648 ], [ 130.416263966, 33.523693532 ], [ 130.416573136000011, 33.523665811 ], [ 130.416601186, 33.523661503 ], [ 130.416630699, 33.523664814 ], [ 130.416640346, 33.523666128 ], [ 130.416645055, 33.523669639 ], [ 130.416649529000011, 33.523680126 ], [ 130.416666666999987, 33.523716278 ], [ 130.41675033300001, 33.5238905 ], [ 130.416773361, 33.523912167 ], [ 130.41701580599999, 33.524140111 ], [ 130.417038917000013, 33.524154306 ], [ 130.417195056, 33.524250389 ], [ 130.41736352800001, 33.524309694 ], [ 130.41755102799999, 33.524357806 ], [ 130.41762775, 33.524349806 ], [ 130.417704222, 33.524389417 ], [ 130.41781822199999, 33.5244485 ], [ 130.417845035, 33.524555016 ], [ 130.417878194, 33.524686889 ], [ 130.418049371, 33.524813444 ], [ 130.41820073400001, 33.524960276 ], [ 130.418286341999988, 33.525054803 ], [ 130.418599419, 33.525357665 ], [ 130.418930036, 33.52525883 ], [ 130.418981092, 33.525325036 ], [ 130.41899753199999, 33.525358097 ], [ 130.419001923, 33.525380952 ], [ 130.418998472, 33.525413111 ], [ 130.41910691699999, 33.525538639 ], [ 130.419147583000012, 33.525644583 ], [ 130.419256028, 33.525786417 ], [ 130.419375777999988, 33.525905472 ], [ 130.419577471999986, 33.526105944 ], [ 130.41972435, 33.526297727 ], [ 130.419832917, 33.526433167 ], [ 130.419900833000014, 33.526480889 ], [ 130.419999611, 33.526634139 ], [ 130.42008958, 33.526836054 ], [ 130.419842304000014, 33.527277174 ], [ 130.42010609, 33.527374203 ], [ 130.42028590699999, 33.527435943 ], [ 130.42035653, 33.527482096 ], [ 130.420602124999988, 33.527597383 ], [ 130.420665207000013, 33.527624008 ], [ 130.42072791699999, 33.527646502 ], [ 130.420777750000013, 33.527662083 ], [ 130.420881194, 33.5276815 ], [ 130.421046889, 33.527712611 ], [ 130.421167047000012, 33.527720853 ], [ 130.421244472000012, 33.527725667 ], [ 130.421458908, 33.527767103 ], [ 130.421651951, 33.527636232 ], [ 130.421717156999989, 33.527625119 ], [ 130.421794404, 33.527625479 ], [ 130.421868614, 33.527627094 ], [ 130.421930706000012, 33.527628653 ], [ 130.421995735, 33.527644179 ], [ 130.422077390999988, 33.527664858 ], [ 130.422152997000012, 33.52768424 ], [ 130.422246769999987, 33.527704975 ], [ 130.422317816, 33.527726872 ], [ 130.422391865, 33.527752589 ], [ 130.422456673999989, 33.527801098 ], [ 130.42250470499999, 33.527867289 ], [ 130.422551139, 33.528035667 ], [ 130.422872705, 33.528106232 ], [ 130.4231345, 33.528141417 ], [ 130.423517014999987, 33.528153504 ], [ 130.423453196, 33.528496908 ], [ 130.423816278, 33.528473583 ] ] ] } },
{ "type": "Feature", "properties": { "A29_001": "40231", "A29_002": "福岡県", "A29_003": "那珂川市", "A29_004": 2, "A29_005": "第二種低層住居専用地域", "A29_006": 50, "A29_007": 100, "A29_008": null }, "geometry": { "type": "Polygon", "coordinates": [ [ [ 130.43686230599999, 33.502086556 ], [ 130.43674875, 33.50099725 ], [ 130.436286861000013, 33.501032111 ], [ 130.436356972, 33.501746611 ], [ 130.434783888999988, 33.501864667 ], [ 130.434878889, 33.502078056 ], [ 130.434960417000013, 33.502228056 ], [ 130.43686230599999, 33.502086556 ] ] ] } },
{ "type": "Feature", "properties": { "A29_001": "40231", "A29_002": "福岡県", "A29_003": "那珂川市", "A29_004": 2, "A29_005": "第二種低層住居専用地域", "A29_006": 50, "A29_007": 100, "A29_008": null }, "geometry": { "type": "Polygon", "coordinates": [ [ [ 130.43474558299999, 33.510944583 ], [ 130.435019555999986, 33.510130028 ], [ 130.433856306, 33.509404583 ], [ 130.433537273000013, 33.509282177 ], [ 130.43304391, 33.509054658 ], [ 130.43281249, 33.509378908 ], [ 130.43252523000001, 33.509757394 ], [ 130.432185854000011, 33.510091744 ], [ 130.432082138999988, 33.510071167 ], [ 130.431551, 33.509965917 ], [ 130.43150508299999, 33.509948167 ], [ 130.430657610999987, 33.509808167 ], [ 130.430593832999989, 33.509796972 ], [ 130.430459, 33.509760833 ], [ 130.42986702799999, 33.509583778 ], [ 130.429428139, 33.509463833 ], [ 130.42904352799999, 33.509258167 ], [ 130.42815445799999, 33.508770178 ], [ 130.42813781000001, 33.50892442 ], [ 130.42816517599999, 33.508970136 ], [ 130.428144980000013, 33.509038185 ], [ 130.42811067, 33.509102904 ], [ 130.42801864, 33.509190034 ], [ 130.427949098, 33.509244937 ], [ 130.42782709, 33.5093329 ], [ 130.427791610000014, 33.50937402 ], [ 130.42774179, 33.50945636 ], [ 130.427726388999986, 33.509635722 ], [ 130.427658194, 33.510143056 ], [ 130.427111610999987, 33.509865333 ], [ 130.427122556, 33.510729361 ], [ 130.428398361, 33.510925083 ], [ 130.429192416, 33.511044833 ], [ 130.429229138000011, 33.511051139 ], [ 130.429532778, 33.51106825 ], [ 130.42958188899999, 33.511124194 ], [ 130.42982294399999, 33.511114972 ], [ 130.430327917, 33.511193556 ], [ 130.43056669399999, 33.511086246 ], [ 130.431293333000013, 33.511044944 ], [ 130.43178206499999, 33.511026967 ], [ 130.431993889000012, 33.510995861 ], [ 130.43201008299999, 33.510966139 ], [ 130.432419777, 33.510902692 ], [ 130.432797778, 33.510909389 ], [ 130.432949388999987, 33.510921111 ], [ 130.43289475899999, 33.511110649 ], [ 130.432870122999987, 33.511171622 ], [ 130.433273195, 33.511202095 ], [ 130.43369152299999, 33.511262058 ], [ 130.43367444399999, 33.511006667 ], [ 130.43421336099999, 33.51098225 ], [ 130.43474558299999, 33.510944583 ] ] ] } },
{ "type": "Feature", "properties": { "A29_001": "40231", "A29_002": "福岡県", "A29_003": "那珂川市", "A29_004": 2, "A29_005": "第二種低層住居専用地域", "A29_006": 50, "A29_007": 100, "A29_008": null }, "geometry": { "type": "Polygon", "coordinates": [ [ [ 130.432682613999987, 33.514743595 ], [ 130.432778500000012, 33.514519278 ], [ 130.433184194, 33.514527999 ], [ 130.433288946, 33.514299627 ], [ 130.433454329999989, 33.51392972 ], [ 130.433472583, 33.513836722 ], [ 130.43358465899999, 33.513684033 ], [ 130.434031721999986, 33.51306425 ], [ 130.434394104, 33.512021603 ], [ 130.434274778, 33.511824611 ], [ 130.43392007599999, 33.511842954 ], [ 130.433553278, 33.511859083 ], [ 130.433302806, 33.511866333 ], [ 130.433270166999989, 33.511888722 ], [ 130.43271791699999, 33.511792694 ], [ 130.432704722000011, 33.511837083 ], [ 130.432603978, 33.512033879 ], [ 130.432539694000013, 33.512170167 ], [ 130.43243122199999, 33.512389167 ], [ 130.432401924, 33.51251618 ], [ 130.43178597299999, 33.512527736 ], [ 130.431846471999989, 33.511939278 ], [ 130.431681645, 33.511955878 ], [ 130.430865254, 33.512001206 ], [ 130.43010652800001, 33.512054861 ], [ 130.42969911099999, 33.512029222 ], [ 130.42903197199999, 33.511994389 ], [ 130.42801544400001, 33.511849861 ], [ 130.427136499999989, 33.5117115 ], [ 130.427149944, 33.512657556 ], [ 130.427187694, 33.512739556 ], [ 130.427191333, 33.51288 ], [ 130.42734475, 33.51307575 ], [ 130.427688525, 33.513493099 ], [ 130.42799580499999, 33.513924444 ], [ 130.42805425, 33.514231917 ], [ 130.428108928, 33.514546014 ], [ 130.42810902799999, 33.514546583 ], [ 130.42925504199999, 33.5146735 ], [ 130.429737222, 33.514718639 ], [ 130.429811027999989, 33.514726444 ], [ 130.430216472000012, 33.5147235 ], [ 130.43070847199999, 33.514719944 ], [ 130.430766667, 33.51473475 ], [ 130.43118447099999, 33.514774056 ], [ 130.43168183899999, 33.514870792 ], [ 130.432191667000012, 33.514982111 ], [ 130.432502295, 33.51501333 ], [ 130.432682613999987, 33.514743595 ] ] ] } },
{ "type": "Feature", "properties": { "A29_001": "40231", "A29_002": "福岡県", "A29_003": "那珂川市", "A29_004": 2, "A29_005": "第二種低層住居専用地域", "A29_006": 50, "A29_007": 100, "A29_008": null }, "geometry": { "type": "Polygon", "coordinates": [ [ [ 130.42159052400001, 33.51589989 ], [ 130.421519571, 33.515077419 ], [ 130.421503444, 33.514889722 ], [ 130.420974194, 33.514882472 ], [ 130.42077766700001, 33.515175639 ], [ 130.420086389, 33.515011667 ], [ 130.419863185, 33.514928909 ], [ 130.41972388, 33.51500959 ], [ 130.41944238, 33.51520467 ], [ 130.41915483, 33.51544761 ], [ 130.4187809, 33.51578115 ], [ 130.418052389, 33.516341861 ], [ 130.417381471999988, 33.517105056 ], [ 130.417696662, 33.517160985 ], [ 130.418509840000013, 33.517307905 ], [ 130.418914027999989, 33.517362833 ], [ 130.419608528, 33.51748175 ], [ 130.41995956, 33.51756604 ], [ 130.420798917000013, 33.517777677 ], [ 130.421829194, 33.518039167 ], [ 130.42172922200001, 33.517150944 ], [ 130.42159052400001, 33.51589989 ] ] ] } },
{ "type": "Feature", "properties": { "A29_001": "40231", "A29_002": "福岡県", "A29_003": "那珂川市", "A29_004": 2, "A29_005": "第二種低層住居専用地域", "A29_006": 50, "A29_007": 100, "A29_008": null }, "geometry": { "type": "Polygon", "coordinates": [ [ [ 130.43163315000001, 33.51845048 ], [ 130.432453095, 33.516022897 ], [ 130.431685316999989, 33.515938758 ], [ 130.431515671999989, 33.515927245 ], [ 130.431166061999988, 33.516259275 ], [ 130.430352427, 33.516950901 ], [ 130.430080618, 33.517175161 ], [ 130.429929761000011, 33.517139342 ], [ 130.429532556, 33.517041167 ], [ 130.429527167, 33.517005139 ], [ 130.429357528, 33.516803333 ], [ 130.429103610999988, 33.516761 ], [ 130.429000527999989, 33.516526083 ], [ 130.42864739699999, 33.516505758 ], [ 130.428444194, 33.5164875 ], [ 130.428336556, 33.516532833 ], [ 130.428177306, 33.516637305 ], [ 130.428010660000012, 33.51660639 ], [ 130.42800613, 33.51625735 ], [ 130.427994199000011, 33.515993846 ], [ 130.427961289, 33.515804886 ], [ 130.427843779999989, 33.515516225 ], [ 130.426752861000011, 33.515397306 ], [ 130.426377878000011, 33.516879155 ], [ 130.426044429, 33.518145786 ], [ 130.42592031699999, 33.518646925 ], [ 130.425850020000013, 33.518841435 ], [ 130.425716058, 33.519212102 ], [ 130.42570945599999, 33.519230368 ], [ 130.425710919000011, 33.51923085 ], [ 130.425709417, 33.519236333 ], [ 130.429707638999986, 33.520551084 ], [ 130.431260888999986, 33.521072806 ], [ 130.432097728, 33.518589361 ], [ 130.43160955, 33.518529164 ], [ 130.43163315000001, 33.51845048 ] ] ] } },
{ "type": "Feature", "properties": { "A29_001": "40231", "A29_002": "福岡県", "A29_003": "那珂川市", "A29_004": 3, "A29_005": "第一種中高層住居専用地域", "A29_006": 60, "A29_007": 200, "A29_008": null }, "geometry": { "type": "Polygon", "coordinates": [ [ [ 130.44115795799999, 33.512025883 ], [ 130.441294269, 33.512023961 ], [ 130.44146383099999, 33.512032337 ], [ 130.441597113, 33.512030401 ], [ 130.441704278, 33.512033361 ], [ 130.441959148, 33.512053768 ], [ 130.44200801, 33.511859 ], [ 130.442098345, 33.511738295 ], [ 130.442174477, 33.511597112 ], [ 130.44230518, 33.511522848 ], [ 130.442404928, 33.511519351 ], [ 130.442506009999988, 33.511531 ], [ 130.44257901, 33.511504 ], [ 130.442698783, 33.511451805 ], [ 130.44279014899999, 33.511373563 ], [ 130.442930219, 33.511257482 ], [ 130.443117777999987, 33.511126139 ], [ 130.44359431699999, 33.510661687 ], [ 130.443935384000014, 33.510373977 ], [ 130.444437472, 33.51000925 ], [ 130.445971586000013, 33.50955385 ], [ 130.446712682, 33.509321772 ], [ 130.44695378899999, 33.509244266 ], [ 130.44724953, 33.50913806 ], [ 130.44577958299999, 33.508916444 ], [ 130.445313978, 33.508828264 ], [ 130.444215694, 33.508627306 ], [ 130.44326202799999, 33.50844825 ], [ 130.442952028, 33.508333333 ], [ 130.442803222, 33.508267167 ], [ 130.442442306, 33.508049917 ], [ 130.442439914, 33.508048161 ], [ 130.442270361, 33.507923723 ], [ 130.442271384, 33.507919663 ], [ 130.442190419000013, 33.507860455 ], [ 130.44203987, 33.508116838 ], [ 130.441755511999986, 33.508604623 ], [ 130.441575570999987, 33.508907988 ], [ 130.44140969599999, 33.509238255 ], [ 130.44129758, 33.509512104 ], [ 130.441201111, 33.509835722 ], [ 130.441046389, 33.51018075 ], [ 130.440596156, 33.511859137 ], [ 130.440465756, 33.512315541 ], [ 130.440385176, 33.512596063 ], [ 130.44028990000001, 33.51275885 ], [ 130.440097009999988, 33.513008 ], [ 130.440086235, 33.51302358 ], [ 130.440154008, 33.513003011 ], [ 130.440222389000013, 33.512974611 ], [ 130.440257514, 33.51296173 ], [ 130.44030386, 33.512951502 ], [ 130.440513119, 33.512903236 ], [ 130.44062854399999, 33.512868381 ], [ 130.44068501000001, 33.512825 ], [ 130.44068961, 33.512792541 ], [ 130.44068103, 33.512713849 ], [ 130.440703235, 33.512657575 ], [ 130.440739213, 33.512615161 ], [ 130.44091602099999, 33.5125764 ], [ 130.440957841, 33.512529883 ], [ 130.440957235000013, 33.512416472 ], [ 130.440919396999988, 33.512385089 ], [ 130.440919788, 33.512324198 ], [ 130.440917151, 33.512263293 ], [ 130.440911387, 33.512217598 ], [ 130.44095107199999, 33.51216957 ], [ 130.44097851, 33.512141785 ], [ 130.441021288, 33.512083622 ], [ 130.441073071, 33.512038186 ], [ 130.44115795799999, 33.512025883 ] ] ] } },
{ "type": "Feature", "properties": { "A29_001": "40231", "A29_002": "福岡県", "A29_003": "那珂川市", "A29_004": 3, "A29_005": "第一種中高層住居専用地域", "A29_006": 60, "A29_007": 200, "A29_008": null }, "geometry": { "type": "Polygon", "coordinates": [ [ [ 130.43369152299999, 33.511262058 ], [ 130.433273195, 33.511202095 ], [ 130.432870122999987, 33.511171622 ], [ 130.43289475899999, 33.511110649 ], [ 130.432949388999987, 33.510921111 ], [ 130.432797778, 33.510909389 ], [ 130.432419777, 33.510902692 ], [ 130.43201008299999, 33.510966139 ], [ 130.431993889000012, 33.510995861 ], [ 130.43178206499999, 33.511026967 ], [ 130.431293333000013, 33.511044944 ], [ 130.43056669399999, 33.511086246 ], [ 130.430327917, 33.511193556 ], [ 130.42982294399999, 33.511114972 ], [ 130.42958188899999, 33.511124194 ], [ 130.429532778, 33.51106825 ], [ 130.429229138000011, 33.511051139 ], [ 130.429192416, 33.511044833 ], [ 130.428398361, 33.510925083 ], [ 130.427122556, 33.510729361 ], [ 130.427111610999987, 33.509865333 ], [ 130.427658194, 33.510143056 ], [ 130.427726388999986, 33.509635722 ], [ 130.42774179, 33.50945636 ], [ 130.427791610000014, 33.50937402 ], [ 130.42782709, 33.5093329 ], [ 130.427949098, 33.509244937 ], [ 130.42801864, 33.509190034 ], [ 130.42811067, 33.509102904 ], [ 130.428144980000013, 33.509038185 ], [ 130.42816517599999, 33.508970136 ], [ 130.42813781000001, 33.50892442 ], [ 130.42815445799999, 33.508770178 ], [ 130.427232010000012, 33.508277562 ], [ 130.426762543, 33.507960677 ], [ 130.426699974, 33.507861727 ], [ 130.426466495999989, 33.507723298 ], [ 130.426303444000013, 33.507668498 ], [ 130.425802721999986, 33.507335694 ], [ 130.425727222, 33.507412833 ], [ 130.425581670000014, 33.50764747 ], [ 130.425448194000012, 33.507847472 ], [ 130.425351971999987, 33.508013167 ], [ 130.425310583, 33.508197639 ], [ 130.42519525, 33.508319167 ], [ 130.425178194000011, 33.508373472 ], [ 130.423462889, 33.507402917 ], [ 130.423243219999989, 33.50779585 ], [ 130.42270933, 33.50761643 ], [ 130.422631849999988, 33.50762196 ], [ 130.42253998000001, 33.50767462 ], [ 130.42214895, 33.5082449 ], [ 130.422155589999988, 33.50830392 ], [ 130.42217641, 33.5083512 ], [ 130.42230286, 33.50839307 ], [ 130.422316669999987, 33.50843442 ], [ 130.42228107, 33.50849323 ], [ 130.422174289999987, 33.50866968 ], [ 130.42218767, 33.5087759 ], [ 130.42235280599999, 33.510537111 ], [ 130.422603114999987, 33.512932167 ], [ 130.422705259, 33.513937878 ], [ 130.422751761, 33.5139427 ], [ 130.424787141, 33.514164668 ], [ 130.42751113700001, 33.514484175 ], [ 130.42810902799999, 33.514546584 ], [ 130.428108928, 33.514546014 ], [ 130.42805425, 33.514231917 ], [ 130.42799580499999, 33.513924444 ], [ 130.427688525, 33.513493099 ], [ 130.42734475, 33.51307575 ], [ 130.427191333, 33.51288 ], [ 130.427187694, 33.512739556 ], [ 130.427149944, 33.512657556 ], [ 130.427136499999989, 33.5117115 ], [ 130.42801544400001, 33.511849861 ], [ 130.42903197199999, 33.511994389 ], [ 130.42969911099999, 33.512029222 ], [ 130.43010652800001, 33.512054861 ], [ 130.430865254, 33.512001206 ], [ 130.431681645, 33.511955878 ], [ 130.431846471999989, 33.511939278 ], [ 130.43178597299999, 33.512527736 ], [ 130.432401924, 33.51251618 ], [ 130.43243122199999, 33.512389167 ], [ 130.432539694000013, 33.512170167 ], [ 130.432603978, 33.512033879 ], [ 130.432704722000011, 33.511837083 ], [ 130.43271791699999, 33.511792694 ], [ 130.433270166999989, 33.511888722 ], [ 130.433302806, 33.511866333 ], [ 130.433553278, 33.511859083 ], [ 130.43392007599999, 33.511842954 ], [ 130.434274778, 33.511824611 ], [ 130.434394104, 33.512021603 ], [ 130.43474558299999, 33.510944583 ], [ 130.43421336099999, 33.51098225 ], [ 130.43367444399999, 33.511006667 ], [ 130.43369152299999, 33.511262058 ] ] ] } },
{ "type": "Feature", "properties": { "A29_001": "40231", "A29_002": "福岡県", "A29_003": "那珂川市", "A29_004": 3, "A29_005": "第一種中高層住居専用地域", "A29_006": 60, "A29_007": 200, "A29_008": null }, "geometry": { "type": "Polygon", "coordinates": [ [ [ 130.430352427, 33.516950901 ], [ 130.431166061999988, 33.516259275 ], [ 130.431515671999989, 33.515927245 ], [ 130.43134838899999, 33.515922687 ], [ 130.431346611, 33.515922639 ], [ 130.42974955599999, 33.515735861 ], [ 130.429434805999989, 33.515697389 ], [ 130.42807497199999, 33.515549444 ], [ 130.427843779999989, 33.515516225 ], [ 130.427961289, 33.515804886 ], [ 130.427994199000011, 33.515993846 ], [ 130.42800613, 33.51625735 ], [ 130.428010660000012, 33.51660639 ], [ 130.428177306, 33.516637305 ], [ 130.428336556, 33.516532833 ], [ 130.428444194, 33.5164875 ], [ 130.42864739699999, 33.516505758 ], [ 130.429000527999989, 33.516526083 ], [ 130.429103610999988, 33.516761 ], [ 130.429357528, 33.516803333 ], [ 130.429527167, 33.517005139 ], [ 130.429532556, 33.517041167 ], [ 130.429929761000011, 33.517139342 ], [ 130.430080618, 33.517175161 ], [ 130.430352427, 33.516950901 ] ] ] } },
{ "type": "Feature", "properties": { "A29_001": "40231", "A29_002": "福岡県", "A29_003": "那珂川市", "A29_004": 3, "A29_005": "第一種中高層住居専用地域", "A29_006": 60, "A29_007": 200, "A29_008": null }, "geometry": { "type": "Polygon", "coordinates": [ [ [ 130.426752861000011, 33.515397306 ], [ 130.424158, 33.515116806 ], [ 130.424115801, 33.515237348 ], [ 130.424071475, 33.515383779 ], [ 130.424041778, 33.515472361 ], [ 130.42405972200001, 33.515533056 ], [ 130.424080041, 33.515744629 ], [ 130.424181111, 33.516741167 ], [ 130.4236055, 33.516770278 ], [ 130.422992306, 33.516780556 ], [ 130.423227722, 33.518266 ], [ 130.4232735, 33.518497167 ], [ 130.423932279000013, 33.518722917 ], [ 130.424226389000012, 33.518810528 ], [ 130.424691139, 33.518958639 ], [ 130.42531513899999, 33.519167 ], [ 130.425709417, 33.519236333 ], [ 130.425710919000011, 33.519230849 ], [ 130.42570945599999, 33.519230368 ], [ 130.425716058, 33.519212102 ], [ 130.425850020000013, 33.518841436 ], [ 130.42592031699999, 33.518646925 ], [ 130.426044429, 33.518145786 ], [ 130.426377878000011, 33.516879155 ], [ 130.426752861000011, 33.515397306 ] ] ] } },
{ "type": "Feature", "properties": { "A29_001": "40231", "A29_002": "福岡県", "A29_003": "那珂川市", "A29_004": 5, "A29_005": "第一種住居地域", "A29_006": 60, "A29_007": 200, "A29_008": null }, "geometry": { "type": "Polygon", "coordinates": [ [ [ 130.43355963799999, 33.517147757 ], [ 130.43360628, 33.5170677 ], [ 130.433837094000012, 33.517140403 ], [ 130.433883417, 33.516991778 ], [ 130.43464392199999, 33.517074773 ], [ 130.434835189000012, 33.515931 ], [ 130.435390606, 33.516022247 ], [ 130.435290275999989, 33.516807635 ], [ 130.436383056000011, 33.517062 ], [ 130.43638801, 33.51699 ], [ 130.436355765, 33.516863821 ], [ 130.43649096499999, 33.516864187 ], [ 130.436551436, 33.516663011 ], [ 130.436691778000011, 33.516666667 ], [ 130.436778111, 33.5163655 ], [ 130.436801081, 33.516223679 ], [ 130.436872443999988, 33.516064472 ], [ 130.437228648, 33.51488179 ], [ 130.4373535, 33.514460306 ], [ 130.43813807699999, 33.511768546 ], [ 130.43908772, 33.50863501 ], [ 130.43990578899999, 33.505828185 ], [ 130.440148693999987, 33.5058115 ], [ 130.44057441699999, 33.505806111 ], [ 130.440745431000011, 33.505828077 ], [ 130.44088996799999, 33.505865925 ], [ 130.441010944, 33.505896194 ], [ 130.441107111, 33.505935861 ], [ 130.44120758299999, 33.505977278 ], [ 130.441482028, 33.50615925 ], [ 130.441605194, 33.506269167 ], [ 130.44173964399999, 33.506439803 ], [ 130.441868860999989, 33.506721417 ], [ 130.44211024, 33.50710332 ], [ 130.442215479999987, 33.5072966 ], [ 130.44230066, 33.50740634 ], [ 130.44236607, 33.50748136 ], [ 130.442358297999988, 33.507574558 ], [ 130.442190419000013, 33.507860455 ], [ 130.442271384, 33.507919663 ], [ 130.442270361, 33.507923722 ], [ 130.442439912999987, 33.50804816 ], [ 130.442442306, 33.508049917 ], [ 130.442803222, 33.508267167 ], [ 130.442952028, 33.508333333 ], [ 130.44326202799999, 33.50844825 ], [ 130.444215694, 33.508627306 ], [ 130.445313978, 33.508828264 ], [ 130.44577958299999, 33.508916444 ], [ 130.44724953, 33.50913806 ], [ 130.44731639, 33.509101204 ], [ 130.44747501, 33.509026 ], [ 130.44756002, 33.508983 ], [ 130.44778301, 33.508883 ], [ 130.44787960799999, 33.508828702 ], [ 130.444333194, 33.508167583 ], [ 130.443856611, 33.508076472 ], [ 130.443441111, 33.507983083 ], [ 130.443131389, 33.507881944 ], [ 130.44292791699999, 33.507775417 ], [ 130.44281168, 33.507696485 ], [ 130.442530583, 33.507491056 ], [ 130.442560111, 33.507417833 ], [ 130.442667056, 33.507260167 ], [ 130.44256766699999, 33.50715475 ], [ 130.44251688899999, 33.507079083 ], [ 130.44248769399999, 33.506978167 ], [ 130.44248447199999, 33.506910611 ], [ 130.442499583, 33.506862861 ], [ 130.44256333300001, 33.50675475 ], [ 130.442573055999986, 33.506730444 ], [ 130.442574138999987, 33.506692583 ], [ 130.442343376, 33.506286424 ], [ 130.44232407199999, 33.506099298 ], [ 130.44228898, 33.505887291 ], [ 130.442175940999988, 33.505751275 ], [ 130.442028118, 33.50571053 ], [ 130.441876138999987, 33.505758361 ], [ 130.441803349999986, 33.50577274 ], [ 130.44175791, 33.50574678 ], [ 130.44169361199999, 33.505675659 ], [ 130.44176158, 33.50556408 ], [ 130.441813443, 33.505505751 ], [ 130.441887681, 33.505418171 ], [ 130.44188126, 33.50531441 ], [ 130.44185409, 33.50524528 ], [ 130.441726902, 33.505235369 ], [ 130.4416047, 33.50528714 ], [ 130.44155536, 33.50530402 ], [ 130.44151666, 33.50520022 ], [ 130.44146762, 33.50510002 ], [ 130.441373656, 33.504961376 ], [ 130.441263682, 33.504851361 ], [ 130.441161330999989, 33.504827968 ], [ 130.441085539999989, 33.504757544 ], [ 130.44103985000001, 33.50461047 ], [ 130.440989691, 33.504549521 ], [ 130.440916406000014, 33.504508964 ], [ 130.440830885, 33.504512811 ], [ 130.440746727, 33.504477946 ], [ 130.440719339, 33.504447464 ], [ 130.440781390000012, 33.5042936 ], [ 130.440703778999989, 33.504283152 ], [ 130.440727844, 33.504104917 ], [ 130.440750756, 33.503959439 ], [ 130.440514997, 33.503986398 ], [ 130.440498074, 33.503860799 ], [ 130.44046194, 33.50358499 ], [ 130.440430170000013, 33.50347603 ], [ 130.44034659, 33.50334507 ], [ 130.440308140000013, 33.50326329 ], [ 130.44026391, 33.50307265 ], [ 130.440207320000013, 33.50278404 ], [ 130.44018305, 33.50251733 ], [ 130.440138569999988, 33.50236478 ], [ 130.4401001, 33.50228844 ], [ 130.44001617, 33.50221189 ], [ 130.439932129999988, 33.50215166 ], [ 130.43984827, 33.50206423 ], [ 130.439777459999988, 33.50196597 ], [ 130.43970725, 33.50177523 ], [ 130.439662809999987, 33.50161724 ], [ 130.43954949799999, 33.501615218 ], [ 130.439524115000012, 33.501614764 ], [ 130.43943870199999, 33.501615633 ], [ 130.439555167, 33.501985722 ], [ 130.43959883299999, 33.502062111 ], [ 130.439816278, 33.502446083 ], [ 130.43989944399999, 33.502593056 ], [ 130.440031583, 33.502877556 ], [ 130.440063028, 33.503005806 ], [ 130.440058193999988, 33.503164583 ], [ 130.439983222, 33.503323361 ], [ 130.43987185099999, 33.503483934 ], [ 130.43940988899999, 33.503921778 ], [ 130.43887225, 33.504499583 ], [ 130.438568543, 33.504830184 ], [ 130.438443056000011, 33.504976278 ], [ 130.438197202, 33.505473726 ], [ 130.43646922, 33.50558303 ], [ 130.43627622, 33.50494517 ], [ 130.43608988, 33.50436632 ], [ 130.43588917, 33.50383458 ], [ 130.435743722000012, 33.5039175 ], [ 130.434960417000013, 33.502228056 ], [ 130.434878889, 33.502078056 ], [ 130.434783888999988, 33.501864667 ], [ 130.434458639000013, 33.501178667 ], [ 130.43413675, 33.500469722 ], [ 130.433975, 33.500120111 ], [ 130.433914582999989, 33.5 ], [ 130.433797610999989, 33.499705833 ], [ 130.43379737, 33.49963744 ], [ 130.43381292, 33.49941339 ], [ 130.433819, 33.499235389 ], [ 130.433783583, 33.499160417 ], [ 130.43375186, 33.49905923 ], [ 130.43373139, 33.49895887 ], [ 130.433717417, 33.4988775 ], [ 130.43358527800001, 33.498740472 ], [ 130.433414833, 33.498850056 ], [ 130.433350166999986, 33.498783778 ], [ 130.433247638000012, 33.498558861 ], [ 130.432994063, 33.498004839 ], [ 130.432854972, 33.497717917 ], [ 130.432680495999989, 33.497271948 ], [ 130.432647086, 33.497177008 ], [ 130.43245755800001, 33.497246756 ], [ 130.43228677499999, 33.497236431 ], [ 130.432323685, 33.497348187 ], [ 130.432344855, 33.497412284 ], [ 130.432189830999988, 33.49743066 ], [ 130.431905363, 33.497387368 ], [ 130.431616596, 33.497220331 ], [ 130.432336666999987, 33.49884875 ], [ 130.43194466700001, 33.498971556 ], [ 130.43210847200001, 33.4993355 ], [ 130.43249975, 33.499203361 ], [ 130.433455939999988, 33.50125783 ], [ 130.43438756099999, 33.503253136 ], [ 130.43394494, 33.50344197 ], [ 130.434407706, 33.503986827 ], [ 130.434568157, 33.50394581 ], [ 130.43466935, 33.50411802 ], [ 130.43496063, 33.50479763 ], [ 130.43510963899999, 33.505426611 ], [ 130.43511830599999, 33.505842833 ], [ 130.434284569999988, 33.50590927 ], [ 130.433639973, 33.505982646 ], [ 130.433719524999987, 33.506155251 ], [ 130.433775247999989, 33.506344453 ], [ 130.434130063999987, 33.506785041 ], [ 130.434296475999986, 33.507119797 ], [ 130.434322871, 33.507264968 ], [ 130.434237001000014, 33.507506962 ], [ 130.43411719299999, 33.507712538 ], [ 130.434029079999988, 33.507948796 ], [ 130.433551606, 33.508500094 ], [ 130.433083450999987, 33.509018987 ], [ 130.43304391, 33.509054658 ], [ 130.433537273000013, 33.509282177 ], [ 130.433856306, 33.509404583 ], [ 130.435019555999986, 33.510130028 ], [ 130.43474558299999, 33.510944583 ], [ 130.434394104, 33.512021603 ], [ 130.434031721999986, 33.51306425 ], [ 130.43358465899999, 33.513684033 ], [ 130.433472583, 33.513836722 ], [ 130.433454329999989, 33.51392972 ], [ 130.433288946, 33.514299627 ], [ 130.433184194, 33.514527999 ], [ 130.432778500000012, 33.514519278 ], [ 130.432682613999987, 33.514743595 ], [ 130.432502295, 33.51501333 ], [ 130.432191667000012, 33.514982111 ], [ 130.43168183899999, 33.514870792 ], [ 130.43118447099999, 33.514774056 ], [ 130.430766667, 33.51473475 ], [ 130.43070847199999, 33.514719944 ], [ 130.430216472000012, 33.5147235 ], [ 130.429811027999989, 33.514726444 ], [ 130.429737222, 33.514718639 ], [ 130.42925504199999, 33.5146735 ], [ 130.42810902799999, 33.514546583 ], [ 130.42751113700001, 33.514484174 ], [ 130.424787141, 33.514164668 ], [ 130.422751761, 33.5139427 ], [ 130.42275172, 33.513943056 ], [ 130.422725861, 33.514171552 ], [ 130.422967494, 33.51418054 ], [ 130.422932901, 33.514453883 ], [ 130.423324028, 33.514490333 ], [ 130.423395, 33.515037444 ], [ 130.424044, 33.515105556 ], [ 130.424158, 33.515116806 ], [ 130.426752861000011, 33.515397306 ], [ 130.427843779999989, 33.515516225 ], [ 130.42807497199999, 33.515549444 ], [ 130.429434805999989, 33.515697389 ], [ 130.42974955599999, 33.515735861 ], [ 130.431346611, 33.515922639 ], [ 130.431348388, 33.515922687 ], [ 130.431515671999989, 33.515927245 ], [ 130.431685316999989, 33.515938758 ], [ 130.432453095, 33.516022897 ], [ 130.432989028, 33.516079861 ], [ 130.433234217, 33.516113756 ], [ 130.433545111, 33.516147056 ], [ 130.433249663999987, 33.517059483 ], [ 130.433249625, 33.517059603 ], [ 130.43355963799999, 33.517147757 ] ] ] } },
{ "type": "Feature", "properties": { "A29_001": "40231", "A29_002": "福岡県", "A29_003": "那珂川市", "A29_004": 5, "A29_005": "第一種住居地域", "A29_006": 60, "A29_007": 200, "A29_008": null }, "geometry": { "type": "Polygon", "coordinates": [ [ [ 130.431450799, 33.523330645 ], [ 130.430999667, 33.523110389 ], [ 130.43081131299999, 33.523049523 ], [ 130.429576889, 33.522638444 ], [ 130.428812556, 33.522385556 ], [ 130.428644528, 33.522862667 ], [ 130.428828871, 33.522923718 ], [ 130.429370471999988, 33.523103083 ], [ 130.430140611000013, 33.52336175 ], [ 130.43036466699999, 33.523326611 ], [ 130.430469628, 33.523321871 ], [ 130.43048766699999, 33.523321056 ], [ 130.430556861000014, 33.523338639 ], [ 130.430833639000014, 33.523482861 ], [ 130.431094601000012, 33.523607658 ], [ 130.431458528, 33.523781694 ], [ 130.43171189200001, 33.523926843 ], [ 130.43190883299999, 33.524039667 ], [ 130.431990111, 33.524099778 ], [ 130.432095556, 33.524153417 ], [ 130.432295, 33.524268833 ], [ 130.432503028000014, 33.524389222 ], [ 130.43264956499999, 33.524199369 ], [ 130.432724119, 33.524103607 ], [ 130.432842139, 33.523945889 ], [ 130.43237916699999, 33.523671111 ], [ 130.432249305999989, 33.523599528 ], [ 130.432093333000012, 33.523562528 ], [ 130.43173502799999, 33.523456528 ], [ 130.431450799, 33.523330645 ] ] ] } },
{ "type": "Feature", "properties": { "A29_001": "40231", "A29_002": "福岡県", "A29_003": "那珂川市", "A29_004": 5, "A29_005": "第一種住居地域", "A29_006": 60, "A29_007": 200, "A29_008": null }, "geometry": { "type": "Polygon", "coordinates": [ [ [ 130.425563694, 33.527920583 ], [ 130.42578847199999, 33.527915111 ], [ 130.426001070000012, 33.52794998 ], [ 130.426052249, 33.527811169 ], [ 130.425910554000012, 33.527792747 ], [ 130.426003481, 33.527580461 ], [ 130.425813697, 33.527513157 ], [ 130.42618536099999, 33.526959667 ], [ 130.42640219399999, 33.526475694 ], [ 130.426463750000011, 33.526397944 ], [ 130.426529972, 33.526358694 ], [ 130.426572861000011, 33.526303722 ], [ 130.42658798799999, 33.526189406 ], [ 130.426570972, 33.5260265 ], [ 130.426551389, 33.525958194 ], [ 130.426752861000011, 33.525938556 ], [ 130.426938889000013, 33.525933056 ], [ 130.427010278000012, 33.525923056 ], [ 130.42699163899999, 33.525827056 ], [ 130.426938471999989, 33.525724194 ], [ 130.426839183, 33.525576201 ], [ 130.42671275, 33.525347278 ], [ 130.42665677799999, 33.525272667 ], [ 130.426483472, 33.525151 ], [ 130.426187139, 33.524951056 ], [ 130.425953472, 33.524750472 ], [ 130.425827083, 33.524591306 ], [ 130.425752444000011, 33.524396583 ], [ 130.425746554999989, 33.52430972 ], [ 130.425698361, 33.524107639 ], [ 130.425661056, 33.523964722 ], [ 130.425593916999986, 33.523876778 ], [ 130.42550798799999, 33.523828885 ], [ 130.425699056000013, 33.523339887 ], [ 130.4256121, 33.523182742 ], [ 130.425477269, 33.522970759 ], [ 130.42535539299999, 33.522794864 ], [ 130.425266337000011, 33.522356672 ], [ 130.425277413, 33.52217579 ], [ 130.42529140900001, 33.5219472 ], [ 130.425335737000012, 33.521704861 ], [ 130.425520672, 33.521304924 ], [ 130.425963518, 33.520667614 ], [ 130.426204969999986, 33.520334737 ], [ 130.426364221, 33.520010892 ], [ 130.426634917, 33.520101333 ], [ 130.42743380600001, 33.520370722 ], [ 130.429730667, 33.521131639 ], [ 130.432678083000013, 33.522106944 ], [ 130.43390195500001, 33.522518372 ], [ 130.434130614999987, 33.522643007 ], [ 130.434261195, 33.522522552 ], [ 130.434350309, 33.522417462 ], [ 130.43449694, 33.522295915 ], [ 130.4346285, 33.522176444 ], [ 130.434702033, 33.522131108 ], [ 130.434709808, 33.521986692 ], [ 130.434678026, 33.521903997 ], [ 130.434637925, 33.521628799 ], [ 130.43455194, 33.521242187 ], [ 130.434567042, 33.521016045 ], [ 130.43460701, 33.520937 ], [ 130.434772009999989, 33.520698 ], [ 130.43497101, 33.52048 ], [ 130.43507301, 33.520351 ], [ 130.435190010000014, 33.520229 ], [ 130.43528401, 33.520113 ], [ 130.435354632000013, 33.5199745 ], [ 130.435424745, 33.519873533 ], [ 130.435465722, 33.519789639 ], [ 130.435526591000013, 33.519689652 ], [ 130.435604729, 33.519542563 ], [ 130.435707552, 33.519351378 ], [ 130.435765505, 33.519221671 ], [ 130.435813423000013, 33.519073834 ], [ 130.435862286, 33.518899195 ], [ 130.435693422000014, 33.518844346 ], [ 130.435568611, 33.51904625 ], [ 130.435091435, 33.518862224 ], [ 130.434952199, 33.519177687 ], [ 130.43480414199999, 33.519138254 ], [ 130.434702875, 33.519386106 ], [ 130.434702652999988, 33.51938604 ], [ 130.43469900299999, 33.519394951 ], [ 130.433953806, 33.519162278 ], [ 130.434056744, 33.518940911 ], [ 130.433921645999988, 33.518937564 ], [ 130.433987863999988, 33.518271577 ], [ 130.43444459, 33.51833654 ], [ 130.434501551000011, 33.517932605 ], [ 130.433612944, 33.517811972 ], [ 130.43358903, 33.517877213 ], [ 130.433024515999989, 33.517741024 ], [ 130.43274382199999, 33.518527514 ], [ 130.432691516, 33.51867407 ], [ 130.432097728, 33.518589361 ], [ 130.431260888999986, 33.521072806 ], [ 130.429707638999986, 33.520551083 ], [ 130.425709417, 33.519236333 ], [ 130.42531513899999, 33.519167 ], [ 130.424691139, 33.518958639 ], [ 130.424226389000012, 33.518810528 ], [ 130.423932279000013, 33.518722917 ], [ 130.4232735, 33.518497167 ], [ 130.423227722, 33.518266 ], [ 130.422992306, 33.516780556 ], [ 130.422913716000011, 33.515986858 ], [ 130.42224468, 33.515989595 ], [ 130.422235968, 33.515934239 ], [ 130.42159052400001, 33.51589989 ], [ 130.42172922200001, 33.517150944 ], [ 130.421829194, 33.518039167 ], [ 130.420798917000013, 33.517777677 ], [ 130.41995956, 33.51756604 ], [ 130.419608528, 33.51748175 ], [ 130.418914027999989, 33.517362833 ], [ 130.418509840000013, 33.517307905 ], [ 130.417696662, 33.517160985 ], [ 130.417381471999988, 33.517105056 ], [ 130.418052389, 33.516341861 ], [ 130.4187809, 33.51578115 ], [ 130.41915483, 33.51544761 ], [ 130.41944238, 33.51520467 ], [ 130.41972388, 33.51500959 ], [ 130.419863185, 33.514928909 ], [ 130.420086389, 33.515011667 ], [ 130.42077766700001, 33.515175639 ], [ 130.420974194, 33.514882472 ], [ 130.421503444, 33.514889722 ], [ 130.421445648, 33.514151635 ], [ 130.421563595, 33.514136686 ], [ 130.421534205, 33.513846471 ], [ 130.421426610999987, 33.513842111 ], [ 130.421393861000013, 33.513555444 ], [ 130.421822787999986, 33.513851047 ], [ 130.422188315, 33.513878021 ], [ 130.422135442000013, 33.513462421 ], [ 130.422466896, 33.513446819 ], [ 130.422524876000011, 33.513919175 ], [ 130.422705271000012, 33.513937998 ], [ 130.422705259, 33.513937878 ], [ 130.422603114999987, 33.512932167 ], [ 130.42235280599999, 33.510537111 ], [ 130.42218767, 33.5087759 ], [ 130.422174289999987, 33.50866968 ], [ 130.42228107, 33.50849323 ], [ 130.422316669999987, 33.50843442 ], [ 130.42230286, 33.50839307 ], [ 130.42217641, 33.5083512 ], [ 130.422155589999988, 33.50830392 ], [ 130.42214895, 33.5082449 ], [ 130.42253998000001, 33.50767462 ], [ 130.422631849999988, 33.50762196 ], [ 130.42270933, 33.50761643 ], [ 130.423243219999989, 33.50779585 ], [ 130.423462889, 33.507402917 ], [ 130.425178194000011, 33.508373472 ], [ 130.42519525, 33.508319167 ], [ 130.425310583, 33.508197639 ], [ 130.425351971999987, 33.508013167 ], [ 130.425448194000012, 33.507847472 ], [ 130.425581670000014, 33.50764747 ], [ 130.425727222, 33.507412833 ], [ 130.425802721999986, 33.507335694 ], [ 130.425847631000011, 33.507273629 ], [ 130.426002635, 33.50707708 ], [ 130.42561712, 33.50686534 ], [ 130.425965694000013, 33.506442611 ], [ 130.42525922199999, 33.505861278 ], [ 130.425191417, 33.505801 ], [ 130.425028088, 33.505713573 ], [ 130.424915206, 33.505666111 ], [ 130.424808025, 33.505615504 ], [ 130.424705694000011, 33.505567333 ], [ 130.424513362999988, 33.505577663 ], [ 130.42439547699999, 33.505606939 ], [ 130.424262163, 33.505654294 ], [ 130.42418176000001, 33.505687125 ], [ 130.424155176, 33.505699687 ], [ 130.42414377, 33.50571033 ], [ 130.424130784, 33.505724311 ], [ 130.424128349, 33.505749038 ], [ 130.42410258000001, 33.50587259 ], [ 130.42404797, 33.50604039 ], [ 130.42398705, 33.50615214 ], [ 130.423589528, 33.506496611 ], [ 130.423455528, 33.506433361 ], [ 130.423172833, 33.506303194 ], [ 130.423030278, 33.506240139 ], [ 130.4229278, 33.506216639 ], [ 130.42308116000001, 33.50603752 ], [ 130.423107783, 33.506021796 ], [ 130.42315351900001, 33.506017183 ], [ 130.42327065, 33.50600605 ], [ 130.42344187, 33.50595416 ], [ 130.423667317, 33.505874969 ], [ 130.42348546, 33.50568566 ], [ 130.42343293, 33.50571078 ], [ 130.423379157999989, 33.505746505 ], [ 130.423345759999989, 33.505759035 ], [ 130.423319991999989, 33.505762721 ], [ 130.423242705, 33.505771241 ], [ 130.423014042, 33.505771445 ], [ 130.422764002, 33.50579819 ], [ 130.422633573000013, 33.505828028 ], [ 130.422506424, 33.505819824 ], [ 130.422403757000012, 33.505773676 ], [ 130.42230999099999, 33.505755478 ], [ 130.422222111999986, 33.50576268 ], [ 130.42199192699999, 33.505764144 ], [ 130.42184046599999, 33.505768511 ], [ 130.421767663, 33.505785932 ], [ 130.421594445000011, 33.505873926 ], [ 130.421466048000013, 33.506053467 ], [ 130.421194727999989, 33.505864447 ], [ 130.42091735299999, 33.505675398 ], [ 130.420627577, 33.505529423 ], [ 130.42039223099999, 33.505396388 ], [ 130.420187340000012, 33.505238123 ], [ 130.420033783, 33.505102933 ], [ 130.419871715999989, 33.504881437 ], [ 130.41976415, 33.50467598 ], [ 130.41963897, 33.5043953 ], [ 130.41958026, 33.50417656 ], [ 130.41957525, 33.50392445 ], [ 130.41961701, 33.50367817 ], [ 130.41975964, 33.50334834 ], [ 130.41993538, 33.50306347 ], [ 130.42006358, 33.50289041 ], [ 130.42021165, 33.50274546 ], [ 130.4204332, 33.50261205 ], [ 130.42062762, 33.50253454 ], [ 130.4207884, 33.50249048 ], [ 130.420730556, 33.502306389 ], [ 130.42064472199999, 33.502283694 ], [ 130.42034311099999, 33.502095833 ], [ 130.42000968, 33.50194906 ], [ 130.42007756000001, 33.50179813 ], [ 130.42013153, 33.50172556 ], [ 130.42046808, 33.50139103 ], [ 130.420631528, 33.5011645 ], [ 130.4202502, 33.50097548 ], [ 130.42052146, 33.50040537 ], [ 130.42041486, 33.50034885 ], [ 130.42068554, 33.49986277 ], [ 130.42116309799999, 33.499569407 ], [ 130.421349252, 33.499699821 ], [ 130.42145627799999, 33.49970475 ], [ 130.421765, 33.499746167 ], [ 130.422176444, 33.499838083 ], [ 130.42223958299999, 33.499864194 ], [ 130.422503917, 33.4998795 ], [ 130.422810610999989, 33.499951972 ], [ 130.423294972, 33.500071194 ], [ 130.423334089, 33.500164906 ], [ 130.424204494, 33.50014808 ], [ 130.42416972, 33.49977257 ], [ 130.42413736, 33.49960997 ], [ 130.42408488, 33.49945848 ], [ 130.42380777, 33.49889701 ], [ 130.42366911, 33.49863309 ], [ 130.423463410000011, 33.49839686 ], [ 130.42323099, 33.49815489 ], [ 130.422945270000014, 33.49788468 ], [ 130.422772110000011, 33.49778304 ], [ 130.42241857, 33.49765815 ], [ 130.42217832, 33.49758981 ], [ 130.4219848, 33.49753289 ], [ 130.42179819, 33.49744239 ], [ 130.4215718, 33.49730129 ], [ 130.42131969, 33.497099001 ], [ 130.421279056, 33.497131806 ], [ 130.421157432, 33.497249206 ], [ 130.421086056, 33.497315694 ], [ 130.421035167000014, 33.497321056 ], [ 130.42096730599999, 33.497304972 ], [ 130.420751, 33.497188917 ], [ 130.420560139, 33.497001472 ], [ 130.420471083, 33.496937194 ], [ 130.42040111099999, 33.496894333 ], [ 130.42012330599999, 33.496817583 ], [ 130.420030744, 33.496817053 ], [ 130.419877332999988, 33.496812222 ], [ 130.41966313899999, 33.496821139 ], [ 130.419909166999986, 33.497390556 ], [ 130.420049083, 33.497715556 ], [ 130.420046944, 33.497822667 ], [ 130.41996850000001, 33.497910167 ], [ 130.419896389, 33.498052972 ], [ 130.419858221999988, 33.498160111 ], [ 130.419830667000014, 33.498349333 ], [ 130.419831389, 33.498542722 ], [ 130.41984761099999, 33.498908139 ], [ 130.419835333, 33.499030861 ], [ 130.41981958299999, 33.49917 ], [ 130.419796389, 33.499325694 ], [ 130.41973773399999, 33.499615119 ], [ 130.419646968, 33.49980659 ], [ 130.419456110999988, 33.500113 ], [ 130.41930775, 33.500427806 ], [ 130.41928983299999, 33.500490028 ], [ 130.419279528, 33.500525861 ], [ 130.418959556, 33.500820083 ], [ 130.418922778, 33.500894389 ], [ 130.418881389, 33.501008972 ], [ 130.418835, 33.50111 ], [ 130.418705639, 33.501304778 ], [ 130.41867008299999, 33.501396667 ], [ 130.418690575, 33.501545735 ], [ 130.418705639, 33.501641306 ], [ 130.418768167, 33.501819861 ], [ 130.41890489299999, 33.501972806 ], [ 130.41896433299999, 33.502040778 ], [ 130.418998710000011, 33.50214599 ], [ 130.419023261, 33.502346821 ], [ 130.41868548, 33.502341394 ], [ 130.418801660000014, 33.50261562 ], [ 130.41883445, 33.502711 ], [ 130.41885317, 33.50291275 ], [ 130.418884420000012, 33.5032378 ], [ 130.4188025, 33.50359657 ], [ 130.418678231, 33.503598971 ], [ 130.41855818499999, 33.503673475 ], [ 130.418390557, 33.50378554 ], [ 130.418208816, 33.503894273 ], [ 130.41813881600001, 33.503911903 ], [ 130.418000135999989, 33.503909941 ], [ 130.417917448999987, 33.503884038 ], [ 130.417796772, 33.503825894 ], [ 130.417674072000011, 33.503724484 ], [ 130.417574497, 33.503572981 ], [ 130.417528677, 33.50351074 ], [ 130.417435941, 33.503349222 ], [ 130.417302471999989, 33.503215451 ], [ 130.41662063199999, 33.503200139 ], [ 130.41639758, 33.503282605 ], [ 130.416245589999988, 33.50331277 ], [ 130.41612089, 33.5035329 ], [ 130.41609412, 33.50357544 ], [ 130.41603545699999, 33.503597419 ], [ 130.415888542, 33.503609401 ], [ 130.41581931499999, 33.503608242 ], [ 130.415781253, 33.503628157 ], [ 130.41567147, 33.50374365 ], [ 130.415563459999987, 33.50389439 ], [ 130.41553617, 33.50397549 ], [ 130.415482340000011, 33.50402565 ], [ 130.41537519900001, 33.504119156 ], [ 130.415516179, 33.504280235 ], [ 130.415567361, 33.50435875 ], [ 130.415574666999987, 33.504420722 ], [ 130.415582333, 33.504485778 ], [ 130.41555129, 33.50457701 ], [ 130.415536333, 33.504628111 ], [ 130.41536547199999, 33.504857361 ], [ 130.415297694, 33.504941611 ], [ 130.415090111000012, 33.505114583 ], [ 130.415036582999988, 33.505220889 ], [ 130.41501413899999, 33.505310083 ], [ 130.415212083, 33.505580361 ], [ 130.415300699999989, 33.50555917 ], [ 130.415366194, 33.505543417 ], [ 130.415430522, 33.505540327 ], [ 130.41563155599999, 33.505523611 ], [ 130.415685489, 33.505473659 ], [ 130.415902194000012, 33.505261556 ], [ 130.416015307, 33.505152536 ], [ 130.416159111000013, 33.505012806 ], [ 130.41628042, 33.5050003 ], [ 130.416575389, 33.504953333 ], [ 130.416686357, 33.504990426 ], [ 130.416927415, 33.505064981 ], [ 130.418621785, 33.505591499 ], [ 130.420146278, 33.506075861 ], [ 130.420163871999989, 33.506197854 ], [ 130.42008513799999, 33.506474225 ], [ 130.419882488000013, 33.5069695 ], [ 130.41998888, 33.50704146 ], [ 130.41989514299999, 33.507281079 ], [ 130.419819780000012, 33.5074757 ], [ 130.419741778, 33.507679472 ], [ 130.419560913, 33.507893625 ], [ 130.41916286099999, 33.508326306 ], [ 130.419028669999989, 33.5081989 ], [ 130.419019472, 33.508104694 ], [ 130.41898630599999, 33.508055139 ], [ 130.418812944, 33.507927194 ], [ 130.418733010000011, 33.50803922 ], [ 130.418685638999989, 33.508000194 ], [ 130.41843930600001, 33.507943444 ], [ 130.418265628, 33.507976693 ], [ 130.41798425799999, 33.507816938 ], [ 130.417797137, 33.507767236 ], [ 130.4176732, 33.50775249 ], [ 130.417580570000013, 33.50779626 ], [ 130.41731880399999, 33.507921075 ], [ 130.41723621, 33.50812121 ], [ 130.417269111, 33.508232611 ], [ 130.41734258299999, 33.508329917 ], [ 130.41740604899999, 33.508454434 ], [ 130.41729997499999, 33.508649092 ], [ 130.417431115, 33.508755464 ], [ 130.417618242, 33.5089652 ], [ 130.417626242000011, 33.509099432 ], [ 130.41765605099999, 33.50916667 ], [ 130.417746085, 33.509277431 ], [ 130.417839679, 33.509388208 ], [ 130.41792833400001, 33.509439321 ], [ 130.418116891000011, 33.509456608 ], [ 130.418346664000012, 33.509432339 ], [ 130.418494513000013, 33.509415141 ], [ 130.418844919, 33.509451079 ], [ 130.418994459, 33.509447307 ], [ 130.418984564, 33.509346895 ], [ 130.41936292599999, 33.509489119 ], [ 130.419701601000014, 33.509611633 ], [ 130.41958544, 33.50975579 ], [ 130.41957822, 33.50982049 ], [ 130.41961864000001, 33.50985673 ], [ 130.419590410000012, 33.50999889 ], [ 130.41955995699999, 33.510058307 ], [ 130.419740673, 33.510157112 ], [ 130.419907905, 33.51025657 ], [ 130.42021245399999, 33.510368692 ], [ 130.420346402, 33.510439935 ], [ 130.420550389999988, 33.510599299 ], [ 130.420961436, 33.51079971 ], [ 130.421507639, 33.511053083 ], [ 130.419903333, 33.513836917 ], [ 130.418929276, 33.513272739 ], [ 130.418896404, 33.513314601 ], [ 130.418823221999986, 33.513276639 ], [ 130.418665471999986, 33.513252639 ], [ 130.418604667000011, 33.513261028 ], [ 130.41822844399999, 33.513312861 ], [ 130.418242443999986, 33.514096917 ], [ 130.418222667, 33.514293444 ], [ 130.41817895, 33.51442218 ], [ 130.418069222000014, 33.514710556 ], [ 130.417875594, 33.514723231 ], [ 130.41785151, 33.51495146 ], [ 130.417731376, 33.515077295 ], [ 130.41628334, 33.51674887 ], [ 130.41594984, 33.51713067 ], [ 130.41567333, 33.51741247 ], [ 130.41544647, 33.51764142 ], [ 130.41509219, 33.51797004 ], [ 130.41473806, 33.51827507 ], [ 130.41421367, 33.51876802 ], [ 130.413659919999986, 33.51943777 ], [ 130.41327603, 33.51997857 ], [ 130.412855194, 33.520716944 ], [ 130.412728778, 33.520730639 ], [ 130.412367558, 33.521297839 ], [ 130.412319328, 33.521620783 ], [ 130.412247799999989, 33.522119778 ], [ 130.412238419, 33.522283469 ], [ 130.411957667, 33.522332917 ], [ 130.411716302, 33.522500899 ], [ 130.41161600800001, 33.522811037 ], [ 130.411432765, 33.523119351 ], [ 130.411578475, 33.523306126 ], [ 130.411645333, 33.523430694 ], [ 130.41169917799999, 33.523537146 ], [ 130.411735222, 33.523606583 ], [ 130.411835360999987, 33.523710611 ], [ 130.411960139, 33.523776333 ], [ 130.412009885, 33.523865221 ], [ 130.412162639, 33.524138167 ], [ 130.412253111000012, 33.524245917 ], [ 130.412302958, 33.524291021 ], [ 130.412399806, 33.52437225 ], [ 130.412522722, 33.52441625 ], [ 130.412489666999988, 33.523851889 ], [ 130.412770669, 33.523811927 ], [ 130.41277279, 33.52359166 ], [ 130.413386016, 33.523471212 ], [ 130.41333872199999, 33.523145806 ], [ 130.413451888999987, 33.523135667 ], [ 130.413552339, 33.52306478 ], [ 130.41387475, 33.52282675 ], [ 130.41370043399999, 33.522665874 ], [ 130.413465639, 33.522467444 ], [ 130.413255528, 33.522336028 ], [ 130.413391778, 33.522173139 ], [ 130.413536670000013, 33.52205 ], [ 130.41366481, 33.52184418 ], [ 130.413730611, 33.5216245 ], [ 130.413736363999988, 33.521451801 ], [ 130.413757722000014, 33.521432806 ], [ 130.413741278, 33.521210972 ], [ 130.413830383, 33.521187883 ], [ 130.41396324199999, 33.521152726 ], [ 130.414164167, 33.521106889 ], [ 130.41422251, 33.521049615 ], [ 130.414310306, 33.520960389 ], [ 130.414403943999986, 33.5209305 ], [ 130.41445277, 33.52090422 ], [ 130.414495460000012, 33.52083955 ], [ 130.41452403, 33.52078071 ], [ 130.41453886, 33.52066871 ], [ 130.41453934, 33.52059794 ], [ 130.41460335, 33.52050387 ], [ 130.414674350000013, 33.52041573 ], [ 130.41473844, 33.52030987 ], [ 130.41474628, 33.52019195 ], [ 130.414854139, 33.520201972 ], [ 130.415025861, 33.520126194 ], [ 130.41517425, 33.520044778 ], [ 130.41532047199999, 33.519995 ], [ 130.415385406000013, 33.519924486 ], [ 130.415426028000013, 33.519880528 ], [ 130.415309589, 33.519551804 ], [ 130.415379453000014, 33.519327879 ], [ 130.41605898, 33.518658322 ], [ 130.416560839, 33.518167957 ], [ 130.416895055999987, 33.518375639 ], [ 130.416972285000014, 33.518382481 ], [ 130.41701493299999, 33.518374832 ], [ 130.41704761299999, 33.518357226 ], [ 130.417087186, 33.518328234 ], [ 130.417167869999986, 33.51819805 ], [ 130.41722013899999, 33.518118848 ], [ 130.41741362799999, 33.51820964 ], [ 130.417570715000011, 33.518229464 ], [ 130.417778274, 33.518197995 ], [ 130.417939854, 33.518227382 ], [ 130.418048887999987, 33.518277517 ], [ 130.418218208000013, 33.518266196 ], [ 130.41848819399999, 33.518413639 ], [ 130.418638167000012, 33.518449917 ], [ 130.418874361, 33.518490556 ], [ 130.419406161000012, 33.518521803 ], [ 130.41993627799999, 33.518555861 ], [ 130.42015002799999, 33.518579083 ], [ 130.420260361, 33.518599417 ], [ 130.420453444, 33.518722778 ], [ 130.420631, 33.518769194 ], [ 130.420820639, 33.518843222 ], [ 130.421012, 33.518939028 ], [ 130.421182667000011, 33.5190435 ], [ 130.421248166999987, 33.519116083 ], [ 130.421324389, 33.519139278 ], [ 130.421534333000011, 33.519203167 ], [ 130.422179083, 33.519332333 ], [ 130.422160111000011, 33.519480361 ], [ 130.421975667, 33.520052167 ], [ 130.422568667, 33.52016975 ], [ 130.422636028, 33.520183111 ], [ 130.422679499999987, 33.52058896 ], [ 130.422668969999989, 33.52111383 ], [ 130.422689389999988, 33.5212201 ], [ 130.42280628, 33.52164529 ], [ 130.42440339800001, 33.52766886 ], [ 130.42436833799999, 33.527754422 ], [ 130.42427959, 33.52778017 ], [ 130.424194717, 33.52783356 ], [ 130.424149949, 33.528151187 ], [ 130.42409611, 33.52846778 ], [ 130.42422736099999, 33.528519133 ], [ 130.42432030099999, 33.528607877 ], [ 130.42439384799999, 33.528842182 ], [ 130.424415011, 33.52904836 ], [ 130.424440363, 33.52923676 ], [ 130.424507221999988, 33.529458976 ], [ 130.42460945900001, 33.529586697 ], [ 130.42475373, 33.529733345 ], [ 130.424916432, 33.529891701 ], [ 130.425325805, 33.530015748 ], [ 130.425492279999986, 33.53001238 ], [ 130.42508913899999, 33.527972139 ], [ 130.42527475, 33.527951972 ], [ 130.425563694, 33.527920583 ] ], [ [ 130.423648829, 33.523957678 ], [ 130.423633223, 33.523905223 ], [ 130.423793472, 33.523952778 ], [ 130.423848028, 33.523958472 ], [ 130.424009777, 33.523923526 ], [ 130.42407144399999, 33.52391 ], [ 130.42414083, 33.52384035 ], [ 130.42432986599999, 33.523928502 ], [ 130.424453355, 33.523958395 ], [ 130.424534918, 33.523966383 ], [ 130.425228688, 33.526436644 ], [ 130.424785861, 33.526567 ], [ 130.424687240999987, 33.526597452 ], [ 130.424627278, 33.526450389 ], [ 130.424485167, 33.526281639 ], [ 130.424444222, 33.526259833 ], [ 130.424365778, 33.526236139 ], [ 130.424221738999989, 33.526187665 ], [ 130.423648829, 33.523957678 ] ] ] } },
{ "type": "Feature", "properties": { "A29_001": "40231", "A29_002": "福岡県", "A29_003": "那珂川市", "A29_004": 8, "A29_005": "近隣商業地域", "A29_006": 80, "A29_007": 200, "A29_008": null }, "geometry": { "type": "Polygon", "coordinates": [ [ [ 130.424181111, 33.516741167 ], [ 130.424080041, 33.515744629 ], [ 130.42405972200001, 33.515533056 ], [ 130.424041778, 33.515472361 ], [ 130.424071475, 33.515383779 ], [ 130.424115801, 33.515237348 ], [ 130.424158, 33.515116806 ], [ 130.424044, 33.515105556 ], [ 130.423395, 33.515037444 ], [ 130.423324028, 33.514490333 ], [ 130.422932901, 33.514453883 ], [ 130.422967494, 33.51418054 ], [ 130.422725861, 33.514171552 ], [ 130.42275172, 33.513943056 ], [ 130.422751761, 33.5139427 ], [ 130.422705259, 33.513937878 ], [ 130.422705271000012, 33.513937998 ], [ 130.422524876000011, 33.513919175 ], [ 130.422466896, 33.513446819 ], [ 130.422135442000013, 33.513462421 ], [ 130.422188315, 33.513878021 ], [ 130.421822787999986, 33.513851047 ], [ 130.421393861000013, 33.513555444 ], [ 130.421426610999987, 33.513842111 ], [ 130.421534205, 33.513846471 ], [ 130.421563595, 33.514136686 ], [ 130.421445648, 33.514151635 ], [ 130.421503444, 33.514889722 ], [ 130.421519571, 33.515077419 ], [ 130.42159052400001, 33.51589989 ], [ 130.422235968, 33.515934239 ], [ 130.42224468, 33.515989595 ], [ 130.422913716000011, 33.515986858 ], [ 130.422992306, 33.516780556 ], [ 130.4236055, 33.516770278 ], [ 130.424181111, 33.516741167 ] ] ] } },
{ "type": "Feature", "properties": { "A29_001": "40231", "A29_002": "福岡県", "A29_003": "那珂川市", "A29_004": 8, "A29_005": "近隣商業地域", "A29_006": 80, "A29_007": 300, "A29_008": null }, "geometry": { "type": "Polygon", "coordinates": [ [ [ 130.433249625, 33.517059602 ], [ 130.433024515999989, 33.517741024 ], [ 130.43358903, 33.517877213 ], [ 130.433612944, 33.517811972 ], [ 130.434501551000011, 33.517932605 ], [ 130.43444459, 33.51833654 ], [ 130.433987863999988, 33.518271577 ], [ 130.433921645999988, 33.518937564 ], [ 130.434056744, 33.518940911 ], [ 130.433953806, 33.519162278 ], [ 130.43469900299999, 33.519394951 ], [ 130.434702652999988, 33.51938604 ], [ 130.43470287400001, 33.519386106 ], [ 130.43480414199999, 33.519138254 ], [ 130.434952199, 33.519177687 ], [ 130.435091435, 33.518862224 ], [ 130.435568611, 33.51904625 ], [ 130.435693422000014, 33.518844346 ], [ 130.435862286, 33.518899195 ], [ 130.436101667, 33.518706389 ], [ 130.43596858399999, 33.518559072 ], [ 130.43606778, 33.518168104 ], [ 130.43626688, 33.518122365 ], [ 130.436368578000014, 33.517761263 ], [ 130.436255933000012, 33.517625843 ], [ 130.436272632, 33.517505547 ], [ 130.436328831, 33.517223792 ], [ 130.436383056000011, 33.517062 ], [ 130.435290275999989, 33.516807635 ], [ 130.435390606, 33.516022247 ], [ 130.434835189000012, 33.515931 ], [ 130.43464392199999, 33.517074773 ], [ 130.433883417, 33.516991778 ], [ 130.433837094000012, 33.517140403 ], [ 130.43360628, 33.5170677 ], [ 130.43355963799999, 33.517147757 ], [ 130.433249625, 33.517059602 ] ] ] } },
{ "type": "Feature", "properties": { "A29_001": "40231", "A29_002": "福岡県", "A29_003": "那珂川市", "A29_004": 8, "A29_005": "近隣商業地域", "A29_006": 80, "A29_007": 200, "A29_008": null }, "geometry": { "type": "Polygon", "coordinates": [ [ [ 130.424534918, 33.523966383 ], [ 130.424453355, 33.523958395 ], [ 130.42432986599999, 33.523928502 ], [ 130.42414083, 33.52384035 ], [ 130.42407144399999, 33.52391 ], [ 130.424009777, 33.523923526 ], [ 130.423848028, 33.523958472 ], [ 130.423793472, 33.523952778 ], [ 130.423633223, 33.523905223 ], [ 130.423648829, 33.523957678 ], [ 130.424221738999989, 33.526187665 ], [ 130.424365778, 33.526236139 ], [ 130.424444222, 33.526259833 ], [ 130.424485167, 33.526281639 ], [ 130.424627278, 33.526450389 ], [ 130.424687240999987, 33.526597452 ], [ 130.424785861, 33.526567 ], [ 130.425228688, 33.526436644 ], [ 130.424534918, 33.523966383 ] ] ] } },
{ "type": "Feature", "properties": { "A29_001": "40231", "A29_002": "福岡県", "A29_003": "那珂川市", "A29_004": 10, "A29_005": "準工業地域", "A29_006": 60, "A29_007": 200, "A29_008": null }, "geometry": { "type": "Polygon", "coordinates": [ [ [ 130.441201111, 33.509835722 ], [ 130.44129758, 33.509512104 ], [ 130.44140969599999, 33.509238255 ], [ 130.441575570999987, 33.508907988 ], [ 130.441755511999986, 33.508604623 ], [ 130.44203987, 33.508116838 ], [ 130.442358297999988, 33.507574558 ], [ 130.44236607, 33.50748136 ], [ 130.44230066, 33.50740634 ], [ 130.442215479999987, 33.5072966 ], [ 130.44211024, 33.50710332 ], [ 130.441868860999989, 33.506721417 ], [ 130.44173964399999, 33.506439803 ], [ 130.441605194, 33.506269167 ], [ 130.441482028, 33.50615925 ], [ 130.44120758299999, 33.505977278 ], [ 130.441107111, 33.505935861 ], [ 130.441010944, 33.505896194 ], [ 130.44088996799999, 33.505865925 ], [ 130.440745431000011, 33.505828077 ], [ 130.44057441699999, 33.505806111 ], [ 130.440148693999987, 33.5058115 ], [ 130.43990578899999, 33.505828185 ], [ 130.43908772, 33.50863501 ], [ 130.43813807699999, 33.511768546 ], [ 130.4373535, 33.514460306 ], [ 130.437228648, 33.51488179 ], [ 130.436872443999988, 33.516064472 ], [ 130.436801081, 33.516223679 ], [ 130.436778111, 33.5163655 ], [ 130.436691778000011, 33.516666667 ], [ 130.43709001, 33.516481 ], [ 130.43723905600001, 33.516351152 ], [ 130.437354269, 33.516122575 ], [ 130.437378763, 33.516082091 ], [ 130.43741532300001, 33.516049274 ], [ 130.43744883799999, 33.51601898 ], [ 130.437479290999988, 33.515993746 ], [ 130.437597533, 33.515976522 ], [ 130.43772902, 33.515927 ], [ 130.437758589999987, 33.515896063 ], [ 130.43776937199999, 33.515868203 ], [ 130.437738126999989, 33.515781796 ], [ 130.437748876, 33.51575901 ], [ 130.437768662, 33.515743877 ], [ 130.437794513999989, 33.515727503 ], [ 130.438061745999988, 33.515622153 ], [ 130.438119019999988, 33.515502 ], [ 130.438206197, 33.515361718 ], [ 130.43849032899999, 33.514367303 ], [ 130.43853393399999, 33.514296229 ], [ 130.438588552, 33.514281253 ], [ 130.43864926, 33.514261231 ], [ 130.438761655, 33.514210996 ], [ 130.438876915, 33.514186146 ], [ 130.439038462000013, 33.514160305 ], [ 130.439149756, 33.514149324 ], [ 130.439430356, 33.514146153 ], [ 130.439516426000012, 33.514123074 ], [ 130.439553001, 33.514087719 ], [ 130.439813168, 33.513178019 ], [ 130.439846831000011, 33.513143941 ], [ 130.43986358699999, 33.513128794 ], [ 130.439930319000013, 33.513113872 ], [ 130.440023450000012, 33.513066979 ], [ 130.440086235, 33.51302358 ], [ 130.440097009999988, 33.513008 ], [ 130.44028990000001, 33.51275885 ], [ 130.440385176, 33.512596063 ], [ 130.440465756, 33.512315541 ], [ 130.440596156, 33.511859137 ], [ 130.441046389, 33.51018075 ], [ 130.441201111, 33.509835722 ] ] ] } },
{ "type": "Feature", "properties": { "A29_001": "40231", "A29_002": "福岡県", "A29_003": "那珂川市", "A29_004": 10, "A29_005": "準工業地域", "A29_006": 60, "A29_007": 200, "A29_008": null }, "geometry": { "type": "Polygon", "coordinates": [ [ [ 130.42689101, 33.530017 ], [ 130.426941887999988, 33.529570881 ], [ 130.427039377999989, 33.529129212 ], [ 130.427171894999987, 33.528703315 ], [ 130.427325427999989, 33.528286882 ], [ 130.427457836, 33.527863962 ], [ 130.42763941699999, 33.527358811 ], [ 130.427766924999986, 33.526873179 ], [ 130.427846390000013, 33.526538359 ], [ 130.42790399399999, 33.526217898 ], [ 130.427952801, 33.525944907 ], [ 130.427954226, 33.525703524 ], [ 130.42794006, 33.5255005 ], [ 130.427909354, 33.525362636 ], [ 130.427776591999987, 33.525141601 ], [ 130.427658266, 33.525016628 ], [ 130.427548707999989, 33.524894689 ], [ 130.427472913, 33.524824257 ], [ 130.427379973, 33.524735515 ], [ 130.427269994, 33.524625487 ], [ 130.42718103199999, 33.524524923 ], [ 130.427116219999988, 33.524445821 ], [ 130.427112177, 33.524383685 ], [ 130.427183758000012, 33.524327356 ], [ 130.427268066000011, 33.524230828 ], [ 130.427430527000013, 33.523934853 ], [ 130.427528438, 33.523773079 ], [ 130.427720294000011, 33.523618896 ], [ 130.428129151, 33.523384602 ], [ 130.428329676, 33.523211373 ], [ 130.428554319, 33.522835471 ], [ 130.428644528, 33.522862667 ], [ 130.428812556, 33.522385556 ], [ 130.429576889, 33.522638444 ], [ 130.43081131299999, 33.523049523 ], [ 130.430999667, 33.523110389 ], [ 130.431450799, 33.523330645 ], [ 130.43173502799999, 33.523456528 ], [ 130.432093333000012, 33.523562528 ], [ 130.432249305999989, 33.523599528 ], [ 130.43237916699999, 33.523671111 ], [ 130.432842139, 33.523945889 ], [ 130.432930972, 33.523839556 ], [ 130.433048926999987, 33.523698116 ], [ 130.43319752799999, 33.5235205 ], [ 130.433498581, 33.52320854 ], [ 130.43364116699999, 33.523066611 ], [ 130.4337995, 33.522963833 ], [ 130.433827306000012, 33.522858 ], [ 130.43397582099999, 33.522794156 ], [ 130.434130614999987, 33.522643007 ], [ 130.43390195500001, 33.522518372 ], [ 130.432678083000013, 33.522106944 ], [ 130.429730667, 33.521131639 ], [ 130.42743380600001, 33.520370722 ], [ 130.426634917, 33.520101333 ], [ 130.426364221, 33.520010892 ], [ 130.426204969999986, 33.520334737 ], [ 130.425963518, 33.520667614 ], [ 130.425520672, 33.521304924 ], [ 130.425335737000012, 33.521704861 ], [ 130.42529140900001, 33.5219472 ], [ 130.425277413, 33.52217579 ], [ 130.425266337000011, 33.522356672 ], [ 130.42535539299999, 33.522794864 ], [ 130.425477269, 33.522970759 ], [ 130.4256121, 33.523182742 ], [ 130.425699056000013, 33.523339887 ], [ 130.42550798799999, 33.523828885 ], [ 130.425593916999986, 33.523876778 ], [ 130.425661056, 33.523964722 ], [ 130.425698361, 33.524107639 ], [ 130.425746554999989, 33.52430972 ], [ 130.425752444000011, 33.524396583 ], [ 130.425827083, 33.524591306 ], [ 130.425953472, 33.524750472 ], [ 130.426187139, 33.524951056 ], [ 130.426483472, 33.525151 ], [ 130.42665677799999, 33.525272667 ], [ 130.42671275, 33.525347278 ], [ 130.426839183, 33.525576201 ], [ 130.426938471999989, 33.525724194 ], [ 130.42699163899999, 33.525827056 ], [ 130.427010278000012, 33.525923056 ], [ 130.426938889000013, 33.525933056 ], [ 130.426752861000011, 33.525938556 ], [ 130.426551389, 33.525958194 ], [ 130.426570972, 33.5260265 ], [ 130.42658798799999, 33.526189406 ], [ 130.426572861000011, 33.526303722 ], [ 130.426529972, 33.526358694 ], [ 130.426463750000011, 33.526397944 ], [ 130.42640219399999, 33.526475694 ], [ 130.42618536099999, 33.526959667 ], [ 130.425813697, 33.527513157 ], [ 130.426003481, 33.527580461 ], [ 130.425910554000012, 33.527792747 ], [ 130.426052249, 33.527811169 ], [ 130.426001070000012, 33.52794998 ], [ 130.42578847199999, 33.527915111 ], [ 130.425563694, 33.527920583 ], [ 130.42527475, 33.527951972 ], [ 130.42508913899999, 33.527972139 ], [ 130.425492279999986, 33.53001238 ], [ 130.425822732, 33.52999515 ], [ 130.426559572, 33.530223772 ], [ 130.426845680000014, 33.530277843 ], [ 130.42689101, 33.530017 ] ] ] } },
{ "type": "Feature", "properties": { "A29_001": "40231", "A29_002": "福岡県", "A29_003": "那珂川市", "A29_004": 8, "A29_005": "近隣商業地域", "A29_006": 80, "A29_007": 200, "A29_008": null }, "geometry": { "type": "Polygon", "coordinates": [ [ [ 130.433024515999989, 33.517741024 ], [ 130.433249625, 33.517059602 ], [ 130.433249663999987, 33.517059483 ], [ 130.433545111, 33.516147056 ], [ 130.433234217, 33.516113756 ], [ 130.432989028, 33.516079861 ], [ 130.432453095, 33.516022897 ], [ 130.43163315000001, 33.51845048 ], [ 130.43160955, 33.518529164 ], [ 130.432097728, 33.518589361 ], [ 130.432691516, 33.51867407 ], [ 130.43274382199999, 33.518527514 ], [ 130.433024515999989, 33.517741024 ] ] ] } }
]
}
