{
"type": "FeatureCollection",
"name": "A29-19_40384",
"features": [
{ "type": "Feature", "properties": { "A29_001": "40384", "A29_002": "福岡県", "A29_003": "遠賀町", "A29_004": 1, "A29_005": "第一種低層住居専用地域", "A29_006": 40, "A29_007": 60, "A29_008": null }, "geometry": { "type": "Polygon", "coordinates": [ [ [ 130.66611346799999, 33.830315666 ], [ 130.666069454, 33.830610587 ], [ 130.666029205, 33.830853212 ], [ 130.666015319, 33.831018876 ], [ 130.666008919, 33.831259116 ], [ 130.665980001, 33.832033609 ], [ 130.66600246199999, 33.832230481 ], [ 130.66603082200001, 33.832747932 ], [ 130.666046698, 33.83280016 ], [ 130.666196509, 33.833328377 ], [ 130.666228913, 33.833725069 ], [ 130.666234118, 33.834224566 ], [ 130.666204547, 33.834477955 ], [ 130.66618514699999, 33.83487227 ], [ 130.666195585999986, 33.834985896 ], [ 130.666196401, 33.834998559 ], [ 130.666285528, 33.834983694 ], [ 130.666666666999987, 33.834913333 ], [ 130.667133056000011, 33.834827222 ], [ 130.667326, 33.834794333 ], [ 130.667336696, 33.834771403 ], [ 130.667378641999989, 33.834681475 ], [ 130.667418472, 33.834596083 ], [ 130.667494940000012, 33.834422332 ], [ 130.66757690899999, 33.834236078 ], [ 130.667577861000012, 33.834233917 ], [ 130.66771119399999, 33.833924028 ], [ 130.667749047, 33.833863 ], [ 130.667807853, 33.83395876 ], [ 130.667843049, 33.834097517 ], [ 130.667853947, 33.834282429 ], [ 130.667851782000014, 33.834611188 ], [ 130.6678537, 33.834638586 ], [ 130.667865341, 33.835418325 ], [ 130.66786284, 33.835678768 ], [ 130.667873243, 33.835760801 ], [ 130.667982639, 33.836117443 ], [ 130.668087598999989, 33.836350693 ], [ 130.66819962299999, 33.836605581 ], [ 130.668318297000013, 33.836873534 ], [ 130.668382481, 33.837025042 ], [ 130.668385507000011, 33.83703289 ], [ 130.668386446, 33.837032544 ], [ 130.668407167, 33.837024917 ], [ 130.668575389000011, 33.836962972 ], [ 130.668764778, 33.836922223 ], [ 130.66886775099999, 33.836911628 ], [ 130.668889404999987, 33.8369094 ], [ 130.66899211099999, 33.836898833 ], [ 130.669355333, 33.836898472 ], [ 130.66959164799999, 33.836895621 ], [ 130.670156856, 33.836888801 ], [ 130.67019071499999, 33.836888807 ], [ 130.67018917199999, 33.836592841 ], [ 130.67018520900001, 33.836229028 ], [ 130.67010350000001, 33.836205111 ], [ 130.669446556, 33.835987083 ], [ 130.66898738899999, 33.835831639 ], [ 130.668841500000013, 33.835783472 ], [ 130.668268719999986, 33.835600652 ], [ 130.668511110999987, 33.835111472 ], [ 130.668726416999988, 33.834634833 ], [ 130.669120107999987, 33.833737707 ], [ 130.669571407, 33.832759349 ], [ 130.669604357, 33.832687123 ], [ 130.6707855, 33.833061083 ], [ 130.671036926, 33.832503815 ], [ 130.6710857, 33.832395711 ], [ 130.67113125, 33.83229475 ], [ 130.671133934000011, 33.832289742 ], [ 130.671240694, 33.832055194 ], [ 130.671678778, 33.831107 ], [ 130.67193483299999, 33.830569556 ], [ 130.67202850000001, 33.830363444 ], [ 130.67178625, 33.830278778 ], [ 130.671592874999988, 33.830217805 ], [ 130.670913222, 33.8300035 ], [ 130.670945237000012, 33.829873462 ], [ 130.67116959399999, 33.829369359 ], [ 130.671358653, 33.828985186 ], [ 130.671360496, 33.82873694 ], [ 130.671366959000011, 33.828215109 ], [ 130.67137268, 33.827887106 ], [ 130.67135943299999, 33.827847559 ], [ 130.671274939, 33.82751857 ], [ 130.671255333, 33.827372472 ], [ 130.67125630000001, 33.827253868 ], [ 130.671269904000013, 33.826966888 ], [ 130.671308583000013, 33.826749528 ], [ 130.671318729, 33.826346019 ], [ 130.671335469000013, 33.826173108 ], [ 130.67140536299999, 33.825881805 ], [ 130.671427857999987, 33.825838998 ], [ 130.67158028899999, 33.825687323 ], [ 130.671309137, 33.825584467 ], [ 130.67087662899999, 33.82539843 ], [ 130.670383251, 33.825246522 ], [ 130.669931757, 33.825120816 ], [ 130.669534809999988, 33.8249796 ], [ 130.669368056, 33.824933389 ], [ 130.669287577, 33.824929734 ], [ 130.669065141, 33.824935101 ], [ 130.66888478199999, 33.82491598 ], [ 130.668527774000012, 33.824841962 ], [ 130.66826014099999, 33.824754765 ], [ 130.668203546, 33.824853155 ], [ 130.667686401999987, 33.825752187 ], [ 130.667476792, 33.826135553 ], [ 130.667436861, 33.826297964 ], [ 130.667393541, 33.826412654 ], [ 130.667281728, 33.826683713 ], [ 130.667137561, 33.827005379 ], [ 130.66710851, 33.827126071 ], [ 130.667060228, 33.827137869 ], [ 130.666963012, 33.827329945 ], [ 130.666921331999987, 33.827481913 ], [ 130.666916926999988, 33.827696605 ], [ 130.666923836, 33.827757754 ], [ 130.666969216000012, 33.828033711 ], [ 130.666970843, 33.828305076 ], [ 130.666944424, 33.828437703 ], [ 130.66688648600001, 33.828635849 ], [ 130.666844841, 33.828778872 ], [ 130.666855328999986, 33.82883854 ], [ 130.666831561, 33.828978629 ], [ 130.666766684, 33.829123081 ], [ 130.666719806, 33.829233288 ], [ 130.66660853799999, 33.829362703 ], [ 130.666455923, 33.829557611 ], [ 130.66632307, 33.829724243 ], [ 130.666274474, 33.829816553 ], [ 130.666213180999989, 33.829958031 ], [ 130.666135432, 33.83019638 ], [ 130.66611346799999, 33.830315666 ] ] ] } },
{ "type": "Feature", "properties": { "A29_001": "40384", "A29_002": "福岡県", "A29_003": "遠賀町", "A29_004": 2, "A29_005": "第二種低層住居専用地域", "A29_006": 50, "A29_007": 80, "A29_008": null }, "geometry": { "type": "Polygon", "coordinates": [ [ [ 130.662246288, 33.838582597 ], [ 130.66199871500001, 33.838836878 ], [ 130.66174127299999, 33.839101569 ], [ 130.66151243499999, 33.839361865 ], [ 130.661276434, 33.839625867 ], [ 130.661034134, 33.839901035 ], [ 130.660850133999986, 33.840117468 ], [ 130.660807954, 33.840165809 ], [ 130.660751843000014, 33.840281631 ], [ 130.660630543, 33.840523159 ], [ 130.660423584, 33.840993837 ], [ 130.660341609999989, 33.841180263 ], [ 130.660296214999988, 33.84136353 ], [ 130.660299965, 33.841770581 ], [ 130.66031859899999, 33.842028574 ], [ 130.660335694, 33.842223941 ], [ 130.660432859999986, 33.842504515 ], [ 130.660652406, 33.843015783 ], [ 130.662421765, 33.843485457 ], [ 130.663466045, 33.843747744 ], [ 130.66379416699999, 33.843832722 ], [ 130.66430682399999, 33.843960266 ], [ 130.665142118, 33.844205569 ], [ 130.664925944, 33.843738301 ], [ 130.664233099, 33.84225139 ], [ 130.663417493, 33.840635913 ], [ 130.662481520999989, 33.838739796 ], [ 130.662363325, 33.838467739 ], [ 130.662246288, 33.838582597 ] ] ] } },
{ "type": "Feature", "properties": { "A29_001": "40384", "A29_002": "福岡県", "A29_003": "遠賀町", "A29_004": 2, "A29_005": "第二種低層住居専用地域", "A29_006": 50, "A29_007": 80, "A29_008": null }, "geometry": { "type": "Polygon", "coordinates": [ [ [ 130.66321146300001, 33.83781514 ], [ 130.663891234, 33.839205108 ], [ 130.66414458, 33.839757466 ], [ 130.664686667000012, 33.840861556 ], [ 130.665169413, 33.841788747 ], [ 130.665566403000014, 33.842624779 ], [ 130.666505601000011, 33.84463867 ], [ 130.66659128399999, 33.844661266 ], [ 130.66669435, 33.844348437 ], [ 130.66682774, 33.844049108 ], [ 130.666935784, 33.843834698 ], [ 130.66707938499999, 33.843666604 ], [ 130.6672585, 33.843508833 ], [ 130.667514978000014, 33.84330845 ], [ 130.667347611, 33.842075412 ], [ 130.667245062, 33.841334113 ], [ 130.667206741, 33.84107905 ], [ 130.66714891, 33.84078666 ], [ 130.667141433000012, 33.840410909 ], [ 130.667186773, 33.840238077 ], [ 130.66726363699999, 33.839768622 ], [ 130.667300152, 33.839567437 ], [ 130.667319741, 33.839123174 ], [ 130.66730931399999, 33.838586389 ], [ 130.667239693999989, 33.838109083 ], [ 130.667161633, 33.837965737 ], [ 130.666803777000013, 33.837176036 ], [ 130.666615845, 33.836799798 ], [ 130.66621270600001, 33.836170999 ], [ 130.665843217, 33.835619822 ], [ 130.665635207, 33.835281085 ], [ 130.665292916999988, 33.835276147 ], [ 130.665280757, 33.835330278 ], [ 130.66521291399999, 33.835632277 ], [ 130.665051242, 33.835855487 ], [ 130.664807118999988, 33.836145567 ], [ 130.664575653000014, 33.836396915 ], [ 130.664209166, 33.836794013 ], [ 130.663969589, 33.837062484 ], [ 130.663727349, 33.837326475 ], [ 130.663564989, 33.83749526 ], [ 130.66321146300001, 33.83781514 ] ] ] } },
{ "type": "Feature", "properties": { "A29_001": "40384", "A29_002": "福岡県", "A29_003": "遠賀町", "A29_004": 1, "A29_005": "第一種低層住居専用地域", "A29_006": 40, "A29_007": 60, "A29_008": null }, "geometry": { "type": "Polygon", "coordinates": [ [ [ 130.658310118, 33.84650093 ], [ 130.65845609199999, 33.8465278 ], [ 130.65862137900001, 33.846528258 ], [ 130.658754062000014, 33.846527134 ], [ 130.658984620000012, 33.84650091 ], [ 130.659209909999987, 33.84642158 ], [ 130.659472060000013, 33.84630638 ], [ 130.659589979, 33.846279704 ], [ 130.66004566, 33.846274998 ], [ 130.660347647, 33.846275084 ], [ 130.66043952199999, 33.846313358 ], [ 130.66058843499999, 33.846387572 ], [ 130.660773892, 33.846484251 ], [ 130.660692891, 33.846181357 ], [ 130.660647207000011, 33.845985166 ], [ 130.660662722000012, 33.845450689 ], [ 130.66072465900001, 33.844925286 ], [ 130.660778936000014, 33.844529577 ], [ 130.660811251000013, 33.84403913 ], [ 130.659550106000012, 33.843718073 ], [ 130.658666547, 33.843483036 ], [ 130.658329129, 33.843408297 ], [ 130.657814804999987, 33.843336049 ], [ 130.657403923, 33.843312543 ], [ 130.656922365000014, 33.84331344 ], [ 130.65657026400001, 33.843336316 ], [ 130.65611519699999, 33.843414815 ], [ 130.655807614, 33.843475833 ], [ 130.6554293, 33.84358903 ], [ 130.65506173, 33.84373456 ], [ 130.65467487, 33.84391735 ], [ 130.653809650999989, 33.844427455 ], [ 130.652350438000013, 33.845296978 ], [ 130.652380491, 33.845376831 ], [ 130.65348473899999, 33.845570877 ], [ 130.655698766, 33.846000148 ], [ 130.657782472, 33.846404044 ], [ 130.658047635, 33.846452491 ], [ 130.658310118, 33.84650093 ] ] ] } },
{ "type": "Feature", "properties": { "A29_001": "40384", "A29_002": "福岡県", "A29_003": "遠賀町", "A29_004": 1, "A29_005": "第一種低層住居専用地域", "A29_006": 40, "A29_007": 60, "A29_008": null }, "geometry": { "type": "Polygon", "coordinates": [ [ [ 130.676390321000014, 33.846328861 ], [ 130.67613783499999, 33.845522318 ], [ 130.676130964, 33.845449241 ], [ 130.676140213, 33.84536577 ], [ 130.67617803499999, 33.845286847 ], [ 130.67621755499999, 33.845231784 ], [ 130.676258788000013, 33.845196108 ], [ 130.676310669, 33.845179844 ], [ 130.676421584, 33.845145842 ], [ 130.676530707000012, 33.845113327 ], [ 130.67690666199999, 33.844924957 ], [ 130.67695061, 33.84491436 ], [ 130.677141783, 33.844886061 ], [ 130.677204472, 33.844882568 ], [ 130.677269572, 33.844878941 ], [ 130.677374162, 33.844863559 ], [ 130.677470782, 33.844829519 ], [ 130.677532527000011, 33.844803588 ], [ 130.677718814, 33.844683305 ], [ 130.67796964199999, 33.844505787 ], [ 130.678023324, 33.844485799 ], [ 130.678077980000012, 33.84446295 ], [ 130.67815299899999, 33.844451845 ], [ 130.678412127, 33.844443575 ], [ 130.678597063000012, 33.844444803 ], [ 130.67879685, 33.84444485 ], [ 130.678917818, 33.844441911 ], [ 130.678995676999989, 33.844407075 ], [ 130.67919742, 33.844214517 ], [ 130.679302414, 33.844135717 ], [ 130.679320163999989, 33.844122395 ], [ 130.679372008, 33.84411582 ], [ 130.67961681700001, 33.844113475 ], [ 130.680035833, 33.844114563 ], [ 130.68012153, 33.844134168 ], [ 130.68040338, 33.844261633 ], [ 130.680767271, 33.844431058 ], [ 130.68089575, 33.844478357 ], [ 130.680993042000011, 33.84450321 ], [ 130.68108143399999, 33.844519094 ], [ 130.681180579, 33.84452606 ], [ 130.681338661000012, 33.844541379 ], [ 130.681544116, 33.844550856 ], [ 130.681806588, 33.844419571 ], [ 130.681837707999989, 33.844404005 ], [ 130.68185920799999, 33.844388405 ], [ 130.682403633, 33.844542636 ], [ 130.6827668, 33.844667882 ], [ 130.682883198000013, 33.844358055 ], [ 130.683012125, 33.844042297 ], [ 130.683137499999987, 33.843720565 ], [ 130.683273702, 33.843369786 ], [ 130.68348023199999, 33.842844742 ], [ 130.683552381, 33.842661535 ], [ 130.682650961, 33.842409477 ], [ 130.681952962999986, 33.842233232 ], [ 130.681844977, 33.842201643 ], [ 130.68174675, 33.842188716 ], [ 130.681346953, 33.842066913 ], [ 130.681307765000014, 33.84203401 ], [ 130.681204235, 33.842005413 ], [ 130.68050901, 33.841806057 ], [ 130.680177036, 33.841705673 ], [ 130.679783433000011, 33.841601027 ], [ 130.679114836, 33.84145019 ], [ 130.678180809999986, 33.841323258 ], [ 130.677494161999988, 33.841222313 ], [ 130.67704418, 33.841144349 ], [ 130.67624514100001, 33.840996881 ], [ 130.675067469, 33.840805918 ], [ 130.674690727000012, 33.840734103 ], [ 130.674469359, 33.840682825 ], [ 130.673467936, 33.840428199 ], [ 130.672563824, 33.840193207 ], [ 130.67197922, 33.84004479 ], [ 130.671839107000011, 33.840005652 ], [ 130.671409541, 33.839848699 ], [ 130.67102729199999, 33.839700444 ], [ 130.670639706, 33.839546583 ], [ 130.670613221999986, 33.83957725 ], [ 130.67049166699999, 33.839913278 ], [ 130.670461417000013, 33.840021389 ], [ 130.670420361, 33.840282639 ], [ 130.67023838899999, 33.840681861 ], [ 130.670162741000013, 33.840798673 ], [ 130.670021122, 33.840919064 ], [ 130.66990285599999, 33.841006716 ], [ 130.66967186799999, 33.841134323 ], [ 130.669530465, 33.841198056 ], [ 130.66934744, 33.84127011 ], [ 130.66896342699999, 33.841359053 ], [ 130.66892113899999, 33.841356333 ], [ 130.668473893, 33.84134581 ], [ 130.66846548800001, 33.841408454 ], [ 130.668446297, 33.841551493 ], [ 130.668424331000011, 33.841687114 ], [ 130.668418728, 33.841733549 ], [ 130.668311323000012, 33.842602507 ], [ 130.668295669, 33.842658287 ], [ 130.669143332, 33.842852713 ], [ 130.669437417000012, 33.842994556 ], [ 130.6696695, 33.843064417 ], [ 130.669792556, 33.843101472 ], [ 130.669809, 33.843148083 ], [ 130.669795861000011, 33.843337278 ], [ 130.669845167, 33.843425 ], [ 130.669917528000013, 33.8435155 ], [ 130.669978606, 33.843546904 ], [ 130.670114833000014, 33.843616944 ], [ 130.670469972, 33.843715639 ], [ 130.670616825, 33.843754825 ], [ 130.670716583, 33.843781444 ], [ 130.67091388899999, 33.8438445 ], [ 130.67094880499999, 33.843893022 ], [ 130.670963222000012, 33.843913056 ], [ 130.670933639, 33.844039167 ], [ 130.670900749999987, 33.844121417 ], [ 130.670904028, 33.844165306 ], [ 130.671068444000014, 33.844206417 ], [ 130.671565, 33.844272222 ], [ 130.67197275, 33.844294167 ], [ 130.672304889, 33.844359972 ], [ 130.67251036, 33.844398846 ], [ 130.672508443, 33.844406415 ], [ 130.672377562, 33.844755705 ], [ 130.67236029, 33.84483319 ], [ 130.672309848, 33.845174493 ], [ 130.672266545000014, 33.845518052 ], [ 130.672218651, 33.845893654 ], [ 130.672211452999989, 33.845955157 ], [ 130.67292706399999, 33.846152731 ], [ 130.673194067999987, 33.846233961 ], [ 130.673214282, 33.846259288 ], [ 130.673418986, 33.84631298 ], [ 130.67342517099999, 33.846293136 ], [ 130.67343139499999, 33.846276329 ], [ 130.674115147, 33.846443638 ], [ 130.674815854, 33.846616953 ], [ 130.67562098799999, 33.846819612 ], [ 130.676608219, 33.847068219 ], [ 130.676624284000013, 33.847072734 ], [ 130.676538633, 33.846803385 ], [ 130.676390321000014, 33.846328861 ] ] ] } },
{ "type": "Feature", "properties": { "A29_001": "40384", "A29_002": "福岡県", "A29_003": "遠賀町", "A29_004": 10, "A29_005": "準工業地域", "A29_006": 60, "A29_007": 200, "A29_008": null }, "geometry": { "type": "Polygon", "coordinates": [ [ [ 130.668871177, 33.84694802 ], [ 130.668390945999988, 33.84564635 ], [ 130.667514614999988, 33.845436742 ], [ 130.666864841, 33.845267998 ], [ 130.665817190000013, 33.84494609 ], [ 130.665171178, 33.844731126 ], [ 130.664575066, 33.844550587 ], [ 130.663737907000012, 33.844324658 ], [ 130.66288819799999, 33.844110617 ], [ 130.662365169, 33.843977978 ], [ 130.66178682, 33.843827108 ], [ 130.661828472, 33.844593591 ], [ 130.66188767599999, 33.845440636 ], [ 130.662111372, 33.845809524 ], [ 130.662399322, 33.84619797 ], [ 130.66269985299999, 33.846568558 ], [ 130.66277612799999, 33.846711902 ], [ 130.662989262999986, 33.847035656 ], [ 130.663015389, 33.847032278 ], [ 130.663535222, 33.847017861 ], [ 130.663822527, 33.847014436 ], [ 130.664197056, 33.847009972 ], [ 130.664460364, 33.847006837 ], [ 130.664745361, 33.847003444 ], [ 130.664826825, 33.847003095 ], [ 130.665291028000013, 33.847001111 ], [ 130.66624209599999, 33.846997024 ], [ 130.666325, 33.846996667 ], [ 130.666534189, 33.846992315 ], [ 130.66657336099999, 33.8469915 ], [ 130.666666666999987, 33.846989556 ], [ 130.666670778, 33.846989472 ], [ 130.667204848000011, 33.846978928 ], [ 130.667727520999989, 33.846964189 ], [ 130.667846664, 33.846960829 ], [ 130.668437361, 33.846949722 ], [ 130.66851305599999, 33.846950556 ], [ 130.668871177, 33.84694802 ] ] ] } },
{ "type": "Feature", "properties": { "A29_001": "40384", "A29_002": "福岡県", "A29_003": "遠賀町", "A29_004": 8, "A29_005": "近隣商業地域", "A29_006": 80, "A29_007": 200, "A29_008": null }, "geometry": { "type": "Polygon", "coordinates": [ [ [ 130.668390945999988, 33.84564635 ], [ 130.668873499, 33.846954314 ], [ 130.669280055, 33.84798978 ], [ 130.67232819, 33.847625171 ], [ 130.671974272, 33.846483436 ], [ 130.670988848, 33.846234797 ], [ 130.670064064, 33.846017623 ], [ 130.668390945999988, 33.84564635 ] ] ] } },
{ "type": "Feature", "properties": { "A29_001": "40384", "A29_002": "福岡県", "A29_003": "遠賀町", "A29_004": 9, "A29_005": "商業地域", "A29_006": 80, "A29_007": 300, "A29_008": null }, "geometry": { "type": "Polygon", "coordinates": [ [ [ 130.67489880799999, 33.848391222 ], [ 130.674852635, 33.848252635 ], [ 130.674843764, 33.848226009 ], [ 130.674773222, 33.848014278 ], [ 130.674747083999989, 33.847934368 ], [ 130.67472730099999, 33.847873885 ], [ 130.67470191699999, 33.847796278 ], [ 130.674686646999987, 33.847741129 ], [ 130.67467916699999, 33.847714111 ], [ 130.674656528000014, 33.847632306 ], [ 130.674642232999986, 33.847595213 ], [ 130.67464194199999, 33.847595143 ], [ 130.674469871000014, 33.847144596 ], [ 130.673343386, 33.846864292 ], [ 130.6728507, 33.846731778 ], [ 130.671974272, 33.846483436 ], [ 130.67232819, 33.847625171 ], [ 130.672565901000013, 33.848432056 ], [ 130.672567328000014, 33.84843666 ], [ 130.67308116699999, 33.848389056 ], [ 130.673091435, 33.848387364 ], [ 130.673161563, 33.848375812 ], [ 130.673256194, 33.848360222 ], [ 130.673466345, 33.848411657 ], [ 130.673517108, 33.848424082 ], [ 130.6737525, 33.848481694 ], [ 130.673780617, 33.848488659 ], [ 130.67394036499999, 33.848528227 ], [ 130.674031845, 33.84855069 ], [ 130.674062693, 33.848558265 ], [ 130.674101003, 33.848567672 ], [ 130.674148944, 33.848579444 ], [ 130.674172988, 33.848585309 ], [ 130.674993639, 33.848785472 ], [ 130.675, 33.848787333 ], [ 130.675010581, 33.848790448 ], [ 130.675030389, 33.848796278 ], [ 130.675, 33.848699139 ], [ 130.674978528, 33.8486305 ], [ 130.674912522, 33.848432384 ], [ 130.67489880799999, 33.848391222 ] ] ] } },
{ "type": "Feature", "properties": { "A29_001": "40384", "A29_002": "福岡県", "A29_003": "遠賀町", "A29_004": 5, "A29_005": "第一種住居地域", "A29_006": 60, "A29_007": 200, "A29_008": null }, "geometry": { "type": "Polygon", "coordinates": [ [ [ 130.67251036, 33.844398846 ], [ 130.672304889, 33.844359972 ], [ 130.67197275, 33.844294167 ], [ 130.671565, 33.844272222 ], [ 130.671068444000014, 33.844206417 ], [ 130.670904028, 33.844165306 ], [ 130.670900749999987, 33.844121417 ], [ 130.670933639, 33.844039167 ], [ 130.670963222000012, 33.843913056 ], [ 130.67094880499999, 33.843893022 ], [ 130.67091388899999, 33.8438445 ], [ 130.670716583, 33.843781444 ], [ 130.670616825, 33.843754825 ], [ 130.670469972, 33.843715639 ], [ 130.670114833000014, 33.843616944 ], [ 130.669978606, 33.843546904 ], [ 130.669917528000013, 33.8435155 ], [ 130.669845167, 33.843425 ], [ 130.669795861000011, 33.843337278 ], [ 130.669809, 33.843148083 ], [ 130.669792556, 33.843101472 ], [ 130.6696695, 33.843064417 ], [ 130.669437417000012, 33.842994556 ], [ 130.669143332, 33.842852713 ], [ 130.668295669, 33.842658287 ], [ 130.668311323000012, 33.842602507 ], [ 130.668418728, 33.841733549 ], [ 130.668424331000011, 33.841687114 ], [ 130.668446297, 33.841551493 ], [ 130.668465489, 33.841408454 ], [ 130.668473893, 33.84134581 ], [ 130.66892113899999, 33.841356333 ], [ 130.66896342699999, 33.841359053 ], [ 130.66934744, 33.84127011 ], [ 130.669530465, 33.841198057 ], [ 130.66967186799999, 33.841134323 ], [ 130.66990285599999, 33.841006716 ], [ 130.670021122, 33.840919064 ], [ 130.670162741000013, 33.840798673 ], [ 130.67023838899999, 33.84068186 ], [ 130.670420361, 33.840282639 ], [ 130.670461418, 33.840021388 ], [ 130.67049166699999, 33.839913278 ], [ 130.670613221999986, 33.839577251 ], [ 130.670639706, 33.839546583 ], [ 130.670596878, 33.839532303 ], [ 130.670223512, 33.839281937 ], [ 130.670213, 33.839026889 ], [ 130.670218799, 33.838880848 ], [ 130.670227239000013, 33.838776501 ], [ 130.670228874, 33.838350827 ], [ 130.67022778899999, 33.837935583 ], [ 130.67019071499999, 33.836888807 ], [ 130.670156856, 33.836888801 ], [ 130.66959164799999, 33.836895621 ], [ 130.669355333, 33.836898472 ], [ 130.66899211099999, 33.836898833 ], [ 130.668889404999987, 33.8369094 ], [ 130.66886775099999, 33.836911628 ], [ 130.668764778, 33.836922223 ], [ 130.668575389000011, 33.836962972 ], [ 130.668407167, 33.837024917 ], [ 130.668386446, 33.837032544 ], [ 130.668385507000011, 33.83703289 ], [ 130.668382481, 33.837025042 ], [ 130.668370243999988, 33.836996158 ], [ 130.668318297000013, 33.836873534 ], [ 130.66819962299999, 33.836605581 ], [ 130.668087598999989, 33.836350693 ], [ 130.667982638000012, 33.836117443 ], [ 130.667873243, 33.835760801 ], [ 130.66786284, 33.835678768 ], [ 130.667865341, 33.835418325 ], [ 130.6678537, 33.834638586 ], [ 130.667851782000014, 33.834611188 ], [ 130.667853947, 33.834282429 ], [ 130.667843049, 33.834097517 ], [ 130.66780785200001, 33.83395876 ], [ 130.667749047, 33.833863 ], [ 130.66771119399999, 33.833924028 ], [ 130.667577861000012, 33.834233917 ], [ 130.66757690899999, 33.834236078 ], [ 130.667494940000012, 33.834422332 ], [ 130.667418472, 33.834596083 ], [ 130.667395905, 33.834644464 ], [ 130.667378641999989, 33.834681475 ], [ 130.667364482000011, 33.834711832 ], [ 130.667336696, 33.834771403 ], [ 130.667326, 33.834794333 ], [ 130.667133056000011, 33.834827222 ], [ 130.666666666999987, 33.834913333 ], [ 130.666285528, 33.834983694 ], [ 130.666196401, 33.834998559 ], [ 130.666214811, 33.83528461 ], [ 130.666097767, 33.835283898 ], [ 130.665635207, 33.835281085 ], [ 130.66584321799999, 33.835619823 ], [ 130.66621270600001, 33.836170999 ], [ 130.666615846000013, 33.836799798 ], [ 130.666803777000013, 33.837176036 ], [ 130.667161631999988, 33.837965737 ], [ 130.667239693999989, 33.838109083 ], [ 130.66730931399999, 33.838586389 ], [ 130.667319741, 33.839123173 ], [ 130.667300152, 33.839567437 ], [ 130.66726363699999, 33.839768622 ], [ 130.667186773, 33.840238077 ], [ 130.667141433000012, 33.840410909 ], [ 130.66714891, 33.840786659 ], [ 130.667206741, 33.84107905 ], [ 130.667245062, 33.841334113 ], [ 130.667347611, 33.842075412 ], [ 130.667514977, 33.843308451 ], [ 130.6672585, 33.843508833 ], [ 130.66707938499999, 33.843666603 ], [ 130.666935784, 33.843834697 ], [ 130.66682774, 33.844049108 ], [ 130.66669435, 33.844348437 ], [ 130.666591283, 33.844661267 ], [ 130.666505601000011, 33.84463867 ], [ 130.665566403000014, 33.842624779 ], [ 130.66516941399999, 33.841788747 ], [ 130.664686668, 33.840861556 ], [ 130.66414458, 33.839757466 ], [ 130.663891234, 33.839205108 ], [ 130.66321146300001, 33.83781514 ], [ 130.662899259999989, 33.83805578 ], [ 130.662736959999989, 33.83814994 ], [ 130.66261703, 33.83822022 ], [ 130.662363325, 33.838467739 ], [ 130.662481520999989, 33.838739796 ], [ 130.663417493, 33.840635914 ], [ 130.664233099, 33.84225139 ], [ 130.664925944, 33.843738301 ], [ 130.665142118, 33.844205569 ], [ 130.66430682399999, 33.843960266 ], [ 130.66379416699999, 33.843832722 ], [ 130.663466046, 33.843747744 ], [ 130.66242176599999, 33.843485457 ], [ 130.660652405, 33.843015783 ], [ 130.660764644000011, 33.843326219 ], [ 130.660777193, 33.8435417 ], [ 130.660550495, 33.843482928 ], [ 130.660043531000014, 33.843356288 ], [ 130.659458022, 33.843210792 ], [ 130.658740426, 33.843030635 ], [ 130.658438735, 33.842958977 ], [ 130.6580405, 33.842901216 ], [ 130.657651098, 33.842868824 ], [ 130.657399192000014, 33.842859178 ], [ 130.657075772000013, 33.84285977 ], [ 130.656798767999987, 33.842870927 ], [ 130.656562842999989, 33.842886671 ], [ 130.65620886100001, 33.842933396 ], [ 130.655833325, 33.843008389 ], [ 130.65549167099999, 33.843099876 ], [ 130.655064063, 33.843237343 ], [ 130.6546583, 33.84339968 ], [ 130.654200010000011, 33.84361 ], [ 130.65392363699999, 33.843784322 ], [ 130.65340773299999, 33.844103436 ], [ 130.65260884, 33.844585759 ], [ 130.6522157, 33.844818128 ], [ 130.652155676, 33.844853605 ], [ 130.652350437, 33.845296978 ], [ 130.653809650999989, 33.844427455 ], [ 130.65467487, 33.84391735 ], [ 130.65506173, 33.84373456 ], [ 130.6554293, 33.84358903 ], [ 130.655807614, 33.843475833 ], [ 130.65611519699999, 33.843414816 ], [ 130.65657026400001, 33.843336316 ], [ 130.656922364, 33.84331344 ], [ 130.65740392399999, 33.843312543 ], [ 130.657814804, 33.843336049 ], [ 130.658329129, 33.843408297 ], [ 130.658666547, 33.843483036 ], [ 130.659550106000012, 33.843718073 ], [ 130.660811251000013, 33.844039131 ], [ 130.660778936000014, 33.844529577 ], [ 130.66072465900001, 33.844925286 ], [ 130.660662722000012, 33.845450689 ], [ 130.660647207000011, 33.845985166 ], [ 130.660692891, 33.846181358 ], [ 130.66077389099999, 33.846484251 ], [ 130.66058843499999, 33.846387572 ], [ 130.66043952199999, 33.846313358 ], [ 130.660347647, 33.846275084 ], [ 130.66004566, 33.846274998 ], [ 130.659589979, 33.846279705 ], [ 130.659472060000013, 33.84630638 ], [ 130.659209909999987, 33.84642158 ], [ 130.658984620000012, 33.84650091 ], [ 130.658754062000014, 33.846527134 ], [ 130.65862137900001, 33.846528258 ], [ 130.65845609199999, 33.8465278 ], [ 130.658310118, 33.846500931 ], [ 130.658047635, 33.846452491 ], [ 130.657782472, 33.846404043 ], [ 130.655698765000011, 33.846000148 ], [ 130.653484738, 33.845570877 ], [ 130.652380491, 33.845376831 ], [ 130.65240591700001, 33.845440556 ], [ 130.65262470499999, 33.845964224 ], [ 130.652788563, 33.846538716 ], [ 130.65279392, 33.846667664 ], [ 130.653713810999989, 33.846764905 ], [ 130.65422407599999, 33.846818841 ], [ 130.654575889, 33.846856028 ], [ 130.65485436099999, 33.846883833 ], [ 130.655076167, 33.84691025 ], [ 130.655107455, 33.846913809 ], [ 130.655126045, 33.846984828 ], [ 130.655251521, 33.847464168 ], [ 130.655714139999986, 33.847513172 ], [ 130.656877936, 33.847611095 ], [ 130.657509135, 33.847620305 ], [ 130.65991488200001, 33.847599381 ], [ 130.66133292399999, 33.847571974 ], [ 130.661775940000012, 33.848062235 ], [ 130.662455658, 33.84879841 ], [ 130.662509492, 33.848741154 ], [ 130.662857452999987, 33.848185222 ], [ 130.663324906000014, 33.847459642 ], [ 130.663818440999989, 33.848056639 ], [ 130.665818355999988, 33.847859675 ], [ 130.666707185, 33.847789395 ], [ 130.66642032199999, 33.846999885 ], [ 130.666420644, 33.846999879 ], [ 130.66641884, 33.846994715 ], [ 130.666325, 33.846996667 ], [ 130.66624209599999, 33.846997024 ], [ 130.665291028000013, 33.847001111 ], [ 130.664826825, 33.847003095 ], [ 130.664745361, 33.847003444 ], [ 130.664460364, 33.847006837 ], [ 130.664197056, 33.847009972 ], [ 130.663822527, 33.847014436 ], [ 130.663535222, 33.847017861 ], [ 130.663015389, 33.847032278 ], [ 130.662989262999986, 33.847035656 ], [ 130.662776127, 33.846711902 ], [ 130.66269985400001, 33.846568558 ], [ 130.662399322999988, 33.84619797 ], [ 130.662111372, 33.845809524 ], [ 130.66188767700001, 33.845440635 ], [ 130.661828472, 33.844593591 ], [ 130.66178682, 33.843827108 ], [ 130.662365169, 33.843977978 ], [ 130.66288819799999, 33.844110617 ], [ 130.663737908, 33.844324657 ], [ 130.664575066, 33.844550586 ], [ 130.66517117699999, 33.844731126 ], [ 130.665817190000013, 33.84494609 ], [ 130.666864841, 33.845267997 ], [ 130.667514614, 33.845436743 ], [ 130.668390945999988, 33.84564635 ], [ 130.67006406499999, 33.846017623 ], [ 130.670988848, 33.846234797 ], [ 130.671974272, 33.846483436 ], [ 130.672850700999987, 33.846731778 ], [ 130.673343386, 33.846864292 ], [ 130.67446987, 33.847144595 ], [ 130.67464194199999, 33.847595143 ], [ 130.675212789999989, 33.847734005 ], [ 130.676330330000013, 33.848021723 ], [ 130.677371112, 33.848289848 ], [ 130.678242309000012, 33.848512791 ], [ 130.67860210500001, 33.849373605 ], [ 130.678616009, 33.849406869 ], [ 130.67910634, 33.84930832 ], [ 130.679407160000011, 33.84929977 ], [ 130.679556354999988, 33.849300474 ], [ 130.679800906, 33.849371187 ], [ 130.679888428999988, 33.84938185 ], [ 130.680769578, 33.849576287 ], [ 130.680811196, 33.849436987 ], [ 130.680876453, 33.849188161 ], [ 130.681015556, 33.848782972 ], [ 130.681154192, 33.848503024 ], [ 130.681240452, 33.848372039 ], [ 130.68129088500001, 33.848264819 ], [ 130.681381079, 33.84803693 ], [ 130.68157750200001, 33.847593123 ], [ 130.68184613599999, 33.846951199 ], [ 130.681984922999987, 33.846628758 ], [ 130.682035707000011, 33.846426114 ], [ 130.68206449199999, 33.846374003 ], [ 130.682376428, 33.845617384 ], [ 130.682598149, 33.845094617 ], [ 130.6827668, 33.844667882 ], [ 130.682403633, 33.844542635 ], [ 130.68185920799999, 33.844388406 ], [ 130.681837707999989, 33.844404005 ], [ 130.681806588, 33.844419571 ], [ 130.681544116, 33.844550856 ], [ 130.681338661000012, 33.844541379 ], [ 130.681180579, 33.844526061 ], [ 130.68108143399999, 33.844519094 ], [ 130.680993043, 33.84450321 ], [ 130.68089575, 33.844478357 ], [ 130.680767271, 33.844431058 ], [ 130.68040338, 33.844261634 ], [ 130.68012153, 33.844134168 ], [ 130.68003583399999, 33.844114563 ], [ 130.679616818, 33.844113475 ], [ 130.679372008, 33.84411582 ], [ 130.679320163999989, 33.844122395 ], [ 130.679302412999988, 33.844135717 ], [ 130.67919742, 33.844214517 ], [ 130.678995676999989, 33.844407075 ], [ 130.678917818, 33.844441911 ], [ 130.67879685, 33.84444485 ], [ 130.678597063000012, 33.844444802 ], [ 130.678412127, 33.844443575 ], [ 130.67815299899999, 33.844451844 ], [ 130.678077980000012, 33.84446295 ], [ 130.67802332299999, 33.844485799 ], [ 130.677969643000012, 33.844505787 ], [ 130.677718813000013, 33.844683305 ], [ 130.67753252599999, 33.844803588 ], [ 130.677470781000011, 33.844829519 ], [ 130.677374163, 33.844863559 ], [ 130.677269572, 33.844878941 ], [ 130.677204472, 33.844882568 ], [ 130.677141784000014, 33.844886062 ], [ 130.676950611, 33.84491436 ], [ 130.67690666199999, 33.844924956 ], [ 130.676530707000012, 33.845113326 ], [ 130.676421584, 33.845145842 ], [ 130.676310669, 33.845179843 ], [ 130.67625878699999, 33.845196108 ], [ 130.676217554, 33.845231784 ], [ 130.67617803499999, 33.845286847 ], [ 130.676140213, 33.84536577 ], [ 130.67613096299999, 33.845449241 ], [ 130.67613783499999, 33.845522318 ], [ 130.67639032, 33.846328861 ], [ 130.676538633, 33.846803386 ], [ 130.676624284000013, 33.847072734 ], [ 130.676608219, 33.847068219 ], [ 130.67562098799999, 33.846819612 ], [ 130.674815853000013, 33.846616953 ], [ 130.67411514599999, 33.846443639 ], [ 130.67343139499999, 33.846276329 ], [ 130.67342517099999, 33.846293136 ], [ 130.673418986, 33.84631298 ], [ 130.673214282, 33.846259288 ], [ 130.673194067999987, 33.846233961 ], [ 130.67292706399999, 33.846152731 ], [ 130.672211452, 33.845955157 ], [ 130.672218652, 33.845893654 ], [ 130.672266544, 33.845518051 ], [ 130.672309848, 33.845174493 ], [ 130.67236029, 33.84483319 ], [ 130.672377562, 33.844755705 ], [ 130.672508443, 33.844406415 ], [ 130.67251036, 33.844398846 ] ] ] } },
{ "type": "Feature", "properties": { "A29_001": "40384", "A29_002": "福岡県", "A29_003": "遠賀町", "A29_004": 8, "A29_005": "近隣商業地域", "A29_006": 80, "A29_007": 200, "A29_008": null }, "geometry": { "type": "Polygon", "coordinates": [ [ [ 130.674032726, 33.850044431 ], [ 130.674018222, 33.85 ], [ 130.673928667000013, 33.849725861 ], [ 130.673903244, 33.849650361 ], [ 130.673884684, 33.849595242 ], [ 130.673841417, 33.84946675 ], [ 130.673798, 33.849296028 ], [ 130.673801319, 33.849295861 ], [ 130.67378597199999, 33.849247693 ], [ 130.674336055999987, 33.849210361 ], [ 130.674148944, 33.848579444 ], [ 130.67394036499999, 33.848528227 ], [ 130.673780617, 33.848488659 ], [ 130.6737525, 33.848481694 ], [ 130.673517108, 33.848424082 ], [ 130.673466345, 33.848411657 ], [ 130.673256194, 33.848360222 ], [ 130.67308116699999, 33.848389056 ], [ 130.672567328000014, 33.84843666 ], [ 130.672858931, 33.849377935 ], [ 130.673116572, 33.850232955 ], [ 130.674032726, 33.850044431 ] ] ] } },
{ "type": "Feature", "properties": { "A29_001": "40384", "A29_002": "福岡県", "A29_003": "遠賀町", "A29_004": 8, "A29_005": "近隣商業地域", "A29_006": 80, "A29_007": 200, "A29_008": null }, "geometry": { "type": "Polygon", "coordinates": [ [ [ 130.674642232999986, 33.847595213 ], [ 130.674656528000014, 33.847632306 ], [ 130.67467916699999, 33.847714111 ], [ 130.674686646999987, 33.847741129 ], [ 130.67470191699999, 33.847796278 ], [ 130.67472730099999, 33.847873885 ], [ 130.674773222, 33.848014278 ], [ 130.674843764, 33.848226009 ], [ 130.674852635, 33.848252635 ], [ 130.67489880799999, 33.848391222 ], [ 130.676444527, 33.84877721 ], [ 130.676625527999988, 33.849320806 ], [ 130.67730639199999, 33.849225088 ], [ 130.67756552899999, 33.85005047 ], [ 130.677781536, 33.850703902 ], [ 130.678659567000011, 33.850659414 ], [ 130.678964826999987, 33.850266588 ], [ 130.67945279, 33.85030993 ], [ 130.680137672, 33.850351455 ], [ 130.68046644, 33.850361999 ], [ 130.680492534, 33.850312864 ], [ 130.680537686, 33.850184756 ], [ 130.68073066, 33.849755965 ], [ 130.680769578, 33.849576287 ], [ 130.679888428999988, 33.849381851 ], [ 130.679800906999986, 33.849371187 ], [ 130.679556354999988, 33.849300475 ], [ 130.679407160000011, 33.84929977 ], [ 130.67910634, 33.84930832 ], [ 130.678616009, 33.849406869 ], [ 130.67860210500001, 33.849373605 ], [ 130.678242309000012, 33.848512791 ], [ 130.677371112, 33.848289848 ], [ 130.676330330000013, 33.848021723 ], [ 130.675212789999989, 33.847734005 ], [ 130.674642232999986, 33.847595213 ] ] ] } },
{ "type": "Feature", "properties": { "A29_001": "40384", "A29_002": "福岡県", "A29_003": "遠賀町", "A29_004": 10, "A29_005": "準工業地域", "A29_006": 60, "A29_007": 200, "A29_008": null }, "geometry": { "type": "Polygon", "coordinates": [ [ [ 130.65288522, 33.846677316 ], [ 130.65279392, 33.846667664 ], [ 130.652794261999986, 33.846675903 ], [ 130.65283603, 33.847173266 ], [ 130.65277982500001, 33.847373646 ], [ 130.652752391, 33.847750043 ], [ 130.65273546200001, 33.848180146 ], [ 130.652708225, 33.848728753 ], [ 130.652669640999989, 33.849210979 ], [ 130.65265960799999, 33.849482311 ], [ 130.652621985, 33.84950606 ], [ 130.652599648, 33.849726664 ], [ 130.652585776, 33.850063588 ], [ 130.652564317000014, 33.850438925 ], [ 130.652745, 33.850471111 ], [ 130.65303194399999, 33.850519722 ], [ 130.653615714000011, 33.850620949 ], [ 130.65377236, 33.850645977 ], [ 130.653996517, 33.85068179 ], [ 130.65457880400001, 33.850778244 ], [ 130.655329748000014, 33.85090037 ], [ 130.656003029, 33.851005129 ], [ 130.656568083, 33.851093191 ], [ 130.65669952799999, 33.851113676 ], [ 130.656598347, 33.850979309 ], [ 130.65652952799999, 33.850853639 ], [ 130.656290582999986, 33.850383361 ], [ 130.656257747000012, 33.850318494 ], [ 130.65620983299999, 33.850226361 ], [ 130.656121778, 33.850056306 ], [ 130.65606983399999, 33.849942241 ], [ 130.656006214, 33.849764635 ], [ 130.655920772, 33.849458744 ], [ 130.655761211, 33.849142955 ], [ 130.655637396, 33.848825774 ], [ 130.655501076, 33.848507812 ], [ 130.655413603999989, 33.848263046 ], [ 130.65536162, 33.848081 ], [ 130.655325694999988, 33.847904963 ], [ 130.65528896, 33.847708049 ], [ 130.65525152, 33.847464168 ], [ 130.655107455, 33.846913809 ], [ 130.655076167, 33.84691025 ], [ 130.65485436099999, 33.846883833 ], [ 130.654575889, 33.846856028 ], [ 130.65422407599999, 33.846818841 ], [ 130.653713810999989, 33.846764905 ], [ 130.65288522, 33.846677316 ] ] ] } },
{ "type": "Feature", "properties": { "A29_001": "40384", "A29_002": "福岡県", "A29_003": "遠賀町", "A29_004": 2, "A29_005": "第二種低層住居専用地域", "A29_006": 50, "A29_007": 80, "A29_008": null }, "geometry": { "type": "Polygon", "coordinates": [ [ [ 130.666707185, 33.847789395 ], [ 130.665818355, 33.847859674 ], [ 130.663818442, 33.848056639 ], [ 130.663324906000014, 33.847459642 ], [ 130.662857452999987, 33.848185222 ], [ 130.662509492, 33.848741154 ], [ 130.662455658, 33.84879841 ], [ 130.661775940000012, 33.848062235 ], [ 130.66133292399999, 33.847571974 ], [ 130.65991488200001, 33.847599381 ], [ 130.657509135, 33.847620305 ], [ 130.656877936, 33.847611095 ], [ 130.655714139999986, 33.847513172 ], [ 130.65525152, 33.847464168 ], [ 130.65528896, 33.847708049 ], [ 130.655325694999988, 33.847904963 ], [ 130.65536162, 33.848081 ], [ 130.655413603999989, 33.848263046 ], [ 130.655501076, 33.848507812 ], [ 130.655637396, 33.848825774 ], [ 130.655761211, 33.849142955 ], [ 130.655920772, 33.849458744 ], [ 130.656006214, 33.849764635 ], [ 130.65606983399999, 33.849942241 ], [ 130.656121778, 33.850056306 ], [ 130.65620983299999, 33.850226361 ], [ 130.656257747000012, 33.850318494 ], [ 130.65722599, 33.85047209 ], [ 130.65752491, 33.85053954 ], [ 130.65773373, 33.85059475 ], [ 130.657925080000012, 33.85062859 ], [ 130.658103680000011, 33.8506624 ], [ 130.65903235, 33.85087416 ], [ 130.65936563, 33.85093237 ], [ 130.65967344, 33.85097187 ], [ 130.66114624, 33.85118911 ], [ 130.662501099999986, 33.85137272 ], [ 130.662734, 33.85139334 ], [ 130.66301159, 33.85141142 ], [ 130.66422584, 33.85143338 ], [ 130.66467426, 33.85142927 ], [ 130.664907348000014, 33.851435762 ], [ 130.666126684, 33.851284008 ], [ 130.666125134, 33.851222873 ], [ 130.666731997999989, 33.851178294 ], [ 130.667629366, 33.851103931 ], [ 130.66781530599999, 33.851080576 ], [ 130.66765559000001, 33.850562027 ], [ 130.667441924, 33.849900943 ], [ 130.667190997, 33.849172663 ], [ 130.66695594699999, 33.848498101 ], [ 130.666707185, 33.847789395 ] ] ] } },
{ "type": "Feature", "properties": { "A29_001": "40384", "A29_002": "福岡県", "A29_003": "遠賀町", "A29_004": 5, "A29_005": "第一種住居地域", "A29_006": 60, "A29_007": 200, "A29_008": null }, "geometry": { "type": "Polygon", "coordinates": [ [ [ 130.671786032, 33.851316724 ], [ 130.674576097, 33.850704615 ], [ 130.67466454, 33.85075178 ], [ 130.675219332000012, 33.850727185 ], [ 130.675642879, 33.850720099 ], [ 130.675733838000014, 33.851003627 ], [ 130.676191617, 33.850922826 ], [ 130.67640444599999, 33.850876418 ], [ 130.677781536, 33.850703902 ], [ 130.67756552899999, 33.85005047 ], [ 130.67730639199999, 33.849225088 ], [ 130.676625527999988, 33.849320806 ], [ 130.676444527, 33.84877721 ], [ 130.67489880799999, 33.848391222 ], [ 130.674912522, 33.848432384 ], [ 130.674978528, 33.8486305 ], [ 130.675, 33.848699139 ], [ 130.675030389, 33.848796278 ], [ 130.675010581, 33.848790448 ], [ 130.675, 33.848787333 ], [ 130.674993639, 33.848785472 ], [ 130.67479043599999, 33.84873591 ], [ 130.674148944, 33.848579444 ], [ 130.674336055999987, 33.849210361 ], [ 130.67378597199999, 33.849247693 ], [ 130.673801319, 33.849295861 ], [ 130.673798, 33.849296028 ], [ 130.673841417, 33.84946675 ], [ 130.673884684, 33.849595242 ], [ 130.673903244, 33.849650361 ], [ 130.673928667000013, 33.849725861 ], [ 130.674018222, 33.85 ], [ 130.674032726, 33.850044431 ], [ 130.673116572, 33.850232955 ], [ 130.672858931, 33.849377935 ], [ 130.672565901000013, 33.848432056 ], [ 130.67232819, 33.847625171 ], [ 130.669280055, 33.84798978 ], [ 130.669525623, 33.848721582 ], [ 130.669679279, 33.849191656 ], [ 130.66982153399999, 33.849606532 ], [ 130.670510842, 33.851589715 ], [ 130.671786032, 33.851316724 ] ] ] } },
{ "type": "Feature", "properties": { "A29_001": "40384", "A29_002": "福岡県", "A29_003": "遠賀町", "A29_004": 6, "A29_005": "第二種住居地域", "A29_006": 60, "A29_007": 200, "A29_008": null }, "geometry": { "type": "Polygon", "coordinates": [ [ [ 130.668873499, 33.846954314 ], [ 130.668871177, 33.84694802 ], [ 130.66851305599999, 33.846950556 ], [ 130.668437361, 33.846949722 ], [ 130.667846664, 33.846960829 ], [ 130.667727520999989, 33.846964189 ], [ 130.667204848000011, 33.846978928 ], [ 130.666670778, 33.846989472 ], [ 130.666666666999987, 33.846989556 ], [ 130.66657336099999, 33.8469915 ], [ 130.666534189, 33.846992315 ], [ 130.66641884, 33.846994715 ], [ 130.666420644, 33.846999879 ], [ 130.66642032199999, 33.846999885 ], [ 130.666707185, 33.847789395 ], [ 130.66695594699999, 33.848498101 ], [ 130.667190997, 33.849172663 ], [ 130.667441924, 33.849900943 ], [ 130.66765559000001, 33.850562027 ], [ 130.66781530599999, 33.851080576 ], [ 130.667934575, 33.851430535 ], [ 130.668067314000012, 33.851763383 ], [ 130.668119018, 33.85202519 ], [ 130.668166914000011, 33.852347746 ], [ 130.66824225799999, 33.852966522 ], [ 130.669408701, 33.852864541 ], [ 130.670329313, 33.852790966 ], [ 130.67062965299999, 33.852760458 ], [ 130.670915766, 33.85271202 ], [ 130.670510842, 33.851589715 ], [ 130.66982153399999, 33.849606532 ], [ 130.669679279, 33.849191656 ], [ 130.669525623, 33.848721582 ], [ 130.669280055, 33.84798978 ], [ 130.668873499, 33.846954314 ] ] ] } },
{ "type": "Feature", "properties": { "A29_001": "40384", "A29_002": "福岡県", "A29_003": "遠賀町", "A29_004": 5, "A29_005": "第一種住居地域", "A29_006": 60, "A29_007": 200, "A29_008": null }, "geometry": { "type": "Polygon", "coordinates": [ [ [ 130.68046644, 33.850361999 ], [ 130.680137672, 33.850351455 ], [ 130.679847975, 33.851124713 ], [ 130.679704007999987, 33.851394208 ], [ 130.679531838, 33.851559261 ], [ 130.67937403, 33.851706458 ], [ 130.679103311, 33.85194133 ], [ 130.67886682, 33.852102487 ], [ 130.67870022299999, 33.852210149 ], [ 130.678635025, 33.852679641 ], [ 130.67858583200001, 33.85293149 ], [ 130.678517590000013, 33.853020771 ], [ 130.678395591, 33.853148678 ], [ 130.678255693000011, 33.853283993 ], [ 130.677950856, 33.853560521 ], [ 130.67771052399999, 33.853790996 ], [ 130.67754202, 33.853929218 ], [ 130.677353993, 33.854031604 ], [ 130.67720359399999, 33.854107251 ], [ 130.677051307, 33.85420973 ], [ 130.676975035, 33.854295262 ], [ 130.676940946, 33.854330956 ], [ 130.676937063, 33.854412951 ], [ 130.67702842599999, 33.854591363 ], [ 130.67704617199999, 33.854862024 ], [ 130.677074417, 33.854954539 ], [ 130.677077088, 33.855194596 ], [ 130.676837615000011, 33.855669593 ], [ 130.676662902, 33.856031445 ], [ 130.67642429599999, 33.856512409 ], [ 130.67637636399999, 33.856664363 ], [ 130.676355258, 33.85681117 ], [ 130.676357907000011, 33.857056445 ], [ 130.676398161, 33.857281876 ], [ 130.676504556999987, 33.857265755 ], [ 130.676778124, 33.857229943 ], [ 130.677360083999986, 33.857164373 ], [ 130.677403059, 33.857142121 ], [ 130.677433642000011, 33.857088525 ], [ 130.67773982599999, 33.856457147 ], [ 130.67780450399999, 33.856366366 ], [ 130.67785138799999, 33.856254664 ], [ 130.677991823000013, 33.855977707 ], [ 130.678238650999987, 33.855446069 ], [ 130.678481768000012, 33.854950204 ], [ 130.678710716000012, 33.854475046 ], [ 130.678881499999989, 33.854149094 ], [ 130.678881846, 33.854056654 ], [ 130.67902766200001, 33.853772254 ], [ 130.679088423, 33.853663279 ], [ 130.679267118000013, 33.853297252 ], [ 130.6793465, 33.853096175 ], [ 130.679595287000012, 33.852513845 ], [ 130.679813486, 33.851986602 ], [ 130.680022586, 33.851502573 ], [ 130.680141657, 33.851200211 ], [ 130.680329296999986, 33.850719481 ], [ 130.68046644, 33.850361999 ] ] ] } },
{ "type": "Feature", "properties": { "A29_001": "40384", "A29_002": "福岡県", "A29_003": "遠賀町", "A29_004": 1, "A29_005": "第一種低層住居専用地域", "A29_006": 40, "A29_007": 60, "A29_008": null }, "geometry": { "type": "Polygon", "coordinates": [ [ [ 130.669883833, 33.855378722 ], [ 130.669958361, 33.855750778 ], [ 130.670027194, 33.856094278 ], [ 130.67005289799999, 33.856222628 ], [ 130.67009372199999, 33.856426472 ], [ 130.670107695000013, 33.856499157 ], [ 130.670160583000012, 33.856774278 ], [ 130.670226222, 33.857115694 ], [ 130.670287566000013, 33.857434788 ], [ 130.67030225, 33.857511167 ], [ 130.670418944, 33.857493139 ], [ 130.670421258, 33.857504071 ], [ 130.670427695, 33.857534479 ], [ 130.670529167000012, 33.858013861 ], [ 130.67056330599999, 33.858222609 ], [ 130.670575614, 33.858297867 ], [ 130.670581027999987, 33.858330972 ], [ 130.67058166699999, 33.858333333 ], [ 130.670592, 33.858372167 ], [ 130.670606972, 33.858428278 ], [ 130.670661544000012, 33.858652369 ], [ 130.670685961, 33.858809734 ], [ 130.670864735, 33.858794742 ], [ 130.67106855099999, 33.858774413 ], [ 130.671265354000013, 33.85871828 ], [ 130.67234064499999, 33.858403563 ], [ 130.672786218, 33.858254157 ], [ 130.673056679000013, 33.85809683 ], [ 130.67372652, 33.857716912 ], [ 130.67430064199999, 33.857599151 ], [ 130.675191501, 33.857371889 ], [ 130.675486489, 33.857342846 ], [ 130.675758239, 33.857315233 ], [ 130.676398161, 33.857281876 ], [ 130.676357907000011, 33.857056445 ], [ 130.676355258, 33.85681117 ], [ 130.67637636399999, 33.856664363 ], [ 130.67642429599999, 33.856512409 ], [ 130.676662902, 33.856031445 ], [ 130.676837615000011, 33.855669593 ], [ 130.677077088, 33.855194596 ], [ 130.677074417, 33.854954539 ], [ 130.67704617199999, 33.854862024 ], [ 130.67702842599999, 33.854591363 ], [ 130.676937063, 33.854412951 ], [ 130.676940946, 33.854330956 ], [ 130.676975035, 33.854295262 ], [ 130.677051307, 33.85420973 ], [ 130.67720359399999, 33.854107251 ], [ 130.677353993, 33.854031604 ], [ 130.67754202, 33.853929218 ], [ 130.67771052399999, 33.853790996 ], [ 130.677950856, 33.853560521 ], [ 130.678255693000011, 33.853283993 ], [ 130.678395591, 33.853148678 ], [ 130.678517590000013, 33.853020771 ], [ 130.67858583200001, 33.85293149 ], [ 130.678635025, 33.852679641 ], [ 130.67870022299999, 33.852210149 ], [ 130.67886682, 33.852102487 ], [ 130.679103311, 33.85194133 ], [ 130.67937403, 33.851706458 ], [ 130.679531838, 33.851559261 ], [ 130.679704007999987, 33.851394208 ], [ 130.679847975, 33.851124713 ], [ 130.680137672, 33.850351455 ], [ 130.67945279, 33.85030993 ], [ 130.678964826999987, 33.850266588 ], [ 130.678659567000011, 33.850659414 ], [ 130.677781536, 33.850703902 ], [ 130.67640444599999, 33.850876418 ], [ 130.676191617, 33.850922826 ], [ 130.675733838000014, 33.851003627 ], [ 130.675642879, 33.850720099 ], [ 130.675219332000012, 33.850727185 ], [ 130.67466454, 33.85075178 ], [ 130.674576097, 33.850704615 ], [ 130.671786032, 33.851316724 ], [ 130.670510842, 33.851589715 ], [ 130.670915766, 33.85271202 ], [ 130.67062965299999, 33.852760458 ], [ 130.670329313, 33.852790966 ], [ 130.669408701, 33.852864541 ], [ 130.66939564399999, 33.852865683 ], [ 130.669554111, 33.853605917 ], [ 130.66962591699999, 33.853959722 ], [ 130.66969580599999, 33.854308444 ], [ 130.669757583, 33.854656778 ], [ 130.669811055999986, 33.854963988 ], [ 130.669819722, 33.855013778 ], [ 130.669883833, 33.855378722 ] ] ] } },
{ "type": "Feature", "properties": { "A29_001": "40384", "A29_002": "福岡県", "A29_003": "遠賀町", "A29_004": 5, "A29_005": "第一種住居地域", "A29_006": 60, "A29_007": 200, "A29_008": null }, "geometry": { "type": "Polygon", "coordinates": [ [ [ 130.670504326000014, 33.857896507 ], [ 130.670421258, 33.857504071 ], [ 130.670418944, 33.857493139 ], [ 130.67030225, 33.857511167 ], [ 130.670287566000013, 33.857434788 ], [ 130.670226222, 33.857115694 ], [ 130.670160583000012, 33.856774278 ], [ 130.670107695000013, 33.856499157 ], [ 130.67009372199999, 33.856426472 ], [ 130.67005289799999, 33.856222628 ], [ 130.670027194, 33.856094278 ], [ 130.669958361, 33.855750778 ], [ 130.669883833, 33.855378722 ], [ 130.669819722, 33.855013778 ], [ 130.669757583, 33.854656778 ], [ 130.66969580599999, 33.854308444 ], [ 130.66962591699999, 33.853959722 ], [ 130.669554111, 33.853605917 ], [ 130.66939564399999, 33.852865683 ], [ 130.669295272, 33.852874459 ], [ 130.66824225799999, 33.852966522 ], [ 130.668362163000012, 33.853615611 ], [ 130.668417311000013, 33.853911721 ], [ 130.66860664699999, 33.854861244 ], [ 130.668733495999987, 33.855564586 ], [ 130.66882813399999, 33.85604792 ], [ 130.668972604, 33.856816913 ], [ 130.669105808000012, 33.85749567 ], [ 130.669202232, 33.8579805 ], [ 130.669305368000011, 33.858578662 ], [ 130.669201421999986, 33.858885713 ], [ 130.669229089, 33.858894733 ], [ 130.669296976999988, 33.858900879 ], [ 130.669375874999986, 33.858907549 ], [ 130.669467587000014, 33.858917738 ], [ 130.669496995, 33.85893869 ], [ 130.669645335000013, 33.858937597 ], [ 130.670685961, 33.858809734 ], [ 130.670661544000012, 33.858652369 ], [ 130.670621247000014, 33.858486897 ], [ 130.670606972, 33.858428278 ], [ 130.670592, 33.858372167 ], [ 130.67058166699999, 33.858333333 ], [ 130.670581027999987, 33.858330972 ], [ 130.670575614, 33.858297867 ], [ 130.67056330599999, 33.858222609 ], [ 130.670529167000012, 33.858013861 ], [ 130.670504326000014, 33.857896507 ] ] ] } },
{ "type": "Feature", "properties": { "A29_001": "40384", "A29_002": "福岡県", "A29_003": "遠賀町", "A29_004": 1, "A29_005": "第一種低層住居専用地域", "A29_006": 40, "A29_007": 60, "A29_008": null }, "geometry": { "type": "Polygon", "coordinates": [ [ [ 130.665881361, 33.853129222 ], [ 130.665585061, 33.853044143 ], [ 130.665710503000014, 33.852839845 ], [ 130.665757378, 33.852734112 ], [ 130.66579188599999, 33.852591816 ], [ 130.665686327, 33.852599106 ], [ 130.66549068899999, 33.852612618 ], [ 130.665024139, 33.85264639 ], [ 130.66457366099999, 33.852683185 ], [ 130.664435950000012, 33.85268048 ], [ 130.663365129999988, 33.85268821 ], [ 130.66285765, 33.85268949 ], [ 130.66247474, 33.85266979 ], [ 130.66201211, 33.85262855 ], [ 130.6614251, 33.85256564 ], [ 130.659452140000013, 33.8523017 ], [ 130.658442715, 33.852164187 ], [ 130.65853459600001, 33.852396736 ], [ 130.658581902, 33.852633934 ], [ 130.658600858999989, 33.852809923 ], [ 130.65859743499999, 33.853221427 ], [ 130.658498111, 33.853930862 ], [ 130.658215702, 33.855738647 ], [ 130.658063059999989, 33.85682068 ], [ 130.65790241900001, 33.857890763 ], [ 130.65784420899999, 33.858258876 ], [ 130.657777204000013, 33.858703749 ], [ 130.657753531, 33.858814016 ], [ 130.657685156000014, 33.859265782 ], [ 130.657898808, 33.859244756 ], [ 130.658896582000011, 33.859111841 ], [ 130.66026456, 33.858912845 ], [ 130.66154672, 33.858721053 ], [ 130.662199487, 33.858606546 ], [ 130.662929064999986, 33.858501192 ], [ 130.663414820000014, 33.85844131 ], [ 130.66421542, 33.85836355 ], [ 130.664266357, 33.858375126 ], [ 130.664518457000014, 33.858346738 ], [ 130.665046028, 33.858254986 ], [ 130.665722917000011, 33.858139781 ], [ 130.665970563, 33.858107651 ], [ 130.666049426, 33.858048971 ], [ 130.6661871, 33.858032943 ], [ 130.66657396, 33.8579669 ], [ 130.66659562800001, 33.85799081 ], [ 130.666652828, 33.857987982 ], [ 130.666671705999988, 33.857958959 ], [ 130.66687141, 33.857931745 ], [ 130.666932758, 33.857925931 ], [ 130.667645326000013, 33.858287182 ], [ 130.66811805099999, 33.85851285 ], [ 130.66842047, 33.8586434 ], [ 130.669201421999986, 33.858885713 ], [ 130.669305368000011, 33.858578662 ], [ 130.669202232, 33.8579805 ], [ 130.669105808000012, 33.85749567 ], [ 130.668972604, 33.856816913 ], [ 130.66882813399999, 33.85604792 ], [ 130.668733495999987, 33.855564586 ], [ 130.66860664699999, 33.854861244 ], [ 130.668417311000013, 33.853911721 ], [ 130.668362163000012, 33.853615611 ], [ 130.668242365999987, 33.852967107 ], [ 130.668149139, 33.852980389 ], [ 130.667739493, 33.853020471 ], [ 130.667389641999989, 33.853054701 ], [ 130.667296708, 33.853063793 ], [ 130.667106639, 33.853082389 ], [ 130.666666666999987, 33.853112639 ], [ 130.666661471999987, 33.853113 ], [ 130.666557917, 33.853124469 ], [ 130.666075861, 33.853177861 ], [ 130.665881361, 33.853129222 ] ] ] } },
{ "type": "Feature", "properties": { "A29_001": "40384", "A29_002": "福岡県", "A29_003": "遠賀町", "A29_004": 5, "A29_005": "第一種住居地域", "A29_006": 60, "A29_007": 200, "A29_008": null }, "geometry": { "type": "Polygon", "coordinates": [ [ [ 130.658063059999989, 33.85682068 ], [ 130.658215702, 33.855738647 ], [ 130.658498111, 33.853930862 ], [ 130.65859743499999, 33.853221427 ], [ 130.658600858999989, 33.852809923 ], [ 130.658581902, 33.852633934 ], [ 130.65853459600001, 33.852396736 ], [ 130.658442715, 33.852164187 ], [ 130.659452140000013, 33.8523017 ], [ 130.6614251, 33.85256564 ], [ 130.66201211, 33.85262855 ], [ 130.66247474, 33.85266979 ], [ 130.66285765, 33.85268949 ], [ 130.663365129999988, 33.85268821 ], [ 130.664435950000012, 33.85268048 ], [ 130.66457366099999, 33.852683185 ], [ 130.665024139, 33.85264639 ], [ 130.66549068899999, 33.852612618 ], [ 130.665686327, 33.852599106 ], [ 130.66579188599999, 33.852591816 ], [ 130.665757378, 33.852734112 ], [ 130.665710503000014, 33.852839845 ], [ 130.665585061, 33.853044143 ], [ 130.665881361, 33.853129222 ], [ 130.666075861, 33.853177861 ], [ 130.666557917, 33.853124469 ], [ 130.666661471999987, 33.853113 ], [ 130.666666666999987, 33.853112639 ], [ 130.667106639, 33.853082389 ], [ 130.667296708, 33.853063793 ], [ 130.667389641999989, 33.853054701 ], [ 130.667739493, 33.853020471 ], [ 130.668149139, 33.852980389 ], [ 130.668242365999987, 33.852967107 ], [ 130.66824225799999, 33.852966522 ], [ 130.668166914000011, 33.852347746 ], [ 130.668119018, 33.85202519 ], [ 130.668067314000012, 33.851763383 ], [ 130.667934575, 33.851430535 ], [ 130.66781530599999, 33.851080576 ], [ 130.667629366, 33.851103931 ], [ 130.666731997999989, 33.851178294 ], [ 130.666125134, 33.851222873 ], [ 130.666126684, 33.851284008 ], [ 130.664907348000014, 33.851435762 ], [ 130.66467426, 33.85142927 ], [ 130.66422584, 33.85143338 ], [ 130.66301159, 33.85141142 ], [ 130.662734, 33.85139334 ], [ 130.662501099999986, 33.85137272 ], [ 130.66114624, 33.85118911 ], [ 130.65967344, 33.85097187 ], [ 130.65936563, 33.85093237 ], [ 130.65903235, 33.85087416 ], [ 130.658103680000011, 33.8506624 ], [ 130.657925080000012, 33.85062859 ], [ 130.65773373, 33.85059475 ], [ 130.65752491, 33.85053954 ], [ 130.65722599, 33.85047209 ], [ 130.656257747000012, 33.850318494 ], [ 130.656290582999986, 33.850383361 ], [ 130.65652952799999, 33.850853639 ], [ 130.656598347, 33.850979309 ], [ 130.65669952799999, 33.851113676 ], [ 130.656568083, 33.851093191 ], [ 130.656003029, 33.851005129 ], [ 130.655329748000014, 33.85090037 ], [ 130.65457880400001, 33.850778244 ], [ 130.653996517, 33.85068179 ], [ 130.653615714000011, 33.850620949 ], [ 130.65303194399999, 33.850519722 ], [ 130.652745, 33.850471111 ], [ 130.652564318, 33.850438925 ], [ 130.652563659, 33.850450437 ], [ 130.652558297000013, 33.850618982 ], [ 130.65255751699999, 33.850643503 ], [ 130.652546911, 33.850740746 ], [ 130.652546381, 33.850745604 ], [ 130.652528098, 33.850847685 ], [ 130.652423037, 33.85097636 ], [ 130.65233871, 33.851059617 ], [ 130.65227419199999, 33.851105656 ], [ 130.65312484399999, 33.851278115 ], [ 130.653470410000011, 33.851332763 ], [ 130.654043675, 33.851423832 ], [ 130.65504191, 33.851599584 ], [ 130.655631222000011, 33.851700382 ], [ 130.65642855199999, 33.851844251 ], [ 130.65699913, 33.851938281 ], [ 130.65734800199999, 33.852285161 ], [ 130.657463766, 33.852607536 ], [ 130.657520005, 33.852844759 ], [ 130.657517409, 33.853047526 ], [ 130.657493124000013, 33.853311364 ], [ 130.657404934999988, 33.853914969 ], [ 130.657279998, 33.854770448 ], [ 130.657204369, 33.855360669 ], [ 130.657158095999989, 33.855760125 ], [ 130.65712004299999, 33.855891226 ], [ 130.65703761, 33.85589059 ], [ 130.65638673, 33.85583281 ], [ 130.656235693000013, 33.855817013 ], [ 130.656100099000014, 33.855767615 ], [ 130.655434934999988, 33.855412393 ], [ 130.655386701, 33.855407786 ], [ 130.655375241, 33.855423042 ], [ 130.654895431, 33.856061805 ], [ 130.655431228, 33.856335304 ], [ 130.65535298, 33.856906879 ], [ 130.655321715000014, 33.857130763 ], [ 130.655988258, 33.857185113 ], [ 130.656894779999988, 33.857253734 ], [ 130.656685323, 33.858684126 ], [ 130.656644384, 33.858977363 ], [ 130.656621433, 33.859130125 ], [ 130.656581800999987, 33.85943194 ], [ 130.657685156000014, 33.859265782 ], [ 130.657753531, 33.858814016 ], [ 130.657777204000013, 33.858703749 ], [ 130.65784420899999, 33.858258876 ], [ 130.65790241900001, 33.857890763 ], [ 130.658063059999989, 33.85682068 ] ] ] } },
{ "type": "Feature", "properties": { "A29_001": "40384", "A29_002": "福岡県", "A29_003": "遠賀町", "A29_004": 1, "A29_005": "第一種低層住居専用地域", "A29_006": 40, "A29_007": 60, "A29_008": null }, "geometry": { "type": "Polygon", "coordinates": [ [ [ 130.655988258, 33.857185113 ], [ 130.655321715000014, 33.857130763 ], [ 130.65535298, 33.856906879 ], [ 130.655431228, 33.856335304 ], [ 130.654895431, 33.856061805 ], [ 130.655375241, 33.855423042 ], [ 130.655386701, 33.855407786 ], [ 130.655434934999988, 33.855412393 ], [ 130.656100099000014, 33.855767615 ], [ 130.656235693000013, 33.855817013 ], [ 130.65638673, 33.85583281 ], [ 130.65703761, 33.85589059 ], [ 130.65712004299999, 33.855891226 ], [ 130.657158095999989, 33.855760125 ], [ 130.657204369, 33.855360669 ], [ 130.657279998, 33.854770448 ], [ 130.657404934999988, 33.853914969 ], [ 130.657493124000013, 33.853311364 ], [ 130.657517409, 33.853047526 ], [ 130.657520005, 33.852844759 ], [ 130.657463766, 33.852607536 ], [ 130.65734800199999, 33.852285161 ], [ 130.65699913, 33.851938281 ], [ 130.65642855199999, 33.851844251 ], [ 130.655631222000011, 33.851700382 ], [ 130.65504191, 33.851599584 ], [ 130.654043675, 33.851423832 ], [ 130.653470410000011, 33.851332763 ], [ 130.65312484399999, 33.851278115 ], [ 130.65227419199999, 33.851105656 ], [ 130.652030279, 33.851322652 ], [ 130.651795329, 33.851532218 ], [ 130.651730737, 33.851596148 ], [ 130.651667878000012, 33.851673502 ], [ 130.651595998, 33.851771704 ], [ 130.651481122, 33.851995306 ], [ 130.651184919, 33.852666625 ], [ 130.65101540500001, 33.853043365 ], [ 130.650471484, 33.854301708 ], [ 130.6503152, 33.854719487 ], [ 130.650282135999987, 33.854839127 ], [ 130.652112069, 33.855060975 ], [ 130.652112859999988, 33.855086324 ], [ 130.65206411, 33.85564978 ], [ 130.65201520299999, 33.856252 ], [ 130.651997711, 33.856599351 ], [ 130.651953823000014, 33.856595065 ], [ 130.651526096999987, 33.856553289 ], [ 130.651518974999988, 33.856574757 ], [ 130.651428078, 33.856886524 ], [ 130.65130088399999, 33.856962205 ], [ 130.651252607, 33.857407873 ], [ 130.651195672999989, 33.857784932 ], [ 130.651107739999986, 33.857874142 ], [ 130.650952010999987, 33.857934831 ], [ 130.650790859000011, 33.858084738 ], [ 130.65090453900001, 33.858182201 ], [ 130.65111277599999, 33.858393765 ], [ 130.651368912, 33.858692687 ], [ 130.65157693, 33.858958671 ], [ 130.651703007, 33.859158819 ], [ 130.651796843, 33.859376768 ], [ 130.651959568, 33.859794704 ], [ 130.652028621, 33.859954434 ], [ 130.652154577, 33.860112544 ], [ 130.65274141899999, 33.860026521 ], [ 130.653120546999986, 33.859966458 ], [ 130.654052314000012, 33.85980805 ], [ 130.65483914, 33.859693213 ], [ 130.655583944999989, 33.859583473 ], [ 130.65617585199999, 33.859496411 ], [ 130.656581800999987, 33.85943194 ], [ 130.656621433, 33.859130125 ], [ 130.656644384, 33.858977363 ], [ 130.656685323, 33.858684126 ], [ 130.656894779999988, 33.857253734 ], [ 130.655988258, 33.857185113 ] ] ] } }
]
}
