{
"type": "FeatureCollection",
"name": "A29-19_09344",
"features": [
{ "type": "Feature", "properties": { "A29_001": "09344", "A29_002": "栃木県", "A29_003": "市貝町", "A29_004": 5, "A29_005": "第一種住居地域", "A29_006": 60, "A29_007": 200, "A29_008": null }, "geometry": { "type": "Polygon", "coordinates": [ [ [ 140.069879444, 36.521192306 ], [ 140.070007307, 36.5209896 ], [ 140.070085971999987, 36.520864889 ], [ 140.07013211099999, 36.520791746 ], [ 140.07031236099999, 36.520506 ], [ 140.070389049, 36.520376972 ], [ 140.070426360999988, 36.520314194 ], [ 140.07043929, 36.520274167 ], [ 140.070499361, 36.520088194 ], [ 140.0705025, 36.520069417 ], [ 140.070562110999987, 36.519712889 ], [ 140.070576334, 36.519594776 ], [ 140.070596693999988, 36.519425694 ], [ 140.070577472, 36.519357278 ], [ 140.07053964799999, 36.519276201 ], [ 140.070505110999989, 36.519202167 ], [ 140.070459007000011, 36.519117386 ], [ 140.07037286100001, 36.518958972 ], [ 140.070115644999987, 36.518305081 ], [ 140.069552534, 36.516543542 ], [ 140.069119448, 36.515567689 ], [ 140.069017191, 36.515358051 ], [ 140.068178632000013, 36.513928977 ], [ 140.068087351, 36.513490907 ], [ 140.067958769, 36.513011071 ], [ 140.067644296999987, 36.513106749 ], [ 140.06748755800001, 36.512850385 ], [ 140.067173094999987, 36.512827823 ], [ 140.067124596000014, 36.512896279 ], [ 140.067064875999989, 36.51284559 ], [ 140.06687146499999, 36.512829539 ], [ 140.066826330999987, 36.512807916 ], [ 140.066799898999989, 36.512720536 ], [ 140.066668607999986, 36.512706758 ], [ 140.06659372199999, 36.512702797 ], [ 140.06652653099999, 36.512705814 ], [ 140.0662824, 36.512744432 ], [ 140.066222312, 36.513069632 ], [ 140.06574675600001, 36.51305301 ], [ 140.06555559, 36.5130304 ], [ 140.065214364000013, 36.512927245 ], [ 140.06516751699999, 36.512909226 ], [ 140.065108111, 36.512886376 ], [ 140.064763340000013, 36.51281663 ], [ 140.063957918999989, 36.512558831 ], [ 140.063936082999987, 36.512587889 ], [ 140.063853278000011, 36.512810772 ], [ 140.063796774999986, 36.51296286 ], [ 140.064012754, 36.51303458 ], [ 140.0639865, 36.513084972 ], [ 140.063826054, 36.513463056 ], [ 140.063805282, 36.513512005 ], [ 140.063943353000013, 36.513547014 ], [ 140.064104848, 36.513586016 ], [ 140.06481379499999, 36.513774864 ], [ 140.06481218499999, 36.514084592 ], [ 140.064827538, 36.514358007 ], [ 140.064734294, 36.514747043 ], [ 140.065198497000011, 36.514819657 ], [ 140.065788484, 36.514934718 ], [ 140.065780385000011, 36.515051851 ], [ 140.06576641, 36.515253971 ], [ 140.0657639, 36.515290274 ], [ 140.06575345600001, 36.515441318 ], [ 140.065748936, 36.515506701 ], [ 140.06574143099999, 36.51561524 ], [ 140.06573872199999, 36.515654417 ], [ 140.065739314000012, 36.515691522 ], [ 140.065741077000013, 36.515801933 ], [ 140.065742306, 36.515878889 ], [ 140.06574259300001, 36.515884663 ], [ 140.06574583299999, 36.515949889 ], [ 140.065641449999987, 36.515948533 ], [ 140.065641894, 36.516030793 ], [ 140.06564211, 36.516070854 ], [ 140.06564304, 36.516243135 ], [ 140.06564711199999, 36.51699724 ], [ 140.065647801000011, 36.517124895 ], [ 140.065641301, 36.517527574 ], [ 140.06563430700001, 36.517960805 ], [ 140.065692969, 36.518012178 ], [ 140.065729244000011, 36.518043944 ], [ 140.065641569, 36.518086802 ], [ 140.065635238, 36.518089897 ], [ 140.065549585000014, 36.518133487 ], [ 140.06550648699999, 36.518564764 ], [ 140.065571879, 36.518552314 ], [ 140.065612574, 36.518547247 ], [ 140.06559106200001, 36.518709643 ], [ 140.06553230899999, 36.519006858 ], [ 140.06552731299999, 36.519195328 ], [ 140.065416950000014, 36.5192419 ], [ 140.06556946, 36.51943231 ], [ 140.064687034, 36.519234516 ], [ 140.06423605, 36.519149718 ], [ 140.063965488, 36.519107993 ], [ 140.063515282999987, 36.519040208 ], [ 140.06326895399999, 36.520076858 ], [ 140.0632271, 36.520168576 ], [ 140.063161103999988, 36.520340057 ], [ 140.063152306, 36.520362917 ], [ 140.063070806000013, 36.520668306 ], [ 140.06298418599999, 36.521039122 ], [ 140.063703177, 36.521177527 ], [ 140.06423546900001, 36.521278597 ], [ 140.065691789999988, 36.52156447 ], [ 140.066708199, 36.521823608 ], [ 140.066763508, 36.521587972 ], [ 140.066847136, 36.521123881 ], [ 140.06764047499999, 36.521423936 ], [ 140.068227051, 36.521619767 ], [ 140.06796947, 36.522274722 ], [ 140.068540746999986, 36.522463131 ], [ 140.068600666, 36.522486138 ], [ 140.06862677699999, 36.522496163 ], [ 140.06878883600001, 36.522376331 ], [ 140.069011665, 36.522204204 ], [ 140.069156670000012, 36.522088744 ], [ 140.069230954, 36.52203423 ], [ 140.06927160699999, 36.52199552 ], [ 140.069378137, 36.521872054 ], [ 140.06943945399999, 36.521807972 ], [ 140.069454444, 36.521792306 ], [ 140.069465409, 36.521778494 ], [ 140.06961522200001, 36.521589778 ], [ 140.06964469799999, 36.521545437 ], [ 140.069879444, 36.521192306 ] ] ] } },
{ "type": "Feature", "properties": { "A29_001": "09344", "A29_002": "栃木県", "A29_003": "市貝町", "A29_004": 12, "A29_005": "工業専用地域", "A29_006": 60, "A29_007": 200, "A29_008": null }, "geometry": { "type": "Polygon", "coordinates": [ [ [ 140.066152530000011, 36.52853963 ], [ 140.066311148000011, 36.52809336 ], [ 140.066363088, 36.527957123 ], [ 140.066588814999989, 36.527584657 ], [ 140.066685607000011, 36.527373223 ], [ 140.06676407, 36.527163218 ], [ 140.066818844000011, 36.527016617 ], [ 140.066961423, 36.526635006 ], [ 140.06697619799999, 36.52647568 ], [ 140.066981973, 36.526410792 ], [ 140.066976367, 36.526314944 ], [ 140.066954785, 36.526211974 ], [ 140.066857227000014, 36.525691146 ], [ 140.066780662000014, 36.525374429 ], [ 140.066732230000014, 36.525225479 ], [ 140.06666906699999, 36.525013185 ], [ 140.06654544, 36.524663151 ], [ 140.066532696, 36.52455158 ], [ 140.06654818199999, 36.5243956 ], [ 140.066591807, 36.524165168 ], [ 140.06668316, 36.52389029 ], [ 140.06676975799999, 36.523802846 ], [ 140.067056251, 36.523577661 ], [ 140.067664699, 36.523131512 ], [ 140.067980541, 36.522929791 ], [ 140.06862677699999, 36.522496163 ], [ 140.068540746999986, 36.522463131 ], [ 140.06796947, 36.522274722 ], [ 140.068227051, 36.521619767 ], [ 140.06764047499999, 36.521423936 ], [ 140.066847136, 36.521123881 ], [ 140.066763508, 36.521587972 ], [ 140.066708199, 36.521823608 ], [ 140.065691789999988, 36.52156447 ], [ 140.06423546900001, 36.521278597 ], [ 140.063703177, 36.521177527 ], [ 140.06298418599999, 36.521039122 ], [ 140.063070806000013, 36.520668306 ], [ 140.063152306, 36.520362917 ], [ 140.063161103999988, 36.520340057 ], [ 140.061454766999987, 36.52019633 ], [ 140.061184873, 36.522366799 ], [ 140.061095832, 36.523241287 ], [ 140.061032058, 36.523807075 ], [ 140.060920127, 36.524810701 ], [ 140.06107618499999, 36.525467608 ], [ 140.062326926999987, 36.525543844 ], [ 140.062319997, 36.525462851 ], [ 140.062290784, 36.525121424 ], [ 140.06292487499999, 36.525158933 ], [ 140.06293198099999, 36.525244441 ], [ 140.06294447499999, 36.525394785 ], [ 140.063269104999989, 36.5254613 ], [ 140.063341681999987, 36.52547617 ], [ 140.063179835999989, 36.525695355 ], [ 140.06289404899999, 36.526045046 ], [ 140.062633632, 36.526369455 ], [ 140.06283722399999, 36.526418566 ], [ 140.06411060799999, 36.526725722 ], [ 140.064085225000014, 36.526792428 ], [ 140.06367486100001, 36.527870806 ], [ 140.063597076, 36.528119755 ], [ 140.063948540000013, 36.528235485 ], [ 140.064433298000012, 36.528395103 ], [ 140.06527205099999, 36.52878545 ], [ 140.066083246, 36.52919697 ], [ 140.066233208, 36.529276428 ], [ 140.066301716999988, 36.529312728 ], [ 140.066293873, 36.52912145 ], [ 140.066254168, 36.528980224 ], [ 140.066141109, 36.528578076 ], [ 140.066152530000011, 36.52853963 ] ] ] } },
{ "type": "Feature", "properties": { "A29_001": "09344", "A29_002": "栃木県", "A29_003": "市貝町", "A29_004": 5, "A29_005": "第一種住居地域", "A29_006": 60, "A29_007": 200, "A29_008": null }, "geometry": { "type": "Polygon", "coordinates": [ [ [ 140.109766939999986, 36.540093659 ], [ 140.109772063, 36.540038564 ], [ 140.11007692699999, 36.539849214 ], [ 140.11011609900001, 36.539822424 ], [ 140.110185409, 36.539784415 ], [ 140.11023758499999, 36.539771817 ], [ 140.110296412999986, 36.539733749 ], [ 140.11032026399999, 36.539710086 ], [ 140.110328161000012, 36.539687177 ], [ 140.110334254, 36.539655687 ], [ 140.110321656, 36.539614365 ], [ 140.110289964, 36.539590906 ], [ 140.11010342599999, 36.539486897 ], [ 140.110060800000014, 36.53946625 ], [ 140.109976544, 36.539455715 ], [ 140.109712368, 36.539456328 ], [ 140.110218522999986, 36.538947963 ], [ 140.110273533999987, 36.538994136 ], [ 140.110340537000013, 36.53902332 ], [ 140.110437401000013, 36.539055665 ], [ 140.11048417399999, 36.539075745 ], [ 140.110536841, 36.539098356 ], [ 140.11059698599999, 36.539137514 ], [ 140.11063898099999, 36.539108298 ], [ 140.11081099, 36.539015772 ], [ 140.111109383000013, 36.53888305 ], [ 140.110878731000014, 36.538640656 ], [ 140.11066259399999, 36.538390014 ], [ 140.109807038000014, 36.537457833 ], [ 140.109298923000011, 36.536890998 ], [ 140.10909748099999, 36.53668022 ], [ 140.109058628000014, 36.536645584 ], [ 140.108942597, 36.536679991 ], [ 140.108867120000014, 36.536721241 ], [ 140.1088047, 36.536753659 ], [ 140.108765549, 36.536786022 ], [ 140.108722784, 36.536824849 ], [ 140.108680101, 36.536886561 ], [ 140.10864363499999, 36.537060921 ], [ 140.10862218599999, 36.537164245 ], [ 140.108549728000014, 36.537490311 ], [ 140.108293124999989, 36.53746544 ], [ 140.1081113, 36.537455297 ], [ 140.108009231000011, 36.537455214 ], [ 140.107734631999989, 36.537454991 ], [ 140.107315719000013, 36.53743483 ], [ 140.10685159, 36.537377216 ], [ 140.10661590699999, 36.537353111 ], [ 140.106387764, 36.537314869 ], [ 140.106302655, 36.537305969 ], [ 140.106229611, 36.537315818 ], [ 140.106186646, 36.537336784 ], [ 140.106139267, 36.537326844 ], [ 140.106101301, 36.537312187 ], [ 140.10601637900001, 36.537252969 ], [ 140.105998137, 36.53723482 ], [ 140.105972114, 36.537222302 ], [ 140.10578088299999, 36.537204364 ], [ 140.10573058, 36.537192989 ], [ 140.105611321999987, 36.537166023 ], [ 140.105342799, 36.537107957 ], [ 140.105135397999987, 36.537061486 ], [ 140.104931603000011, 36.537006793 ], [ 140.104856998, 36.536986132 ], [ 140.104752504, 36.536943827 ], [ 140.10460982399999, 36.536898382 ], [ 140.104436701999987, 36.536821159 ], [ 140.104380244999987, 36.536851961 ], [ 140.104188869000012, 36.536813081 ], [ 140.104036048000012, 36.536778808 ], [ 140.103919611, 36.53675208 ], [ 140.103865731000013, 36.536731664 ], [ 140.103805275000013, 36.536702462 ], [ 140.103704830999988, 36.536657267 ], [ 140.103621018000013, 36.536619556 ], [ 140.103449151, 36.536544836 ], [ 140.103232259, 36.536486648 ], [ 140.103067815, 36.536455334 ], [ 140.10288304299999, 36.536433453 ], [ 140.102766624, 36.536411418 ], [ 140.10268790500001, 36.536357612 ], [ 140.102625176, 36.536301422 ], [ 140.10255376500001, 36.53625816 ], [ 140.102467837, 36.536221973 ], [ 140.102355824999989, 36.536212838 ], [ 140.102227735000014, 36.536180266 ], [ 140.102089416000013, 36.536133635 ], [ 140.102013590000013, 36.536075127 ], [ 140.101933419, 36.536021323 ], [ 140.101877994, 36.535974505 ], [ 140.101828297, 36.535901855 ], [ 140.101769883, 36.535831571 ], [ 140.1017086, 36.535773031 ], [ 140.101593551, 36.535726346 ], [ 140.101446544, 36.535690296 ], [ 140.101318455000012, 36.535657724 ], [ 140.100989515, 36.535604771 ], [ 140.100935604, 36.53578621 ], [ 140.10083595899999, 36.536200706 ], [ 140.10070743, 36.536462702 ], [ 140.10061010699999, 36.536773442 ], [ 140.100546607000013, 36.536915587 ], [ 140.100327568000012, 36.537224032 ], [ 140.100108654, 36.53742403 ], [ 140.100337004000011, 36.537579876 ], [ 140.100391454, 36.537617037 ], [ 140.100376793, 36.538005524 ], [ 140.100311264, 36.538162759 ], [ 140.100296017, 36.538199345 ], [ 140.10029429299999, 36.538230675 ], [ 140.100275485, 36.538572589 ], [ 140.100280656, 36.538579959 ], [ 140.100321373000014, 36.538594784 ], [ 140.10034542599999, 36.538611161 ], [ 140.100362937999989, 36.538628725 ], [ 140.100365911000011, 36.538647496 ], [ 140.100363050999988, 36.538661585 ], [ 140.10035878299999, 36.538672949 ], [ 140.100364743, 36.538677864 ], [ 140.100263197, 36.538964445 ], [ 140.100250163, 36.539006869 ], [ 140.100495181000014, 36.538995465 ], [ 140.100781598, 36.53899629 ], [ 140.101036069, 36.538985157 ], [ 140.101081391, 36.538981902 ], [ 140.101261467, 36.538925238 ], [ 140.101331579, 36.539434413 ], [ 140.101351529999988, 36.539737151 ], [ 140.101522718000012, 36.539745422 ], [ 140.101574362, 36.539749413 ], [ 140.101548333000011, 36.539792894 ], [ 140.101487614, 36.539898066 ], [ 140.10141621, 36.539936514 ], [ 140.101326648, 36.540112752 ], [ 140.10128481000001, 36.540222268 ], [ 140.101654524999987, 36.540317162 ], [ 140.102070085, 36.540510804 ], [ 140.102185644, 36.540600679 ], [ 140.102461729999987, 36.540863309 ], [ 140.10244055199999, 36.540891971 ], [ 140.10243176899999, 36.540915598 ], [ 140.102440696, 36.540933461 ], [ 140.10270203799999, 36.541100262 ], [ 140.102700547000012, 36.541233943 ], [ 140.102700492999986, 36.54124306 ], [ 140.102699629999989, 36.541388858 ], [ 140.102750337, 36.541397655 ], [ 140.102780711, 36.541402105 ], [ 140.102762528999989, 36.541492577 ], [ 140.102753506999989, 36.541616997 ], [ 140.102740786, 36.541723234 ], [ 140.102758998000013, 36.541732581 ], [ 140.102890624, 36.541738656 ], [ 140.102904461, 36.541739294 ], [ 140.10290593, 36.541802368 ], [ 140.10291129699999, 36.542032673 ], [ 140.102915978, 36.542124201 ], [ 140.102972693999988, 36.542121539 ], [ 140.10311899300001, 36.542121212 ], [ 140.103243213000013, 36.542122874 ], [ 140.103325700999989, 36.542121624 ], [ 140.103348946000011, 36.542270542 ], [ 140.103359332999986, 36.542299583 ], [ 140.103430083, 36.542277722 ], [ 140.103528423, 36.54224307 ], [ 140.104300501000012, 36.542045786 ], [ 140.104366965999986, 36.542038481 ], [ 140.104491088, 36.542040584 ], [ 140.10456499899999, 36.542049954 ], [ 140.105044408, 36.542159505 ], [ 140.105785714, 36.542342148 ], [ 140.105856252, 36.542265697 ], [ 140.105950489, 36.542172484 ], [ 140.106009352, 36.542104391 ], [ 140.106082969999989, 36.542030302 ], [ 140.106137464, 36.541980102 ], [ 140.106205318, 36.541947755 ], [ 140.106273155, 36.54191064 ], [ 140.106488363000011, 36.541848149 ], [ 140.10712826, 36.541629213 ], [ 140.107265248, 36.541592653 ], [ 140.107409268, 36.541538909 ], [ 140.10753205099999, 36.541496659 ], [ 140.107657157, 36.541442957 ], [ 140.108297899, 36.541102798 ], [ 140.10833628099999, 36.541093172 ], [ 140.10837591, 36.541101903 ], [ 140.108935639, 36.541611333 ], [ 140.109250841, 36.541896589 ], [ 140.109357444000011, 36.54201625 ], [ 140.109704278, 36.54229225 ], [ 140.109895472, 36.542434833 ], [ 140.110093583, 36.542582556 ], [ 140.110187972, 36.542665639 ], [ 140.110226076, 36.542699188 ], [ 140.110283543, 36.54265255 ], [ 140.110290255, 36.542611433 ], [ 140.110368200000011, 36.542508717 ], [ 140.110437415, 36.542444173 ], [ 140.11050229599999, 36.542407062 ], [ 140.110571588, 36.54236398 ], [ 140.111011753000014, 36.542053562 ], [ 140.111134322999987, 36.541952173 ], [ 140.111174307999988, 36.541894851 ], [ 140.11123182099999, 36.541781213 ], [ 140.111294539, 36.541651086 ], [ 140.111343533, 36.541608253 ], [ 140.111283785000012, 36.541567292 ], [ 140.11091300699999, 36.541313104 ], [ 140.1108652, 36.54123833 ], [ 140.11085624, 36.541224316 ], [ 140.110774593, 36.541096611 ], [ 140.11071988099999, 36.540991994 ], [ 140.110648141000013, 36.540917043 ], [ 140.110577052, 36.540870471 ], [ 140.110156751, 36.540679731 ], [ 140.109911958, 36.540238541 ], [ 140.109766939999986, 36.540093659 ] ] ] } }
]
}
