{
"type": "FeatureCollection",
"name": "A29-19_09411",
"features": [
{ "type": "Feature", "properties": { "A29_001": "09411", "A29_002": "栃木県", "A29_003": "那珂川町", "A29_004": 10, "A29_005": "準工業地域", "A29_006": 60, "A29_007": 200, "A29_008": null }, "geometry": { "type": "Polygon", "coordinates": [ [ [ 140.160935545, 36.733645484 ], [ 140.160902916, 36.733598961 ], [ 140.160876812999987, 36.733555439 ], [ 140.160855371, 36.733505914 ], [ 140.160841387, 36.733466145 ], [ 140.160824606, 36.733406115 ], [ 140.160808145, 36.733333333 ], [ 140.160790579, 36.733255665 ], [ 140.16078358199999, 36.733162039 ], [ 140.16076820399999, 36.732956266 ], [ 140.160765128, 36.732871041 ], [ 140.160761213, 36.732748788 ], [ 140.160752822, 36.732645987 ], [ 140.160730914, 36.732495537 ], [ 140.16070775099999, 36.732415988 ], [ 140.160702947, 36.732399489 ], [ 140.160669386, 36.732322951 ], [ 140.160616714000014, 36.732237033 ], [ 140.160523237, 36.732126094 ], [ 140.160413675, 36.731984661 ], [ 140.16012081299999, 36.73185344 ], [ 140.159766733999987, 36.73176571 ], [ 140.159317087, 36.731775526 ], [ 140.15909280599999, 36.731701528 ], [ 140.158994917, 36.731690833 ], [ 140.15888338900001, 36.731685028 ], [ 140.158811899999989, 36.731681054 ], [ 140.15888037900001, 36.731482003 ], [ 140.157820211, 36.731074295 ], [ 140.157386663000011, 36.730895927 ], [ 140.157203270999986, 36.730819885 ], [ 140.157082339999988, 36.730803761 ], [ 140.156974818, 36.7308062 ], [ 140.15679721399999, 36.730838873 ], [ 140.15691841899999, 36.730920092 ], [ 140.157017445, 36.73101067 ], [ 140.15706396600001, 36.731084223 ], [ 140.157105284000011, 36.73118855 ], [ 140.157112872, 36.731302268 ], [ 140.15711585, 36.731376654 ], [ 140.157108158, 36.73144964 ], [ 140.157082632, 36.731508367 ], [ 140.15704034699999, 36.731597183 ], [ 140.15699908900001, 36.731718903 ], [ 140.157001423999986, 36.732063688 ], [ 140.15710044299999, 36.732152121 ], [ 140.157097470999986, 36.732290904 ], [ 140.15708611299999, 36.732337432 ], [ 140.15703585899999, 36.732433424 ], [ 140.156984779, 36.73254444 ], [ 140.156963813, 36.732631052 ], [ 140.15696948199999, 36.732711155 ], [ 140.156983989999986, 36.732779787 ], [ 140.157000125, 36.732812649 ], [ 140.15708113, 36.733055643 ], [ 140.157047497, 36.73308864 ], [ 140.157031668, 36.733128742 ], [ 140.157028257, 36.733163087 ], [ 140.157100544, 36.733446164 ], [ 140.15702597, 36.733464965 ], [ 140.15698340099999, 36.733486541 ], [ 140.15693199399999, 36.733519586 ], [ 140.156880658, 36.733569799 ], [ 140.156981538999986, 36.733815672 ], [ 140.157374465, 36.733703177 ], [ 140.157731245, 36.733656901 ], [ 140.15843524600001, 36.733632212 ], [ 140.15858582300001, 36.733664421 ], [ 140.158754109, 36.733711128 ], [ 140.158988165000011, 36.733780496 ], [ 140.15908641499999, 36.733813165 ], [ 140.15952189399999, 36.733951801 ], [ 140.159624839, 36.733985051 ], [ 140.159662709, 36.733997256 ], [ 140.159869953, 36.734064051 ], [ 140.160145512000014, 36.734152828 ], [ 140.160339095000012, 36.73421799 ], [ 140.160535183, 36.734283994 ], [ 140.16068621, 36.734334084 ], [ 140.160798086999989, 36.734173082 ], [ 140.16068811299999, 36.734087544 ], [ 140.160794051000011, 36.733920341 ], [ 140.161032033999987, 36.733756914 ], [ 140.160983557, 36.73370814 ], [ 140.160935545, 36.733645484 ] ] ] } },
{ "type": "Feature", "properties": { "A29_001": "09411", "A29_002": "栃木県", "A29_003": "那珂川町", "A29_004": 8, "A29_005": "近隣商業地域", "A29_006": 80, "A29_007": 200, "A29_008": null }, "geometry": { "type": "Polygon", "coordinates": [ [ [ 140.173809009, 36.738718175 ], [ 140.173886079999988, 36.738559985 ], [ 140.174445889, 36.738698468 ], [ 140.17466961, 36.738206034 ], [ 140.174510160000011, 36.738158802 ], [ 140.174583301000013, 36.737949953 ], [ 140.173660135, 36.737711171 ], [ 140.173533005, 36.73777055 ], [ 140.173025818000013, 36.737638469 ], [ 140.172972996999988, 36.737753073 ], [ 140.17284548, 36.737724824 ], [ 140.17286016700001, 36.737696169 ], [ 140.172700993, 36.737657191 ], [ 140.17276528799999, 36.737506808 ], [ 140.172429306, 36.73740411 ], [ 140.172411719, 36.73744708 ], [ 140.171460743000011, 36.737180342 ], [ 140.171573329000012, 36.73691201 ], [ 140.17148787799999, 36.736882686 ], [ 140.171439514000014, 36.736933374 ], [ 140.171396812000012, 36.736923957 ], [ 140.17132523699999, 36.737086303 ], [ 140.170995452, 36.737007122 ], [ 140.170875921, 36.737313624 ], [ 140.17076440400001, 36.737285327 ], [ 140.170872280999987, 36.737023685 ], [ 140.170829614000013, 36.736969809 ], [ 140.17030978, 36.7368412 ], [ 140.170258256000011, 36.736982505 ], [ 140.170177596, 36.736964612 ], [ 140.17019747, 36.73690256 ], [ 140.169980337999988, 36.736840225 ], [ 140.169954421999989, 36.736875588 ], [ 140.169838207, 36.736856841 ], [ 140.16980075699999, 36.736964724 ], [ 140.169467407000013, 36.736882687 ], [ 140.16949669499999, 36.736805348 ], [ 140.169087092000012, 36.736697403 ], [ 140.169156617, 36.736537808 ], [ 140.168794913999989, 36.736449279 ], [ 140.168808947, 36.736406319 ], [ 140.16859590199999, 36.736356959 ], [ 140.168529696, 36.736538548 ], [ 140.168437914, 36.736514665 ], [ 140.16853105199999, 36.736268327 ], [ 140.16803279199999, 36.736140969 ], [ 140.167925445, 36.736390208 ], [ 140.167503729, 36.736288384 ], [ 140.167493213, 36.73632275 ], [ 140.167142703, 36.736245047 ], [ 140.16715668099999, 36.736189211 ], [ 140.166969889, 36.736153968 ], [ 140.166980424, 36.736123895 ], [ 140.166652992, 36.736038972 ], [ 140.166607198, 36.736136386 ], [ 140.166539566000012, 36.736116546 ], [ 140.16654651499999, 36.736079329 ], [ 140.166425516, 36.736049623 ], [ 140.16640968499999, 36.736088296 ], [ 140.166306502999987, 36.736068555 ], [ 140.166345138999986, 36.735959716 ], [ 140.166217034999988, 36.735931461 ], [ 140.165966414, 36.736551463 ], [ 140.167657377000012, 36.737083227 ], [ 140.16764132599999, 36.737139307 ], [ 140.169866500000012, 36.737881753 ], [ 140.16972855, 36.738177815 ], [ 140.17024048499999, 36.738308378 ], [ 140.170357431000014, 36.738023431 ], [ 140.171927649, 36.738473828 ], [ 140.17207693200001, 36.738118064 ], [ 140.17250705699999, 36.738242022 ], [ 140.172766886, 36.738378387 ], [ 140.173415597, 36.738522583 ], [ 140.17337895899999, 36.738612105 ], [ 140.173809009, 36.738718175 ] ] ] } },
{ "type": "Feature", "properties": { "A29_001": "09411", "A29_002": "栃木県", "A29_003": "那珂川町", "A29_004": 5, "A29_005": "第一種住居地域", "A29_006": 60, "A29_007": 200, "A29_008": null }, "geometry": { "type": "Polygon", "coordinates": [ [ [ 140.179908832, 36.742676111 ], [ 140.18030356599999, 36.74189868 ], [ 140.180470058, 36.741697901 ], [ 140.180256875, 36.741738606 ], [ 140.179875286, 36.741741625 ], [ 140.179377541, 36.741741166 ], [ 140.178772326, 36.741559799 ], [ 140.17835428, 36.741360718 ], [ 140.178026251, 36.741149929 ], [ 140.17758412500001, 36.740865075 ], [ 140.176641673, 36.73999795 ], [ 140.17641077, 36.739773524 ], [ 140.176294743999989, 36.739798657 ], [ 140.176091707000012, 36.739444436 ], [ 140.17598706699999, 36.73936462 ], [ 140.175908574, 36.739301896 ], [ 140.175715096, 36.738964815 ], [ 140.175343407000014, 36.738549429 ], [ 140.174776538, 36.737361346 ], [ 140.174589375000011, 36.736940963 ], [ 140.17458686099999, 36.736937556 ], [ 140.174537162, 36.736870194 ], [ 140.17445171599999, 36.736815361 ], [ 140.17432510399999, 36.7367705 ], [ 140.17429367, 36.73676614 ], [ 140.17431271, 36.736717205 ], [ 140.174310913, 36.736645676 ], [ 140.17426883600001, 36.736509883 ], [ 140.173998132, 36.735922891 ], [ 140.17379953599999, 36.735563407 ], [ 140.17355809099999, 36.73522789 ], [ 140.17327506399999, 36.734867454 ], [ 140.17299696, 36.734628556 ], [ 140.172951051000013, 36.734583795 ], [ 140.172913934, 36.734564229 ], [ 140.172862009999989, 36.734545898 ], [ 140.172745647999989, 36.734526558 ], [ 140.172367227, 36.73453479 ], [ 140.171990416999989, 36.734572226 ], [ 140.171455177000013, 36.734624417 ], [ 140.171206371000011, 36.734634066 ], [ 140.170458309, 36.734626053 ], [ 140.170184043, 36.734588797 ], [ 140.169849655, 36.734538239 ], [ 140.16957404199999, 36.734468977 ], [ 140.169286516999989, 36.734340967 ], [ 140.16896098699999, 36.734174637 ], [ 140.168787865000013, 36.734039357 ], [ 140.168631987, 36.733891007 ], [ 140.168522298, 36.733788421 ], [ 140.16837964699999, 36.733632289 ], [ 140.168284274, 36.733499982 ], [ 140.168149454, 36.733319417 ], [ 140.168013777, 36.733152613 ], [ 140.167860001, 36.733010097 ], [ 140.167711344, 36.732886523 ], [ 140.167469264, 36.732738175 ], [ 140.167254058999987, 36.732638632 ], [ 140.16684928, 36.732482575 ], [ 140.166673967, 36.732420888 ], [ 140.16654945, 36.732398585 ], [ 140.166410234000011, 36.732402551 ], [ 140.166330359, 36.732427811 ], [ 140.16599633199999, 36.732595657 ], [ 140.165734840999988, 36.732753762 ], [ 140.16538319599999, 36.732958614 ], [ 140.165152510000013, 36.733047482 ], [ 140.165066703, 36.733071566 ], [ 140.164794347999987, 36.733115245 ], [ 140.16457226599999, 36.733138515 ], [ 140.164447841, 36.733137669 ], [ 140.164253738000014, 36.73312271 ], [ 140.164065509000011, 36.733095812 ], [ 140.163866809000012, 36.733045098 ], [ 140.162874937, 36.732679181 ], [ 140.162684180000014, 36.732552411 ], [ 140.161801137999987, 36.732147109 ], [ 140.161465743, 36.73199543 ], [ 140.161139469, 36.731898566 ], [ 140.1609111, 36.731836007 ], [ 140.16079693899999, 36.731810092 ], [ 140.160599846999986, 36.731787982 ], [ 140.16030652, 36.731775673 ], [ 140.160413675, 36.731984661 ], [ 140.160523237, 36.732126094 ], [ 140.160616714000014, 36.732237033 ], [ 140.160669386, 36.732322951 ], [ 140.160702947, 36.732399489 ], [ 140.16070775099999, 36.732415988 ], [ 140.160730914, 36.732495537 ], [ 140.160752822, 36.732645987 ], [ 140.160761213, 36.732748788 ], [ 140.160765128, 36.732871041 ], [ 140.16076820399999, 36.732956266 ], [ 140.16078358199999, 36.733162039 ], [ 140.160790579, 36.733255665 ], [ 140.160808145, 36.733333333 ], [ 140.160824606, 36.733406115 ], [ 140.160841387, 36.733466145 ], [ 140.160855371, 36.733505914 ], [ 140.160876812999987, 36.733555439 ], [ 140.160902916, 36.733598961 ], [ 140.160935545, 36.733645484 ], [ 140.160983557, 36.73370814 ], [ 140.161032033999987, 36.733756914 ], [ 140.160794051000011, 36.733920341 ], [ 140.16068811299999, 36.734087544 ], [ 140.160798086999989, 36.734173082 ], [ 140.16068621, 36.734334084 ], [ 140.160535183, 36.734283994 ], [ 140.160339095000012, 36.73421799 ], [ 140.160145512000014, 36.734152828 ], [ 140.159869953, 36.734064051 ], [ 140.159662709, 36.733997256 ], [ 140.159624839, 36.733985051 ], [ 140.15952189399999, 36.733951801 ], [ 140.15908641499999, 36.733813165 ], [ 140.158988165000011, 36.733780496 ], [ 140.158754109, 36.733711128 ], [ 140.15858582300001, 36.733664421 ], [ 140.15843524600001, 36.733632212 ], [ 140.157731245, 36.733656901 ], [ 140.157374465, 36.733703177 ], [ 140.156981538999986, 36.733815672 ], [ 140.156979217000014, 36.733968283 ], [ 140.15728433699999, 36.733965069 ], [ 140.157572288000011, 36.73410616 ], [ 140.157621131000013, 36.734449388 ], [ 140.15773169, 36.734674417 ], [ 140.15779390599999, 36.73467544 ], [ 140.15785914, 36.734689569 ], [ 140.157900684999987, 36.734706147 ], [ 140.157960089999989, 36.734742944 ], [ 140.157998762, 36.734780989 ], [ 140.158102633999988, 36.734824818 ], [ 140.158196077000014, 36.734854369 ], [ 140.158304267, 36.73486838 ], [ 140.158998383000011, 36.735079892 ], [ 140.158994095999986, 36.735116862 ], [ 140.158997209, 36.735152621 ], [ 140.159025488999987, 36.735184733 ], [ 140.159075946, 36.735207248 ], [ 140.159233038, 36.735225893 ], [ 140.159384205, 36.735244555 ], [ 140.15950003899999, 36.735314579 ], [ 140.159919739, 36.735433843 ], [ 140.159983089, 36.735352597 ], [ 140.16014468, 36.735384344 ], [ 140.160221543, 36.735345981 ], [ 140.16067832600001, 36.735477063 ], [ 140.16091565799999, 36.735555097 ], [ 140.16099871899999, 36.735581097 ], [ 140.161292076, 36.73559698 ], [ 140.161555966, 36.735649903 ], [ 140.161863081, 36.735765894 ], [ 140.16187534299999, 36.73586243 ], [ 140.161900712, 36.735906473 ], [ 140.161954184, 36.7359409 ], [ 140.16200906200001, 36.735957439 ], [ 140.16207423099999, 36.735956067 ], [ 140.162131918999989, 36.735936832 ], [ 140.162256074, 36.735873301 ], [ 140.16250257199999, 36.736015687 ], [ 140.16247121, 36.736224655 ], [ 140.162483906, 36.736500974 ], [ 140.162564602, 36.73666647 ], [ 140.163016418000012, 36.736672373 ], [ 140.163074794000011, 36.736814086 ], [ 140.163324786, 36.736733514 ], [ 140.163322937, 36.736647679 ], [ 140.16339698499999, 36.736643897 ], [ 140.163520749000014, 36.736575597 ], [ 140.16353214, 36.736468265 ], [ 140.163460447, 36.736330166 ], [ 140.163723651, 36.736222135 ], [ 140.163842120999988, 36.736214653 ], [ 140.163975545999989, 36.736240511 ], [ 140.16405572799999, 36.736285593 ], [ 140.16435943, 36.736640032 ], [ 140.16448654199999, 36.736575298 ], [ 140.164635344, 36.736732258 ], [ 140.164540953, 36.736827898 ], [ 140.164686568, 36.736932409 ], [ 140.164917788999986, 36.736965147 ], [ 140.16528043, 36.737245502 ], [ 140.165254096000012, 36.737321877 ], [ 140.165340436, 36.737420591 ], [ 140.165390696, 36.737396607 ], [ 140.165483008, 36.737506034 ], [ 140.16533403, 36.737653093 ], [ 140.165228531, 36.737577085 ], [ 140.165095713, 36.737693101 ], [ 140.164858729, 36.73769853 ], [ 140.16414833499999, 36.738190512 ], [ 140.164061301, 36.738275402 ], [ 140.163605206, 36.739001541 ], [ 140.163693048, 36.739105021 ], [ 140.163650456999989, 36.73919098 ], [ 140.163437224, 36.7395552 ], [ 140.163361165999987, 36.739781934 ], [ 140.163244932, 36.739967051 ], [ 140.163174215999987, 36.740057856 ], [ 140.16262587599999, 36.740347893 ], [ 140.162436586000013, 36.740423527 ], [ 140.162238295, 36.740472956 ], [ 140.161908376000014, 36.74050256 ], [ 140.161938334000013, 36.740302184 ], [ 140.16122683399999, 36.740101908 ], [ 140.161192822, 36.740000938 ], [ 140.161140412, 36.739938133 ], [ 140.161054836, 36.739879234 ], [ 140.160990778000013, 36.73986415 ], [ 140.160924349999988, 36.739849072 ], [ 140.16079882299999, 36.739870401 ], [ 140.160723018999988, 36.739880147 ], [ 140.16030518299999, 36.739717246 ], [ 140.16000420099999, 36.74028271 ], [ 140.15998324099999, 36.740370516 ], [ 140.159983532000012, 36.740439187 ], [ 140.159995681999987, 36.740509733 ], [ 140.16012211, 36.740700619 ], [ 140.159571975, 36.740920306 ], [ 140.159655869, 36.741145195 ], [ 140.159568863, 36.741235062 ], [ 140.159694022999986, 36.741406399 ], [ 140.159623296, 36.74149601 ], [ 140.159886739, 36.741788575 ], [ 140.160131557999989, 36.741880896 ], [ 140.160349849, 36.74200548 ], [ 140.160452413, 36.742087462 ], [ 140.160532847000013, 36.742190964 ], [ 140.160628429000013, 36.742373112 ], [ 140.16099749899999, 36.742420977 ], [ 140.161022199, 36.742655778 ], [ 140.161044643, 36.742708174 ], [ 140.161129745000011, 36.742864121 ], [ 140.16173720899999, 36.742885098 ], [ 140.161880585, 36.742977996 ], [ 140.16189362599999, 36.742969753 ], [ 140.16200515599999, 36.742874644 ], [ 140.162115174, 36.742832805 ], [ 140.162165347000013, 36.742807021 ], [ 140.162201313999986, 36.742775642 ], [ 140.16221706799999, 36.742762964 ], [ 140.162439903, 36.743698639 ], [ 140.162824429000011, 36.743548546 ], [ 140.163375968, 36.743481446 ], [ 140.163516982, 36.743546627 ], [ 140.163672324, 36.743498507 ], [ 140.163627865, 36.743805747 ], [ 140.165317246, 36.74327391 ], [ 140.165485030000013, 36.743195226 ], [ 140.165613597, 36.743122142 ], [ 140.16570508800001, 36.743039623 ], [ 140.165762564, 36.742970313 ], [ 140.165847273, 36.742849017 ], [ 140.166090688999986, 36.742454355 ], [ 140.166171542, 36.74230987 ], [ 140.16622997799999, 36.742120143 ], [ 140.166270663, 36.741936426 ], [ 140.166257771, 36.741352272 ], [ 140.166235145, 36.741098431 ], [ 140.16622533099999, 36.741021203 ], [ 140.166160711, 36.740876409 ], [ 140.16594601, 36.740555585 ], [ 140.165827775, 36.740344177 ], [ 140.165777072999987, 36.740128764 ], [ 140.165801128, 36.739936033 ], [ 140.165984121, 36.739500598 ], [ 140.16614404500001, 36.739212109 ], [ 140.16622650799999, 36.739098379 ], [ 140.166378852, 36.738975869 ], [ 140.166571643, 36.738889489 ], [ 140.16703367, 36.738855766 ], [ 140.167117824, 36.738859345 ], [ 140.16728988700001, 36.738912274 ], [ 140.16738960399999, 36.738952053 ], [ 140.167435524000012, 36.739001788 ], [ 140.16744183, 36.73904251 ], [ 140.16746383099999, 36.739089593 ], [ 140.167511252999986, 36.739133111 ], [ 140.167533063, 36.739150048 ], [ 140.167598109000011, 36.739193161 ], [ 140.16771321499999, 36.739245862 ], [ 140.167839601999987, 36.739286996 ], [ 140.168042724, 36.739396587 ], [ 140.168094497999988, 36.739447945 ], [ 140.168158807, 36.739520729 ], [ 140.168201842, 36.739606448 ], [ 140.168235828, 36.739654995 ], [ 140.168351744, 36.739740509 ], [ 140.168398543, 36.739765175 ], [ 140.1684678, 36.739749243 ], [ 140.168517572000013, 36.739749103 ], [ 140.168565648, 36.739767566 ], [ 140.168608385, 36.739784614 ], [ 140.168680948, 36.739711445 ], [ 140.168808605, 36.73963526 ], [ 140.168884947, 36.739613585 ], [ 140.168954267, 36.739611958 ], [ 140.169101906, 36.739634433 ], [ 140.169212171999988, 36.739646998 ], [ 140.169336603, 36.739646646 ], [ 140.169482265, 36.739623344 ], [ 140.169590578999987, 36.739595856 ], [ 140.169670419999989, 36.739561294 ], [ 140.169881053000012, 36.739354682 ], [ 140.170227899, 36.739403774 ], [ 140.170975453000011, 36.739623409 ], [ 140.171310248999987, 36.739576697 ], [ 140.17154940399999, 36.739574567 ], [ 140.171780891, 36.739481667 ], [ 140.171800249, 36.739484093 ], [ 140.17192001699999, 36.7394991 ], [ 140.171979832, 36.739505922 ], [ 140.172011484, 36.739512563 ], [ 140.17204287199999, 36.739521805 ], [ 140.172071198999987, 36.739535361 ], [ 140.172093861, 36.739536 ], [ 140.172136403, 36.739529269 ], [ 140.172181317, 36.739528858 ], [ 140.172236892, 36.739536389 ], [ 140.172377742, 36.739572227 ], [ 140.172614270999986, 36.73963539 ], [ 140.172641520000013, 36.739636267 ], [ 140.172664972, 36.739669631 ], [ 140.172777931000013, 36.739755149 ], [ 140.17285227, 36.739816933 ], [ 140.173147957, 36.740357359 ], [ 140.17320162199999, 36.740433508 ], [ 140.17327295699999, 36.740485762 ], [ 140.17413450699999, 36.740797251 ], [ 140.174454465999986, 36.74079395 ], [ 140.17467706799999, 36.74088392 ], [ 140.17468188699999, 36.740968555 ], [ 140.174864103, 36.740970416 ], [ 140.17490660199999, 36.740866571 ], [ 140.175066597000011, 36.740868496 ], [ 140.17513513899999, 36.740778833 ], [ 140.17558275499999, 36.741013656 ], [ 140.175703062, 36.741084844 ], [ 140.175817507, 36.741170354 ], [ 140.175887581000012, 36.741271492 ], [ 140.17597563699999, 36.741419074 ], [ 140.176032369000012, 36.741517865 ], [ 140.176111209, 36.741591556 ], [ 140.17626724499999, 36.741701984 ], [ 140.176149213, 36.741809624 ], [ 140.17624774699999, 36.74198102 ], [ 140.176347475999989, 36.742088033 ], [ 140.176588184, 36.742250674 ], [ 140.17670843499999, 36.742308746 ], [ 140.17676054899999, 36.742368207 ], [ 140.176780003, 36.742412263 ], [ 140.17670333800001, 36.742494747 ], [ 140.176757124, 36.742597124 ], [ 140.176870388999987, 36.742749401 ], [ 140.17701338099999, 36.742591615 ], [ 140.177211074000013, 36.742741264 ], [ 140.177156693, 36.742837753 ], [ 140.177363394, 36.742947794 ], [ 140.177975268000012, 36.743556442 ], [ 140.178079763, 36.743601921 ], [ 140.178153385, 36.743634136 ], [ 140.178298618000014, 36.74377869 ], [ 140.178328034, 36.743996066 ], [ 140.178373537999988, 36.74410085 ], [ 140.17862584400001, 36.744336655 ], [ 140.178750071, 36.744553756 ], [ 140.179140668, 36.744970377 ], [ 140.17941173599999, 36.745160345 ], [ 140.179552199, 36.74529728 ], [ 140.179768075, 36.745336711 ], [ 140.179989532, 36.745563065 ], [ 140.180160513, 36.745622695 ], [ 140.180214135, 36.745635008 ], [ 140.18024810899999, 36.745309794 ], [ 140.180395151999988, 36.744867765 ], [ 140.180397590000013, 36.744356533 ], [ 140.180415771000014, 36.744182892 ], [ 140.18050456, 36.743898407 ], [ 140.180802406999987, 36.743193649 ], [ 140.180838489, 36.743133369 ], [ 140.180833173, 36.743130742 ], [ 140.180388176, 36.742910857 ], [ 140.179937532, 36.742690449 ], [ 140.179908832, 36.742676111 ] ], [ [ 140.173415597, 36.738522583 ], [ 140.172766886, 36.738378387 ], [ 140.17250705699999, 36.738242022 ], [ 140.17207693200001, 36.738118064 ], [ 140.171927649, 36.738473828 ], [ 140.170357431000014, 36.738023431 ], [ 140.17024048499999, 36.738308378 ], [ 140.16972855, 36.738177815 ], [ 140.169866500000012, 36.737881753 ], [ 140.16764132599999, 36.737139307 ], [ 140.167657377000012, 36.737083227 ], [ 140.165966414, 36.736551463 ], [ 140.166217034999988, 36.735931461 ], [ 140.166345138999986, 36.735959716 ], [ 140.166306502999987, 36.736068555 ], [ 140.16640968499999, 36.736088296 ], [ 140.166425516, 36.736049623 ], [ 140.16654651499999, 36.736079329 ], [ 140.166539566000012, 36.736116546 ], [ 140.166607198, 36.736136386 ], [ 140.166652992, 36.736038972 ], [ 140.166980424, 36.736123895 ], [ 140.166969889, 36.736153968 ], [ 140.16715668099999, 36.736189211 ], [ 140.167142703, 36.736245047 ], [ 140.167493213, 36.73632275 ], [ 140.167503729, 36.736288384 ], [ 140.167925445, 36.736390208 ], [ 140.16803279199999, 36.736140969 ], [ 140.16853105199999, 36.736268327 ], [ 140.168437914, 36.736514665 ], [ 140.168529696, 36.736538548 ], [ 140.16859590199999, 36.736356959 ], [ 140.168808947, 36.736406319 ], [ 140.168794913999989, 36.736449279 ], [ 140.169156617, 36.736537808 ], [ 140.169087092000012, 36.736697403 ], [ 140.16949669499999, 36.736805348 ], [ 140.169467407000013, 36.736882687 ], [ 140.16980075699999, 36.736964724 ], [ 140.169838207, 36.736856841 ], [ 140.169954421999989, 36.736875588 ], [ 140.169980337999988, 36.736840225 ], [ 140.17019747, 36.73690256 ], [ 140.170177596, 36.736964612 ], [ 140.170258256000011, 36.736982505 ], [ 140.17030978, 36.7368412 ], [ 140.170829614000013, 36.736969809 ], [ 140.170872280999987, 36.737023685 ], [ 140.17076440400001, 36.737285327 ], [ 140.170875921, 36.737313624 ], [ 140.170995452, 36.737007122 ], [ 140.17132523699999, 36.737086303 ], [ 140.171396812000012, 36.736923957 ], [ 140.171439514000014, 36.736933374 ], [ 140.17148787799999, 36.736882686 ], [ 140.171573329000012, 36.73691201 ], [ 140.171460743000011, 36.737180342 ], [ 140.172411719, 36.73744708 ], [ 140.172429306, 36.73740411 ], [ 140.17276528799999, 36.737506808 ], [ 140.172700993, 36.737657191 ], [ 140.17286016700001, 36.737696169 ], [ 140.17284548, 36.737724824 ], [ 140.172972996999988, 36.737753073 ], [ 140.173025818000013, 36.737638469 ], [ 140.173533005, 36.73777055 ], [ 140.173660135, 36.737711171 ], [ 140.174583301000013, 36.737949953 ], [ 140.174510160000011, 36.738158802 ], [ 140.17466961, 36.738206034 ], [ 140.174445889, 36.738698468 ], [ 140.173886079999988, 36.738559985 ], [ 140.173809009, 36.738718175 ], [ 140.17337895899999, 36.738612105 ], [ 140.173415597, 36.738522583 ] ] ] } },
{ "type": "Feature", "properties": { "A29_001": "09411", "A29_002": "栃木県", "A29_003": "那珂川町", "A29_004": 10, "A29_005": "準工業地域", "A29_006": 60, "A29_007": 200, "A29_008": null }, "geometry": { "type": "Polygon", "coordinates": [ [ [ 140.184289433, 36.745934566 ], [ 140.18461775599999, 36.745564431 ], [ 140.184742527999987, 36.745636788 ], [ 140.18512115499999, 36.745175471 ], [ 140.18523993, 36.745232347 ], [ 140.185356386, 36.745105626 ], [ 140.18508742099999, 36.744925204 ], [ 140.184883331, 36.744676632 ], [ 140.184050832, 36.743389103 ], [ 140.18395868799999, 36.743323802 ], [ 140.183838544, 36.743290774 ], [ 140.183714122999987, 36.743294717 ], [ 140.18361794099999, 36.743318844 ], [ 140.183518808, 36.743345365 ], [ 140.183443294999989, 36.743353933 ], [ 140.183373605000014, 36.743339831 ], [ 140.182990536, 36.743149009 ], [ 140.182948915999987, 36.743118134 ], [ 140.182885958000014, 36.742954984 ], [ 140.182829242999986, 36.742862157 ], [ 140.18260322, 36.742674449 ], [ 140.18239303499999, 36.742385355 ], [ 140.182106127, 36.742164443 ], [ 140.181925895, 36.741946794 ], [ 140.181855246, 36.74186172 ], [ 140.181833366, 36.741795653 ], [ 140.181821251, 36.741737269 ], [ 140.181624898, 36.741229956 ], [ 140.181407627, 36.740682169 ], [ 140.181259634000014, 36.740385738 ], [ 140.181200037, 36.74030961 ], [ 140.18113156199999, 36.740235892 ], [ 140.181054264000011, 36.740176506 ], [ 140.180993374, 36.74014211 ], [ 140.180936992, 36.740122007 ], [ 140.180874706, 36.74010669 ], [ 140.180813924, 36.740096137 ], [ 140.180750232, 36.740097515 ], [ 140.18069991499999, 36.740108392 ], [ 140.180648149, 36.740126427 ], [ 140.18060233599999, 36.740150405 ], [ 140.180569913, 36.740187458 ], [ 140.180543469000014, 36.740236417 ], [ 140.180528919000011, 36.740294878 ], [ 140.180532295, 36.74038667 ], [ 140.18055347399999, 36.74048437 ], [ 140.180592494, 36.740596326 ], [ 140.180649331000012, 36.740717369 ], [ 140.180693219, 36.740923496 ], [ 140.18069598400001, 36.741208429 ], [ 140.18061332, 36.741602105 ], [ 140.180470058, 36.741697901 ], [ 140.18030356599999, 36.74189868 ], [ 140.179908832, 36.742676111 ], [ 140.179937532, 36.742690449 ], [ 140.180388176, 36.742910857 ], [ 140.180833173, 36.743130742 ], [ 140.180838489, 36.743133369 ], [ 140.180802406999987, 36.743193649 ], [ 140.18050456, 36.743898407 ], [ 140.180415771000014, 36.744182892 ], [ 140.180397590000013, 36.744356533 ], [ 140.180395151999988, 36.744867765 ], [ 140.18024810899999, 36.745309794 ], [ 140.180214135, 36.745635008 ], [ 140.180375841999989, 36.74567214 ], [ 140.180441315, 36.745604708 ], [ 140.180542535, 36.745580091 ], [ 140.181312100000014, 36.745536354 ], [ 140.181359084, 36.745311602 ], [ 140.181759320999987, 36.745366227 ], [ 140.181882022, 36.745374451 ], [ 140.18200463299999, 36.745362647 ], [ 140.182082071, 36.745582743 ], [ 140.18238233, 36.745543235 ], [ 140.182537037, 36.745552795 ], [ 140.183200574000011, 36.745649563 ], [ 140.183267957999988, 36.745612167 ], [ 140.183652394, 36.745709752 ], [ 140.18373258, 36.745751005 ], [ 140.183912923, 36.745925016 ], [ 140.183985387, 36.745831809 ], [ 140.184289433, 36.745934566 ] ] ] } }
]
}
