{
"type": "FeatureCollection",
"name": "A29-19_36401",
"features": [
{ "type": "Feature", "properties": { "A29_001": "36401", "A29_002": "徳島県", "A29_003": "松茂町", "A29_004": 4, "A29_005": "第二種中高層住居専用地域", "A29_006": 60, "A29_007": 200, "A29_008": null }, "geometry": { "type": "Polygon", "coordinates": [ [ [ 134.601112844999989, 34.107349499 ], [ 134.601045785, 34.107349941 ], [ 134.60101837900001, 34.107352267 ], [ 134.60097587199999, 34.107369946 ], [ 134.600850215, 34.107414953 ], [ 134.600811862, 34.107436918 ], [ 134.600682376, 34.107512362 ], [ 134.60048987, 34.107704914 ], [ 134.600205304000013, 34.108096274 ], [ 134.600053452999987, 34.108328216 ], [ 134.599830653, 34.108617645 ], [ 134.5996927, 34.108815671 ], [ 134.599672198, 34.108893378 ], [ 134.599637099, 34.109163533 ], [ 134.599405555, 34.109442305 ], [ 134.599375216999988, 34.109535605 ], [ 134.599350339000011, 34.109829224 ], [ 134.599267034, 34.110261716 ], [ 134.599067859, 34.110382766 ], [ 134.598979864, 34.110452728 ], [ 134.598449732, 34.111149218 ], [ 134.59843107899999, 34.111259111 ], [ 134.59844843799999, 34.111492719 ], [ 134.598543557, 34.11175187 ], [ 134.598550124000013, 34.111816215 ], [ 134.598521728, 34.112059773 ], [ 134.59864703299999, 34.112213699 ], [ 134.598696243, 34.112249039 ], [ 134.598707096, 34.112423072 ], [ 134.598731887000014, 34.11256597 ], [ 134.59877678, 34.112711074 ], [ 134.598871632, 34.112920348 ], [ 134.598915616, 34.112995092 ], [ 134.598998204, 34.113061143 ], [ 134.599116218, 34.113094674 ], [ 134.599299277, 34.113168174 ], [ 134.59939318, 34.113222196 ], [ 134.59954952199999, 34.113336485 ], [ 134.59954768899999, 34.11341641 ], [ 134.599636796999988, 34.11343231 ], [ 134.599693285, 34.113475933 ], [ 134.599804056000011, 34.113614483 ], [ 134.59990807599999, 34.113785295 ], [ 134.599933654000012, 34.113878095 ], [ 134.59999250199999, 34.113993256 ], [ 134.600221513, 34.114403868 ], [ 134.600267535, 34.114525108 ], [ 134.60035837699999, 34.114785488 ], [ 134.600387949, 34.114854398 ], [ 134.600417196, 34.114898265 ], [ 134.60048982699999, 34.114970366 ], [ 134.600586048, 34.115092349 ], [ 134.60088481599999, 34.115684812 ], [ 134.60090893099999, 34.115775239 ], [ 134.60091206199999, 34.115795486 ], [ 134.600881079, 34.115840336 ], [ 134.600894180000012, 34.115868521 ], [ 134.600970256000011, 34.116118919 ], [ 134.601015960000012, 34.116256074 ], [ 134.601058738, 34.116384269 ], [ 134.60107795, 34.116441842 ], [ 134.601079516999988, 34.11644654 ], [ 134.60114279199999, 34.116625031 ], [ 134.601157551999989, 34.116666667 ], [ 134.601182474000012, 34.116741664 ], [ 134.601336773000014, 34.117329947 ], [ 134.601343001, 34.117353692 ], [ 134.601431042, 34.117570213 ], [ 134.60149483399999, 34.117710347 ], [ 134.60149574, 34.117712336 ], [ 134.601498654000011, 34.117719093 ], [ 134.601561363, 34.117864486 ], [ 134.60161359, 34.117981182 ], [ 134.601673553000012, 34.118115164 ], [ 134.601721069, 34.118219293 ], [ 134.60183353799999, 34.118389748 ], [ 134.601931398, 34.118567112 ], [ 134.602089337, 34.118806063 ], [ 134.602329795, 34.119193878 ], [ 134.60241920199999, 34.119355427 ], [ 134.60248185099999, 34.119439787 ], [ 134.602645611000014, 34.119584885 ], [ 134.602648499, 34.119587444 ], [ 134.602830998, 34.119764932 ], [ 134.60307921399999, 34.120071239 ], [ 134.60325977799999, 34.12031076 ], [ 134.60328364599999, 34.120336493 ], [ 134.60356378899999, 34.120205929 ], [ 134.603552404, 34.12019054 ], [ 134.603767514, 34.120047755 ], [ 134.60379186099999, 34.120030111 ], [ 134.603831985999989, 34.120001928 ], [ 134.603922718, 34.119962226 ], [ 134.603945794, 34.119948705 ], [ 134.603994671, 34.119909494 ], [ 134.604054186000013, 34.119852164 ], [ 134.60415503499999, 34.119792104 ], [ 134.60421451799999, 34.119764626 ], [ 134.603941101, 34.118918949 ], [ 134.603816195, 34.118576584 ], [ 134.603867720000011, 34.118568965 ], [ 134.60364460400001, 34.117951976 ], [ 134.603342464, 34.116881291 ], [ 134.603215938, 34.116413709 ], [ 134.603160279, 34.116102923 ], [ 134.603012973, 34.115360022 ], [ 134.602908961999987, 34.1146382 ], [ 134.60281978899999, 34.113733766 ], [ 134.60276902199999, 34.113136695 ], [ 134.602751985, 34.112818406 ], [ 134.602727042999987, 34.112553857 ], [ 134.602673571999986, 34.112411217 ], [ 134.602606344, 34.111871542 ], [ 134.602437562, 34.111461587 ], [ 134.60232737199999, 34.110925875 ], [ 134.60215030099999, 34.110208286 ], [ 134.60209968, 34.109621947 ], [ 134.601744357, 34.108426503 ], [ 134.601645149, 34.108143553 ], [ 134.601629573, 34.108063133 ], [ 134.601586816, 34.107897298 ], [ 134.60158026900001, 34.107719463 ], [ 134.60157355699999, 34.107678894 ], [ 134.601561237, 34.10765142 ], [ 134.601548425, 34.107622848 ], [ 134.601527917, 34.107596795 ], [ 134.601491673999988, 34.107561158 ], [ 134.601419728, 34.107511409 ], [ 134.601352886, 34.107472957 ], [ 134.60126799599999, 34.107424122 ], [ 134.601151157, 34.107360897 ], [ 134.601112844999989, 34.107349499 ] ] ] } },
{ "type": "Feature", "properties": { "A29_001": "36401", "A29_002": "徳島県", "A29_003": "松茂町", "A29_004": 11, "A29_005": "工業地域", "A29_006": 60, "A29_007": 200, "A29_008": null }, "geometry": { "type": "Polygon", "coordinates": [ [ [ 134.58786838899999, 34.127635376 ], [ 134.588308649999988, 34.127297527 ], [ 134.588709018, 34.127651778 ], [ 134.58872670400001, 34.127638778 ], [ 134.589563559, 34.126973432 ], [ 134.591791691, 34.125249012 ], [ 134.592209456, 34.125617408 ], [ 134.592838209, 34.12515929 ], [ 134.59223486, 34.124629983 ], [ 134.59235000699999, 34.124520311 ], [ 134.59265572699999, 34.124258018 ], [ 134.592875369000012, 34.1240598 ], [ 134.592932588, 34.124008162 ], [ 134.592948877, 34.123993612 ], [ 134.59301224399999, 34.123937202 ], [ 134.59323592199999, 34.123698645 ], [ 134.593303897999988, 34.123621373 ], [ 134.593481491, 34.123384674 ], [ 134.593618367, 34.123197474 ], [ 134.593653366000012, 34.12313851 ], [ 134.59367400299999, 34.123091389 ], [ 134.593684924, 34.123048366 ], [ 134.59370628799999, 34.122964212 ], [ 134.593706626, 34.122962878 ], [ 134.59372553099999, 34.122888408 ], [ 134.593751844, 34.122766302 ], [ 134.593757384000014, 34.122740592 ], [ 134.593767993, 34.122638556 ], [ 134.593768301000011, 34.122570839 ], [ 134.593777152, 34.122512626 ], [ 134.593807859, 34.122379378 ], [ 134.593819241, 34.122329985 ], [ 134.59386831899999, 34.12214611 ], [ 134.593898087000014, 34.122090573 ], [ 134.594356361, 34.122125277 ], [ 134.594446527, 34.122128615 ], [ 134.594449333999989, 34.122128718 ], [ 134.59450770399999, 34.121627009 ], [ 134.594823342000012, 34.121727242 ], [ 134.595030541999989, 34.121286247 ], [ 134.595906186, 34.120598343 ], [ 134.59553534299999, 34.120467866 ], [ 134.59517021100001, 34.120339396 ], [ 134.595223866, 34.120190571 ], [ 134.59531671, 34.119951334 ], [ 134.59541288599999, 34.119703514 ], [ 134.5954331, 34.119648819 ], [ 134.596743033, 34.120033689 ], [ 134.597043238999987, 34.118572971 ], [ 134.597928790999987, 34.117641972 ], [ 134.59889156, 34.116628535 ], [ 134.600228864, 34.115557881 ], [ 134.60027355, 34.115544513 ], [ 134.600327279, 34.115541049 ], [ 134.600356341, 34.115570605 ], [ 134.60047767899999, 34.11580507 ], [ 134.600497697, 34.115822781 ], [ 134.60055344700001, 34.115875713 ], [ 134.600615833, 34.115909503 ], [ 134.600664255, 34.115928151 ], [ 134.600703254, 34.115927802 ], [ 134.600751331, 34.115919738 ], [ 134.600812948999987, 34.115894378 ], [ 134.600874295000011, 34.11584803 ], [ 134.600881079, 34.115840336 ], [ 134.60091206199999, 34.115795486 ], [ 134.60090893099999, 34.115775239 ], [ 134.600884817, 34.115684812 ], [ 134.600586048, 34.115092349 ], [ 134.60048982699999, 34.114970366 ], [ 134.600417196, 34.114898264 ], [ 134.600387949, 34.114854398 ], [ 134.60035837800001, 34.114785488 ], [ 134.600267534000011, 34.114525108 ], [ 134.600221513, 34.114403868 ], [ 134.59999250300001, 34.113993256 ], [ 134.599933655, 34.113878095 ], [ 134.59990807599999, 34.113785296 ], [ 134.599804057, 34.113614483 ], [ 134.599693285, 34.113475933 ], [ 134.599636796999988, 34.11343231 ], [ 134.599547688, 34.11341641 ], [ 134.59954952199999, 34.113336485 ], [ 134.59939318, 34.113222195 ], [ 134.599299277, 34.113168174 ], [ 134.599116218, 34.113094674 ], [ 134.598998204, 34.113061143 ], [ 134.598915616, 34.112995092 ], [ 134.598871632, 34.112920348 ], [ 134.598776781, 34.112711074 ], [ 134.598416587, 34.113243841 ], [ 134.598331857, 34.113344783 ], [ 134.598366945, 34.113396946 ], [ 134.598225235, 34.113527022 ], [ 134.598034805999987, 34.113881755 ], [ 134.597599967, 34.115191831 ], [ 134.597474483000013, 34.11535136 ], [ 134.597405785, 34.115361515 ], [ 134.59715738, 34.115669057 ], [ 134.59716441, 34.115769178 ], [ 134.595410722, 34.118108151 ], [ 134.594677361, 34.119064054 ], [ 134.594213558, 34.120018187 ], [ 134.594070405999986, 34.120260382 ], [ 134.594005278, 34.120325366 ], [ 134.593792470000011, 34.120503777 ], [ 134.593713554, 34.12061182 ], [ 134.593164839999986, 34.12143249 ], [ 134.592614414, 34.122343816 ], [ 134.592373548000012, 34.122794403 ], [ 134.592249571999986, 34.122967249 ], [ 134.591783829, 34.123551028 ], [ 134.591259803000014, 34.124063761 ], [ 134.59060742, 34.124632497 ], [ 134.589835462999986, 34.125271465 ], [ 134.5886176, 34.126255484 ], [ 134.58854672699999, 34.126320516 ], [ 134.588435702999988, 34.126385905 ], [ 134.588270553, 34.126480397 ], [ 134.588114190999988, 34.126589123 ], [ 134.586589444, 34.127802448 ], [ 134.58663384799999, 34.127830509 ], [ 134.587056679999989, 34.128211448 ], [ 134.587071345, 34.128224319 ], [ 134.587679963999989, 34.127764443 ], [ 134.58786838899999, 34.127635376 ] ] ] } },
{ "type": "Feature", "properties": { "A29_001": "36401", "A29_002": "徳島県", "A29_003": "松茂町", "A29_004": 10, "A29_005": "準工業地域", "A29_006": 60, "A29_007": 200, "A29_008": null }, "geometry": { "type": "Polygon", "coordinates": [ [ [ 134.580424459999989, 34.131788822 ], [ 134.58034321299999, 34.131680214 ], [ 134.580271547, 34.131683826 ], [ 134.580080435000013, 34.131035504 ], [ 134.579496094, 34.131043625 ], [ 134.57916720599999, 34.131121057 ], [ 134.57913127899999, 34.13111541 ], [ 134.579094897, 34.131073986 ], [ 134.578822577000011, 34.131088306 ], [ 134.578755065, 34.131136605 ], [ 134.577701217999987, 34.131160769 ], [ 134.577689932, 34.131119125 ], [ 134.57765000399999, 34.131080713 ], [ 134.577581734, 34.131069386 ], [ 134.577495691, 34.131070141 ], [ 134.577409761000013, 34.131079839 ], [ 134.577314591, 34.131138997 ], [ 134.577516859000013, 34.131703842 ], [ 134.577697949, 34.131674775 ], [ 134.577926141, 34.131670574 ], [ 134.578295333, 34.131674981 ], [ 134.578825883, 34.131681158 ], [ 134.579003755, 34.131682279 ], [ 134.579198093, 34.131693501 ], [ 134.57933752299999, 34.131705728 ], [ 134.57977703, 34.131756039 ], [ 134.5799635, 34.131774806 ], [ 134.580186411999989, 34.131792994 ], [ 134.5803771, 34.131795799 ], [ 134.580424459999989, 34.131788822 ] ] ] } },
{ "type": "Feature", "properties": { "A29_001": "36401", "A29_002": "徳島県", "A29_003": "松茂町", "A29_004": 6, "A29_005": "第二種住居地域", "A29_006": 60, "A29_007": 200, "A29_008": null }, "geometry": { "type": "Polygon", "coordinates": [ [ [ 134.577516859000013, 34.131703842 ], [ 134.577314591, 34.131138997 ], [ 134.576417213000013, 34.131696806 ], [ 134.576405189000013, 34.131770307 ], [ 134.576129642000012, 34.131968041 ], [ 134.576077798, 34.131984154 ], [ 134.576040197999987, 34.132008031 ], [ 134.575846180000013, 34.132113878 ], [ 134.575798889, 34.132137857 ], [ 134.575710203999989, 34.132143901 ], [ 134.575, 34.132504591 ], [ 134.574606116000012, 34.132713297 ], [ 134.574396818999986, 34.132859549 ], [ 134.57794855, 34.132909527 ], [ 134.577516859000013, 34.131703842 ] ] ] } },
{ "type": "Feature", "properties": { "A29_001": "36401", "A29_002": "徳島県", "A29_003": "松茂町", "A29_004": 5, "A29_005": "第一種住居地域", "A29_006": 60, "A29_007": 200, "A29_008": null }, "geometry": { "type": "Polygon", "coordinates": [ [ [ 134.583333333000013, 34.13422025 ], [ 134.584197861, 34.133790639 ], [ 134.58423348299999, 34.133780582 ], [ 134.58427145600001, 34.133775074 ], [ 134.584310773999988, 34.133775504 ], [ 134.584338814, 34.133761782 ], [ 134.58441672, 34.133826245 ], [ 134.584444389, 34.13384914 ], [ 134.584464841, 34.13386145 ], [ 134.587955345000012, 34.132174508 ], [ 134.587965114000014, 34.132035189 ], [ 134.587990064, 34.132053447 ], [ 134.588041452999988, 34.132075302 ], [ 134.58808532099999, 34.132145441 ], [ 134.58809964, 34.132174332 ], [ 134.58811963, 34.132213005 ], [ 134.58815534199999, 34.132282088 ], [ 134.588220637, 34.132401745 ], [ 134.58825199899999, 34.132459218 ], [ 134.588378659, 34.132647431 ], [ 134.588427572, 34.132712241 ], [ 134.588592562, 34.132585035 ], [ 134.588682928999987, 34.132528998 ], [ 134.58871380299999, 34.132522519 ], [ 134.588748062, 34.132520436 ], [ 134.588786046, 34.132523473 ], [ 134.58897804899999, 34.132686344 ], [ 134.588987177, 34.132694087 ], [ 134.589330582, 34.132985386 ], [ 134.589533625, 34.133156507 ], [ 134.58974336899999, 34.133333276 ], [ 134.58974343700001, 34.133333333 ], [ 134.59006777499999, 34.133606515 ], [ 134.590136672, 34.133664544 ], [ 134.590468162, 34.133382927 ], [ 134.590424746, 34.133218725 ], [ 134.590451820999988, 34.133182705 ], [ 134.593083323, 34.131086829 ], [ 134.593079890000013, 34.131083997 ], [ 134.593078746, 34.131083054 ], [ 134.592991778999988, 34.131011306 ], [ 134.592824638, 34.130869185 ], [ 134.592735139000013, 34.130793083 ], [ 134.592479198, 34.130574565 ], [ 134.592108137999986, 34.130257759 ], [ 134.591952733999989, 34.130125076 ], [ 134.591006746, 34.129348786 ], [ 134.59186524099999, 34.128697783 ], [ 134.592980239000013, 34.127830079 ], [ 134.593885097999987, 34.12711671 ], [ 134.594476735, 34.126657477 ], [ 134.594368376, 34.126484314 ], [ 134.593315275, 34.125577805 ], [ 134.592838209, 34.12515929 ], [ 134.592209456, 34.125617408 ], [ 134.591791691, 34.125249012 ], [ 134.589563559, 34.126973432 ], [ 134.58872670400001, 34.127638778 ], [ 134.588709018, 34.127651778 ], [ 134.588308649999988, 34.127297527 ], [ 134.58786838899999, 34.127635376 ], [ 134.587679963999989, 34.127764443 ], [ 134.587071345, 34.128224319 ], [ 134.58714494099999, 34.12828891 ], [ 134.58726745199999, 34.128396431 ], [ 134.58757580599999, 34.128656239 ], [ 134.587589372, 34.128667752 ], [ 134.587914751, 34.128943861 ], [ 134.58837860599999, 34.129330387 ], [ 134.58836085199999, 34.129368236 ], [ 134.588337572, 34.129417862 ], [ 134.588308944, 34.129483695 ], [ 134.58828413099999, 34.129510602 ], [ 134.58822711, 34.129521135 ], [ 134.587945749, 34.129730046 ], [ 134.587757270999987, 34.12987212 ], [ 134.587407632, 34.130135675 ], [ 134.587318833000012, 34.13020261 ], [ 134.58724833299999, 34.130252807 ], [ 134.587056389, 34.130389417 ], [ 134.586993409, 34.130432635 ], [ 134.58689707, 34.130410115 ], [ 134.58657635099999, 34.130638726 ], [ 134.586559650999988, 34.13065063 ], [ 134.58631986099999, 34.130821553 ], [ 134.586187696, 34.130917141 ], [ 134.58598152799999, 34.13106625 ], [ 134.585940341999986, 34.131096374 ], [ 134.585434279, 34.131466514 ], [ 134.585155246, 34.131668013 ], [ 134.585137215, 34.131682313 ], [ 134.58497205, 34.131806608 ], [ 134.584895703, 34.131862953 ], [ 134.584197667000012, 34.132378104 ], [ 134.583842314, 34.132641921 ], [ 134.583808248999986, 34.132673281 ], [ 134.583616844, 34.132693058 ], [ 134.58300853899999, 34.132878472 ], [ 134.582422614, 34.133044649 ], [ 134.58220086099999, 34.133088347 ], [ 134.581500763, 34.133151346 ], [ 134.58150049299999, 34.133151041 ], [ 134.58122695, 34.132841526 ], [ 134.58121374699999, 34.132826458 ], [ 134.581091722999986, 34.132687188 ], [ 134.581047360000014, 34.132636556 ], [ 134.580816663, 34.13238292 ], [ 134.580744041, 34.132282428 ], [ 134.580693961, 34.132188809 ], [ 134.580580641000012, 34.131959225 ], [ 134.58055292, 34.131883612 ], [ 134.580507743999988, 34.131776554 ], [ 134.580424459999989, 34.131788822 ], [ 134.5803771, 34.131795799 ], [ 134.580186411999989, 34.131792994 ], [ 134.5799635, 34.131774806 ], [ 134.57977703, 34.131756039 ], [ 134.57933752299999, 34.131705728 ], [ 134.579198093, 34.131693501 ], [ 134.579003755, 34.131682279 ], [ 134.578825883, 34.131681158 ], [ 134.578328679, 34.131675369 ], [ 134.57871754300001, 34.132924092 ], [ 134.581115466, 34.132912543 ], [ 134.581259050999989, 34.133192282 ], [ 134.58145292899999, 34.133462968 ], [ 134.581542066999987, 34.133614845 ], [ 134.58196472, 34.133826755 ], [ 134.58184205399999, 34.133925158 ], [ 134.581960637, 34.133979094 ], [ 134.581742012, 34.133986984 ], [ 134.580484794, 34.133529933 ], [ 134.578911092999988, 34.133561662 ], [ 134.579636255999986, 34.135771063 ], [ 134.57987352399999, 34.135698451 ], [ 134.580131109, 34.135634229 ], [ 134.58025869799999, 34.135604731 ], [ 134.58031935599999, 34.135590346 ], [ 134.580648329000013, 34.135512326 ], [ 134.581386785, 34.135340201 ], [ 134.58223537399999, 34.135139164 ], [ 134.582326447000014, 34.135102523 ], [ 134.58236582699999, 34.135082135 ], [ 134.582585472, 34.134941889 ], [ 134.583119696000011, 34.134614521 ], [ 134.583177514, 34.13457909 ], [ 134.583142906, 34.134559199 ], [ 134.58322645699999, 34.134304568 ], [ 134.583239994, 34.134291176 ], [ 134.583289694, 34.134242001 ], [ 134.583333333000013, 34.13422025 ] ] ] } },
{ "type": "Feature", "properties": { "A29_001": "36401", "A29_002": "徳島県", "A29_003": "松茂町", "A29_004": 8, "A29_005": "近隣商業地域", "A29_006": 80, "A29_007": 200, "A29_008": null }, "geometry": { "type": "Polygon", "coordinates": [ [ [ 134.578911092999988, 34.133561662 ], [ 134.580484794, 34.133529933 ], [ 134.581742012, 34.133986984 ], [ 134.581960637, 34.133979094 ], [ 134.58184205399999, 34.133925158 ], [ 134.58196472, 34.133826755 ], [ 134.581542066999987, 34.133614845 ], [ 134.58145292899999, 34.133462968 ], [ 134.581259050999989, 34.133192282 ], [ 134.581115466, 34.132912543 ], [ 134.57871754300001, 34.132924092 ], [ 134.578328679, 34.131675369 ], [ 134.578295333, 34.131674981 ], [ 134.577926141, 34.131670574 ], [ 134.577697949, 34.131674775 ], [ 134.577516859000013, 34.131703842 ], [ 134.57794855, 34.132909527 ], [ 134.574396818999986, 34.132859549 ], [ 134.574123506, 34.132859359 ], [ 134.573488704, 34.132993114 ], [ 134.573509392, 34.133654332 ], [ 134.578226996000012, 34.133565286 ], [ 134.578741172, 34.13551753 ], [ 134.578964727, 34.135602258 ], [ 134.578988528, 34.135611278 ], [ 134.579165026999988, 34.135685824 ], [ 134.579225223, 34.135715215 ], [ 134.57937461099999, 34.135753809 ], [ 134.579571449000014, 34.135790897 ], [ 134.579636255999986, 34.135771063 ], [ 134.578911092999988, 34.133561662 ] ] ] } },
{ "type": "Feature", "properties": { "A29_001": "36401", "A29_002": "徳島県", "A29_003": "松茂町", "A29_004": 5, "A29_005": "第一種住居地域", "A29_006": 60, "A29_007": 200, "A29_008": null }, "geometry": { "type": "Polygon", "coordinates": [ [ [ 134.569680471999988, 34.139705014 ], [ 134.569754821, 34.139681601 ], [ 134.569848452, 34.139745455 ], [ 134.569886161999989, 34.13977852 ], [ 134.57001630900001, 34.139812649 ], [ 134.570179043, 34.139799821 ], [ 134.570216211, 34.139789955 ], [ 134.570237655, 34.139670501 ], [ 134.570302336, 34.139567368 ], [ 134.570474904, 34.139375037 ], [ 134.570517056999989, 34.139305495 ], [ 134.57092502099999, 34.138216609 ], [ 134.57137326099999, 34.136910306 ], [ 134.571478766000013, 34.136632685 ], [ 134.571764951, 34.136124496 ], [ 134.57160525, 34.135658028 ], [ 134.572159959, 34.13514783 ], [ 134.572343588, 34.135150997 ], [ 134.572456210000013, 34.13498304 ], [ 134.57298198, 34.134821014 ], [ 134.57295807, 34.134744892 ], [ 134.573375266, 34.134617208 ], [ 134.573410469, 34.134678919 ], [ 134.573633589, 34.134629261 ], [ 134.57370776799999, 34.13456898 ], [ 134.573911527, 34.134519491 ], [ 134.573960967, 34.134459425 ], [ 134.574650227, 34.134372977 ], [ 134.57492428099999, 34.134361545 ], [ 134.57538101099999, 34.134467867 ], [ 134.575578165, 34.134463158 ], [ 134.57576765799999, 34.134419754 ], [ 134.575924816999986, 34.134382719 ], [ 134.575932348, 34.13438866 ], [ 134.575986835, 34.13443164 ], [ 134.576198639000012, 34.134573139 ], [ 134.576207124, 34.134578474 ], [ 134.576770758, 34.134932868 ], [ 134.576878139, 34.134997056 ], [ 134.577094716, 34.135117093 ], [ 134.577482863, 34.135187778 ], [ 134.57772066699999, 34.135235607 ], [ 134.57789496699999, 34.135274266 ], [ 134.578112088000012, 34.135331237 ], [ 134.578167494000013, 34.135345973 ], [ 134.578368568, 34.135399453 ], [ 134.57862763899999, 34.135474501 ], [ 134.578741172, 34.13551753 ], [ 134.578226996000012, 34.133565286 ], [ 134.573509392, 34.133654332 ], [ 134.573488704, 34.132993114 ], [ 134.574123506, 34.132859359 ], [ 134.574396818999986, 34.132859549 ], [ 134.574606116000012, 34.132713297 ], [ 134.575, 34.132504591 ], [ 134.575710203999989, 34.132143901 ], [ 134.575798889, 34.132137857 ], [ 134.575846180000013, 34.132113878 ], [ 134.576040197999987, 34.132008031 ], [ 134.576077798, 34.131984154 ], [ 134.576129642000012, 34.131968041 ], [ 134.576405189000013, 34.131770307 ], [ 134.576417213000013, 34.131696806 ], [ 134.57579609699999, 34.131487133 ], [ 134.57536449, 34.131346107 ], [ 134.575000001, 34.131227011 ], [ 134.574360195, 34.131015322 ], [ 134.57427201199999, 34.130998269 ], [ 134.57418909099999, 34.130984675 ], [ 134.574087592000012, 34.130968035 ], [ 134.574023333000014, 34.1309575 ], [ 134.573927973, 34.130957917 ], [ 134.573893529, 34.130958084 ], [ 134.573592749999989, 34.130948056 ], [ 134.573229889, 34.130956389 ], [ 134.572842194, 34.130965306 ], [ 134.569743069, 34.131041324 ], [ 134.568542946, 34.131044141 ], [ 134.568515897, 34.131068066 ], [ 134.56841078799999, 34.131129405 ], [ 134.56833963, 34.131173754 ], [ 134.568259876000013, 34.131222311 ], [ 134.568150559, 34.13128805 ], [ 134.568089318, 34.131301667 ], [ 134.56768393199999, 34.131381029 ], [ 134.56752157599999, 34.131418335 ], [ 134.56735708299999, 34.13145564 ], [ 134.567224635, 34.131482288 ], [ 134.567039211, 34.131527067 ], [ 134.56696729699999, 34.131545407 ], [ 134.56708246299999, 34.131761948 ], [ 134.567130767, 34.132318744 ], [ 134.568227936999989, 34.132704215 ], [ 134.568379786, 34.132735335 ], [ 134.568571314, 34.13281954 ], [ 134.569666723000012, 34.133104134 ], [ 134.569769259999987, 34.133842051 ], [ 134.569760871, 34.134002327 ], [ 134.569654883, 34.134546998 ], [ 134.569656807, 34.134622229 ], [ 134.56975241, 34.135173865 ], [ 134.569749651, 34.135176399 ], [ 134.569731845, 34.135192751 ], [ 134.56927149500001, 34.1356155 ], [ 134.568830190999989, 34.136020755 ], [ 134.568757287000011, 34.136121973 ], [ 134.568714972, 34.13619575 ], [ 134.568710106, 34.136210799 ], [ 134.568674834, 34.136413397 ], [ 134.568671195, 34.136438027 ], [ 134.56875230899999, 34.136416736 ], [ 134.568955781999989, 34.136340836 ], [ 134.569075838, 34.136302991 ], [ 134.56920248099999, 34.137154643 ], [ 134.568947229, 34.137159252 ], [ 134.568918187, 34.137340441 ], [ 134.568914658000011, 34.137411954 ], [ 134.568909832, 34.137619037 ], [ 134.568909522000013, 34.13764714 ], [ 134.568906723, 34.137901001 ], [ 134.56890643, 34.137926125 ], [ 134.56890329399999, 34.138194621 ], [ 134.568903514999988, 34.138206795 ], [ 134.568903928999987, 34.138229718 ], [ 134.568908834000013, 34.138500557 ], [ 134.56890834399999, 34.13852313 ], [ 134.568907453, 34.138564048 ], [ 134.568902861, 34.138775167 ], [ 134.568902266, 34.13880244 ], [ 134.568896832, 34.139051528 ], [ 134.568896198, 34.139084249 ], [ 134.568891127, 34.139345423 ], [ 134.56889065199999, 34.139369135 ], [ 134.568885361000014, 34.139633583 ], [ 134.568885357, 34.139656562 ], [ 134.568885311, 34.139937732 ], [ 134.568885306, 34.139967972 ], [ 134.569680471999988, 34.139705014 ] ] ] } },
{ "type": "Feature", "properties": { "A29_001": "36401", "A29_002": "徳島県", "A29_003": "松茂町", "A29_004": 8, "A29_005": "近隣商業地域", "A29_006": 80, "A29_007": 300, "A29_008": null }, "geometry": { "type": "Polygon", "coordinates": [ [ [ 134.592013556000012, 34.140436209 ], [ 134.589904791, 34.138607584 ], [ 134.589651056, 34.138813491 ], [ 134.58986013, 34.13900159 ], [ 134.589808833, 34.139040394 ], [ 134.589301432000013, 34.13945486 ], [ 134.590130394999989, 34.140165616 ], [ 134.591762288000012, 34.141582312 ], [ 134.593463328000013, 34.142985743 ], [ 134.593869437, 34.142664877 ], [ 134.593771841, 34.142419461 ], [ 134.593677222999986, 34.142200854 ], [ 134.593472311, 34.141883045 ], [ 134.593250374, 34.1415797 ], [ 134.592906797000012, 34.141186795 ], [ 134.592013556000012, 34.140436209 ] ] ] } },
{ "type": "Feature", "properties": { "A29_001": "36401", "A29_002": "徳島県", "A29_003": "松茂町", "A29_004": 10, "A29_005": "準工業地域", "A29_006": 60, "A29_007": 200, "A29_008": null }, "geometry": { "type": "Polygon", "coordinates": [ [ [ 134.595170817, 34.144614711 ], [ 134.595899026000012, 34.144021423 ], [ 134.596785274000013, 34.143337268 ], [ 134.597394788, 34.142884572 ], [ 134.599392112, 34.141270919 ], [ 134.601926144, 34.139240948 ], [ 134.60299460600001, 34.138386033 ], [ 134.602939063, 34.138334152 ], [ 134.602872366000014, 34.138276401 ], [ 134.601915499, 34.137447873 ], [ 134.601757545, 34.137311102 ], [ 134.6012418, 34.136864519 ], [ 134.60103754, 34.136687835 ], [ 134.600554862, 34.136270316 ], [ 134.60047226899999, 34.136208811 ], [ 134.598671607, 34.136571595 ], [ 134.596146049999987, 34.137147447 ], [ 134.595939292999986, 34.136308703 ], [ 134.59183219799999, 34.137037042 ], [ 134.591844372999986, 34.137147255 ], [ 134.591590384999989, 34.137194239 ], [ 134.591526155, 34.137218663 ], [ 134.591405823, 34.137341981 ], [ 134.590478042, 34.138142379 ], [ 134.589904791, 34.138607584 ], [ 134.592013556000012, 34.140436209 ], [ 134.592906797000012, 34.141186795 ], [ 134.593250374, 34.1415797 ], [ 134.593472311, 34.141883045 ], [ 134.593677222999986, 34.142200854 ], [ 134.593771841, 34.142419461 ], [ 134.593869437, 34.142664877 ], [ 134.593463328000013, 34.142985743 ], [ 134.591762288000012, 34.141582312 ], [ 134.591693951, 34.141622278 ], [ 134.591340578, 34.141582484 ], [ 134.591324103, 34.141639878 ], [ 134.59125530599999, 34.141644067 ], [ 134.590656551, 34.142601134 ], [ 134.59066722599999, 34.142762049 ], [ 134.592234948, 34.142866185 ], [ 134.592241809, 34.143399244 ], [ 134.59209533, 34.143386235 ], [ 134.592139835000012, 34.14416942 ], [ 134.591967261, 34.144135175 ], [ 134.591668319, 34.144982239 ], [ 134.59250740499999, 34.145311106 ], [ 134.59359763399999, 34.145759381 ], [ 134.59365208, 34.144975317 ], [ 134.593737215, 34.144902997 ], [ 134.594606242999987, 34.144855514 ], [ 134.594713181, 34.144833473 ], [ 134.594799007, 34.144814818 ], [ 134.594910373, 34.144774466 ], [ 134.59503441699999, 34.144716112 ], [ 134.595170817, 34.144614711 ] ] ] } },
{ "type": "Feature", "properties": { "A29_001": "36401", "A29_002": "徳島県", "A29_003": "松茂町", "A29_004": 12, "A29_005": "工業専用地域", "A29_006": 60, "A29_007": 200, "A29_008": null }, "geometry": { "type": "Polygon", "coordinates": [ [ [ 134.602909387000011, 34.145198418 ], [ 134.603212794, 34.145123916 ], [ 134.603243498000012, 34.145138849 ], [ 134.603268500000013, 34.145175278 ], [ 134.603408812999987, 34.145503039 ], [ 134.60344130499999, 34.145527541 ], [ 134.603479842000013, 34.145535079 ], [ 134.604352771, 34.14521997 ], [ 134.604502263, 34.145154321 ], [ 134.604609659, 34.145096598 ], [ 134.604688560999989, 34.145050083 ], [ 134.60496526, 34.144886963 ], [ 134.605560443, 34.14451235 ], [ 134.605756985999989, 34.144390306 ], [ 134.606175365000013, 34.144046498 ], [ 134.606219732, 34.144024261 ], [ 134.60648884599999, 34.143880432 ], [ 134.606736589, 34.143748024 ], [ 134.606915093999987, 34.143648993 ], [ 134.606937899, 34.143612793 ], [ 134.60747506199999, 34.143304644 ], [ 134.60764949899999, 34.143204575 ], [ 134.607656679, 34.143161459 ], [ 134.607666083999987, 34.143104977 ], [ 134.60741729099999, 34.142735296 ], [ 134.607877699999989, 34.142495732 ], [ 134.60833333299999, 34.142260861 ], [ 134.608551553000012, 34.142158194 ], [ 134.60912251799999, 34.141871277 ], [ 134.61235029, 34.140280882 ], [ 134.612921644000011, 34.13998406 ], [ 134.615022004999986, 34.140042323 ], [ 134.61504551499999, 34.140107272 ], [ 134.615531769, 34.14008568 ], [ 134.615677452, 34.139994668 ], [ 134.615761002, 34.139978166 ], [ 134.61576388099999, 34.139842744 ], [ 134.615598962, 34.138781014 ], [ 134.61530571, 34.138404412 ], [ 134.613817227999988, 34.136464346 ], [ 134.613038077999988, 34.135455264 ], [ 134.612938092, 34.135377455 ], [ 134.612582626, 34.135176731 ], [ 134.611956566, 34.134355888 ], [ 134.61173306399999, 34.133991168 ], [ 134.610609794999988, 34.13419216 ], [ 134.60868895499999, 34.134549429 ], [ 134.606732439000012, 34.134921899 ], [ 134.602873792, 34.135716944 ], [ 134.60049916599999, 34.136203391 ], [ 134.60047226899999, 34.136208811 ], [ 134.600554863000013, 34.136270317 ], [ 134.60103754, 34.136687835 ], [ 134.6012418, 34.136864519 ], [ 134.601757545, 34.137311102 ], [ 134.601915499, 34.137447873 ], [ 134.602872366000014, 34.138276401 ], [ 134.602939063, 34.138334152 ], [ 134.602994607, 34.138386033 ], [ 134.601926142999986, 34.139240948 ], [ 134.60255703199999, 34.13977556 ], [ 134.605881501, 34.142608047 ], [ 134.60326444899999, 34.14475334 ], [ 134.60315499, 34.144807755 ], [ 134.60308878699999, 34.144835066 ], [ 134.603004324000011, 34.144870173 ], [ 134.602920108, 34.144924361 ], [ 134.602876337999987, 34.145000131 ], [ 134.602880841, 34.145081668 ], [ 134.60284247300001, 34.145131628 ], [ 134.60103225899999, 34.146538848 ], [ 134.601116682999987, 34.146602207 ], [ 134.600960377, 34.14676104 ], [ 134.601017293000012, 34.146799993 ], [ 134.601173778, 34.146685333 ], [ 134.601521, 34.146412944 ], [ 134.60163069, 34.146328531 ], [ 134.601648417, 34.146314889 ], [ 134.601775221999986, 34.146216333 ], [ 134.601808889000012, 34.146193333 ], [ 134.601859389, 34.146167222 ], [ 134.601900194, 34.146154722 ], [ 134.601984028, 34.146136111 ], [ 134.602151, 34.146096944 ], [ 134.60227763899999, 34.146068028 ], [ 134.602320222, 34.1460575 ], [ 134.60236161099999, 34.146046667 ], [ 134.602402305999988, 34.146034194 ], [ 134.602442778000011, 34.146021139 ], [ 134.602482056000014, 34.146005278 ], [ 134.602516278, 34.145990806 ], [ 134.602555222, 34.145973083 ], [ 134.60259605600001, 34.145952306 ], [ 134.602636694000012, 34.145930139 ], [ 134.602676917, 34.145904889 ], [ 134.602716278, 34.145882944 ], [ 134.602741028, 34.1458595 ], [ 134.602808638999988, 34.145813361 ], [ 134.602859028000012, 34.145771389 ], [ 134.602883139, 34.145739111 ], [ 134.602896098, 34.145652434 ], [ 134.602909387000011, 34.145198418 ] ] ] } }
]
}
