{
"type": "FeatureCollection",
"name": "A29-19_25443",
"features": [
{ "type": "Feature", "properties": { "A29_001": "25443", "A29_002": "滋賀県", "A29_003": "多賀町", "A29_004": 1, "A29_005": "第一種低層住居専用地域", "A29_006": 60, "A29_007": 100, "A29_008": null }, "geometry": { "type": "Polygon", "coordinates": [ [ [ 136.294604709999987, 35.229703238 ], [ 136.294879138999988, 35.229276731 ], [ 136.294279241999988, 35.227983459 ], [ 136.293329029, 35.226903772 ], [ 136.29255213799999, 35.22715526 ], [ 136.292286251, 35.227208095 ], [ 136.292034116, 35.227235657 ], [ 136.291618647, 35.227239904 ], [ 136.291279825, 35.227234499 ], [ 136.29092666, 35.227212092 ], [ 136.290013146, 35.227169302 ], [ 136.289265895, 35.22713954 ], [ 136.288736392, 35.227112228 ], [ 136.288091556000012, 35.227027677 ], [ 136.28711723399999, 35.226905324 ], [ 136.287552960999989, 35.227599206 ], [ 136.28774644500001, 35.227916773 ], [ 136.28788714699999, 35.228126744 ], [ 136.288174645, 35.228436153 ], [ 136.288203256, 35.228480706 ], [ 136.28829612199999, 35.228459211 ], [ 136.288366456, 35.228465895 ], [ 136.288572278, 35.228543379 ], [ 136.288812705, 35.228620419 ], [ 136.288848351000013, 35.228635027 ], [ 136.288926339, 35.228662425 ], [ 136.28899703799999, 35.228710032 ], [ 136.289149048000013, 35.228792421 ], [ 136.28931401, 35.228840885 ], [ 136.28945830699999, 35.228885792 ], [ 136.28953385599999, 35.228906975 ], [ 136.289576509, 35.228914625 ], [ 136.28962453599999, 35.228919739 ], [ 136.28972703, 35.228917871 ], [ 136.289983208, 35.228882372 ], [ 136.28999892499999, 35.228884408 ], [ 136.2900521, 35.228885182 ], [ 136.29019188699999, 35.228897557 ], [ 136.290266768, 35.228885298 ], [ 136.290524643, 35.228801747 ], [ 136.290569868, 35.228791363 ], [ 136.290619617, 35.228786285 ], [ 136.290788361000011, 35.22878606 ], [ 136.290846705, 35.228788174 ], [ 136.290915831, 35.228794768 ], [ 136.291061713, 35.228822092 ], [ 136.291144416, 35.228846772 ], [ 136.29116842, 35.228862039 ], [ 136.291197184999987, 35.228887661 ], [ 136.29125962, 35.228958634 ], [ 136.291459374, 35.229211997 ], [ 136.291475240000011, 35.22922503 ], [ 136.29177948200001, 35.229388629 ], [ 136.29195334100001, 35.229466544 ], [ 136.292090395, 35.229512908 ], [ 136.29227519599999, 35.229578177 ], [ 136.292320998, 35.22960601 ], [ 136.292502294, 35.229551757 ], [ 136.292608927, 35.229539871 ], [ 136.293089517999988, 35.229555835 ], [ 136.293259526000014, 35.229570297 ], [ 136.29330097799999, 35.229579752 ], [ 136.293325513000013, 35.229589698 ], [ 136.293411822, 35.22960878 ], [ 136.29343670599999, 35.229593576 ], [ 136.293547413999988, 35.229615122 ], [ 136.29386193, 35.229671149 ], [ 136.293895771, 35.229672239 ], [ 136.293911146999989, 35.229670759 ], [ 136.29396767599999, 35.22965701 ], [ 136.294113309000011, 35.22961474 ], [ 136.29413976699999, 35.229609447 ], [ 136.294167116000011, 35.229607668 ], [ 136.294195142, 35.229610755 ], [ 136.294234388, 35.229617961 ], [ 136.294570083999986, 35.229697913 ], [ 136.294604709999987, 35.229703238 ] ] ] } },
{ "type": "Feature", "properties": { "A29_001": "25443", "A29_002": "滋賀県", "A29_003": "多賀町", "A29_004": 1, "A29_005": "第一種低層住居専用地域", "A29_006": 50, "A29_007": 80, "A29_008": null }, "geometry": { "type": "Polygon", "coordinates": [ [ [ 136.281773570000013, 35.223803147 ], [ 136.28164651899999, 35.223880966 ], [ 136.28148607, 35.223990143 ], [ 136.281220689, 35.224188895 ], [ 136.281087805, 35.224264113 ], [ 136.28107103799999, 35.224275871 ], [ 136.280948101, 35.224336823 ], [ 136.280390431, 35.224450164 ], [ 136.27974331499999, 35.224461036 ], [ 136.279771931, 35.224700662 ], [ 136.279722060000012, 35.224765681 ], [ 136.27970332699999, 35.224780868 ], [ 136.279690646, 35.22489502 ], [ 136.279717115000011, 35.22502134 ], [ 136.279752327000011, 35.22516639 ], [ 136.279807825, 35.225332486 ], [ 136.27983408599999, 35.22539796 ], [ 136.279879787, 35.225430216 ], [ 136.280102160000013, 35.22598102 ], [ 136.280136085, 35.226006813 ], [ 136.280164242000012, 35.226016573 ], [ 136.280286413999988, 35.225987985 ], [ 136.280959091, 35.225772335 ], [ 136.281326478000011, 35.225652943 ], [ 136.281435313, 35.225611674 ], [ 136.281517656, 35.22556551 ], [ 136.281591386, 35.225506835 ], [ 136.28180243599999, 35.225289188 ], [ 136.281773570000013, 35.223803147 ] ] ] } },
{ "type": "Feature", "properties": { "A29_001": "25443", "A29_002": "滋賀県", "A29_003": "多賀町", "A29_004": 4, "A29_005": "第二種中高層住居専用地域", "A29_006": 60, "A29_007": 200, "A29_008": null }, "geometry": { "type": "Polygon", "coordinates": [ [ [ 136.296454769, 35.230153405 ], [ 136.297018027, 35.230091628 ], [ 136.29717756, 35.230095473 ], [ 136.297242754, 35.230108023 ], [ 136.29793795, 35.230194925 ], [ 136.297997277, 35.23019541 ], [ 136.298100260000012, 35.230176858 ], [ 136.298450612000011, 35.230207184 ], [ 136.298467168, 35.230107985 ], [ 136.298493938, 35.230038058 ], [ 136.298530639, 35.230010023 ], [ 136.29855444399999, 35.229970662 ], [ 136.298641139000011, 35.229674507 ], [ 136.298632889, 35.229641715 ], [ 136.298604837, 35.22960167 ], [ 136.29857770699999, 35.229573252 ], [ 136.298447821, 35.229505063 ], [ 136.298357693000014, 35.229463639 ], [ 136.298321651, 35.229461564 ], [ 136.298241477, 35.229468342 ], [ 136.29815588, 35.229464136 ], [ 136.298008915, 35.229412125 ], [ 136.29769274, 35.229413624 ], [ 136.297626057, 35.229173826 ], [ 136.297579215000013, 35.229162312 ], [ 136.29743599, 35.22914148 ], [ 136.297269091, 35.229105743 ], [ 136.297091220999988, 35.229074088 ], [ 136.29701187399999, 35.229066531 ], [ 136.296954734, 35.229063246 ], [ 136.296811528, 35.229077479 ], [ 136.296703447, 35.229083513 ], [ 136.296675529, 35.229079976 ], [ 136.296655703999988, 35.229066142 ], [ 136.29662225300001, 35.229051621 ], [ 136.296487998, 35.229019859 ], [ 136.296276158000012, 35.228981796 ], [ 136.296207992, 35.228967269 ], [ 136.296114165, 35.228935408 ], [ 136.29605516399999, 35.228903461 ], [ 136.296013045, 35.228861737 ], [ 136.29597199, 35.228810276 ], [ 136.29591280599999, 35.228727759 ], [ 136.295859624, 35.2286345 ], [ 136.296275615000013, 35.229618121 ], [ 136.29633264, 35.229771135 ], [ 136.296364595, 35.229887792 ], [ 136.296454769, 35.230153405 ] ] ] } },
{ "type": "Feature", "properties": { "A29_001": "25443", "A29_002": "滋賀県", "A29_003": "多賀町", "A29_004": 4, "A29_005": "第二種中高層住居専用地域", "A29_006": 60, "A29_007": 200, "A29_008": null }, "geometry": { "type": "Polygon", "coordinates": [ [ [ 136.295636597, 35.233234528 ], [ 136.295657791999986, 35.233171466 ], [ 136.295686698, 35.233053487 ], [ 136.295710632, 35.232836814 ], [ 136.2957333, 35.232544153 ], [ 136.29564628899999, 35.232090583 ], [ 136.295603656999987, 35.231907426 ], [ 136.29557291, 35.231760206 ], [ 136.295452219999987, 35.230865286 ], [ 136.29529681299999, 35.230878736 ], [ 136.294803003999988, 35.230977204 ], [ 136.29428874199999, 35.231101051 ], [ 136.29404872, 35.231170233 ], [ 136.293736935999988, 35.231294487 ], [ 136.293232445, 35.231539638 ], [ 136.292610507, 35.231907577 ], [ 136.293669767000011, 35.232410807 ], [ 136.293744809, 35.232442445 ], [ 136.293840042, 35.232467184 ], [ 136.294081526000014, 35.232497787 ], [ 136.29415771699999, 35.232512746 ], [ 136.294250298, 35.232533434 ], [ 136.29432024, 35.232552104 ], [ 136.294406256, 35.23258011 ], [ 136.294476452999987, 35.232608425 ], [ 136.29510865, 35.232890206 ], [ 136.295330957, 35.23299432 ], [ 136.295384352000013, 35.233024658 ], [ 136.29547535399999, 35.233094388 ], [ 136.295636597, 35.233234528 ] ] ] } },
{ "type": "Feature", "properties": { "A29_001": "25443", "A29_002": "滋賀県", "A29_003": "多賀町", "A29_004": 4, "A29_005": "第二種中高層住居専用地域", "A29_006": 60, "A29_007": 200, "A29_008": null }, "geometry": { "type": "Polygon", "coordinates": [ [ [ 136.29570386099999, 35.224309341 ], [ 136.295778458, 35.224311052 ], [ 136.296181598, 35.224334495 ], [ 136.296248442, 35.224318646 ], [ 136.296388107000013, 35.224299464 ], [ 136.296417649, 35.224296958 ], [ 136.296460263, 35.22429442 ], [ 136.296623727, 35.224294651 ], [ 136.29674937199999, 35.224286771 ], [ 136.296760207, 35.224245639 ], [ 136.296794279000011, 35.224159648 ], [ 136.296835759, 35.224087161 ], [ 136.296813098, 35.224078653 ], [ 136.296781713, 35.224117852 ], [ 136.296741591, 35.224141208 ], [ 136.296707894, 35.224148772 ], [ 136.296685249, 35.224144681 ], [ 136.29654252, 35.223895423 ], [ 136.29657158399999, 35.223882281 ], [ 136.296629026, 35.223848968 ], [ 136.296684832000011, 35.223818903 ], [ 136.29677826599999, 35.223774594 ], [ 136.296812132000014, 35.223752967 ], [ 136.296821475, 35.223724278 ], [ 136.296795851000013, 35.2236863 ], [ 136.296806417, 35.223661575 ], [ 136.296845617, 35.223596575 ], [ 136.296869891999989, 35.223565687 ], [ 136.296878959, 35.223551602 ], [ 136.29662572399999, 35.223454688 ], [ 136.296586287999986, 35.223575847 ], [ 136.296576377, 35.223599399 ], [ 136.296556235, 35.223619009 ], [ 136.296475585, 35.223644267 ], [ 136.29645211499999, 35.223654781 ], [ 136.296439647999989, 35.223670316 ], [ 136.296434869, 35.223655274 ], [ 136.296413664999989, 35.223624316 ], [ 136.296352554, 35.223554965 ], [ 136.296289943, 35.223465786 ], [ 136.296083178, 35.223248144 ], [ 136.296056996, 35.22344986 ], [ 136.296029317, 35.223571802 ], [ 136.296080201, 35.223608095 ], [ 136.296119721, 35.223661093 ], [ 136.295963822, 35.223958948 ], [ 136.295904556000011, 35.224034724 ], [ 136.29587258699999, 35.224034351 ], [ 136.29573062599999, 35.22426826 ], [ 136.29570386099999, 35.224309341 ] ] ] } },
{ "type": "Feature", "properties": { "A29_001": "25443", "A29_002": "滋賀県", "A29_003": "多賀町", "A29_004": 5, "A29_005": "第一種住居地域", "A29_006": 60, "A29_007": 200, "A29_008": null }, "geometry": { "type": "Polygon", "coordinates": [ [ [ 136.292105585, 35.224984418 ], [ 136.29197880000001, 35.224766306 ], [ 136.291877152000012, 35.224788096 ], [ 136.29160167500001, 35.224798946 ], [ 136.291576582, 35.224786296 ], [ 136.291552947000014, 35.224750927 ], [ 136.29138606699999, 35.224440784 ], [ 136.291275404, 35.224429782 ], [ 136.290760559, 35.224503405 ], [ 136.290703154, 35.224517155 ], [ 136.290667168999988, 35.224499392 ], [ 136.290518598, 35.224516876 ], [ 136.290555966999989, 35.224676161 ], [ 136.29050022199999, 35.224693422 ], [ 136.290436226, 35.224707367 ], [ 136.28964425800001, 35.225009713 ], [ 136.288846834999987, 35.225324147 ], [ 136.288089078000013, 35.225642807 ], [ 136.288010652, 35.225677158 ], [ 136.287982497, 35.225792609 ], [ 136.288025344, 35.225979916 ], [ 136.28803201, 35.226063192 ], [ 136.288388053, 35.226528207 ], [ 136.291291906, 35.226680448 ], [ 136.291904614, 35.226689609 ], [ 136.292121834999989, 35.226667811 ], [ 136.292404377, 35.226603487 ], [ 136.292726267, 35.226513828 ], [ 136.292824661, 35.226472845 ], [ 136.292935865, 35.226419481 ], [ 136.292105585, 35.224984418 ] ] ] } },
{ "type": "Feature", "properties": { "A29_001": "25443", "A29_002": "滋賀県", "A29_003": "多賀町", "A29_004": 5, "A29_005": "第一種住居地域", "A29_006": 60, "A29_007": 200, "A29_008": null }, "geometry": { "type": "Polygon", "coordinates": [ [ [ 136.291254573, 35.222719537 ], [ 136.291134911, 35.222771928 ], [ 136.291061606, 35.222793107 ], [ 136.29100576, 35.222812352 ], [ 136.290930766, 35.222883926 ], [ 136.29091592099999, 35.222972122 ], [ 136.290864911999989, 35.223053915 ], [ 136.290902139999986, 35.223142888 ], [ 136.290665819, 35.223412354 ], [ 136.290589696000012, 35.223475367 ], [ 136.290485373, 35.223393586 ], [ 136.290339665, 35.223443244 ], [ 136.290254530999988, 35.223474638 ], [ 136.290159491, 35.223562486 ], [ 136.289916748, 35.22360264 ], [ 136.289781893, 35.223646142 ], [ 136.289607372, 35.223687124 ], [ 136.28935242899999, 35.223756604 ], [ 136.289256955000013, 35.223815425 ], [ 136.28905702899999, 35.223879634 ], [ 136.288943627, 35.223932368 ], [ 136.288839532999987, 35.223976607 ], [ 136.288715309999986, 35.224013862 ], [ 136.28854231299999, 35.224051234 ], [ 136.28835845899999, 35.224125319 ], [ 136.288161497, 35.224157969 ], [ 136.287950706, 35.224318836 ], [ 136.287855928999988, 35.224326814 ], [ 136.28765636899999, 35.224121491 ], [ 136.28752151399999, 35.223947834 ], [ 136.287520156999989, 35.22390574 ], [ 136.287532535999986, 35.223833505 ], [ 136.287528799, 35.223801964 ], [ 136.287515395000014, 35.223770265 ], [ 136.28748449, 35.223728692 ], [ 136.287451, 35.223702089 ], [ 136.287397070999987, 35.223673462 ], [ 136.287367608000011, 35.223667041 ], [ 136.287344138, 35.223678094 ], [ 136.287106825, 35.223825501 ], [ 136.287008590999989, 35.223881083 ], [ 136.286946242999988, 35.223926212 ], [ 136.28682042599999, 35.223947424 ], [ 136.286755247, 35.223968581 ], [ 136.286669244, 35.2240034 ], [ 136.286634614, 35.22402737 ], [ 136.286427675, 35.22409709 ], [ 136.28623263099999, 35.224081957 ], [ 136.286167545000012, 35.224067057 ], [ 136.286065065, 35.224039715 ], [ 136.28598126899999, 35.224014763 ], [ 136.285855376, 35.22395223 ], [ 136.285620345000012, 35.22381153 ], [ 136.28553825099999, 35.223770438 ], [ 136.28542206, 35.223780177 ], [ 136.285323018000014, 35.223793481 ], [ 136.285194244, 35.223880322 ], [ 136.285064248999987, 35.223901001 ], [ 136.284865488, 35.223922112 ], [ 136.284812644999988, 35.223921154 ], [ 136.28458969799999, 35.223874353 ], [ 136.284346274, 35.223814709 ], [ 136.28421684599999, 35.223777604 ], [ 136.284014221, 35.223730303 ], [ 136.283655974, 35.223662994 ], [ 136.283633138999988, 35.223698745 ], [ 136.283611271000012, 35.223728093 ], [ 136.28356718, 35.223748208 ], [ 136.283531952, 35.223758296 ], [ 136.283487810999986, 35.223764169 ], [ 136.283307799, 35.223775227 ], [ 136.283222548, 35.223773894 ], [ 136.283098611000014, 35.223735873 ], [ 136.283068538, 35.223838617 ], [ 136.283030169, 35.223829873 ], [ 136.282981118, 35.223813491 ], [ 136.282918548, 35.22392208 ], [ 136.282850324, 35.224015719 ], [ 136.282831571, 35.224024687 ], [ 136.282813999000012, 35.22402617 ], [ 136.282771156, 35.22402627 ], [ 136.282724349, 35.224023495 ], [ 136.282719966, 35.224090211 ], [ 136.28270883499999, 35.224428096 ], [ 136.282718210000013, 35.224692375 ], [ 136.282724702, 35.225012009 ], [ 136.282786136, 35.225019348 ], [ 136.282813542000014, 35.225034338 ], [ 136.282824912, 35.225050176 ], [ 136.282894663, 35.226187446 ], [ 136.282887229000011, 35.22619801 ], [ 136.282868557, 35.226198955 ], [ 136.282872494, 35.226257179 ], [ 136.282932901, 35.226253161 ], [ 136.283057375999988, 35.226191933 ], [ 136.28343577199999, 35.225921608 ], [ 136.283460002999988, 35.22590794 ], [ 136.283483229000012, 35.225858126 ], [ 136.28370632799999, 35.225726264 ], [ 136.283881544, 35.225598841 ], [ 136.283959825000011, 35.225554037 ], [ 136.284066663, 35.225507452 ], [ 136.284141648, 35.225462655 ], [ 136.284212521, 35.225404166 ], [ 136.284281256000014, 35.225362809 ], [ 136.284352181, 35.225350653 ], [ 136.284589473000011, 35.225351808 ], [ 136.284735313999988, 35.225149543 ], [ 136.284844357, 35.225200038 ], [ 136.28494920899999, 35.225245494 ], [ 136.285003714999988, 35.225093383 ], [ 136.28503281499999, 35.22499587 ], [ 136.285123527, 35.225019183 ], [ 136.285278965, 35.225048655 ], [ 136.285332587999989, 35.225052495 ], [ 136.285462886, 35.225055162 ], [ 136.285542107999987, 35.225059663 ], [ 136.28559485400001, 35.225064226 ], [ 136.285667803, 35.225065586 ], [ 136.285715027, 35.225061689 ], [ 136.285828001, 35.225042492 ], [ 136.285932530999986, 35.225027552 ], [ 136.286045879999989, 35.225021425 ], [ 136.286209617, 35.225005172 ], [ 136.286239604, 35.22503548 ], [ 136.28688656599999, 35.224948763 ], [ 136.287066707, 35.224911196 ], [ 136.28708297899999, 35.224915124 ], [ 136.287179858, 35.225067417 ], [ 136.2870615, 35.225179656 ], [ 136.28757086499999, 35.225263002 ], [ 136.28796420399999, 35.225030308 ], [ 136.290565218000012, 35.223973829 ], [ 136.291565607, 35.223867669 ], [ 136.291254573, 35.222719537 ] ] ] } },
{ "type": "Feature", "properties": { "A29_001": "25443", "A29_002": "滋賀県", "A29_003": "多賀町", "A29_004": 5, "A29_005": "第一種住居地域", "A29_006": 60, "A29_007": 200, "A29_008": null }, "geometry": { "type": "Polygon", "coordinates": [ [ [ 136.281773570000013, 35.223803147 ], [ 136.28180243599999, 35.225289188 ], [ 136.281864998, 35.225241266 ], [ 136.281927164, 35.225206055 ], [ 136.281977907999988, 35.225171683 ], [ 136.282132963, 35.225090553 ], [ 136.28219218699999, 35.2250622 ], [ 136.282264244, 35.225059778 ], [ 136.282281168999987, 35.224871699 ], [ 136.282253325999989, 35.22482561 ], [ 136.282265075, 35.223967325 ], [ 136.282273327000013, 35.223717248 ], [ 136.282196548, 35.223592938 ], [ 136.282187248000014, 35.223572137 ], [ 136.282156138, 35.223534169 ], [ 136.282098749999989, 35.223489501 ], [ 136.282099611, 35.223516091 ], [ 136.282081471, 35.223575358 ], [ 136.282052517000011, 35.223620768 ], [ 136.28202736099999, 35.223652827 ], [ 136.281996467999988, 35.223677599 ], [ 136.281773570000013, 35.223803147 ] ] ] } },
{ "type": "Feature", "properties": { "A29_001": "25443", "A29_002": "滋賀県", "A29_003": "多賀町", "A29_004": 5, "A29_005": "第一種住居地域", "A29_006": 60, "A29_007": 200, "A29_008": null }, "geometry": { "type": "Polygon", "coordinates": [ [ [ 136.296454769, 35.230153405 ], [ 136.29652302, 35.230764591 ], [ 136.296692527, 35.231787575 ], [ 136.296756265, 35.232093636 ], [ 136.296790818, 35.232289974 ], [ 136.29681488899999, 35.232473898 ], [ 136.296807508, 35.233041459 ], [ 136.296786407000013, 35.233220446 ], [ 136.296728664999989, 35.233444865 ], [ 136.296626214000014, 35.233731411 ], [ 136.29647191399999, 35.234050897 ], [ 136.296272488999989, 35.234348679 ], [ 136.296144774, 35.234516748 ], [ 136.295938385999989, 35.234743333 ], [ 136.29561507, 35.235023117 ], [ 136.295338651, 35.235207955 ], [ 136.29503728, 35.235420346 ], [ 136.295231030999986, 35.235586279 ], [ 136.295391317, 35.235491598 ], [ 136.295588879, 35.235435497 ], [ 136.29581939900001, 35.235318468 ], [ 136.296126426, 35.235151583 ], [ 136.296501489, 35.234931977 ], [ 136.296732767, 35.234812782 ], [ 136.296863718999987, 35.23474936 ], [ 136.29692714399999, 35.23472766 ], [ 136.297049316999988, 35.234697162 ], [ 136.297138045, 35.234684865 ], [ 136.297196453, 35.234673184 ], [ 136.297248698, 35.234658903 ], [ 136.297303956, 35.234627217 ], [ 136.29734383600001, 35.23459647 ], [ 136.297371270000014, 35.234557371 ], [ 136.297413084999988, 35.234485063 ], [ 136.297462015, 35.234285005 ], [ 136.297788881, 35.234046943 ], [ 136.297887083, 35.233981528 ], [ 136.297957438, 35.233962334 ], [ 136.29805131399999, 35.233945787 ], [ 136.29810283399999, 35.233943858 ], [ 136.298173555, 35.233994524 ], [ 136.298316230000012, 35.233862834 ], [ 136.298453501000012, 35.233755675 ], [ 136.29858626, 35.233676563 ], [ 136.298713572, 35.233610083 ], [ 136.299033255000012, 35.233512299 ], [ 136.298698196, 35.23301229 ], [ 136.298259763, 35.232723559 ], [ 136.29825728, 35.232675609 ], [ 136.29828519899999, 35.232649219 ], [ 136.298334309000012, 35.23261926 ], [ 136.298467329, 35.232581793 ], [ 136.298664097, 35.23255138 ], [ 136.298843003, 35.232533721 ], [ 136.298967013, 35.232526203 ], [ 136.299037499, 35.232513319 ], [ 136.299103325, 35.232487826 ], [ 136.299310905, 35.232350475 ], [ 136.299386664999986, 35.232277812 ], [ 136.299460223000011, 35.232054615 ], [ 136.29949480499999, 35.231838366 ], [ 136.299566332000012, 35.231630588 ], [ 136.299636278, 35.231441204 ], [ 136.29957276799999, 35.231408819 ], [ 136.299386714, 35.231244407 ], [ 136.29928290699999, 35.231158577 ], [ 136.29920637399999, 35.231110179 ], [ 136.29898881599999, 35.230982532 ], [ 136.298955350999989, 35.230964406 ], [ 136.298835711, 35.230904936 ], [ 136.298747905999988, 35.230868194 ], [ 136.298679381, 35.230846458 ], [ 136.298606694, 35.230827888 ], [ 136.298514329999989, 35.230806301 ], [ 136.29834489699999, 35.23076985 ], [ 136.298450612000011, 35.230207184 ], [ 136.298100260000012, 35.230176858 ], [ 136.297997277, 35.23019541 ], [ 136.29793795, 35.230194925 ], [ 136.297242754, 35.230108023 ], [ 136.29717756, 35.230095473 ], [ 136.297018027, 35.230091628 ], [ 136.296454769, 35.230153405 ] ] ] } },
{ "type": "Feature", "properties": { "A29_001": "25443", "A29_002": "滋賀県", "A29_003": "多賀町", "A29_004": 5, "A29_005": "第一種住居地域", "A29_006": 60, "A29_007": 200, "A29_008": null }, "geometry": { "type": "Polygon", "coordinates": [ [ [ 136.29403395, 35.226162704 ], [ 136.294144757, 35.226091222 ], [ 136.294230707, 35.226041975 ], [ 136.294530296, 35.225831933 ], [ 136.29472520499999, 35.225656129 ], [ 136.294959661, 35.225450031 ], [ 136.295295715, 35.224996691 ], [ 136.295418135, 35.22479452 ], [ 136.295670367000014, 35.224391753 ], [ 136.295703871, 35.22430932 ], [ 136.29573062599999, 35.22426826 ], [ 136.29587258699999, 35.224034351 ], [ 136.295904567, 35.224034652 ], [ 136.295963871, 35.223958915 ], [ 136.296119721, 35.223661093 ], [ 136.29608026299999, 35.223608035 ], [ 136.296029318, 35.223571761 ], [ 136.296056996, 35.22344986 ], [ 136.29608041, 35.22327249 ], [ 136.296091904, 35.2231706 ], [ 136.296117555, 35.222853231 ], [ 136.296108908, 35.222650069 ], [ 136.296087456, 35.222490296 ], [ 136.296032982000014, 35.222221441 ], [ 136.296012818, 35.222144327 ], [ 136.29595905, 35.22206982 ], [ 136.295901348, 35.222000821 ], [ 136.295872559, 35.221938061 ], [ 136.295869098, 35.221801862 ], [ 136.295838737999986, 35.221669516 ], [ 136.29581296500001, 35.221529586 ], [ 136.295810542999988, 35.221437194 ], [ 136.29583328699999, 35.22128723 ], [ 136.295796018, 35.2210671 ], [ 136.295416109, 35.221084163 ], [ 136.295109091, 35.221087887 ], [ 136.294961621999988, 35.221164868 ], [ 136.294936345, 35.221161775 ], [ 136.294902616, 35.221160415 ], [ 136.294261449, 35.221198573 ], [ 136.294120634, 35.22120198 ], [ 136.294087517, 35.221218016 ], [ 136.294069631000013, 35.221223558 ], [ 136.294043929999987, 35.221224702 ], [ 136.294022172000012, 35.221222592 ], [ 136.29399831, 35.221215619 ], [ 136.293971683, 35.221203604 ], [ 136.293908165, 35.221166439 ], [ 136.293837442000012, 35.221111172 ], [ 136.29378976000001, 35.221078656 ], [ 136.293729097000011, 35.221041033 ], [ 136.29365953199999, 35.221002079 ], [ 136.293609679000014, 35.22097687 ], [ 136.293492883999988, 35.220847977 ], [ 136.29324839200001, 35.22070461 ], [ 136.2932284, 35.22067428 ], [ 136.293178833000013, 35.220728396 ], [ 136.29316200400001, 35.220752776 ], [ 136.29298997699999, 35.221088346 ], [ 136.292933154, 35.221171506 ], [ 136.292853769, 35.221242912 ], [ 136.292752721999989, 35.22130824 ], [ 136.292671632, 35.221363604 ], [ 136.292589765, 35.221416896 ], [ 136.29253399800001, 35.221458047 ], [ 136.2923514, 35.221695565 ], [ 136.292293054999988, 35.221753038 ], [ 136.292235546, 35.221798429 ], [ 136.29217799700001, 35.221832552 ], [ 136.292116316, 35.221848025 ], [ 136.292209754999988, 35.222203326 ], [ 136.29247252799999, 35.223093491 ], [ 136.29264432299999, 35.223762843 ], [ 136.292730143, 35.22392255 ], [ 136.292730834999986, 35.223931473 ], [ 136.292632587000014, 35.224012569 ], [ 136.292551067, 35.22407154 ], [ 136.292518843000011, 35.22409181 ], [ 136.292544754, 35.224149079 ], [ 136.29270551499999, 35.224222698 ], [ 136.292793190999987, 35.224256741 ], [ 136.292931788, 35.224306796 ], [ 136.293070586, 35.224351892 ], [ 136.293109073000011, 35.224362436 ], [ 136.29307286400001, 35.22443554 ], [ 136.293037454, 35.224486286 ], [ 136.292936352, 35.224568201 ], [ 136.293357466, 35.225190074 ], [ 136.293680348, 35.225682376 ], [ 136.29403395, 35.226162704 ] ] ] } },
{ "type": "Feature", "properties": { "A29_001": "25443", "A29_002": "滋賀県", "A29_003": "多賀町", "A29_004": 6, "A29_005": "第二種住居地域", "A29_006": 60, "A29_007": 200, "A29_008": null }, "geometry": { "type": "Polygon", "coordinates": [ [ [ 136.291567832999988, 35.223875776 ], [ 136.29168339, 35.223842505 ], [ 136.291717159, 35.223824125 ], [ 136.2917702, 35.223788481 ], [ 136.291802391, 35.223758746 ], [ 136.291815918999987, 35.223732481 ], [ 136.291816152, 35.223705528 ], [ 136.29180478, 35.223658951 ], [ 136.291784005000011, 35.223593917 ], [ 136.291779811999987, 35.22355814 ], [ 136.291781281999988, 35.223539207 ], [ 136.291791534999987, 35.223518809 ], [ 136.291817778, 35.223484672 ], [ 136.291839777, 35.223461813 ], [ 136.291892657, 35.223412016 ], [ 136.29204159299999, 35.223312949 ], [ 136.292056194, 35.22331048 ], [ 136.292290737, 35.223465502 ], [ 136.29264432299999, 35.223762843 ], [ 136.29247252799999, 35.223093491 ], [ 136.292209754999988, 35.222203326 ], [ 136.292116316, 35.221848025 ], [ 136.2920552, 35.221837085 ], [ 136.292007033, 35.221791949 ], [ 136.291936862, 35.221675743 ], [ 136.291818299, 35.22145139 ], [ 136.29180213399999, 35.221415913 ], [ 136.291787905, 35.221338333 ], [ 136.291785366999989, 35.221212319 ], [ 136.291794958, 35.221099165 ], [ 136.291821757, 35.220913765 ], [ 136.291677072, 35.221002365 ], [ 136.291577346999986, 35.221038121 ], [ 136.29149156, 35.221039951 ], [ 136.291385752999986, 35.221033805 ], [ 136.291101093, 35.221115259 ], [ 136.29120746000001, 35.221431858 ], [ 136.29119773, 35.22150625 ], [ 136.291160057000013, 35.221569351 ], [ 136.291029258, 35.221855781 ], [ 136.29096782799999, 35.221972304 ], [ 136.29094824500001, 35.222056365 ], [ 136.290946440999988, 35.222135606 ], [ 136.291254573, 35.222719537 ], [ 136.291567832999988, 35.223875776 ] ] ] } },
{ "type": "Feature", "properties": { "A29_001": "25443", "A29_002": "滋賀県", "A29_003": "多賀町", "A29_004": 6, "A29_005": "第二種住居地域", "A29_006": 60, "A29_007": 200, "A29_008": null }, "geometry": { "type": "Polygon", "coordinates": [ [ [ 136.29503728, 35.235420346 ], [ 136.295338651, 35.235207955 ], [ 136.29561507, 35.235023117 ], [ 136.295938385999989, 35.234743333 ], [ 136.296144774, 35.234516748 ], [ 136.296272488999989, 35.234348679 ], [ 136.29647191399999, 35.234050897 ], [ 136.296626214000014, 35.233731411 ], [ 136.296728664999989, 35.233444865 ], [ 136.296786407000013, 35.233220446 ], [ 136.296807508, 35.233041459 ], [ 136.29681488899999, 35.232473898 ], [ 136.296790818, 35.232289974 ], [ 136.296756265, 35.232093636 ], [ 136.296692527, 35.231787575 ], [ 136.29652302, 35.230764591 ], [ 136.296454769, 35.230153405 ], [ 136.296364595, 35.229887792 ], [ 136.29633264, 35.229771135 ], [ 136.296275615000013, 35.229618121 ], [ 136.295859624, 35.2286345 ], [ 136.295600842, 35.228496311 ], [ 136.295397285, 35.228833584 ], [ 136.295301712999986, 35.228926305 ], [ 136.295183927000011, 35.228739905 ], [ 136.29505036, 35.228473225 ], [ 136.29488738500001, 35.228155055 ], [ 136.294740944000011, 35.227882006 ], [ 136.294637223, 35.22772622 ], [ 136.294319660000014, 35.227341719 ], [ 136.29390315099999, 35.226905174 ], [ 136.293649574999989, 35.226624091 ], [ 136.293517602, 35.226461972 ], [ 136.293748924999989, 35.226329982 ], [ 136.29403395, 35.226162704 ], [ 136.293680348, 35.225682376 ], [ 136.293357466, 35.225190074 ], [ 136.292936352, 35.224568201 ], [ 136.292441235000013, 35.224843074 ], [ 136.292105585, 35.224984418 ], [ 136.292935865, 35.226419481 ], [ 136.292824661, 35.226472845 ], [ 136.292726267, 35.226513828 ], [ 136.292404377, 35.226603487 ], [ 136.292121834999989, 35.226667811 ], [ 136.291904614, 35.226689609 ], [ 136.291291906, 35.226680448 ], [ 136.288388053, 35.226528207 ], [ 136.28803201, 35.226063192 ], [ 136.288025344, 35.225979916 ], [ 136.28788346799999, 35.226027579 ], [ 136.287793885000013, 35.226013549 ], [ 136.287338827000013, 35.225879955 ], [ 136.28712649799999, 35.2258243 ], [ 136.287039287999988, 35.225797463 ], [ 136.287006276, 35.225781947 ], [ 136.286942321, 35.22574523 ], [ 136.286878026000011, 35.225705899 ], [ 136.286839726000011, 35.225685888 ], [ 136.286803762, 35.225674435 ], [ 136.286764076, 35.225666506 ], [ 136.286449030999989, 35.225641561 ], [ 136.286304658, 35.225635232 ], [ 136.286183709, 35.225636059 ], [ 136.286137048, 35.225706661 ], [ 136.286091481999989, 35.225744719 ], [ 136.285644359, 35.22596185 ], [ 136.285530819, 35.226008 ], [ 136.285408746, 35.226064448 ], [ 136.285338152, 35.226108244 ], [ 136.28520060299999, 35.226262984 ], [ 136.285119463, 35.226338265 ], [ 136.285025819, 35.226388154 ], [ 136.284900798, 35.226450017 ], [ 136.284792218, 35.226501023 ], [ 136.284678342, 35.226545822 ], [ 136.28452983299999, 35.226613869 ], [ 136.284385531999988, 35.226691731 ], [ 136.284300148999989, 35.226748001 ], [ 136.284235246, 35.226817474 ], [ 136.284210984999987, 35.226853859 ], [ 136.284487291, 35.226763517 ], [ 136.28495487, 35.22664487 ], [ 136.285292034, 35.226585392 ], [ 136.285651021, 35.226546325 ], [ 136.285923214, 35.226536848 ], [ 136.286184354, 35.226539206 ], [ 136.286616213, 35.22657343 ], [ 136.287000876, 35.226619484 ], [ 136.28701786, 35.226700483 ], [ 136.287064305, 35.226818371 ], [ 136.28711723399999, 35.226905324 ], [ 136.288091556000012, 35.227027677 ], [ 136.288736392, 35.227112228 ], [ 136.289265895, 35.22713954 ], [ 136.290013146, 35.227169302 ], [ 136.29092666, 35.227212092 ], [ 136.291279825, 35.227234499 ], [ 136.291618647, 35.227239904 ], [ 136.292034116, 35.227235657 ], [ 136.292286251, 35.227208095 ], [ 136.29255213799999, 35.22715526 ], [ 136.293329029, 35.226903772 ], [ 136.294279241999988, 35.227983459 ], [ 136.294879138999988, 35.229276731 ], [ 136.294604709999987, 35.229703238 ], [ 136.29473457099999, 35.229734832 ], [ 136.29468877799999, 35.229800929 ], [ 136.294302254, 35.230218423 ], [ 136.29435461700001, 35.230237496 ], [ 136.29441255, 35.230247181 ], [ 136.29464480199999, 35.230217679 ], [ 136.294786327999986, 35.230193897 ], [ 136.294981342999989, 35.230196487 ], [ 136.295223988, 35.230215547 ], [ 136.295302996, 35.230250691 ], [ 136.295814449, 35.230232495 ], [ 136.295962722000013, 35.230221045 ], [ 136.296063919, 35.230829627 ], [ 136.295747811000012, 35.230820844 ], [ 136.295452219999987, 35.230865286 ], [ 136.29557291, 35.231760206 ], [ 136.29564628899999, 35.232090583 ], [ 136.2957333, 35.232544153 ], [ 136.295710632, 35.232836814 ], [ 136.295686698, 35.233053487 ], [ 136.295657791999986, 35.233171466 ], [ 136.295636597, 35.233234528 ], [ 136.296044943999988, 35.233590227 ], [ 136.29601663, 35.233659437 ], [ 136.295972489, 35.23375726 ], [ 136.295909403, 35.233872167 ], [ 136.295852155, 35.233960918 ], [ 136.295721972, 35.234145219 ], [ 136.295644297, 35.234236454 ], [ 136.295552163999986, 35.234339983 ], [ 136.295417168, 35.234470029 ], [ 136.295282764, 35.234581504 ], [ 136.295115256, 35.234713973 ], [ 136.294804035999988, 35.234936935 ], [ 136.2949725, 35.23512871 ], [ 136.294827322, 35.235269056 ], [ 136.29503728, 35.235420346 ] ] ] } },
{ "type": "Feature", "properties": { "A29_001": "25443", "A29_002": "滋賀県", "A29_003": "多賀町", "A29_004": 8, "A29_005": "近隣商業地域", "A29_006": 80, "A29_007": 200, "A29_008": null }, "geometry": { "type": "Polygon", "coordinates": [ [ [ 136.292105585, 35.224984418 ], [ 136.292441235000013, 35.224843074 ], [ 136.29255032899999, 35.224784217 ], [ 136.292936352, 35.224568201 ], [ 136.293037454, 35.224486286 ], [ 136.29307286400001, 35.22443554 ], [ 136.293109073000011, 35.224362436 ], [ 136.293070586, 35.224351892 ], [ 136.292931788, 35.224306796 ], [ 136.292793190999987, 35.224256741 ], [ 136.29270551499999, 35.224222698 ], [ 136.292544754, 35.224149079 ], [ 136.292518843000011, 35.22409181 ], [ 136.292551067, 35.22407154 ], [ 136.292632587000014, 35.224012569 ], [ 136.292730834999986, 35.223931473 ], [ 136.292730143, 35.22392255 ], [ 136.29264432299999, 35.223762843 ], [ 136.292290737, 35.223465502 ], [ 136.292056194, 35.22331048 ], [ 136.29204159299999, 35.223312949 ], [ 136.291892657, 35.223412016 ], [ 136.291839777, 35.223461813 ], [ 136.291817778, 35.223484672 ], [ 136.291791534999987, 35.223518809 ], [ 136.291781281999988, 35.223539207 ], [ 136.291779811999987, 35.22355814 ], [ 136.291784005000011, 35.223593917 ], [ 136.29180478, 35.223658951 ], [ 136.291816152, 35.223705528 ], [ 136.291815918999987, 35.223732481 ], [ 136.291802391, 35.223758746 ], [ 136.2917702, 35.223788481 ], [ 136.291717159, 35.223824125 ], [ 136.29168339, 35.223842505 ], [ 136.291625337, 35.223859232 ], [ 136.291565607, 35.223867669 ], [ 136.290565218000012, 35.223973829 ], [ 136.28796420399999, 35.225030308 ], [ 136.28757086499999, 35.225263002 ], [ 136.2870615, 35.225179656 ], [ 136.287179858, 35.225067417 ], [ 136.28708297899999, 35.224915124 ], [ 136.287066707, 35.224911196 ], [ 136.28688656599999, 35.224948763 ], [ 136.286239604, 35.22503548 ], [ 136.286209617, 35.225005172 ], [ 136.286045879999989, 35.225021425 ], [ 136.285932530999986, 35.225027552 ], [ 136.285828001, 35.225042492 ], [ 136.285715027, 35.225061689 ], [ 136.285667803, 35.225065586 ], [ 136.28559485400001, 35.225064226 ], [ 136.285542107999987, 35.225059663 ], [ 136.285462886, 35.225055162 ], [ 136.285332587999989, 35.225052495 ], [ 136.285278965, 35.225048655 ], [ 136.285123527, 35.225019183 ], [ 136.28503281499999, 35.22499587 ], [ 136.285003714999988, 35.225093383 ], [ 136.28494920899999, 35.225245494 ], [ 136.284844357, 35.225200038 ], [ 136.284735313999988, 35.225149543 ], [ 136.284589473000011, 35.225351808 ], [ 136.284352181, 35.225350653 ], [ 136.284281256000014, 35.225362809 ], [ 136.284212521, 35.225404166 ], [ 136.284141648, 35.225462655 ], [ 136.284066663, 35.225507452 ], [ 136.283959825000011, 35.225554037 ], [ 136.283881544, 35.225598841 ], [ 136.28370632799999, 35.225726264 ], [ 136.283483229000012, 35.225858126 ], [ 136.283460002999988, 35.22590794 ], [ 136.28343577199999, 35.225921608 ], [ 136.283057375999988, 35.226191933 ], [ 136.282932901, 35.226253161 ], [ 136.282872494, 35.226257179 ], [ 136.282900745, 35.226262431 ], [ 136.282923084, 35.226273286 ], [ 136.282933566999986, 35.226318333 ], [ 136.28295473599999, 35.226688504 ], [ 136.28296752899999, 35.226861009 ], [ 136.28296821399999, 35.226900129 ], [ 136.28296053, 35.22693332 ], [ 136.282942182999989, 35.226964733 ], [ 136.282918513, 35.226981916 ], [ 136.282885736, 35.227002275 ], [ 136.282839790999986, 35.227026901 ], [ 136.28287124, 35.227352066 ], [ 136.283366488000013, 35.22716422 ], [ 136.284210984999987, 35.226853859 ], [ 136.284235246, 35.226817474 ], [ 136.284300148999989, 35.226748001 ], [ 136.284385531999988, 35.226691731 ], [ 136.28452983299999, 35.226613869 ], [ 136.284678342, 35.226545822 ], [ 136.284792218, 35.226501023 ], [ 136.284900798, 35.226450017 ], [ 136.285025819, 35.226388154 ], [ 136.285119463, 35.226338265 ], [ 136.28520060299999, 35.226262984 ], [ 136.285338152, 35.226108244 ], [ 136.285408746, 35.226064448 ], [ 136.285530819, 35.226008 ], [ 136.285644359, 35.22596185 ], [ 136.286091481999989, 35.225744719 ], [ 136.286137048, 35.225706661 ], [ 136.286183709, 35.225636059 ], [ 136.286304658, 35.225635232 ], [ 136.286449030999989, 35.225641561 ], [ 136.286764076, 35.225666506 ], [ 136.286803762, 35.225674435 ], [ 136.286839726000011, 35.225685888 ], [ 136.286878026000011, 35.225705899 ], [ 136.286942321, 35.22574523 ], [ 136.287006276, 35.225781947 ], [ 136.287039287999988, 35.225797463 ], [ 136.28712649799999, 35.2258243 ], [ 136.287338827000013, 35.225879955 ], [ 136.287793885000013, 35.226013549 ], [ 136.28788346799999, 35.226027579 ], [ 136.288025344, 35.225979916 ], [ 136.287982497, 35.225792609 ], [ 136.288010652, 35.225677158 ], [ 136.288089078000013, 35.225642807 ], [ 136.288846834999987, 35.225324147 ], [ 136.28964425800001, 35.225009713 ], [ 136.290436226, 35.224707367 ], [ 136.29050022199999, 35.224693422 ], [ 136.290555966999989, 35.224676161 ], [ 136.290518598, 35.224516876 ], [ 136.290667168999988, 35.224499392 ], [ 136.290703154, 35.224517155 ], [ 136.290760559, 35.224503405 ], [ 136.291275404, 35.224429782 ], [ 136.29138606699999, 35.224440784 ], [ 136.291552947000014, 35.224750927 ], [ 136.291576582, 35.224786296 ], [ 136.29160167500001, 35.224798946 ], [ 136.291877152000012, 35.224788096 ], [ 136.29197880000001, 35.224766306 ], [ 136.292105585, 35.224984418 ] ] ] } },
{ "type": "Feature", "properties": { "A29_001": "25443", "A29_002": "滋賀県", "A29_003": "多賀町", "A29_004": 10, "A29_005": "準工業地域", "A29_006": 60, "A29_007": 200, "A29_008": null }, "geometry": { "type": "Polygon", "coordinates": [ [ [ 136.30357952599999, 35.221268774 ], [ 136.303110159, 35.220831762 ], [ 136.302752967, 35.220605403 ], [ 136.30237255, 35.220395688 ], [ 136.30207288, 35.220217501 ], [ 136.30174977499999, 35.220058212 ], [ 136.301434744, 35.219943342 ], [ 136.301234799000014, 35.22062163 ], [ 136.300734803000012, 35.221019055 ], [ 136.301032994, 35.221183457 ], [ 136.30066808399999, 35.221991059 ], [ 136.299951486, 35.222517833 ], [ 136.300016906, 35.222593302 ], [ 136.300039714, 35.22279093 ], [ 136.301554269, 35.221995345 ], [ 136.30196211399999, 35.2218382 ], [ 136.302328737000011, 35.221674035 ], [ 136.302559736, 35.22158061 ], [ 136.302944735000011, 35.221455068 ], [ 136.303278431, 35.2213585 ], [ 136.30357952599999, 35.221268774 ] ] ] } },
{ "type": "Feature", "properties": { "A29_001": "25443", "A29_002": "滋賀県", "A29_003": "多賀町", "A29_004": 11, "A29_005": "工業地域", "A29_006": 60, "A29_007": 200, "A29_008": null }, "geometry": { "type": "Polygon", "coordinates": [ [ [ 136.29652760499999, 35.218435819 ], [ 136.296710475999987, 35.217584324 ], [ 136.297443945, 35.215515529 ], [ 136.297727068, 35.214629351 ], [ 136.297362709999987, 35.214715703 ], [ 136.297468844, 35.214421844 ], [ 136.297356318999988, 35.214499193 ], [ 136.297251714999987, 35.214609966 ], [ 136.297154879, 35.214803111 ], [ 136.297114122000011, 35.214891733 ], [ 136.29707138099999, 35.214948718 ], [ 136.297032519999988, 35.214985141 ], [ 136.296958383, 35.214986946 ], [ 136.29680604, 35.214958834 ], [ 136.296724098999988, 35.214959035 ], [ 136.296653893000013, 35.214984537 ], [ 136.296618830999989, 35.215008331 ], [ 136.296585854, 35.215062138 ], [ 136.296531562000013, 35.21517459 ], [ 136.29646595299999, 35.215377033 ], [ 136.296444786, 35.215476694 ], [ 136.296419539999988, 35.215511551 ], [ 136.296324155, 35.215560732 ], [ 136.296269725, 35.215635234 ], [ 136.296252454000012, 35.21571902 ], [ 136.296247005999987, 35.215821797 ], [ 136.29626473499999, 35.215864392 ], [ 136.296388080000014, 35.215982629 ], [ 136.29674059199999, 35.216291589 ], [ 136.296746546, 35.216327903 ], [ 136.29667719, 35.216557308 ], [ 136.296565937, 35.216562268 ], [ 136.29638448099999, 35.216594353 ], [ 136.296207462000012, 35.216637965 ], [ 136.29615261399999, 35.216658472 ], [ 136.296032290999989, 35.216737011 ], [ 136.295942405, 35.21681872 ], [ 136.29587869, 35.216908028 ], [ 136.295820967999987, 35.217014359 ], [ 136.295775166999988, 35.217076039 ], [ 136.29566743699999, 35.217174378 ], [ 136.29564842100001, 35.217201197 ], [ 136.295626621999986, 35.217248216 ], [ 136.29559099, 35.217357737 ], [ 136.295559059999988, 35.217397568 ], [ 136.295509063999987, 35.217423291 ], [ 136.295435039000012, 35.217456645 ], [ 136.29534733, 35.217502652 ], [ 136.29512388500001, 35.217770383 ], [ 136.295027113, 35.217861754 ], [ 136.295007262000013, 35.217870366 ], [ 136.29498738699999, 35.217872488 ], [ 136.294941669999986, 35.217866469 ], [ 136.294879826, 35.217835791 ], [ 136.29482984, 35.217803731 ], [ 136.294804446, 35.217798384 ], [ 136.294723256, 35.217794435 ], [ 136.294669774999988, 35.217767883 ], [ 136.29463331, 35.217738585 ], [ 136.294602824, 35.217722163 ], [ 136.29455704899999, 35.217700369 ], [ 136.294498584, 35.2176622 ], [ 136.294451095, 35.217621932 ], [ 136.29442981299999, 35.217599357 ], [ 136.294417097, 35.217576131 ], [ 136.294416129000012, 35.217551434 ], [ 136.294429498999989, 35.217512369 ], [ 136.294448131, 35.217500695 ], [ 136.294447174999988, 35.217479424 ], [ 136.294395363, 35.217428258 ], [ 136.294352959, 35.217396811 ], [ 136.294303902, 35.217378451 ], [ 136.294261642, 35.217386756 ], [ 136.29421621099999, 35.217460154 ], [ 136.294222553, 35.21757381 ], [ 136.294232254, 35.21761381 ], [ 136.294290217999986, 35.217725988 ], [ 136.294395873000013, 35.217873747 ], [ 136.294421273000012, 35.217941744 ], [ 136.29444674699999, 35.217999554 ], [ 136.29448114600001, 35.218217258 ], [ 136.294626738, 35.218381957 ], [ 136.29479751, 35.218553445 ], [ 136.294862456, 35.218682463 ], [ 136.29494814200001, 35.218835769 ], [ 136.29470348000001, 35.219039278 ], [ 136.294511187000012, 35.219296205 ], [ 136.29410149200001, 35.219580522 ], [ 136.293722062, 35.2201251 ], [ 136.294582139999989, 35.220601313 ], [ 136.29421641499999, 35.221199674 ], [ 136.294261449, 35.221198573 ], [ 136.294902616, 35.221160415 ], [ 136.294936345, 35.221161775 ], [ 136.294961621999988, 35.221164868 ], [ 136.295109091, 35.221087887 ], [ 136.295416109, 35.221084163 ], [ 136.295796018, 35.2210671 ], [ 136.295770172, 35.22069514 ], [ 136.295717496, 35.220497584 ], [ 136.29568570399999, 35.2203336 ], [ 136.295700936, 35.220232512 ], [ 136.295747304, 35.220114581 ], [ 136.29577825699999, 35.220047258 ], [ 136.295778012999989, 35.219979921 ], [ 136.295762078, 35.219887382 ], [ 136.295714581, 35.21969396 ], [ 136.29570888500001, 35.219546769 ], [ 136.295750013, 35.219407847 ], [ 136.296012415, 35.218765924 ], [ 136.29652760499999, 35.218435819 ] ] ] } },
{ "type": "Feature", "properties": { "A29_001": "25443", "A29_002": "滋賀県", "A29_003": "多賀町", "A29_004": 12, "A29_005": "工業専用地域", "A29_006": 60, "A29_007": 200, "A29_008": null }, "geometry": { "type": "Polygon", "coordinates": [ [ [ 136.27526498899999, 35.239196162 ], [ 136.275260153, 35.239195812 ], [ 136.275247501, 35.239190973 ], [ 136.27514479300001, 35.239068161 ], [ 136.275130987000011, 35.239046829 ], [ 136.274657528, 35.238424562 ], [ 136.274442182, 35.238132715 ], [ 136.27445490299999, 35.238125565 ], [ 136.274232855, 35.237833372 ], [ 136.274223747, 35.237836728 ], [ 136.274180381, 35.237781298 ], [ 136.273629013, 35.237053556 ], [ 136.273580551, 35.236985517 ], [ 136.27289070099999, 35.236109527 ], [ 136.272485464, 35.235606177 ], [ 136.272444908000011, 35.235601942 ], [ 136.272310548, 35.235473519 ], [ 136.27179917, 35.23578936 ], [ 136.271675944, 35.235869593 ], [ 136.271488979999987, 35.236110696 ], [ 136.271644087, 35.236299559 ], [ 136.271901667, 35.236641707 ], [ 136.27202361499999, 35.236869586 ], [ 136.272109432, 35.237003436 ], [ 136.27218337799999, 35.237102788 ], [ 136.272288379, 35.237223435 ], [ 136.273038686, 35.238008156 ], [ 136.273220083000012, 35.238269073 ], [ 136.273232165, 35.238333408 ], [ 136.27322535499999, 35.238399679 ], [ 136.273199761, 35.23856551 ], [ 136.27321195499999, 35.238663018 ], [ 136.27323357099999, 35.238752662 ], [ 136.27326860299999, 35.238845791 ], [ 136.273300553000013, 35.238904222 ], [ 136.273564791000013, 35.239359571 ], [ 136.273768703, 35.239322421 ], [ 136.27421042200001, 35.239818833 ], [ 136.274493398, 35.24009385 ], [ 136.274792061999989, 35.240360988 ], [ 136.27485063899999, 35.240299468 ], [ 136.274910618, 35.240230462 ], [ 136.274948450000011, 35.240175749 ], [ 136.274940535000013, 35.240174415 ], [ 136.274971967999988, 35.240111964 ], [ 136.275022199, 35.239987092 ], [ 136.27526498899999, 35.239196162 ] ] ] } },
{ "type": "Feature", "properties": { "A29_001": "25443", "A29_002": "滋賀県", "A29_003": "多賀町", "A29_004": 12, "A29_005": "工業専用地域", "A29_006": 60, "A29_007": 200, "A29_008": null }, "geometry": { "type": "Polygon", "coordinates": [ [ [ 136.276480975, 35.239327344 ], [ 136.276828067999986, 35.239553351 ], [ 136.277050295, 35.239700227 ], [ 136.27710437799999, 35.239739947 ], [ 136.277158402999987, 35.23979445 ], [ 136.27721975099999, 35.2398703 ], [ 136.277308764999987, 35.239971508 ], [ 136.27743191, 35.2400931 ], [ 136.277740287, 35.240499119 ], [ 136.277929039000014, 35.240752169 ], [ 136.278137756, 35.241027709 ], [ 136.278324534, 35.241281214 ], [ 136.27841778199999, 35.241398907 ], [ 136.278476144, 35.241468093 ], [ 136.27856054899999, 35.241505759 ], [ 136.27859742199999, 35.241524604 ], [ 136.278631243, 35.241550488 ], [ 136.278689601999986, 35.241618862 ], [ 136.278707607, 35.241646495 ], [ 136.278750209, 35.241733926 ], [ 136.278779934999989, 35.241783256 ], [ 136.279156758, 35.242215076 ], [ 136.27932111199999, 35.242400212 ], [ 136.27934753, 35.242414033 ], [ 136.279366520999986, 35.242408761 ], [ 136.279477183000012, 35.24234874 ], [ 136.279887820999988, 35.242131177 ], [ 136.280179799, 35.241980593 ], [ 136.28020818600001, 35.241959794 ], [ 136.28023134, 35.241918995 ], [ 136.280252359, 35.241896411 ], [ 136.280387823000012, 35.241796128 ], [ 136.280463709, 35.241752593 ], [ 136.280759726000014, 35.241563057 ], [ 136.280923131, 35.241472534 ], [ 136.281013838, 35.241425539 ], [ 136.281090326999987, 35.241397958 ], [ 136.281230669, 35.241374285 ], [ 136.281334095, 35.241351508 ], [ 136.281405873000011, 35.241327904 ], [ 136.281486833, 35.241290577 ], [ 136.281532123, 35.24126451 ], [ 136.28163120799999, 35.241194058 ], [ 136.281672289, 35.241158446 ], [ 136.281688011999989, 35.241129744 ], [ 136.28171026699999, 35.240956436 ], [ 136.281728961999988, 35.240865618 ], [ 136.281753036999987, 35.240805797 ], [ 136.281791809999987, 35.24073828 ], [ 136.281808659, 35.240717598 ], [ 136.281790682, 35.240539156 ], [ 136.281757262000013, 35.240438724 ], [ 136.28183438100001, 35.239799698 ], [ 136.281903516999989, 35.239425532 ], [ 136.28191456799999, 35.239348613 ], [ 136.282019725, 35.238430167 ], [ 136.282036143, 35.23841201 ], [ 136.282037365, 35.238320602 ], [ 136.282097432, 35.237676477 ], [ 136.282115691, 35.237333078 ], [ 136.282149120000014, 35.236928887 ], [ 136.282187698, 35.236900853 ], [ 136.282248528, 35.236889623 ], [ 136.282293622999987, 35.236395983 ], [ 136.28215993500001, 35.236403326 ], [ 136.282089552, 35.23641602 ], [ 136.281874984000012, 35.236482054 ], [ 136.28163349499999, 35.236547609 ], [ 136.28159615199999, 35.236551573 ], [ 136.28149053199999, 35.236573543 ], [ 136.281058277, 35.236694258 ], [ 136.280531832, 35.236870448 ], [ 136.280253004, 35.236973496 ], [ 136.280196111, 35.237011308 ], [ 136.279989844, 35.23709616 ], [ 136.279616121, 35.237241794 ], [ 136.278905788, 35.237527205 ], [ 136.27854264199999, 35.237682457 ], [ 136.278514589, 35.237736427 ], [ 136.27822494099999, 35.237858066 ], [ 136.277999679, 35.237947825 ], [ 136.277842807000013, 35.23802012 ], [ 136.27765944399999, 35.238121051 ], [ 136.277605157000011, 35.238182653 ], [ 136.277122580999986, 35.238695593 ], [ 136.276529891, 35.23926918 ], [ 136.276480975, 35.239327344 ] ] ] } },
{ "type": "Feature", "properties": { "A29_001": "25443", "A29_002": "滋賀県", "A29_003": "多賀町", "A29_004": 12, "A29_005": "工業専用地域", "A29_006": 60, "A29_007": 200, "A29_008": null }, "geometry": { "type": "Polygon", "coordinates": [ [ [ 136.301434744, 35.219943342 ], [ 136.30174977499999, 35.220058212 ], [ 136.30207288, 35.220217501 ], [ 136.30237255, 35.220395688 ], [ 136.302752967, 35.220605403 ], [ 136.303110159, 35.220831762 ], [ 136.30357952599999, 35.221268774 ], [ 136.30382157299999, 35.221192987 ], [ 136.304117593, 35.221097503 ], [ 136.30421171099999, 35.22106193 ], [ 136.304304279, 35.221023026 ], [ 136.30439233300001, 35.220981428 ], [ 136.30447225099999, 35.220937778 ], [ 136.304562135999987, 35.220886441 ], [ 136.30462537599999, 35.220848241 ], [ 136.304696603999986, 35.220801638 ], [ 136.30485722200001, 35.220688914 ], [ 136.305720896, 35.220054559 ], [ 136.305801984999988, 35.22000162 ], [ 136.305885612999987, 35.21995192 ], [ 136.30597199799999, 35.219905188 ], [ 136.30605698799999, 35.219867203 ], [ 136.306159556000011, 35.219829714 ], [ 136.306242492, 35.219800838 ], [ 136.30632589199999, 35.219778092 ], [ 136.306560174, 35.219742523 ], [ 136.30679591, 35.219713981 ], [ 136.30691459499999, 35.219697815 ], [ 136.30707545300001, 35.219679378 ], [ 136.307256958000011, 35.219688924 ], [ 136.307470719, 35.219658994 ], [ 136.307724358, 35.219629864 ], [ 136.30829494, 35.219550889 ], [ 136.308299397000013, 35.219509502 ], [ 136.308326706, 35.219440022 ], [ 136.308344037000012, 35.219404371 ], [ 136.308357425999986, 35.219372155 ], [ 136.308373448, 35.219338852 ], [ 136.308394303999989, 35.219305986 ], [ 136.308424814, 35.219269671 ], [ 136.308467524, 35.219234947 ], [ 136.308509836000013, 35.219211492 ], [ 136.30855348099999, 35.219192 ], [ 136.308609531, 35.219170132 ], [ 136.30862434299999, 35.219165677 ], [ 136.308618252, 35.219152532 ], [ 136.30862120399999, 35.219119892 ], [ 136.308632007999989, 35.219043153 ], [ 136.30863428399999, 35.219006008 ], [ 136.308633337, 35.218929929 ], [ 136.308636264, 35.218890529 ], [ 136.308660172, 35.218793383 ], [ 136.308680514, 35.218740867 ], [ 136.30869241100001, 35.218749581 ], [ 136.308736535, 35.218798597 ], [ 136.3087644, 35.218817907 ], [ 136.30880983099999, 35.218835008 ], [ 136.308860040000013, 35.218837404 ], [ 136.30890396699999, 35.218834137 ], [ 136.30895324799999, 35.218823645 ], [ 136.30897247499999, 35.218824587 ], [ 136.309002553, 35.218819282 ], [ 136.309046335, 35.218807091 ], [ 136.309094818, 35.218788668 ], [ 136.30915282399999, 35.218761657 ], [ 136.30920678199999, 35.218738713 ], [ 136.309261263, 35.218708917 ], [ 136.309314414999989, 35.218676419 ], [ 136.309459357, 35.218574908 ], [ 136.309556124000011, 35.218514985 ], [ 136.30964921899999, 35.218442632 ], [ 136.309733263999988, 35.218359125 ], [ 136.30985931399999, 35.218229626 ], [ 136.310221288, 35.217920227 ], [ 136.310270073999988, 35.217866287 ], [ 136.310297080999987, 35.217833405 ], [ 136.31036545399999, 35.217730827 ], [ 136.310544369000013, 35.217407744 ], [ 136.31060079299999, 35.217311506 ], [ 136.31074625, 35.217029163 ], [ 136.310850448999986, 35.216758645 ], [ 136.310659195999989, 35.216697117 ], [ 136.310680853, 35.216413469 ], [ 136.310710066000013, 35.216152699 ], [ 136.311085195, 35.216242871 ], [ 136.311138691, 35.216157097 ], [ 136.31114391700001, 35.216116068 ], [ 136.311155729, 35.21607385 ], [ 136.311238634, 35.215635359 ], [ 136.311270917, 35.215315896 ], [ 136.311263032999989, 35.21523614 ], [ 136.31123263399999, 35.215185647 ], [ 136.31110532299999, 35.215069419 ], [ 136.311225699, 35.214865204 ], [ 136.311388184, 35.214786632 ], [ 136.31111640899999, 35.214491479 ], [ 136.311532403, 35.213923315 ], [ 136.311658921, 35.213832485 ], [ 136.311601731, 35.213726984 ], [ 136.31209631199999, 35.213403807 ], [ 136.31196752, 35.213359607 ], [ 136.311991591, 35.213220093 ], [ 136.312041375, 35.212882737 ], [ 136.31256912399999, 35.212818546 ], [ 136.312635196, 35.212747883 ], [ 136.31268969300001, 35.212666432 ], [ 136.312715892, 35.212566756 ], [ 136.31270408099999, 35.212465645 ], [ 136.31268285199999, 35.212343014 ], [ 136.31269954699999, 35.212257154 ], [ 136.312726239, 35.212200114 ], [ 136.313231785, 35.211818581 ], [ 136.31356932700001, 35.211593069 ], [ 136.313932333999986, 35.211449251 ], [ 136.31415626099999, 35.211384307 ], [ 136.314241111, 35.211370115 ], [ 136.314323097999988, 35.211354307 ], [ 136.314360177, 35.211342402 ], [ 136.314454199000011, 35.211285998 ], [ 136.31449416000001, 35.211252271 ], [ 136.314541182999989, 35.211198784 ], [ 136.314579113, 35.211065903 ], [ 136.31459883299999, 35.211052871 ], [ 136.314710967, 35.210993446 ], [ 136.31483759, 35.210931909 ], [ 136.314995366, 35.210859924 ], [ 136.315107778, 35.210844217 ], [ 136.315165287000013, 35.210832529 ], [ 136.315223992999989, 35.210818044 ], [ 136.315287508000011, 35.210797235 ], [ 136.315384327, 35.210754165 ], [ 136.315515857, 35.21068369 ], [ 136.315583124, 35.210639254 ], [ 136.315599176, 35.210614874 ], [ 136.315569463, 35.210571592 ], [ 136.315442987000011, 35.210415522 ], [ 136.315379443000012, 35.210343302 ], [ 136.315302368, 35.210265889 ], [ 136.315238442, 35.210237029 ], [ 136.315157091, 35.210218041 ], [ 136.315073033, 35.210209155 ], [ 136.314902088999986, 35.210198692 ], [ 136.314738527, 35.21019434 ], [ 136.31439347599999, 35.210179191 ], [ 136.314303596, 35.210170049 ], [ 136.314237205000012, 35.21015706 ], [ 136.314160331000011, 35.210131208 ], [ 136.314091074, 35.210086767 ], [ 136.31395251399999, 35.209986165 ], [ 136.313864929, 35.209917162 ], [ 136.313621708, 35.209733448 ], [ 136.313342116, 35.209517016 ], [ 136.313255981999987, 35.209453597 ], [ 136.313130938, 35.209354221 ], [ 136.313094146999987, 35.209326462 ], [ 136.313086884, 35.209322785 ], [ 136.313079818, 35.209284492 ], [ 136.313088147, 35.209251298 ], [ 136.313109921, 35.209200941 ], [ 136.313160305999986, 35.209136178 ], [ 136.31316486899999, 35.209123275 ], [ 136.313166438, 35.209102718 ], [ 136.313101808, 35.209147687 ], [ 136.313032154000012, 35.20919988 ], [ 136.312977227, 35.209254379 ], [ 136.312942792, 35.209296835 ], [ 136.312809394999988, 35.209625123 ], [ 136.312796206, 35.209651479 ], [ 136.31278541099999, 35.20967206 ], [ 136.312715859, 35.209779601 ], [ 136.312613218, 35.209965652 ], [ 136.312575528, 35.210018844 ], [ 136.312516015, 35.210109412 ], [ 136.312366892, 35.210347416 ], [ 136.31222064, 35.210675646 ], [ 136.312177701, 35.210734801 ], [ 136.312114898, 35.210827 ], [ 136.31205344599999, 35.210927758 ], [ 136.311971959, 35.211045786 ], [ 136.311907229000013, 35.211122395 ], [ 136.31182963, 35.211194169 ], [ 136.31173324299999, 35.211264819 ], [ 136.311643951, 35.211323463 ], [ 136.311534216000013, 35.211378913 ], [ 136.311425635, 35.211420208 ], [ 136.311332936000014, 35.211449923 ], [ 136.310835094999987, 35.211578125 ], [ 136.31063164599999, 35.211627775 ], [ 136.31027744799999, 35.211721351 ], [ 136.310160032, 35.211750227 ], [ 136.310074297, 35.211762977 ], [ 136.309979723, 35.211761957 ], [ 136.309889644, 35.211758672 ], [ 136.309817012, 35.211751016 ], [ 136.309770361, 35.211729771 ], [ 136.309656399, 35.211656054 ], [ 136.30942463, 35.211537026 ], [ 136.309292217, 35.211463447 ], [ 136.309175425, 35.211396137 ], [ 136.30910824899999, 35.211349884 ], [ 136.309027371000013, 35.211310788 ], [ 136.30894651599999, 35.211277732 ], [ 136.308872032000011, 35.211244839 ], [ 136.308799002, 35.211218974 ], [ 136.308723256, 35.211200687 ], [ 136.30853582899999, 35.211159519 ], [ 136.308438994, 35.211141286 ], [ 136.308316227, 35.211120325 ], [ 136.308194676, 35.211101433 ], [ 136.308105305, 35.211081829 ], [ 136.30801288, 35.211067822 ], [ 136.307917162, 35.211054363 ], [ 136.307796290999988, 35.211040879 ], [ 136.307696455000013, 35.211042394 ], [ 136.307589274, 35.211047354 ], [ 136.307491215999988, 35.211054364 ], [ 136.30733654799999, 35.211078735 ], [ 136.307182516000012, 35.211126001 ], [ 136.30707734500001, 35.211169176 ], [ 136.30699468099999, 35.21120959 ], [ 136.306912125999986, 35.211220887 ], [ 136.306797816, 35.211287252 ], [ 136.306699579, 35.211363311 ], [ 136.306457816, 35.211593971 ], [ 136.30620891800001, 35.21182618 ], [ 136.306141615, 35.211891884 ], [ 136.305876149, 35.212129363 ], [ 136.305819544, 35.212177462 ], [ 136.30567729399999, 35.212292124 ], [ 136.305443790999988, 35.212471468 ], [ 136.30468973399999, 35.212437671 ], [ 136.304246099000011, 35.212408589 ], [ 136.30166205, 35.212291287 ], [ 136.300533435, 35.21225389 ], [ 136.299479346999988, 35.212201694 ], [ 136.298918566, 35.212185863 ], [ 136.298216961, 35.212376895 ], [ 136.297468844, 35.214421844 ], [ 136.297362709999987, 35.214715703 ], [ 136.297727068, 35.214629351 ], [ 136.297443945, 35.215515529 ], [ 136.296710475999987, 35.217584324 ], [ 136.29652760499999, 35.218435819 ], [ 136.296700460000011, 35.218363641 ], [ 136.296817174000012, 35.218319094 ], [ 136.297017546, 35.218232065 ], [ 136.29734922099999, 35.218094954 ], [ 136.297419737000013, 35.218063591 ], [ 136.29761404199999, 35.217969724 ], [ 136.297736511000011, 35.217907224 ], [ 136.297821672999987, 35.217855723 ], [ 136.297884798000013, 35.217815724 ], [ 136.297909119, 35.217797906 ], [ 136.29825489000001, 35.217581611 ], [ 136.298679408999988, 35.217332669 ], [ 136.298912257000012, 35.217176597 ], [ 136.299238769999988, 35.216922126 ], [ 136.29948266299999, 35.216693369 ], [ 136.299656989999988, 35.216485427 ], [ 136.29981566, 35.216291405 ], [ 136.299987062000014, 35.216154773 ], [ 136.300167154, 35.216140805 ], [ 136.30055621299999, 35.216020039 ], [ 136.301178678000014, 35.215807556 ], [ 136.301343519999989, 35.215739448 ], [ 136.3015146, 35.215665194 ], [ 136.301528405, 35.215685172 ], [ 136.301575539999988, 35.215658913 ], [ 136.301660341, 35.215600378 ], [ 136.30174204, 35.21553446 ], [ 136.30184531, 35.215420712 ], [ 136.302247279, 35.215021003 ], [ 136.303048374000014, 35.215232912 ], [ 136.302658694, 35.215776101 ], [ 136.302973333000011, 35.215819124 ], [ 136.302955778000012, 35.216119977 ], [ 136.302655794, 35.216208347 ], [ 136.30265566700001, 35.216558646 ], [ 136.30306890599999, 35.216678675 ], [ 136.303224124, 35.21709439 ], [ 136.30337786199999, 35.217082467 ], [ 136.30361734499999, 35.217206355 ], [ 136.303300294, 35.217668234 ], [ 136.302956488, 35.217818914 ], [ 136.302530576, 35.218133499 ], [ 136.302608451999987, 35.218398417 ], [ 136.30257742399999, 35.21882857 ], [ 136.301989287999987, 35.219417595 ], [ 136.301647365, 35.219782718 ], [ 136.301434744, 35.219943342 ] ] ] } },
{ "type": "Feature", "properties": { "A29_001": "25443", "A29_002": "滋賀県", "A29_003": "多賀町", "A29_004": 12, "A29_005": "工業専用地域", "A29_006": 60, "A29_007": 200, "A29_008": null }, "geometry": { "type": "Polygon", "coordinates": [ [ [ 136.272895827000013, 35.226977702 ], [ 136.27581930299999, 35.225465317 ], [ 136.273593871, 35.222659326 ], [ 136.27161306799999, 35.220201962 ], [ 136.271477831, 35.220066058 ], [ 136.270902895, 35.21934259 ], [ 136.270048151, 35.220265408 ], [ 136.269617625, 35.220721684 ], [ 136.269200407, 35.221217952 ], [ 136.26869525399999, 35.221799329 ], [ 136.268166279000013, 35.222454315 ], [ 136.26794493599999, 35.222657178 ], [ 136.267539179000011, 35.222936258 ], [ 136.26710719, 35.223189795 ], [ 136.266783538999988, 35.223383506 ], [ 136.266514207, 35.22356006 ], [ 136.265679174000013, 35.224087974 ], [ 136.265416311, 35.224228274 ], [ 136.26538075, 35.224238267 ], [ 136.265335477, 35.224436773 ], [ 136.26602016699999, 35.225368888 ], [ 136.266247502999988, 35.22565153 ], [ 136.266515653, 35.226018365 ], [ 136.266931820999986, 35.22656435 ], [ 136.267652313000013, 35.226210838 ], [ 136.267763214000013, 35.226361223 ], [ 136.269108241, 35.225709837 ], [ 136.269748907, 35.226601194 ], [ 136.270673116000012, 35.226131285 ], [ 136.27062315500001, 35.226072533 ], [ 136.271282847, 35.225710122 ], [ 136.271848248999987, 35.226261434 ], [ 136.271989651000013, 35.22620054 ], [ 136.272111564, 35.22615898 ], [ 136.272198739, 35.22614382 ], [ 136.272263361, 35.226151607 ], [ 136.272430628, 35.226335304 ], [ 136.272895827000013, 35.226977702 ] ] ] } }
]
}
