{
"type": "FeatureCollection",
"name": "A29-19_27362",
"features": [
{ "type": "Feature", "properties": { "A29_001": "27362", "A29_002": "大阪府", "A29_003": "田尻町", "A29_004": 5, "A29_005": "第一種住居地域", "A29_006": 60, "A29_007": 200, "A29_008": null }, "geometry": { "type": "Polygon", "coordinates": [ [ [ 135.28989039199999, 34.383427432 ], [ 135.289820678000012, 34.383359318 ], [ 135.289724444, 34.383448611 ], [ 135.289709167000012, 34.383466944 ], [ 135.289486583000013, 34.383739111 ], [ 135.289194361, 34.384096444 ], [ 135.289345841999989, 34.384184053 ], [ 135.28944771, 34.384061745 ], [ 135.289630528, 34.383821741 ], [ 135.289642917, 34.383773061 ], [ 135.289624438, 34.383746715 ], [ 135.289620455, 34.383707334 ], [ 135.28989039199999, 34.383427432 ] ] ] } },
{ "type": "Feature", "properties": { "A29_001": "27362", "A29_002": "大阪府", "A29_003": "田尻町", "A29_004": 10, "A29_005": "準工業地域", "A29_006": 60, "A29_007": 200, "A29_008": null }, "geometry": { "type": "Polygon", "coordinates": [ [ [ 135.289194361, 34.384096444 ], [ 135.289486583000013, 34.383739111 ], [ 135.289709167000012, 34.383466944 ], [ 135.289724444, 34.383448611 ], [ 135.289820678000012, 34.383359318 ], [ 135.289740579000011, 34.383281057 ], [ 135.289499565, 34.383372686 ], [ 135.28898797299999, 34.3839899 ], [ 135.28884737199999, 34.383944954 ], [ 135.288578081999987, 34.384317886 ], [ 135.288180837, 34.384851082 ], [ 135.288188842000011, 34.384925073 ], [ 135.28815186599999, 34.384973956 ], [ 135.28837333300001, 34.3851375 ], [ 135.28865187299999, 34.384787953 ], [ 135.288672222, 34.384762417 ], [ 135.288865722, 34.384523503 ], [ 135.288965749999988, 34.3844 ], [ 135.289020886, 34.384326789 ], [ 135.289194361, 34.384096444 ] ] ] } },
{ "type": "Feature", "properties": { "A29_001": "27362", "A29_002": "大阪府", "A29_003": "田尻町", "A29_004": 8, "A29_005": "近隣商業地域", "A29_006": 80, "A29_007": 200, "A29_008": null }, "geometry": { "type": "Polygon", "coordinates": [ [ [ 135.289479847, 34.391050635 ], [ 135.289698957000013, 34.390727503 ], [ 135.289852978, 34.390479369 ], [ 135.289537884999987, 34.390311521 ], [ 135.28949316, 34.390428619 ], [ 135.289231433999987, 34.390346952 ], [ 135.28911686399999, 34.39055715 ], [ 135.28893023399999, 34.390782194 ], [ 135.288693572, 34.390594763 ], [ 135.288330667, 34.390307814 ], [ 135.288123015999986, 34.39049386 ], [ 135.288073376, 34.390507193 ], [ 135.288070938, 34.390591142 ], [ 135.28809954499999, 34.390610868 ], [ 135.288148389000014, 34.390619262 ], [ 135.288189214, 34.390623316 ], [ 135.288222988, 34.390644504 ], [ 135.288234495000012, 34.39067124 ], [ 135.28823885, 34.390946101 ], [ 135.288599518000012, 34.391168603 ], [ 135.288321900999989, 34.391468493 ], [ 135.288120654000011, 34.391720167 ], [ 135.28780794, 34.392086641 ], [ 135.28769286, 34.392220504 ], [ 135.287420757, 34.392533009 ], [ 135.287627444, 34.392637361 ], [ 135.287692222, 34.392693889 ], [ 135.287833033999988, 34.39288941 ], [ 135.28810531100001, 34.392580703 ], [ 135.288342352, 34.39231588 ], [ 135.288523655, 34.392108934 ], [ 135.28862399, 34.391949223 ], [ 135.288726207, 34.391839139 ], [ 135.28892253399999, 34.391624646 ], [ 135.28915055600001, 34.391376913 ], [ 135.289347596, 34.391173904 ], [ 135.289479847, 34.391050635 ] ] ] } },
{ "type": "Feature", "properties": { "A29_001": "27362", "A29_002": "大阪府", "A29_003": "田尻町", "A29_004": 5, "A29_005": "第一種住居地域", "A29_006": 60, "A29_007": 200, "A29_008": null }, "geometry": { "type": "Polygon", "coordinates": [ [ [ 135.292322178, 34.392353437 ], [ 135.292284335, 34.392106995 ], [ 135.292265458, 34.391895122 ], [ 135.292219171, 34.391411825 ], [ 135.292172012, 34.391032286 ], [ 135.292120778, 34.390624099 ], [ 135.292081376999988, 34.390348365 ], [ 135.29202048799999, 34.390061774 ], [ 135.291957628, 34.389838382 ], [ 135.29187784699999, 34.389574342 ], [ 135.291729978, 34.389195412 ], [ 135.291552161999988, 34.388785299 ], [ 135.291382777, 34.388399088 ], [ 135.291237036000012, 34.388109619 ], [ 135.29131401399999, 34.388023001 ], [ 135.291443152999989, 34.387892555 ], [ 135.29153155899999, 34.387815544 ], [ 135.291595156999989, 34.387780133 ], [ 135.29169049399999, 34.387734171 ], [ 135.292037177, 34.387566819 ], [ 135.292602601999988, 34.387305317 ], [ 135.292777325, 34.387228208 ], [ 135.292720094, 34.387190905 ], [ 135.292543773, 34.38711594 ], [ 135.292340311, 34.387018158 ], [ 135.292105209999988, 34.386918999 ], [ 135.291925582, 34.3868953 ], [ 135.291746023, 34.386863251 ], [ 135.291698610999987, 34.386855821 ], [ 135.291645837, 34.386801845 ], [ 135.291488953, 34.386639927 ], [ 135.291380417, 34.386545078 ], [ 135.291263654, 34.386434994 ], [ 135.291144779, 34.386611696 ], [ 135.291142556000011, 34.386615 ], [ 135.291056333, 34.386715667 ], [ 135.29095447, 34.386816924 ], [ 135.290906889000013, 34.386864222 ], [ 135.29080916699999, 34.386916944 ], [ 135.29066235, 34.387080002 ], [ 135.290589606999987, 34.387176186 ], [ 135.29038011599999, 34.387460614 ], [ 135.290167770000011, 34.387767805 ], [ 135.289949525999987, 34.388057788 ], [ 135.28982947599999, 34.388168009 ], [ 135.289641923, 34.38840092 ], [ 135.289480378, 34.388620387 ], [ 135.289271678, 34.388903983 ], [ 135.289087333, 34.389165536 ], [ 135.28889600299999, 34.389436351 ], [ 135.288672749999989, 34.389758028 ], [ 135.288659552000013, 34.389779194 ], [ 135.28863060899999, 34.389825609 ], [ 135.288575678, 34.389913701 ], [ 135.288567194, 34.389927306 ], [ 135.288512271, 34.390015902 ], [ 135.288455056, 34.390108194 ], [ 135.288376389, 34.390235111 ], [ 135.288334248000012, 34.390302121 ], [ 135.288330667, 34.390307814 ], [ 135.288693572, 34.390594763 ], [ 135.28893023399999, 34.390782194 ], [ 135.28911686399999, 34.39055715 ], [ 135.289231433999987, 34.390346952 ], [ 135.28949316, 34.390428619 ], [ 135.289537884999987, 34.390311521 ], [ 135.289852978, 34.390479369 ], [ 135.289698957000013, 34.390727503 ], [ 135.289479847, 34.391050635 ], [ 135.289347596, 34.391173904 ], [ 135.28915055600001, 34.391376913 ], [ 135.28892253399999, 34.391624646 ], [ 135.288726207, 34.391839139 ], [ 135.28862399, 34.391949223 ], [ 135.288523655, 34.392108934 ], [ 135.288514873999986, 34.392118957 ], [ 135.288699056000013, 34.392260333 ], [ 135.288760139, 34.392308056 ], [ 135.2890593, 34.392541669 ], [ 135.289137555999986, 34.392602778 ], [ 135.289636785999988, 34.393009533 ], [ 135.289653426, 34.39302309 ], [ 135.289788498, 34.392875837 ], [ 135.289896058000011, 34.392814442 ], [ 135.289964301, 34.392774765 ], [ 135.2900517, 34.392647419 ], [ 135.290227366000011, 34.392426126 ], [ 135.29029815199999, 34.392357839 ], [ 135.290370618999987, 34.39236303 ], [ 135.290488641, 34.392289292 ], [ 135.290604425, 34.392344349 ], [ 135.290775767000014, 34.392226076 ], [ 135.291179225, 34.392562359 ], [ 135.291589705, 34.392885324 ], [ 135.292043557, 34.393252047 ], [ 135.292429406999986, 34.393561986 ], [ 135.292387287, 34.393027907 ], [ 135.292322178, 34.392353437 ] ] ] } },
{ "type": "Feature", "properties": { "A29_001": "27362", "A29_002": "大阪府", "A29_003": "田尻町", "A29_004": 10, "A29_005": "準工業地域", "A29_006": 60, "A29_007": 200, "A29_008": null }, "geometry": { "type": "Polygon", "coordinates": [ [ [ 135.29275986, 34.392332587 ], [ 135.292284335, 34.392106995 ], [ 135.292322178, 34.392353437 ], [ 135.292387287, 34.393027907 ], [ 135.292429406999986, 34.393561986 ], [ 135.293111001, 34.394101188 ], [ 135.29311975499999, 34.394018229 ], [ 135.293125105, 34.393929526 ], [ 135.293142538000012, 34.39390959 ], [ 135.293186514000013, 34.39388122 ], [ 135.293412254, 34.393727001 ], [ 135.293515329, 34.393651266 ], [ 135.293529309, 34.39363131 ], [ 135.29353084600001, 34.393581172 ], [ 135.293527958, 34.393564416 ], [ 135.29351402399999, 34.393483557 ], [ 135.293525749999986, 34.3934225 ], [ 135.293584806000013, 34.393257175 ], [ 135.293590093, 34.393242375 ], [ 135.29360622199999, 34.393197222 ], [ 135.29364379399999, 34.393148879 ], [ 135.29370499800001, 34.39313236 ], [ 135.293800637, 34.393119554 ], [ 135.293936479, 34.393116521 ], [ 135.293976155, 34.393051869 ], [ 135.293918389, 34.392974967 ], [ 135.29384977399999, 34.392922094 ], [ 135.29352299199999, 34.39277351 ], [ 135.29348482, 34.392693381 ], [ 135.29334008699999, 34.392624564 ], [ 135.29275986, 34.392332587 ] ] ] } },
{ "type": "Feature", "properties": { "A29_001": "27362", "A29_002": "大阪府", "A29_003": "田尻町", "A29_004": 4, "A29_005": "第二種中高層住居専用地域", "A29_006": 60, "A29_007": 200, "A29_008": null }, "geometry": { "type": "Polygon", "coordinates": [ [ [ 135.292664505, 34.395041418 ], [ 135.292595371, 34.394844944 ], [ 135.292553655, 34.39467296 ], [ 135.29250951, 34.394379309 ], [ 135.292472729, 34.394031316 ], [ 135.29244437599999, 34.393707702 ], [ 135.292429406999986, 34.393561986 ], [ 135.292043557, 34.393252047 ], [ 135.291589705, 34.392885324 ], [ 135.291179225, 34.392562359 ], [ 135.290775767000014, 34.392226076 ], [ 135.290604425, 34.392344349 ], [ 135.290488641, 34.392289292 ], [ 135.290370618999987, 34.39236303 ], [ 135.29029815199999, 34.392357839 ], [ 135.290227366000011, 34.392426126 ], [ 135.2900517, 34.392647419 ], [ 135.289964301, 34.392774765 ], [ 135.289896058000011, 34.392814442 ], [ 135.289788498, 34.392875837 ], [ 135.289653426, 34.39302309 ], [ 135.289636785999988, 34.393009533 ], [ 135.289137555999986, 34.392602778 ], [ 135.2890593, 34.392541669 ], [ 135.288760139, 34.392308056 ], [ 135.288699056000013, 34.392260333 ], [ 135.288514873999986, 34.392118957 ], [ 135.288342352, 34.39231588 ], [ 135.28810531100001, 34.392580703 ], [ 135.287833033999988, 34.39288941 ], [ 135.28794388899999, 34.393043333 ], [ 135.288044805999988, 34.393125639 ], [ 135.288237944, 34.39324075 ], [ 135.288288978, 34.393267124 ], [ 135.288420806, 34.39333525 ], [ 135.28852138900001, 34.393387222 ], [ 135.288601639, 34.393441806 ], [ 135.288670833, 34.393488889 ], [ 135.288675340999987, 34.393713041 ], [ 135.288676611, 34.393776222 ], [ 135.288681278000013, 34.39400775 ], [ 135.288787500000012, 34.394101722 ], [ 135.28890377799999, 34.394204564 ], [ 135.28904663899999, 34.394330917 ], [ 135.289097685, 34.394376065 ], [ 135.288878157, 34.394644496 ], [ 135.288777184, 34.394947323 ], [ 135.28899772, 34.395001559 ], [ 135.289104649, 34.395015061 ], [ 135.289182254, 34.39502553 ], [ 135.28926185200001, 34.395004524 ], [ 135.28931614199999, 34.395117904 ], [ 135.289594142, 34.395462386 ], [ 135.289839438, 34.395712026 ], [ 135.290180088999989, 34.396058921 ], [ 135.290517494, 34.396381465 ], [ 135.290947372, 34.39679471 ], [ 135.291091200000011, 34.396937232 ], [ 135.291463367, 34.3966188 ], [ 135.29189990399999, 34.396242061 ], [ 135.29243022, 34.395800027 ], [ 135.29284731199999, 34.395476126 ], [ 135.292728700999987, 34.395209239 ], [ 135.292664505, 34.395041418 ] ] ] } },
{ "type": "Feature", "properties": { "A29_001": "27362", "A29_002": "大阪府", "A29_003": "田尻町", "A29_004": 10, "A29_005": "準工業地域", "A29_006": 100, "A29_007": 300, "A29_008": null }, "geometry": { "type": "Polygon", "coordinates": [ [ [ 135.286955416000012, 34.39626098 ], [ 135.284398684, 34.394481125 ], [ 135.28392226299999, 34.394149681 ], [ 135.28336385, 34.39383298 ], [ 135.282862394, 34.393721271 ], [ 135.282347404, 34.39361678 ], [ 135.282242946999986, 34.393693096 ], [ 135.281794402, 34.393989822 ], [ 135.280938913999989, 34.394596633 ], [ 135.280820976, 34.394677892 ], [ 135.281364201, 34.39515724 ], [ 135.28176925299999, 34.395514659 ], [ 135.282297078999989, 34.395980407 ], [ 135.282384259, 34.396057506 ], [ 135.28248384299999, 34.396143424 ], [ 135.282607262, 34.396243139 ], [ 135.282729426, 34.396343005 ], [ 135.28282055599999, 34.3964175 ], [ 135.283183267, 34.396765005 ], [ 135.283333333, 34.396908778 ], [ 135.283352194, 34.396926861 ], [ 135.284261533, 34.397746182 ], [ 135.284314687, 34.397794074 ], [ 135.284341167, 34.397779479 ], [ 135.284813988, 34.397505546 ], [ 135.285241973000012, 34.397258781 ], [ 135.285656955, 34.397017902 ], [ 135.286216547, 34.396690801 ], [ 135.286955416000012, 34.39626098 ] ] ] } },
{ "type": "Feature", "properties": { "A29_001": "27362", "A29_002": "大阪府", "A29_003": "田尻町", "A29_004": 5, "A29_005": "第一種住居地域", "A29_006": 60, "A29_007": 200, "A29_008": null }, "geometry": { "type": "Polygon", "coordinates": [ [ [ 135.281364201, 34.39515724 ], [ 135.280820976, 34.394677892 ], [ 135.279914229000013, 34.395302625 ], [ 135.280946480000011, 34.396235394 ], [ 135.282402666, 34.397567797 ], [ 135.283264556, 34.398356667 ], [ 135.283887249, 34.398029667 ], [ 135.284314687, 34.397794074 ], [ 135.284261533, 34.397746182 ], [ 135.283352194, 34.396926861 ], [ 135.283333333, 34.396908778 ], [ 135.283183267, 34.396765005 ], [ 135.28282055599999, 34.3964175 ], [ 135.282729426, 34.396343005 ], [ 135.282607262, 34.396243139 ], [ 135.28248384299999, 34.396143424 ], [ 135.282384259, 34.396057506 ], [ 135.282297078999989, 34.395980407 ], [ 135.28176925299999, 34.395514659 ], [ 135.281364201, 34.39515724 ] ] ] } },
{ "type": "Feature", "properties": { "A29_001": "27362", "A29_002": "大阪府", "A29_003": "田尻町", "A29_004": 5, "A29_005": "第一種住居地域", "A29_006": 60, "A29_007": 200, "A29_008": null }, "geometry": { "type": "Polygon", "coordinates": [ [ [ 135.29394313899999, 34.399470139 ], [ 135.294069876, 34.399393708 ], [ 135.294115994, 34.399469915 ], [ 135.294150384, 34.39948681 ], [ 135.294232134, 34.399518291 ], [ 135.29430919, 34.399423323 ], [ 135.294328382, 34.399351346 ], [ 135.29436403299999, 34.399218003 ], [ 135.294254072, 34.399152878 ], [ 135.294346388, 34.398988346 ], [ 135.293985217, 34.398682849 ], [ 135.29377533499999, 34.398318114 ], [ 135.29348987, 34.398044539 ], [ 135.293513322, 34.397719317 ], [ 135.293586255, 34.397532728 ], [ 135.293723382, 34.397240602 ], [ 135.2942172, 34.396963892 ], [ 135.294680833, 34.396717538 ], [ 135.29526363799999, 34.396397446 ], [ 135.29568628199999, 34.396148593 ], [ 135.29545010199999, 34.395957343 ], [ 135.294852404000011, 34.395480413 ], [ 135.294440732, 34.39515936 ], [ 135.29401418099999, 34.394828679 ], [ 135.293584372999987, 34.394475078 ], [ 135.29334996, 34.394291486 ], [ 135.293111001, 34.394101188 ], [ 135.292429406999986, 34.393561986 ], [ 135.29244437599999, 34.393707702 ], [ 135.292472729, 34.394031316 ], [ 135.29250951, 34.394379309 ], [ 135.292553655, 34.39467296 ], [ 135.292595371, 34.394844944 ], [ 135.292664505, 34.395041418 ], [ 135.292728700999987, 34.395209239 ], [ 135.29284731199999, 34.395476126 ], [ 135.29243022, 34.395800027 ], [ 135.29189990399999, 34.396242061 ], [ 135.291463367, 34.3966188 ], [ 135.291091200000011, 34.396937232 ], [ 135.290947372, 34.39679471 ], [ 135.290517494, 34.396381465 ], [ 135.290180088999989, 34.396058921 ], [ 135.289839438, 34.395712026 ], [ 135.289594142, 34.395462386 ], [ 135.28931614199999, 34.395117904 ], [ 135.28926185200001, 34.395004524 ], [ 135.289182254, 34.39502553 ], [ 135.289104649, 34.395015061 ], [ 135.28899772, 34.395001559 ], [ 135.288777184, 34.394947323 ], [ 135.288878157, 34.394644496 ], [ 135.289097685, 34.394376065 ], [ 135.28904663899999, 34.394330917 ], [ 135.28890377799999, 34.394204564 ], [ 135.288787500000012, 34.394101722 ], [ 135.288681278000013, 34.39400775 ], [ 135.288676611, 34.393776222 ], [ 135.288675340999987, 34.393713041 ], [ 135.288670833, 34.393488889 ], [ 135.288601639, 34.393441806 ], [ 135.28852138900001, 34.393387222 ], [ 135.288420806, 34.39333525 ], [ 135.288288978, 34.393267124 ], [ 135.288237944, 34.39324075 ], [ 135.288044805999988, 34.393125639 ], [ 135.28794388899999, 34.393043333 ], [ 135.287833033999988, 34.39288941 ], [ 135.287692222, 34.392693889 ], [ 135.287627444, 34.392637361 ], [ 135.287420757, 34.392533009 ], [ 135.28769286, 34.392220504 ], [ 135.28780794, 34.392086641 ], [ 135.288120654000011, 34.391720167 ], [ 135.288321900999989, 34.391468493 ], [ 135.288599518000012, 34.391168603 ], [ 135.28823885, 34.390946101 ], [ 135.288234495000012, 34.39067124 ], [ 135.288222988, 34.390644504 ], [ 135.288189214, 34.390623316 ], [ 135.288148389000014, 34.390619262 ], [ 135.28809954499999, 34.390610868 ], [ 135.288070938, 34.390591142 ], [ 135.288073376, 34.390507193 ], [ 135.288123015999986, 34.39049386 ], [ 135.288330667, 34.390307814 ], [ 135.288096739, 34.390125893 ], [ 135.287830976, 34.389909667 ], [ 135.287479383, 34.389635693 ], [ 135.287137833, 34.389365355 ], [ 135.28689745299999, 34.389210101 ], [ 135.28658829599999, 34.389022243 ], [ 135.28621459499999, 34.388811348 ], [ 135.285847877, 34.388625538 ], [ 135.28544229799999, 34.388441885 ], [ 135.285404105, 34.38853469 ], [ 135.28535135300001, 34.388647685 ], [ 135.285319359999988, 34.388688048 ], [ 135.28527441899999, 34.388728337 ], [ 135.285100572, 34.38887044 ], [ 135.285083066, 34.388898962 ], [ 135.285002350000013, 34.389064276 ], [ 135.2846969, 34.389477532 ], [ 135.284436363999987, 34.389833271 ], [ 135.28442621, 34.389993684 ], [ 135.28442234, 34.390313295 ], [ 135.284415284, 34.390601401 ], [ 135.284419934, 34.39073119 ], [ 135.284439993, 34.390808592 ], [ 135.284461373, 34.390865964 ], [ 135.284506623, 34.39091304 ], [ 135.284429639, 34.391084556 ], [ 135.284413218, 34.391114711 ], [ 135.28422735699999, 34.391044926 ], [ 135.28381671599999, 34.390880321 ], [ 135.283721592, 34.391103031 ], [ 135.28358373399999, 34.391478151 ], [ 135.28346894500001, 34.391712195 ], [ 135.283335432, 34.391982385 ], [ 135.28308690599999, 34.392470502 ], [ 135.28303557800001, 34.392576656 ], [ 135.28297287800001, 34.392706326 ], [ 135.28293836, 34.392777711 ], [ 135.282896617, 34.39286404 ], [ 135.282870178, 34.392917086 ], [ 135.282855192, 34.392947153 ], [ 135.282809482, 34.393038864 ], [ 135.282752466, 34.393153258 ], [ 135.282715642, 34.393219599 ], [ 135.282666766, 34.393307655 ], [ 135.282606405, 34.393427554 ], [ 135.282347404, 34.39361678 ], [ 135.282862394, 34.393721271 ], [ 135.28336385, 34.39383298 ], [ 135.28392226299999, 34.394149681 ], [ 135.284398684, 34.394481125 ], [ 135.284451388, 34.394427619 ], [ 135.284521777, 34.394341784 ], [ 135.284590113, 34.394248691 ], [ 135.284636406, 34.394198225 ], [ 135.284683922, 34.394146427 ], [ 135.284764380000013, 34.394058716 ], [ 135.284800631, 34.394019197 ], [ 135.285087809, 34.393720761 ], [ 135.285275348, 34.393553963 ], [ 135.28528758499999, 34.39354308 ], [ 135.28532679599999, 34.393503265 ], [ 135.28578927699999, 34.393799837 ], [ 135.28623689599999, 34.394084871 ], [ 135.286435864, 34.39388816 ], [ 135.286436920999989, 34.393889068 ], [ 135.286473234, 34.393920255 ], [ 135.286581291, 34.393988724 ], [ 135.286594779000012, 34.39399727 ], [ 135.286730543, 34.394083295 ], [ 135.286771111, 34.394109 ], [ 135.286835359, 34.394145045 ], [ 135.286968218999988, 34.394219583 ], [ 135.286976095, 34.394224001 ], [ 135.28699138499999, 34.394232579 ], [ 135.287161801, 34.394336945 ], [ 135.287189941, 34.394354179 ], [ 135.287330344, 34.394440164 ], [ 135.287491534, 34.39452035 ], [ 135.287631401, 34.394399059 ], [ 135.287876879, 34.394565791 ], [ 135.28820212799999, 34.394793097 ], [ 135.288513567, 34.395020322 ], [ 135.288903994, 34.395298812 ], [ 135.289098704, 34.395446641 ], [ 135.289295684, 34.395632409 ], [ 135.289586573, 34.395942521 ], [ 135.28982349899999, 34.396202943 ], [ 135.29009815399999, 34.396493638 ], [ 135.290182001, 34.396582858 ], [ 135.289902262999988, 34.396791621 ], [ 135.290190775000013, 34.397077387 ], [ 135.289709687, 34.397514687 ], [ 135.289476396, 34.397743039 ], [ 135.289430208999988, 34.397794294 ], [ 135.289552531, 34.397884569 ], [ 135.28986829499999, 34.398112531 ], [ 135.290237023, 34.398407111 ], [ 135.29057713099999, 34.398683396 ], [ 135.291272889, 34.399322667 ], [ 135.291590750000012, 34.399617528 ], [ 135.291593087, 34.399619559 ], [ 135.291666666999987, 34.3996835 ], [ 135.291842167, 34.399836056 ], [ 135.29188752499999, 34.399888419 ], [ 135.291946472, 34.399956472 ], [ 135.291999083, 34.4 ], [ 135.292024333, 34.400021887 ], [ 135.29235445, 34.400308036 ], [ 135.292573628000014, 34.400505416 ], [ 135.292765056, 34.400677806 ], [ 135.292835583999988, 34.400741188 ], [ 135.29296654699999, 34.400645205 ], [ 135.293131407, 34.400538173 ], [ 135.293176028, 34.400494417 ], [ 135.293343402, 34.400335247 ], [ 135.293365970999986, 34.400310587 ], [ 135.293420247, 34.400248284 ], [ 135.293449925, 34.400141116 ], [ 135.293527754, 34.399954318 ], [ 135.293620968, 34.399820085 ], [ 135.293669222, 34.399747722 ], [ 135.293742528, 34.399629639 ], [ 135.29394313899999, 34.399470139 ] ] ] } },
{ "type": "Feature", "properties": { "A29_001": "27362", "A29_002": "大阪府", "A29_003": "田尻町", "A29_004": 4, "A29_005": "第二種中高層住居専用地域", "A29_006": 60, "A29_007": 200, "A29_008": null }, "geometry": { "type": "Polygon", "coordinates": [ [ [ 135.290237023, 34.398407111 ], [ 135.28986829499999, 34.398112531 ], [ 135.289552531, 34.397884569 ], [ 135.289430208999988, 34.397794294 ], [ 135.28920259899999, 34.397640087 ], [ 135.28918091700001, 34.397655694 ], [ 135.28900176499999, 34.397802777 ], [ 135.288642294, 34.398097899 ], [ 135.288592833, 34.398138505 ], [ 135.28848936899999, 34.398223448 ], [ 135.28838486699999, 34.398136951 ], [ 135.28783888000001, 34.398590325 ], [ 135.28779266699999, 34.398627625 ], [ 135.287886753, 34.398710319 ], [ 135.288071722000012, 34.398872889 ], [ 135.288525106, 34.399272711 ], [ 135.289094944, 34.399775222 ], [ 135.289334306, 34.399980444 ], [ 135.289356333, 34.4 ], [ 135.28957910599999, 34.4001977 ], [ 135.28983921299999, 34.40042853 ], [ 135.290408111, 34.400933389 ], [ 135.29104421299999, 34.401508914 ], [ 135.291365899999988, 34.401799961 ], [ 135.29154058099999, 34.401676002 ], [ 135.29188801699999, 34.401426123 ], [ 135.292098197, 34.401277064 ], [ 135.292616181999989, 34.400901987 ], [ 135.292835583999988, 34.400741188 ], [ 135.292765056, 34.400677806 ], [ 135.292573628000014, 34.400505416 ], [ 135.29235445, 34.400308036 ], [ 135.292024333, 34.400021887 ], [ 135.291999083, 34.4 ], [ 135.291946472, 34.399956472 ], [ 135.29188752499999, 34.399888419 ], [ 135.291842167, 34.399836056 ], [ 135.291666666999987, 34.3996835 ], [ 135.291593087, 34.399619559 ], [ 135.291590750000012, 34.399617528 ], [ 135.291272889, 34.399322667 ], [ 135.29057713099999, 34.398683396 ], [ 135.290237023, 34.398407111 ] ] ] } },
{ "type": "Feature", "properties": { "A29_001": "27362", "A29_002": "大阪府", "A29_003": "田尻町", "A29_004": 10, "A29_005": "準工業地域", "A29_006": 100, "A29_007": 300, "A29_008": null }, "geometry": { "type": "Polygon", "coordinates": [ [ [ 135.287886753, 34.398710319 ], [ 135.28779266699999, 34.398627625 ], [ 135.287282565, 34.399039342 ], [ 135.286639237, 34.399567997 ], [ 135.286486262000011, 34.399694933 ], [ 135.286542918, 34.399744718 ], [ 135.286778556, 34.399951778 ], [ 135.286828722, 34.4 ], [ 135.287377222, 34.400527222 ], [ 135.287477975, 34.400613749 ], [ 135.288133550999987, 34.401176753 ], [ 135.28847772, 34.401472319 ], [ 135.28860666700001, 34.401583056 ], [ 135.288776944, 34.401733056 ], [ 135.288795513999986, 34.401750149 ], [ 135.289059528, 34.401993167 ], [ 135.289515263, 34.402419836 ], [ 135.289777302, 34.402673247 ], [ 135.28995107, 34.402806131 ], [ 135.290011953, 34.402762002 ], [ 135.29056954699999, 34.402367366 ], [ 135.291118477999987, 34.401975538 ], [ 135.291365899999988, 34.401799961 ], [ 135.29104421299999, 34.401508914 ], [ 135.290408111, 34.400933389 ], [ 135.28983921299999, 34.40042853 ], [ 135.28957910599999, 34.4001977 ], [ 135.289356333, 34.4 ], [ 135.289334306, 34.399980444 ], [ 135.289094944, 34.399775222 ], [ 135.288525106, 34.399272711 ], [ 135.288071722000012, 34.398872889 ], [ 135.287886753, 34.398710319 ] ] ] } },
{ "type": "Feature", "properties": { "A29_001": "27362", "A29_002": "大阪府", "A29_003": "田尻町", "A29_004": 5, "A29_005": "第一種住居地域", "A29_006": 60, "A29_007": 200, "A29_008": null }, "geometry": { "type": "Polygon", "coordinates": [ [ [ 135.286542918, 34.399744718 ], [ 135.286486262000011, 34.399694933 ], [ 135.286068889, 34.400041257 ], [ 135.286475016, 34.400404287 ], [ 135.28631678299999, 34.400535034 ], [ 135.286575512000013, 34.400769827 ], [ 135.2863194, 34.40104026 ], [ 135.286713459, 34.401401788 ], [ 135.28727900199999, 34.401903139 ], [ 135.288024447999987, 34.402570121 ], [ 135.288283151, 34.402809205 ], [ 135.288678978, 34.403167874 ], [ 135.289030255, 34.403486209 ], [ 135.289428213, 34.403185109 ], [ 135.28995107, 34.402806131 ], [ 135.289777302, 34.402673247 ], [ 135.289515263, 34.402419836 ], [ 135.289059528, 34.401993167 ], [ 135.288795513999986, 34.401750149 ], [ 135.288776944, 34.401733056 ], [ 135.28860666700001, 34.401583056 ], [ 135.28847772, 34.401472319 ], [ 135.288133550999987, 34.401176753 ], [ 135.287477975, 34.400613749 ], [ 135.287377222, 34.400527222 ], [ 135.286828722, 34.4 ], [ 135.286778556, 34.399951778 ], [ 135.286542918, 34.399744718 ] ] ] } },
{ "type": "Feature", "properties": { "A29_001": "27362", "A29_002": "大阪府", "A29_003": "田尻町", "A29_004": 10, "A29_005": "準工業地域", "A29_006": 60, "A29_007": 200, "A29_008": null }, "geometry": { "type": "Polygon", "coordinates": [ [ [ 135.295957429, 34.396368154 ], [ 135.29568628199999, 34.396148593 ], [ 135.29526363799999, 34.396397446 ], [ 135.294680833, 34.396717538 ], [ 135.2942172, 34.396963892 ], [ 135.293723382, 34.397240602 ], [ 135.293586255, 34.397532728 ], [ 135.293513322, 34.397719317 ], [ 135.29348987, 34.398044539 ], [ 135.29377533499999, 34.398318114 ], [ 135.293985217, 34.398682849 ], [ 135.294346388, 34.398988346 ], [ 135.294254072, 34.399152878 ], [ 135.29436403299999, 34.399218003 ], [ 135.29454626899999, 34.399291112 ], [ 135.29476555, 34.399393752 ], [ 135.29490166299999, 34.399462519 ], [ 135.295076193999989, 34.399570944 ], [ 135.295132991, 34.399610831 ], [ 135.29513481399999, 34.399612111 ], [ 135.29524730599999, 34.399691111 ], [ 135.29533347899999, 34.399758401 ], [ 135.29545085699999, 34.399850058 ], [ 135.295452391, 34.399851256 ], [ 135.295651942, 34.399729226 ], [ 135.295793661, 34.39964417 ], [ 135.296011915, 34.39952616 ], [ 135.29609297799999, 34.399517996 ], [ 135.29617913199999, 34.399488957 ], [ 135.296261501, 34.399446495 ], [ 135.296368449999989, 34.399389862 ], [ 135.29645246699999, 34.399322364 ], [ 135.296526562999986, 34.399236918 ], [ 135.296712372, 34.399041197 ], [ 135.296536640999989, 34.398892297 ], [ 135.296355196, 34.398738593 ], [ 135.295873597, 34.398346298 ], [ 135.295560669, 34.398086882 ], [ 135.295303144, 34.397869527 ], [ 135.295366969000014, 34.397807876 ], [ 135.29543087799999, 34.397724388 ], [ 135.295529816999988, 34.397604869 ], [ 135.295650322, 34.397475563 ], [ 135.29580124899999, 34.397321385 ], [ 135.29592610899999, 34.397187333 ], [ 135.29608590699999, 34.397004583 ], [ 135.29617900400001, 34.396883467 ], [ 135.296281123, 34.396715889 ], [ 135.29616538499999, 34.39661981 ], [ 135.296217558, 34.396574789 ], [ 135.295957429, 34.396368154 ] ] ] } },
{ "type": "Feature", "properties": { "A29_001": "27362", "A29_002": "大阪府", "A29_003": "田尻町", "A29_004": 10, "A29_005": "準工業地域", "A29_006": 60, "A29_007": 200, "A29_008": null }, "geometry": { "type": "Polygon", "coordinates": [ [ [ 135.23370250799999, 34.430301077 ], [ 135.234606237, 34.430894146 ], [ 135.23486261, 34.431065584 ], [ 135.236382639, 34.432073094 ], [ 135.236874796, 34.432402476 ], [ 135.235883140999988, 34.433460602 ], [ 135.237132007000014, 34.434312795 ], [ 135.23877586, 34.435421469 ], [ 135.240303942999986, 34.436443531 ], [ 135.241617252, 34.437342592 ], [ 135.242408364, 34.436771447 ], [ 135.243521073000011, 34.435973297 ], [ 135.244512017, 34.435267411 ], [ 135.245389902, 34.434646691 ], [ 135.247010972999988, 34.433493849 ], [ 135.246770641000012, 34.433327783 ], [ 135.24487341, 34.432056644 ], [ 135.243366842, 34.431045505 ], [ 135.241813137, 34.429998276 ], [ 135.240349626000011, 34.429008835 ], [ 135.238980653999988, 34.428073634 ], [ 135.23788174500001, 34.427358356 ], [ 135.238418532, 34.426731981 ], [ 135.237744784, 34.426273383 ], [ 135.236650389, 34.425540233 ], [ 135.23618547800001, 34.425859346 ], [ 135.23486003299999, 34.426792062 ], [ 135.232344082999987, 34.428529491 ], [ 135.23044028699999, 34.429895036 ], [ 135.22946808899999, 34.430905052 ], [ 135.228966922000012, 34.430934094 ], [ 135.227315465, 34.432082925 ], [ 135.225537884, 34.433323962 ], [ 135.223477459, 34.434792164 ], [ 135.22186116, 34.435951252 ], [ 135.223461092, 34.437028275 ], [ 135.224319508, 34.436196484 ], [ 135.224697455000012, 34.436420714 ], [ 135.225286084, 34.435809038 ], [ 135.226210164, 34.434877468 ], [ 135.227269498999988, 34.433792893 ], [ 135.228302536, 34.4327475 ], [ 135.2293574, 34.431673613 ], [ 135.230495096, 34.430510788 ], [ 135.23128844499999, 34.429696427 ], [ 135.231994375999989, 34.428996007 ], [ 135.233796934999987, 34.430202349 ], [ 135.23370250799999, 34.430301077 ] ] ] } },
{ "type": "Feature", "properties": { "A29_001": "27362", "A29_002": "大阪府", "A29_003": "田尻町", "A29_004": 10, "A29_005": "準工業地域", "A29_006": 60, "A29_007": 200, "A29_008": null }, "geometry": { "type": "MultiPolygon", "coordinates": [ [ [ [ 135.22186116, 34.435951252 ], [ 135.22185744699999, 34.435948752 ], [ 135.221860297, 34.435951871 ], [ 135.22186116, 34.435951252 ] ] ], [ [ [ 135.235705225, 34.437824585 ], [ 135.236798892, 34.436754454 ], [ 135.237687392, 34.437350358 ], [ 135.23790080399999, 34.437151323 ], [ 135.236183944, 34.435995668 ], [ 135.234514272000013, 34.434879641 ], [ 135.232157949999987, 34.433301306 ], [ 135.232081634999986, 34.432674686 ], [ 135.23310181, 34.431611281 ], [ 135.23270656, 34.43133583 ], [ 135.231124713000014, 34.432958487 ], [ 135.230178954, 34.433907848 ], [ 135.230286215, 34.43398366 ], [ 135.22991145200001, 34.434353407 ], [ 135.22879551599999, 34.435491317 ], [ 135.227788358999987, 34.436536876 ], [ 135.226506887999989, 34.437823993 ], [ 135.22715050299999, 34.438275305 ], [ 135.228399448, 34.439116853 ], [ 135.229609716999988, 34.439940255 ], [ 135.230978971000013, 34.440854094 ], [ 135.232266794, 34.441703003 ], [ 135.233390966, 34.44250436 ], [ 135.234275938, 34.44159753 ], [ 135.235047277, 34.440836678 ], [ 135.234583926, 34.44050103 ], [ 135.23368697399999, 34.439883583 ], [ 135.234563181, 34.438987429 ], [ 135.235705225, 34.437824585 ] ] ] ] } },
{ "type": "Feature", "properties": { "A29_001": "27362", "A29_002": "大阪府", "A29_003": "田尻町", "A29_004": 11, "A29_005": "工業地域", "A29_006": 60, "A29_007": 200, "A29_008": null }, "geometry": { "type": "Polygon", "coordinates": [ [ [ 135.23370250799999, 34.430301077 ], [ 135.23303834399999, 34.430995476 ], [ 135.23270656, 34.43133583 ], [ 135.23310181, 34.431611281 ], [ 135.234715689000012, 34.432680464 ], [ 135.235883140999988, 34.433460602 ], [ 135.236874796, 34.432402476 ], [ 135.236382639, 34.432073094 ], [ 135.23486261, 34.431065584 ], [ 135.234606237, 34.430894146 ], [ 135.23370250799999, 34.430301077 ] ] ] } },
{ "type": "Feature", "properties": { "A29_001": "27362", "A29_002": "大阪府", "A29_003": "田尻町", "A29_004": 10, "A29_005": "準工業地域", "A29_006": 60, "A29_007": 200, "A29_008": null }, "geometry": { "type": "Polygon", "coordinates": [ [ [ 135.284398684, 34.394481125 ], [ 135.286955416000012, 34.39626098 ], [ 135.287066973, 34.396000438 ], [ 135.28740623499999, 34.396034616 ], [ 135.287532771, 34.396043701 ], [ 135.287587573, 34.396028516 ], [ 135.28763102799999, 34.395994182 ], [ 135.287780407000014, 34.395854317 ], [ 135.287900611999987, 34.395931347 ], [ 135.287726572, 34.396094922 ], [ 135.287621914, 34.396220734 ], [ 135.28761404299999, 34.396300597 ], [ 135.287630318, 34.396417573 ], [ 135.287690077, 34.396496636 ], [ 135.287794628, 34.3965533 ], [ 135.288213149, 34.396742983 ], [ 135.288691795, 34.396968795 ], [ 135.28861340899999, 34.397041986 ], [ 135.288330007000013, 34.397275053 ], [ 135.287844828, 34.397684414 ], [ 135.28838486699999, 34.398136951 ], [ 135.28848936899999, 34.398223448 ], [ 135.288592833, 34.398138505 ], [ 135.288642294, 34.398097899 ], [ 135.28900176499999, 34.397802777 ], [ 135.28918091700001, 34.397655694 ], [ 135.28920259899999, 34.397640087 ], [ 135.289430208999988, 34.397794294 ], [ 135.289476396, 34.397743039 ], [ 135.289709687, 34.397514687 ], [ 135.290190775000013, 34.397077387 ], [ 135.289902262999988, 34.396791621 ], [ 135.290182001, 34.396582858 ], [ 135.29009815399999, 34.396493638 ], [ 135.28982349899999, 34.396202943 ], [ 135.289586573, 34.395942521 ], [ 135.289295684, 34.395632409 ], [ 135.289098704, 34.395446641 ], [ 135.288903994, 34.395298812 ], [ 135.288513567, 34.395020322 ], [ 135.28820212799999, 34.394793097 ], [ 135.287876879, 34.394565791 ], [ 135.287631401, 34.394399059 ], [ 135.287491534, 34.39452035 ], [ 135.287330344, 34.394440164 ], [ 135.287189941, 34.394354179 ], [ 135.287161801, 34.394336945 ], [ 135.28699138499999, 34.394232579 ], [ 135.286976095, 34.394224001 ], [ 135.286968218999988, 34.394219583 ], [ 135.286835359, 34.394145045 ], [ 135.286771111, 34.394109 ], [ 135.286730543, 34.394083295 ], [ 135.286594779000012, 34.39399727 ], [ 135.286581291, 34.393988724 ], [ 135.286473234, 34.393920255 ], [ 135.286436920999989, 34.393889068 ], [ 135.286435864, 34.39388816 ], [ 135.28623689599999, 34.394084871 ], [ 135.28578927699999, 34.393799837 ], [ 135.28532679599999, 34.393503265 ], [ 135.28528758499999, 34.39354308 ], [ 135.285275348, 34.393553963 ], [ 135.285087809, 34.393720761 ], [ 135.284800631, 34.394019197 ], [ 135.284764380000013, 34.394058716 ], [ 135.284683922, 34.394146427 ], [ 135.284636406, 34.394198225 ], [ 135.284590113, 34.394248691 ], [ 135.284521777, 34.394341784 ], [ 135.284451388, 34.394427619 ], [ 135.284398684, 34.394481125 ] ] ] } }
]
}
