{
"type": "FeatureCollection",
"name": "A29-19_27382",
"features": [
{ "type": "Feature", "properties": { "A29_001": "27382", "A29_002": "大阪府", "A29_003": "河南町", "A29_004": 8, "A29_005": "近隣商業地域", "A29_006": 80, "A29_007": 200, "A29_008": null }, "geometry": { "type": "Polygon", "coordinates": [ [ [ 135.648180424, 34.477558659 ], [ 135.648304698, 34.477455594 ], [ 135.648398082999989, 34.477536806 ], [ 135.648561667, 34.477617944 ], [ 135.648679249999986, 34.477664167 ], [ 135.648798860999989, 34.477699222 ], [ 135.64899825, 34.477757694 ], [ 135.649019313, 34.477688961 ], [ 135.649081389, 34.477486389 ], [ 135.649142778, 34.477300278 ], [ 135.649247855, 34.477052889 ], [ 135.64915676199999, 34.477032578 ], [ 135.649119425, 34.477043588 ], [ 135.649088471999988, 34.477052306 ], [ 135.64882722199999, 34.476989694 ], [ 135.648271454, 34.476872058 ], [ 135.648190357, 34.476873062 ], [ 135.648137606, 34.476873715 ], [ 135.648137531, 34.476881873 ], [ 135.648136111000014, 34.477035278 ], [ 135.64814654, 34.477102163 ], [ 135.648148278, 34.477113306 ], [ 135.647943222, 34.477138056 ], [ 135.647888693999988, 34.477142333 ], [ 135.647798583, 34.477158083 ], [ 135.647615667, 34.477189861 ], [ 135.647168435999987, 34.477267548 ], [ 135.647066528000011, 34.47728525 ], [ 135.647115111, 34.477479167 ], [ 135.647199083, 34.4778135 ], [ 135.64763341299999, 34.477768902 ], [ 135.64774682, 34.477749707 ], [ 135.64785713099999, 34.47772184 ], [ 135.647970187, 34.477687816 ], [ 135.64806488, 34.477636566 ], [ 135.648180424, 34.477558659 ] ] ] } },
{ "type": "Feature", "properties": { "A29_001": "27382", "A29_002": "大阪府", "A29_003": "河南町", "A29_004": 1, "A29_005": "第一種低層住居専用地域", "A29_006": 50, "A29_007": 100, "A29_008": null }, "geometry": { "type": "Polygon", "coordinates": [ [ [ 135.647988083, 34.480656028 ], [ 135.648480194, 34.479317833 ], [ 135.64875633299999, 34.478557944 ], [ 135.64899825, 34.477757694 ], [ 135.648798860999989, 34.477699222 ], [ 135.648679249999986, 34.477664167 ], [ 135.648561667, 34.477617944 ], [ 135.648398082999989, 34.477536806 ], [ 135.648304698, 34.477455594 ], [ 135.648180424, 34.477558659 ], [ 135.64806488, 34.477636566 ], [ 135.647970187, 34.477687816 ], [ 135.64785713099999, 34.47772184 ], [ 135.64774682, 34.477749707 ], [ 135.64763341299999, 34.477768902 ], [ 135.647199083, 34.4778135 ], [ 135.647115111, 34.477479167 ], [ 135.647066528000011, 34.47728525 ], [ 135.647168435999987, 34.477267548 ], [ 135.647615667, 34.477189861 ], [ 135.647798583, 34.477158083 ], [ 135.647888693999988, 34.477142333 ], [ 135.647943222, 34.477138056 ], [ 135.648148278, 34.477113306 ], [ 135.64814654, 34.477102163 ], [ 135.648136111000014, 34.477035278 ], [ 135.648137531, 34.476881873 ], [ 135.648137606, 34.476873715 ], [ 135.648190357, 34.476873062 ], [ 135.648271454, 34.476872058 ], [ 135.64831706699999, 34.476434549 ], [ 135.64840125500001, 34.476161296 ], [ 135.648545109, 34.475543579 ], [ 135.648532456, 34.475374386 ], [ 135.64846321499999, 34.47516492 ], [ 135.64809742, 34.47515915 ], [ 135.648000798, 34.475149949 ], [ 135.647338918, 34.474482583 ], [ 135.647230467000014, 34.474485332 ], [ 135.647032558, 34.474337737 ], [ 135.646821095, 34.474235949 ], [ 135.646607542999988, 34.474176838 ], [ 135.646396022, 34.474139933 ], [ 135.646363379, 34.474134238 ], [ 135.64629532699999, 34.47417348 ], [ 135.646235168, 34.474208169 ], [ 135.646025408000014, 34.474155392 ], [ 135.645922982, 34.474140157 ], [ 135.64580916, 34.47415782 ], [ 135.645753315, 34.474171994 ], [ 135.64539586399999, 34.473834226 ], [ 135.644494221, 34.473082261 ], [ 135.644311370999986, 34.472986875 ], [ 135.643667216000011, 34.472738379 ], [ 135.643548407999987, 34.472845533 ], [ 135.64254265299999, 34.473685215 ], [ 135.642365294, 34.474092568 ], [ 135.64228603, 34.474326309 ], [ 135.642290566000014, 34.474379764 ], [ 135.642304319, 34.474541833 ], [ 135.642372389, 34.474638972 ], [ 135.64244083299999, 34.4746975 ], [ 135.64250575, 34.474719472 ], [ 135.64306033299999, 34.474896528 ], [ 135.643227083, 34.474924333 ], [ 135.643365722, 34.474952139 ], [ 135.643464, 34.474974083 ], [ 135.64351152099999, 34.475 ], [ 135.643531962, 34.475011148 ], [ 135.64354458299999, 34.475091979 ], [ 135.643551903, 34.475166302 ], [ 135.643252190999988, 34.475615984 ], [ 135.643242149, 34.475732941 ], [ 135.643428193, 34.476064464 ], [ 135.64293937299999, 34.476452946 ], [ 135.643004846999986, 34.476767736 ], [ 135.643015365, 34.476987512 ], [ 135.643114578, 34.477000449 ], [ 135.643240408999986, 34.477038758 ], [ 135.643479187, 34.476997489 ], [ 135.643491997000012, 34.477132765 ], [ 135.64355404, 34.47730293 ], [ 135.642898065999987, 34.477632672 ], [ 135.642643684, 34.477748418 ], [ 135.64274948900001, 34.478006414 ], [ 135.642881042, 34.478046321 ], [ 135.643193923000013, 34.478093081 ], [ 135.64330999500001, 34.47818195 ], [ 135.643344054000011, 34.478253189 ], [ 135.64301734899999, 34.478762865 ], [ 135.643121503, 34.478960782 ], [ 135.64311156799999, 34.479052445 ], [ 135.643351239999987, 34.479424655 ], [ 135.643464964, 34.479578906 ], [ 135.643476514000014, 34.479594572 ], [ 135.643482444, 34.479636083 ], [ 135.64351686, 34.479640767 ], [ 135.643710556, 34.479728111 ], [ 135.643740611, 34.479736222 ], [ 135.64377422199999, 34.479740639 ], [ 135.64381182, 34.479726264 ], [ 135.643846222, 34.479713111 ], [ 135.644277611, 34.479485194 ], [ 135.644285083, 34.479499717 ], [ 135.644302806000013, 34.479534167 ], [ 135.64434194399999, 34.479585861 ], [ 135.644421222, 34.479690583 ], [ 135.64459, 34.479859806 ], [ 135.644717082999989, 34.47995675 ], [ 135.644873889, 34.480049167 ], [ 135.645063166999989, 34.480139333 ], [ 135.645274056, 34.48022275 ], [ 135.645626861000011, 34.480303917 ], [ 135.645988722, 34.48039275 ], [ 135.646623167, 34.4805485 ], [ 135.647007222000013, 34.480636944 ], [ 135.647375, 34.4807395 ], [ 135.647755278, 34.480845556 ], [ 135.6478975, 34.480887944 ], [ 135.647909215999988, 34.480857949 ], [ 135.647914033, 34.480845616 ], [ 135.647988083, 34.480656028 ] ] ] } },
{ "type": "Feature", "properties": { "A29_001": "27382", "A29_002": "大阪府", "A29_003": "河南町", "A29_004": 6, "A29_005": "第二種住居地域", "A29_006": 60, "A29_007": 200, "A29_008": null }, "geometry": { "type": "Polygon", "coordinates": [ [ [ 135.64459, 34.479859806 ], [ 135.644421222, 34.479690583 ], [ 135.64434194399999, 34.479585861 ], [ 135.644302806000013, 34.479534167 ], [ 135.644285083, 34.479499717 ], [ 135.644277611, 34.479485194 ], [ 135.643846222, 34.479713111 ], [ 135.64381182, 34.479726264 ], [ 135.64377422199999, 34.479740639 ], [ 135.643740611, 34.479736222 ], [ 135.643710556, 34.479728111 ], [ 135.64351686, 34.479640767 ], [ 135.643482444, 34.479636083 ], [ 135.64305686099999, 34.480125583 ], [ 135.64299383299999, 34.48020675 ], [ 135.642922860999988, 34.48033 ], [ 135.642898167, 34.480425083 ], [ 135.64288866699999, 34.480513028 ], [ 135.642898167, 34.480604139 ], [ 135.64291908300001, 34.480682556 ], [ 135.642976083, 34.480781583 ], [ 135.643127166999989, 34.480952722 ], [ 135.643590889, 34.481466917 ], [ 135.64407169399999, 34.481999361 ], [ 135.644312111, 34.482266361 ], [ 135.644799583, 34.482797194 ], [ 135.644849943999986, 34.482855028 ], [ 135.64485375000001, 34.482881972 ], [ 135.644799173, 34.48300359 ], [ 135.645139159, 34.483121936 ], [ 135.645470601999989, 34.483217357 ], [ 135.645746828999989, 34.48329115 ], [ 135.646078291, 34.483382276 ], [ 135.646304206999986, 34.483437964 ], [ 135.646525505, 34.483485186 ], [ 135.64666888, 34.483504206 ], [ 135.646808913, 34.483496024 ], [ 135.646928265000014, 34.483473469 ], [ 135.647030419, 34.483430828 ], [ 135.647134361000013, 34.48337388 ], [ 135.647247107999988, 34.483278315 ], [ 135.647325281, 34.483184081 ], [ 135.647391422, 34.483074069 ], [ 135.64744047799999, 34.482916778 ], [ 135.647451396, 34.48278657 ], [ 135.64747404799999, 34.482354889 ], [ 135.64755024199999, 34.481916558 ], [ 135.64768263900001, 34.4815045 ], [ 135.647857222, 34.480997778 ], [ 135.6478975, 34.480887944 ], [ 135.647755278, 34.480845556 ], [ 135.647375, 34.4807395 ], [ 135.647007222000013, 34.480636944 ], [ 135.646623167, 34.4805485 ], [ 135.645988722, 34.48039275 ], [ 135.645626861000011, 34.480303917 ], [ 135.645274056, 34.48022275 ], [ 135.645063166999989, 34.480139333 ], [ 135.644873889, 34.480049167 ], [ 135.644717082999989, 34.47995675 ], [ 135.64459, 34.479859806 ] ] ] } },
{ "type": "Feature", "properties": { "A29_001": "27382", "A29_002": "大阪府", "A29_003": "河南町", "A29_004": 4, "A29_005": "第二種中高層住居専用地域", "A29_006": 60, "A29_007": 200, "A29_008": null }, "geometry": { "type": "Polygon", "coordinates": [ [ [ 135.648294693999986, 34.483766889 ], [ 135.64850569399999, 34.48359575 ], [ 135.648582667, 34.483505444 ], [ 135.648602821, 34.483427661 ], [ 135.64861422199999, 34.483333333 ], [ 135.648620666999989, 34.483235222 ], [ 135.648636806000013, 34.482904833 ], [ 135.648654861000011, 34.482652083 ], [ 135.648671971999988, 34.482579167 ], [ 135.64868908299999, 34.482541944 ], [ 135.64888105599999, 34.482381111 ], [ 135.648923139, 34.482349944 ], [ 135.649187028, 34.4821545 ], [ 135.649335278, 34.482039583 ], [ 135.649406556, 34.481946111 ], [ 135.649453111000014, 34.4818225 ], [ 135.649466417000014, 34.481708389 ], [ 135.64943697199999, 34.481606972 ], [ 135.649404667, 34.481515861 ], [ 135.649389444, 34.481412833 ], [ 135.64903022199999, 34.481286083 ], [ 135.64907472199999, 34.48115 ], [ 135.64910186099999, 34.480998417 ], [ 135.649162667000013, 34.480405611 ], [ 135.649218219, 34.479946672 ], [ 135.649277555999987, 34.479605417 ], [ 135.649311361, 34.479492722 ], [ 135.64936408299999, 34.479365361 ], [ 135.649377582999989, 34.479314639 ], [ 135.64935191699999, 34.479280833 ], [ 135.64930594399999, 34.479249278 ], [ 135.649258306, 34.479214417 ], [ 135.649201546, 34.479132843 ], [ 135.648835444000014, 34.478606694 ], [ 135.648946747, 34.478269015 ], [ 135.649222693000013, 34.478165016 ], [ 135.649565338, 34.478253401 ], [ 135.649571008, 34.478223566 ], [ 135.649596569000011, 34.478089077 ], [ 135.64967402799999, 34.477950833 ], [ 135.64976356599999, 34.477718954 ], [ 135.649690104, 34.477634046 ], [ 135.649698266, 34.477279949 ], [ 135.649738533, 34.47723738 ], [ 135.649778528000013, 34.477230044 ], [ 135.64984759, 34.477217378 ], [ 135.649885987, 34.477127139 ], [ 135.649963472, 34.477086258 ], [ 135.650007620999986, 34.47708484 ], [ 135.650099028999989, 34.477081904 ], [ 135.65010142700001, 34.477060621 ], [ 135.650113898, 34.476949941 ], [ 135.650205602, 34.476894941 ], [ 135.650221316999989, 34.476597708 ], [ 135.65018899, 34.476567579 ], [ 135.650181292000013, 34.476124905 ], [ 135.650400681, 34.475701852 ], [ 135.650361120000014, 34.475575267 ], [ 135.650522282, 34.475381277 ], [ 135.650700277999988, 34.475367222 ], [ 135.650583361, 34.475184333 ], [ 135.650556771, 34.475108209 ], [ 135.650245936, 34.475455878 ], [ 135.650214481, 34.47549106 ], [ 135.649437384, 34.475069895 ], [ 135.649180102, 34.47496798 ], [ 135.648914753000014, 34.474748249 ], [ 135.648908065, 34.474742711 ], [ 135.648808741000011, 34.474756654 ], [ 135.64870074800001, 34.475017192 ], [ 135.648605094, 34.475147285 ], [ 135.64851708, 34.47516577 ], [ 135.64846321499999, 34.47516492 ], [ 135.648532456, 34.475374386 ], [ 135.648545109, 34.475543579 ], [ 135.64840125500001, 34.476161296 ], [ 135.64831706699999, 34.476434549 ], [ 135.648271454, 34.476872058 ], [ 135.64882722199999, 34.476989694 ], [ 135.649088471999988, 34.477052306 ], [ 135.649119425, 34.477043588 ], [ 135.64915676199999, 34.477032578 ], [ 135.649247855, 34.477052889 ], [ 135.649142778, 34.477300278 ], [ 135.649081389, 34.477486389 ], [ 135.649019313, 34.477688961 ], [ 135.64899825, 34.477757694 ], [ 135.64875633299999, 34.478557944 ], [ 135.648480194, 34.479317833 ], [ 135.647988083, 34.480656028 ], [ 135.647914033, 34.480845616 ], [ 135.647909215999988, 34.480857949 ], [ 135.6478975, 34.480887944 ], [ 135.647857222, 34.480997778 ], [ 135.64768263900001, 34.4815045 ], [ 135.64755024199999, 34.481916558 ], [ 135.64747404799999, 34.482354889 ], [ 135.647451396, 34.48278657 ], [ 135.64744047799999, 34.482916778 ], [ 135.647391422, 34.483074069 ], [ 135.647325281, 34.483184081 ], [ 135.647247107999988, 34.483278315 ], [ 135.647134361000013, 34.48337388 ], [ 135.647030419, 34.483430828 ], [ 135.646928265000014, 34.483473469 ], [ 135.646808913, 34.483496024 ], [ 135.64666888, 34.483504206 ], [ 135.646525505, 34.483485186 ], [ 135.646304206999986, 34.483437964 ], [ 135.646078291, 34.483382276 ], [ 135.645746828999989, 34.48329115 ], [ 135.645470601999989, 34.483217357 ], [ 135.645139159, 34.483121936 ], [ 135.644799173, 34.48300359 ], [ 135.64485375000001, 34.482881972 ], [ 135.644849943999986, 34.482855028 ], [ 135.644799583, 34.482797194 ], [ 135.644312111, 34.482266361 ], [ 135.64407169399999, 34.481999361 ], [ 135.643590889, 34.481466917 ], [ 135.643127166999989, 34.480952722 ], [ 135.642976083, 34.480781583 ], [ 135.64291908300001, 34.480682556 ], [ 135.642898167, 34.480604139 ], [ 135.64288866699999, 34.480513028 ], [ 135.642898167, 34.480425083 ], [ 135.642922860999988, 34.48033 ], [ 135.64299383299999, 34.48020675 ], [ 135.64305686099999, 34.480125583 ], [ 135.643482444, 34.479636083 ], [ 135.643476514000014, 34.479594572 ], [ 135.643405664, 34.479650952 ], [ 135.64338559399999, 34.479653004 ], [ 135.643331154, 34.479658569 ], [ 135.643143183, 34.479865909 ], [ 135.642945703, 34.480064525 ], [ 135.642920514999986, 34.480151401 ], [ 135.642439975, 34.480470918 ], [ 135.64224452900001, 34.480639502 ], [ 135.642179034, 34.480776848 ], [ 135.642214571000011, 34.48094927 ], [ 135.64222386599999, 34.48100779 ], [ 135.64214466300001, 34.481225722 ], [ 135.642330576, 34.481392149 ], [ 135.64226179, 34.48147598 ], [ 135.642210218, 34.481521541 ], [ 135.642106038, 34.481446555 ], [ 135.642071281, 34.481421538 ], [ 135.641817479, 34.481842894 ], [ 135.64172228000001, 34.48200537 ], [ 135.64153810799999, 34.482119452 ], [ 135.641387759, 34.48219553 ], [ 135.641325193, 34.482227189 ], [ 135.64104043, 34.48222289 ], [ 135.6409467, 34.48233082 ], [ 135.64073688, 34.48253656 ], [ 135.640680384, 34.482562026 ], [ 135.64054543, 34.482646207 ], [ 135.640458145, 34.482743965 ], [ 135.64042944799999, 34.482798715 ], [ 135.640410984999988, 34.482833938 ], [ 135.640367790999989, 34.482831426 ], [ 135.640310781000011, 34.48282811 ], [ 135.640321547000013, 34.482988602 ], [ 135.640254355, 34.483075354 ], [ 135.640294831, 34.483208268 ], [ 135.640206580000012, 34.483308395 ], [ 135.640261517, 34.483408154 ], [ 135.640266015, 34.483472193 ], [ 135.64025274299999, 34.483526734 ], [ 135.640248523999986, 34.483544072 ], [ 135.640196873, 34.483568424 ], [ 135.639985075, 34.483540925 ], [ 135.639978824999986, 34.48344052 ], [ 135.639931053999987, 34.483433594 ], [ 135.639878657, 34.483425997 ], [ 135.639869879, 34.48348153 ], [ 135.63986491899999, 34.483512905 ], [ 135.639807136, 34.483509817 ], [ 135.639786662, 34.483508723 ], [ 135.639719721, 34.483536981 ], [ 135.639632705999986, 34.483631628 ], [ 135.639592166, 34.483675724 ], [ 135.63951908300001, 34.483691778 ], [ 135.639473278, 34.483704944 ], [ 135.639428091000013, 34.483720116 ], [ 135.63933888299999, 34.483750069 ], [ 135.63925628699999, 34.483866812 ], [ 135.63918660499999, 34.484087932 ], [ 135.639259699, 34.484156435 ], [ 135.63937105, 34.484260794 ], [ 135.639370708, 34.484340304 ], [ 135.639624222, 34.484377 ], [ 135.640153972, 34.484455327 ], [ 135.641315694000014, 34.484616639 ], [ 135.641550972, 34.484651667 ], [ 135.64166666700001, 34.484668889 ], [ 135.641852527999987, 34.484696528 ], [ 135.642342305999989, 34.484764 ], [ 135.642417094, 34.484777833 ], [ 135.642828192, 34.484836602 ], [ 135.643073278, 34.484874472 ], [ 135.643146527999988, 34.484884917 ], [ 135.643142571999988, 34.484846215 ], [ 135.643128297, 34.48470657 ], [ 135.643057973999987, 34.484632062 ], [ 135.643119788, 34.484463087 ], [ 135.643141765, 34.484233921 ], [ 135.643084988999988, 34.484116769 ], [ 135.643083350000012, 34.48394862 ], [ 135.64308470200001, 34.483735772 ], [ 135.64292677, 34.483612001 ], [ 135.642942562, 34.483490318 ], [ 135.642874318, 34.483376294 ], [ 135.643093076000014, 34.483114505 ], [ 135.643122483000013, 34.483110257 ], [ 135.643232528999988, 34.48309436 ], [ 135.64340074, 34.4830128 ], [ 135.64350545, 34.48295436 ], [ 135.64365684, 34.48288679 ], [ 135.64367256599999, 34.482425344 ], [ 135.64373515299999, 34.482461963 ], [ 135.644699037, 34.483025911 ], [ 135.64510694099999, 34.483179653 ], [ 135.645101716999989, 34.483286348 ], [ 135.64500663199999, 34.48342361 ], [ 135.645066466, 34.483720992 ], [ 135.64515161599999, 34.483675394 ], [ 135.645236872999988, 34.483705943 ], [ 135.64523456, 34.483883 ], [ 135.645149704, 34.483901456 ], [ 135.645109271, 34.483981964 ], [ 135.645046028, 34.484038693 ], [ 135.64501324, 34.48416214 ], [ 135.64479831, 34.48425658 ], [ 135.64471608, 34.48429189 ], [ 135.644660151000011, 34.48431739 ], [ 135.644666719000014, 34.484344285 ], [ 135.644883316, 34.484366256 ], [ 135.64491057, 34.484467513 ], [ 135.644973531, 34.484523812 ], [ 135.64492956, 34.48454138 ], [ 135.644542480000013, 34.48475435 ], [ 135.64442668, 34.48478802 ], [ 135.644390818, 34.484800361 ], [ 135.64430604, 34.484982708 ], [ 135.644267636, 34.485083331 ], [ 135.64425144099999, 34.485125766 ], [ 135.644965361, 34.485287417 ], [ 135.645787111, 34.4854775 ], [ 135.646361430000013, 34.485607599 ], [ 135.646575082999988, 34.485659806 ], [ 135.646600957, 34.485624148 ], [ 135.646638333, 34.485572639 ], [ 135.64669294399999, 34.4854665 ], [ 135.646754249999987, 34.485276306 ], [ 135.646796083, 34.485091694 ], [ 135.646829333, 34.485028306 ], [ 135.646904417, 34.484977583 ], [ 135.646996972000011, 34.484935361 ], [ 135.64713533299999, 34.484872222 ], [ 135.647382416999989, 34.484773972 ], [ 135.647435631, 34.484756284 ], [ 135.647658944, 34.484682056 ], [ 135.647841389, 34.484651139 ], [ 135.647932516999987, 34.484614962 ], [ 135.647941167, 34.484611528 ], [ 135.648002, 34.484572722 ], [ 135.648062833000012, 34.484504556 ], [ 135.648083722, 34.484419 ], [ 135.648098, 34.484065611 ], [ 135.6481075, 34.483994306 ], [ 135.648148361000011, 34.483911889 ], [ 135.648191110999988, 34.483857222 ], [ 135.648294693999986, 34.483766889 ] ] ] } },
{ "type": "Feature", "properties": { "A29_001": "27382", "A29_002": "大阪府", "A29_003": "河南町", "A29_004": 3, "A29_005": "第一種中高層住居専用地域", "A29_006": 60, "A29_007": 200, "A29_008": null }, "geometry": { "type": "Polygon", "coordinates": [ [ [ 135.639884604, 34.502583585 ], [ 135.639892905000011, 34.502553905 ], [ 135.638750278, 34.502925556 ], [ 135.638084443999986, 34.503152444 ], [ 135.638632, 34.504312667 ], [ 135.639472833000013, 34.504046185 ], [ 135.639513833, 34.503909306 ], [ 135.639884604, 34.502583585 ] ] ] } },
{ "type": "Feature", "properties": { "A29_001": "27382", "A29_002": "大阪府", "A29_003": "河南町", "A29_004": 4, "A29_005": "第二種中高層住居専用地域", "A29_006": 60, "A29_007": 200, "A29_008": null }, "geometry": { "type": "Polygon", "coordinates": [ [ [ 135.63556592, 34.503055715 ], [ 135.635102773999989, 34.503204331 ], [ 135.635059203999987, 34.503223869 ], [ 135.634709743, 34.50348838 ], [ 135.634308583, 34.503780083 ], [ 135.63452083300001, 34.504215778 ], [ 135.634721832999986, 34.504646944 ], [ 135.63474327899999, 34.504630935 ], [ 135.635127694, 34.504343972 ], [ 135.635516028000012, 34.504054361 ], [ 135.635631939, 34.503961997 ], [ 135.635887722, 34.503874306 ], [ 135.635959555999989, 34.503860167 ], [ 135.63641252799999, 34.5037045 ], [ 135.636884278, 34.503545139 ], [ 135.637350889, 34.503396028 ], [ 135.637149583, 34.502984583 ], [ 135.63696273799999, 34.502593636 ], [ 135.636959222, 34.502586278 ], [ 135.63556592, 34.503055715 ] ] ] } },
{ "type": "Feature", "properties": { "A29_001": "27382", "A29_002": "大阪府", "A29_003": "河南町", "A29_004": 5, "A29_005": "第一種住居地域", "A29_006": 60, "A29_007": 200, "A29_008": null }, "geometry": { "type": "Polygon", "coordinates": [ [ [ 135.631156721, 34.512815977 ], [ 135.631191626, 34.512695935 ], [ 135.631459637, 34.512551303 ], [ 135.631597531000011, 34.512463189 ], [ 135.63169367399999, 34.512314875 ], [ 135.63187384599999, 34.512166815 ], [ 135.632111173, 34.512050544 ], [ 135.63212538, 34.512007443 ], [ 135.632124225000013, 34.511988582 ], [ 135.632121735, 34.511947905 ], [ 135.632104325, 34.511663569 ], [ 135.632114825, 34.511634977 ], [ 135.632132202, 34.511614993 ], [ 135.632162534, 34.51159791 ], [ 135.632191948000013, 34.511592989 ], [ 135.63231357, 34.51159773 ], [ 135.632345619, 34.511583373 ], [ 135.632336364, 34.511516219 ], [ 135.63235253900001, 34.51150768 ], [ 135.632400014000012, 34.511508844 ], [ 135.632441282, 34.511509855 ], [ 135.632477021999989, 34.511508055 ], [ 135.63250813, 34.51148856 ], [ 135.632519895, 34.511456661 ], [ 135.63253054, 34.511394674 ], [ 135.632552538, 34.511350469 ], [ 135.632577278000014, 34.511294488 ], [ 135.632604877, 34.511243286 ], [ 135.63264398699999, 34.511195697 ], [ 135.632685916000014, 34.511162429 ], [ 135.63275981000001, 34.51112372 ], [ 135.63283653, 34.51107449 ], [ 135.632878272, 34.511033078 ], [ 135.63293567299999, 34.510851179 ], [ 135.633079290000012, 34.5108275 ], [ 135.63314663, 34.5107906 ], [ 135.633202790000013, 34.51075135 ], [ 135.633247278999988, 34.510760518 ], [ 135.633297121999988, 34.510827934 ], [ 135.633290012, 34.510872279 ], [ 135.633139013, 34.511004927 ], [ 135.633110867999989, 34.511115045 ], [ 135.633121034, 34.511162305 ], [ 135.633162446999989, 34.511181035 ], [ 135.63322295899999, 34.511181217 ], [ 135.633246046000011, 34.51116388 ], [ 135.633323569, 34.511105665 ], [ 135.633394442, 34.51110874 ], [ 135.63353158000001, 34.51109899 ], [ 135.63364189, 34.51105372 ], [ 135.633804309999988, 34.51102709 ], [ 135.633682029, 34.510948643 ], [ 135.63373207, 34.510860263 ], [ 135.63389286200001, 34.510775377 ], [ 135.634066123999986, 34.510762862 ], [ 135.63427111499999, 34.510748054 ], [ 135.634841556, 34.510443068 ], [ 135.635036598, 34.510386739 ], [ 135.63516679, 34.510311245 ], [ 135.635232355, 34.510165999 ], [ 135.635286048000012, 34.510115571 ], [ 135.635488796, 34.510043455 ], [ 135.635619001, 34.509964799 ], [ 135.635756501, 34.509965209 ], [ 135.635924488, 34.509981519 ], [ 135.63605069499999, 34.509943954 ], [ 135.636254115000014, 34.509716912 ], [ 135.636392508, 34.509511808 ], [ 135.636678281, 34.508790192 ], [ 135.636956768, 34.508866902 ], [ 135.637119093, 34.508867385 ], [ 135.63719013, 34.508821432 ], [ 135.637209102000014, 34.508809159 ], [ 135.63730647599999, 34.508814191 ], [ 135.637354068, 34.508849112 ], [ 135.63737319, 34.508892202 ], [ 135.637548786, 34.508960085 ], [ 135.63755196599999, 34.508912567 ], [ 135.63754753500001, 34.508879798 ], [ 135.637517972000012, 34.508742417 ], [ 135.63752344400001, 34.508705806 ], [ 135.637548987, 34.508647251 ], [ 135.637556077, 34.508620351 ], [ 135.637546033, 34.50858856 ], [ 135.637518854, 34.508554813 ], [ 135.637481632, 34.508516663 ], [ 135.637463639, 34.508501814 ], [ 135.63745522, 34.508481639 ], [ 135.637456611, 34.508393333 ], [ 135.637441389, 34.508333333 ], [ 135.63743547199999, 34.508310028 ], [ 135.63739252799999, 34.508249778 ], [ 135.637297217, 34.50814639 ], [ 135.637265936, 34.508112457 ], [ 135.63723145599999, 34.508063155 ], [ 135.637121138999987, 34.507821333 ], [ 135.637025666999989, 34.507689028 ], [ 135.636885194, 34.507564611 ], [ 135.63686544399999, 34.507526889 ], [ 135.636846848, 34.507454375 ], [ 135.636673444, 34.507302361 ], [ 135.63661555600001, 34.507277639 ], [ 135.636370142, 34.507236392 ], [ 135.63610588899999, 34.507138667 ], [ 135.63592822199999, 34.507127667 ], [ 135.63586701, 34.507138 ], [ 135.63565258, 34.50725487 ], [ 135.63556483, 34.50726389 ], [ 135.63544162, 34.50727125 ], [ 135.6353686, 34.50732822 ], [ 135.635273250000012, 34.50736814 ], [ 135.63514068, 34.50738629 ], [ 135.63511359899999, 34.507577745 ], [ 135.63514078099999, 34.507720535 ], [ 135.635138122, 34.507779763 ], [ 135.635130206000014, 34.507956056 ], [ 135.635342822000013, 34.507858282 ], [ 135.635345769999986, 34.50785763 ], [ 135.63540172, 34.50786706 ], [ 135.635446230000014, 34.50792903 ], [ 135.63545326, 34.50802954 ], [ 135.63546976, 34.5080976 ], [ 135.63546575, 34.50816098 ], [ 135.635418789999989, 34.5082304 ], [ 135.6353478, 34.50824874 ], [ 135.63513857, 34.50829603 ], [ 135.63501355, 34.50829257 ], [ 135.6348308, 34.50826265 ], [ 135.6346739, 34.50829542 ], [ 135.634587970000013, 34.50831217 ], [ 135.634447630000011, 34.50839986 ], [ 135.6343017, 34.5084829 ], [ 135.63402144, 34.5085609 ], [ 135.633779510000011, 34.50861854 ], [ 135.633617813, 34.508671553 ], [ 135.633573930000011, 34.50868594 ], [ 135.63342642, 34.50870405 ], [ 135.633248427000012, 34.508702203 ], [ 135.633262186, 34.508649751 ], [ 135.633007350000014, 34.508529483 ], [ 135.63294364699999, 34.508491376 ], [ 135.632809485, 34.508374942 ], [ 135.632770658999988, 34.508354926 ], [ 135.632684667, 34.508333333 ], [ 135.632550083000012, 34.508306 ], [ 135.63247234, 34.508269883 ], [ 135.632466505, 34.508267172 ], [ 135.632435292, 34.508252672 ], [ 135.632326737, 34.50820224 ], [ 135.632198749999986, 34.508057333 ], [ 135.631903666999989, 34.507787056 ], [ 135.63163094399999, 34.507537278 ], [ 135.631251111000012, 34.507210833 ], [ 135.630892472, 34.506895861 ], [ 135.630654115999988, 34.506668661 ], [ 135.630574569, 34.506592837 ], [ 135.630705592999988, 34.506513742 ], [ 135.630719731999989, 34.506506214 ], [ 135.630719895999988, 34.50650614 ], [ 135.630639660000014, 34.50649151 ], [ 135.63051139, 34.506486176 ], [ 135.630140052, 34.506681082 ], [ 135.63010921899999, 34.506744224 ], [ 135.629837801, 34.507015315 ], [ 135.629751734, 34.507045091 ], [ 135.629549911, 34.507251831 ], [ 135.629507823000012, 34.507285873 ], [ 135.629453324, 34.507099652 ], [ 135.62940325299999, 34.506954472 ], [ 135.62933234, 34.506831174 ], [ 135.62926360899999, 34.506735552 ], [ 135.629182195999988, 34.506640846 ], [ 135.629075468999986, 34.506536522 ], [ 135.62898590899999, 34.506459919 ], [ 135.62889854299999, 34.506408131 ], [ 135.628681101000012, 34.50631969 ], [ 135.628713877, 34.50628256 ], [ 135.628731641, 34.506265021 ], [ 135.62880611, 34.506196434 ], [ 135.628619272, 34.50607586 ], [ 135.628579129, 34.50603161 ], [ 135.628549107, 34.505979041 ], [ 135.628512519999987, 34.505890195 ], [ 135.62849814099999, 34.505687798 ], [ 135.628608301000014, 34.505392506 ], [ 135.628751912000013, 34.504874411 ], [ 135.628858775999987, 34.504460543 ], [ 135.62889334799999, 34.5039848 ], [ 135.628886634999986, 34.503776102 ], [ 135.628847234, 34.503617893 ], [ 135.628711006, 34.503332919 ], [ 135.62835873899999, 34.503105781 ], [ 135.628257686000012, 34.503070694 ], [ 135.62800789100001, 34.502989308 ], [ 135.627785684, 34.502715928 ], [ 135.627830875, 34.502644926 ], [ 135.627827281, 34.502629346 ], [ 135.627816824, 34.502584019 ], [ 135.627675761, 34.502723397 ], [ 135.627660506000012, 34.502738469 ], [ 135.627624246000011, 34.502733616 ], [ 135.62761161099999, 34.502691972 ], [ 135.627639167000012, 34.502667944 ], [ 135.627657527999986, 34.502631278 ], [ 135.62766811099999, 34.502502694 ], [ 135.627644194, 34.502431778 ], [ 135.627589833, 34.502345583 ], [ 135.62756916699999, 34.502281833 ], [ 135.627567389, 34.502174667 ], [ 135.627596333000014, 34.502119333 ], [ 135.627657222000011, 34.502050194 ], [ 135.627723556, 34.502007083 ], [ 135.627806222, 34.501978361 ], [ 135.627888861, 34.501947833 ], [ 135.6279965, 34.501884083 ], [ 135.628318361, 34.5016785 ], [ 135.628349302, 34.501648358 ], [ 135.628720722, 34.501438778 ], [ 135.62883813900001, 34.501376806 ], [ 135.628868583000013, 34.5013445 ], [ 135.628889249999986, 34.501298694 ], [ 135.628932393000014, 34.50120158 ], [ 135.629347583, 34.501018167 ], [ 135.629448110999988, 34.500887722 ], [ 135.629500167, 34.500861056 ], [ 135.629698682, 34.50084819 ], [ 135.629722289999989, 34.50084493 ], [ 135.629935055, 34.500828675 ], [ 135.629948453, 34.500615026 ], [ 135.629996333, 34.5 ], [ 135.63000259099999, 34.499868281 ], [ 135.630030414, 34.499655827 ], [ 135.630040525, 34.499451154 ], [ 135.62984595, 34.49946103 ], [ 135.629672449999987, 34.49945277 ], [ 135.629484100000013, 34.49943056 ], [ 135.6292191, 34.49943903 ], [ 135.628960099000011, 34.499433695 ], [ 135.628865787, 34.499431752 ], [ 135.628870325, 34.499700517 ], [ 135.628784990000014, 34.499997465 ], [ 135.628745286, 34.500338817 ], [ 135.628731606, 34.500542406 ], [ 135.628276172999989, 34.500626694 ], [ 135.628157391, 34.500714862 ], [ 135.628156464, 34.500923537 ], [ 135.627876566999987, 34.50110795 ], [ 135.627724116, 34.501101651 ], [ 135.627602343, 34.501106449 ], [ 135.627537902, 34.501108988 ], [ 135.627414748, 34.500994028 ], [ 135.627357821, 34.50100844 ], [ 135.627288556, 34.501031167 ], [ 135.627120222, 34.501101 ], [ 135.627027792, 34.501132545 ], [ 135.626970311, 34.501152162 ], [ 135.62689957, 34.50115481 ], [ 135.626390144999988, 34.501135521 ], [ 135.626247619999987, 34.501408579 ], [ 135.6263664, 34.50146466 ], [ 135.62702700299999, 34.501691586 ], [ 135.627030600000012, 34.501754657 ], [ 135.626678801, 34.502155057 ], [ 135.62654441699999, 34.502130722 ], [ 135.62632630600001, 34.50208725 ], [ 135.626197187, 34.502045842 ], [ 135.62584782, 34.502434212 ], [ 135.625804069999987, 34.5024507 ], [ 135.625745349, 34.502474145 ], [ 135.625640376, 34.502477773 ], [ 135.625571279000013, 34.502556606 ], [ 135.62559169, 34.502689463 ], [ 135.625606129, 34.502885314 ], [ 135.625369791999987, 34.503079011 ], [ 135.625332973000013, 34.503109187 ], [ 135.625292989, 34.503066787 ], [ 135.625276906000011, 34.503049732 ], [ 135.625135502, 34.503115057 ], [ 135.625045551, 34.503115419 ], [ 135.624957698, 34.503086615 ], [ 135.624962833000012, 34.503204944 ], [ 135.624964567, 34.50326538 ], [ 135.624965300000014, 34.503290914 ], [ 135.62488872, 34.503277263 ], [ 135.623629157000011, 34.503092999 ], [ 135.62363375699999, 34.503047454 ], [ 135.623623931999987, 34.50298 ], [ 135.62360424799999, 34.502931113 ], [ 135.62358190399999, 34.502887511 ], [ 135.62356115599999, 34.502853598 ], [ 135.623501815999987, 34.502787731 ], [ 135.623420130999989, 34.502714273 ], [ 135.623319745, 34.5026185 ], [ 135.623282501, 34.502541661 ], [ 135.623217067000013, 34.502483473 ], [ 135.623169373, 34.502412308 ], [ 135.623130793, 34.502371788 ], [ 135.622984578, 34.502376686 ], [ 135.622923969, 34.502378716 ], [ 135.622918137999989, 34.502467155 ], [ 135.62291782, 34.50247197 ], [ 135.622557867000012, 34.502466757 ], [ 135.622501559999989, 34.502465942 ], [ 135.622509837, 34.502657707 ], [ 135.622238801, 34.502654996 ], [ 135.621628542, 34.50264889 ], [ 135.621633118, 34.502626647 ], [ 135.621644808000013, 34.502569816 ], [ 135.621663278, 34.502458121 ], [ 135.621698957, 34.502083752 ], [ 135.621709087, 34.501977455 ], [ 135.621716639, 34.501907278 ], [ 135.621592139, 34.50214537 ], [ 135.62139541799999, 34.502690865 ], [ 135.621372044, 34.502741999 ], [ 135.621326954000011, 34.502837479 ], [ 135.62126665, 34.502932996 ], [ 135.621067369, 34.50338299 ], [ 135.62102294799999, 34.503469626 ], [ 135.62100332899999, 34.503507892 ], [ 135.62138512199999, 34.503523816 ], [ 135.62132698, 34.503774445 ], [ 135.621664576, 34.503864021 ], [ 135.62201398, 34.503876169 ], [ 135.622223733999988, 34.503859743 ], [ 135.62223182, 34.50386031 ], [ 135.62290607, 34.50384542 ], [ 135.623008199, 34.503844933 ], [ 135.623140484, 34.503849949 ], [ 135.6232657, 34.503847441 ], [ 135.623399889000012, 34.503836322 ], [ 135.62345881499999, 34.503831439 ], [ 135.623463773999987, 34.503835613 ], [ 135.623564063, 34.503920039 ], [ 135.62359225, 34.503966472 ], [ 135.623616472, 34.503980111 ], [ 135.623671083, 34.504097972 ], [ 135.623790582999987, 34.504257222 ], [ 135.62385353, 34.50431104 ], [ 135.623913721, 34.504343434 ], [ 135.623868361, 34.504369889 ], [ 135.62379013899999, 34.504395722 ], [ 135.623708502999989, 34.504405774 ], [ 135.623677783, 34.504421991 ], [ 135.623666207000014, 34.504446317 ], [ 135.62369827500001, 34.50474086 ], [ 135.62370765899999, 34.504875088 ], [ 135.623688491, 34.504907062 ], [ 135.623680189999988, 34.505119819 ], [ 135.623679149, 34.505146487 ], [ 135.623899462999987, 34.505155789 ], [ 135.62405806000001, 34.505201289 ], [ 135.624069622, 34.505447849 ], [ 135.624180903, 34.505436534 ], [ 135.624207019000011, 34.50542848 ], [ 135.624221111999987, 34.505424133 ], [ 135.62427961099999, 34.505406028 ], [ 135.624286633999986, 34.505405982 ], [ 135.624369722000012, 34.505405444 ], [ 135.624457295000013, 34.505400483 ], [ 135.624866489, 34.505414866 ], [ 135.624886129, 34.505914494 ], [ 135.624741656999987, 34.506035229 ], [ 135.624712738999989, 34.506059397 ], [ 135.624594382999987, 34.506048775 ], [ 135.624548573999988, 34.506044664 ], [ 135.6245548, 34.506388342 ], [ 135.624555461999989, 34.506424889 ], [ 135.624455076, 34.506400451 ], [ 135.624399339, 34.506386882 ], [ 135.62436075, 34.506547139 ], [ 135.624271722, 34.506848083 ], [ 135.624278819000011, 34.506879353 ], [ 135.624309611, 34.506922594 ], [ 135.62432988899999, 34.506972944 ], [ 135.624350472, 34.507056028 ], [ 135.624349443999989, 34.507307917 ], [ 135.624341944, 34.507425113 ], [ 135.623651494, 34.507429134 ], [ 135.623665386999988, 34.507834333 ], [ 135.62366558299999, 34.507840056 ], [ 135.623538278000012, 34.507879278 ], [ 135.62328928, 34.507909216 ], [ 135.623212056, 34.5079185 ], [ 135.623189442000012, 34.508333333 ], [ 135.623182977, 34.508451925 ], [ 135.623180905, 34.508668681 ], [ 135.623578079, 34.50867939 ], [ 135.623605099, 34.5089254 ], [ 135.623581381, 34.508925429 ], [ 135.622679694, 34.508930667 ], [ 135.622668764999986, 34.508930872 ], [ 135.622676012999989, 34.509253632 ], [ 135.6234244, 34.50921178 ], [ 135.62355523, 34.50916735 ], [ 135.623593750999987, 34.509163017 ], [ 135.62360980599999, 34.509269722 ], [ 135.623608671999989, 34.509293789 ], [ 135.623605333, 34.509364694 ], [ 135.623584943999987, 34.509514389 ], [ 135.623587, 34.509544139 ], [ 135.623589917, 34.509585694 ], [ 135.623598861, 34.509635472 ], [ 135.623606736, 34.50981313 ], [ 135.623616348000013, 34.509826612 ], [ 135.62357704199999, 34.510246235 ], [ 135.62356969699999, 34.510388302 ], [ 135.623573748000013, 34.510453596 ], [ 135.623600638999989, 34.510592944 ], [ 135.623592333, 34.510738611 ], [ 135.623562485, 34.510876868 ], [ 135.623557968, 34.510906192 ], [ 135.62355447600001, 34.510956426 ], [ 135.623554264, 34.511073972 ], [ 135.623494842000014, 34.511887666 ], [ 135.62348719, 34.511979964 ], [ 135.623437996, 34.51258868 ], [ 135.623427184, 34.512775639 ], [ 135.623418773999987, 34.51282387 ], [ 135.623388739, 34.512860168 ], [ 135.623338181, 34.512886371 ], [ 135.623305691000013, 34.512901273 ], [ 135.62326041599999, 34.512948259 ], [ 135.622970435000013, 34.513195077 ], [ 135.622902861, 34.513273386 ], [ 135.62284159399999, 34.513424783 ], [ 135.62281768599999, 34.513488279 ], [ 135.6228025, 34.513528611 ], [ 135.622775278, 34.513675278 ], [ 135.622770167999988, 34.513728595 ], [ 135.622770143, 34.51379265 ], [ 135.62307571, 34.513816035 ], [ 135.623080514, 34.513795515 ], [ 135.623096739, 34.513726215 ], [ 135.623144790999987, 34.513620564 ], [ 135.623181579, 34.513573871 ], [ 135.623234886, 34.513506211 ], [ 135.623339998, 34.513394344 ], [ 135.623527696999986, 34.513277506 ], [ 135.623549368, 34.513268137 ], [ 135.623564001, 34.513261811 ], [ 135.623763448, 34.513175583 ], [ 135.623993111, 34.513117639 ], [ 135.624657472, 34.513089306 ], [ 135.625, 34.513089306 ], [ 135.625086613, 34.513088386 ], [ 135.625238, 34.513086778 ], [ 135.62573995, 34.51303701 ], [ 135.62611241, 34.512944622 ], [ 135.626437525999989, 34.512825351 ], [ 135.626523515, 34.512793637 ], [ 135.626532082000011, 34.512809568 ], [ 135.626650342, 34.513029477 ], [ 135.62665825, 34.513043225 ], [ 135.62679672199999, 34.51330125 ], [ 135.626894361000012, 34.513532806 ], [ 135.626978974999986, 34.513784468 ], [ 135.626976031, 34.51428557 ], [ 135.62697251899999, 34.514817943 ], [ 135.628283027, 34.514825901 ], [ 135.628301875, 34.514892515 ], [ 135.628985714, 34.514898931 ], [ 135.629298782, 34.514901868 ], [ 135.629415470999987, 34.514859538 ], [ 135.629582277, 34.514713021 ], [ 135.629611458, 34.514652404 ], [ 135.62966130800001, 34.514548848 ], [ 135.629832212999986, 34.514339108 ], [ 135.629977709, 34.514260505 ], [ 135.630084708, 34.514249763 ], [ 135.63013835000001, 34.514211984 ], [ 135.629872975000012, 34.513759046 ], [ 135.630282771999987, 34.513559757 ], [ 135.630315079000013, 34.513538354 ], [ 135.630417668, 34.513470389 ], [ 135.630471462, 34.513426184 ], [ 135.63069904299999, 34.513180707 ], [ 135.630785529, 34.513172381 ], [ 135.63088276, 34.51316241 ], [ 135.630913324, 34.513148815 ], [ 135.63095696100001, 34.513112789 ], [ 135.630977809, 34.513089953 ], [ 135.630984977999987, 34.513032727 ], [ 135.630987116999989, 34.512939705 ], [ 135.631185587, 34.512931713 ], [ 135.631156721, 34.512815977 ] ] ] } },
{ "type": "Feature", "properties": { "A29_001": "27382", "A29_002": "大阪府", "A29_003": "河南町", "A29_004": 1, "A29_005": "第一種低層住居専用地域", "A29_006": 50, "A29_007": 100, "A29_008": null }, "geometry": { "type": "Polygon", "coordinates": [ [ [ 135.633907029999989, 34.50847514 ], [ 135.633913368, 34.508472225 ], [ 135.634028836, 34.508490264 ], [ 135.634086309999986, 34.508448543 ], [ 135.63407408, 34.508443261 ], [ 135.633918572, 34.50837611 ], [ 135.633876797, 34.508321444 ], [ 135.633904698, 34.508055148 ], [ 135.63401664599999, 34.508002523 ], [ 135.634025021000014, 34.508007214 ], [ 135.63408618, 34.508041463 ], [ 135.634145359, 34.508046383 ], [ 135.634210301, 34.508001831 ], [ 135.634227556000013, 34.507809496 ], [ 135.63442161, 34.50773235 ], [ 135.634436953, 34.50773205 ], [ 135.634512887, 34.507848291 ], [ 135.634594797, 34.507895963 ], [ 135.634732335, 34.507886889 ], [ 135.634799375999989, 34.507851471 ], [ 135.63486203299999, 34.507818368 ], [ 135.63491484299999, 34.507637654 ], [ 135.634987079000012, 34.507525336 ], [ 135.635038939999987, 34.50739024 ], [ 135.63514068, 34.50738629 ], [ 135.635273250000012, 34.50736814 ], [ 135.6353686, 34.50732822 ], [ 135.63544162, 34.50727125 ], [ 135.63556483, 34.50726389 ], [ 135.63565258, 34.50725487 ], [ 135.63586701, 34.507138 ], [ 135.63592822199999, 34.507127667 ], [ 135.63610588899999, 34.507138667 ], [ 135.636370142, 34.507236392 ], [ 135.63661555600001, 34.507277639 ], [ 135.636748442, 34.507158365 ], [ 135.636945488, 34.507270615 ], [ 135.637010326, 34.507226088 ], [ 135.637425352, 34.50681879 ], [ 135.63759022, 34.50665699 ], [ 135.637659359999986, 34.50663401 ], [ 135.637662836, 34.506634813 ], [ 135.63792162499999, 34.506762885 ], [ 135.637963001, 34.506723181 ], [ 135.638035581999986, 34.506653533 ], [ 135.63836183699999, 34.506758237 ], [ 135.638456076000011, 34.506822961 ], [ 135.638579098, 34.506858104 ], [ 135.638600763, 34.50684154 ], [ 135.638743874, 34.50673212 ], [ 135.638847637, 34.506583823 ], [ 135.638917338, 34.506362705 ], [ 135.638958166, 34.506370301 ], [ 135.639262710999986, 34.506426961 ], [ 135.639434607, 34.506421145 ], [ 135.63966038, 34.506320634 ], [ 135.63967224699999, 34.506225815 ], [ 135.63957686, 34.506203402 ], [ 135.639517063999989, 34.506145075 ], [ 135.63947607099999, 34.506105089 ], [ 135.639471098, 34.505929596 ], [ 135.639398954, 34.505831368 ], [ 135.639416453, 34.505758698 ], [ 135.639460119, 34.505722271 ], [ 135.63954486099999, 34.505651577 ], [ 135.63954643, 34.505517216 ], [ 135.63954788699999, 34.50539232 ], [ 135.63957201, 34.50475801 ], [ 135.639731559000012, 34.504128985 ], [ 135.639986416, 34.503332131 ], [ 135.64018404699999, 34.503010188 ], [ 135.640246028, 34.502909217 ], [ 135.640254787, 34.502784027 ], [ 135.640213781999989, 34.502717263 ], [ 135.64021498299999, 34.502701238 ], [ 135.640218479, 34.502654613 ], [ 135.640236292, 34.502544935 ], [ 135.64024593900001, 34.502485538 ], [ 135.640269074, 34.502443599 ], [ 135.640308385999987, 34.502372331 ], [ 135.640068837, 34.502113897 ], [ 135.640247378999987, 34.501555045 ], [ 135.64045725299999, 34.500900907 ], [ 135.64082054, 34.499775502 ], [ 135.640866609, 34.499760667 ], [ 135.64117595, 34.499661053 ], [ 135.639970382, 34.49719904 ], [ 135.63981593, 34.49720224 ], [ 135.639746659999986, 34.49725614 ], [ 135.639531549999987, 34.49738226 ], [ 135.63940636, 34.49742053 ], [ 135.63908541, 34.497425 ], [ 135.63876979, 34.49749208 ], [ 135.638539939999987, 34.49757256 ], [ 135.638300750000013, 34.49765687 ], [ 135.63780014, 34.49778292 ], [ 135.63758888000001, 34.49787658 ], [ 135.63746901, 34.49798289 ], [ 135.636993530000012, 34.49834089 ], [ 135.63676154, 34.49848396 ], [ 135.636359660000011, 34.49864894 ], [ 135.63615771, 34.49874882 ], [ 135.63568222, 34.49910526 ], [ 135.6355156, 34.49922998 ], [ 135.63546851000001, 34.49933495 ], [ 135.635431, 34.49937812 ], [ 135.635317, 34.49941952 ], [ 135.63512824, 34.49948619 ], [ 135.634969579999989, 34.49949963 ], [ 135.63475681, 34.4995129 ], [ 135.63462596, 34.49956816 ], [ 135.63456786, 34.49962673 ], [ 135.63439903, 34.49983103 ], [ 135.63428474, 34.4999389 ], [ 135.63417798, 34.50002978 ], [ 135.63402815, 34.50015764 ], [ 135.6339457, 34.50024009 ], [ 135.63384603, 34.50041448 ], [ 135.63378019000001, 34.50053794 ], [ 135.63375935, 34.50060899 ], [ 135.63341576, 34.50067057 ], [ 135.632822745999988, 34.500540351 ], [ 135.632792727, 34.500533759 ], [ 135.632571606, 34.500892326 ], [ 135.63254500299999, 34.501045384 ], [ 135.632350433, 34.501262341 ], [ 135.632265354999987, 34.501346526 ], [ 135.632149141000014, 34.50143491 ], [ 135.632041589000011, 34.501519027 ], [ 135.63192716, 34.501594536 ], [ 135.631027638, 34.502117073 ], [ 135.63101838899999, 34.50225444 ], [ 135.630972906000011, 34.502272202 ], [ 135.63090929, 34.502297046 ], [ 135.630908272, 34.502273354 ], [ 135.630906154, 34.502224046 ], [ 135.63062325199999, 34.502476513 ], [ 135.63056079, 34.502527847 ], [ 135.630534626000014, 34.502580722 ], [ 135.63051360899999, 34.5026422 ], [ 135.630511909, 34.502766232 ], [ 135.63054021, 34.503197924 ], [ 135.630623515, 34.503320543 ], [ 135.630710706, 34.503408625 ], [ 135.63094737899999, 34.503646165 ], [ 135.631022024, 34.503772344 ], [ 135.631085523, 34.504017214 ], [ 135.631098868, 34.504053226 ], [ 135.631252702000012, 34.504475055 ], [ 135.631272634999988, 34.504528785 ], [ 135.631278305, 34.504549793 ], [ 135.631275894999987, 34.504573639 ], [ 135.631269446, 34.504598427 ], [ 135.631261951999988, 34.504621551 ], [ 135.631115467, 34.504828067 ], [ 135.631114687, 34.505005124 ], [ 135.631210027, 34.505159977 ], [ 135.631225507000011, 34.505205854 ], [ 135.631220979, 34.505585632 ], [ 135.631416077000011, 34.505948244 ], [ 135.631432640000014, 34.50609043 ], [ 135.63132421, 34.50613801 ], [ 135.63114095, 34.50622481 ], [ 135.630942772, 34.50637109 ], [ 135.630909648999989, 34.506401029 ], [ 135.630778361000012, 34.506479861 ], [ 135.630719895999988, 34.50650614 ], [ 135.630719731999989, 34.506506214 ], [ 135.630705592999988, 34.506513742 ], [ 135.630574569, 34.506592837 ], [ 135.630654115999988, 34.506668661 ], [ 135.630892472, 34.506895861 ], [ 135.631251111000012, 34.507210833 ], [ 135.63163094399999, 34.507537278 ], [ 135.631903666999989, 34.507787056 ], [ 135.632198749999986, 34.508057333 ], [ 135.632326737, 34.50820224 ], [ 135.632435292, 34.508252672 ], [ 135.632466505, 34.508267172 ], [ 135.63247234, 34.508269883 ], [ 135.632550083000012, 34.508306 ], [ 135.632684667, 34.508333333 ], [ 135.632770658999988, 34.508354926 ], [ 135.632809485, 34.508374942 ], [ 135.63294364699999, 34.508491376 ], [ 135.633007350000014, 34.508529483 ], [ 135.633262186, 34.508649751 ], [ 135.633317627999986, 34.508671515 ], [ 135.63343323699999, 34.508655262 ], [ 135.633753719999987, 34.5085427 ], [ 135.633907029999989, 34.50847514 ] ], [ [ 135.63556592, 34.503055715 ], [ 135.636959222, 34.502586278 ], [ 135.63696273799999, 34.502593636 ], [ 135.637149583, 34.502984583 ], [ 135.637350889, 34.503396028 ], [ 135.636884278, 34.503545139 ], [ 135.63641252799999, 34.5037045 ], [ 135.635959555999989, 34.503860167 ], [ 135.635887722, 34.503874306 ], [ 135.635631939, 34.503961997 ], [ 135.635516028000012, 34.504054361 ], [ 135.635127694, 34.504343972 ], [ 135.63474327899999, 34.504630935 ], [ 135.634721832999986, 34.504646944 ], [ 135.63452083300001, 34.504215778 ], [ 135.634308583, 34.503780083 ], [ 135.634709743, 34.50348838 ], [ 135.635059203999987, 34.503223869 ], [ 135.635102773999989, 34.503204331 ], [ 135.63556592, 34.503055715 ] ], [ [ 135.638750278, 34.502925556 ], [ 135.639892905000011, 34.502553905 ], [ 135.639884604, 34.502583585 ], [ 135.639513833, 34.503909306 ], [ 135.639472833000013, 34.504046185 ], [ 135.638632, 34.504312667 ], [ 135.638084443999986, 34.503152444 ], [ 135.638750278, 34.502925556 ] ] ] } }
]
}
