{
"type": "FeatureCollection",
"name": "A29-19_33216",
"features": [
{ "type": "Feature", "properties": { "A29_001": "33216", "A29_002": "岡山県", "A29_003": "浅口市", "A29_004": 1, "A29_005": "第一種低層住居専用地域", "A29_006": 50, "A29_007": 80, "A29_008": null }, "geometry": { "type": "Polygon", "coordinates": [ [ [ 133.627566269, 34.530336318 ], [ 133.62759073, 34.530277083 ], [ 133.62759515499999, 34.530264571 ], [ 133.627579558, 34.530258454 ], [ 133.627521035, 34.530251044 ], [ 133.627304587, 34.530210364 ], [ 133.62714104599999, 34.530213083 ], [ 133.626916391, 34.530152152 ], [ 133.62676181, 34.530112498 ], [ 133.626694722, 34.530097541 ], [ 133.62665585, 34.53018815 ], [ 133.626522787999988, 34.530531956 ], [ 133.62638378, 34.531019655 ], [ 133.62622909000001, 34.531589317 ], [ 133.626108144999989, 34.532121964 ], [ 133.625976427000012, 34.532701299 ], [ 133.625850286, 34.533302611 ], [ 133.625689935, 34.533995318 ], [ 133.625556558999989, 34.534497361 ], [ 133.62543981499999, 34.534900841 ], [ 133.625433206, 34.534914098 ], [ 133.626280831, 34.534989262 ], [ 133.626598406999989, 34.535034333 ], [ 133.62671544599999, 34.535040974 ], [ 133.626710522, 34.534916566 ], [ 133.62670579600001, 34.534797174 ], [ 133.626667098000013, 34.534686631 ], [ 133.626650974, 34.534569511 ], [ 133.626579561999989, 34.534386475 ], [ 133.626535510999986, 34.534269939 ], [ 133.626465094999986, 34.534075728 ], [ 133.626318922, 34.533679822 ], [ 133.626260409999986, 34.533569165 ], [ 133.62618444, 34.533392812 ], [ 133.626200250000011, 34.533339806 ], [ 133.626200667, 34.533333333 ], [ 133.6262075, 34.533224167 ], [ 133.626208778, 34.533203889 ], [ 133.626240278000012, 34.533043139 ], [ 133.626259662, 34.532795074 ], [ 133.62627495800001, 34.53271783 ], [ 133.626297958, 34.532644579 ], [ 133.62634989, 34.53257701 ], [ 133.626357117, 34.532562479 ], [ 133.626458987, 34.532480359 ], [ 133.626534902, 34.532285277 ], [ 133.62656672, 34.53223513 ], [ 133.626651439999989, 34.53203331 ], [ 133.626709513, 34.531917304 ], [ 133.6268315, 34.531813194 ], [ 133.62687280599999, 34.5317635 ], [ 133.626901389000011, 34.531699667 ], [ 133.626910329999987, 34.531671909 ], [ 133.626942861, 34.531570917 ], [ 133.626988055999988, 34.5314745 ], [ 133.627016567999988, 34.531434438 ], [ 133.62706430599999, 34.531367361 ], [ 133.62716583299999, 34.531275444 ], [ 133.627191833000012, 34.53124275 ], [ 133.627210649, 34.53119533 ], [ 133.627250194, 34.531095667 ], [ 133.62729372199999, 34.530992778 ], [ 133.627315962000011, 34.530944355 ], [ 133.62737830399999, 34.530915128 ], [ 133.627396051, 34.530839945 ], [ 133.627395764, 34.530822793 ], [ 133.62742504, 34.53079684 ], [ 133.62744612, 34.53075728 ], [ 133.62749251, 34.53055723 ], [ 133.627523628, 34.530419918 ], [ 133.62754266499999, 34.530388409 ], [ 133.627566269, 34.530336318 ] ] ] } },
{ "type": "Feature", "properties": { "A29_001": "33216", "A29_002": "岡山県", "A29_003": "浅口市", "A29_004": 5, "A29_005": "第一種住居地域", "A29_006": 60, "A29_007": 200, "A29_008": null }, "geometry": { "type": "Polygon", "coordinates": [ [ [ 133.62642736699999, 34.535422254 ], [ 133.62653269399999, 34.535311778 ], [ 133.626585889000012, 34.535259889 ], [ 133.62663325, 34.535218278 ], [ 133.626666333, 34.535184694 ], [ 133.626668639, 34.53518175 ], [ 133.626685056000014, 34.535156111 ], [ 133.626711656, 34.535104875 ], [ 133.62674363799999, 34.535115676 ], [ 133.626815378, 34.535153361 ], [ 133.626908508000014, 34.535218004 ], [ 133.626953214999986, 34.535257023 ], [ 133.6270276, 34.535301432 ], [ 133.62710924000001, 34.535316149 ], [ 133.627352269999989, 34.535359959 ], [ 133.627640781, 34.53543393 ], [ 133.627761513, 34.535536747 ], [ 133.627803472000011, 34.53553925 ], [ 133.627849056, 34.5355375 ], [ 133.62795405599999, 34.535511444 ], [ 133.628094917, 34.535497944 ], [ 133.628111889, 34.535489444 ], [ 133.628170250000011, 34.535404861 ], [ 133.628280194000013, 34.535253444 ], [ 133.628542581, 34.534986683 ], [ 133.628694214, 34.534842951 ], [ 133.6287695, 34.534766944 ], [ 133.628787278, 34.534750194 ], [ 133.628823583000013, 34.534715972 ], [ 133.628906167, 34.534625889 ], [ 133.62893488899999, 34.534594167 ], [ 133.628992555999986, 34.534531083 ], [ 133.629017694, 34.534487444 ], [ 133.629028306, 34.534456806 ], [ 133.629038556000012, 34.5344165 ], [ 133.629028095, 34.53434248 ], [ 133.628995002000011, 34.53431471 ], [ 133.62899005, 34.534261013 ], [ 133.628946205, 34.534226472 ], [ 133.62892416599999, 34.534169694 ], [ 133.628914855, 34.534098828 ], [ 133.628910041000012, 34.534028733 ], [ 133.628873091, 34.533924165 ], [ 133.628842971000012, 34.533864359 ], [ 133.628851005, 34.533766013 ], [ 133.628885833, 34.533694656 ], [ 133.628916688, 34.533673978 ], [ 133.62893655900001, 34.53366066 ], [ 133.62904838, 34.533644907 ], [ 133.629086234, 34.533642143 ], [ 133.629103815, 34.533509757 ], [ 133.629120854, 34.533381454 ], [ 133.629132916, 34.533098069 ], [ 133.62905834099999, 34.533103807 ], [ 133.628961194999988, 34.533088338 ], [ 133.62887518299999, 34.533034174 ], [ 133.628875986999986, 34.532938768 ], [ 133.628911536, 34.532862539 ], [ 133.628964045, 34.532749945 ], [ 133.629392102999986, 34.53197422 ], [ 133.629366806, 34.531944556 ], [ 133.629359472, 34.531916306 ], [ 133.629347861000014, 34.531881306 ], [ 133.629325853000012, 34.531819541 ], [ 133.62931325, 34.531791833 ], [ 133.629288083, 34.531730472 ], [ 133.62928366700001, 34.531717167 ], [ 133.62927397199999, 34.531694861 ], [ 133.629246, 34.531640806 ], [ 133.62922943800001, 34.531610274 ], [ 133.628899343, 34.531876713 ], [ 133.628544135999988, 34.532236926 ], [ 133.628282824, 34.532463509 ], [ 133.62806973299999, 34.532739566 ], [ 133.627703997999987, 34.533385948 ], [ 133.627583764, 34.533544768 ], [ 133.62750943099999, 34.533600988 ], [ 133.627304517999988, 34.53364978 ], [ 133.627002549999986, 34.53431894 ], [ 133.626784640000011, 34.53478909 ], [ 133.626710522, 34.534916566 ], [ 133.62671544599999, 34.535040974 ], [ 133.626598406999989, 34.535034333 ], [ 133.626280831, 34.534989262 ], [ 133.625433206, 34.534914098 ], [ 133.62536307900001, 34.534898784 ], [ 133.624666797, 34.534794862 ], [ 133.624607529, 34.534773647 ], [ 133.62451920399999, 34.534752503 ], [ 133.624411759999987, 34.53508136 ], [ 133.62434869399999, 34.535183976 ], [ 133.624425196, 34.535191128 ], [ 133.624823821, 34.535238166 ], [ 133.625636441000012, 34.535325616 ], [ 133.62634011099999, 34.535408704 ], [ 133.62642736699999, 34.535422254 ] ] ] } },
{ "type": "Feature", "properties": { "A29_001": "33216", "A29_002": "岡山県", "A29_003": "浅口市", "A29_004": 5, "A29_005": "第一種住居地域", "A29_006": 60, "A29_007": 200, "A29_008": null }, "geometry": { "type": "Polygon", "coordinates": [ [ [ 133.615226525, 34.535803395 ], [ 133.61533884, 34.535806826 ], [ 133.61529994, 34.53575082 ], [ 133.61516117, 34.53554968 ], [ 133.61513162, 34.53545695 ], [ 133.615103940000012, 34.53533381 ], [ 133.615095599, 34.535248599 ], [ 133.614735935999988, 34.535242953 ], [ 133.61363958199999, 34.535157485 ], [ 133.613614619, 34.535127523 ], [ 133.613626872, 34.535107473 ], [ 133.61375714, 34.534894308 ], [ 133.613752874, 34.534705921 ], [ 133.613850305999989, 34.534681194 ], [ 133.613924583, 34.534695529 ], [ 133.614013336999989, 34.534639402 ], [ 133.614050958, 34.534497892 ], [ 133.61409920599999, 34.534499773 ], [ 133.61419533099999, 34.534424309 ], [ 133.614293629, 34.534305625 ], [ 133.61450291700001, 34.533849184 ], [ 133.61470431699999, 34.533471709 ], [ 133.614675957, 34.533417873 ], [ 133.61469689899999, 34.533286807 ], [ 133.614740989000012, 34.533187184 ], [ 133.61474830099999, 34.532965099 ], [ 133.61469721200001, 34.532932135 ], [ 133.6146014, 34.532870315 ], [ 133.614589128, 34.532828426 ], [ 133.614561148, 34.532732925 ], [ 133.614533456, 34.532716553 ], [ 133.614464364000014, 34.532675705 ], [ 133.614443918, 34.532621188 ], [ 133.61443970900001, 34.532609965 ], [ 133.614429064, 34.532610706 ], [ 133.613906175000011, 34.532647075 ], [ 133.61353487299999, 34.532671721 ], [ 133.613503667, 34.5326985 ], [ 133.613384943999989, 34.532758833 ], [ 133.613388805999989, 34.532769278 ], [ 133.613422972, 34.532844139 ], [ 133.613341416999987, 34.532879556 ], [ 133.613339943999989, 34.532895972 ], [ 133.61334447199999, 34.532921694 ], [ 133.613363193999987, 34.532963028 ], [ 133.61342338899999, 34.533078194 ], [ 133.613442306, 34.533134639 ], [ 133.613457917, 34.53319 ], [ 133.613476972, 34.533282889 ], [ 133.613484860999989, 34.533333333 ], [ 133.613503583000011, 34.533453278 ], [ 133.613492721999989, 34.533456306 ], [ 133.61337077799999, 34.533458639 ], [ 133.613358737999988, 34.533457769 ], [ 133.613422922000012, 34.533748903 ], [ 133.61344069099999, 34.533777333 ], [ 133.61343104299999, 34.533851815 ], [ 133.61351752499999, 34.534059545 ], [ 133.613466831000011, 34.534089062 ], [ 133.613553094999986, 34.534322133 ], [ 133.61312155600001, 34.534418 ], [ 133.613084858, 34.534337721 ], [ 133.613064388999987, 34.534292944 ], [ 133.61300563899999, 34.534188306 ], [ 133.612949316, 34.53411584 ], [ 133.612946416999989, 34.534112111 ], [ 133.612921441999987, 34.534069996 ], [ 133.612918611, 34.534065222 ], [ 133.612889056, 34.533957417 ], [ 133.612834443999986, 34.533871306 ], [ 133.61281430599999, 34.533814333 ], [ 133.61278165600001, 34.533798126 ], [ 133.612708543999986, 34.533761834 ], [ 133.612649119, 34.533759247 ], [ 133.61257183699999, 34.53384302 ], [ 133.612533539999987, 34.533897208 ], [ 133.612488597, 34.533990863 ], [ 133.612438075, 34.533894282 ], [ 133.612407045999987, 34.533838321 ], [ 133.612383752, 34.533853178 ], [ 133.612315571000011, 34.533896667 ], [ 133.61217169, 34.533974084 ], [ 133.612093331000011, 34.533973621 ], [ 133.61188108799999, 34.533831488 ], [ 133.611879452000011, 34.533816586 ], [ 133.611750629999989, 34.53371937 ], [ 133.61171542400001, 34.53368922 ], [ 133.61156353699999, 34.533680532 ], [ 133.611326186000014, 34.533629933 ], [ 133.61111405299999, 34.533579483 ], [ 133.610941602, 34.533523304 ], [ 133.61082302299999, 34.533486823 ], [ 133.610822829, 34.533486759 ], [ 133.610734487, 34.533517606 ], [ 133.610683818000012, 34.53354414 ], [ 133.610436791000012, 34.533571003 ], [ 133.610117736, 34.533594458 ], [ 133.609935802, 34.53359338 ], [ 133.609613040999989, 34.533628738 ], [ 133.609310133, 34.53365974 ], [ 133.608588993000012, 34.533725529 ], [ 133.608206981, 34.533738169 ], [ 133.60783410499999, 34.533735955 ], [ 133.60761068799999, 34.533740591 ], [ 133.60752821, 34.533747376 ], [ 133.607577568000011, 34.534028116 ], [ 133.60759434, 34.534171332 ], [ 133.606801788000013, 34.534162147 ], [ 133.60678023, 34.534163049 ], [ 133.606771417, 34.534185833 ], [ 133.60675763899999, 34.534279944 ], [ 133.60673477200001, 34.534362778 ], [ 133.606766475, 34.534390773 ], [ 133.607568633999989, 34.534538658 ], [ 133.609426541, 34.534883622 ], [ 133.613539747, 34.535663766 ], [ 133.61423804099999, 34.535742419 ], [ 133.615058984, 34.5358039 ], [ 133.615226525, 34.535803395 ] ] ] } },
{ "type": "Feature", "properties": { "A29_001": "33216", "A29_002": "岡山県", "A29_003": "浅口市", "A29_004": 10, "A29_005": "準工業地域", "A29_006": 60, "A29_007": 200, "A29_008": null }, "geometry": { "type": "Polygon", "coordinates": [ [ [ 133.624297968, 34.53563552 ], [ 133.625629737999986, 34.535807457 ], [ 133.62557876, 34.53606136 ], [ 133.625531763999987, 34.536320025 ], [ 133.625493844, 34.536409713 ], [ 133.625674557, 34.536449521 ], [ 133.62581395699999, 34.536474927 ], [ 133.625876962, 34.536480509 ], [ 133.625884242000012, 34.53639836 ], [ 133.625873194, 34.536383139 ], [ 133.62588720799999, 34.536364887 ], [ 133.625887889000012, 34.536364 ], [ 133.625929555999988, 34.536329167 ], [ 133.62606416700001, 34.536213306 ], [ 133.626112611, 34.536166278 ], [ 133.626165278, 34.536120167 ], [ 133.626184722, 34.536067444 ], [ 133.62619021, 34.536052088 ], [ 133.62620855599999, 34.53600075 ], [ 133.626242499, 34.535920919 ], [ 133.626262583, 34.535883306 ], [ 133.626276278, 34.535855583 ], [ 133.62629983299999, 34.535773861 ], [ 133.62631941699999, 34.535690222 ], [ 133.626335332999986, 34.535636972 ], [ 133.626353028000011, 34.535580472 ], [ 133.626372333, 34.535534806 ], [ 133.62639452799999, 34.535487778 ], [ 133.62642736699999, 34.535422254 ], [ 133.62634011099999, 34.535408704 ], [ 133.625636441000012, 34.535325616 ], [ 133.624823821, 34.535238166 ], [ 133.624425196, 34.535191128 ], [ 133.62434869399999, 34.535183976 ], [ 133.62414550599999, 34.535139563 ], [ 133.623958821, 34.535060958 ], [ 133.623722441000012, 34.534894479 ], [ 133.623664289, 34.534847927 ], [ 133.623516266, 34.534830668 ], [ 133.62346406099999, 34.534827344 ], [ 133.623435468, 34.534852187 ], [ 133.623420177000014, 34.534902785 ], [ 133.623430852000013, 34.534916104 ], [ 133.62341756699999, 34.534944885 ], [ 133.623427456, 34.535265463 ], [ 133.623684085, 34.535381 ], [ 133.62386020400001, 34.535501771 ], [ 133.623954868999988, 34.535566686 ], [ 133.623997056, 34.53557175 ], [ 133.624172499999986, 34.535623917 ], [ 133.62398134599999, 34.535630943 ], [ 133.623549508, 34.535570293 ], [ 133.623203947, 34.535532505 ], [ 133.622224187, 34.535504442 ], [ 133.621516246, 34.535500318 ], [ 133.620405326, 34.535642917 ], [ 133.619063036999989, 34.535876581 ], [ 133.618373787, 34.536003737 ], [ 133.617309463, 34.536173415 ], [ 133.617139877, 34.536202236 ], [ 133.616415181, 34.536260597 ], [ 133.61583401499999, 34.536264237 ], [ 133.615666921000013, 34.536221372 ], [ 133.61549886, 34.5360138 ], [ 133.61535988, 34.53583712 ], [ 133.61533884, 34.535806826 ], [ 133.615226525, 34.535803395 ], [ 133.615058984, 34.5358039 ], [ 133.61423804099999, 34.535742419 ], [ 133.613539747, 34.535663766 ], [ 133.609426541, 34.534883622 ], [ 133.607568633999989, 34.534538658 ], [ 133.606766475, 34.534390773 ], [ 133.60673477200001, 34.534362778 ], [ 133.60672755600001, 34.534388917 ], [ 133.606703, 34.534446028 ], [ 133.60668775, 34.534472278 ], [ 133.60666733299999, 34.534488139 ], [ 133.60663697199999, 34.534492778 ], [ 133.60644916699999, 34.534474639 ], [ 133.60642766699999, 34.534485139 ], [ 133.6063475, 34.534474417 ], [ 133.60629458299999, 34.534464111 ], [ 133.60622516699999, 34.534432139 ], [ 133.606203779999987, 34.534419026 ], [ 133.606151278, 34.534386833 ], [ 133.606065333, 34.534300917 ], [ 133.605953027999988, 34.534172444 ], [ 133.60582258299999, 34.53403925 ], [ 133.60569913399999, 34.533975196 ], [ 133.60563805699999, 34.533955452 ], [ 133.605591839999988, 34.533959083 ], [ 133.60539109199999, 34.533974851 ], [ 133.605228699, 34.53400519 ], [ 133.60513851499999, 34.534018069 ], [ 133.605084747, 34.533964813 ], [ 133.605068859999989, 34.533949078 ], [ 133.605069492000013, 34.53396876 ], [ 133.605070082999987, 34.533987167 ], [ 133.605033361000011, 34.534106472 ], [ 133.604989917000012, 34.534131972 ], [ 133.604969, 34.534142028 ], [ 133.604939389, 34.534155167 ], [ 133.604912832999986, 34.534165278 ], [ 133.604854389, 34.534176639 ], [ 133.604761472, 34.534186694 ], [ 133.604671056, 34.534194139 ], [ 133.60458822199999, 34.534192556 ], [ 133.60446894399999, 34.534193944 ], [ 133.60439622199999, 34.534182444 ], [ 133.604254083, 34.534156306 ], [ 133.60417591699999, 34.534142083 ], [ 133.604147583000014, 34.534139 ], [ 133.604145593, 34.53412718 ], [ 133.60406263199999, 34.534168137 ], [ 133.603990654, 34.534587409 ], [ 133.603978078000011, 34.534790081 ], [ 133.604074336999986, 34.534906938 ], [ 133.604235576, 34.535009274 ], [ 133.604242206, 34.535025619 ], [ 133.60489141, 34.53513512 ], [ 133.60676629, 34.53547227 ], [ 133.6086857, 34.53583214 ], [ 133.609772445, 34.536041527 ], [ 133.61001674100001, 34.536107331 ], [ 133.611110027, 34.536340401 ], [ 133.611548846, 34.53642648 ], [ 133.613986145000013, 34.536858282 ], [ 133.615451669, 34.536962317 ], [ 133.616071685, 34.536927199 ], [ 133.616888195, 34.536876833 ], [ 133.61814743799999, 34.536666559 ], [ 133.618419353, 34.536617201 ], [ 133.618595140999986, 34.536557371 ], [ 133.619031767, 34.536479423 ], [ 133.620033043, 34.536309362 ], [ 133.620076355, 34.536316406 ], [ 133.620478572, 34.536243387 ], [ 133.620940453, 34.536161108 ], [ 133.621279367999989, 34.536133268 ], [ 133.621454719000013, 34.536129827 ], [ 133.62174783099999, 34.536124073 ], [ 133.622227229, 34.536100031 ], [ 133.622547978, 34.536089972 ], [ 133.62295203799999, 34.536239911 ], [ 133.623071993, 34.53628872 ], [ 133.623215944, 34.536347292 ], [ 133.623725777, 34.536345784 ], [ 133.623978693, 34.536262278 ], [ 133.62405374799999, 34.53622768 ], [ 133.62410827, 34.53612668 ], [ 133.624297968, 34.53563552 ] ] ] } },
{ "type": "Feature", "properties": { "A29_001": "33216", "A29_002": "岡山県", "A29_003": "浅口市", "A29_004": 1, "A29_005": "第一種低層住居専用地域", "A29_006": 50, "A29_007": 80, "A29_008": null }, "geometry": { "type": "Polygon", "coordinates": [ [ [ 133.62024697199999, 34.538476083 ], [ 133.620283034000011, 34.538460154 ], [ 133.62033080399999, 34.538464385 ], [ 133.620446826, 34.538548547 ], [ 133.620882095000013, 34.538551087 ], [ 133.620884948, 34.538552756 ], [ 133.620883928000012, 34.538480294 ], [ 133.62098201, 34.538227613 ], [ 133.621165100000013, 34.538233871 ], [ 133.62126225099999, 34.538249345 ], [ 133.62151795299999, 34.538262762 ], [ 133.621586111, 34.538187306 ], [ 133.621613860999986, 34.538161778 ], [ 133.621720694, 34.538039611 ], [ 133.621817166999989, 34.537946333 ], [ 133.621884611000013, 34.537897417 ], [ 133.621980694, 34.537841 ], [ 133.62210094400001, 34.537770028 ], [ 133.622235889, 34.537699667 ], [ 133.622404722, 34.537612944 ], [ 133.622471222, 34.537581778 ], [ 133.622486056000014, 34.537578444 ], [ 133.62269192299999, 34.537488426 ], [ 133.622707952000013, 34.537411131 ], [ 133.622804730000013, 34.537210026 ], [ 133.622809295, 34.537079817 ], [ 133.622835661000011, 34.53702988 ], [ 133.623031664, 34.536351218 ], [ 133.623038294, 34.536275008 ], [ 133.62295203799999, 34.536239911 ], [ 133.622547978, 34.536089972 ], [ 133.622227229, 34.536100031 ], [ 133.62174783099999, 34.536124073 ], [ 133.621454719000013, 34.536129827 ], [ 133.62140041699999, 34.536179694 ], [ 133.621315167, 34.536255139 ], [ 133.621286344999987, 34.536282963 ], [ 133.62127180600001, 34.536297 ], [ 133.621256028, 34.536325472 ], [ 133.621255472, 34.536352028 ], [ 133.621264778000011, 34.536374556 ], [ 133.62128511099999, 34.536392948 ], [ 133.621322827, 34.536427062 ], [ 133.62106725000001, 34.536698333 ], [ 133.62104894399999, 34.536712917 ], [ 133.620842556000014, 34.536799222 ], [ 133.620737166999987, 34.536828944 ], [ 133.620675221999988, 34.536844111 ], [ 133.620594028, 34.536870583 ], [ 133.62054394399999, 34.536882861 ], [ 133.620490727, 34.536889221 ], [ 133.620323111, 34.536965361 ], [ 133.62023891699999, 34.537001194 ], [ 133.620238354, 34.537001518 ], [ 133.62021827800001, 34.537013083 ], [ 133.620207361000013, 34.537026278 ], [ 133.620202167, 34.537036833 ], [ 133.62020013899999, 34.5370515 ], [ 133.6202025, 34.537069083 ], [ 133.620220052, 34.53712086 ], [ 133.620220249999988, 34.537121444 ], [ 133.620229639, 34.537158083 ], [ 133.62022775, 34.537167083 ], [ 133.62022163899999, 34.537175361 ], [ 133.620170806, 34.537201194 ], [ 133.620137527999987, 34.537221778 ], [ 133.620114444, 34.537244583 ], [ 133.62003377799999, 34.537362861 ], [ 133.61999075, 34.537458 ], [ 133.619952417, 34.537522333 ], [ 133.619924556, 34.537561278 ], [ 133.619779611000013, 34.537727333 ], [ 133.619717083000012, 34.537820611 ], [ 133.619550806, 34.538023861 ], [ 133.61953116699999, 34.538051417 ], [ 133.619467667, 34.538193333 ], [ 133.61943463899999, 34.538237972 ], [ 133.61940908299999, 34.538265778 ], [ 133.61929697799999, 34.538379167 ], [ 133.619287222, 34.538401917 ], [ 133.61928344399999, 34.538424583 ], [ 133.619290889000013, 34.53845125 ], [ 133.61934230599999, 34.5385095 ], [ 133.619383722, 34.53854625 ], [ 133.619392194, 34.53855375 ], [ 133.619419639, 34.538574167 ], [ 133.619479444, 34.538603611 ], [ 133.619578972, 34.538634056 ], [ 133.619718471999988, 34.538686389 ], [ 133.61990763899999, 34.538768278 ], [ 133.62001125, 34.538807528 ], [ 133.620057694, 34.538770778 ], [ 133.620050028, 34.538742389 ], [ 133.620044361, 34.538724417 ], [ 133.620044108, 34.538709634 ], [ 133.620043861, 34.538695111 ], [ 133.620046556, 34.538669444 ], [ 133.620060645, 34.538640079 ], [ 133.62006208299999, 34.538637083 ], [ 133.620082806, 34.538614083 ], [ 133.620128611000013, 34.538581083 ], [ 133.62019102799999, 34.538523056 ], [ 133.62024697199999, 34.538476083 ] ] ] } },
{ "type": "Feature", "properties": { "A29_001": "33216", "A29_002": "岡山県", "A29_003": "浅口市", "A29_004": 10, "A29_005": "準工業地域", "A29_006": 60, "A29_007": 200, "A29_008": null }, "geometry": { "type": "Polygon", "coordinates": [ [ [ 133.611162388999986, 34.538204197 ], [ 133.61120544, 34.538673862 ], [ 133.61388001, 34.53930001 ], [ 133.61438615, 34.53941911 ], [ 133.614427635, 34.539568155 ], [ 133.61452191, 34.539603743 ], [ 133.614901339999989, 34.539684988 ], [ 133.615700492, 34.539876036 ], [ 133.616022238999989, 34.53996141 ], [ 133.616100152, 34.539976983 ], [ 133.616529410999988, 34.540062781 ], [ 133.616660739, 34.540084422 ], [ 133.61667144099999, 34.540001199 ], [ 133.616714049, 34.539960254 ], [ 133.61672876099999, 34.539845037 ], [ 133.616771605999986, 34.539760826 ], [ 133.61684099499999, 34.539652406 ], [ 133.61682121199999, 34.539635449 ], [ 133.616756939, 34.539580355 ], [ 133.616340175, 34.539440756 ], [ 133.61603388899999, 34.53944343 ], [ 133.615737044000014, 34.539395471 ], [ 133.615568282999988, 34.539327394 ], [ 133.615480561999988, 34.539262774 ], [ 133.615303178, 34.539149922 ], [ 133.61467221, 34.538570766 ], [ 133.614668404000014, 34.538543314 ], [ 133.61446938, 34.53836568 ], [ 133.614229959999989, 34.53816988 ], [ 133.613961819999986, 34.53797194 ], [ 133.61374439, 34.53781726 ], [ 133.61347425, 34.53766624 ], [ 133.61305282, 34.53746739 ], [ 133.612977333, 34.537447 ], [ 133.612561333, 34.537328806 ], [ 133.612344833, 34.537264167 ], [ 133.612156027999987, 34.537218778 ], [ 133.61183859799999, 34.537156801 ], [ 133.611175949, 34.537073632 ], [ 133.611126364, 34.537369142 ], [ 133.611157913999989, 34.537470702 ], [ 133.611162388999986, 34.538204197 ] ] ] } },
{ "type": "Feature", "properties": { "A29_001": "33216", "A29_002": "岡山県", "A29_003": "浅口市", "A29_004": 1, "A29_005": "第一種低層住居専用地域", "A29_006": 40, "A29_007": 80, "A29_008": null }, "geometry": { "type": "Polygon", "coordinates": [ [ [ 133.625728606, 34.537189989 ], [ 133.626144869, 34.537218041 ], [ 133.62621038899999, 34.537256944 ], [ 133.62621452799999, 34.53726675 ], [ 133.62621694399999, 34.5372925 ], [ 133.62620425, 34.537404306 ], [ 133.626188528, 34.537547833 ], [ 133.626179056000012, 34.537622444 ], [ 133.626075582999988, 34.538145389 ], [ 133.6260585, 34.538241236 ], [ 133.62604891699999, 34.538295 ], [ 133.626212806000012, 34.538288015 ], [ 133.626201025, 34.538342375 ], [ 133.62609862, 34.538814881 ], [ 133.626002371999988, 34.539118444 ], [ 133.62600534399999, 34.539193001 ], [ 133.626004907, 34.539244757 ], [ 133.626004575, 34.539283935 ], [ 133.625893803, 34.539387648 ], [ 133.625797205, 34.539406053 ], [ 133.625711553, 34.539422372 ], [ 133.62570770799999, 34.539663857 ], [ 133.625685806, 34.539904443 ], [ 133.625679901000012, 34.539969308 ], [ 133.625605181, 34.539990681 ], [ 133.625501113000013, 34.540020449 ], [ 133.62553011, 34.540212929 ], [ 133.625553378, 34.540230954 ], [ 133.62555792500001, 34.540332354 ], [ 133.625557238999988, 34.540413296 ], [ 133.625557041, 34.540436704 ], [ 133.625534471, 34.54045745 ], [ 133.625459861, 34.540526028 ], [ 133.62547552800001, 34.540592861 ], [ 133.62548472200001, 34.540627889 ], [ 133.625485722, 34.5406305 ], [ 133.625493471999988, 34.540645583 ], [ 133.625494889, 34.540649361 ], [ 133.62549666699999, 34.540650778 ], [ 133.625509806, 34.540656861 ], [ 133.62551872200001, 34.540659139 ], [ 133.62553802799999, 34.54066075 ], [ 133.625610943999988, 34.540663694 ], [ 133.625616556000011, 34.5406645 ], [ 133.625821996000013, 34.540635024 ], [ 133.625948744, 34.540559728 ], [ 133.626273755, 34.540473653 ], [ 133.626672829, 34.540364154 ], [ 133.626824204, 34.540359067 ], [ 133.626808694, 34.540279047 ], [ 133.62677068799999, 34.540082961 ], [ 133.626738652, 34.539610195 ], [ 133.62679614000001, 34.539589975 ], [ 133.6267158, 34.539329795 ], [ 133.626742481, 34.539157017 ], [ 133.626760848, 34.538689015 ], [ 133.626743513, 34.538182046 ], [ 133.626758416, 34.538123992 ], [ 133.626755366999987, 34.538058379 ], [ 133.626904508, 34.5376776 ], [ 133.627145453999987, 34.537091622 ], [ 133.627391663, 34.536522072 ], [ 133.62740133, 34.536430631 ], [ 133.627402192, 34.536328517 ], [ 133.627400157000011, 34.536249493 ], [ 133.627430105, 34.53611624 ], [ 133.627450374, 34.536062689 ], [ 133.627475409999988, 34.535977859 ], [ 133.62732873499999, 34.535960612 ], [ 133.62740178300001, 34.535851829 ], [ 133.62742045600001, 34.535818772 ], [ 133.62741673799999, 34.535810882 ], [ 133.62738417599999, 34.535741786 ], [ 133.627319992999986, 34.535662403 ], [ 133.627269289, 34.535586825 ], [ 133.627206618, 34.535541739 ], [ 133.627185354, 34.535499874 ], [ 133.627170804, 34.535409597 ], [ 133.62715592699999, 34.535358079 ], [ 133.62710924000001, 34.535316149 ], [ 133.6270276, 34.535301432 ], [ 133.626953214999986, 34.535257023 ], [ 133.626908508000014, 34.535218004 ], [ 133.626815378, 34.535153361 ], [ 133.62674363799999, 34.535115676 ], [ 133.626711656, 34.535104875 ], [ 133.626685056000014, 34.535156111 ], [ 133.626668639, 34.53518175 ], [ 133.626666333, 34.535184694 ], [ 133.62663325, 34.535218278 ], [ 133.626585889000012, 34.535259889 ], [ 133.62653269399999, 34.535311778 ], [ 133.62642736699999, 34.535422254 ], [ 133.62639452799999, 34.535487778 ], [ 133.626372333, 34.535534806 ], [ 133.626353028000011, 34.535580472 ], [ 133.626335332999986, 34.535636972 ], [ 133.62631941699999, 34.535690222 ], [ 133.62629983299999, 34.535773861 ], [ 133.626276278, 34.535855583 ], [ 133.626262583, 34.535883306 ], [ 133.626242499, 34.535920918 ], [ 133.62620855599999, 34.53600075 ], [ 133.62619021, 34.536052088 ], [ 133.626184722, 34.536067444 ], [ 133.626165278, 34.536120167 ], [ 133.626112611, 34.536166278 ], [ 133.62606416700001, 34.536213306 ], [ 133.625929555999988, 34.536329167 ], [ 133.625887889000012, 34.536364 ], [ 133.62588720799999, 34.536364887 ], [ 133.625873194, 34.536383139 ], [ 133.625884242000012, 34.53639836 ], [ 133.625876962, 34.536480509 ], [ 133.625932291999987, 34.536556093 ], [ 133.625925943999988, 34.536571528 ], [ 133.62592913899999, 34.536588 ], [ 133.625928832999989, 34.536636417 ], [ 133.625924778000012, 34.536697278 ], [ 133.625913583, 34.536760222 ], [ 133.625906972, 34.536790333 ], [ 133.625893667000014, 34.536839417 ], [ 133.62586552799999, 34.536904472 ], [ 133.625728606, 34.537189989 ] ] ] } },
{ "type": "Feature", "properties": { "A29_001": "33216", "A29_002": "岡山県", "A29_003": "浅口市", "A29_004": 5, "A29_005": "第一種住居地域", "A29_006": 60, "A29_007": 200, "A29_008": null }, "geometry": { "type": "Polygon", "coordinates": [ [ [ 133.620882095000013, 34.538551087 ], [ 133.620446826, 34.538548547 ], [ 133.62033080399999, 34.538464385 ], [ 133.620283034000011, 34.538460154 ], [ 133.62024697199999, 34.538476083 ], [ 133.62019102799999, 34.538523056 ], [ 133.620128611000013, 34.538581083 ], [ 133.620082806, 34.538614083 ], [ 133.62006208299999, 34.538637083 ], [ 133.620060645, 34.538640079 ], [ 133.620046556, 34.538669444 ], [ 133.620043861, 34.538695111 ], [ 133.620044108, 34.538709634 ], [ 133.620044361, 34.538724417 ], [ 133.620050028, 34.538742389 ], [ 133.620057694, 34.538770778 ], [ 133.62001125, 34.538807528 ], [ 133.61990763899999, 34.538768278 ], [ 133.619718471999988, 34.538686389 ], [ 133.619578972, 34.538634056 ], [ 133.619479444, 34.538603611 ], [ 133.619419639, 34.538574167 ], [ 133.619392194, 34.53855375 ], [ 133.619383722, 34.53854625 ], [ 133.61934230599999, 34.5385095 ], [ 133.619290889000013, 34.53845125 ], [ 133.61928344399999, 34.538424583 ], [ 133.619287222, 34.538401917 ], [ 133.61929697799999, 34.538379167 ], [ 133.61940908299999, 34.538265778 ], [ 133.61943463899999, 34.538237972 ], [ 133.619467667, 34.538193333 ], [ 133.61953116699999, 34.538051417 ], [ 133.619550806, 34.538023861 ], [ 133.619717083000012, 34.537820611 ], [ 133.619779611000013, 34.537727333 ], [ 133.619924556, 34.537561278 ], [ 133.619952417, 34.537522333 ], [ 133.61999075, 34.537458 ], [ 133.62003377799999, 34.537362861 ], [ 133.620114444, 34.537244583 ], [ 133.620137527999987, 34.537221778 ], [ 133.620170806, 34.537201194 ], [ 133.62022163899999, 34.537175361 ], [ 133.62022775, 34.537167083 ], [ 133.620229639, 34.537158083 ], [ 133.620220249999988, 34.537121444 ], [ 133.620220052, 34.53712086 ], [ 133.6202025, 34.537069083 ], [ 133.62020013899999, 34.5370515 ], [ 133.620202167, 34.537036833 ], [ 133.620207361000013, 34.537026278 ], [ 133.62021827800001, 34.537013083 ], [ 133.620238354, 34.537001518 ], [ 133.62023891699999, 34.537001194 ], [ 133.620323111, 34.536965361 ], [ 133.620490727, 34.536889221 ], [ 133.62054394399999, 34.536882861 ], [ 133.620594028, 34.536870583 ], [ 133.620675221999988, 34.536844111 ], [ 133.620737166999987, 34.536828944 ], [ 133.620842556000014, 34.536799222 ], [ 133.62104894399999, 34.536712917 ], [ 133.62106725000001, 34.536698333 ], [ 133.621322827, 34.536427062 ], [ 133.62128511099999, 34.536392948 ], [ 133.621264778000011, 34.536374556 ], [ 133.621255472, 34.536352028 ], [ 133.621256028, 34.536325472 ], [ 133.62127180600001, 34.536297 ], [ 133.621286344999987, 34.536282963 ], [ 133.621315167, 34.536255139 ], [ 133.62140041699999, 34.536179694 ], [ 133.621454719000013, 34.536129827 ], [ 133.621279367999989, 34.536133268 ], [ 133.620940453, 34.536161108 ], [ 133.620478572, 34.536243387 ], [ 133.620076355, 34.536316406 ], [ 133.620033043, 34.536309362 ], [ 133.619031767, 34.536479423 ], [ 133.618595140999986, 34.536557371 ], [ 133.618419353, 34.536617201 ], [ 133.61814743799999, 34.536666559 ], [ 133.616888195, 34.536876833 ], [ 133.616071685, 34.536927199 ], [ 133.615451669, 34.536962317 ], [ 133.613986145000013, 34.536858282 ], [ 133.611548846, 34.53642648 ], [ 133.611110027, 34.536340401 ], [ 133.61001674100001, 34.536107331 ], [ 133.609772445, 34.536041527 ], [ 133.6086857, 34.53583214 ], [ 133.60676629, 34.53547227 ], [ 133.60489141, 34.53513512 ], [ 133.604242206, 34.535025619 ], [ 133.604274374, 34.535104916 ], [ 133.604457227000012, 34.535240243 ], [ 133.60454934, 34.53526667 ], [ 133.60472132000001, 34.53531794 ], [ 133.604922523, 34.535381632 ], [ 133.60499612000001, 34.535385019 ], [ 133.605144972, 34.535461937 ], [ 133.605157192, 34.535506733 ], [ 133.60541617199999, 34.535763202 ], [ 133.60564659100001, 34.535989684 ], [ 133.60603257599999, 34.536172989 ], [ 133.60604702, 34.53617607 ], [ 133.606318429, 34.53620985 ], [ 133.606484338, 34.536189967 ], [ 133.60677106899999, 34.536155894 ], [ 133.606879256000013, 34.536144611 ], [ 133.607063541, 34.536083094 ], [ 133.607092415000011, 34.536077303 ], [ 133.607085364999989, 34.536059372 ], [ 133.60717021100001, 34.536039005 ], [ 133.607215626999988, 34.5360289 ], [ 133.60731425, 34.53604808 ], [ 133.60734070699999, 34.536048995 ], [ 133.607434678, 34.536079338 ], [ 133.60766166499999, 34.536079196 ], [ 133.60791402699999, 34.536061315 ], [ 133.608103263, 34.536052004 ], [ 133.608245818, 34.536024525 ], [ 133.60842580100001, 34.536043483 ], [ 133.60854632600001, 34.536063579 ], [ 133.608717522, 34.536057141 ], [ 133.608793115999987, 34.536065043 ], [ 133.608985753000013, 34.53603331 ], [ 133.609309674, 34.536118794 ], [ 133.609656581, 34.536208807 ], [ 133.610144074, 34.536290706 ], [ 133.610628004, 34.536368111 ], [ 133.61099864, 34.536422481 ], [ 133.61133646499999, 34.53652138 ], [ 133.611417726000013, 34.536521861 ], [ 133.612112739999986, 34.536749586 ], [ 133.612583562999987, 34.536885046 ], [ 133.613141861, 34.537113449 ], [ 133.613577923, 34.537311313 ], [ 133.613671417, 34.537332735 ], [ 133.614041316, 34.537473558 ], [ 133.614100148, 34.537420057 ], [ 133.614560157, 34.537682342 ], [ 133.614828475, 34.537904557 ], [ 133.614862499, 34.537925342 ], [ 133.61491496, 34.53800174 ], [ 133.6151026, 34.53827855 ], [ 133.61525737, 34.53847648 ], [ 133.615416470000014, 34.538662355 ], [ 133.615624196, 34.538808182 ], [ 133.615932765999986, 34.538959075 ], [ 133.616162943, 34.539008132 ], [ 133.61645264399999, 34.539048593 ], [ 133.61668661499999, 34.53907531 ], [ 133.616925837999986, 34.539119947 ], [ 133.61710187, 34.539180611 ], [ 133.61754371399999, 34.539336753 ], [ 133.61782510099999, 34.539506861 ], [ 133.61826379499999, 34.539821006 ], [ 133.618536153, 34.539994041 ], [ 133.618701480999988, 34.540042714 ], [ 133.618858209, 34.540043631 ], [ 133.620050117, 34.540102219 ], [ 133.622475433, 34.540717163 ], [ 133.622721444, 34.540811568 ], [ 133.623472682999989, 34.541026139 ], [ 133.623936439, 34.541150333 ], [ 133.624265753, 34.541224585 ], [ 133.62389825599999, 34.541076908 ], [ 133.623360714, 34.540845848 ], [ 133.62328547199999, 34.540781083 ], [ 133.623091453, 34.540730982 ], [ 133.623070468, 34.54065632 ], [ 133.623070974, 34.540596692 ], [ 133.62313257299999, 34.540604763 ], [ 133.623304194000013, 34.54062725 ], [ 133.623326047, 34.540554734 ], [ 133.623374417, 34.540394222 ], [ 133.62346850599999, 34.539542033 ], [ 133.62356309099999, 34.538798679 ], [ 133.623677249999986, 34.538021778 ], [ 133.623696897, 34.537891565 ], [ 133.623657425, 34.537660264 ], [ 133.623683183999987, 34.537384617 ], [ 133.623752407000012, 34.537270506 ], [ 133.62392519, 34.53681432 ], [ 133.62410827, 34.53612668 ], [ 133.62405374799999, 34.53622768 ], [ 133.623978693, 34.536262278 ], [ 133.623725777, 34.536345784 ], [ 133.623215944, 34.536347292 ], [ 133.623071993, 34.53628872 ], [ 133.623038294, 34.536275008 ], [ 133.623031664, 34.536351218 ], [ 133.622835661000011, 34.53702988 ], [ 133.622809295, 34.537079817 ], [ 133.622804730000013, 34.537210026 ], [ 133.622707952000013, 34.537411131 ], [ 133.62269192299999, 34.537488426 ], [ 133.622486056000014, 34.537578444 ], [ 133.622471222, 34.537581778 ], [ 133.622404722, 34.537612944 ], [ 133.622235889, 34.537699667 ], [ 133.62210094400001, 34.537770028 ], [ 133.621980694, 34.537841 ], [ 133.621884611000013, 34.537897417 ], [ 133.621817166999989, 34.537946333 ], [ 133.621720694, 34.538039611 ], [ 133.621613860999986, 34.538161778 ], [ 133.621586111, 34.538187306 ], [ 133.62151795299999, 34.538262762 ], [ 133.62126225099999, 34.538249345 ], [ 133.621165100000013, 34.538233871 ], [ 133.62098201, 34.538227613 ], [ 133.620883928000012, 34.538480294 ], [ 133.620884925000013, 34.538551104 ], [ 133.620884948, 34.538552756 ], [ 133.620882095000013, 34.538551087 ] ] ] } },
{ "type": "Feature", "properties": { "A29_001": "33216", "A29_002": "岡山県", "A29_003": "浅口市", "A29_004": 6, "A29_005": "第二種住居地域", "A29_006": 60, "A29_007": 200, "A29_008": null }, "geometry": { "type": "Polygon", "coordinates": [ [ [ 133.624886647000011, 34.540197897 ], [ 133.625231713, 34.540241015 ], [ 133.62521075, 34.540432889 ], [ 133.625196639, 34.540507333 ], [ 133.62519011099999, 34.540541806 ], [ 133.62518872199999, 34.540570944 ], [ 133.625197250000014, 34.540661444 ], [ 133.62521252799999, 34.540754944 ], [ 133.625223833, 34.540797306 ], [ 133.62523452799999, 34.540821833 ], [ 133.625261110999986, 34.54085925 ], [ 133.625288332999986, 34.540895139 ], [ 133.625318722, 34.540928 ], [ 133.625329083, 34.540936444 ], [ 133.62537194399999, 34.54098075 ], [ 133.625378833000013, 34.541004556 ], [ 133.625385583, 34.541024472 ], [ 133.625411582999988, 34.541084306 ], [ 133.62544465900001, 34.541222444 ], [ 133.625459260000014, 34.541354457 ], [ 133.625462696, 34.54143275 ], [ 133.62557034299999, 34.541405981 ], [ 133.625817622999989, 34.541351509 ], [ 133.62627677399999, 34.541275157 ], [ 133.626871988, 34.541193627 ], [ 133.627238045000013, 34.541154002 ], [ 133.627546367, 34.541124478 ], [ 133.628258437, 34.541071941 ], [ 133.62881389, 34.54100508 ], [ 133.62921236, 34.540967127 ], [ 133.629627081, 34.540924794 ], [ 133.629616911999989, 34.540848705 ], [ 133.629586631, 34.540827801 ], [ 133.629505045, 34.540767385 ], [ 133.629499678, 34.540624494 ], [ 133.62940480200001, 34.540626456 ], [ 133.62871746799999, 34.54050609 ], [ 133.628608989000014, 34.540460743 ], [ 133.628452638999988, 34.540468694 ], [ 133.628024278, 34.540378722 ], [ 133.62786075599999, 34.540375682 ], [ 133.627698364, 34.540405305 ], [ 133.62754519399999, 34.540409637 ], [ 133.627339068999987, 34.540391302 ], [ 133.62731226, 34.540259212 ], [ 133.62720864100001, 34.540271046 ], [ 133.627195558000011, 34.540113692 ], [ 133.627142289, 34.539906402 ], [ 133.627119517000011, 34.539616312 ], [ 133.62715676799999, 34.538231148 ], [ 133.627238137, 34.538174844 ], [ 133.62725838899999, 34.538104708 ], [ 133.627331465999987, 34.537984376 ], [ 133.627374258, 34.537959043 ], [ 133.627375583, 34.537872444 ], [ 133.62737976299999, 34.537811724 ], [ 133.627347463, 34.537796629 ], [ 133.627369703, 34.537722964 ], [ 133.62734214, 34.537680317 ], [ 133.627371353, 34.537634271 ], [ 133.627551289, 34.537126206 ], [ 133.627574138, 34.537130735 ], [ 133.627601645999988, 34.537136187 ], [ 133.62764964199999, 34.537105904 ], [ 133.627679913, 34.537005028 ], [ 133.627717299000011, 34.53688044 ], [ 133.627758836999988, 34.536761416 ], [ 133.627791394000013, 34.536728753 ], [ 133.627826061, 34.536693974 ], [ 133.627856666000014, 34.536595591 ], [ 133.627874206, 34.53653921 ], [ 133.627858886000013, 34.536433275 ], [ 133.627878347, 34.536368538 ], [ 133.627918432, 34.53634292 ], [ 133.62796619299999, 34.536312395 ], [ 133.628041165000013, 34.536287485 ], [ 133.62805336400001, 34.536229415 ], [ 133.62798742699999, 34.536217441 ], [ 133.627474541, 34.536124309 ], [ 133.627430105, 34.53611624 ], [ 133.627400157000011, 34.536249493 ], [ 133.627402192, 34.536328517 ], [ 133.62740133, 34.536430631 ], [ 133.627391663, 34.536522072 ], [ 133.627145453999987, 34.537091622 ], [ 133.626904508, 34.5376776 ], [ 133.626755366999987, 34.538058379 ], [ 133.626758416, 34.538123992 ], [ 133.626743513, 34.538182046 ], [ 133.626760848, 34.538689015 ], [ 133.626742481, 34.539157017 ], [ 133.6267158, 34.539329795 ], [ 133.62679614000001, 34.539589975 ], [ 133.626738652, 34.539610195 ], [ 133.62677068799999, 34.540082961 ], [ 133.626808694, 34.540279047 ], [ 133.626824204, 34.540359067 ], [ 133.626672829, 34.540364154 ], [ 133.626273755, 34.540473653 ], [ 133.625948744, 34.540559728 ], [ 133.625821996000013, 34.540635024 ], [ 133.625616556000011, 34.5406645 ], [ 133.625610943999988, 34.540663694 ], [ 133.62553802799999, 34.54066075 ], [ 133.62551872200001, 34.540659139 ], [ 133.625509806, 34.540656861 ], [ 133.62549666699999, 34.540650778 ], [ 133.625494889, 34.540649361 ], [ 133.625493471999988, 34.540645583 ], [ 133.625485722, 34.5406305 ], [ 133.62548472200001, 34.540627889 ], [ 133.62547552800001, 34.540592861 ], [ 133.625459861, 34.540526028 ], [ 133.625534471, 34.54045745 ], [ 133.625557041, 34.540436704 ], [ 133.625557238999988, 34.540413296 ], [ 133.62555792500001, 34.540332354 ], [ 133.625553378, 34.540230954 ], [ 133.62553011, 34.540212929 ], [ 133.625501113000013, 34.540020449 ], [ 133.625605181, 34.539990681 ], [ 133.625679901000012, 34.539969308 ], [ 133.625685806, 34.539904443 ], [ 133.62570770799999, 34.539663857 ], [ 133.625711553, 34.539422372 ], [ 133.625797205, 34.539406053 ], [ 133.625893803, 34.539387648 ], [ 133.626004575, 34.539283935 ], [ 133.626004907, 34.539244757 ], [ 133.62600534399999, 34.539193001 ], [ 133.626002371999988, 34.539118444 ], [ 133.62609862, 34.538814881 ], [ 133.626201025, 34.538342375 ], [ 133.626212806000012, 34.538288015 ], [ 133.62604891699999, 34.538295 ], [ 133.6260585, 34.538241236 ], [ 133.626075582999988, 34.538145389 ], [ 133.626179056000012, 34.537622444 ], [ 133.626188528, 34.537547833 ], [ 133.62620425, 34.537404306 ], [ 133.62621694399999, 34.5372925 ], [ 133.62621452799999, 34.53726675 ], [ 133.62621038899999, 34.537256944 ], [ 133.626144869, 34.537218041 ], [ 133.625728606, 34.537189989 ], [ 133.62586552799999, 34.536904472 ], [ 133.625893667000014, 34.536839417 ], [ 133.625906972, 34.536790333 ], [ 133.625913583, 34.536760222 ], [ 133.625924778000012, 34.536697278 ], [ 133.625928832999989, 34.536636417 ], [ 133.62592913899999, 34.536588 ], [ 133.625925943999988, 34.536571528 ], [ 133.625932291999987, 34.536556093 ], [ 133.625876962, 34.536480509 ], [ 133.62581395699999, 34.536474927 ], [ 133.625674557, 34.536449521 ], [ 133.625493844, 34.536409713 ], [ 133.62540575, 34.536738778 ], [ 133.625399722, 34.536765556 ], [ 133.625363166999989, 34.536923639 ], [ 133.625310611, 34.537169972 ], [ 133.625256111, 34.537425556 ], [ 133.625204528000012, 34.537673972 ], [ 133.625081583, 34.538266222 ], [ 133.625031044, 34.538621599 ], [ 133.625026517, 34.538730266 ], [ 133.625023129, 34.538811629 ], [ 133.62478326199999, 34.538814329 ], [ 133.624800943999986, 34.539116361 ], [ 133.624837444, 34.539938806 ], [ 133.624846631999986, 34.540146033 ], [ 133.624886647000011, 34.540197897 ] ] ] } },
{ "type": "Feature", "properties": { "A29_001": "33216", "A29_002": "岡山県", "A29_003": "浅口市", "A29_004": 8, "A29_005": "近隣商業地域", "A29_006": 80, "A29_007": 200, "A29_008": null }, "geometry": { "type": "Polygon", "coordinates": [ [ [ 133.625197250000014, 34.540661444 ], [ 133.62518872199999, 34.540570944 ], [ 133.62519011099999, 34.540541806 ], [ 133.625196639, 34.540507333 ], [ 133.62521075, 34.540432889 ], [ 133.625231713, 34.540241015 ], [ 133.624886647000011, 34.540197897 ], [ 133.624846631999986, 34.540146033 ], [ 133.624837444, 34.539938806 ], [ 133.624800943999986, 34.539116361 ], [ 133.62478326199999, 34.538814329 ], [ 133.625023129, 34.538811629 ], [ 133.625026517, 34.538730266 ], [ 133.625031044, 34.538621599 ], [ 133.625081583, 34.538266222 ], [ 133.625204528000012, 34.537673972 ], [ 133.625256111, 34.537425556 ], [ 133.625310611, 34.537169972 ], [ 133.625363166999989, 34.536923639 ], [ 133.625399722, 34.536765556 ], [ 133.62540575, 34.536738778 ], [ 133.625493844, 34.536409713 ], [ 133.625531763999987, 34.536320025 ], [ 133.62557876, 34.53606136 ], [ 133.625629737999986, 34.535807457 ], [ 133.624297968, 34.53563552 ], [ 133.62410827, 34.53612668 ], [ 133.62392519, 34.53681432 ], [ 133.623752407000012, 34.537270506 ], [ 133.623683183999987, 34.537384617 ], [ 133.623657425, 34.537660264 ], [ 133.623696897, 34.537891565 ], [ 133.623677249999986, 34.538021778 ], [ 133.62356309099999, 34.538798679 ], [ 133.62346850599999, 34.539542033 ], [ 133.623374417, 34.540394222 ], [ 133.623326047, 34.540554734 ], [ 133.623304194000013, 34.54062725 ], [ 133.62313257299999, 34.540604763 ], [ 133.623070974, 34.540596692 ], [ 133.623070468, 34.54065632 ], [ 133.623091453, 34.540730982 ], [ 133.62328547199999, 34.540781083 ], [ 133.623360714, 34.540845848 ], [ 133.62389825599999, 34.541076908 ], [ 133.624265753, 34.541224585 ], [ 133.624620209999989, 34.541354815 ], [ 133.624757343999988, 34.541380806 ], [ 133.624985348, 34.541424019 ], [ 133.62520322899999, 34.541437209 ], [ 133.625462696, 34.54143275 ], [ 133.625459260000014, 34.541354457 ], [ 133.62544465900001, 34.541222444 ], [ 133.625411582999988, 34.541084306 ], [ 133.625385583, 34.541024472 ], [ 133.625378833000013, 34.541004556 ], [ 133.62537194399999, 34.54098075 ], [ 133.625329083, 34.540936444 ], [ 133.625318722, 34.540928 ], [ 133.625288332999986, 34.540895139 ], [ 133.625261110999986, 34.54085925 ], [ 133.62523452799999, 34.540821833 ], [ 133.625223833, 34.540797306 ], [ 133.62521252799999, 34.540754944 ], [ 133.625197250000014, 34.540661444 ] ] ] } },
{ "type": "Feature", "properties": { "A29_001": "33216", "A29_002": "岡山県", "A29_003": "浅口市", "A29_004": 3, "A29_005": "第一種中高層住居専用地域", "A29_006": 60, "A29_007": 200, "A29_008": null }, "geometry": { "type": "Polygon", "coordinates": [ [ [ 133.614233965000011, 34.540196873 ], [ 133.614029872, 34.540083648 ], [ 133.613775051, 34.53995048 ], [ 133.61345118599999, 34.539801639 ], [ 133.613113454, 34.539656531 ], [ 133.612444763000013, 34.539383528 ], [ 133.612443071, 34.539847213 ], [ 133.612469804, 34.539956139 ], [ 133.612472020000013, 34.540769051 ], [ 133.612487256, 34.540874093 ], [ 133.612498538000011, 34.541145218 ], [ 133.612496642, 34.541365098 ], [ 133.61246725699999, 34.541480947 ], [ 133.612475687999989, 34.541496909 ], [ 133.612515276000011, 34.54150236 ], [ 133.61263958, 34.541503094 ], [ 133.613390169000013, 34.541476961 ], [ 133.614297463000014, 34.541454727 ], [ 133.61479395, 34.541437524 ], [ 133.614782416999986, 34.541260722 ], [ 133.614794194000012, 34.541086111 ], [ 133.614810111, 34.540778028 ], [ 133.614844182000013, 34.540676026 ], [ 133.61486876699999, 34.540540509 ], [ 133.614874992000011, 34.540445135 ], [ 133.614818062000012, 34.540361316 ], [ 133.61469589399999, 34.540321837 ], [ 133.614536157, 34.540289639 ], [ 133.61436652399999, 34.540246093 ], [ 133.614233965000011, 34.540196873 ] ] ] } },
{ "type": "Feature", "properties": { "A29_001": "33216", "A29_002": "岡山県", "A29_003": "浅口市", "A29_004": 8, "A29_005": "近隣商業地域", "A29_006": 80, "A29_007": 200, "A29_008": null }, "geometry": { "type": "Polygon", "coordinates": [ [ [ 133.623406389, 34.541720167 ], [ 133.623409863, 34.541699054 ], [ 133.62217766399999, 34.541398755 ], [ 133.619779139, 34.540836152 ], [ 133.618752462, 34.540599077 ], [ 133.618312029, 34.540487671 ], [ 133.618063756, 34.540447456 ], [ 133.61792905199999, 34.540398962 ], [ 133.617124612999987, 34.54019299 ], [ 133.616721926, 34.540092235 ], [ 133.616660739, 34.540084422 ], [ 133.616529410999988, 34.540062781 ], [ 133.616100152, 34.539976983 ], [ 133.616099600000013, 34.54004106 ], [ 133.6160921, 34.54035772 ], [ 133.616095718999986, 34.540426223 ], [ 133.616198806, 34.540484969 ], [ 133.616272736000013, 34.540582304 ], [ 133.616301228, 34.540621232 ], [ 133.616378462, 34.54064852 ], [ 133.616451051000013, 34.540692179 ], [ 133.616516440999987, 34.54073505 ], [ 133.616637505, 34.540903474 ], [ 133.616787348, 34.541041968 ], [ 133.616860814, 34.541439233 ], [ 133.616932281, 34.541719175 ], [ 133.61745965099999, 34.541777427 ], [ 133.617489893999988, 34.541822328 ], [ 133.617812199000014, 34.541843597 ], [ 133.617811995000011, 34.541867448 ], [ 133.617948872, 34.541872723 ], [ 133.617948617, 34.541902537 ], [ 133.619162644999989, 34.542034466 ], [ 133.619032800000014, 34.54247815 ], [ 133.618989884, 34.542542218 ], [ 133.619167148, 34.542586428 ], [ 133.61889471, 34.54312856 ], [ 133.618860151, 34.543176535 ], [ 133.61886147199999, 34.543244667 ], [ 133.619058411999987, 34.54327509 ], [ 133.619286, 34.543304611 ], [ 133.619391138999987, 34.543299917 ], [ 133.619525556000013, 34.543323639 ], [ 133.619601444000011, 34.543337222 ], [ 133.619630306, 34.543342389 ], [ 133.619709833, 34.543360556 ], [ 133.61979852799999, 34.54338875 ], [ 133.619989944, 34.543476194 ], [ 133.62001997199999, 34.543489917 ], [ 133.620118056, 34.543569472 ], [ 133.620197194000013, 34.543619 ], [ 133.620316444, 34.543678972 ], [ 133.620409306, 34.543745972 ], [ 133.620466916999987, 34.543798694 ], [ 133.620617556000013, 34.5438995 ], [ 133.62081225, 34.543982917 ], [ 133.620863944, 34.544028778 ], [ 133.620871271999988, 34.544069342 ], [ 133.620893043, 34.544051579 ], [ 133.62093585, 34.5440172 ], [ 133.621028028000012, 34.543962174 ], [ 133.621041641, 34.543925718 ], [ 133.62107733, 34.54390431 ], [ 133.62115953899999, 34.543838253 ], [ 133.621188444000012, 34.543830056 ], [ 133.621272083, 34.543777889 ], [ 133.621334778, 34.543735139 ], [ 133.621385083, 34.543700778 ], [ 133.62145022199999, 34.543657472 ], [ 133.62219395299999, 34.543772931 ], [ 133.62219507, 34.54385344 ], [ 133.622229083, 34.543849056 ], [ 133.622332277999988, 34.543858056 ], [ 133.622495611, 34.543870333 ], [ 133.622630361, 34.54387725 ], [ 133.62279988899999, 34.543890028 ], [ 133.622848389000012, 34.543881167 ], [ 133.622884306, 34.543867694 ], [ 133.622893115000011, 34.543814154 ], [ 133.622946759, 34.5434881 ], [ 133.622987778, 34.543253917 ], [ 133.623008806, 34.5431605 ], [ 133.623080611, 34.542881472 ], [ 133.623123, 34.542716806 ], [ 133.62319161100001, 34.542450333 ], [ 133.623280528, 34.542104861 ], [ 133.623406389, 34.541720167 ] ] ] } },
{ "type": "Feature", "properties": { "A29_001": "33216", "A29_002": "岡山県", "A29_003": "浅口市", "A29_004": 3, "A29_005": "第一種中高層住居専用地域", "A29_006": 60, "A29_007": 200, "A29_008": null }, "geometry": { "type": "Polygon", "coordinates": [ [ [ 133.617724743999986, 34.542821781 ], [ 133.617712944, 34.542803028 ], [ 133.617721722, 34.542699917 ], [ 133.617745861, 34.542414778 ], [ 133.617763964, 34.54223049 ], [ 133.61759683, 34.542220995 ], [ 133.617314271999987, 34.542186541 ], [ 133.61675254299999, 34.542142995 ], [ 133.61623046, 34.542098188 ], [ 133.61615211099999, 34.542110833 ], [ 133.615751417000013, 34.542121833 ], [ 133.614967328, 34.54212207 ], [ 133.614129571, 34.542123102 ], [ 133.61369899499999, 34.542122056 ], [ 133.61297283, 34.542135664 ], [ 133.612468444, 34.542128215 ], [ 133.612465511000011, 34.54208743 ], [ 133.61244753, 34.541837388 ], [ 133.612423374, 34.541778039 ], [ 133.612330882, 34.541784521 ], [ 133.61131811199999, 34.541815807 ], [ 133.611288374, 34.541817122 ], [ 133.611205595, 34.541806197 ], [ 133.611091958, 34.541821924 ], [ 133.611037694, 34.541846946 ], [ 133.610729623, 34.541846614 ], [ 133.610504569999989, 34.541842262 ], [ 133.610531259999988, 34.54185485 ], [ 133.61066294, 34.54195349 ], [ 133.61074531, 34.54202934 ], [ 133.61079761100001, 34.542088363 ], [ 133.610866144, 34.542150773 ], [ 133.610910604999987, 34.542286539 ], [ 133.610942392999988, 34.542361722 ], [ 133.610980164000011, 34.542408104 ], [ 133.611032001000012, 34.542466611 ], [ 133.611087773, 34.54250986 ], [ 133.611129105, 34.542563773 ], [ 133.61115676, 34.54264534 ], [ 133.611154089, 34.542674836 ], [ 133.61118292399999, 34.542673814 ], [ 133.61122193, 34.54268143 ], [ 133.611306035000013, 34.542771145 ], [ 133.61122096, 34.54310935 ], [ 133.611213846, 34.543265542 ], [ 133.61120460399999, 34.543379514 ], [ 133.61121648400001, 34.543482734 ], [ 133.611228947, 34.54356391 ], [ 133.611267098000013, 34.543608143 ], [ 133.61126844099999, 34.543708068 ], [ 133.611148418, 34.543837057 ], [ 133.611137184, 34.543886187 ], [ 133.611011292, 34.544068809 ], [ 133.610977776, 34.544194582 ], [ 133.6109568, 34.544224274 ], [ 133.61093652, 34.544277822 ], [ 133.610868439, 34.544337796 ], [ 133.61075965500001, 34.54444777 ], [ 133.61073575899999, 34.544471927 ], [ 133.610817569, 34.544491046 ], [ 133.61088702, 34.544481022 ], [ 133.611249186, 34.544477201 ], [ 133.611422287000011, 34.544483925 ], [ 133.611505889999989, 34.544516621 ], [ 133.611589689999988, 34.54456692 ], [ 133.61167005199999, 34.54463423 ], [ 133.61176202499999, 34.544650162 ], [ 133.61173999499999, 34.544704912 ], [ 133.611830242, 34.544711028 ], [ 133.611883881000011, 34.544708483 ], [ 133.611936743, 34.544695915 ], [ 133.611986120000012, 34.544686189 ], [ 133.61203093899999, 34.544703627 ], [ 133.61209057, 34.544708273 ], [ 133.61227779399999, 34.544591973 ], [ 133.612316098, 34.544582528 ], [ 133.612350948, 34.544599611 ], [ 133.612365305999987, 34.544583167 ], [ 133.61235991, 34.54456317 ], [ 133.61238967, 34.54410881 ], [ 133.61235825, 34.544093361 ], [ 133.612342438000013, 34.544004358 ], [ 133.612332264, 34.543827331 ], [ 133.61232639, 34.543718493 ], [ 133.612317778, 34.543647472 ], [ 133.61226672, 34.543583643 ], [ 133.612249708, 34.543564336 ], [ 133.612203991, 34.543545883 ], [ 133.61209273899999, 34.543493794 ], [ 133.61197127, 34.543477423 ], [ 133.61201699, 34.543458068 ], [ 133.612080668, 34.54343111 ], [ 133.612125816, 34.543418705 ], [ 133.61218539399999, 34.543420363 ], [ 133.612261278, 34.543331556 ], [ 133.612354583000013, 34.543218028 ], [ 133.612405139, 34.543162472 ], [ 133.612458167, 34.543051667 ], [ 133.612532969, 34.542914955 ], [ 133.61256906599999, 34.542885944 ], [ 133.61259934200001, 34.54288493 ], [ 133.61265297, 34.542904595 ], [ 133.61279761, 34.542982145 ], [ 133.6129784, 34.54305444 ], [ 133.61324361199999, 34.543189035 ], [ 133.613256694, 34.543198194 ], [ 133.613513611, 34.543332417 ], [ 133.613576333, 34.543362694 ], [ 133.613825889, 34.543483111 ], [ 133.61395719399999, 34.5435425 ], [ 133.614471611, 34.543767417 ], [ 133.614621139, 34.543827722 ], [ 133.614702333, 34.543863806 ], [ 133.614766889, 34.543891583 ], [ 133.614889506, 34.5439607 ], [ 133.614928819999989, 34.54408611 ], [ 133.61496155, 34.54418019 ], [ 133.614973080999988, 34.544237051 ], [ 133.614988770999986, 34.544256226 ], [ 133.615087346, 34.544358179 ], [ 133.615131861, 34.544377523 ], [ 133.61518057699999, 34.544411204 ], [ 133.615359966, 34.544501706 ], [ 133.615457858000013, 34.544542732 ], [ 133.61549688, 34.544549206 ], [ 133.615516608, 34.544559757 ], [ 133.61588895700001, 34.544629031 ], [ 133.61635504, 34.544692891 ], [ 133.616692368, 34.544755374 ], [ 133.616654024000013, 34.544789497 ], [ 133.616578032, 34.544837608 ], [ 133.616459397999989, 34.544895692 ], [ 133.616363830000012, 34.54498852 ], [ 133.6163352, 34.54497381 ], [ 133.61617827, 34.54511892 ], [ 133.61602165, 34.54531965 ], [ 133.615992299999988, 34.54539089 ], [ 133.61597742, 34.54545031 ], [ 133.61597852, 34.54550718 ], [ 133.615982769999988, 34.54557067 ], [ 133.615939020000013, 34.54564513 ], [ 133.615911110000013, 34.54573356 ], [ 133.61590883, 34.54581421 ], [ 133.61578688, 34.54606805 ], [ 133.61573741, 34.54606511 ], [ 133.615685719999988, 34.54613357 ], [ 133.615633620000011, 34.54624962 ], [ 133.615544230000012, 34.54652613 ], [ 133.615546247, 34.54656355 ], [ 133.616047439, 34.546736445 ], [ 133.61609288299999, 34.546715207 ], [ 133.616093861, 34.54671475 ], [ 133.616176389, 34.546666667 ], [ 133.616274722000014, 34.546613972 ], [ 133.616372861, 34.546547222 ], [ 133.616502306, 34.546466778 ], [ 133.61663061199999, 34.546388029 ], [ 133.61666474899999, 34.546366109 ], [ 133.616666667, 34.546364556 ], [ 133.616764194000012, 34.546285444 ], [ 133.616785611000012, 34.5462665 ], [ 133.616801028, 34.546250611 ], [ 133.61684522199999, 34.5461865 ], [ 133.61688989000001, 34.546125678 ], [ 133.616924111, 34.546079083 ], [ 133.617121110999989, 34.546130833 ], [ 133.617138194, 34.546136972 ], [ 133.61722607199999, 34.546331533 ], [ 133.617279673000013, 34.546384025 ], [ 133.617322707999989, 34.54640813 ], [ 133.617463042, 34.546431314 ], [ 133.61773356399999, 34.546400103 ], [ 133.617764, 34.546422643 ], [ 133.61779999399999, 34.546427326 ], [ 133.617850529, 34.546417187 ], [ 133.617958332, 34.546452107 ], [ 133.618088730000011, 34.546452376 ], [ 133.618079757, 34.546579535 ], [ 133.61814013899999, 34.5465805 ], [ 133.618141806000011, 34.546697671 ], [ 133.618247758, 34.546738542 ], [ 133.61839172099999, 34.546758766 ], [ 133.618580828, 34.546767327 ], [ 133.618660010000013, 34.546778226 ], [ 133.618709881, 34.546845603 ], [ 133.61868439599999, 34.547086961 ], [ 133.618646500000011, 34.547297972 ], [ 133.618919311000013, 34.547638437 ], [ 133.619341576000011, 34.547772096 ], [ 133.619712075, 34.547904039 ], [ 133.619702178000011, 34.547953098 ], [ 133.619963654, 34.548137993 ], [ 133.620139681000012, 34.548201635 ], [ 133.62027648, 34.548217341 ], [ 133.620436877, 34.548212315 ], [ 133.62049968, 34.5481694 ], [ 133.62060383, 34.54812902 ], [ 133.620746630000014, 34.54804919 ], [ 133.620958325, 34.54792155 ], [ 133.62097561600001, 34.547893076 ], [ 133.62107819, 34.547801991 ], [ 133.621126347, 34.547647976 ], [ 133.62115456399999, 34.547613852 ], [ 133.621208379, 34.547595779 ], [ 133.621445177, 34.547603993 ], [ 133.62154697599999, 34.547603841 ], [ 133.621637864, 34.547615552 ], [ 133.621745549, 34.54766463 ], [ 133.621841173, 34.547702085 ], [ 133.621886614, 34.547637644 ], [ 133.622067316, 34.547381392 ], [ 133.622091625, 34.547277178 ], [ 133.622043792999989, 34.547181489 ], [ 133.62200111199999, 34.547115646 ], [ 133.622029899000012, 34.546908594 ], [ 133.62209411, 34.546773307 ], [ 133.62216031299999, 34.546615669 ], [ 133.622305075000014, 34.54633028 ], [ 133.622408216, 34.546172112 ], [ 133.62244919599999, 34.546120173 ], [ 133.622466457, 34.546103129 ], [ 133.622490271, 34.546057054 ], [ 133.622578999000012, 34.545898801 ], [ 133.62260163900001, 34.545812417 ], [ 133.622645583, 34.545637694 ], [ 133.622677528, 34.545501556 ], [ 133.622280415, 34.545416656 ], [ 133.622356163, 34.545195715 ], [ 133.621731278999988, 34.545372461 ], [ 133.621624922, 34.545379295 ], [ 133.621581889, 34.545391222 ], [ 133.62145240699999, 34.545326857 ], [ 133.62124596699999, 34.545238442 ], [ 133.620957295000011, 34.545180108 ], [ 133.620608467000011, 34.545098316 ], [ 133.620607035, 34.545067034 ], [ 133.619754483, 34.544886108 ], [ 133.61957072199999, 34.544885034 ], [ 133.619196784, 34.544790419 ], [ 133.618686053, 34.544680094 ], [ 133.618424401999988, 34.544622658 ], [ 133.61825700899999, 34.544603788 ], [ 133.61808870199999, 34.544586404 ], [ 133.618074876, 34.544517747 ], [ 133.61810248, 34.54445413 ], [ 133.618342821, 34.544076589 ], [ 133.617236827999989, 34.543603454 ], [ 133.617195213, 34.543624081 ], [ 133.617173314000013, 34.54365675 ], [ 133.616898494, 34.543559727 ], [ 133.61692732, 34.54349707 ], [ 133.617097083, 34.543102845 ], [ 133.617611074, 34.543240405 ], [ 133.617644539999986, 34.54319612 ], [ 133.617774268, 34.542858358 ], [ 133.617762389, 34.542854806 ], [ 133.617724743999986, 34.542821781 ] ] ] } },
{ "type": "Feature", "properties": { "A29_001": "33216", "A29_002": "岡山県", "A29_003": "浅口市", "A29_004": 6, "A29_005": "第二種住居地域", "A29_006": 60, "A29_007": 200, "A29_008": null }, "geometry": { "type": "Polygon", "coordinates": [ [ [ 133.627108187, 34.546676439 ], [ 133.627411711, 34.545937272 ], [ 133.627452882, 34.545755634 ], [ 133.6276746, 34.545315642 ], [ 133.62771877099999, 34.545306775 ], [ 133.627770625000011, 34.545296366 ], [ 133.62833307299999, 34.545534119 ], [ 133.628501089, 34.545586521 ], [ 133.628686863000013, 34.545669587 ], [ 133.62883426799999, 34.545709198 ], [ 133.62884844199999, 34.545707815 ], [ 133.628863636, 34.545706332 ], [ 133.628906395, 34.54570216 ], [ 133.629242619, 34.545677265 ], [ 133.629249028, 34.545659222 ], [ 133.629254992999989, 34.545593679 ], [ 133.629266277999989, 34.545469694 ], [ 133.62927155599999, 34.545441556 ], [ 133.629275639000014, 34.545346194 ], [ 133.629280111000014, 34.545312472 ], [ 133.62928775, 34.545274472 ], [ 133.62929025, 34.545265444 ], [ 133.629301972, 34.545231861 ], [ 133.629321889000011, 34.545166861 ], [ 133.629332556, 34.545127861 ], [ 133.62935030599999, 34.545072167 ], [ 133.629364278, 34.545015944 ], [ 133.629371, 34.544977361 ], [ 133.62936033299999, 34.544955222 ], [ 133.62936188899999, 34.544946611 ], [ 133.629366694, 34.544917583 ], [ 133.629375361, 34.544862278 ], [ 133.629402139, 34.544722194 ], [ 133.629410611, 34.544669972 ], [ 133.629414472, 34.544637167 ], [ 133.629416278, 34.544609028 ], [ 133.629417278, 34.54458975 ], [ 133.62941733299999, 34.544584083 ], [ 133.62940975, 34.544482472 ], [ 133.629403806, 34.544410722 ], [ 133.629401389, 34.544342889 ], [ 133.629275151, 34.544167656 ], [ 133.629384982, 34.544072395 ], [ 133.629503972, 34.543991667 ], [ 133.629503289000013, 34.543976095 ], [ 133.629500833, 34.543920083 ], [ 133.629499667, 34.543901611 ], [ 133.629497694, 34.543894056 ], [ 133.62949658299999, 34.543881667 ], [ 133.629494056, 34.543861639 ], [ 133.629492, 34.543803083 ], [ 133.629488611, 34.543728444 ], [ 133.629487111, 34.543635972 ], [ 133.629488444, 34.543554722 ], [ 133.629491417, 34.543500639 ], [ 133.6295135, 34.543293694 ], [ 133.62953017699999, 34.543140108 ], [ 133.629406096999986, 34.543112559 ], [ 133.629312918000011, 34.54305239 ], [ 133.62917985499999, 34.543021807 ], [ 133.629298782, 34.542591655 ], [ 133.629384296000012, 34.542584139 ], [ 133.630604119, 34.542476929 ], [ 133.631315194, 34.542401861 ], [ 133.631320751, 34.542309173 ], [ 133.631322869, 34.542273843 ], [ 133.63144389199999, 34.542256074 ], [ 133.631557367999989, 34.542239412 ], [ 133.63166933799999, 34.542207258 ], [ 133.631920387, 34.54213267 ], [ 133.63206877499999, 34.542054511 ], [ 133.63213386000001, 34.541964731 ], [ 133.63213982799999, 34.541961001 ], [ 133.631990738000013, 34.541901896 ], [ 133.63190788899999, 34.541958176 ], [ 133.631666623, 34.541725717 ], [ 133.631763490999987, 34.541560796 ], [ 133.63179473, 34.541487927 ], [ 133.631838327999986, 34.541230271 ], [ 133.631826588, 34.541115766 ], [ 133.63055882099999, 34.541275091 ], [ 133.629053322, 34.541414006 ], [ 133.62829813799999, 34.54145139 ], [ 133.627794964, 34.541514079 ], [ 133.627540976, 34.541509629 ], [ 133.627365802000014, 34.541559304 ], [ 133.627315509999988, 34.541541123 ], [ 133.627210015, 34.541553185 ], [ 133.627137413000014, 34.541616869 ], [ 133.626753868, 34.541593779 ], [ 133.626505562, 34.541556563 ], [ 133.626359602, 34.541560191 ], [ 133.625542419999988, 34.541685156 ], [ 133.625070411, 34.54168391 ], [ 133.624443657, 34.541569877 ], [ 133.62441024200001, 34.541563797 ], [ 133.624317897, 34.541793893 ], [ 133.624273103, 34.541908119 ], [ 133.62391980699999, 34.541823328 ], [ 133.623439198999989, 34.541706203 ], [ 133.623409863, 34.541699054 ], [ 133.623406389, 34.541720167 ], [ 133.623280528, 34.542104861 ], [ 133.62319161100001, 34.542450333 ], [ 133.623123, 34.542716806 ], [ 133.623080611, 34.542881472 ], [ 133.623008806, 34.5431605 ], [ 133.622987778, 34.543253917 ], [ 133.622946759, 34.5434881 ], [ 133.622893115000011, 34.543814154 ], [ 133.622884306, 34.543867694 ], [ 133.622848389000012, 34.543881167 ], [ 133.62279988899999, 34.543890028 ], [ 133.622630361, 34.54387725 ], [ 133.622495611, 34.543870333 ], [ 133.622332277999988, 34.543858056 ], [ 133.622229083, 34.543849056 ], [ 133.62219507, 34.54385344 ], [ 133.62219395299999, 34.543772931 ], [ 133.62145022199999, 34.543657472 ], [ 133.621385083, 34.543700778 ], [ 133.621334778, 34.543735139 ], [ 133.621272083, 34.543777889 ], [ 133.621188444000012, 34.543830056 ], [ 133.62115953899999, 34.543838253 ], [ 133.62107733, 34.54390431 ], [ 133.621041641, 34.543925718 ], [ 133.621028028000012, 34.543962174 ], [ 133.62093585, 34.5440172 ], [ 133.620893043, 34.544051579 ], [ 133.620871271999988, 34.544069342 ], [ 133.620863944, 34.544028778 ], [ 133.62081225, 34.543982917 ], [ 133.620617556000013, 34.5438995 ], [ 133.620466916999987, 34.543798694 ], [ 133.620409306, 34.543745972 ], [ 133.620316444, 34.543678972 ], [ 133.620197194000013, 34.543619 ], [ 133.620118056, 34.543569472 ], [ 133.62001997199999, 34.543489917 ], [ 133.619989944, 34.543476194 ], [ 133.61979852799999, 34.54338875 ], [ 133.619709833, 34.543360556 ], [ 133.619630306, 34.543342389 ], [ 133.619601444000011, 34.543337222 ], [ 133.619525556000013, 34.543323639 ], [ 133.619391138999987, 34.543299917 ], [ 133.619286, 34.543304611 ], [ 133.619058411999987, 34.54327509 ], [ 133.61886147199999, 34.543244667 ], [ 133.618860151, 34.543176535 ], [ 133.61889471, 34.54312856 ], [ 133.619167148, 34.542586428 ], [ 133.618989884, 34.542542218 ], [ 133.619032800000014, 34.54247815 ], [ 133.619162644999989, 34.542034466 ], [ 133.617948617, 34.541902537 ], [ 133.617948872, 34.541872723 ], [ 133.617811995000011, 34.541867448 ], [ 133.617812199000014, 34.541843597 ], [ 133.617489893999988, 34.541822328 ], [ 133.61745965099999, 34.541777427 ], [ 133.616932281, 34.541719175 ], [ 133.616860814, 34.541439233 ], [ 133.616787348, 34.541041968 ], [ 133.616637505, 34.540903474 ], [ 133.616516440999987, 34.54073505 ], [ 133.616451051000013, 34.540692179 ], [ 133.616378462, 34.54064852 ], [ 133.616301228, 34.540621232 ], [ 133.616272736000013, 34.540582304 ], [ 133.616198806, 34.540484969 ], [ 133.616095718999986, 34.540426223 ], [ 133.6160921, 34.54035772 ], [ 133.616099600000013, 34.54004106 ], [ 133.616100152, 34.539976983 ], [ 133.616022238999989, 34.53996141 ], [ 133.615700492, 34.539876036 ], [ 133.614901339999989, 34.539684988 ], [ 133.61452191, 34.539603743 ], [ 133.614427635, 34.539568155 ], [ 133.614423464999987, 34.539738826 ], [ 133.614393885, 34.539826608 ], [ 133.614384769, 34.539886766 ], [ 133.614381471, 34.539908528 ], [ 133.614416092999988, 34.539967618 ], [ 133.614475343, 34.539991074 ], [ 133.614542997, 34.540018953 ], [ 133.614557921999989, 34.540025103 ], [ 133.614527422, 34.540242998 ], [ 133.614536157, 34.540289639 ], [ 133.61469589399999, 34.540321837 ], [ 133.614818062000012, 34.540361316 ], [ 133.614874992000011, 34.540445135 ], [ 133.61486876699999, 34.540540509 ], [ 133.614844182000013, 34.540676026 ], [ 133.614810111, 34.540778028 ], [ 133.614794194000012, 34.541086111 ], [ 133.614782416999986, 34.541260722 ], [ 133.61479395, 34.541437524 ], [ 133.614297463000014, 34.541454727 ], [ 133.613390169000013, 34.541476961 ], [ 133.61263958, 34.541503094 ], [ 133.612515276000011, 34.54150236 ], [ 133.612475687999989, 34.541496909 ], [ 133.612462743, 34.541535593 ], [ 133.61245794199999, 34.541703457 ], [ 133.612457584999987, 34.541715948 ], [ 133.61250230499999, 34.541760645 ], [ 133.612497631, 34.541772834 ], [ 133.612423374, 34.541778039 ], [ 133.61244753, 34.541837388 ], [ 133.612465511000011, 34.54208743 ], [ 133.612468444, 34.542128215 ], [ 133.61297283, 34.542135664 ], [ 133.61369899499999, 34.542122056 ], [ 133.614129571, 34.542123102 ], [ 133.614967328, 34.54212207 ], [ 133.615751417000013, 34.542121833 ], [ 133.61615211099999, 34.542110833 ], [ 133.61623046, 34.542098188 ], [ 133.61675254299999, 34.542142995 ], [ 133.617314271999987, 34.542186541 ], [ 133.61759683, 34.542220995 ], [ 133.617763964, 34.54223049 ], [ 133.617745861, 34.542414778 ], [ 133.617721722, 34.542699917 ], [ 133.617712944, 34.542803028 ], [ 133.617724743999986, 34.542821781 ], [ 133.617762389, 34.542854806 ], [ 133.617774268, 34.542858358 ], [ 133.617644539999986, 34.54319612 ], [ 133.617611074, 34.543240405 ], [ 133.617097083, 34.543102845 ], [ 133.61692732, 34.54349707 ], [ 133.616898494, 34.543559727 ], [ 133.617173314000013, 34.54365675 ], [ 133.617195213, 34.543624081 ], [ 133.617236827999989, 34.543603454 ], [ 133.618342821, 34.544076589 ], [ 133.61810248, 34.54445413 ], [ 133.618074876, 34.544517747 ], [ 133.61808870199999, 34.544586404 ], [ 133.61825700899999, 34.544603788 ], [ 133.618424401999988, 34.544622658 ], [ 133.618686053, 34.544680094 ], [ 133.619196784, 34.544790419 ], [ 133.61957072199999, 34.544885034 ], [ 133.619754483, 34.544886108 ], [ 133.620607035, 34.545067034 ], [ 133.620608467000011, 34.545098316 ], [ 133.620957295000011, 34.545180108 ], [ 133.62124596699999, 34.545238442 ], [ 133.62145240699999, 34.545326857 ], [ 133.621581889, 34.545391222 ], [ 133.621624922, 34.545379295 ], [ 133.621731278999988, 34.545372461 ], [ 133.622356163, 34.545195715 ], [ 133.622280415, 34.545416656 ], [ 133.622677528, 34.545501556 ], [ 133.622645583, 34.545637694 ], [ 133.62260163900001, 34.545812417 ], [ 133.622578999000012, 34.545898801 ], [ 133.622490271, 34.546057054 ], [ 133.622466457, 34.546103129 ], [ 133.62249402399999, 34.546121288 ], [ 133.62260598, 34.546115868 ], [ 133.62322801900001, 34.546274529 ], [ 133.624321450999986, 34.546510465 ], [ 133.625726192, 34.546801015 ], [ 133.625752161, 34.546846168 ], [ 133.625612818, 34.547522002 ], [ 133.62554505599999, 34.547864491 ], [ 133.626306242999988, 34.54818942 ], [ 133.62655010099999, 34.548319164 ], [ 133.626541534000012, 34.548276503 ], [ 133.626505344, 34.548188337 ], [ 133.626481001, 34.548158162 ], [ 133.626472436, 34.548138205 ], [ 133.626406506, 34.548051357 ], [ 133.626470622999989, 34.547926502 ], [ 133.62658393800001, 34.547736337 ], [ 133.626843501, 34.547296566 ], [ 133.626990957, 34.546903851 ], [ 133.627069976, 34.546720941 ], [ 133.627108187, 34.546676439 ] ] ] } },
{ "type": "Feature", "properties": { "A29_001": "33216", "A29_002": "岡山県", "A29_003": "浅口市", "A29_004": 1, "A29_005": "第一種低層住居専用地域", "A29_006": 50, "A29_007": 100, "A29_008": null }, "geometry": { "type": "Polygon", "coordinates": [ [ [ 133.62244919599999, 34.546120173 ], [ 133.622408216, 34.546172112 ], [ 133.622305075000014, 34.54633028 ], [ 133.62216031299999, 34.546615669 ], [ 133.62209411, 34.546773307 ], [ 133.622029899000012, 34.546908594 ], [ 133.62200111199999, 34.547115646 ], [ 133.622043792999989, 34.547181489 ], [ 133.622091625, 34.547277178 ], [ 133.622067316, 34.547381392 ], [ 133.621886614, 34.547637644 ], [ 133.621841173, 34.547702085 ], [ 133.621745549, 34.54766463 ], [ 133.621637864, 34.547615552 ], [ 133.62154697599999, 34.547603841 ], [ 133.621525033000012, 34.547641729 ], [ 133.621483759, 34.547727954 ], [ 133.621409992999986, 34.547821443 ], [ 133.621346827, 34.547939592 ], [ 133.621406643, 34.5480033 ], [ 133.621378513, 34.548132834 ], [ 133.621354313000012, 34.54820753 ], [ 133.621347057, 34.548229925 ], [ 133.621265638000011, 34.548249813 ], [ 133.621238276000014, 34.548256497 ], [ 133.621176936000012, 34.548318753 ], [ 133.621180194, 34.548359395 ], [ 133.62114490799999, 34.548482925 ], [ 133.621084868999986, 34.548551151 ], [ 133.621078003, 34.548722552 ], [ 133.621068130999987, 34.548823867 ], [ 133.62104421399999, 34.548881869 ], [ 133.621017784, 34.549023339 ], [ 133.62095742, 34.549235424 ], [ 133.620927292, 34.549282208 ], [ 133.62099009, 34.549313136 ], [ 133.621091631000013, 34.549343544 ], [ 133.621412905, 34.549489279 ], [ 133.62178714699999, 34.549656937 ], [ 133.621965596, 34.549754133 ], [ 133.62201323299999, 34.549767082 ], [ 133.622068222, 34.54976293 ], [ 133.622141209, 34.549761119 ], [ 133.622413327, 34.54975525 ], [ 133.622530227999988, 34.549780529 ], [ 133.622631122, 34.549781116 ], [ 133.62269566, 34.549819507 ], [ 133.62277608299999, 34.54989675 ], [ 133.622895508999989, 34.549942914 ], [ 133.623127977, 34.549938303 ], [ 133.623429621000014, 34.549956456 ], [ 133.623624978, 34.5499725 ], [ 133.623681446, 34.550006371 ], [ 133.623701754, 34.550054939 ], [ 133.62369542499999, 34.55016373 ], [ 133.623670508, 34.550233652 ], [ 133.62369103099999, 34.550256879 ], [ 133.62371259, 34.550370304 ], [ 133.623734903000013, 34.550395032 ], [ 133.62373684799999, 34.550431195 ], [ 133.623767754, 34.550504795 ], [ 133.62386978699999, 34.550583655 ], [ 133.623873081, 34.550620198 ], [ 133.624050172000011, 34.550771796 ], [ 133.624139291, 34.550721122 ], [ 133.624418974, 34.55056209 ], [ 133.624418627000011, 34.550560754 ], [ 133.624428622000011, 34.55044453 ], [ 133.62454644499999, 34.550440309 ], [ 133.62469717, 34.550434908 ], [ 133.624789310000011, 34.550405627 ], [ 133.624877523, 34.550414339 ], [ 133.625, 34.550445222 ], [ 133.62507781299999, 34.550486313 ], [ 133.625086544, 34.550519161 ], [ 133.625109764, 34.550543148 ], [ 133.625163069, 34.550631414 ], [ 133.625157222000013, 34.550683558 ], [ 133.62510958199999, 34.550777201 ], [ 133.625099764999987, 34.550872554 ], [ 133.62518010299999, 34.550960231 ], [ 133.625230311, 34.550988847 ], [ 133.62533299, 34.550991679 ], [ 133.625480396, 34.55103204 ], [ 133.625731538, 34.551163194 ], [ 133.625779384, 34.551151545 ], [ 133.625861337, 34.551155001 ], [ 133.62597746599999, 34.551165364 ], [ 133.626466701, 34.55126659 ], [ 133.62652378199999, 34.551334751 ], [ 133.626654768, 34.551283302 ], [ 133.62668648499999, 34.551270843 ], [ 133.62663213799999, 34.551198971 ], [ 133.626535034999989, 34.551069456 ], [ 133.626500998000012, 34.550991009 ], [ 133.626489967, 34.550965585 ], [ 133.626410819, 34.550969931 ], [ 133.626391723000012, 34.55097098 ], [ 133.626385512000013, 34.550959763 ], [ 133.626409040999988, 34.55093256 ], [ 133.626407472000011, 34.550899583 ], [ 133.626408083, 34.550834139 ], [ 133.626405889000011, 34.550696444 ], [ 133.626395333, 34.550493083 ], [ 133.626400694000012, 34.550478139 ], [ 133.626394111, 34.550336444 ], [ 133.626394167, 34.550295194 ], [ 133.626392556000013, 34.5502605 ], [ 133.626411361, 34.550019444 ], [ 133.626415253, 34.55 ], [ 133.626418722000011, 34.549982667 ], [ 133.626419360999989, 34.549932306 ], [ 133.62641711099999, 34.549857389 ], [ 133.626403167, 34.549839167 ], [ 133.626398583, 34.549833722 ], [ 133.62637072199999, 34.549804389 ], [ 133.626292971999987, 34.5497275 ], [ 133.626282056, 34.549723889 ], [ 133.62627278799999, 34.549694922 ], [ 133.626230405, 34.549593303 ], [ 133.62626179, 34.549504038 ], [ 133.62631827300001, 34.549429825 ], [ 133.62642359, 34.549333534 ], [ 133.626485691999989, 34.549234011 ], [ 133.62652613899999, 34.549128861 ], [ 133.626601193999988, 34.548995028 ], [ 133.626620639, 34.548934472 ], [ 133.626627555999988, 34.548796028 ], [ 133.626625890000014, 34.548528189 ], [ 133.626566083, 34.548356402 ], [ 133.62655010099999, 34.548319164 ], [ 133.626306242999988, 34.54818942 ], [ 133.62554505599999, 34.547864491 ], [ 133.625612818, 34.547522002 ], [ 133.625752161, 34.546846168 ], [ 133.625726192, 34.546801015 ], [ 133.624321450999986, 34.546510465 ], [ 133.62322801900001, 34.546274529 ], [ 133.62260598, 34.546115868 ], [ 133.62249402399999, 34.546121288 ], [ 133.622466457, 34.546103129 ], [ 133.62244919599999, 34.546120173 ] ] ] } },
{ "type": "Feature", "properties": { "A29_001": "33216", "A29_002": "岡山県", "A29_003": "浅口市", "A29_004": 1, "A29_005": "第一種低層住居専用地域", "A29_006": 50, "A29_007": 80, "A29_008": null }, "geometry": { "type": "Polygon", "coordinates": [ [ [ 133.62541386800001, 34.531452368 ], [ 133.625455698, 34.531178954 ], [ 133.625498499, 34.530974665 ], [ 133.625559009999989, 34.530720985 ], [ 133.625575008, 34.530618511 ], [ 133.625593151, 34.530439051 ], [ 133.625573753, 34.530439556 ], [ 133.625523469, 34.530421375 ], [ 133.625400945, 34.530425137 ], [ 133.625266506, 34.530346837 ], [ 133.625153430000012, 34.530298476 ], [ 133.624835856, 34.530149045 ], [ 133.624666780000013, 34.530321231 ], [ 133.62461597, 34.530375861 ], [ 133.624727, 34.530665719 ], [ 133.624780945999987, 34.530889651 ], [ 133.624864468999988, 34.531024306 ], [ 133.624925221000012, 34.5310828 ], [ 133.624944978, 34.531183785 ], [ 133.624964933, 34.531285778 ], [ 133.624800599, 34.531334021 ], [ 133.624737264, 34.531367941 ], [ 133.624623227, 34.531432874 ], [ 133.624514341, 34.531527653 ], [ 133.62435481599999, 34.531645991 ], [ 133.624199159, 34.531733044 ], [ 133.624142877, 34.531784894 ], [ 133.624044481, 34.531917004 ], [ 133.624011091999989, 34.531958566 ], [ 133.62404006, 34.53214053 ], [ 133.62403706, 34.53230579 ], [ 133.62402991, 34.53239699 ], [ 133.62398521, 34.53258382 ], [ 133.62394032, 34.53272888 ], [ 133.62387271099999, 34.532841787 ], [ 133.62377269000001, 34.532953016 ], [ 133.623724555, 34.53298738 ], [ 133.62369517, 34.53308526 ], [ 133.623695556, 34.533250444 ], [ 133.623697443999987, 34.533284528 ], [ 133.623692083, 34.533322972 ], [ 133.623688778, 34.533333333 ], [ 133.623687167000014, 34.533338278 ], [ 133.62368711100001, 34.533344056 ], [ 133.623686778, 34.533359472 ], [ 133.623710361, 34.5334675 ], [ 133.623726694, 34.533585083 ], [ 133.623755861, 34.53376825 ], [ 133.623760444, 34.533895306 ], [ 133.623773478, 34.534020839 ], [ 133.623773449999987, 34.53402122 ], [ 133.62375515, 34.53410839 ], [ 133.62369483, 34.53425481 ], [ 133.62357941, 34.53449811 ], [ 133.62349142, 34.53470651 ], [ 133.623435468, 34.534852187 ], [ 133.62346406099999, 34.534827344 ], [ 133.623516266, 34.534830668 ], [ 133.623664289, 34.534847927 ], [ 133.623722441000012, 34.534894479 ], [ 133.623958821, 34.535060958 ], [ 133.62414550599999, 34.535139563 ], [ 133.62434869399999, 34.535183976 ], [ 133.624411759999987, 34.53508136 ], [ 133.62451920399999, 34.534752503 ], [ 133.624607529, 34.534773647 ], [ 133.624666797, 34.534794862 ], [ 133.62468633, 34.534759579 ], [ 133.624732913, 34.534548367 ], [ 133.624761799999987, 34.534404703 ], [ 133.62482737900001, 34.534216886 ], [ 133.624848108, 34.53411754 ], [ 133.624887854, 34.53401902 ], [ 133.624916340999988, 34.533922582 ], [ 133.624937147999987, 34.533880939 ], [ 133.625013069, 34.53347833 ], [ 133.625086624, 34.533165332 ], [ 133.62518234699999, 34.532685017 ], [ 133.625288359, 34.532214779 ], [ 133.62534607, 34.531934605 ], [ 133.625369522999989, 34.531796484 ], [ 133.625352658, 34.531660724 ], [ 133.62541386800001, 34.531452368 ] ] ] } },
{ "type": "Feature", "properties": { "A29_001": "33216", "A29_002": "岡山県", "A29_003": "浅口市", "A29_004": 4, "A29_005": "第二種中高層住居専用地域", "A29_006": 60, "A29_007": 200, "A29_008": null }, "geometry": { "type": "Polygon", "coordinates": [ [ [ 133.62543981499999, 34.534900841 ], [ 133.625556558999989, 34.534497361 ], [ 133.625689935, 34.533995318 ], [ 133.625850286, 34.533302611 ], [ 133.625976427000012, 34.532701299 ], [ 133.626108144999989, 34.532121964 ], [ 133.62622909000001, 34.531589317 ], [ 133.62638378, 34.531019655 ], [ 133.626522787999988, 34.530531956 ], [ 133.62665585, 34.53018815 ], [ 133.626694722, 34.530097541 ], [ 133.626610781000011, 34.530078826 ], [ 133.62637321599999, 34.530053599 ], [ 133.62617504799999, 34.530023473 ], [ 133.626122941, 34.530040223 ], [ 133.62613312, 34.530088473 ], [ 133.626140260999989, 34.530122317 ], [ 133.626087179, 34.530221893 ], [ 133.625991233, 34.530277987 ], [ 133.625879088, 34.530332497 ], [ 133.625790661999986, 34.530351365 ], [ 133.625669902, 34.53035961 ], [ 133.625667445, 34.530437117 ], [ 133.625615657999987, 34.530438465 ], [ 133.625593151, 34.530439051 ], [ 133.625575008, 34.530618511 ], [ 133.625559009999989, 34.530720985 ], [ 133.625498499, 34.530974665 ], [ 133.625455698, 34.531178954 ], [ 133.62541386800001, 34.531452368 ], [ 133.625352658, 34.531660724 ], [ 133.625369522999989, 34.531796484 ], [ 133.62534607, 34.531934605 ], [ 133.625288359, 34.532214779 ], [ 133.62518234699999, 34.532685017 ], [ 133.625086624, 34.533165332 ], [ 133.625013069, 34.53347833 ], [ 133.624937147999987, 34.533880939 ], [ 133.624916340999988, 34.533922582 ], [ 133.624887854, 34.53401902 ], [ 133.624848108, 34.53411754 ], [ 133.62482737900001, 34.534216886 ], [ 133.624761799999987, 34.534404703 ], [ 133.624732913, 34.534548367 ], [ 133.62468633, 34.534759579 ], [ 133.624666797, 34.534794862 ], [ 133.62536307900001, 34.534898784 ], [ 133.625433206, 34.534914098 ], [ 133.62543981499999, 34.534900841 ] ] ] } }
]
}
