{
"type": "FeatureCollection",
"name": "A29-19_33215",
"features": [
{ "type": "Feature", "properties": { "A29_001": "33215", "A29_002": "岡山県", "A29_003": "美作市", "A29_004": 8, "A29_005": "近隣商業地域", "A29_006": 80, "A29_007": 200, "A29_008": null }, "geometry": { "type": "Polygon", "coordinates": [ [ [ 134.15074787399999, 35.012392525 ], [ 134.150528017, 35.012834709 ], [ 134.15036015199999, 35.013055712 ], [ 134.150139384999989, 35.013264866 ], [ 134.149964567000012, 35.013396414 ], [ 134.149766771, 35.013567941 ], [ 134.149566055, 35.013765355 ], [ 134.149717705, 35.013758525 ], [ 134.149806396, 35.01375866 ], [ 134.15007249199999, 35.01374965 ], [ 134.15090802, 35.013701487 ], [ 134.151128301999989, 35.013708882 ], [ 134.151371441, 35.013730433 ], [ 134.151323472, 35.013431427 ], [ 134.151190340999989, 35.012833358 ], [ 134.151299563, 35.012607557 ], [ 134.15074787399999, 35.012392525 ] ] ] } },
{ "type": "Feature", "properties": { "A29_001": "33215", "A29_002": "岡山県", "A29_003": "美作市", "A29_004": 10, "A29_005": "準工業地域", "A29_006": 60, "A29_007": 200, "A29_008": null }, "geometry": { "type": "Polygon", "coordinates": [ [ [ 134.1484427, 35.013942528 ], [ 134.148830921000012, 35.014331502 ], [ 134.149061104, 35.014641245 ], [ 134.149256269, 35.01475113 ], [ 134.14972988299999, 35.014983459 ], [ 134.15015423700001, 35.015144425 ], [ 134.150558855000014, 35.015194368 ], [ 134.15114305899999, 35.015376126 ], [ 134.15185706, 35.015611516 ], [ 134.153379777, 35.016110992 ], [ 134.153696008999987, 35.016211073 ], [ 134.154373631, 35.016412764 ], [ 134.154468922, 35.016224659 ], [ 134.154356791, 35.016128922 ], [ 134.15418732099999, 35.015857646 ], [ 134.154004492000013, 35.015706826 ], [ 134.153773859000012, 35.015409947 ], [ 134.153442672000011, 35.015094043 ], [ 134.153305808999988, 35.014881996 ], [ 134.152646368, 35.014221944 ], [ 134.15319526499999, 35.014413423 ], [ 134.153626835000011, 35.014616495 ], [ 134.154204082, 35.014928057 ], [ 134.154649766, 35.01522059 ], [ 134.15548102299999, 35.015822039 ], [ 134.155772735, 35.015876607 ], [ 134.15593286399999, 35.015919211 ], [ 134.156105387, 35.015994687 ], [ 134.15624754699999, 35.01593615 ], [ 134.155699381, 35.015403384 ], [ 134.15532542, 35.015019162 ], [ 134.154720437, 35.014307418 ], [ 134.154414901, 35.014036277 ], [ 134.154129239000014, 35.013835779 ], [ 134.153689156000013, 35.013602097 ], [ 134.152768771000012, 35.013212343 ], [ 134.151299563, 35.012607557 ], [ 134.151190340999989, 35.012833358 ], [ 134.151323472, 35.013431427 ], [ 134.151371441, 35.013730433 ], [ 134.151128301999989, 35.013708882 ], [ 134.15090802, 35.013701487 ], [ 134.15007249199999, 35.01374965 ], [ 134.149806396, 35.01375866 ], [ 134.149717705, 35.013758525 ], [ 134.149566055, 35.013765355 ], [ 134.149766771, 35.013567941 ], [ 134.149964567000012, 35.013396414 ], [ 134.150139384999989, 35.013264866 ], [ 134.15036015199999, 35.013055712 ], [ 134.150528017, 35.012834709 ], [ 134.15074787399999, 35.012392525 ], [ 134.150351601000011, 35.012274466 ], [ 134.15008461799999, 35.012218642 ], [ 134.149620053, 35.012114902 ], [ 134.149551858, 35.012133504 ], [ 134.14952951399999, 35.012178679 ], [ 134.149571823, 35.012711061 ], [ 134.14955405, 35.012877474 ], [ 134.14943441299999, 35.013146102 ], [ 134.149339687, 35.013284832 ], [ 134.149141832, 35.01348225 ], [ 134.14884376, 35.013714822 ], [ 134.1484427, 35.013942528 ] ] ] } },
{ "type": "Feature", "properties": { "A29_001": "33215", "A29_002": "岡山県", "A29_003": "美作市", "A29_004": 6, "A29_005": "第二種住居地域", "A29_006": 60, "A29_007": 200, "A29_008": null }, "geometry": { "type": "Polygon", "coordinates": [ [ [ 134.128357619000013, 34.991210904 ], [ 134.128339461, 34.991205279 ], [ 134.12828281099999, 34.991346483 ], [ 134.128254148, 34.991415082 ], [ 134.12831244899999, 34.991431853 ], [ 134.129274164, 34.991806194 ], [ 134.12962909399999, 34.99195164 ], [ 134.129875099, 34.992242688 ], [ 134.130432211, 34.992599893 ], [ 134.130672256999986, 34.992790307 ], [ 134.130959749999988, 34.993175523 ], [ 134.1310197, 34.993418781 ], [ 134.131018957, 34.993721732 ], [ 134.130954483000011, 34.994025636 ], [ 134.130873838000014, 34.994160387 ], [ 134.130618981, 34.994512631 ], [ 134.130411495, 34.994877206 ], [ 134.130304419, 34.995094192 ], [ 134.13016045, 34.99564833 ], [ 134.130108621, 34.996059643 ], [ 134.130218248, 34.996138059 ], [ 134.130377567000011, 34.996006138 ], [ 134.130569799999989, 34.995820317 ], [ 134.130694548, 34.995749036 ], [ 134.131024274999987, 34.995640329 ], [ 134.131213026000012, 34.995536781 ], [ 134.131486568000014, 34.995612771 ], [ 134.131566877000012, 34.995615602 ], [ 134.131666954, 34.995578 ], [ 134.13173593499999, 34.995521463 ], [ 134.132191072000012, 34.994754111 ], [ 134.132417401, 34.994308029 ], [ 134.13182906599999, 34.99458638 ], [ 134.131793754, 34.994416918 ], [ 134.1317837, 34.993658084 ], [ 134.13179188399999, 34.992398069 ], [ 134.13183244199999, 34.991812923 ], [ 134.131891626, 34.990963543 ], [ 134.131397986, 34.99108138 ], [ 134.130886917, 34.991189641 ], [ 134.13023040499999, 34.991244986 ], [ 134.12952985699999, 34.991280098 ], [ 134.12901789899999, 34.991313507 ], [ 134.128357619000013, 34.991210904 ] ] ] } },
{ "type": "Feature", "properties": { "A29_001": "33215", "A29_002": "岡山県", "A29_003": "美作市", "A29_004": 8, "A29_005": "近隣商業地域", "A29_006": 80, "A29_007": 200, "A29_008": null }, "geometry": { "type": "Polygon", "coordinates": [ [ [ 134.131891626, 34.990963543 ], [ 134.13183244199999, 34.991812923 ], [ 134.13179188399999, 34.992398069 ], [ 134.1317837, 34.993658084 ], [ 134.131793754, 34.994416918 ], [ 134.13182906599999, 34.99458638 ], [ 134.132417401, 34.994308029 ], [ 134.132606583000012, 34.994196727 ], [ 134.133001678, 34.994065833 ], [ 134.133439939, 34.994045812 ], [ 134.13425607100001, 34.994135657 ], [ 134.134570599999989, 34.99426971 ], [ 134.134901273, 34.994467821 ], [ 134.135232988000013, 34.994779035 ], [ 134.13531314299999, 34.994683496 ], [ 134.13546421800001, 34.994597665 ], [ 134.13566473, 34.994512274 ], [ 134.135803724999988, 34.994464147 ], [ 134.136038950999989, 34.99438101 ], [ 134.136322092, 34.994363886 ], [ 134.13652240799999, 34.994359815 ], [ 134.13685652699999, 34.994396951 ], [ 134.13689294299999, 34.994399798 ], [ 134.137073724, 34.994477655 ], [ 134.137815597000014, 34.994797152 ], [ 134.137866628000012, 34.994827002 ], [ 134.138597403, 34.99525446 ], [ 134.138670671, 34.995297317 ], [ 134.138701354, 34.994971578 ], [ 134.139209552000011, 34.995250674 ], [ 134.13952711499999, 34.995219512 ], [ 134.13971009799999, 34.995140629 ], [ 134.13885767, 34.994674913 ], [ 134.138402926, 34.994426463 ], [ 134.13742412, 34.993822085 ], [ 134.137186023, 34.993575537 ], [ 134.136847974, 34.99308545 ], [ 134.13680994399999, 34.992895372 ], [ 134.13678127099999, 34.992816153 ], [ 134.136794384000012, 34.992608309 ], [ 134.13693644599999, 34.99229386 ], [ 134.13697509799999, 34.992222666 ], [ 134.136753997, 34.992151053 ], [ 134.136400477, 34.992188918 ], [ 134.136263824999986, 34.991952328 ], [ 134.136062439, 34.991682812 ], [ 134.135928132, 34.991524248 ], [ 134.13577447099999, 34.991413157 ], [ 134.13562083, 34.991294147 ], [ 134.13523510600001, 34.991121084 ], [ 134.135217211, 34.991111393 ], [ 134.135082583000013, 34.991087422 ], [ 134.135053722, 34.991087375 ], [ 134.134950991000011, 34.990547828 ], [ 134.134898381, 34.990283168 ], [ 134.134601881, 34.990347184 ], [ 134.133852461, 34.990554957 ], [ 134.133386304999988, 34.990677772 ], [ 134.131891626, 34.990963543 ] ], [ [ 134.136829126, 34.993702389 ], [ 134.13678877800001, 34.993744907 ], [ 134.136817435000012, 34.993782806 ], [ 134.136730618, 34.99388491 ], [ 134.13653509, 34.994042582 ], [ 134.136084057, 34.993916466 ], [ 134.13496036699999, 34.993777426 ], [ 134.134382772, 34.993684219 ], [ 134.134287986, 34.993650944 ], [ 134.134225028, 34.993532554 ], [ 134.133796640000014, 34.99355551 ], [ 134.133556424, 34.993618469 ], [ 134.132952165, 34.993665975 ], [ 134.13235427699999, 34.993771428 ], [ 134.132328613999988, 34.993321777 ], [ 134.132304836, 34.993013435 ], [ 134.132366399, 34.992413083 ], [ 134.132818621000013, 34.992390076 ], [ 134.13332843, 34.992422583 ], [ 134.133386863999988, 34.992129739 ], [ 134.13362860399999, 34.991623427 ], [ 134.133798715000012, 34.991511511 ], [ 134.134677401, 34.991553884 ], [ 134.134707592000012, 34.99130954 ], [ 134.13491732599999, 34.991357196 ], [ 134.135307931, 34.991502143 ], [ 134.135572063000012, 34.991642151 ], [ 134.13580729099999, 34.991848353 ], [ 134.135936101, 34.99207804 ], [ 134.136273851999988, 34.99268895 ], [ 134.136829126, 34.993702389 ] ] ] } },
{ "type": "Feature", "properties": { "A29_001": "33215", "A29_002": "岡山県", "A29_003": "美作市", "A29_004": 6, "A29_005": "第二種住居地域", "A29_006": 60, "A29_007": 200, "A29_008": null }, "geometry": { "type": "Polygon", "coordinates": [ [ [ 134.138670671, 34.995297317 ], [ 134.13919542799999, 34.995665252 ], [ 134.139467450000012, 34.995834923 ], [ 134.139603434, 34.995931846 ], [ 134.139904569, 34.996215853 ], [ 134.140160364, 34.996473412 ], [ 134.140386761, 34.996739715 ], [ 134.140738324000012, 34.997162267 ], [ 134.141566691, 34.998137243 ], [ 134.14199087099999, 34.998698398 ], [ 134.14226806100001, 34.998645604 ], [ 134.142401984, 34.998623571 ], [ 134.142374714, 34.998071323 ], [ 134.142206375, 34.997782825 ], [ 134.142234363999989, 34.997331372 ], [ 134.142286934, 34.996841661 ], [ 134.142375171, 34.995757399 ], [ 134.14237323, 34.995537694 ], [ 134.142342125999988, 34.995219179 ], [ 134.142291139, 34.9950256 ], [ 134.142210807999987, 34.994811819 ], [ 134.142105995, 34.994593969 ], [ 134.141869278, 34.994222726 ], [ 134.141439585, 34.993631478 ], [ 134.14094394899999, 34.992963532 ], [ 134.140436093, 34.992287503 ], [ 134.140042908, 34.991803136 ], [ 134.139686261, 34.991405497 ], [ 134.139417323, 34.991205525 ], [ 134.139004046999986, 34.990936791 ], [ 134.138593114, 34.99071442 ], [ 134.13807443499999, 34.990485827 ], [ 134.137673131000014, 34.990336029 ], [ 134.137259500999988, 34.990220476 ], [ 134.136899652000011, 34.990147335 ], [ 134.136456450999987, 34.990108323 ], [ 134.13607435899999, 34.990119799 ], [ 134.135721612, 34.990149461 ], [ 134.134898381, 34.990283168 ], [ 134.134950991000011, 34.990547828 ], [ 134.135053722, 34.991087375 ], [ 134.135082583000013, 34.991087422 ], [ 134.135217211, 34.991111393 ], [ 134.13523510600001, 34.991121084 ], [ 134.13562083, 34.991294147 ], [ 134.13577447099999, 34.991413157 ], [ 134.135928132, 34.991524248 ], [ 134.136062439, 34.991682812 ], [ 134.136263824999986, 34.991952328 ], [ 134.136400477, 34.992188918 ], [ 134.136753997, 34.992151053 ], [ 134.13697509799999, 34.992222666 ], [ 134.13693644599999, 34.99229386 ], [ 134.136794384000012, 34.992608309 ], [ 134.13678127099999, 34.992816153 ], [ 134.13680994399999, 34.992895372 ], [ 134.136847974, 34.99308545 ], [ 134.137186023, 34.993575537 ], [ 134.13742412, 34.993822085 ], [ 134.138402926, 34.994426463 ], [ 134.13885767, 34.994674913 ], [ 134.13971009799999, 34.995140629 ], [ 134.13952711499999, 34.995219512 ], [ 134.139209552000011, 34.995250674 ], [ 134.138701354, 34.994971578 ], [ 134.138670671, 34.995297317 ] ] ] } },
{ "type": "Feature", "properties": { "A29_001": "33215", "A29_002": "岡山県", "A29_003": "美作市", "A29_004": 5, "A29_005": "第一種住居地域", "A29_006": 60, "A29_007": 200, "A29_008": null }, "geometry": { "type": "Polygon", "coordinates": [ [ [ 134.13708391, 34.99658581 ], [ 134.136929689, 34.996044039 ], [ 134.136959413, 34.995899028 ], [ 134.13738254099999, 34.995408216 ], [ 134.137866628000012, 34.994827002 ], [ 134.137815597000014, 34.994797152 ], [ 134.137073724, 34.994477655 ], [ 134.13689294299999, 34.994399798 ], [ 134.13685652699999, 34.994396951 ], [ 134.13652240799999, 34.994359815 ], [ 134.136322092, 34.994363886 ], [ 134.136038950999989, 34.99438101 ], [ 134.135803724999988, 34.994464147 ], [ 134.13566473, 34.994512274 ], [ 134.13546421800001, 34.994597665 ], [ 134.13531314299999, 34.994683496 ], [ 134.135232988000013, 34.994779035 ], [ 134.135416682999988, 34.994934797 ], [ 134.13567060599999, 34.995094659 ], [ 134.13589044599999, 34.995328211 ], [ 134.13600851699999, 34.995581529 ], [ 134.136160221000011, 34.995847482 ], [ 134.13636587799999, 34.996038532 ], [ 134.136551934000011, 34.996222201 ], [ 134.136861470000014, 34.996424007 ], [ 134.13708391, 34.99658581 ] ] ] } },
{ "type": "Feature", "properties": { "A29_001": "33215", "A29_002": "岡山県", "A29_003": "美作市", "A29_004": 1, "A29_005": "第一種低層住居専用地域", "A29_006": 60, "A29_007": 150, "A29_008": null }, "geometry": { "type": "Polygon", "coordinates": [ [ [ 134.137866628000012, 34.994827002 ], [ 134.13738254099999, 34.995408216 ], [ 134.136959413, 34.995899028 ], [ 134.136929689, 34.996044039 ], [ 134.13708391, 34.99658581 ], [ 134.137107845, 34.996705435 ], [ 134.137126666, 34.996938661 ], [ 134.137148255999989, 34.997026393 ], [ 134.137600171, 34.997449665 ], [ 134.13765795399999, 34.997595256 ], [ 134.137638165999988, 34.997768626 ], [ 134.137453474000012, 34.998027433 ], [ 134.137389084, 34.998181527 ], [ 134.137472126, 34.998332411 ], [ 134.13761398599999, 34.998483591 ], [ 134.137771785000012, 34.998617911 ], [ 134.137921745999989, 34.998705851 ], [ 134.13814205599999, 34.998748062 ], [ 134.138602072, 34.998824541 ], [ 134.139345619000011, 34.998839687 ], [ 134.14001664, 34.99898896 ], [ 134.140694188999987, 34.998901366 ], [ 134.141025266000014, 34.998857555 ], [ 134.141498934, 34.998807242 ], [ 134.14199087099999, 34.998698398 ], [ 134.141566691, 34.998137243 ], [ 134.140738324000012, 34.997162267 ], [ 134.140386761, 34.996739715 ], [ 134.140160364, 34.996473412 ], [ 134.139904569, 34.996215853 ], [ 134.139603434, 34.995931846 ], [ 134.139467450000012, 34.995834923 ], [ 134.13919542799999, 34.995665252 ], [ 134.138670671, 34.995297317 ], [ 134.138597403, 34.99525446 ], [ 134.137866628000012, 34.994827002 ] ] ] } },
{ "type": "Feature", "properties": { "A29_001": "33215", "A29_002": "岡山県", "A29_003": "美作市", "A29_004": 3, "A29_005": "第一種中高層住居専用地域", "A29_006": 60, "A29_007": 200, "A29_008": null }, "geometry": { "type": "Polygon", "coordinates": [ [ [ 134.143985519000012, 34.995287526 ], [ 134.143955315, 34.995256171 ], [ 134.143908603, 34.995214228 ], [ 134.143888893, 34.995197453 ], [ 134.143794109, 34.99555502 ], [ 134.143754113, 34.995916087 ], [ 134.143506359000014, 34.996662807 ], [ 134.14340547099999, 34.997067852 ], [ 134.14331696799999, 34.9975477 ], [ 134.14329943300001, 34.997740137 ], [ 134.143465426, 34.998911245 ], [ 134.143540524, 34.9991122 ], [ 134.143720202, 35.000217049 ], [ 134.143874122999989, 35.000598071 ], [ 134.144121977, 35.000822363 ], [ 134.14426304, 35.000884984 ], [ 134.14441972899999, 35.00087432 ], [ 134.144959472000011, 35.000817826 ], [ 134.145587044, 35.000683378 ], [ 134.14685347, 35.000308507 ], [ 134.147497840999989, 35.000094821 ], [ 134.147797806999989, 34.999994795 ], [ 134.148428403999986, 34.999733122 ], [ 134.148664432, 34.999678672 ], [ 134.149002966000012, 34.999706597 ], [ 134.149588117, 34.999910757 ], [ 134.150103516, 35.000283817 ], [ 134.150507971, 35.000627018 ], [ 134.151256018999987, 35.001228826 ], [ 134.151657999, 35.001439559 ], [ 134.151882602, 35.001535825 ], [ 134.152409656, 35.001666811 ], [ 134.15307833899999, 35.001761466 ], [ 134.154518638000013, 35.001841293 ], [ 134.15562334099999, 35.001810972 ], [ 134.155635262, 35.001422712 ], [ 134.155349715, 35.001269259 ], [ 134.15471815699999, 35.000683618 ], [ 134.15430257599999, 35.000340402 ], [ 134.153515045, 35.000021755 ], [ 134.152336518, 34.999554063 ], [ 134.151249242, 34.999248665 ], [ 134.150597333, 34.99911293 ], [ 134.14995920699999, 34.999020607 ], [ 134.149445856999989, 34.998981001 ], [ 134.149782625, 34.998549859 ], [ 134.150033158000014, 34.998207655 ], [ 134.15010351699999, 34.997764686 ], [ 134.150065090999988, 34.997570498 ], [ 134.149824894, 34.997003732 ], [ 134.149360924, 34.997231422 ], [ 134.14909709299999, 34.997313243 ], [ 134.148788918, 34.99736759 ], [ 134.148369788999986, 34.997396645 ], [ 134.147916226, 34.997392023 ], [ 134.14760837899999, 34.997313378 ], [ 134.14743663199999, 34.997265668 ], [ 134.147228402, 34.99724167 ], [ 134.147028041999988, 34.997286526 ], [ 134.146683501000012, 34.997530822 ], [ 134.14642131299999, 34.997641224 ], [ 134.145973637999987, 34.997759168 ], [ 134.145549960000011, 34.997850644 ], [ 134.145320211000012, 34.997835414 ], [ 134.145193885999987, 34.997553869 ], [ 134.145176786, 34.99727105 ], [ 134.145130427, 34.99703568 ], [ 134.145086412000012, 34.996814495 ], [ 134.14483503, 34.996345249 ], [ 134.144605566, 34.996088694 ], [ 134.14418583299999, 34.995544546 ], [ 134.143985519000012, 34.995287526 ] ] ] } },
{ "type": "Feature", "properties": { "A29_001": "33215", "A29_002": "岡山県", "A29_003": "美作市", "A29_004": 8, "A29_005": "近隣商業地域", "A29_006": 80, "A29_007": 200, "A29_008": null }, "geometry": { "type": "Polygon", "coordinates": [ [ [ 134.143077366999989, 35.003348225 ], [ 134.143424563, 35.003134106 ], [ 134.143479343, 35.003196333 ], [ 134.143644052000013, 35.003222014 ], [ 134.144655926000013, 35.004001497 ], [ 134.14567056199999, 35.004781932 ], [ 134.146285686999988, 35.005258563 ], [ 134.14636492299999, 35.005334481 ], [ 134.146466823, 35.005222254 ], [ 134.14652511599999, 35.005150951 ], [ 134.146559282, 35.00507081 ], [ 134.14658448, 35.004991462 ], [ 134.146573042999989, 35.004883295 ], [ 134.146521667, 35.004756868 ], [ 134.146405256, 35.004589021 ], [ 134.14596665, 35.004048534 ], [ 134.145218118, 35.003209035 ], [ 134.144253655999989, 35.002258765 ], [ 134.142820344, 35.000976504 ], [ 134.142733709999987, 35.000831191 ], [ 134.142502553000014, 35.000859452 ], [ 134.142487515, 35.001618642 ], [ 134.142493263, 35.002101657 ], [ 134.142520123, 35.002361562 ], [ 134.142649694999989, 35.002737438 ], [ 134.142919766, 35.003218046 ], [ 134.143077366999989, 35.003348225 ] ] ] } },
{ "type": "Feature", "properties": { "A29_001": "33215", "A29_002": "岡山県", "A29_003": "美作市", "A29_004": 6, "A29_005": "第二種住居地域", "A29_006": 60, "A29_007": 200, "A29_008": null }, "geometry": { "type": "Polygon", "coordinates": [ [ [ 134.146521667, 35.004756868 ], [ 134.146573042999989, 35.004883295 ], [ 134.14658448, 35.004991462 ], [ 134.146559282, 35.00507081 ], [ 134.14652511599999, 35.005150951 ], [ 134.146466823, 35.005222254 ], [ 134.14636492299999, 35.005334481 ], [ 134.146285686999988, 35.005258563 ], [ 134.14567056199999, 35.004781932 ], [ 134.144655926000013, 35.004001497 ], [ 134.143644052000013, 35.003222014 ], [ 134.143479343, 35.003196333 ], [ 134.143424563, 35.003134106 ], [ 134.143077366999989, 35.003348225 ], [ 134.14324068, 35.003400759 ], [ 134.143649798000013, 35.003670603 ], [ 134.143849620999987, 35.003793757 ], [ 134.144819856999987, 35.004540153 ], [ 134.145428634000012, 35.005011551 ], [ 134.146038311000012, 35.005493887 ], [ 134.14631239799999, 35.005728752 ], [ 134.146490324000013, 35.005983239 ], [ 134.146719061, 35.006537209 ], [ 134.146854993, 35.007144701 ], [ 134.146959549, 35.007963986 ], [ 134.147026903000011, 35.008787779 ], [ 134.147242554, 35.009031434 ], [ 134.147535766, 35.009046202 ], [ 134.147552557000012, 35.008216075 ], [ 134.147567521000013, 35.007095597 ], [ 134.147559072, 35.006437187 ], [ 134.147338824, 35.006029946 ], [ 134.147084181999986, 35.005450897 ], [ 134.146945561, 35.005213496 ], [ 134.146645637, 35.004879743 ], [ 134.146521667, 35.004756868 ] ] ] } },
{ "type": "Feature", "properties": { "A29_001": "33215", "A29_002": "岡山県", "A29_003": "美作市", "A29_004": 5, "A29_005": "第一種住居地域", "A29_006": 60, "A29_007": 200, "A29_008": null }, "geometry": { "type": "Polygon", "coordinates": [ [ [ 134.147026903000011, 35.008787779 ], [ 134.146959549, 35.007963986 ], [ 134.146854993, 35.007144701 ], [ 134.146719061, 35.006537209 ], [ 134.146490324000013, 35.005983239 ], [ 134.14631239799999, 35.005728752 ], [ 134.146038311000012, 35.005493887 ], [ 134.145428634000012, 35.005011551 ], [ 134.144819856999987, 35.004540153 ], [ 134.143849620999987, 35.003793757 ], [ 134.143649798000013, 35.003670603 ], [ 134.14324068, 35.003400759 ], [ 134.143077366999989, 35.003348225 ], [ 134.142919766, 35.003218046 ], [ 134.142649694999989, 35.002737438 ], [ 134.142520123, 35.002361562 ], [ 134.142493263, 35.002101657 ], [ 134.142487515, 35.001618642 ], [ 134.142502553000014, 35.000859452 ], [ 134.141948275, 35.000926051 ], [ 134.141812856, 35.00110101 ], [ 134.141711302, 35.001318264 ], [ 134.14225833, 35.002237216 ], [ 134.140711366, 35.002817502 ], [ 134.14049605400001, 35.002442973 ], [ 134.13991158499999, 35.002662866 ], [ 134.14063898500001, 35.004013544 ], [ 134.14147528699999, 35.005558635 ], [ 134.14062922299999, 35.006054147 ], [ 134.139964695, 35.006490648 ], [ 134.13943801100001, 35.006430505 ], [ 134.138856793, 35.006313018 ], [ 134.138183246000011, 35.006105272 ], [ 134.137598715, 35.005895307 ], [ 134.137161165, 35.00562529 ], [ 134.13706942499999, 35.005539263 ], [ 134.137039987, 35.005379728 ], [ 134.137332390000012, 35.004685005 ], [ 134.13743768099999, 35.004298727 ], [ 134.137535643, 35.003859274 ], [ 134.137534058999989, 35.003511935 ], [ 134.138012588, 35.00341945 ], [ 134.138836061, 35.003058414 ], [ 134.13919678, 35.002861372 ], [ 134.139153908, 35.0026527 ], [ 134.13907158399999, 35.002199679 ], [ 134.138969635, 35.00158194 ], [ 134.13900482299999, 35.000805225 ], [ 134.13875009, 35.000779418 ], [ 134.137834027999986, 35.000815942 ], [ 134.13721049099999, 35.000840267 ], [ 134.13657187699999, 35.000731552 ], [ 134.13638762799999, 35.000528569 ], [ 134.136127030000011, 35.000065773 ], [ 134.13598887500001, 34.999900867 ], [ 134.135719642, 34.999830755 ], [ 134.135211631, 34.999829924 ], [ 134.1342235, 35.000009696 ], [ 134.13396306300001, 35.000119058 ], [ 134.133775826, 35.000302648 ], [ 134.13354144499999, 35.000670059 ], [ 134.13334979699999, 35.001295546 ], [ 134.133282772, 35.001424438 ], [ 134.133035756999988, 35.001498138 ], [ 134.132872005, 35.001624126 ], [ 134.132658278, 35.002124898 ], [ 134.132373183, 35.002244767 ], [ 134.13192647599999, 35.002256593 ], [ 134.131863718, 35.002003972 ], [ 134.131860698, 35.001874964 ], [ 134.131800778000013, 35.001825458 ], [ 134.131607306, 35.001827881 ], [ 134.131603573, 35.001989815 ], [ 134.131566498000012, 35.002146203 ], [ 134.131149612, 35.00211806 ], [ 134.130702493, 35.002211181 ], [ 134.130511802, 35.00351438 ], [ 134.130482736, 35.004103753 ], [ 134.130474037, 35.004509102 ], [ 134.13021601299999, 35.005199758 ], [ 134.13019427, 35.005349203 ], [ 134.130293236999989, 35.005662986 ], [ 134.130264449, 35.005969663 ], [ 134.130365979, 35.006112963 ], [ 134.130475127000011, 35.006190845 ], [ 134.130698555, 35.006281186 ], [ 134.130859286, 35.006307191 ], [ 134.1310097, 35.006599669 ], [ 134.13123113899999, 35.006691229 ], [ 134.131453220999987, 35.006597333 ], [ 134.13151670100001, 35.006220978 ], [ 134.13160932299999, 35.006119792 ], [ 134.131725353, 35.006082523 ], [ 134.131787433, 35.006101028 ], [ 134.131883388, 35.006345657 ], [ 134.132022637, 35.006598703 ], [ 134.132280798000011, 35.006984013 ], [ 134.133738418, 35.00727509 ], [ 134.13384788, 35.007522425 ], [ 134.13392091099999, 35.007664045 ], [ 134.13403983500001, 35.007792535 ], [ 134.13410851899999, 35.007836042 ], [ 134.134184123000011, 35.00786258 ], [ 134.13431248, 35.007883545 ], [ 134.13443859899999, 35.007881866 ], [ 134.13467716, 35.007777682 ], [ 134.13478716099999, 35.007715722 ], [ 134.13487986199999, 35.007710226 ], [ 134.134979222999988, 35.007789477 ], [ 134.13515730200001, 35.007967717 ], [ 134.135243014999986, 35.008013051 ], [ 134.135380274999989, 35.008035874 ], [ 134.135555358, 35.008033337 ], [ 134.13578529899999, 35.008059136 ], [ 134.135970531, 35.008118755 ], [ 134.136197033, 35.008147372 ], [ 134.13659530699999, 35.008122603 ], [ 134.137240228, 35.008315726 ], [ 134.137953911000011, 35.008466588 ], [ 134.138063601999988, 35.008534556 ], [ 134.138252048, 35.008687387 ], [ 134.138354873999987, 35.008755343 ], [ 134.138481844000012, 35.008775321 ], [ 134.138547069999987, 35.008775427 ], [ 134.13877005399999, 35.008840752 ], [ 134.13897566, 35.008996435 ], [ 134.139057949, 35.009092026 ], [ 134.139392568, 35.008835006 ], [ 134.139579446999988, 35.008624702 ], [ 134.139719138, 35.008402054 ], [ 134.13989136, 35.008083357 ], [ 134.140074604, 35.007997183 ], [ 134.14010126, 35.007909143 ], [ 134.140067483, 35.00781168 ], [ 134.139961031000013, 35.007555553 ], [ 134.140203861, 35.007290513 ], [ 134.140443146, 35.006984191 ], [ 134.140863889, 35.006655667 ], [ 134.14100079, 35.006559784 ], [ 134.14124238299999, 35.006327073 ], [ 134.14200947, 35.0059214 ], [ 134.14261799, 35.005730162 ], [ 134.14273969300001, 35.005756936 ], [ 134.14284059, 35.00602406 ], [ 134.142954678, 35.006278677 ], [ 134.143051461, 35.006336082 ], [ 134.143126115, 35.006291216 ], [ 134.14318366399999, 35.006121596 ], [ 134.143254116, 35.005745481 ], [ 134.143361226, 35.005635236 ], [ 134.1434682, 35.005584287 ], [ 134.144119432999986, 35.005513748 ], [ 134.14430321899999, 35.00555902 ], [ 134.144549017, 35.005653463 ], [ 134.14481895099999, 35.006058739 ], [ 134.145018805, 35.006682689 ], [ 134.14508736799999, 35.007126498 ], [ 134.145116832000014, 35.007281942 ], [ 134.145119031, 35.007406673 ], [ 134.14516619, 35.007431283 ], [ 134.145360286999988, 35.007317083 ], [ 134.145676075000011, 35.007235788 ], [ 134.145889587, 35.007324043 ], [ 134.146489795, 35.007840244 ], [ 134.14686117799999, 35.008446056 ], [ 134.147026903000011, 35.008787779 ] ] ] } },
{ "type": "Feature", "properties": { "A29_001": "33215", "A29_002": "岡山県", "A29_003": "美作市", "A29_004": 1, "A29_005": "第一種低層住居専用地域", "A29_006": 30, "A29_007": 50, "A29_008": null }, "geometry": { "type": "Polygon", "coordinates": [ [ [ 134.139057949, 35.009092026 ], [ 134.13897566, 35.008996435 ], [ 134.13877005399999, 35.008840752 ], [ 134.138547069999987, 35.008775427 ], [ 134.138481844000012, 35.008775321 ], [ 134.138354873999987, 35.008755343 ], [ 134.138252048, 35.008687387 ], [ 134.138063601999988, 35.008534556 ], [ 134.137953911000011, 35.008466588 ], [ 134.137240228, 35.008315726 ], [ 134.13659530699999, 35.008122603 ], [ 134.136197033, 35.008147372 ], [ 134.135970531, 35.008118755 ], [ 134.13578529899999, 35.008059136 ], [ 134.135555358, 35.008033337 ], [ 134.135380274999989, 35.008035874 ], [ 134.135243014999986, 35.008013051 ], [ 134.13515730200001, 35.007967717 ], [ 134.134979222999988, 35.007789477 ], [ 134.13487986199999, 35.007710226 ], [ 134.13478716099999, 35.007715722 ], [ 134.13467716, 35.007777682 ], [ 134.13443859899999, 35.007881866 ], [ 134.13431248, 35.007883545 ], [ 134.134184123000011, 35.00786258 ], [ 134.13410851899999, 35.007836042 ], [ 134.13403983500001, 35.007792535 ], [ 134.13392091099999, 35.007664045 ], [ 134.13384788, 35.007522425 ], [ 134.133738418, 35.00727509 ], [ 134.132280798000011, 35.006984013 ], [ 134.131927033000011, 35.007213196 ], [ 134.131730298, 35.007318569 ], [ 134.131364759, 35.007438168 ], [ 134.131279495, 35.007693362 ], [ 134.131192107, 35.007744099 ], [ 134.13106692400001, 35.007682231 ], [ 134.130795971999987, 35.007238257 ], [ 134.130677665, 35.007204899 ], [ 134.130443385, 35.007212798 ], [ 134.130227193, 35.007036271 ], [ 134.130051028, 35.006971728 ], [ 134.129749959, 35.00700955 ], [ 134.12945124, 35.007086783 ], [ 134.12927982, 35.007140381 ], [ 134.129181319, 35.007282083 ], [ 134.12905763, 35.007351406 ], [ 134.128938823, 35.007519081 ], [ 134.12884021799999, 35.007666065 ], [ 134.128890512999988, 35.00785701 ], [ 134.12882689599999, 35.007958269 ], [ 134.128682816, 35.008159062 ], [ 134.12858880600001, 35.008263033 ], [ 134.12848342699999, 35.008316238 ], [ 134.12846046199999, 35.008434334 ], [ 134.128459655, 35.008757647 ], [ 134.12863562199999, 35.008903021 ], [ 134.128670789000012, 35.008942459 ], [ 134.128647943, 35.009012886 ], [ 134.128609745, 35.009178624 ], [ 134.128619176, 35.009437707 ], [ 134.128517781, 35.009692457 ], [ 134.128469, 35.010061285 ], [ 134.128463275, 35.010336922 ], [ 134.128485605, 35.010473747 ], [ 134.128422309, 35.010602137 ], [ 134.1284171, 35.010670522 ], [ 134.128494761000013, 35.010842673 ], [ 134.12854482099999, 35.010971254 ], [ 134.12860211099999, 35.011300181 ], [ 134.12862477199999, 35.011454266 ], [ 134.12873466799999, 35.011671345 ], [ 134.128794953000011, 35.011782825 ], [ 134.128787566, 35.011888328 ], [ 134.12891205599999, 35.011967675 ], [ 134.129036372, 35.012117365 ], [ 134.129096497, 35.012293327 ], [ 134.129231705, 35.012360967 ], [ 134.12934537000001, 35.012495984 ], [ 134.12948388699999, 35.012666215 ], [ 134.12955143799999, 35.012721285 ], [ 134.129592120000012, 35.012837128 ], [ 134.129668417, 35.012957427 ], [ 134.129858817000013, 35.013036883 ], [ 134.129960149999988, 35.013117655 ], [ 134.13006499799999, 35.013217485 ], [ 134.130310724, 35.013379736 ], [ 134.13040976799999, 35.013527122 ], [ 134.130581541, 35.013408817 ], [ 134.130695608, 35.013511244 ], [ 134.130907357000012, 35.013752901 ], [ 134.13080371, 35.013899877 ], [ 134.13082118299999, 35.013965191 ], [ 134.130897986, 35.013977754 ], [ 134.131092376999987, 35.013808131 ], [ 134.13135907099999, 35.013966976 ], [ 134.13184419800001, 35.014353538 ], [ 134.131968379999989, 35.014386461 ], [ 134.13202309, 35.014372239 ], [ 134.13215019399999, 35.014227277 ], [ 134.132237178, 35.014227421 ], [ 134.132289759, 35.014304221 ], [ 134.132316244, 35.014415666 ], [ 134.132303506, 35.014542416 ], [ 134.132188377, 35.014871422 ], [ 134.13223786099999, 35.014961471 ], [ 134.132361833, 35.01508027 ], [ 134.13266945, 35.015307743 ], [ 134.132890314, 35.015441015 ], [ 134.133024369, 35.015502579 ], [ 134.133131211, 35.015512979 ], [ 134.133255539, 35.015486604 ], [ 134.133743022, 35.015336102 ], [ 134.134617870999989, 35.014938897 ], [ 134.135111665000011, 35.014763583 ], [ 134.13534543, 35.014614745 ], [ 134.135434637, 35.01455627 ], [ 134.135577423, 35.014439263 ], [ 134.135577995, 35.014201853 ], [ 134.135674453, 35.014090632 ], [ 134.13579937599999, 35.013994113 ], [ 134.135985637, 35.013933168 ], [ 134.136034865, 35.013845015 ], [ 134.136067083, 35.013780585 ], [ 134.136035281, 35.013672086 ], [ 134.136003605000013, 35.01351083 ], [ 134.135950666000014, 35.013302643 ], [ 134.135961783, 35.01312387 ], [ 134.135969386999989, 35.012924574 ], [ 134.135958925000011, 35.012830765 ], [ 134.135900837, 35.012807673 ], [ 134.13582733699999, 35.012801402 ], [ 134.13573797699999, 35.012859715 ], [ 134.13560241799999, 35.012935701 ], [ 134.135499111, 35.012932601 ], [ 134.135399494000012, 35.01287675 ], [ 134.135389054, 35.012774148 ], [ 134.13553588, 35.012457839 ], [ 134.135635982999986, 35.012311452 ], [ 134.135831892999988, 35.012323495 ], [ 134.135892461999987, 35.012320663 ], [ 134.135921112, 35.012275463 ], [ 134.135875185, 35.012097878 ], [ 134.135889555, 35.012048075 ], [ 134.135996451000011, 35.012039456 ], [ 134.136067454999989, 35.012142156 ], [ 134.136138577999986, 35.01219503 ], [ 134.136270335, 35.012218692 ], [ 134.136409315, 35.012201331 ], [ 134.13655660399999, 35.012136683 ], [ 134.13689272799999, 35.011877556 ], [ 134.137027251, 35.011742826 ], [ 134.137293806, 35.011475405 ], [ 134.13764471799999, 35.011284589 ], [ 134.137765884, 35.011179085 ], [ 134.137910498, 35.010944423 ], [ 134.13798929699999, 35.010765759 ], [ 134.13808964399999, 35.010513854 ], [ 134.13814011, 35.0102648 ], [ 134.138126306, 35.010077194 ], [ 134.13809486400001, 35.009816284 ], [ 134.138059700000014, 35.009622781 ], [ 134.13821308499999, 35.009538029 ], [ 134.13835587, 35.009439059 ], [ 134.13845177799999, 35.009360457 ], [ 134.138545103000013, 35.009308793 ], [ 134.138696306000014, 35.009282093 ], [ 134.138850077, 35.009234671 ], [ 134.139057949, 35.009092026 ] ] ] } },
{ "type": "Feature", "properties": { "A29_001": "33215", "A29_002": "岡山県", "A29_003": "美作市", "A29_004": 6, "A29_005": "第二種住居地域", "A29_006": 60, "A29_007": 200, "A29_008": null }, "geometry": { "type": "Polygon", "coordinates": [ [ [ 134.130702493, 35.002211181 ], [ 134.130602856, 35.002216479 ], [ 134.12946445099999, 35.001891543 ], [ 134.129626753999986, 35.001625797 ], [ 134.1296279, 35.001163432 ], [ 134.129821412000013, 35.000726725 ], [ 134.12967584, 35.000454127 ], [ 134.129568174000013, 35.000415944 ], [ 134.129560586999986, 35.000371594 ], [ 134.129606880000011, 35.000327336 ], [ 134.12964560099999, 35.000232394 ], [ 134.129545678999989, 35.000175222 ], [ 134.12952298, 35.000016839 ], [ 134.129677848999989, 34.999643405 ], [ 134.129801472, 34.999453599 ], [ 134.129994243999988, 34.999314578 ], [ 134.130025361, 34.999181621 ], [ 134.129709515, 34.999288765 ], [ 134.129501742, 34.999269415 ], [ 134.129209159999988, 34.999306926 ], [ 134.12883225600001, 34.99920495 ], [ 134.128588192, 34.999219132 ], [ 134.12843658700001, 34.999318424 ], [ 134.12835784399999, 34.999470703 ], [ 134.12826842199999, 34.999620033 ], [ 134.128211013999987, 34.999787004 ], [ 134.12812826199999, 35.000118068 ], [ 134.12852937299999, 35.000287517 ], [ 134.128675461, 35.000351101 ], [ 134.128844168, 35.000604738 ], [ 134.12896645699999, 35.000953303 ], [ 134.128921585, 35.001243686 ], [ 134.128763842000012, 35.00165083 ], [ 134.12870159, 35.002091025 ], [ 134.128629960000012, 35.002534426 ], [ 134.128529426999989, 35.002790209 ], [ 134.128412137, 35.003019032 ], [ 134.128346276, 35.003168143 ], [ 134.12826044, 35.003246754 ], [ 134.127977765999987, 35.003474255 ], [ 134.127755624, 35.003668697 ], [ 134.127573719, 35.003888078 ], [ 134.12733188499999, 35.004328005 ], [ 134.127095766999986, 35.004672014 ], [ 134.126872953, 35.004938384 ], [ 134.12665519, 35.004984886 ], [ 134.126410668, 35.005061153 ], [ 134.12593371599999, 35.005412669 ], [ 134.12562959600001, 35.005558623 ], [ 134.125144514999988, 35.00560846 ], [ 134.124951382, 35.00588048 ], [ 134.124873552999986, 35.006216038 ], [ 134.124913197000012, 35.006343534 ], [ 134.125034691, 35.006418997 ], [ 134.125147647, 35.006444164 ], [ 134.12567357099999, 35.006432764 ], [ 134.125834935, 35.00654705 ], [ 134.126604902, 35.006472363 ], [ 134.126966759, 35.006447646 ], [ 134.127202696000012, 35.006457368 ], [ 134.127353768, 35.006612159 ], [ 134.127454784, 35.007124136 ], [ 134.127467118999988, 35.007227783 ], [ 134.127522269999986, 35.007333576 ], [ 134.127511535999986, 35.007596769 ], [ 134.127528966, 35.007677628 ], [ 134.127765258000011, 35.007872846 ], [ 134.12818477799999, 35.007322262 ], [ 134.128611936999988, 35.006736457 ], [ 134.129046595, 35.006171388 ], [ 134.129211002, 35.00589809 ], [ 134.129475705, 35.005809416 ], [ 134.129471067999987, 35.005647751 ], [ 134.12941608, 35.005475638 ], [ 134.12958987, 35.005172812 ], [ 134.129855327, 35.004398103 ], [ 134.130190855, 35.003459007 ], [ 134.13025828100001, 35.003324268 ], [ 134.13029959, 35.003309244 ], [ 134.13040268, 35.003345264 ], [ 134.13047360499999, 35.003407643 ], [ 134.130511802, 35.00351438 ], [ 134.130702493, 35.002211181 ] ] ] } },
{ "type": "Feature", "properties": { "A29_001": "33215", "A29_002": "岡山県", "A29_003": "美作市", "A29_004": 8, "A29_005": "近隣商業地域", "A29_006": 80, "A29_007": 200, "A29_008": null }, "geometry": { "type": "Polygon", "coordinates": [ [ [ 134.152967111, 35.002959767 ], [ 134.153055008, 35.002803327 ], [ 134.152826979, 35.002671319 ], [ 134.152543635, 35.002324682 ], [ 134.15249636499999, 35.00212117 ], [ 134.151833141, 35.001976874 ], [ 134.151293665, 35.001772413 ], [ 134.151050214, 35.001651711 ], [ 134.150720772, 35.001419803 ], [ 134.15012561399999, 35.000965342 ], [ 134.14966135899999, 35.000662266 ], [ 134.149204354, 35.000473359 ], [ 134.14867222699999, 35.000346042 ], [ 134.14833478599999, 35.000345522 ], [ 134.147879820000014, 35.000439087 ], [ 134.147510122999989, 35.000539858 ], [ 134.146439277000013, 35.000949912 ], [ 134.145422485000012, 35.001327897 ], [ 134.144777198000014, 35.001499455 ], [ 134.144713888000013, 35.001604451 ], [ 134.14508603199999, 35.002286418 ], [ 134.14561100200001, 35.002805678 ], [ 134.145748340000011, 35.002970635 ], [ 134.146314716, 35.003604376 ], [ 134.146654423, 35.003975598 ], [ 134.14684234399999, 35.00418757 ], [ 134.147095427000011, 35.004118766 ], [ 134.146966686000013, 35.003873347 ], [ 134.14700054299999, 35.003434918 ], [ 134.147125273, 35.002993919 ], [ 134.14735463, 35.002710428 ], [ 134.147568600999989, 35.002599692 ], [ 134.147798130000012, 35.00254185 ], [ 134.148152329999988, 35.002491731 ], [ 134.148260325, 35.002428723 ], [ 134.14845127699999, 35.002379054 ], [ 134.148746348, 35.00231884 ], [ 134.149583611999986, 35.002243404 ], [ 134.15023863799999, 35.002199802 ], [ 134.150785141999989, 35.002197074 ], [ 134.151344373, 35.002324634 ], [ 134.151784316, 35.002459149 ], [ 134.152245920000013, 35.002606188 ], [ 134.152510204, 35.002712235 ], [ 134.152662445, 35.002796395 ], [ 134.152967111, 35.002959767 ] ] ] } },
{ "type": "Feature", "properties": { "A29_001": "33215", "A29_002": "岡山県", "A29_003": "美作市", "A29_004": 5, "A29_005": "第一種住居地域", "A29_006": 60, "A29_007": 200, "A29_008": null }, "geometry": { "type": "Polygon", "coordinates": [ [ [ 134.152510204, 35.002712235 ], [ 134.152245920000013, 35.002606188 ], [ 134.151784316, 35.002459149 ], [ 134.151344373, 35.002324634 ], [ 134.150785141999989, 35.002197074 ], [ 134.15023863799999, 35.002199802 ], [ 134.149583611999986, 35.002243404 ], [ 134.148746348, 35.00231884 ], [ 134.14845127699999, 35.002379054 ], [ 134.148260325, 35.002428723 ], [ 134.148152329999988, 35.002491731 ], [ 134.149697049999986, 35.003173797 ], [ 134.150880719000014, 35.003706285 ], [ 134.152510204, 35.002712235 ] ] ] } },
{ "type": "Feature", "properties": { "A29_001": "33215", "A29_002": "岡山県", "A29_003": "美作市", "A29_004": 10, "A29_005": "準工業地域", "A29_006": 60, "A29_007": 200, "A29_008": null }, "geometry": { "type": "Polygon", "coordinates": [ [ [ 134.15249636499999, 35.00212117 ], [ 134.152543635, 35.002324682 ], [ 134.152826979, 35.002671319 ], [ 134.153055008, 35.002803327 ], [ 134.152967111, 35.002959767 ], [ 134.153307805999987, 35.003197864 ], [ 134.153659522999988, 35.003534683 ], [ 134.15413428, 35.004189458 ], [ 134.154584512000014, 35.004060562 ], [ 134.155109821999986, 35.00389167 ], [ 134.155380294, 35.003660691 ], [ 134.155575378, 35.003611623 ], [ 134.15556113299999, 35.003266065 ], [ 134.155583986000011, 35.00309949 ], [ 134.15561423599999, 35.002979201 ], [ 134.155524697, 35.002766167 ], [ 134.155465807000013, 35.00224463 ], [ 134.15453594499999, 35.002240148 ], [ 134.153144978, 35.002197934 ], [ 134.152751364000011, 35.002160312 ], [ 134.15249636499999, 35.00212117 ] ] ] } },
{ "type": "Feature", "properties": { "A29_001": "33215", "A29_002": "岡山県", "A29_003": "美作市", "A29_004": 5, "A29_005": "第一種住居地域", "A29_006": 60, "A29_007": 200, "A29_008": null }, "geometry": { "type": "Polygon", "coordinates": [ [ [ 134.15066027200001, 35.011758303 ], [ 134.15059195, 35.011576939 ], [ 134.150452481, 35.01138352 ], [ 134.150277964, 35.011222933 ], [ 134.149983717999987, 35.010979946 ], [ 134.14969940099999, 35.01076575 ], [ 134.149450273000014, 35.010457057 ], [ 134.14933673199999, 35.009844369 ], [ 134.14927741299999, 35.00956063 ], [ 134.149208222, 35.009223436 ], [ 134.149089429000014, 35.008725842 ], [ 134.148950874, 35.008129557 ], [ 134.148649777, 35.007013264 ], [ 134.148523143, 35.006633586 ], [ 134.148452428000013, 35.006398999 ], [ 134.148313597, 35.008101826 ], [ 134.148096419000012, 35.00962559 ], [ 134.148058021, 35.010023524 ], [ 134.148098886000014, 35.010193274 ], [ 134.148289256, 35.01057922 ], [ 134.148461309999988, 35.010773854 ], [ 134.148730867000012, 35.010965551 ], [ 134.149090408, 35.011163556 ], [ 134.149656553, 35.011374093 ], [ 134.15066027200001, 35.011758303 ] ] ] } },
{ "type": "Feature", "properties": { "A29_001": "33215", "A29_002": "岡山県", "A29_003": "美作市", "A29_004": 8, "A29_005": "近隣商業地域", "A29_006": 80, "A29_007": 200, "A29_008": null }, "geometry": { "type": "Polygon", "coordinates": [ [ [ 134.151563229, 35.012102122 ], [ 134.151593737000013, 35.011873866 ], [ 134.151595952, 35.011705892 ], [ 134.151386660000014, 35.011454819 ], [ 134.15116747499999, 35.011158509 ], [ 134.151012998, 35.010973289 ], [ 134.15057920000001, 35.010573882 ], [ 134.150399752, 35.010384511 ], [ 134.150235341000013, 35.010174609 ], [ 134.150131033, 35.009899025 ], [ 134.149962409000011, 35.009339695 ], [ 134.149863283, 35.008981902 ], [ 134.149769303, 35.008558343 ], [ 134.149650645, 35.007999088 ], [ 134.14929554, 35.006650208 ], [ 134.149134616999987, 35.006511124 ], [ 134.14908591299999, 35.006492538 ], [ 134.148768698999987, 35.005822555 ], [ 134.148438703000011, 35.005834383 ], [ 134.148471871999988, 35.006090508 ], [ 134.148452428000013, 35.006398999 ], [ 134.148523143, 35.006633586 ], [ 134.148649777, 35.007013264 ], [ 134.148950874, 35.008129557 ], [ 134.149089429000014, 35.008725842 ], [ 134.149208222, 35.009223436 ], [ 134.14927741299999, 35.00956063 ], [ 134.14933673199999, 35.009844369 ], [ 134.149450273000014, 35.010457057 ], [ 134.14969940099999, 35.01076575 ], [ 134.149983717999987, 35.010979946 ], [ 134.150277964, 35.011222933 ], [ 134.150452481, 35.01138352 ], [ 134.15059195, 35.011576939 ], [ 134.15066027200001, 35.011758303 ], [ 134.15098623599999, 35.011882204 ], [ 134.151563229, 35.012102122 ] ] ] } },
{ "type": "Feature", "properties": { "A29_001": "33215", "A29_002": "岡山県", "A29_003": "美作市", "A29_004": 5, "A29_005": "第一種住居地域", "A29_006": 60, "A29_007": 200, "A29_008": null }, "geometry": { "type": "Polygon", "coordinates": [ [ [ 134.14929554, 35.006650208 ], [ 134.149650645, 35.007999088 ], [ 134.149769303, 35.008558343 ], [ 134.149863283, 35.008981902 ], [ 134.149962409000011, 35.009339695 ], [ 134.150131033, 35.009899025 ], [ 134.150235341000013, 35.010174609 ], [ 134.150399752, 35.010384511 ], [ 134.15057920000001, 35.010573882 ], [ 134.151012998, 35.010973289 ], [ 134.15116747499999, 35.011158509 ], [ 134.151386660000014, 35.011454819 ], [ 134.151595952, 35.011705892 ], [ 134.151593737000013, 35.011873866 ], [ 134.151563229, 35.012102122 ], [ 134.152222572, 35.012390035 ], [ 134.15246345700001, 35.011989326 ], [ 134.15184252, 35.01129423 ], [ 134.151166, 35.010302862 ], [ 134.15083757799999, 35.009602025 ], [ 134.150723234, 35.008750337 ], [ 134.150567762, 35.007846137 ], [ 134.150564564, 35.007599317 ], [ 134.149920380999987, 35.007255871 ], [ 134.14964351899999, 35.006980862 ], [ 134.14929554, 35.006650208 ] ] ] } },
{ "type": "Feature", "properties": { "A29_001": "33215", "A29_002": "岡山県", "A29_003": "美作市", "A29_004": 5, "A29_005": "第一種住居地域", "A29_006": 60, "A29_007": 200, "A29_008": null }, "geometry": { "type": "Polygon", "coordinates": [ [ [ 134.145815327, 35.014033469 ], [ 134.145952435, 35.014189729 ], [ 134.146212780000013, 35.014026222 ], [ 134.14648502599999, 35.013972005 ], [ 134.147333997, 35.013788452 ], [ 134.148126002999987, 35.013556016 ], [ 134.148549965, 35.013321285 ], [ 134.148741961000013, 35.013185058 ], [ 134.148848281999989, 35.012980439 ], [ 134.148914494, 35.012799297 ], [ 134.148943917999986, 35.012439208 ], [ 134.148938468000011, 35.012319156 ], [ 134.148847396, 35.012107173 ], [ 134.148787539000011, 35.012008221 ], [ 134.148438934000012, 35.011817028 ], [ 134.148241774000013, 35.011708449 ], [ 134.147907683, 35.011425476 ], [ 134.147565084, 35.011109531 ], [ 134.14738249199999, 35.010885632 ], [ 134.147170811, 35.010873535 ], [ 134.14714706, 35.011130262 ], [ 134.14711153799999, 35.011493482 ], [ 134.147054126, 35.01186197 ], [ 134.14684538099999, 35.012443039 ], [ 134.146445035999989, 35.01326444 ], [ 134.146163551, 35.013645573 ], [ 134.145815327, 35.014033469 ] ] ] } },
{ "type": "Feature", "properties": { "A29_001": "33215", "A29_002": "岡山県", "A29_003": "美作市", "A29_004": 5, "A29_005": "第一種住居地域", "A29_006": 60, "A29_007": 200, "A29_008": null }, "geometry": { "type": "Polygon", "coordinates": [ [ [ 134.155920006, 35.017877557 ], [ 134.155739985, 35.017672676 ], [ 134.155505612000013, 35.017454461 ], [ 134.155281171000013, 35.017265035 ], [ 134.15502173499999, 35.017083778 ], [ 134.15465243599999, 35.016873583 ], [ 134.154058303, 35.016654831 ], [ 134.152695225, 35.016188281 ], [ 134.152126135, 35.016005554 ], [ 134.150528092, 35.015543736 ], [ 134.149848932999987, 35.015370053 ], [ 134.149314782, 35.015151368 ], [ 134.149005342, 35.014994686 ], [ 134.148726024000013, 35.014776388 ], [ 134.14838213199999, 35.014389448 ], [ 134.148143440000013, 35.01406682 ], [ 134.147931097999987, 35.014137228 ], [ 134.147954320999986, 35.014194813 ], [ 134.147862706000012, 35.014221741 ], [ 134.146829430999986, 35.014415513 ], [ 134.146477283, 35.014520888 ], [ 134.14620521099999, 35.014640511 ], [ 134.146018975, 35.014757912 ], [ 134.145781023000012, 35.014969386 ], [ 134.145565855, 35.015225617 ], [ 134.145270262999986, 35.015618244 ], [ 134.14510097199999, 35.015829824 ], [ 134.14494894500001, 35.015999061 ], [ 134.144693765999989, 35.016234044 ], [ 134.144192119, 35.016647532 ], [ 134.143767935, 35.016966986 ], [ 134.144084905999989, 35.017231112 ], [ 134.144510765, 35.017424792 ], [ 134.144739377, 35.017545194 ], [ 134.14488811699999, 35.017561903 ], [ 134.145365556, 35.017722707 ], [ 134.145582714999989, 35.017847797 ], [ 134.145651371000014, 35.017852612 ], [ 134.145734409, 35.017824495 ], [ 134.14609257399999, 35.017596731 ], [ 134.146319693, 35.017506787 ], [ 134.146625070999988, 35.017453973 ], [ 134.14690273299999, 35.017395556 ], [ 134.14710603899999, 35.017322902 ], [ 134.147366850999987, 35.017125584 ], [ 134.147438529999988, 35.017059787 ], [ 134.147590737, 35.016810517 ], [ 134.14770252400001, 35.016721245 ], [ 134.147834225999986, 35.016681432 ], [ 134.14809041800001, 35.016773357 ], [ 134.148412321, 35.01688886 ], [ 134.148617664, 35.016906246 ], [ 134.14879507500001, 35.016897103 ], [ 134.149652011, 35.016808415 ], [ 134.15059137599999, 35.016759172 ], [ 134.151022324, 35.016842162 ], [ 134.151278373, 35.016969136 ], [ 134.151395232999988, 35.017169386 ], [ 134.151463406, 35.017390746 ], [ 134.1516145, 35.01763577 ], [ 134.151697452, 35.01764531 ], [ 134.151734882999989, 35.017539445 ], [ 134.151983984999987, 35.017457437 ], [ 134.152499111999987, 35.017465087 ], [ 134.153591718, 35.017751736 ], [ 134.154607230000011, 35.01808893 ], [ 134.155049182999988, 35.018238942 ], [ 134.155458278999987, 35.018371177 ], [ 134.155630376, 35.018176064 ], [ 134.15576237499999, 35.017999723 ], [ 134.155920006, 35.017877557 ] ] ] } },
{ "type": "Feature", "properties": { "A29_001": "33215", "A29_002": "岡山県", "A29_003": "美作市", "A29_004": 6, "A29_005": "第二種住居地域", "A29_006": 60, "A29_007": 200, "A29_008": null }, "geometry": { "type": "Polygon", "coordinates": [ [ [ 134.148143440000013, 35.01406682 ], [ 134.14838213199999, 35.014389448 ], [ 134.148726024000013, 35.014776388 ], [ 134.149005342, 35.014994686 ], [ 134.149314782, 35.015151368 ], [ 134.149848932999987, 35.015370053 ], [ 134.150528092, 35.015543736 ], [ 134.152126135, 35.016005554 ], [ 134.152695225, 35.016188281 ], [ 134.154058303, 35.016654831 ], [ 134.15465243599999, 35.016873583 ], [ 134.15502173499999, 35.017083778 ], [ 134.155281171000013, 35.017265035 ], [ 134.155505612000013, 35.017454461 ], [ 134.155739985, 35.017672676 ], [ 134.155920006, 35.017877557 ], [ 134.156220776, 35.017717941 ], [ 134.156010161000012, 35.017512754 ], [ 134.155770899, 35.017245203 ], [ 134.155581289, 35.017072058 ], [ 134.155407039000011, 35.016944695 ], [ 134.155081289, 35.016753556 ], [ 134.154775496000013, 35.016595399 ], [ 134.154469688, 35.016444302 ], [ 134.154373631, 35.016412764 ], [ 134.153696008999987, 35.016211073 ], [ 134.153379777, 35.016110992 ], [ 134.15185706, 35.015611516 ], [ 134.15114305899999, 35.015376126 ], [ 134.150558855000014, 35.015194368 ], [ 134.15015423700001, 35.015144425 ], [ 134.14972988299999, 35.014983459 ], [ 134.149256269, 35.01475113 ], [ 134.149061104, 35.014641245 ], [ 134.148830921000012, 35.014331502 ], [ 134.1484427, 35.013942528 ], [ 134.148143440000013, 35.01406682 ] ] ] } },
{ "type": "Feature", "properties": { "A29_001": "33215", "A29_002": "岡山県", "A29_003": "美作市", "A29_004": 9, "A29_005": "商業地域", "A29_006": 80, "A29_007": 400, "A29_008": null }, "geometry": { "type": "Polygon", "coordinates": [ [ [ 134.136829126, 34.993702389 ], [ 134.136273851999988, 34.99268895 ], [ 134.135936101, 34.99207804 ], [ 134.13580729099999, 34.991848353 ], [ 134.135572063000012, 34.991642151 ], [ 134.135307931, 34.991502143 ], [ 134.13491732599999, 34.991357196 ], [ 134.134707592000012, 34.99130954 ], [ 134.134677401, 34.991553884 ], [ 134.133798715000012, 34.991511511 ], [ 134.13362860399999, 34.991623427 ], [ 134.133386863999988, 34.992129739 ], [ 134.13332843, 34.992422583 ], [ 134.132818621000013, 34.992390076 ], [ 134.132366399, 34.992413083 ], [ 134.132304836, 34.993013435 ], [ 134.132328613999988, 34.993321777 ], [ 134.13235427699999, 34.993771428 ], [ 134.132952165, 34.993665975 ], [ 134.133556424, 34.993618469 ], [ 134.133796640000014, 34.99355551 ], [ 134.134225028, 34.993532554 ], [ 134.134287986, 34.993650944 ], [ 134.134382772, 34.993684219 ], [ 134.13496036699999, 34.993777426 ], [ 134.136084057, 34.993916466 ], [ 134.13653509, 34.994042582 ], [ 134.136730618, 34.99388491 ], [ 134.136817435000012, 34.993782806 ], [ 134.13678877800001, 34.993744907 ], [ 134.136829126, 34.993702389 ] ] ] } }
]
}
