{
"type": "FeatureCollection",
"name": "A29-19_08229",
"features": [
{ "type": "Feature", "properties": { "A29_001": "08229", "A29_002": "茨城県", "A29_003": "稲敷市", "A29_004": 4, "A29_005": "第二種中高層住居専用地域", "A29_006": 60, "A29_007": 200, "A29_008": null }, "geometry": { "type": "Polygon", "coordinates": [ [ [ 140.298728769, 35.904520756 ], [ 140.298718392000012, 35.90439424 ], [ 140.298734392999989, 35.904305701 ], [ 140.29875441199999, 35.904198106 ], [ 140.298839507999986, 35.903920024 ], [ 140.298501837, 35.903945448 ], [ 140.298491882, 35.903795935 ], [ 140.29849092, 35.903771946 ], [ 140.298011871, 35.903867231 ], [ 140.297938617999989, 35.903641547 ], [ 140.29791093899999, 35.90355627 ], [ 140.297803751, 35.903588044 ], [ 140.29767060899999, 35.90339454 ], [ 140.297666128, 35.903388028 ], [ 140.29763159399999, 35.903337837 ], [ 140.29755579, 35.903389034 ], [ 140.29744225799999, 35.903446086 ], [ 140.297595445000013, 35.903747885 ], [ 140.297647688000012, 35.903736483 ], [ 140.297805793, 35.903937466 ], [ 140.297649205999988, 35.90399631 ], [ 140.297785272999988, 35.904195138 ], [ 140.297645047, 35.90422704 ], [ 140.29776953199999, 35.904438996 ], [ 140.29794086199999, 35.90443645 ], [ 140.297953, 35.904480222 ], [ 140.298110333000011, 35.904824194 ], [ 140.298213578, 35.90504305 ], [ 140.298611891, 35.904956122 ], [ 140.298751837, 35.904933935 ], [ 140.298782023, 35.904917019 ], [ 140.29879865699999, 35.90489087 ], [ 140.298770001, 35.90474459 ], [ 140.29874852, 35.904602437 ], [ 140.298728769, 35.904520756 ] ] ] } },
{ "type": "Feature", "properties": { "A29_001": "08229", "A29_002": "茨城県", "A29_003": "稲敷市", "A29_004": 4, "A29_005": "第二種中高層住居専用地域", "A29_006": 60, "A29_007": 200, "A29_008": null }, "geometry": { "type": "Polygon", "coordinates": [ [ [ 140.29525917, 35.908685874 ], [ 140.295352495, 35.908636236 ], [ 140.295556342, 35.908653371 ], [ 140.295552156000014, 35.908406994 ], [ 140.295425607999988, 35.908011146 ], [ 140.295411484, 35.907890111 ], [ 140.295403964, 35.907820874 ], [ 140.295445744, 35.907789773 ], [ 140.295552394, 35.907773432 ], [ 140.295637344, 35.90777937 ], [ 140.29573964, 35.907802479 ], [ 140.295858374, 35.9075636 ], [ 140.295959161000013, 35.907377297 ], [ 140.295939328, 35.907281056 ], [ 140.296059388, 35.907094679 ], [ 140.296149579, 35.906947615 ], [ 140.29609269299999, 35.9069222 ], [ 140.29568923, 35.906767552 ], [ 140.29548546699999, 35.90670605 ], [ 140.29547760299999, 35.906703676 ], [ 140.295258375, 35.906634182 ], [ 140.294805427999989, 35.90664095 ], [ 140.294767344, 35.906727821 ], [ 140.294739072, 35.906837687 ], [ 140.294687788, 35.907014839 ], [ 140.294631665999987, 35.907069933 ], [ 140.294604263999986, 35.907092437 ], [ 140.29420650099999, 35.906869971 ], [ 140.294016617000011, 35.907297179 ], [ 140.293991749000014, 35.907345661 ], [ 140.293681439000011, 35.907393202 ], [ 140.293615217, 35.907461342 ], [ 140.29361830799999, 35.907519568 ], [ 140.293522775000014, 35.90766329 ], [ 140.293412917000012, 35.90771075 ], [ 140.29319678499999, 35.907949011 ], [ 140.293235641, 35.908002621 ], [ 140.293266316, 35.908069701 ], [ 140.29327782199999, 35.908154775 ], [ 140.293231794, 35.908289347 ], [ 140.293270793, 35.908367596 ], [ 140.293326416000014, 35.9084637 ], [ 140.293357117, 35.90853526 ], [ 140.293344009, 35.9085709 ], [ 140.29331916699999, 35.908638442 ], [ 140.293460479, 35.908792457 ], [ 140.29362676400001, 35.908796593 ], [ 140.293694547, 35.908798279 ], [ 140.293663806000012, 35.908957432 ], [ 140.294423499, 35.908917559 ], [ 140.294625703, 35.908888783 ], [ 140.294825193, 35.908866737 ], [ 140.295061403, 35.908767272 ], [ 140.29525917, 35.908685874 ] ] ] } },
{ "type": "Feature", "properties": { "A29_001": "08229", "A29_002": "茨城県", "A29_003": "稲敷市", "A29_004": 1, "A29_005": "第一種低層住居専用地域", "A29_006": 40, "A29_007": 80, "A29_008": null }, "geometry": { "type": "Polygon", "coordinates": [ [ [ 140.295232723999987, 35.910441732 ], [ 140.29530094399999, 35.910429056 ], [ 140.295319776000014, 35.910429554 ], [ 140.295709361, 35.910439861 ], [ 140.29574391700001, 35.910440778 ], [ 140.295916194, 35.91044175 ], [ 140.296386332999987, 35.910444361 ], [ 140.296535573999989, 35.910436644 ], [ 140.296659088000013, 35.91007596 ], [ 140.297098785, 35.909296779 ], [ 140.297145024, 35.909274138 ], [ 140.297170778, 35.909261528 ], [ 140.297496472, 35.909073556 ], [ 140.297510786, 35.909065641 ], [ 140.298211694, 35.908678028 ], [ 140.298234083000011, 35.908668778 ], [ 140.298320694000012, 35.908633 ], [ 140.298332722, 35.908629111 ], [ 140.298404188, 35.908606107 ], [ 140.297409168, 35.907937381 ], [ 140.296463112999987, 35.907308335 ], [ 140.296059388, 35.907094679 ], [ 140.295939328, 35.907281056 ], [ 140.295959161000013, 35.907377297 ], [ 140.295858374, 35.9075636 ], [ 140.29573964, 35.907802479 ], [ 140.295637344, 35.90777937 ], [ 140.295552394, 35.907773432 ], [ 140.295445744, 35.907789773 ], [ 140.295403964, 35.907820874 ], [ 140.295411484, 35.907890111 ], [ 140.295425607999988, 35.908011146 ], [ 140.295552156000014, 35.908406994 ], [ 140.295556342, 35.908653371 ], [ 140.295352495, 35.908636236 ], [ 140.29525917, 35.908685874 ], [ 140.295061403, 35.908767272 ], [ 140.294825193, 35.908866737 ], [ 140.294625703, 35.908888783 ], [ 140.294423499, 35.908917559 ], [ 140.293663806000012, 35.908957432 ], [ 140.293694547, 35.908798279 ], [ 140.29362676400001, 35.908796593 ], [ 140.293460479, 35.908792457 ], [ 140.29331916699999, 35.908638442 ], [ 140.293344009, 35.9085709 ], [ 140.293357117, 35.90853526 ], [ 140.293326416000014, 35.9084637 ], [ 140.293270793, 35.908367596 ], [ 140.293231794, 35.908289347 ], [ 140.29327782199999, 35.908154775 ], [ 140.293266316, 35.908069701 ], [ 140.293235641, 35.908002621 ], [ 140.29319678499999, 35.907949011 ], [ 140.293412917000012, 35.90771075 ], [ 140.293522775000014, 35.90766329 ], [ 140.29361830799999, 35.907519568 ], [ 140.293615217, 35.907461342 ], [ 140.293681439000011, 35.907393202 ], [ 140.293991749000014, 35.907345661 ], [ 140.294016617000011, 35.907297179 ], [ 140.29420650099999, 35.906869971 ], [ 140.294604263999986, 35.907092437 ], [ 140.294631665999987, 35.907069933 ], [ 140.294687788, 35.907014839 ], [ 140.294739072, 35.906837687 ], [ 140.294767344, 35.906727821 ], [ 140.294805427999989, 35.90664095 ], [ 140.294776187, 35.906591151 ], [ 140.294218926000013, 35.906388248 ], [ 140.293806735, 35.906301441 ], [ 140.29349822099999, 35.906275744 ], [ 140.293035839999988, 35.906304394 ], [ 140.292683845, 35.906377419 ], [ 140.291073746, 35.906952511 ], [ 140.289562714999988, 35.907522726 ], [ 140.292064547, 35.90974865 ], [ 140.293714305, 35.911195479 ], [ 140.293817722, 35.911080417 ], [ 140.293884444000014, 35.911032806 ], [ 140.294076639, 35.91089575 ], [ 140.294211934, 35.910817697 ], [ 140.294312472, 35.910759694 ], [ 140.29453616699999, 35.910648889 ], [ 140.294790721999988, 35.910545306 ], [ 140.295010028, 35.910483111 ], [ 140.295232723999987, 35.910441732 ] ] ] } },
{ "type": "Feature", "properties": { "A29_001": "08229", "A29_002": "茨城県", "A29_003": "稲敷市", "A29_004": 6, "A29_005": "第二種住居地域", "A29_006": 60, "A29_007": 200, "A29_008": null }, "geometry": { "type": "Polygon", "coordinates": [ [ [ 140.29621685699999, 35.91262223 ], [ 140.296410716, 35.910923613 ], [ 140.296535573999989, 35.910436644 ], [ 140.296386332999987, 35.910444361 ], [ 140.295916194, 35.91044175 ], [ 140.29574391700001, 35.910440778 ], [ 140.295709361, 35.910439861 ], [ 140.295319776000014, 35.910429554 ], [ 140.29530094399999, 35.910429056 ], [ 140.295232723999987, 35.910441732 ], [ 140.295010028, 35.910483111 ], [ 140.294790721999988, 35.910545306 ], [ 140.29453616699999, 35.910648889 ], [ 140.294312472, 35.910759694 ], [ 140.294211934, 35.910817697 ], [ 140.294076639, 35.91089575 ], [ 140.293884444000014, 35.911032806 ], [ 140.293817722, 35.911080417 ], [ 140.293714305, 35.911195479 ], [ 140.292064547, 35.90974865 ], [ 140.289562714999988, 35.907522726 ], [ 140.291073746, 35.906952511 ], [ 140.292683845, 35.906377419 ], [ 140.293035839999988, 35.906304394 ], [ 140.29349822099999, 35.906275744 ], [ 140.293806735, 35.906301441 ], [ 140.294218926000013, 35.906388248 ], [ 140.294776187, 35.906591151 ], [ 140.294805427999989, 35.90664095 ], [ 140.295258375, 35.906634182 ], [ 140.29547760299999, 35.906703676 ], [ 140.29548546699999, 35.90670605 ], [ 140.29568923, 35.906767552 ], [ 140.29609269299999, 35.9069222 ], [ 140.296149579, 35.906947615 ], [ 140.296059388, 35.907094679 ], [ 140.296463112999987, 35.907308335 ], [ 140.297409168, 35.907937381 ], [ 140.298404188, 35.908606107 ], [ 140.298429806, 35.908597861 ], [ 140.298772557, 35.908563639 ], [ 140.298791720999986, 35.908559638 ], [ 140.298853627, 35.908546719 ], [ 140.298961698999989, 35.908588961 ], [ 140.29913842, 35.908650729 ], [ 140.299636953, 35.908789821 ], [ 140.300110081000014, 35.908890047 ], [ 140.300390564999987, 35.909013215 ], [ 140.30062250099999, 35.909124309 ], [ 140.301246842000012, 35.90954809 ], [ 140.301917476999989, 35.909990238 ], [ 140.30216187, 35.909801484 ], [ 140.302248166999988, 35.909677111 ], [ 140.301727814, 35.909339777 ], [ 140.30130332600001, 35.909031984 ], [ 140.30080170299999, 35.90871224 ], [ 140.300542353, 35.908604956 ], [ 140.300242048, 35.90849704 ], [ 140.299753576, 35.908379549 ], [ 140.299422633, 35.908286757 ], [ 140.299157763000011, 35.908197851 ], [ 140.298680926, 35.907881815 ], [ 140.29791588099999, 35.907392971 ], [ 140.297239579, 35.90692885 ], [ 140.296786406, 35.906648368 ], [ 140.296409484, 35.906444876 ], [ 140.295982844, 35.906259248 ], [ 140.29520213399999, 35.905978011 ], [ 140.29480419699999, 35.905851868 ], [ 140.294759069, 35.905837562 ], [ 140.294758049, 35.905837232 ], [ 140.294628042999989, 35.905795081 ], [ 140.294330841, 35.905698723 ], [ 140.294246965000013, 35.905671528 ], [ 140.293903281000013, 35.90562013 ], [ 140.293680305, 35.905604352 ], [ 140.293597604000013, 35.905598501 ], [ 140.293522149000012, 35.905593161 ], [ 140.292934164, 35.905623843 ], [ 140.292932748, 35.905737852 ], [ 140.292951888, 35.905832089 ], [ 140.292894459, 35.905899507 ], [ 140.292651482999986, 35.905943972 ], [ 140.292196237000013, 35.906090332 ], [ 140.2914104, 35.906366605 ], [ 140.29044330799999, 35.906724199 ], [ 140.289602444, 35.907029872 ], [ 140.288696802, 35.907380988 ], [ 140.290364692, 35.908897155 ], [ 140.291345931, 35.909751393 ], [ 140.292962288000012, 35.911201175 ], [ 140.293446077999988, 35.911571031 ], [ 140.29392977, 35.911853768 ], [ 140.294407419, 35.912078168 ], [ 140.294918989, 35.912249206 ], [ 140.29621685699999, 35.91262223 ] ] ] } },
{ "type": "Feature", "properties": { "A29_001": "08229", "A29_002": "茨城県", "A29_003": "稲敷市", "A29_004": 12, "A29_005": "工業専用地域", "A29_006": 60, "A29_007": 200, "A29_008": null }, "geometry": { "type": "Polygon", "coordinates": [ [ [ 140.313954525000014, 35.921234512 ], [ 140.314202935999987, 35.921056802 ], [ 140.314488075000014, 35.921075192 ], [ 140.31487140499999, 35.919737365 ], [ 140.31506816699999, 35.919581972 ], [ 140.31634614699999, 35.920649868 ], [ 140.316639301, 35.920421738 ], [ 140.316685345, 35.920483188 ], [ 140.316741037000014, 35.920557524 ], [ 140.316758666999988, 35.920581056 ], [ 140.316954778, 35.920788111 ], [ 140.317172722, 35.921001278 ], [ 140.317206528000014, 35.921022389 ], [ 140.31725908300001, 35.920973861 ], [ 140.317270452, 35.920964632 ], [ 140.3173965, 35.920862306 ], [ 140.317497667, 35.920784694 ], [ 140.317750553, 35.920655302 ], [ 140.317865694, 35.920596389 ], [ 140.318420890999988, 35.920276311 ], [ 140.31850483299999, 35.920227917 ], [ 140.31892522199999, 35.919969361 ], [ 140.319000972, 35.919880861 ], [ 140.319010612, 35.919806245 ], [ 140.319037861, 35.919595333 ], [ 140.319048333000012, 35.919514194 ], [ 140.319091917, 35.9191245 ], [ 140.319127138999988, 35.918809694 ], [ 140.31906494399999, 35.918796167 ], [ 140.31878872199999, 35.918771361 ], [ 140.318638806, 35.918754833 ], [ 140.318586583000013, 35.918741083 ], [ 140.31849430599999, 35.918694139 ], [ 140.318387833, 35.91861025 ], [ 140.318213472, 35.918471167 ], [ 140.31807030600001, 35.918351361 ], [ 140.317967556000013, 35.918270111 ], [ 140.317774694, 35.918169583 ], [ 140.317478134999988, 35.918210451 ], [ 140.316994074, 35.918306478 ], [ 140.316790852, 35.918396894 ], [ 140.316631742999988, 35.918496092 ], [ 140.316325231, 35.918808675 ], [ 140.315835174, 35.918371619 ], [ 140.315939789, 35.917914253 ], [ 140.315589675000012, 35.917643758 ], [ 140.31550207699999, 35.917933931 ], [ 140.31483638, 35.917804684 ], [ 140.314907194, 35.917555556 ], [ 140.315156556, 35.916719139 ], [ 140.31522702, 35.916448335 ], [ 140.315227247, 35.916447463 ], [ 140.31522779299999, 35.916445365 ], [ 140.315123766999989, 35.916424981 ], [ 140.312948231, 35.915952311 ], [ 140.312595028, 35.917103778 ], [ 140.31239497199999, 35.917773722 ], [ 140.31210611099999, 35.918741139 ], [ 140.311517465, 35.91862665 ], [ 140.31085257699999, 35.920920419 ], [ 140.31402956299999, 35.921580094 ], [ 140.314043457, 35.921368551 ], [ 140.313954525000014, 35.921234512 ] ] ] } },
{ "type": "Feature", "properties": { "A29_001": "08229", "A29_002": "茨城県", "A29_003": "稲敷市", "A29_004": 12, "A29_005": "工業専用地域", "A29_006": 60, "A29_007": 200, "A29_008": null }, "geometry": { "type": "Polygon", "coordinates": [ [ [ 140.35730449, 35.953464139 ], [ 140.357244218, 35.953319772 ], [ 140.357122561000011, 35.953343386 ], [ 140.35709605400001, 35.953293869 ], [ 140.357007307, 35.953166536 ], [ 140.356932589, 35.953081167 ], [ 140.35683458, 35.952999736 ], [ 140.356595875000011, 35.952771804 ], [ 140.35651791399999, 35.952646709 ], [ 140.35648397, 35.952512462 ], [ 140.35649567199999, 35.952432884 ], [ 140.356476777000012, 35.952257144 ], [ 140.35644274500001, 35.952109458 ], [ 140.356364638, 35.951961964 ], [ 140.356255524, 35.951869448 ], [ 140.356159635000012, 35.951788144 ], [ 140.35599373, 35.95169479 ], [ 140.355623444, 35.951521689 ], [ 140.355712442999987, 35.951414037 ], [ 140.356430611, 35.950545332 ], [ 140.35650027599999, 35.950469629 ], [ 140.35650978699999, 35.950400274 ], [ 140.356210366, 35.949651541 ], [ 140.356417822999987, 35.94936384 ], [ 140.356999473, 35.949576006 ], [ 140.357181313000012, 35.949646812 ], [ 140.357429215, 35.949482158 ], [ 140.357815230999989, 35.949539548 ], [ 140.358135761999989, 35.949010987 ], [ 140.357909412999987, 35.948918378 ], [ 140.357910838, 35.948784882 ], [ 140.35784767199999, 35.948747359 ], [ 140.356490073, 35.948024797 ], [ 140.356994261000011, 35.947333132 ], [ 140.356674504000011, 35.947161089 ], [ 140.35653326799999, 35.94708714 ], [ 140.35608151299999, 35.946829316 ], [ 140.355613723, 35.946563058 ], [ 140.35543446599999, 35.946455826 ], [ 140.35533761, 35.94640344 ], [ 140.355131121, 35.94630101 ], [ 140.3552675, 35.946219778 ], [ 140.35490055599999, 35.945819778 ], [ 140.354505382000013, 35.945386287 ], [ 140.354117083, 35.944960333 ], [ 140.3540595, 35.944887306 ], [ 140.353802889, 35.944883028 ], [ 140.353254416999988, 35.944893194 ], [ 140.35225650000001, 35.944935889 ], [ 140.352037422, 35.944942315 ], [ 140.352061150999987, 35.945152262 ], [ 140.351857316, 35.945153143 ], [ 140.351800535, 35.944945753 ], [ 140.351331797, 35.944933758 ], [ 140.350949026, 35.945264579 ], [ 140.350739455, 35.945419088 ], [ 140.352652694999989, 35.947414898 ], [ 140.352819622, 35.947595233 ], [ 140.352470806000014, 35.947829694 ], [ 140.35236888899999, 35.94787925 ], [ 140.35214151, 35.948019138 ], [ 140.35206523299999, 35.948065451 ], [ 140.352027222, 35.948094056 ], [ 140.352155583000012, 35.948254861 ], [ 140.352242194000013, 35.948379417 ], [ 140.352436278, 35.948678278 ], [ 140.352585111, 35.948935861 ], [ 140.352697444, 35.949127306 ], [ 140.352749654, 35.949204359 ], [ 140.352888025999988, 35.949408571 ], [ 140.3528985, 35.949424028 ], [ 140.352987431, 35.949544105 ], [ 140.353001791, 35.949563495 ], [ 140.353023417, 35.949592694 ], [ 140.353099555999989, 35.949667417 ], [ 140.353139344999988, 35.949693419 ], [ 140.35335646199999, 35.949419853 ], [ 140.35365761599999, 35.949584145 ], [ 140.353887039, 35.949709303 ], [ 140.353693548, 35.9499505 ], [ 140.353646612, 35.950009009 ], [ 140.3537125, 35.950041139 ], [ 140.35382575, 35.950096389 ], [ 140.354056716, 35.950213842 ], [ 140.354234389, 35.950304194 ], [ 140.354253214000011, 35.950314235 ], [ 140.35391882499999, 35.950775364 ], [ 140.353725158, 35.950648529 ], [ 140.353715717, 35.950629631 ], [ 140.353697243999989, 35.950592652 ], [ 140.353649854999986, 35.950507741 ], [ 140.35358293499999, 35.950384836 ], [ 140.353470711999989, 35.950447018 ], [ 140.353322178000013, 35.95052932 ], [ 140.353033667, 35.950642565 ], [ 140.352515428, 35.950913221 ], [ 140.352353111000014, 35.950731722 ], [ 140.352219209999987, 35.950789444 ], [ 140.352126899000012, 35.950669014 ], [ 140.351780694000013, 35.950848361 ], [ 140.351769752, 35.950856375 ], [ 140.35161355599999, 35.950970778 ], [ 140.351388390000011, 35.95113744 ], [ 140.351250166999989, 35.95123975 ], [ 140.35107130599999, 35.951375694 ], [ 140.351013233, 35.951406311 ], [ 140.351230898000011, 35.951734476 ], [ 140.351107285000012, 35.951788767 ], [ 140.351008553000014, 35.95185639 ], [ 140.35069291, 35.952034705 ], [ 140.351109091000012, 35.952487612 ], [ 140.35109522799999, 35.952583133 ], [ 140.351063896, 35.952738677 ], [ 140.352244291, 35.952939652 ], [ 140.35415835, 35.953271828 ], [ 140.35475951399999, 35.953363294 ], [ 140.354454538, 35.952624196 ], [ 140.354277776, 35.952160313 ], [ 140.354171036999986, 35.951847188 ], [ 140.354532339, 35.951491714 ], [ 140.354792757000013, 35.951714574 ], [ 140.354885943999989, 35.951777306 ], [ 140.35497905599999, 35.9518365 ], [ 140.355195028, 35.951936944 ], [ 140.355504139, 35.952049028 ], [ 140.35566772199999, 35.952135722 ], [ 140.355807903999988, 35.952253282 ], [ 140.355819028000013, 35.952262611 ], [ 140.355921833, 35.952387361 ], [ 140.355940546999989, 35.952447797 ], [ 140.355949667, 35.95247725 ], [ 140.35597422699999, 35.952596887 ], [ 140.35598005599999, 35.952625278 ], [ 140.356033722, 35.952770139 ], [ 140.35614883299999, 35.952973139 ], [ 140.356225779, 35.953099489 ], [ 140.356344974, 35.953158163 ], [ 140.35650007000001, 35.953282922 ], [ 140.356637419, 35.953495767 ], [ 140.356681337999987, 35.953572221 ], [ 140.35730449, 35.953464139 ] ] ] } },
{ "type": "Feature", "properties": { "A29_001": "08229", "A29_002": "茨城県", "A29_003": "稲敷市", "A29_004": 1, "A29_005": "第一種低層住居専用地域", "A29_006": 50, "A29_007": 100, "A29_008": null }, "geometry": { "type": "Polygon", "coordinates": [ [ [ 140.32295575, 35.953531611 ], [ 140.323102111, 35.953308139 ], [ 140.323299694000013, 35.953031472 ], [ 140.323360806000011, 35.952903417 ], [ 140.322986555999989, 35.952745861 ], [ 140.323466889, 35.951966528 ], [ 140.323735083, 35.951523111 ], [ 140.32427741699999, 35.950626528 ], [ 140.324519444, 35.950244944 ], [ 140.324674111, 35.95 ], [ 140.324674832999989, 35.949998861 ], [ 140.324767056000013, 35.949833917 ], [ 140.324921749999987, 35.949843944 ], [ 140.325, 35.949861944 ], [ 140.32500766699999, 35.949863694 ], [ 140.325164139, 35.949899694 ], [ 140.325429250000013, 35.9499435 ], [ 140.325618416999987, 35.949978694 ], [ 140.325635629, 35.949983598 ], [ 140.325676453999989, 35.949979367 ], [ 140.325728125000012, 35.949963862 ], [ 140.325757917, 35.949915167 ], [ 140.325946528, 35.949593306 ], [ 140.326071278, 35.949388083 ], [ 140.326108221999988, 35.949303833 ], [ 140.326171442, 35.949063409 ], [ 140.32614930299999, 35.9490591 ], [ 140.323944589, 35.948674119 ], [ 140.322728391999988, 35.948452853 ], [ 140.322346286999988, 35.948384815 ], [ 140.322272556, 35.948666361 ], [ 140.32209191699999, 35.949360444 ], [ 140.322069333, 35.949420028 ], [ 140.321649611, 35.949998861 ], [ 140.321648778, 35.95 ], [ 140.321638721999989, 35.950013861 ], [ 140.321635332999989, 35.950018556 ], [ 140.321473972, 35.950237944 ], [ 140.32129272200001, 35.950484333 ], [ 140.32121236099999, 35.950609167 ], [ 140.321041417, 35.950832139 ], [ 140.32099997200001, 35.950894972 ], [ 140.320807583, 35.951160028 ], [ 140.32048685, 35.95159377 ], [ 140.320472916999989, 35.951612611 ], [ 140.32045496500001, 35.951630513 ], [ 140.32043372199999, 35.951651694 ], [ 140.320399046, 35.95187731 ], [ 140.320360818000012, 35.951880828 ], [ 140.320210833, 35.951875667 ], [ 140.31966530599999, 35.951869528 ], [ 140.31957986099999, 35.951880722 ], [ 140.319487528, 35.951881806 ], [ 140.318697944, 35.951886056 ], [ 140.31861797, 35.951889131 ], [ 140.317728992000013, 35.951904687 ], [ 140.317668429, 35.951911651 ], [ 140.31748787399999, 35.951949618 ], [ 140.317307569, 35.952027813 ], [ 140.317581034999989, 35.95250814 ], [ 140.31771281499999, 35.952558406 ], [ 140.317719833000012, 35.952561083 ], [ 140.318020139, 35.952689361 ], [ 140.318272083000011, 35.952733306 ], [ 140.31850797199999, 35.952766306 ], [ 140.318840806, 35.952795306 ], [ 140.319086862, 35.952816745 ], [ 140.31939330599999, 35.952843444 ], [ 140.31969805599999, 35.95287 ], [ 140.31985583299999, 35.952885222 ], [ 140.320162167, 35.95291475 ], [ 140.32039822199999, 35.952963611 ], [ 140.320481889, 35.953050333 ], [ 140.32053058, 35.95311765 ], [ 140.320943376, 35.953083512 ], [ 140.32135230599999, 35.95320331 ], [ 140.32159333300001, 35.953257361 ], [ 140.321711722, 35.953266528 ], [ 140.321774471999987, 35.953218278 ], [ 140.321853420999986, 35.953142809 ], [ 140.322257627999988, 35.953418427 ], [ 140.32235477099999, 35.953346401 ], [ 140.322612083, 35.953523028 ], [ 140.322716667, 35.953587778 ], [ 140.322921544, 35.953586306 ], [ 140.32295575, 35.953531611 ] ] ] } },
{ "type": "Feature", "properties": { "A29_001": "08229", "A29_002": "茨城県", "A29_003": "稲敷市", "A29_004": 4, "A29_005": "第二種中高層住居専用地域", "A29_006": 60, "A29_007": 200, "A29_008": null }, "geometry": { "type": "Polygon", "coordinates": [ [ [ 140.31956448299999, 35.95546706 ], [ 140.319575229, 35.955186616 ], [ 140.319741760999989, 35.955239994 ], [ 140.319747626, 35.9550343 ], [ 140.32012697499999, 35.95504249 ], [ 140.320446909999987, 35.955041192 ], [ 140.32048890199999, 35.954436302 ], [ 140.32017310399999, 35.954434205 ], [ 140.319861481, 35.954435469 ], [ 140.31931956, 35.954826171 ], [ 140.319142723999988, 35.954786347 ], [ 140.31896221, 35.95482424 ], [ 140.31876551900001, 35.954934831 ], [ 140.318466194, 35.954909014 ], [ 140.318406401, 35.954983579 ], [ 140.318228067, 35.955038353 ], [ 140.318462699, 35.955356656 ], [ 140.31870166499999, 35.955108911 ], [ 140.319010501, 35.955925376 ], [ 140.319658315999988, 35.955861943 ], [ 140.319707555, 35.955760394 ], [ 140.319697506000011, 35.955476656 ], [ 140.31956448299999, 35.95546706 ] ] ] } },
{ "type": "Feature", "properties": { "A29_001": "08229", "A29_002": "茨城県", "A29_003": "稲敷市", "A29_004": 1, "A29_005": "第一種低層住居専用地域", "A29_006": 40, "A29_007": 80, "A29_008": null }, "geometry": { "type": "Polygon", "coordinates": [ [ [ 140.320932886, 35.954302752 ], [ 140.320871281, 35.955130683 ], [ 140.320986991000012, 35.956344964 ], [ 140.32120416699999, 35.95632825 ], [ 140.321415083, 35.956309472 ], [ 140.321680361, 35.956285833 ], [ 140.321957860999987, 35.956261111 ], [ 140.322054278, 35.956252528 ], [ 140.32248980599999, 35.956207333 ], [ 140.323118056, 35.956132833 ], [ 140.323251027999987, 35.956118167 ], [ 140.32351793699999, 35.956084887 ], [ 140.323507674000012, 35.956042732 ], [ 140.32340553899999, 35.955623696 ], [ 140.323140169, 35.955640464 ], [ 140.323019993, 35.955210325 ], [ 140.322934514, 35.954904371 ], [ 140.322894227, 35.954908632 ], [ 140.32286843899999, 35.95491136 ], [ 140.322847521, 35.9548001 ], [ 140.322831409, 35.954714399 ], [ 140.32280609, 35.954629385 ], [ 140.32272795899999, 35.95446843 ], [ 140.322701784, 35.954244545 ], [ 140.32270108, 35.954130312 ], [ 140.322667206, 35.953998296 ], [ 140.322746378, 35.953881497 ], [ 140.322737976000013, 35.953859132 ], [ 140.32258611099999, 35.953819769 ], [ 140.322533786, 35.953806207 ], [ 140.322410197000011, 35.953745894 ], [ 140.322125177, 35.953529103 ], [ 140.322257627999988, 35.953418427 ], [ 140.321853420999986, 35.953142809 ], [ 140.321774471999987, 35.953218278 ], [ 140.321711722, 35.953266528 ], [ 140.32159333300001, 35.953257361 ], [ 140.32135230599999, 35.95320331 ], [ 140.320943376, 35.953083512 ], [ 140.320952276000014, 35.953320386 ], [ 140.320932886, 35.954302752 ] ] ] } },
{ "type": "Feature", "properties": { "A29_001": "08229", "A29_002": "茨城県", "A29_003": "稲敷市", "A29_004": 6, "A29_005": "第二種住居地域", "A29_006": 60, "A29_007": 200, "A29_008": null }, "geometry": { "type": "Polygon", "coordinates": [ [ [ 140.320871281, 35.955130683 ], [ 140.320932886, 35.954302752 ], [ 140.320952276000014, 35.953320386 ], [ 140.320943376, 35.953083512 ], [ 140.32053058, 35.95311765 ], [ 140.320495633, 35.95312054 ], [ 140.320202302000013, 35.953144798 ], [ 140.32017310399999, 35.954434205 ], [ 140.32048890199999, 35.954436302 ], [ 140.320446909999987, 35.955041192 ], [ 140.32012697499999, 35.95504249 ], [ 140.320147098, 35.955613344 ], [ 140.32024522099999, 35.956413664 ], [ 140.320986991000012, 35.956344964 ], [ 140.320871281, 35.955130683 ] ] ] } },
{ "type": "Feature", "properties": { "A29_001": "08229", "A29_002": "茨城県", "A29_003": "稲敷市", "A29_004": 1, "A29_005": "第一種低層住居専用地域", "A29_006": 40, "A29_007": 80, "A29_008": null }, "geometry": { "type": "Polygon", "coordinates": [ [ [ 140.318594217, 35.956495565 ], [ 140.318686399, 35.956491018 ], [ 140.31879471900001, 35.956498406 ], [ 140.31900626800001, 35.956512833 ], [ 140.319095167, 35.956517583 ], [ 140.319595666999987, 35.95652125 ], [ 140.319851277999987, 35.956486083 ], [ 140.319982116, 35.956453406 ], [ 140.32024522099999, 35.956413664 ], [ 140.320147098, 35.955613344 ], [ 140.32012697499999, 35.95504249 ], [ 140.319747626, 35.9550343 ], [ 140.319741760999989, 35.955239994 ], [ 140.319575229, 35.955186616 ], [ 140.31956448299999, 35.95546706 ], [ 140.319697506000011, 35.955476656 ], [ 140.319707555, 35.955760394 ], [ 140.319658315999988, 35.955861943 ], [ 140.319010501, 35.955925376 ], [ 140.31870166499999, 35.955108911 ], [ 140.318462699, 35.955356656 ], [ 140.318228067, 35.955038353 ], [ 140.318406401, 35.954983579 ], [ 140.318466194, 35.954909014 ], [ 140.31876551900001, 35.954934831 ], [ 140.31896221, 35.95482424 ], [ 140.319142723999988, 35.954786347 ], [ 140.31931956, 35.954826171 ], [ 140.319861481, 35.954435469 ], [ 140.32017310399999, 35.954434205 ], [ 140.320202302000013, 35.953144798 ], [ 140.320495633, 35.95312054 ], [ 140.32053058, 35.95311765 ], [ 140.320481889, 35.953050333 ], [ 140.32039822199999, 35.952963611 ], [ 140.320162167, 35.95291475 ], [ 140.31985583299999, 35.952885222 ], [ 140.31969805599999, 35.95287 ], [ 140.31939330599999, 35.952843444 ], [ 140.319086862, 35.952816745 ], [ 140.318840806, 35.952795306 ], [ 140.31850797199999, 35.952766306 ], [ 140.318272083000011, 35.952733306 ], [ 140.318020139, 35.952689361 ], [ 140.317719833000012, 35.952561083 ], [ 140.31771281499999, 35.952558406 ], [ 140.317581034999989, 35.95250814 ], [ 140.317677358999987, 35.952754103 ], [ 140.31775561500001, 35.952937461 ], [ 140.317823535, 35.953232856 ], [ 140.317844874, 35.953526413 ], [ 140.31780736799999, 35.954188715 ], [ 140.317442142, 35.956433041 ], [ 140.317817722, 35.956548139 ], [ 140.318305028999987, 35.956604118 ], [ 140.318367392999988, 35.956598576 ], [ 140.318408688, 35.956588394 ], [ 140.318475087, 35.956557131 ], [ 140.318544855, 35.956512096 ], [ 140.318594217, 35.956495565 ] ] ] } },
{ "type": "Feature", "properties": { "A29_001": "08229", "A29_002": "茨城県", "A29_003": "稲敷市", "A29_004": 6, "A29_005": "第二種住居地域", "A29_006": 60, "A29_007": 200, "A29_008": null }, "geometry": { "type": "Polygon", "coordinates": [ [ [ 140.323251027999987, 35.956118167 ], [ 140.323118056, 35.956132833 ], [ 140.32248980599999, 35.956207333 ], [ 140.322054278, 35.956252528 ], [ 140.321957860999987, 35.956261111 ], [ 140.321680361, 35.956285833 ], [ 140.321415083, 35.956309472 ], [ 140.32120416699999, 35.95632825 ], [ 140.321249722, 35.956587222 ], [ 140.321297956, 35.956892513 ], [ 140.3213715, 35.957358 ], [ 140.321532861, 35.958206333 ], [ 140.321568111, 35.958332194 ], [ 140.321568417, 35.958333333 ], [ 140.321614278, 35.958497028 ], [ 140.322503274000013, 35.95834358 ], [ 140.32350383799999, 35.958095045 ], [ 140.323752320000011, 35.958069906 ], [ 140.324030423000011, 35.958021473 ], [ 140.324196441999987, 35.957990389 ], [ 140.32405509099999, 35.957643001 ], [ 140.323783096999989, 35.957671139 ], [ 140.323727332, 35.957129576 ], [ 140.324140905, 35.957073403 ], [ 140.323978797, 35.95614889 ], [ 140.32388506699999, 35.956041181 ], [ 140.32351793699999, 35.956084887 ], [ 140.323251027999987, 35.956118167 ] ] ] } },
{ "type": "Feature", "properties": { "A29_001": "08229", "A29_002": "茨城県", "A29_003": "稲敷市", "A29_004": 8, "A29_005": "近隣商業地域", "A29_006": 80, "A29_007": 200, "A29_008": null }, "geometry": { "type": "Polygon", "coordinates": [ [ [ 140.315064583, 35.959733806 ], [ 140.31526255599999, 35.959713028 ], [ 140.315501891, 35.959738072 ], [ 140.31551952800001, 35.959739917 ], [ 140.315728322000012, 35.959782682 ], [ 140.315985500000011, 35.959834861 ], [ 140.316011839, 35.959840174 ], [ 140.316217278000011, 35.959881611 ], [ 140.316538528, 35.959884028 ], [ 140.316766336, 35.959843885 ], [ 140.316700107, 35.959654866 ], [ 140.316635566, 35.959291956 ], [ 140.316626844000012, 35.959224425 ], [ 140.316609594999989, 35.959121456 ], [ 140.316594291, 35.95899652 ], [ 140.316589013999987, 35.958812423 ], [ 140.316590010999988, 35.958635057 ], [ 140.316599336, 35.958475698 ], [ 140.316587258, 35.958438915 ], [ 140.316504861, 35.958359611 ], [ 140.316552411, 35.958175546 ], [ 140.316635123999987, 35.958111025 ], [ 140.316734493000013, 35.9575806 ], [ 140.316270199, 35.957403626 ], [ 140.31585272, 35.957911474 ], [ 140.315617959, 35.957748059 ], [ 140.315115338, 35.958282673 ], [ 140.314536811000011, 35.958812012 ], [ 140.313211712999987, 35.959924209 ], [ 140.313847667, 35.960452028 ], [ 140.31400155599999, 35.960398278 ], [ 140.31418083299999, 35.960299333 ], [ 140.314312306, 35.960223583 ], [ 140.314505028000013, 35.960086806 ], [ 140.314675416999989, 35.959961583 ], [ 140.314749333, 35.95990725 ], [ 140.314913667000013, 35.959786333 ], [ 140.31504093699999, 35.959742036 ], [ 140.315064583, 35.959733806 ] ] ] } },
{ "type": "Feature", "properties": { "A29_001": "08229", "A29_002": "茨城県", "A29_003": "稲敷市", "A29_004": 8, "A29_005": "近隣商業地域", "A29_006": 80, "A29_007": 200, "A29_008": null }, "geometry": { "type": "Polygon", "coordinates": [ [ [ 140.321402557, 35.960721653 ], [ 140.32173938, 35.960573232 ], [ 140.321786085000014, 35.960655315 ], [ 140.32183502800001, 35.960639917 ], [ 140.32189016699999, 35.960623583 ], [ 140.322187423, 35.960491356 ], [ 140.322326917, 35.960429306 ], [ 140.322026666999989, 35.959994611 ], [ 140.321925083, 35.959797944 ], [ 140.321819, 35.959444944 ], [ 140.321759694, 35.959133806 ], [ 140.32171513899999, 35.958900139 ], [ 140.321714028, 35.95889575 ], [ 140.321614278, 35.958497028 ], [ 140.321568417, 35.958333333 ], [ 140.321568111, 35.958332194 ], [ 140.321532861, 35.958206333 ], [ 140.3213715, 35.957358 ], [ 140.321297956, 35.956892513 ], [ 140.321249722, 35.956587222 ], [ 140.32120416699999, 35.95632825 ], [ 140.320986991000012, 35.956344964 ], [ 140.32024522099999, 35.956413664 ], [ 140.319982116, 35.956453406 ], [ 140.320030409, 35.956720919 ], [ 140.32004922199999, 35.956798528 ], [ 140.320118667, 35.95710025 ], [ 140.320260639, 35.957695111 ], [ 140.320318167000011, 35.957941861 ], [ 140.320412583, 35.958332194 ], [ 140.320412889000011, 35.958333333 ], [ 140.320435833, 35.95841825 ], [ 140.32057266699999, 35.958786722 ], [ 140.320391696, 35.958851568 ], [ 140.320169693999986, 35.95893825 ], [ 140.320280075999989, 35.959191093 ], [ 140.320351174, 35.959240997 ], [ 140.32041184, 35.95924971 ], [ 140.320542179, 35.959388056 ], [ 140.320615694, 35.959551882 ], [ 140.320973651, 35.9601322 ], [ 140.321104458, 35.960323176 ], [ 140.32111065699999, 35.960435146 ], [ 140.32101173699999, 35.960478106 ], [ 140.32113711299999, 35.960704948 ], [ 140.321090813000012, 35.960792493 ], [ 140.321337863999986, 35.960748355 ], [ 140.321402557, 35.960721653 ] ] ] } },
{ "type": "Feature", "properties": { "A29_001": "08229", "A29_002": "茨城県", "A29_003": "稲敷市", "A29_004": 1, "A29_005": "第一種低層住居専用地域", "A29_006": 40, "A29_007": 80, "A29_008": null }, "geometry": { "type": "Polygon", "coordinates": [ [ [ 140.321614278, 35.958497028 ], [ 140.321714028, 35.95889575 ], [ 140.32171513899999, 35.958900139 ], [ 140.321759694, 35.959133806 ], [ 140.321819, 35.959444944 ], [ 140.321925083, 35.959797944 ], [ 140.322026666999989, 35.959994611 ], [ 140.322326917, 35.960429306 ], [ 140.322187423, 35.960491356 ], [ 140.322318806, 35.960786306 ], [ 140.322449772999988, 35.960957475 ], [ 140.322816421999988, 35.961397049 ], [ 140.323282207, 35.961895176 ], [ 140.323493667, 35.961586 ], [ 140.32375074699999, 35.961824547 ], [ 140.323768389, 35.961840917 ], [ 140.323987472, 35.962039861 ], [ 140.324083, 35.962113694 ], [ 140.324228444, 35.962158 ], [ 140.324397972000014, 35.962185306 ], [ 140.325, 35.962192958 ], [ 140.325018583, 35.962193194 ], [ 140.325298417, 35.962196694 ], [ 140.32530927799999, 35.962196833 ], [ 140.32544561099999, 35.962194222 ], [ 140.325652194000014, 35.962190222 ], [ 140.32565622199999, 35.962190222 ], [ 140.326200056, 35.962184944 ], [ 140.32633619399999, 35.962183611 ], [ 140.326548478, 35.962182254 ], [ 140.326737333000011, 35.962177778 ], [ 140.326954389, 35.962173333 ], [ 140.327200361, 35.962168306 ], [ 140.327229222, 35.962168306 ], [ 140.327315578999986, 35.962103026 ], [ 140.327190903, 35.961423564 ], [ 140.32691499399999, 35.961492265 ], [ 140.326591323, 35.961513384 ], [ 140.326150538, 35.961515677 ], [ 140.325837482, 35.961290615 ], [ 140.325831, 35.961175 ], [ 140.325659424, 35.961056553 ], [ 140.32545164699999, 35.961055716 ], [ 140.32524981099999, 35.961007558 ], [ 140.325074796, 35.960928884 ], [ 140.324926874, 35.960863613 ], [ 140.324693486, 35.960753085 ], [ 140.324654732999988, 35.960674774 ], [ 140.324578812, 35.96057922 ], [ 140.324490688999987, 35.960549527 ], [ 140.324328079, 35.960460667 ], [ 140.324186329000014, 35.960385235 ], [ 140.32416890799999, 35.960340121 ], [ 140.324138092999988, 35.960312798 ], [ 140.324039891000012, 35.960223674 ], [ 140.323972852999987, 35.960134423 ], [ 140.323918029999987, 35.960004582 ], [ 140.323842117999988, 35.959824152 ], [ 140.32377967299999, 35.959683718 ], [ 140.323695117999989, 35.959571379 ], [ 140.32355258699999, 35.959369263 ], [ 140.32357486399999, 35.95930985 ], [ 140.323589378, 35.959271141 ], [ 140.323591101, 35.959213703 ], [ 140.32356973, 35.959117508 ], [ 140.323514284, 35.959007978 ], [ 140.32411500500001, 35.958827353 ], [ 140.32430670799999, 35.959357734 ], [ 140.324712895, 35.959190534 ], [ 140.324196441999987, 35.957990389 ], [ 140.324030423000011, 35.958021473 ], [ 140.323752320000011, 35.958069906 ], [ 140.32350383799999, 35.958095045 ], [ 140.322503274000013, 35.95834358 ], [ 140.321614278, 35.958497028 ] ] ] } },
{ "type": "Feature", "properties": { "A29_001": "08229", "A29_002": "茨城県", "A29_003": "稲敷市", "A29_004": 4, "A29_005": "第二種中高層住居専用地域", "A29_006": 60, "A29_007": 200, "A29_008": null }, "geometry": { "type": "Polygon", "coordinates": [ [ [ 140.320467509, 35.96270679 ], [ 140.320472059999986, 35.962101995 ], [ 140.320482962999989, 35.961944312 ], [ 140.32076005499999, 35.961666283 ], [ 140.320946122, 35.961457215 ], [ 140.321036421, 35.961356052 ], [ 140.321101672, 35.961274322 ], [ 140.321129246999988, 35.96121792 ], [ 140.321128923, 35.961165284 ], [ 140.321099519, 35.961088126 ], [ 140.321072933000011, 35.961021037 ], [ 140.321035106000011, 35.960918154 ], [ 140.321018286, 35.960871185 ], [ 140.321036006000014, 35.960841421 ], [ 140.321052372999986, 35.960813928 ], [ 140.321090813000012, 35.960792493 ], [ 140.32113711299999, 35.960704948 ], [ 140.32101173699999, 35.960478106 ], [ 140.320957735, 35.960405664 ], [ 140.320900865999988, 35.960369921 ], [ 140.320845517, 35.960329828 ], [ 140.320792896, 35.960285243 ], [ 140.320576171, 35.959988215 ], [ 140.320464952, 35.959822913 ], [ 140.320408235, 35.959802427 ], [ 140.320406985, 35.959676493 ], [ 140.320406225999989, 35.959600088 ], [ 140.32030022, 35.959602885 ], [ 140.320146787999988, 35.959606932 ], [ 140.320127379000013, 35.959586851 ], [ 140.320066548999989, 35.95955126 ], [ 140.320041699, 35.959542401 ], [ 140.320005869, 35.959540306 ], [ 140.31997012299999, 35.959551651 ], [ 140.319948247000013, 35.959578618 ], [ 140.31987205199999, 35.959591484 ], [ 140.319838127999986, 35.959592504 ], [ 140.31980209299999, 35.959556812 ], [ 140.319757724, 35.959509953 ], [ 140.319619053, 35.959360441 ], [ 140.319575485, 35.959321123 ], [ 140.319567885, 35.95932817 ], [ 140.319488463, 35.959405768 ], [ 140.319562364, 35.959551063 ], [ 140.319484168, 35.959604018 ], [ 140.319304571, 35.95974474 ], [ 140.319300252, 35.95975666 ], [ 140.319296443000013, 35.959767172 ], [ 140.319299308000012, 35.95978508 ], [ 140.319433170999986, 35.95996398 ], [ 140.31951737, 35.960076506 ], [ 140.31951752099999, 35.960101144 ], [ 140.319490163000012, 35.960132614 ], [ 140.318954131, 35.960287474 ], [ 140.31893186100001, 35.960293908 ], [ 140.318952204999988, 35.960323424 ], [ 140.319031934, 35.960439097 ], [ 140.319004506999988, 35.960459367 ], [ 140.31894414199999, 35.96049993 ], [ 140.318894812, 35.960542688 ], [ 140.318872977000012, 35.960576375 ], [ 140.318840286000011, 35.960636985 ], [ 140.318832377, 35.960695255 ], [ 140.31882159, 35.960733377 ], [ 140.31886295699999, 35.960739929 ], [ 140.318882394000013, 35.96076449 ], [ 140.31890195299999, 35.960809209 ], [ 140.318885458000011, 35.961039987 ], [ 140.31888565599999, 35.961072465 ], [ 140.31887624699999, 35.961110581 ], [ 140.31885429499999, 35.961125229 ], [ 140.318830891, 35.961127564 ], [ 140.318804613999987, 35.961110871 ], [ 140.318768654, 35.961087497 ], [ 140.318736841, 35.961066347 ], [ 140.318709262, 35.961061979 ], [ 140.31868311, 35.961065444 ], [ 140.318662474, 35.961070008 ], [ 140.318633833, 35.961117162 ], [ 140.318585407, 35.961082639 ], [ 140.318525768, 35.961016802 ], [ 140.31844669899999, 35.961049529 ], [ 140.318386999000012, 35.961076721 ], [ 140.318340403, 35.961116108 ], [ 140.318303449000013, 35.961155456 ], [ 140.318273403, 35.961198135 ], [ 140.318225539999986, 35.961294693 ], [ 140.318205511, 35.961359684 ], [ 140.318205861, 35.9614168 ], [ 140.318228518000012, 35.961517504 ], [ 140.318287113999986, 35.961638223 ], [ 140.31832882399999, 35.961700772 ], [ 140.318392534, 35.961756512 ], [ 140.318439087, 35.961752659 ], [ 140.318498078, 35.96189496 ], [ 140.318559101, 35.961961911 ], [ 140.318614601, 35.962026644 ], [ 140.31870049, 35.962104694 ], [ 140.318739349, 35.962151575 ], [ 140.318805719000011, 35.962191625 ], [ 140.31888864699999, 35.962236087 ], [ 140.318946641999986, 35.962258252 ], [ 140.318994761999988, 35.962277795 ], [ 140.31915131400001, 35.962438098 ], [ 140.319240455, 35.962546011 ], [ 140.319309526000012, 35.96257709 ], [ 140.31938946599999, 35.962583486 ], [ 140.319499823, 35.962607678 ], [ 140.319607314, 35.962613963 ], [ 140.319714833, 35.962624726 ], [ 140.31984989, 35.962633139 ], [ 140.319921455000014, 35.962621649 ], [ 140.31999850299999, 35.962605657 ], [ 140.32006742199999, 35.962612097 ], [ 140.320197065, 35.96263621 ], [ 140.32034580199999, 35.962628887 ], [ 140.320403907000014, 35.96266897 ], [ 140.32044542700001, 35.96270016 ], [ 140.320467509, 35.96270679 ] ] ] } },
{ "type": "Feature", "properties": { "A29_001": "08229", "A29_002": "茨城県", "A29_003": "稲敷市", "A29_004": 6, "A29_005": "第二種住居地域", "A29_006": 60, "A29_007": 200, "A29_008": null }, "geometry": { "type": "Polygon", "coordinates": [ [ [ 140.321402557, 35.960721653 ], [ 140.321731833, 35.96120091 ], [ 140.322301205, 35.961830345 ], [ 140.32239984200001, 35.961852244 ], [ 140.32253841299999, 35.961983834 ], [ 140.322550056000011, 35.962105444 ], [ 140.32259841199999, 35.962330776 ], [ 140.322726267, 35.962511687 ], [ 140.322848599, 35.962690382 ], [ 140.323021979, 35.962658315 ], [ 140.323048991, 35.962570849 ], [ 140.32300421799999, 35.962459036 ], [ 140.323299595, 35.9624067 ], [ 140.32302436099999, 35.962122611 ], [ 140.3230245, 35.962122556 ], [ 140.32313105599999, 35.96208025 ], [ 140.323197611000012, 35.962018861 ], [ 140.323282207, 35.961895176 ], [ 140.322816421999988, 35.961397049 ], [ 140.322449772999988, 35.960957475 ], [ 140.322318806, 35.960786306 ], [ 140.322187423, 35.960491356 ], [ 140.32189016699999, 35.960623583 ], [ 140.32183502800001, 35.960639917 ], [ 140.321786085000014, 35.960655315 ], [ 140.32173938, 35.960573232 ], [ 140.321402557, 35.960721653 ] ] ] } },
{ "type": "Feature", "properties": { "A29_001": "08229", "A29_002": "茨城県", "A29_003": "稲敷市", "A29_004": 1, "A29_005": "第一種低層住居専用地域", "A29_006": 40, "A29_007": 80, "A29_008": null }, "geometry": { "type": "Polygon", "coordinates": [ [ [ 140.318083058000013, 35.963181951 ], [ 140.31733066000001, 35.961779608 ], [ 140.317246097, 35.961613672 ], [ 140.317240056, 35.961559556 ], [ 140.31720013899999, 35.9614865 ], [ 140.317156888999989, 35.961431333 ], [ 140.317150491, 35.961426065 ], [ 140.317087972, 35.961374583 ], [ 140.317039028000011, 35.961314722 ], [ 140.31692783299999, 35.961152306 ], [ 140.31684234299999, 35.961008557 ], [ 140.316794750000014, 35.960928528 ], [ 140.3167805, 35.960846944 ], [ 140.316823277999987, 35.960783972 ], [ 140.31664590599999, 35.960562796 ], [ 140.316412407, 35.960431981 ], [ 140.316002884, 35.960737678 ], [ 140.31586106899999, 35.960650412 ], [ 140.31562510099999, 35.960796628 ], [ 140.31550920399999, 35.960871416 ], [ 140.31546789699999, 35.960912122 ], [ 140.315458543, 35.960978447 ], [ 140.315494644000012, 35.961152437 ], [ 140.315535509999989, 35.961268263 ], [ 140.31553002699999, 35.961391594 ], [ 140.315481569000013, 35.961623203 ], [ 140.31537543799999, 35.961595758 ], [ 140.31529719, 35.96171178 ], [ 140.315122992999989, 35.961766532 ], [ 140.31469742499999, 35.961484461 ], [ 140.314759904999988, 35.961423534 ], [ 140.314417372, 35.961214475 ], [ 140.314878077, 35.960781891 ], [ 140.314875486, 35.960697444 ], [ 140.314795068, 35.960665156 ], [ 140.314671374, 35.960615494 ], [ 140.314738080000012, 35.960585014 ], [ 140.314801907, 35.96055585 ], [ 140.314738002000013, 35.960464881 ], [ 140.314792243999989, 35.960409553 ], [ 140.31486147199999, 35.960442437 ], [ 140.31490266599999, 35.960383151 ], [ 140.314818793, 35.960356265 ], [ 140.31497744699999, 35.960038263 ], [ 140.315018821, 35.959956798 ], [ 140.315081052000011, 35.959941811 ], [ 140.315167917, 35.959926858 ], [ 140.31525614899999, 35.959915525 ], [ 140.315356909, 35.959914275 ], [ 140.315469196, 35.959929449 ], [ 140.315501891, 35.959738072 ], [ 140.31526255599999, 35.959713028 ], [ 140.315064583, 35.959733806 ], [ 140.31504093699999, 35.959742036 ], [ 140.314913667000013, 35.959786333 ], [ 140.314749333, 35.95990725 ], [ 140.314675416999989, 35.959961583 ], [ 140.314505028000013, 35.960086806 ], [ 140.314312306, 35.960223583 ], [ 140.31418083299999, 35.960299333 ], [ 140.31400155599999, 35.960398278 ], [ 140.313847667, 35.960452028 ], [ 140.313279263, 35.960687479 ], [ 140.312736476999987, 35.961030428 ], [ 140.312785510999987, 35.961145803 ], [ 140.312806778, 35.961179917 ], [ 140.312977055, 35.961450985 ], [ 140.31298304500001, 35.961460521 ], [ 140.31298641699999, 35.961465889 ], [ 140.313124249999987, 35.961660167 ], [ 140.31326377799999, 35.961707778 ], [ 140.313452289, 35.961762855 ], [ 140.313852093, 35.961812773 ], [ 140.314138828000011, 35.961845223 ], [ 140.31435391799999, 35.96187572 ], [ 140.314547156, 35.961937663 ], [ 140.314715326999988, 35.961954908 ], [ 140.315001982000013, 35.961973917 ], [ 140.31525277899999, 35.961986349 ], [ 140.315327018, 35.961961412 ], [ 140.315439704999989, 35.961916161 ], [ 140.315508529, 35.961906925 ], [ 140.31559134599999, 35.961933471 ], [ 140.315657646, 35.961962324 ], [ 140.315729578, 35.962011313 ], [ 140.31576813699999, 35.962008918 ], [ 140.315839661000012, 35.961990711 ], [ 140.31590026, 35.961988227 ], [ 140.31601047800001, 35.961990024 ], [ 140.316065594, 35.961992042 ], [ 140.31619063799999, 35.962166252 ], [ 140.316598233, 35.962137733 ], [ 140.316774560999988, 35.962137022 ], [ 140.316934317, 35.962129659 ], [ 140.317009101, 35.962135813 ], [ 140.317047046999988, 35.962138936 ], [ 140.317106333, 35.962153361 ], [ 140.317118416999989, 35.962178861 ], [ 140.316942082999986, 35.962326528 ], [ 140.316880306, 35.962377028 ], [ 140.316830888999988, 35.962457861 ], [ 140.316790639, 35.96254675 ], [ 140.316768610999986, 35.962595389 ], [ 140.316709221999986, 35.9627415 ], [ 140.316708784000014, 35.962745517 ], [ 140.316678360999987, 35.963024361 ], [ 140.316674361, 35.963097528 ], [ 140.316668361000012, 35.963208528 ], [ 140.316667889, 35.963311111 ], [ 140.316670288000012, 35.96332646 ], [ 140.316674389000013, 35.963352694 ], [ 140.31668975, 35.963451 ], [ 140.316725166999987, 35.963603306 ], [ 140.31681713899999, 35.963839944 ], [ 140.316962167000014, 35.964098278 ], [ 140.316990556, 35.964158806 ], [ 140.317230083, 35.964220194 ], [ 140.317476569, 35.964261344 ], [ 140.318317944, 35.964418361 ], [ 140.31861022199999, 35.96449375 ], [ 140.318770409, 35.964541377 ], [ 140.318083058000013, 35.963181951 ] ] ] } },
{ "type": "Feature", "properties": { "A29_001": "08229", "A29_002": "茨城県", "A29_003": "稲敷市", "A29_004": 6, "A29_005": "第二種住居地域", "A29_006": 60, "A29_007": 200, "A29_008": null }, "geometry": { "type": "Polygon", "coordinates": [ [ [ 140.324756933, 35.97539316 ], [ 140.32476036599999, 35.974606 ], [ 140.324656229, 35.974153725 ], [ 140.324556484, 35.97387497 ], [ 140.324505835, 35.973749979 ], [ 140.324401767000012, 35.973526239 ], [ 140.323838286000012, 35.972450879 ], [ 140.323075171, 35.970974054 ], [ 140.322760453, 35.970377508 ], [ 140.32272584899999, 35.970340722 ], [ 140.322648359999988, 35.970191515 ], [ 140.322616289, 35.970128688 ], [ 140.32257799199999, 35.970055156 ], [ 140.322538285, 35.969956383 ], [ 140.322435468, 35.96970673 ], [ 140.32239611899999, 35.9696053 ], [ 140.32232490199999, 35.969473953 ], [ 140.321853325, 35.968591632 ], [ 140.32130541699999, 35.967539222 ], [ 140.319544643, 35.964240739 ], [ 140.318067336000013, 35.96143797 ], [ 140.317551812, 35.960436773 ], [ 140.3176125, 35.960391833 ], [ 140.317711327000012, 35.960279535 ], [ 140.317748833, 35.960236917 ], [ 140.317790694, 35.960153889 ], [ 140.317821556000013, 35.960143639 ], [ 140.317893806, 35.960168639 ], [ 140.318067222, 35.960100528 ], [ 140.31820774900001, 35.959963972 ], [ 140.31828978499999, 35.959900604 ], [ 140.318329417, 35.959877659 ], [ 140.318357571, 35.959863593 ], [ 140.31842096299999, 35.95987263 ], [ 140.31849659, 35.959849925 ], [ 140.318561224, 35.959831745 ], [ 140.31861357, 35.959831533 ], [ 140.31866859499999, 35.959818991 ], [ 140.31870964699999, 35.959774027 ], [ 140.318731646, 35.959767218 ], [ 140.31899755500001, 35.959773982 ], [ 140.319042978999988, 35.959768198 ], [ 140.319062121, 35.959744602 ], [ 140.319073003999989, 35.959722159 ], [ 140.319137684999987, 35.959711817 ], [ 140.319180237000012, 35.959687006 ], [ 140.319241986, 35.959647557 ], [ 140.319296743, 35.959591338 ], [ 140.319355495999986, 35.959512703 ], [ 140.319398939, 35.959408371 ], [ 140.31945869099999, 35.959268134 ], [ 140.319479741, 35.959186297 ], [ 140.319518928, 35.959212918 ], [ 140.31956409899999, 35.959245526 ], [ 140.31960071200001, 35.959289958 ], [ 140.31966692200001, 35.959304249 ], [ 140.31975924299999, 35.959308355 ], [ 140.319872081999989, 35.959288858 ], [ 140.319986285, 35.959267116 ], [ 140.32010453800001, 35.959231918 ], [ 140.320202196999986, 35.959208003 ], [ 140.320280075999989, 35.959191093 ], [ 140.320169693999986, 35.95893825 ], [ 140.320391696, 35.958851568 ], [ 140.32057266699999, 35.958786722 ], [ 140.320435833, 35.95841825 ], [ 140.320412889000011, 35.958333333 ], [ 140.320412583, 35.958332194 ], [ 140.320318167000011, 35.957941861 ], [ 140.320260639, 35.957695111 ], [ 140.320118667, 35.95710025 ], [ 140.32004922199999, 35.956798528 ], [ 140.320030409, 35.956720919 ], [ 140.319982116, 35.956453406 ], [ 140.319851277999987, 35.956486083 ], [ 140.319595666999987, 35.95652125 ], [ 140.319095167, 35.956517583 ], [ 140.31900626800001, 35.956512833 ], [ 140.31879471900001, 35.956498406 ], [ 140.318686399, 35.956491018 ], [ 140.318594217, 35.956495565 ], [ 140.318544855, 35.956512096 ], [ 140.318475087, 35.956557131 ], [ 140.318408688, 35.956588394 ], [ 140.318367392999988, 35.956598576 ], [ 140.318305028999987, 35.956604118 ], [ 140.317817722, 35.956548139 ], [ 140.317442142, 35.956433041 ], [ 140.31780736799999, 35.954188715 ], [ 140.317844874, 35.953526413 ], [ 140.317823535, 35.953232856 ], [ 140.31775561500001, 35.952937461 ], [ 140.317677358999987, 35.952754103 ], [ 140.317581034999989, 35.95250814 ], [ 140.317307569, 35.952027813 ], [ 140.317110390000011, 35.952141072 ], [ 140.316846696999988, 35.952003437 ], [ 140.316722628, 35.95209853 ], [ 140.316977982999987, 35.952473093 ], [ 140.317097292, 35.952675098 ], [ 140.317172701, 35.952838736 ], [ 140.31728902899999, 35.953223354 ], [ 140.317326779000012, 35.953587263 ], [ 140.317317081999988, 35.953926753 ], [ 140.317221541, 35.954522956 ], [ 140.317072513, 35.955383684 ], [ 140.316977347, 35.956068645 ], [ 140.316873070000014, 35.956136262 ], [ 140.316804794, 35.956294067 ], [ 140.316907326, 35.956425756 ], [ 140.316879733, 35.956645504 ], [ 140.316757040999988, 35.957428505 ], [ 140.316734493000013, 35.9575806 ], [ 140.316635123999987, 35.958111025 ], [ 140.316552411, 35.958175546 ], [ 140.316504861, 35.958359611 ], [ 140.316587258, 35.958438915 ], [ 140.316599336, 35.958475698 ], [ 140.316590010999988, 35.958635057 ], [ 140.316589013999987, 35.958812423 ], [ 140.316594291, 35.95899652 ], [ 140.316609594999989, 35.959121456 ], [ 140.316626844000012, 35.959224425 ], [ 140.316635566, 35.959291956 ], [ 140.316700107, 35.959654866 ], [ 140.316766336, 35.959843885 ], [ 140.316538528, 35.959884028 ], [ 140.316217278000011, 35.959881611 ], [ 140.316011839, 35.959840174 ], [ 140.315985500000011, 35.959834861 ], [ 140.315728322000012, 35.959782682 ], [ 140.31551952800001, 35.959739917 ], [ 140.315501891, 35.959738072 ], [ 140.315469196, 35.959929449 ], [ 140.315356909, 35.959914275 ], [ 140.31525614899999, 35.959915525 ], [ 140.315167917, 35.959926858 ], [ 140.315081052000011, 35.959941811 ], [ 140.315018821, 35.959956798 ], [ 140.31497744699999, 35.960038263 ], [ 140.314818793, 35.960356265 ], [ 140.31490266599999, 35.960383151 ], [ 140.31486147199999, 35.960442437 ], [ 140.314792243999989, 35.960409553 ], [ 140.314738002000013, 35.960464881 ], [ 140.314801907, 35.96055585 ], [ 140.314738080000012, 35.960585014 ], [ 140.314671374, 35.960615494 ], [ 140.314795068, 35.960665156 ], [ 140.314875486, 35.960697444 ], [ 140.314878077, 35.960781891 ], [ 140.314417372, 35.961214475 ], [ 140.314759904999988, 35.961423534 ], [ 140.31469742499999, 35.961484461 ], [ 140.315122992999989, 35.961766532 ], [ 140.31529719, 35.96171178 ], [ 140.31537543799999, 35.961595758 ], [ 140.315481569000013, 35.961623203 ], [ 140.31553002699999, 35.961391594 ], [ 140.315535509999989, 35.961268263 ], [ 140.315494644000012, 35.961152437 ], [ 140.315458543, 35.960978447 ], [ 140.31546789699999, 35.960912122 ], [ 140.31550920399999, 35.960871416 ], [ 140.31562510099999, 35.960796628 ], [ 140.31586106899999, 35.960650412 ], [ 140.316002884, 35.960737678 ], [ 140.316412407, 35.960431981 ], [ 140.31664590599999, 35.960562796 ], [ 140.316823277999987, 35.960783972 ], [ 140.3167805, 35.960846944 ], [ 140.316794750000014, 35.960928528 ], [ 140.31684234299999, 35.961008557 ], [ 140.31692783299999, 35.961152306 ], [ 140.317039028000011, 35.961314722 ], [ 140.317087972, 35.961374583 ], [ 140.317150491, 35.961426065 ], [ 140.317156888999989, 35.961431333 ], [ 140.31720013899999, 35.9614865 ], [ 140.317240056, 35.961559556 ], [ 140.317246097, 35.961613672 ], [ 140.31733066000001, 35.961779608 ], [ 140.318083058000013, 35.963181951 ], [ 140.318770409, 35.964541377 ], [ 140.31861022199999, 35.96449375 ], [ 140.31868713899999, 35.964637333 ], [ 140.318730528, 35.964686 ], [ 140.31878083399999, 35.964753752 ], [ 140.318875028, 35.964880611 ], [ 140.31919213899999, 35.965329583 ], [ 140.319267806, 35.965438361 ], [ 140.319509333000013, 35.965777028 ], [ 140.319560676, 35.965851504 ], [ 140.319634592, 35.965958725 ], [ 140.319725167, 35.966090111 ], [ 140.319906938, 35.966338644 ], [ 140.319934889, 35.966376861 ], [ 140.319960556000012, 35.966431639 ], [ 140.320148819999986, 35.966405766 ], [ 140.320537882, 35.967147018 ], [ 140.32100039299999, 35.968021811 ], [ 140.321183399, 35.968384236 ], [ 140.32144190599999, 35.968859527 ], [ 140.321599504, 35.969144353 ], [ 140.32169415199999, 35.969329775 ], [ 140.321837018999986, 35.969584256 ], [ 140.32199693699999, 35.969907922 ], [ 140.3220181, 35.970030489 ], [ 140.322032868, 35.970146756 ], [ 140.32202787, 35.970206777 ], [ 140.322003913, 35.970365655 ], [ 140.321929942, 35.970501089 ], [ 140.32185576099999, 35.97060274 ], [ 140.321789789, 35.970687466 ], [ 140.321673946, 35.970772396 ], [ 140.321541645999986, 35.970884418 ], [ 140.32125904899999, 35.970885568 ], [ 140.321133449, 35.970995278 ], [ 140.321857902, 35.97162467 ], [ 140.322542965999986, 35.972189435 ], [ 140.32297755799999, 35.97257279 ], [ 140.323455036000013, 35.973016353 ], [ 140.323680348000011, 35.973313148 ], [ 140.323890444999989, 35.973683903 ], [ 140.323999964, 35.973919937 ], [ 140.324126777, 35.974264006 ], [ 140.324190355000013, 35.974537104 ], [ 140.324224496999989, 35.974727021 ], [ 140.32422588899999, 35.974726944 ], [ 140.324226111, 35.974736 ], [ 140.324231158, 35.97494462 ], [ 140.324232443999989, 35.974997806 ], [ 140.324232472, 35.974998806 ], [ 140.3242325, 35.975 ], [ 140.32423480599999, 35.975153389 ], [ 140.324233286, 35.975175459 ], [ 140.324224832999988, 35.97529825 ], [ 140.324215509, 35.975459908 ], [ 140.324140524, 35.975855132 ], [ 140.324005898, 35.975926286 ], [ 140.323990118000012, 35.975992405 ], [ 140.324153278000011, 35.976024722 ], [ 140.3242975, 35.976048111 ], [ 140.324611858999987, 35.976099131 ], [ 140.324756933, 35.97539316 ] ] ] } },
{ "type": "Feature", "properties": { "A29_001": "08229", "A29_002": "茨城県", "A29_003": "稲敷市", "A29_004": 1, "A29_005": "第一種低層住居専用地域", "A29_006": 50, "A29_007": 100, "A29_008": null }, "geometry": { "type": "Polygon", "coordinates": [ [ [ 140.327541278000012, 35.962192972 ], [ 140.327493972000013, 35.962181472 ], [ 140.327434992, 35.962176751 ], [ 140.327403594, 35.962175665 ], [ 140.32730708299999, 35.962172694 ], [ 140.327229222, 35.962168306 ], [ 140.327200361, 35.962168306 ], [ 140.326954389, 35.962173333 ], [ 140.326737333000011, 35.962177778 ], [ 140.326548478, 35.962182254 ], [ 140.32633619399999, 35.962183611 ], [ 140.326200056, 35.962184944 ], [ 140.32565622199999, 35.962190222 ], [ 140.325652194000014, 35.962190222 ], [ 140.32544561099999, 35.962194222 ], [ 140.32530927799999, 35.962196833 ], [ 140.325298417, 35.962196694 ], [ 140.325018583, 35.962193194 ], [ 140.325, 35.962192958 ], [ 140.324397972000014, 35.962185306 ], [ 140.324228444, 35.962158 ], [ 140.324083, 35.962113694 ], [ 140.323987472, 35.962039861 ], [ 140.323768389, 35.961840917 ], [ 140.32375074699999, 35.961824547 ], [ 140.323493667, 35.961586 ], [ 140.323282207, 35.961895176 ], [ 140.323197611000012, 35.962018861 ], [ 140.32313105599999, 35.96208025 ], [ 140.3230245, 35.962122556 ], [ 140.32302436099999, 35.962122611 ], [ 140.323299595, 35.9624067 ], [ 140.323467778, 35.9625865 ], [ 140.323484231, 35.962821541 ], [ 140.323488028000014, 35.962875778 ], [ 140.323476333, 35.963093972 ], [ 140.323512443999988, 35.963206639 ], [ 140.323608295000014, 35.963333969 ], [ 140.323619694, 35.963349111 ], [ 140.323847164999989, 35.963596516 ], [ 140.32409032000001, 35.963859338 ], [ 140.324291389, 35.964075778 ], [ 140.324595111, 35.964436028 ], [ 140.324639358000013, 35.96450387 ], [ 140.324702056, 35.9646 ], [ 140.32474055599999, 35.964725889 ], [ 140.324733376000012, 35.964907602 ], [ 140.324733028, 35.964916389 ], [ 140.324710888999988, 35.96512925 ], [ 140.32470425, 35.965200972 ], [ 140.32467069399999, 35.965562833 ], [ 140.32462566699999, 35.966054444 ], [ 140.324580389, 35.966548972 ], [ 140.324543780999988, 35.967041076 ], [ 140.32455586099999, 35.967278 ], [ 140.324537514000014, 35.967391685 ], [ 140.324755579999987, 35.9687186 ], [ 140.325048575000011, 35.969775381 ], [ 140.325164349, 35.970143651 ], [ 140.325259671999987, 35.97040757 ], [ 140.325357265, 35.970593082 ], [ 140.325450268, 35.970752547 ], [ 140.32547569799999, 35.970814406 ], [ 140.325793655000012, 35.971318252 ], [ 140.325826862000014, 35.971163069 ], [ 140.32579858299999, 35.971089972 ], [ 140.32574125, 35.970987861 ], [ 140.325726833, 35.970935194 ], [ 140.32573199, 35.970910256 ], [ 140.325741583, 35.970863861 ], [ 140.325832528, 35.970726694 ], [ 140.32583326299999, 35.970721346 ], [ 140.325841951, 35.970658109 ], [ 140.325848278, 35.970612056 ], [ 140.325848008, 35.970564038 ], [ 140.325847278, 35.970434306 ], [ 140.325846982, 35.970281117 ], [ 140.325846944, 35.970261472 ], [ 140.325834861, 35.970061778 ], [ 140.32580030599999, 35.969980028 ], [ 140.325779333000014, 35.969914472 ], [ 140.32577311099999, 35.9698275 ], [ 140.325777139, 35.969743556 ], [ 140.32576119399999, 35.969675278 ], [ 140.325750883000012, 35.969656743 ], [ 140.325734028, 35.969626444 ], [ 140.325679771000011, 35.969566133 ], [ 140.325676278, 35.96956225 ], [ 140.325582333, 35.969487083 ], [ 140.32548571, 35.96940167 ], [ 140.325478667, 35.969395444 ], [ 140.32543819599999, 35.969346983 ], [ 140.325415916999987, 35.969320306 ], [ 140.32541054, 35.96931141 ], [ 140.32538672199999, 35.969272 ], [ 140.325370864, 35.969184891 ], [ 140.32546597000001, 35.969056347 ], [ 140.325602323, 35.968929101 ], [ 140.32564749, 35.968841079 ], [ 140.32567153299999, 35.968697402 ], [ 140.325695345000014, 35.968516565 ], [ 140.325687644, 35.968280115 ], [ 140.325638526, 35.968084698 ], [ 140.32562325, 35.967901583 ], [ 140.32562156899999, 35.967881387 ], [ 140.325617583, 35.9678335 ], [ 140.32560416699999, 35.967662333 ], [ 140.325600165, 35.967651852 ], [ 140.32556625, 35.967563028 ], [ 140.325525779, 35.967501696 ], [ 140.32546994399999, 35.967417083 ], [ 140.325462418, 35.967401489 ], [ 140.325397138999989, 35.967266222 ], [ 140.325376116, 35.967213085 ], [ 140.325349167000013, 35.967144972 ], [ 140.325351528, 35.967064861 ], [ 140.325440444, 35.966920583 ], [ 140.325530028, 35.966810306 ], [ 140.32558002799999, 35.966740056 ], [ 140.325601471999988, 35.966667111 ], [ 140.32560152799999, 35.966666667 ], [ 140.325601667, 35.9666655 ], [ 140.32561122199999, 35.96658425 ], [ 140.325614472000012, 35.966487444 ], [ 140.325612353, 35.966477485 ], [ 140.325583, 35.966339556 ], [ 140.325494111000012, 35.966150278 ], [ 140.325473611, 35.966071278 ], [ 140.32550211099999, 35.965977444 ], [ 140.32551114899999, 35.965968606 ], [ 140.325567194, 35.965913806 ], [ 140.325773889, 35.965843583 ], [ 140.32593797199999, 35.965767333 ], [ 140.326040971999987, 35.96565375 ], [ 140.326046112, 35.965643848 ], [ 140.326114444000012, 35.965512222 ], [ 140.326183222, 35.965378333 ], [ 140.326512388999987, 35.964741361 ], [ 140.326545944, 35.964672806 ], [ 140.326593317, 35.964544555 ], [ 140.326626806, 35.964453889 ], [ 140.326666722, 35.964349667 ], [ 140.32670263899999, 35.964236639 ], [ 140.326767389, 35.96407425 ], [ 140.3268845, 35.963845472 ], [ 140.327215889, 35.96346825 ], [ 140.327351056, 35.963297278 ], [ 140.327584, 35.962995639 ], [ 140.32764691700001, 35.962915 ], [ 140.32790025, 35.962596694 ], [ 140.327940436, 35.962548807 ], [ 140.327797944, 35.962408611 ], [ 140.327682194, 35.962290111 ], [ 140.327605361, 35.962219333 ], [ 140.327541278000012, 35.962192972 ] ] ] } },
{ "type": "Feature", "properties": { "A29_001": "08229", "A29_002": "茨城県", "A29_003": "稲敷市", "A29_004": 6, "A29_005": "第二種住居地域", "A29_006": 60, "A29_007": 200, "A29_008": null }, "geometry": { "type": "Polygon", "coordinates": [ [ [ 140.299245590999988, 35.984746575 ], [ 140.299311034999988, 35.984627606 ], [ 140.299407505, 35.984629471 ], [ 140.299528673999987, 35.984705469 ], [ 140.29962873, 35.984756287 ], [ 140.299781096, 35.984890089 ], [ 140.299911243999986, 35.984994858 ], [ 140.30003430799999, 35.985091053 ], [ 140.300102286999987, 35.985144189 ], [ 140.300346469, 35.984957326 ], [ 140.300593036, 35.984707737 ], [ 140.30072973599999, 35.984521292 ], [ 140.300869057999989, 35.984312438 ], [ 140.300855028, 35.984269934 ], [ 140.300752741999986, 35.984216575 ], [ 140.300588835000013, 35.984135388 ], [ 140.300097668, 35.983892099 ], [ 140.29971888599999, 35.983685261 ], [ 140.29965804599999, 35.983649659 ], [ 140.29960521000001, 35.983569227 ], [ 140.29956585, 35.983437226 ], [ 140.299508730000014, 35.983096982 ], [ 140.29949418699999, 35.982967124 ], [ 140.29948224099999, 35.982810377 ], [ 140.29948345599999, 35.982548303 ], [ 140.299507046, 35.98234214 ], [ 140.29955002, 35.982151581 ], [ 140.299641852, 35.981824454 ], [ 140.299752344000012, 35.981409385 ], [ 140.299904532999989, 35.981045928 ], [ 140.300011942, 35.98056617 ], [ 140.299914389, 35.980563246 ], [ 140.299747335, 35.980558239 ], [ 140.29967051599999, 35.980616776 ], [ 140.299546633, 35.980730401 ], [ 140.29948412499999, 35.980787733 ], [ 140.299400698, 35.980998657 ], [ 140.299272492, 35.981353012 ], [ 140.298961542, 35.981900756 ], [ 140.29864103599999, 35.982699407 ], [ 140.298607944, 35.982795273 ], [ 140.29875678799999, 35.983169338 ], [ 140.298702592000012, 35.983326342 ], [ 140.29847870099999, 35.983683356 ], [ 140.298252945, 35.984192689 ], [ 140.298155428, 35.984482015 ], [ 140.298133879, 35.984567215 ], [ 140.298137177, 35.985129419 ], [ 140.298470110000011, 35.985506673 ], [ 140.298555056, 35.985542417 ], [ 140.298690993, 35.985575253 ], [ 140.298746032999986, 35.9855616 ], [ 140.29894935499999, 35.985455536 ], [ 140.29906920799999, 35.985215401 ], [ 140.29917702099999, 35.984938472 ], [ 140.299245590999988, 35.984746575 ] ] ] } },
{ "type": "Feature", "properties": { "A29_001": "08229", "A29_002": "茨城県", "A29_003": "稲敷市", "A29_004": 4, "A29_005": "第二種中高層住居専用地域", "A29_006": 60, "A29_007": 200, "A29_008": null }, "geometry": { "type": "Polygon", "coordinates": [ [ [ 140.32535659199999, 35.971788916 ], [ 140.325828304, 35.971373158 ], [ 140.325793655000012, 35.971318252 ], [ 140.32547569799999, 35.970814406 ], [ 140.325450268, 35.970752547 ], [ 140.325357265, 35.970593082 ], [ 140.325259671999987, 35.97040757 ], [ 140.325164349, 35.970143651 ], [ 140.325048575000011, 35.969775381 ], [ 140.324755579999987, 35.9687186 ], [ 140.324537514000014, 35.967391685 ], [ 140.324434313000012, 35.967583904 ], [ 140.324427605000011, 35.967613051 ], [ 140.324401832, 35.967678113 ], [ 140.324354508, 35.967822781 ], [ 140.324324768, 35.967914739 ], [ 140.324287317, 35.968096325 ], [ 140.32426024899999, 35.968174833 ], [ 140.324221896000012, 35.968210828 ], [ 140.324161514999986, 35.968249154 ], [ 140.324103681, 35.96825387 ], [ 140.324086488, 35.968111743 ], [ 140.32407845099999, 35.967961665 ], [ 140.324045751999989, 35.96796636 ], [ 140.323992967, 35.967950815 ], [ 140.323909982, 35.967898516 ], [ 140.323802046, 35.967821681 ], [ 140.323700382999988, 35.967645143 ], [ 140.32350339199999, 35.967648188 ], [ 140.323473997, 35.967573271 ], [ 140.323441548, 35.967502294 ], [ 140.323422639, 35.96747143 ], [ 140.323230673000012, 35.967212519 ], [ 140.323128063000013, 35.967105422 ], [ 140.323037054999986, 35.967092354 ], [ 140.323009558, 35.967101426 ], [ 140.32290830299999, 35.967213835 ], [ 140.32278272100001, 35.9674025 ], [ 140.322734309999987, 35.967471969 ], [ 140.32270617399999, 35.967474263 ], [ 140.32268427, 35.967524819 ], [ 140.32267902800001, 35.967536917 ], [ 140.32266625599999, 35.96767662 ], [ 140.322657722, 35.967769972 ], [ 140.32262291699999, 35.967816778 ], [ 140.322562306, 35.967862667 ], [ 140.322441639, 35.967962667 ], [ 140.322375443999988, 35.9680315 ], [ 140.32233727799999, 35.968091139 ], [ 140.322190806, 35.968337056 ], [ 140.322141417000012, 35.968385694 ], [ 140.322090917, 35.968450861 ], [ 140.32206736099999, 35.968531611 ], [ 140.322075778, 35.968650889 ], [ 140.322120667, 35.968757333 ], [ 140.32215941699999, 35.968818806 ], [ 140.32226825, 35.968983972 ], [ 140.32227878, 35.968996697 ], [ 140.322499291000014, 35.969263195 ], [ 140.322541583, 35.969314306 ], [ 140.32270021799999, 35.969480704 ], [ 140.322741917, 35.969524444 ], [ 140.323030498, 35.969783134 ], [ 140.323038778000011, 35.969790556 ], [ 140.32317389100001, 35.969905878 ], [ 140.323211119, 35.969937321 ], [ 140.323233934, 35.96995659 ], [ 140.323234694, 35.969956028 ], [ 140.323258, 35.969938806 ], [ 140.323353528000013, 35.969859528 ], [ 140.323407694, 35.969739861 ], [ 140.323418081999989, 35.969783171 ], [ 140.323437868000013, 35.969863727 ], [ 140.32345780599999, 35.969968921 ], [ 140.32349112, 35.970009103 ], [ 140.323557859, 35.970107387 ], [ 140.323696805999987, 35.970297211 ], [ 140.323735825, 35.970368729 ], [ 140.323827709, 35.970522907 ], [ 140.323830154, 35.970573456 ], [ 140.323844893, 35.970628112 ], [ 140.323881102, 35.970690682 ], [ 140.323961399000012, 35.970764062 ], [ 140.324027922999989, 35.970860675 ], [ 140.324091914, 35.970916051 ], [ 140.324139158, 35.970980815 ], [ 140.32415609899999, 35.971046823 ], [ 140.324150901, 35.971097242 ], [ 140.324152722, 35.971171278 ], [ 140.324471417000012, 35.971060417 ], [ 140.324580664, 35.971026791 ], [ 140.324595718000012, 35.971038837 ], [ 140.324682782, 35.971108505 ], [ 140.324564027, 35.971509935 ], [ 140.32453758299999, 35.97158787 ], [ 140.324490962, 35.971725265 ], [ 140.32458183599999, 35.971715933 ], [ 140.324636793, 35.971691069 ], [ 140.324680575, 35.971641612 ], [ 140.324724218, 35.971569756 ], [ 140.324732207000011, 35.971524926 ], [ 140.324739904000012, 35.971433058 ], [ 140.324756353, 35.971419551 ], [ 140.324814217000011, 35.971419314 ], [ 140.325022603, 35.971510605 ], [ 140.325148543000012, 35.971565778 ], [ 140.325105009999987, 35.971651928 ], [ 140.32509410099999, 35.971673517 ], [ 140.32517435599999, 35.971729186 ], [ 140.325248976000012, 35.971764718 ], [ 140.32535659199999, 35.971788916 ] ] ] } },
{ "type": "Feature", "properties": { "A29_001": "08229", "A29_002": "茨城県", "A29_003": "稲敷市", "A29_004": 1, "A29_005": "第一種低層住居専用地域", "A29_006": 40, "A29_007": 80, "A29_008": null }, "geometry": { "type": "Polygon", "coordinates": [ [ [ 140.32617894399999, 35.971849466 ], [ 140.326011584000014, 35.971566715 ], [ 140.325871041999989, 35.971341879 ], [ 140.325828304, 35.971373158 ], [ 140.32535659199999, 35.971788916 ], [ 140.325248976000012, 35.971764718 ], [ 140.32517435599999, 35.971729186 ], [ 140.32509410099999, 35.971673517 ], [ 140.325105009999987, 35.971651928 ], [ 140.325148543000012, 35.971565778 ], [ 140.325022603, 35.971510605 ], [ 140.324814217000011, 35.971419314 ], [ 140.324756353, 35.971419551 ], [ 140.324739904000012, 35.971433058 ], [ 140.324732207000011, 35.971524926 ], [ 140.324724218, 35.971569756 ], [ 140.324680575, 35.971641612 ], [ 140.324636793, 35.971691069 ], [ 140.32458183599999, 35.971715933 ], [ 140.324490962, 35.971725265 ], [ 140.32453758299999, 35.97158787 ], [ 140.324564027, 35.971509935 ], [ 140.324682782, 35.971108505 ], [ 140.324595718000012, 35.971038837 ], [ 140.324580664, 35.971026791 ], [ 140.324471417000012, 35.971060417 ], [ 140.324152722, 35.971171278 ], [ 140.324150901, 35.971097242 ], [ 140.32415609899999, 35.971046823 ], [ 140.324139158, 35.970980815 ], [ 140.324091914, 35.970916051 ], [ 140.324027922999989, 35.970860675 ], [ 140.323961399000012, 35.970764062 ], [ 140.323881102, 35.970690682 ], [ 140.323844893, 35.970628112 ], [ 140.323830154, 35.970573456 ], [ 140.323827709, 35.970522907 ], [ 140.323735825, 35.970368729 ], [ 140.323696805999987, 35.970297211 ], [ 140.323557859, 35.970107387 ], [ 140.32349112, 35.970009103 ], [ 140.32345780599999, 35.969968921 ], [ 140.323437868000013, 35.969863727 ], [ 140.323418081999989, 35.969783171 ], [ 140.323407694, 35.969739861 ], [ 140.323353528000013, 35.969859528 ], [ 140.323258, 35.969938806 ], [ 140.323234694, 35.969956028 ], [ 140.323233934, 35.96995659 ], [ 140.323211119, 35.969937321 ], [ 140.32317389100001, 35.969905878 ], [ 140.323038778000011, 35.969790556 ], [ 140.323030498, 35.969783134 ], [ 140.322741917, 35.969524444 ], [ 140.32270021799999, 35.969480704 ], [ 140.322541583, 35.969314306 ], [ 140.322499291000014, 35.969263195 ], [ 140.32227878, 35.968996697 ], [ 140.32226825, 35.968983972 ], [ 140.32215941699999, 35.968818806 ], [ 140.322120667, 35.968757333 ], [ 140.322075778, 35.968650889 ], [ 140.32206736099999, 35.968531611 ], [ 140.322090917, 35.968450861 ], [ 140.322141417000012, 35.968385694 ], [ 140.322190806, 35.968337056 ], [ 140.32233727799999, 35.968091139 ], [ 140.322375443999988, 35.9680315 ], [ 140.322441639, 35.967962667 ], [ 140.322562306, 35.967862667 ], [ 140.32262291699999, 35.967816778 ], [ 140.322657722, 35.967769972 ], [ 140.32266625599999, 35.96767662 ], [ 140.32267902800001, 35.967536917 ], [ 140.32268427, 35.967524819 ], [ 140.32270617399999, 35.967474263 ], [ 140.322734309999987, 35.967471969 ], [ 140.32278272100001, 35.9674025 ], [ 140.32290830299999, 35.967213835 ], [ 140.323009558, 35.967101426 ], [ 140.323037054999986, 35.967092354 ], [ 140.323128063000013, 35.967105422 ], [ 140.323230673000012, 35.967212519 ], [ 140.323422639, 35.96747143 ], [ 140.323441548, 35.967502294 ], [ 140.323473997, 35.967573271 ], [ 140.32350339199999, 35.967648188 ], [ 140.323700382999988, 35.967645143 ], [ 140.323802046, 35.967821681 ], [ 140.323909982, 35.967898516 ], [ 140.323992967, 35.967950815 ], [ 140.324045751999989, 35.96796636 ], [ 140.32407845099999, 35.967961665 ], [ 140.324086488, 35.968111743 ], [ 140.324103681, 35.96825387 ], [ 140.324161514999986, 35.968249154 ], [ 140.324221896000012, 35.968210828 ], [ 140.32426024899999, 35.968174833 ], [ 140.324287317, 35.968096325 ], [ 140.324324768, 35.967914739 ], [ 140.324354508, 35.967822781 ], [ 140.324401832, 35.967678113 ], [ 140.324427605000011, 35.967613051 ], [ 140.324434313000012, 35.967583904 ], [ 140.324537514000014, 35.967391685 ], [ 140.32455586099999, 35.967278 ], [ 140.324543780999988, 35.967041076 ], [ 140.324580389, 35.966548972 ], [ 140.32462566699999, 35.966054444 ], [ 140.32467069399999, 35.965562833 ], [ 140.32470425, 35.965200972 ], [ 140.324710888999988, 35.96512925 ], [ 140.324733028, 35.964916389 ], [ 140.324733376000012, 35.964907602 ], [ 140.32474055599999, 35.964725889 ], [ 140.324702056, 35.9646 ], [ 140.324639358000013, 35.96450387 ], [ 140.324595111, 35.964436028 ], [ 140.324291389, 35.964075778 ], [ 140.32409032000001, 35.963859338 ], [ 140.323847164999989, 35.963596516 ], [ 140.323619694, 35.963349111 ], [ 140.323608295000014, 35.963333969 ], [ 140.323512443999988, 35.963206639 ], [ 140.323476333, 35.963093972 ], [ 140.323488028000014, 35.962875778 ], [ 140.323484231, 35.962821541 ], [ 140.323467778, 35.9625865 ], [ 140.323299595, 35.9624067 ], [ 140.32300421799999, 35.962459036 ], [ 140.323048991, 35.962570849 ], [ 140.323021979, 35.962658315 ], [ 140.322848599, 35.962690382 ], [ 140.322726267, 35.962511687 ], [ 140.32259841199999, 35.962330776 ], [ 140.322550056000011, 35.962105444 ], [ 140.32253841299999, 35.961983834 ], [ 140.32239984200001, 35.961852244 ], [ 140.322301205, 35.961830345 ], [ 140.321731833, 35.96120091 ], [ 140.321546415, 35.960931037 ], [ 140.321402557, 35.960721653 ], [ 140.321337863999986, 35.960748355 ], [ 140.321090813000012, 35.960792493 ], [ 140.321052372999986, 35.960813928 ], [ 140.321036006000014, 35.960841421 ], [ 140.321018286, 35.960871185 ], [ 140.321035106000011, 35.960918154 ], [ 140.321072933000011, 35.961021037 ], [ 140.321099519, 35.961088126 ], [ 140.321128923, 35.961165284 ], [ 140.321129246999988, 35.96121792 ], [ 140.321101672, 35.961274322 ], [ 140.321036421, 35.961356052 ], [ 140.320946122, 35.961457215 ], [ 140.32076005499999, 35.961666283 ], [ 140.320482962999989, 35.961944312 ], [ 140.320472059999986, 35.962101995 ], [ 140.320467509, 35.96270679 ], [ 140.32044542700001, 35.96270016 ], [ 140.320403907000014, 35.96266897 ], [ 140.32034580199999, 35.962628887 ], [ 140.320197065, 35.96263621 ], [ 140.32006742199999, 35.962612097 ], [ 140.31999850299999, 35.962605657 ], [ 140.319921455000014, 35.962621649 ], [ 140.31984989, 35.962633139 ], [ 140.319714833, 35.962624726 ], [ 140.319607314, 35.962613963 ], [ 140.319499823, 35.962607678 ], [ 140.31938946599999, 35.962583486 ], [ 140.319309526000012, 35.96257709 ], [ 140.319240455, 35.962546011 ], [ 140.31915131400001, 35.962438098 ], [ 140.318994761999988, 35.962277795 ], [ 140.318946641999986, 35.962258252 ], [ 140.31888864699999, 35.962236087 ], [ 140.318805719000011, 35.962191625 ], [ 140.318739349, 35.962151575 ], [ 140.31870049, 35.962104694 ], [ 140.318614601, 35.962026644 ], [ 140.318559101, 35.961961911 ], [ 140.318498078, 35.96189496 ], [ 140.318439087, 35.961752659 ], [ 140.318392534, 35.961756512 ], [ 140.31832882399999, 35.961700772 ], [ 140.318287113999986, 35.961638223 ], [ 140.318228518000012, 35.961517504 ], [ 140.318205861, 35.9614168 ], [ 140.318205511, 35.961359684 ], [ 140.318225539999986, 35.961294693 ], [ 140.318273403, 35.961198135 ], [ 140.318303449000013, 35.961155456 ], [ 140.318340403, 35.961116108 ], [ 140.318386999000012, 35.961076721 ], [ 140.31844669899999, 35.961049529 ], [ 140.318525768, 35.961016802 ], [ 140.318585407, 35.961082639 ], [ 140.318633833, 35.961117162 ], [ 140.318662474, 35.961070008 ], [ 140.31868311, 35.961065444 ], [ 140.318709262, 35.961061979 ], [ 140.318736841, 35.961066347 ], [ 140.318768654, 35.961087497 ], [ 140.318804613999987, 35.961110871 ], [ 140.318830891, 35.961127564 ], [ 140.31885429499999, 35.961125229 ], [ 140.31887624699999, 35.961110581 ], [ 140.31888565599999, 35.961072465 ], [ 140.318885458000011, 35.961039987 ], [ 140.31890195299999, 35.960809209 ], [ 140.318882394000013, 35.96076449 ], [ 140.31886295699999, 35.960739929 ], [ 140.31882159, 35.960733377 ], [ 140.318832377, 35.960695255 ], [ 140.318840286000011, 35.960636985 ], [ 140.318872977000012, 35.960576375 ], [ 140.318894812, 35.960542688 ], [ 140.31894414199999, 35.96049993 ], [ 140.319004506999988, 35.960459367 ], [ 140.319031934, 35.960439097 ], [ 140.318952204999988, 35.960323424 ], [ 140.31893186100001, 35.960293908 ], [ 140.318954131, 35.960287474 ], [ 140.319490163000012, 35.960132614 ], [ 140.31951752099999, 35.960101144 ], [ 140.31951737, 35.960076506 ], [ 140.319433170999986, 35.95996398 ], [ 140.319299308000012, 35.95978508 ], [ 140.319296443000013, 35.959767172 ], [ 140.319300252, 35.95975666 ], [ 140.319304571, 35.95974474 ], [ 140.319484168, 35.959604018 ], [ 140.319562364, 35.959551063 ], [ 140.319488463, 35.959405768 ], [ 140.319567885, 35.95932817 ], [ 140.319575485, 35.959321123 ], [ 140.319619053, 35.959360441 ], [ 140.319757724, 35.959509953 ], [ 140.31980209299999, 35.959556812 ], [ 140.319838127999986, 35.959592504 ], [ 140.31987205199999, 35.959591484 ], [ 140.319948247000013, 35.959578618 ], [ 140.31997012299999, 35.959551651 ], [ 140.320005869, 35.959540306 ], [ 140.320041699, 35.959542401 ], [ 140.320066548999989, 35.95955126 ], [ 140.320127379000013, 35.959586851 ], [ 140.320146787999988, 35.959606932 ], [ 140.32030022, 35.959602885 ], [ 140.320406225999989, 35.959600088 ], [ 140.320406985, 35.959676493 ], [ 140.320408235, 35.959802427 ], [ 140.320464952, 35.959822913 ], [ 140.320576171, 35.959988215 ], [ 140.320792896, 35.960285243 ], [ 140.320845517, 35.960329828 ], [ 140.320900865999988, 35.960369921 ], [ 140.320957735, 35.960405664 ], [ 140.32101173699999, 35.960478106 ], [ 140.32111065699999, 35.960435146 ], [ 140.321104458, 35.960323176 ], [ 140.320973651, 35.9601322 ], [ 140.320615694, 35.959551882 ], [ 140.320542179, 35.959388056 ], [ 140.32041184, 35.95924971 ], [ 140.320351174, 35.959240997 ], [ 140.320280075999989, 35.959191093 ], [ 140.320202196999986, 35.959208003 ], [ 140.32010453800001, 35.959231918 ], [ 140.319986285, 35.959267116 ], [ 140.319872081999989, 35.959288858 ], [ 140.31975924299999, 35.959308355 ], [ 140.31966692200001, 35.959304249 ], [ 140.31960071200001, 35.959289958 ], [ 140.31956409899999, 35.959245526 ], [ 140.319518928, 35.959212918 ], [ 140.319479741, 35.959186297 ], [ 140.31945869099999, 35.959268134 ], [ 140.319398939, 35.959408371 ], [ 140.319355495999986, 35.959512703 ], [ 140.319296743, 35.959591338 ], [ 140.319241986, 35.959647557 ], [ 140.319180237000012, 35.959687006 ], [ 140.319137684999987, 35.959711817 ], [ 140.319073003999989, 35.959722159 ], [ 140.319062121, 35.959744602 ], [ 140.319042978999988, 35.959768198 ], [ 140.31899755500001, 35.959773982 ], [ 140.318731646, 35.959767218 ], [ 140.31870964699999, 35.959774027 ], [ 140.31866859499999, 35.959818991 ], [ 140.31861357, 35.959831533 ], [ 140.318561224, 35.959831745 ], [ 140.31849659, 35.959849925 ], [ 140.31842096299999, 35.95987263 ], [ 140.318357571, 35.959863593 ], [ 140.318329417, 35.959877659 ], [ 140.31828978499999, 35.959900604 ], [ 140.31820774900001, 35.959963972 ], [ 140.318067222, 35.960100528 ], [ 140.317893806, 35.960168639 ], [ 140.317821556000013, 35.960143639 ], [ 140.317790694, 35.960153889 ], [ 140.317748833, 35.960236917 ], [ 140.317711327000012, 35.960279535 ], [ 140.3176125, 35.960391833 ], [ 140.317551812, 35.960436773 ], [ 140.318067336000013, 35.96143797 ], [ 140.319544643, 35.964240739 ], [ 140.32130541699999, 35.967539222 ], [ 140.321853325, 35.968591632 ], [ 140.32232490199999, 35.969473953 ], [ 140.32239611899999, 35.9696053 ], [ 140.322435468, 35.96970673 ], [ 140.322538285, 35.969956383 ], [ 140.32257799199999, 35.970055156 ], [ 140.322616289, 35.970128688 ], [ 140.322648359999988, 35.970191515 ], [ 140.32272584899999, 35.970340722 ], [ 140.322760453, 35.970377508 ], [ 140.323075171, 35.970974054 ], [ 140.323838286000012, 35.972450879 ], [ 140.324401767000012, 35.973526239 ], [ 140.324505835, 35.973749979 ], [ 140.324556484, 35.97387497 ], [ 140.324656229, 35.974153725 ], [ 140.32476036599999, 35.974606 ], [ 140.324756933, 35.97539316 ], [ 140.324611858999987, 35.976099131 ], [ 140.324721278, 35.976116889 ], [ 140.325, 35.976157993 ], [ 140.32501775, 35.976160611 ], [ 140.325120218, 35.976064527 ], [ 140.325219306, 35.975971611 ], [ 140.32523683, 35.975957571 ], [ 140.325488079, 35.975756279 ], [ 140.325505, 35.975742722 ], [ 140.325728860999988, 35.975528417 ], [ 140.325869888999989, 35.975338972 ], [ 140.326033889, 35.975056556 ], [ 140.32606675, 35.975 ], [ 140.326067443999989, 35.974998806 ], [ 140.326067778, 35.97499825 ], [ 140.326169472, 35.9747715 ], [ 140.32617369799999, 35.974755484 ], [ 140.32631102799999, 35.974234917 ], [ 140.326367083, 35.973963667 ], [ 140.326426806, 35.973704722 ], [ 140.326474444000013, 35.973413944 ], [ 140.326480973, 35.972953619 ], [ 140.326481167, 35.972939944 ], [ 140.326442250000014, 35.972691944 ], [ 140.326331183, 35.972221654 ], [ 140.326301277999988, 35.972095028 ], [ 140.32622947199999, 35.971934833 ], [ 140.32617894399999, 35.971849466 ] ] ] } },
{ "type": "Feature", "properties": { "A29_001": "08229", "A29_002": "茨城県", "A29_003": "稲敷市", "A29_004": 11, "A29_005": "工業地域", "A29_006": 60, "A29_007": 200, "A29_008": null }, "geometry": { "type": "Polygon", "coordinates": [ [ [ 140.291398364, 35.947273855 ], [ 140.291614606, 35.94718293 ], [ 140.291795796, 35.947434083 ], [ 140.29173986399999, 35.94747501 ], [ 140.291688432, 35.947528605 ], [ 140.291666356, 35.947585255 ], [ 140.291679593999987, 35.947628467 ], [ 140.292760676, 35.946996478 ], [ 140.29338743400001, 35.946623859 ], [ 140.29422338, 35.946121474 ], [ 140.294980364, 35.94568429 ], [ 140.295592389, 35.945323692 ], [ 140.29632398199999, 35.944906526 ], [ 140.296916313999986, 35.944554662 ], [ 140.297002584000012, 35.944496997 ], [ 140.297429169, 35.944432822 ], [ 140.29766836499999, 35.94439585 ], [ 140.297715533, 35.944350458 ], [ 140.29776579899999, 35.944345857 ], [ 140.297730905, 35.944273763 ], [ 140.297740499000014, 35.944029954 ], [ 140.29782652599999, 35.943951416 ], [ 140.297800217, 35.94391299 ], [ 140.29782825800001, 35.943890963 ], [ 140.297881776999986, 35.943924026 ], [ 140.297979019, 35.943929319 ], [ 140.29808361799999, 35.943889994 ], [ 140.298218472, 35.943887138 ], [ 140.29836051, 35.94386887 ], [ 140.298685955, 35.943800312 ], [ 140.298719049, 35.943882778 ], [ 140.29875368399999, 35.943960079 ], [ 140.298820825, 35.944080182 ], [ 140.298842149, 35.944141395 ], [ 140.29894768299999, 35.944160524 ], [ 140.299149991, 35.944117116 ], [ 140.29935228299999, 35.94409979 ], [ 140.299444246, 35.944108038 ], [ 140.299487726, 35.944136596 ], [ 140.299575068, 35.944160341 ], [ 140.299629557, 35.944199695 ], [ 140.299612821000011, 35.944561159 ], [ 140.30057734799999, 35.94503008 ], [ 140.300872266999988, 35.945187944 ], [ 140.30091609499999, 35.945235292 ], [ 140.301316151, 35.945317331 ], [ 140.30165614500001, 35.944853843 ], [ 140.301822238, 35.944636054 ], [ 140.302003766000013, 35.944314446 ], [ 140.301998520000012, 35.94426524 ], [ 140.30199666499999, 35.944199452 ], [ 140.301992093, 35.944136705 ], [ 140.302010023, 35.944060094 ], [ 140.301909693999988, 35.94391073 ], [ 140.301844313, 35.943755215 ], [ 140.301797781, 35.943607623 ], [ 140.301774013, 35.943518162 ], [ 140.301795671, 35.943134951 ], [ 140.301741149, 35.943007252 ], [ 140.301704187000013, 35.942959434 ], [ 140.301669729, 35.942895703 ], [ 140.301638454, 35.942768088 ], [ 140.30164321699999, 35.942689652 ], [ 140.30240311599999, 35.942613139 ], [ 140.302446663000012, 35.942563105 ], [ 140.30213512, 35.942344188 ], [ 140.302241321, 35.942221103 ], [ 140.302187616, 35.942183167 ], [ 140.301850359000014, 35.942085581 ], [ 140.301869726, 35.941994411 ], [ 140.301878007, 35.941957898 ], [ 140.301858995, 35.941942744 ], [ 140.301855775, 35.941878611 ], [ 140.301468938999989, 35.94222684 ], [ 140.301066209999988, 35.941941276 ], [ 140.30061378100001, 35.941983748 ], [ 140.300532549, 35.941863181 ], [ 140.300489726, 35.941769962 ], [ 140.300434319, 35.941646073 ], [ 140.300398556, 35.941488403 ], [ 140.299979068, 35.941539261 ], [ 140.30005519299999, 35.94171078 ], [ 140.299876880999989, 35.941736201 ], [ 140.29965455199999, 35.941769561 ], [ 140.299711258, 35.942021816 ], [ 140.299613706, 35.942022773 ], [ 140.29952598599999, 35.942032401 ], [ 140.299335782000014, 35.942064732 ], [ 140.299252848, 35.942080523 ], [ 140.299252719, 35.942078513 ], [ 140.299233378999986, 35.941883131 ], [ 140.29922802499999, 35.941716031 ], [ 140.299158721, 35.941510655 ], [ 140.298991059, 35.941494 ], [ 140.298772568, 35.941433242 ], [ 140.29875489, 35.941461871 ], [ 140.29877540699999, 35.94147924 ], [ 140.298762251999989, 35.941588697 ], [ 140.298453271999989, 35.941541648 ], [ 140.29831854299999, 35.94151634 ], [ 140.29833949799999, 35.941542069 ], [ 140.29834387, 35.941591595 ], [ 140.298132095, 35.941602 ], [ 140.297881295, 35.941588861 ], [ 140.297828089, 35.941523815 ], [ 140.29777913, 35.941493684 ], [ 140.29772555400001, 35.941521825 ], [ 140.297573895, 35.941630192 ], [ 140.297411747000012, 35.941743082 ], [ 140.296985627, 35.942021144 ], [ 140.29690740699999, 35.941874592 ], [ 140.296836907999989, 35.9417276 ], [ 140.29667501599999, 35.941320947 ], [ 140.296221742, 35.941354681 ], [ 140.296119169, 35.941113431 ], [ 140.29576669, 35.941098324 ], [ 140.295721273999987, 35.941082915 ], [ 140.295683844, 35.94102743 ], [ 140.295661714, 35.940973841 ], [ 140.29584778200001, 35.940895823 ], [ 140.29578469099999, 35.940806106 ], [ 140.29568745099999, 35.940852279 ], [ 140.295578729999988, 35.940905724 ], [ 140.295386989, 35.940891747 ], [ 140.295325762, 35.940918938 ], [ 140.295240709000012, 35.940926564 ], [ 140.295178987000014, 35.940929396 ], [ 140.294894903, 35.941086249 ], [ 140.294893401, 35.941133495 ], [ 140.29486163199999, 35.941187392 ], [ 140.294821590999987, 35.941201372 ], [ 140.29479229099999, 35.941240049 ], [ 140.294788708, 35.941568909 ], [ 140.294797708, 35.941594245 ], [ 140.294855176999988, 35.941710901 ], [ 140.29486628699999, 35.941745348 ], [ 140.294701148, 35.941832402 ], [ 140.294620672, 35.941885387 ], [ 140.294633917999988, 35.941907037 ], [ 140.294789014, 35.941999791 ], [ 140.294854175000012, 35.942120874 ], [ 140.294776469999988, 35.942559613 ], [ 140.294698614999987, 35.942885675 ], [ 140.294246805, 35.942877022 ], [ 140.293939878, 35.942741698 ], [ 140.293818511000012, 35.942975558 ], [ 140.293629611, 35.942866038 ], [ 140.293451147000013, 35.942778771 ], [ 140.29336731399999, 35.942761919 ], [ 140.293263020000012, 35.94276943 ], [ 140.29320236800001, 35.942789336 ], [ 140.293131614, 35.942857421 ], [ 140.293079580000011, 35.943021641 ], [ 140.29300037499999, 35.943032009 ], [ 140.2929562, 35.943060226 ], [ 140.292984883, 35.94310244 ], [ 140.29299702, 35.943133443 ], [ 140.293006802, 35.943177352 ], [ 140.29295680199999, 35.943203095 ], [ 140.29295491799999, 35.94320311 ], [ 140.29295235, 35.943205388 ], [ 140.292261551, 35.943818233 ], [ 140.291622424, 35.94361051 ], [ 140.29131768900001, 35.943903253 ], [ 140.290326857999986, 35.943204218 ], [ 140.289758095, 35.942835929 ], [ 140.289365997, 35.942552417 ], [ 140.289051938999989, 35.942453012 ], [ 140.288673390000014, 35.942360516 ], [ 140.288532728, 35.94262503 ], [ 140.288483133, 35.94271033 ], [ 140.288389886, 35.942796273 ], [ 140.28828138599999, 35.942862238 ], [ 140.288112489000014, 35.942938725 ], [ 140.288034813, 35.942986929 ], [ 140.287902535, 35.943100794 ], [ 140.287819398000011, 35.943203154 ], [ 140.287674844, 35.943505878 ], [ 140.287613378, 35.943580526 ], [ 140.28761740600001, 35.94373089 ], [ 140.28751157799999, 35.943923004 ], [ 140.287488036000013, 35.944047418 ], [ 140.287431553, 35.94413788 ], [ 140.287349301, 35.944175978 ], [ 140.287523024, 35.944252143 ], [ 140.287675028, 35.944243084 ], [ 140.287844850999988, 35.944224052 ], [ 140.288163937, 35.94416418 ], [ 140.288256475, 35.944132029 ], [ 140.288325289999989, 35.944141346 ], [ 140.28835471299999, 35.944252123 ], [ 140.288381152, 35.944313506 ], [ 140.28846785499999, 35.944426959 ], [ 140.288633784000012, 35.944521122 ], [ 140.288792548, 35.944604615 ], [ 140.28904786699999, 35.944655828 ], [ 140.289101195, 35.94466698 ], [ 140.289137788, 35.944653583 ], [ 140.289300895999986, 35.944752868 ], [ 140.28930265599999, 35.944794657 ], [ 140.28926335599999, 35.944862214 ], [ 140.28926992699999, 35.944910422 ], [ 140.28975834, 35.945329265 ], [ 140.28951295600001, 35.945541285 ], [ 140.289733051000013, 35.945758256 ], [ 140.289784515, 35.945729702 ], [ 140.289767488, 35.945685322 ], [ 140.289877757, 35.945609677 ], [ 140.29000671, 35.945622285 ], [ 140.29017487499999, 35.945877183 ], [ 140.29031919799999, 35.945890298 ], [ 140.290325709, 35.946016748 ], [ 140.29036166099999, 35.946170254 ], [ 140.290428874000014, 35.946314359 ], [ 140.290548636000011, 35.946485239 ], [ 140.290689945999986, 35.946687086 ], [ 140.290874142, 35.946955032 ], [ 140.291005289, 35.947180538 ], [ 140.29108892799999, 35.947355441 ], [ 140.29113326699999, 35.947597901 ], [ 140.291138710000013, 35.947848465 ], [ 140.291125705000013, 35.947903329 ], [ 140.29148973, 35.947730695 ], [ 140.291398364, 35.947273855 ] ] ] } },
{ "type": "Feature", "properties": { "A29_001": "08229", "A29_002": "茨城県", "A29_003": "稲敷市", "A29_004": 1, "A29_005": "第一種低層住居専用地域", "A29_006": 40, "A29_007": 80, "A29_008": null }, "geometry": { "type": "Polygon", "coordinates": [ [ [ 140.30151022199999, 35.90574825 ], [ 140.301456917, 35.905476639 ], [ 140.301435027999986, 35.905328222 ], [ 140.301372361, 35.90499375 ], [ 140.301350722, 35.90486325 ], [ 140.30125425, 35.904357611 ], [ 140.30125125, 35.904303556 ], [ 140.301277556, 35.904136667 ], [ 140.301289610999987, 35.904055222 ], [ 140.30130825, 35.903929222 ], [ 140.301382361, 35.903368861 ], [ 140.30143361099999, 35.903068639 ], [ 140.30146213899999, 35.902887556 ], [ 140.30151336099999, 35.902683972 ], [ 140.301528749999989, 35.902623917 ], [ 140.301679889000013, 35.90203425 ], [ 140.301712417, 35.901879028 ], [ 140.301738167, 35.901749972 ], [ 140.301947222, 35.900253194 ], [ 140.301948167, 35.9002465 ], [ 140.301990417000013, 35.9 ], [ 140.301992528, 35.8999805 ], [ 140.301965139, 35.899961139 ], [ 140.301949861, 35.899949528 ], [ 140.301426306, 35.899517278 ], [ 140.301366889, 35.899468222 ], [ 140.301048694, 35.89918575 ], [ 140.300869444, 35.899025056 ], [ 140.300766454000012, 35.898721348 ], [ 140.299433963000013, 35.899289164 ], [ 140.29872359399999, 35.899589973 ], [ 140.29831633, 35.899777556 ], [ 140.298121237, 35.899898553 ], [ 140.297837952, 35.900094468 ], [ 140.297691351, 35.900205154 ], [ 140.29752573, 35.900351754 ], [ 140.297262417000013, 35.900654472 ], [ 140.297017028999988, 35.901059951 ], [ 140.296792274000012, 35.901540007 ], [ 140.296364352000012, 35.902505363 ], [ 140.29613489799999, 35.902950448 ], [ 140.295994799, 35.903172247 ], [ 140.29591893599999, 35.903277707 ], [ 140.295559039000011, 35.903674507 ], [ 140.29501357, 35.904117047 ], [ 140.29434884599999, 35.904478882 ], [ 140.293657593, 35.904738604 ], [ 140.293418228, 35.904858287 ], [ 140.29323827499999, 35.904989664 ], [ 140.293098542, 35.905131777 ], [ 140.292984972, 35.905363816 ], [ 140.292940748, 35.905525983 ], [ 140.292934164, 35.905623843 ], [ 140.293522149000012, 35.905593161 ], [ 140.293903281000013, 35.90562013 ], [ 140.294246965000013, 35.905671528 ], [ 140.294759069, 35.905837562 ], [ 140.29520213399999, 35.905978011 ], [ 140.295982844, 35.906259248 ], [ 140.296409484, 35.906444876 ], [ 140.296786406, 35.906648368 ], [ 140.297239579, 35.90692885 ], [ 140.297915882000012, 35.907392971 ], [ 140.298680926, 35.907881815 ], [ 140.299157763000011, 35.908197851 ], [ 140.299422633, 35.908286757 ], [ 140.299753576, 35.908379549 ], [ 140.300242048, 35.90849704 ], [ 140.300542353, 35.908604956 ], [ 140.30080170299999, 35.90871224 ], [ 140.30130332600001, 35.909031984 ], [ 140.301727814, 35.909339777 ], [ 140.302248166999988, 35.909677111 ], [ 140.30272752799999, 35.909321667 ], [ 140.302465778, 35.909077472 ], [ 140.302309306000012, 35.908912639 ], [ 140.30218916699999, 35.908766667 ], [ 140.302170776999986, 35.908735785 ], [ 140.302106528, 35.908627889 ], [ 140.302034889, 35.908478361 ], [ 140.301991917, 35.908350417 ], [ 140.301987, 35.908333333 ], [ 140.30198669399999, 35.908332278 ], [ 140.30195997199999, 35.908239583 ], [ 140.30191558300001, 35.908016944 ], [ 140.301886110999988, 35.907868306 ], [ 140.301840806, 35.907558611 ], [ 140.301720139, 35.906856806 ], [ 140.30161491699999, 35.906337 ], [ 140.30151022199999, 35.90574825 ] ], [ [ 140.297953, 35.904480222 ], [ 140.29794086199999, 35.90443645 ], [ 140.29776953199999, 35.904438996 ], [ 140.297645047, 35.90422704 ], [ 140.297785272999988, 35.904195138 ], [ 140.297649205999988, 35.90399631 ], [ 140.297805793, 35.903937466 ], [ 140.297647688000012, 35.903736483 ], [ 140.297595445000013, 35.903747885 ], [ 140.29744225799999, 35.903446086 ], [ 140.29755579, 35.903389034 ], [ 140.29763159399999, 35.903337837 ], [ 140.297666128, 35.903388028 ], [ 140.29767060899999, 35.90339454 ], [ 140.297803751, 35.903588044 ], [ 140.29791093899999, 35.90355627 ], [ 140.297938617999989, 35.903641547 ], [ 140.298011871, 35.903867231 ], [ 140.29849092, 35.903771946 ], [ 140.298491882, 35.903795935 ], [ 140.298501837, 35.903945448 ], [ 140.298839507999986, 35.903920024 ], [ 140.29875441199999, 35.904198106 ], [ 140.298734392999989, 35.904305701 ], [ 140.298718392000012, 35.90439424 ], [ 140.298728769, 35.904520756 ], [ 140.29874852, 35.904602437 ], [ 140.298770001, 35.90474459 ], [ 140.29879865699999, 35.90489087 ], [ 140.298782023, 35.904917019 ], [ 140.298751837, 35.904933935 ], [ 140.298611891, 35.904956122 ], [ 140.298213578, 35.90504305 ], [ 140.298110333000011, 35.904824194 ], [ 140.297953, 35.904480222 ] ] ] } }
]
}
