{
"type": "FeatureCollection",
"name": "A29-19_02361",
"features": [
{ "type": "Feature", "properties": { "A29_001": "02361", "A29_002": "青森県", "A29_003": "藤崎町", "A29_004": 4, "A29_005": "第二種中高層住居専用地域", "A29_006": 60, "A29_007": 200, "A29_008": null }, "geometry": { "type": "Polygon", "coordinates": [ [ [ 140.482539521, 40.658529692 ], [ 140.48270861200001, 40.658549235 ], [ 140.482821429000012, 40.658558854 ], [ 140.48291878399999, 40.658562518 ], [ 140.483032758, 40.658561179 ], [ 140.483134581, 40.658556436 ], [ 140.483202118, 40.658549895 ], [ 140.483287397999987, 40.658535816 ], [ 140.48346580099999, 40.658486625 ], [ 140.483337627, 40.658394933 ], [ 140.484392719, 40.657738846 ], [ 140.48286920699999, 40.656308664 ], [ 140.481721615999987, 40.655242956 ], [ 140.481689047, 40.655254673 ], [ 140.480665918999989, 40.655545331 ], [ 140.48064081699999, 40.655551559 ], [ 140.480539485, 40.655571603 ], [ 140.48043864499999, 40.65558149 ], [ 140.480453841000013, 40.655666626 ], [ 140.48046086799999, 40.655701861 ], [ 140.48049652200001, 40.655847598 ], [ 140.480507141, 40.655896984 ], [ 140.480515774999986, 40.65594159 ], [ 140.480526958000013, 40.655996111 ], [ 140.480532651, 40.656037736 ], [ 140.48054332800001, 40.65609856 ], [ 140.480556353, 40.656184968 ], [ 140.48057995, 40.656285007 ], [ 140.48059532900001, 40.656328643 ], [ 140.48061483699999, 40.656374274 ], [ 140.480636228, 40.656421711 ], [ 140.48068328, 40.656513986 ], [ 140.48071913199999, 40.656577408 ], [ 140.480828843000012, 40.656762818 ], [ 140.480886629, 40.65686035 ], [ 140.480982352000012, 40.65700726 ], [ 140.48102357, 40.657062413 ], [ 140.48128445099999, 40.657398234 ], [ 140.48134974300001, 40.657485432 ], [ 140.48139262399999, 40.657539238 ], [ 140.481490557, 40.657671295 ], [ 140.48152297199999, 40.657713813 ], [ 140.48155634599999, 40.657753991 ], [ 140.4815982, 40.65780086 ], [ 140.48163595299999, 40.657840332 ], [ 140.48167995599999, 40.657883154 ], [ 140.481732212999987, 40.657930775 ], [ 140.481784002000012, 40.657977314 ], [ 140.481829217000012, 40.658014557 ], [ 140.481875132999988, 40.658053693 ], [ 140.481936013, 40.658103051 ], [ 140.482244841000011, 40.658340489 ], [ 140.482295865999987, 40.658374957 ], [ 140.482345141, 40.658405007 ], [ 140.48238381199999, 40.65842755 ], [ 140.48240468099999, 40.658439591 ], [ 140.482448304, 40.658464941 ], [ 140.482539521, 40.658529692 ] ] ] } },
{ "type": "Feature", "properties": { "A29_001": "02361", "A29_002": "青森県", "A29_003": "藤崎町", "A29_004": 5, "A29_005": "第一種住居地域", "A29_006": 60, "A29_007": 200, "A29_008": null }, "geometry": { "type": "Polygon", "coordinates": [ [ [ 140.49968339899999, 40.660567351 ], [ 140.49971502599999, 40.660597405 ], [ 140.499843793999986, 40.660618095 ], [ 140.499896807, 40.660635593 ], [ 140.499906047, 40.660656361 ], [ 140.499920221999986, 40.660657348 ], [ 140.500006386, 40.66067686 ], [ 140.499999753, 40.660738082 ], [ 140.5000431, 40.66087981 ], [ 140.500038835999987, 40.660949847 ], [ 140.500016659000011, 40.661104687 ], [ 140.499982853, 40.661243553 ], [ 140.50017183599999, 40.661267784 ], [ 140.500184622, 40.661265209 ], [ 140.500203615, 40.661250944 ], [ 140.500215411999989, 40.66120946 ], [ 140.500224895, 40.661181209 ], [ 140.500234189999986, 40.661167096 ], [ 140.500256522, 40.661147437 ], [ 140.500318725999989, 40.661124291 ], [ 140.500340193999989, 40.661111654 ], [ 140.500303011, 40.660891088 ], [ 140.50063128299999, 40.660832585 ], [ 140.500587923000012, 40.660731286 ], [ 140.500590484000014, 40.660713299 ], [ 140.500705578, 40.660687054 ], [ 140.500840630999988, 40.660673573 ], [ 140.500850003000011, 40.660653427 ], [ 140.50135754499999, 40.660686093 ], [ 140.50136651599999, 40.660627606 ], [ 140.501708086, 40.660660577 ], [ 140.50172385, 40.660627336 ], [ 140.501750054000013, 40.660508612 ], [ 140.50177694300001, 40.66051194 ], [ 140.501876071, 40.660540531 ], [ 140.501986501, 40.660386232 ], [ 140.50180409699999, 40.660311264 ], [ 140.50163702399999, 40.66024767 ], [ 140.501176160999989, 40.660063153 ], [ 140.500938305, 40.659966861 ], [ 140.50080161599999, 40.659917312 ], [ 140.50082341000001, 40.659872434 ], [ 140.500853906, 40.659792449 ], [ 140.500901778000014, 40.659637845 ], [ 140.500782535000013, 40.659616338 ], [ 140.500767434000011, 40.659590122 ], [ 140.50094696299999, 40.659407519 ], [ 140.500935282, 40.659385493 ], [ 140.500438339999988, 40.659805545 ], [ 140.500188858, 40.659999591 ], [ 140.49968339899999, 40.660567351 ] ] ] } },
{ "type": "Feature", "properties": { "A29_001": "02361", "A29_002": "青森県", "A29_003": "藤崎町", "A29_004": 6, "A29_005": "第二種住居地域", "A29_006": 60, "A29_007": 200, "A29_008": null }, "geometry": { "type": "Polygon", "coordinates": [ [ [ 140.49968339899999, 40.660567351 ], [ 140.500188858, 40.659999591 ], [ 140.500438339999988, 40.659805545 ], [ 140.500935282, 40.659385493 ], [ 140.500810492999989, 40.659150084 ], [ 140.501745338, 40.658361688 ], [ 140.501384745, 40.658113229 ], [ 140.49961559499999, 40.659582252 ], [ 140.499120154, 40.660125803 ], [ 140.499202481999987, 40.660238293 ], [ 140.499289331, 40.660333729 ], [ 140.49933567, 40.660354271 ], [ 140.499425078, 40.660399019 ], [ 140.49950894700001, 40.660411321 ], [ 140.499537172, 40.66043127 ], [ 140.499548862000012, 40.660439517 ], [ 140.499646734, 40.660532508 ], [ 140.49968339899999, 40.660567351 ] ] ] } },
{ "type": "Feature", "properties": { "A29_001": "02361", "A29_002": "青森県", "A29_003": "藤崎町", "A29_004": 8, "A29_005": "近隣商業地域", "A29_006": 80, "A29_007": 200, "A29_008": null }, "geometry": { "type": "Polygon", "coordinates": [ [ [ 140.502223028, 40.656177386 ], [ 140.50101923299999, 40.655354646 ], [ 140.500848800999989, 40.655548165 ], [ 140.500782238, 40.655623813 ], [ 140.50177693099999, 40.65630673 ], [ 140.500414638, 40.657444789 ], [ 140.501384745, 40.658113229 ], [ 140.501745338, 40.658361688 ], [ 140.50221416799999, 40.657966812 ], [ 140.503098082, 40.657221677 ], [ 140.502502582, 40.65680165 ], [ 140.502790925, 40.656562707 ], [ 140.502223028, 40.656177386 ] ] ] } },
{ "type": "Feature", "properties": { "A29_001": "02361", "A29_002": "青森県", "A29_003": "藤崎町", "A29_004": 8, "A29_005": "近隣商業地域", "A29_006": 80, "A29_007": 200, "A29_008": null }, "geometry": { "type": "Polygon", "coordinates": [ [ [ 140.50430263199999, 40.655653268 ], [ 140.50225845, 40.654241588 ], [ 140.502232504, 40.65426329 ], [ 140.501941542, 40.654512131 ], [ 140.502230306, 40.654707283 ], [ 140.503989797, 40.655923197 ], [ 140.50430263199999, 40.655653268 ] ] ] } },
{ "type": "Feature", "properties": { "A29_001": "02361", "A29_002": "青森県", "A29_003": "藤崎町", "A29_004": 6, "A29_005": "第二種住居地域", "A29_006": 60, "A29_007": 200, "A29_008": null }, "geometry": { "type": "Polygon", "coordinates": [ [ [ 140.504349158, 40.656171528 ], [ 140.506100315, 40.654692978 ], [ 140.505736297999988, 40.654444252 ], [ 140.505231592, 40.654869689 ], [ 140.504642719, 40.655359827 ], [ 140.50430263199999, 40.655653268 ], [ 140.503989797, 40.655923197 ], [ 140.502230306, 40.654707283 ], [ 140.501941542, 40.654512131 ], [ 140.501389804000013, 40.654985491 ], [ 140.501245477, 40.655120977 ], [ 140.501107092000012, 40.65526002 ], [ 140.50101923299999, 40.655354646 ], [ 140.502223028, 40.656177386 ], [ 140.502790925, 40.656562707 ], [ 140.502502582, 40.65680165 ], [ 140.503098082, 40.657221677 ], [ 140.504349158, 40.656171528 ] ] ] } },
{ "type": "Feature", "properties": { "A29_001": "02361", "A29_002": "青森県", "A29_003": "藤崎町", "A29_004": 5, "A29_005": "第一種住居地域", "A29_006": 60, "A29_007": 200, "A29_008": null }, "geometry": { "type": "Polygon", "coordinates": [ [ [ 140.491317473, 40.660510162 ], [ 140.491438988999988, 40.660359761 ], [ 140.491546219000014, 40.660227509 ], [ 140.49177573599999, 40.659955754 ], [ 140.491938371, 40.659779374 ], [ 140.49198358000001, 40.659921335 ], [ 140.492218802999986, 40.659875018 ], [ 140.49303335799999, 40.659695445 ], [ 140.493012047, 40.659674704 ], [ 140.492868012, 40.659450218 ], [ 140.49284474699999, 40.659415818 ], [ 140.49278930599999, 40.659355575 ], [ 140.49278405199999, 40.659346914 ], [ 140.492770087999986, 40.659327879 ], [ 140.492764284, 40.659317928 ], [ 140.492755163, 40.659290838 ], [ 140.492742864, 40.659230389 ], [ 140.493139488, 40.658872207 ], [ 140.49347831099999, 40.658584461 ], [ 140.493399278999988, 40.658442302 ], [ 140.495108477, 40.656916379 ], [ 140.49546924, 40.656596189 ], [ 140.49548765, 40.656603718 ], [ 140.495455364, 40.656721242 ], [ 140.495451231, 40.65674352 ], [ 140.495436485999988, 40.656853216 ], [ 140.49543568199999, 40.656930306 ], [ 140.495435694, 40.656949128 ], [ 140.495529404, 40.656955346 ], [ 140.495534292, 40.657043656 ], [ 140.495885116000011, 40.657038269 ], [ 140.495908773999986, 40.657046426 ], [ 140.49597845400001, 40.657064461 ], [ 140.49602545, 40.657078468 ], [ 140.496064651000012, 40.65709029 ], [ 140.496150226999987, 40.657119828 ], [ 140.496361072000013, 40.657194095 ], [ 140.496523606000011, 40.657259566 ], [ 140.496570569, 40.657228479 ], [ 140.49658019099999, 40.657219771 ], [ 140.49689257, 40.657357933 ], [ 140.496833643, 40.657449534 ], [ 140.497009579, 40.657549734 ], [ 140.49686527, 40.657662421 ], [ 140.497050241000011, 40.65778401 ], [ 140.497073177, 40.657766344 ], [ 140.497239724, 40.657899668 ], [ 140.497186766999988, 40.657942293 ], [ 140.497269404, 40.658017914 ], [ 140.497099845, 40.658154313 ], [ 140.497208212, 40.658235349 ], [ 140.497455394000013, 40.658047635 ], [ 140.497594154000012, 40.658161578 ], [ 140.49747097, 40.658268698 ], [ 140.497804230000014, 40.65858097 ], [ 140.497382546000011, 40.658838677 ], [ 140.49742943199999, 40.659049123 ], [ 140.497482786, 40.659116104 ], [ 140.497343551, 40.659204525 ], [ 140.497184204, 40.659061397 ], [ 140.49704934499999, 40.659138096 ], [ 140.497169735, 40.659262568 ], [ 140.496689690000011, 40.659516483 ], [ 140.496844452, 40.65953409 ], [ 140.49692824600001, 40.659542458 ], [ 140.497081931999986, 40.659553172 ], [ 140.497267892999986, 40.659561197 ], [ 140.496929284, 40.659782833 ], [ 140.496905168000012, 40.659804467 ], [ 140.49690146, 40.659812652 ], [ 140.496893204, 40.65983172 ], [ 140.496884254, 40.659894827 ], [ 140.49729402, 40.660320655 ], [ 140.49733219399999, 40.660160909 ], [ 140.49736088099999, 40.66013564 ], [ 140.497532543, 40.660026554 ], [ 140.49757772699999, 40.659827048 ], [ 140.497565411000011, 40.659806838 ], [ 140.497562343, 40.659781973 ], [ 140.497564864999987, 40.659750729 ], [ 140.49756889299999, 40.659725884 ], [ 140.497582179, 40.659694131 ], [ 140.49760855400001, 40.659646476 ], [ 140.49762086699999, 40.659620214 ], [ 140.497629620999987, 40.659596193 ], [ 140.497637071000014, 40.659572709 ], [ 140.497641109999989, 40.659545522 ], [ 140.497641208, 40.65952598 ], [ 140.497640260999987, 40.659502561 ], [ 140.497635768, 40.659478862 ], [ 140.497654202, 40.659481708 ], [ 140.497684894, 40.659492964 ], [ 140.497971463999988, 40.659653294 ], [ 140.498069767, 40.659553612 ], [ 140.498148184, 40.659601067 ], [ 140.49812550199999, 40.659652904 ], [ 140.4982384, 40.659682492 ], [ 140.498362547, 40.659702161 ], [ 140.498431393, 40.65962779 ], [ 140.498482558, 40.659577235 ], [ 140.498543372, 40.659536199 ], [ 140.49867240099999, 40.659627174 ], [ 140.498681651, 40.659657641 ], [ 140.498708531, 40.659742791 ], [ 140.49874741, 40.659755683 ], [ 140.498798561, 40.659752868 ], [ 140.498949616, 40.659911272 ], [ 140.499036735, 40.660014103 ], [ 140.499120154, 40.660125803 ], [ 140.49961559499999, 40.659582252 ], [ 140.501384745, 40.658113229 ], [ 140.500414638, 40.657444789 ], [ 140.50177693099999, 40.65630673 ], [ 140.500782238, 40.655623813 ], [ 140.500848800999989, 40.655548165 ], [ 140.50101923299999, 40.655354646 ], [ 140.501107092000012, 40.65526002 ], [ 140.501245477, 40.655120977 ], [ 140.501389804000013, 40.654985491 ], [ 140.501941542, 40.654512131 ], [ 140.502232504, 40.65426329 ], [ 140.50225845, 40.654241588 ], [ 140.50430263199999, 40.655653268 ], [ 140.504642719, 40.655359827 ], [ 140.505231592, 40.654869689 ], [ 140.505736297999988, 40.654444252 ], [ 140.504780492, 40.653791155 ], [ 140.505682989, 40.652998563 ], [ 140.504383453, 40.652047809 ], [ 140.50488923099999, 40.651646577 ], [ 140.504828559, 40.651598213 ], [ 140.504496464999988, 40.651318638 ], [ 140.50417561099999, 40.651062033 ], [ 140.50400299899999, 40.650888291 ], [ 140.503845165, 40.650756235 ], [ 140.503554013000013, 40.650503405 ], [ 140.502835272999988, 40.651120465 ], [ 140.502245518, 40.651634193 ], [ 140.501832967000013, 40.651989381 ], [ 140.501721307, 40.652091549 ], [ 140.501205472, 40.652618192 ], [ 140.500903474000012, 40.653049165 ], [ 140.50076912, 40.653201071 ], [ 140.49949095299999, 40.654426235 ], [ 140.49924341799999, 40.654600885 ], [ 140.498948294, 40.654877868 ], [ 140.49888486, 40.654937593 ], [ 140.49939666, 40.654205746 ], [ 140.49728168499999, 40.653618243 ], [ 140.49596418499999, 40.653242362 ], [ 140.49574646, 40.653177306 ], [ 140.495562079, 40.653112887 ], [ 140.495382275, 40.653041303 ], [ 140.49520758, 40.652962745 ], [ 140.49503844099999, 40.652877421 ], [ 140.494875318999988, 40.652785568 ], [ 140.494718627, 40.65268742 ], [ 140.494568801000014, 40.65258324 ], [ 140.494430929, 40.652476915 ], [ 140.494162866000011, 40.652666922 ], [ 140.493931771, 40.652818347 ], [ 140.493807597999989, 40.652895245 ], [ 140.493750764999987, 40.652928139 ], [ 140.493550395999989, 40.653038937 ], [ 140.49282131699999, 40.653468199 ], [ 140.49240304, 40.653041626 ], [ 140.492923568, 40.652741098 ], [ 140.493122279, 40.652628567 ], [ 140.493328623999986, 40.652505089 ], [ 140.493376360000013, 40.652477464 ], [ 140.49348411599999, 40.652410731 ], [ 140.493697544000014, 40.652270882 ], [ 140.493983859999986, 40.652067952 ], [ 140.494213003, 40.651906659 ], [ 140.494295332, 40.651847254 ], [ 140.494386787, 40.65177451 ], [ 140.494477356, 40.65169455 ], [ 140.494592699, 40.651593372 ], [ 140.494705796, 40.651480227 ], [ 140.494810217, 40.651373171 ], [ 140.495004924999989, 40.651176419 ], [ 140.495082343, 40.651098824 ], [ 140.49514787199999, 40.651036225 ], [ 140.495316835000011, 40.650862948 ], [ 140.49554292799999, 40.650648454 ], [ 140.49572223199999, 40.650482987 ], [ 140.49582575, 40.65038561 ], [ 140.49590836499999, 40.6503112 ], [ 140.496012114, 40.650210176 ], [ 140.496122152999988, 40.650109242 ], [ 140.4962126, 40.650029216 ], [ 140.496252539000011, 40.64999466 ], [ 140.496488613, 40.649757732 ], [ 140.496674430000013, 40.649568119 ], [ 140.49676231399999, 40.649477765 ], [ 140.496859212, 40.649395894 ], [ 140.497158352000014, 40.649147297 ], [ 140.497593381, 40.64875822 ], [ 140.497751563, 40.648612764 ], [ 140.49809757700001, 40.6483054 ], [ 140.498264548, 40.648146828 ], [ 140.498433323, 40.647984389 ], [ 140.498905181, 40.647526572 ], [ 140.49950731199999, 40.646952077 ], [ 140.49941186699999, 40.646872098 ], [ 140.499299973, 40.646775796 ], [ 140.499205799, 40.646692362 ], [ 140.49911252699999, 40.646612847 ], [ 140.49904230199999, 40.646554393 ], [ 140.498712356999988, 40.646403342 ], [ 140.49842470199999, 40.646187128 ], [ 140.498262852000011, 40.646074938 ], [ 140.498095172, 40.645967847 ], [ 140.497921945, 40.64586599 ], [ 140.497743465000013, 40.645769575 ], [ 140.497559755, 40.645678611 ], [ 140.497380432, 40.645597206 ], [ 140.497345139, 40.645580685 ], [ 140.497184723, 40.645861559 ], [ 140.49703912699999, 40.646162461 ], [ 140.49671734899999, 40.646814645 ], [ 140.496540423999988, 40.647174733 ], [ 140.49643421, 40.647440012 ], [ 140.49627752399999, 40.647854285 ], [ 140.49622685, 40.647977971 ], [ 140.495793255, 40.649134346 ], [ 140.49576848699999, 40.649220363 ], [ 140.495716547, 40.6493671 ], [ 140.495655535999987, 40.649511802 ], [ 140.49558559799999, 40.649654128 ], [ 140.495506876, 40.64979378 ], [ 140.495419559999988, 40.649930426 ], [ 140.495323829, 40.650063778 ], [ 140.49521992199999, 40.650193513 ], [ 140.495108053, 40.650319361 ], [ 140.494988471, 40.650441025 ], [ 140.494861461999989, 40.650558236 ], [ 140.494727299, 40.650670734 ], [ 140.49406011100001, 40.651225469 ], [ 140.493899559999988, 40.65119896 ], [ 140.493663047000013, 40.651081781 ], [ 140.493552489, 40.651113886 ], [ 140.493200236, 40.651206333 ], [ 140.492870355, 40.651293981 ], [ 140.492684687, 40.651344498 ], [ 140.49248228499999, 40.651406943 ], [ 140.49218451199999, 40.651504951 ], [ 140.492031695, 40.651559436 ], [ 140.49190621599999, 40.6516095 ], [ 140.49178854199999, 40.651659225 ], [ 140.491696184, 40.651706955 ], [ 140.491571091999987, 40.65177359 ], [ 140.491252108, 40.651949165 ], [ 140.490673327, 40.652264103 ], [ 140.490519409, 40.652348303 ], [ 140.49005364300001, 40.652552618 ], [ 140.48999927700001, 40.652570199 ], [ 140.489725424999989, 40.652659715 ], [ 140.489508093000012, 40.652726794 ], [ 140.489340047000013, 40.652775467 ], [ 140.48922008400001, 40.652809873 ], [ 140.489037588, 40.652863005 ], [ 140.48893895099999, 40.652889189 ], [ 140.488836666999987, 40.65291176 ], [ 140.488754276, 40.652929076 ], [ 140.48865709899999, 40.652947428 ], [ 140.48856769299999, 40.652960626 ], [ 140.488436739, 40.652982074 ], [ 140.488367742, 40.652993306 ], [ 140.488280182000011, 40.653003942 ], [ 140.488152171, 40.653016438 ], [ 140.48805232, 40.653025866 ], [ 140.487912955000013, 40.653038869 ], [ 140.48782493600001, 40.653046711 ], [ 140.487497853, 40.653070319 ], [ 140.48706254199999, 40.653099635 ], [ 140.486981883, 40.653101915 ], [ 140.486907032, 40.653124656 ], [ 140.48688995399999, 40.653134151 ], [ 140.48687868, 40.653142043 ], [ 140.486846992000011, 40.653164283 ], [ 140.486800703, 40.653197286 ], [ 140.48674716299999, 40.653237743 ], [ 140.486745738, 40.653238819 ], [ 140.48669145299999, 40.653286028 ], [ 140.486625874, 40.653344911 ], [ 140.486568247, 40.653397964 ], [ 140.48651479599999, 40.653444005 ], [ 140.486462896, 40.653487168 ], [ 140.486376783, 40.653560759 ], [ 140.486352548000013, 40.653582301 ], [ 140.486303025000012, 40.65362331 ], [ 140.486263734, 40.653652191 ], [ 140.486218132, 40.65368943 ], [ 140.48615972499999, 40.653733204 ], [ 140.486112842000011, 40.653766745 ], [ 140.486052672999989, 40.653808263 ], [ 140.48597044499999, 40.653862142 ], [ 140.48592061299999, 40.653894234 ], [ 140.48586958199999, 40.653929474 ], [ 140.485845267, 40.65394354 ], [ 140.48578867399999, 40.653979484 ], [ 140.485724613, 40.654018918 ], [ 140.48567585699999, 40.654048762 ], [ 140.485614868999988, 40.654088385 ], [ 140.48552304899999, 40.654144937 ], [ 140.48545662, 40.654184904 ], [ 140.485408123000013, 40.654210245 ], [ 140.48534881099999, 40.654246 ], [ 140.48528724499999, 40.6542831 ], [ 140.485228638, 40.654319758 ], [ 140.485186537, 40.654342957 ], [ 140.485129129, 40.654376377 ], [ 140.485076233, 40.654406297 ], [ 140.48501457899999, 40.654437453 ], [ 140.484976878, 40.654456071 ], [ 140.484931955, 40.65447638 ], [ 140.484879572000011, 40.654498467 ], [ 140.484837985000013, 40.654513922 ], [ 140.48481110099999, 40.654521766 ], [ 140.48478730799999, 40.654526467 ], [ 140.484731205, 40.654536205 ], [ 140.484672147, 40.654545753 ], [ 140.48461782699999, 40.654553965 ], [ 140.484556524, 40.654563146 ], [ 140.484493566999987, 40.654572052 ], [ 140.484443977000012, 40.654580098 ], [ 140.484383974, 40.654589463 ], [ 140.484333795, 40.654597237 ], [ 140.484272147000013, 40.654604435 ], [ 140.48422197, 40.654611669 ], [ 140.48416907399999, 40.654618804 ], [ 140.484112861999989, 40.654626919 ], [ 140.484050494, 40.654636277 ], [ 140.48401345, 40.654642199 ], [ 140.48393902699999, 40.65465026 ], [ 140.48383192599999, 40.654665966 ], [ 140.483795719999989, 40.65466991 ], [ 140.483719519, 40.654678685 ], [ 140.483601189000012, 40.654693457 ], [ 140.483528178, 40.654702782 ], [ 140.483445587, 40.654712439 ], [ 140.483380858, 40.654720979 ], [ 140.483334684, 40.654731556 ], [ 140.483288848, 40.654745466 ], [ 140.48324286799999, 40.65476406 ], [ 140.48321076, 40.65477594 ], [ 140.483152397999987, 40.654810527 ], [ 140.48313721400001, 40.654819577 ], [ 140.48308195300001, 40.65484922 ], [ 140.483032288, 40.654871584 ], [ 140.48298680100001, 40.654886396 ], [ 140.482944178, 40.654896264 ], [ 140.482916835999987, 40.654901224 ], [ 140.48290583, 40.654902902 ], [ 140.482887963, 40.654904829 ], [ 140.48287790399999, 40.654906239 ], [ 140.482806323, 40.654913587 ], [ 140.482736146, 40.654923551 ], [ 140.482694363, 40.65493117 ], [ 140.482654591999989, 40.654938434 ], [ 140.482638726, 40.654942258 ], [ 140.482542466000012, 40.654965111 ], [ 140.482479821999988, 40.654981853 ], [ 140.482422028, 40.654998338 ], [ 140.482380221, 40.655010459 ], [ 140.48230028399999, 40.655032642 ], [ 140.482249001000014, 40.655047616 ], [ 140.48187772, 40.655176129 ], [ 140.48175000399999, 40.655232749 ], [ 140.481721615999987, 40.655242956 ], [ 140.48286920699999, 40.656308664 ], [ 140.484392719, 40.657738846 ], [ 140.483337627, 40.658394933 ], [ 140.48346580099999, 40.658486625 ], [ 140.483287397999987, 40.658535816 ], [ 140.483202118, 40.658549895 ], [ 140.483134581, 40.658556436 ], [ 140.483032758, 40.658561179 ], [ 140.48291878399999, 40.658562518 ], [ 140.482821429000012, 40.658558854 ], [ 140.48270861200001, 40.658549235 ], [ 140.482539521, 40.658529692 ], [ 140.482641129, 40.658601806 ], [ 140.482661932000013, 40.658624267 ], [ 140.48272280399999, 40.658632504 ], [ 140.482796817, 40.658644859 ], [ 140.482836502999987, 40.658654256 ], [ 140.482902399000011, 40.658672108 ], [ 140.482957430999988, 40.658686775 ], [ 140.483020492, 40.658703987 ], [ 140.483028993, 40.658706625 ], [ 140.48306559400001, 40.658717993 ], [ 140.483093698, 40.658726004 ], [ 140.483124293, 40.658732401 ], [ 140.483137529, 40.658734242 ], [ 140.483156788, 40.658737453 ], [ 140.48317629499999, 40.658738683 ], [ 140.483196983999989, 40.658739916 ], [ 140.483234247000013, 40.658737868 ], [ 140.48329504099999, 40.658736251 ], [ 140.483352405, 40.658734714 ], [ 140.48342893200001, 40.658732153 ], [ 140.483506388, 40.658733109 ], [ 140.483559363000012, 40.65873408 ], [ 140.483600633, 40.658734655 ], [ 140.483649206, 40.658740746 ], [ 140.483691741, 40.658747989 ], [ 140.483719852, 40.658754649 ], [ 140.483736499, 40.658760013 ], [ 140.483753595, 40.658769971 ], [ 140.483770689000011, 40.65878011 ], [ 140.483780700000011, 40.658788066 ], [ 140.483792593, 40.658797828 ], [ 140.483834819, 40.658841725 ], [ 140.483861173, 40.658867923 ], [ 140.483885405, 40.658892582 ], [ 140.483900952999988, 40.658904517 ], [ 140.483911086, 40.658911663 ], [ 140.483920167, 40.658916464 ], [ 140.48392948899999, 40.658920454 ], [ 140.483940593, 40.65892283 ], [ 140.483949217, 40.658924477 ], [ 140.483960923000012, 40.658924872 ], [ 140.483969207, 40.658923727 ], [ 140.48398046, 40.658920338 ], [ 140.483991357, 40.658917039 ], [ 140.48400048, 40.658913735 ], [ 140.48400831399999, 40.658908355 ], [ 140.484024944, 40.658894175 ], [ 140.48404741600001, 40.658871098 ], [ 140.484074641, 40.658843621 ], [ 140.484096876, 40.658820543 ], [ 140.484122684, 40.658792702 ], [ 140.484153442, 40.658768029 ], [ 140.484166253000012, 40.658760502 ], [ 140.48417952599999, 40.658755229 ], [ 140.48419539299999, 40.658751314 ], [ 140.48420509499999, 40.658750533 ], [ 140.484213133999987, 40.658750918 ], [ 140.484221996, 40.658752385 ], [ 140.48423392699999, 40.658755033 ], [ 140.484241126, 40.658757757 ], [ 140.484249379, 40.658762735 ], [ 140.48426080199999, 40.658771866 ], [ 140.48427504599999, 40.658784427 ], [ 140.484293401, 40.658802315 ], [ 140.484312813, 40.658821736 ], [ 140.48436092599999, 40.658870694 ], [ 140.484464889, 40.658936302 ], [ 140.48447278, 40.65894254 ], [ 140.484475964000012, 40.658944171 ], [ 140.48447986299999, 40.658944993 ], [ 140.484484947, 40.658945189 ], [ 140.484490507, 40.658944846 ], [ 140.484495718, 40.65894342 ], [ 140.484500102999988, 40.658941632 ], [ 140.484525638, 40.658920725 ], [ 140.484548101, 40.658899269 ], [ 140.48459405599999, 40.658863113 ], [ 140.48462954199999, 40.658838904 ], [ 140.484660487000014, 40.658823687 ], [ 140.48471547599999, 40.658801338 ], [ 140.48477792700001, 40.65877694 ], [ 140.48482355199999, 40.658758615 ], [ 140.48485509299999, 40.658742679 ], [ 140.484902549999987, 40.658713193 ], [ 140.484925702999988, 40.65869543 ], [ 140.48498803699999, 40.658648066 ], [ 140.48501155, 40.658629315 ], [ 140.48503877499999, 40.658601658 ], [ 140.485073516999989, 40.658561416 ], [ 140.48509839499999, 40.65853033 ], [ 140.485145147999987, 40.658477065 ], [ 140.485158479, 40.658460624 ], [ 140.485185126, 40.658430444 ], [ 140.485221009000014, 40.65839804 ], [ 140.48526044, 40.658365647 ], [ 140.485342817, 40.658306905 ], [ 140.485392064, 40.658274362 ], [ 140.485502746, 40.65820787 ], [ 140.485902376000013, 40.657939702 ], [ 140.485999740000011, 40.657875691 ], [ 140.486092101, 40.657820807 ], [ 140.486327885, 40.657697637 ], [ 140.486529373, 40.657565313 ], [ 140.486712495, 40.657440048 ], [ 140.486926114999989, 40.65729398 ], [ 140.48697651099999, 40.657256306 ], [ 140.487106985, 40.657169248 ], [ 140.48713306499999, 40.657157078 ], [ 140.487164874, 40.657134568 ], [ 140.487341321, 40.656995953 ], [ 140.487379206000014, 40.656964996 ], [ 140.487432402, 40.656923007 ], [ 140.48746896899999, 40.656895197 ], [ 140.487534133, 40.656848471 ], [ 140.48757507900001, 40.656820044 ], [ 140.48762232199999, 40.656785693 ], [ 140.487669774000011, 40.656756925 ], [ 140.48770771400001, 40.656737856 ], [ 140.487728559, 40.656731794 ], [ 140.487741097, 40.656731201 ], [ 140.48778130299999, 40.656731321 ], [ 140.487803879000012, 40.65673355 ], [ 140.487825498, 40.656737758 ], [ 140.48785242400001, 40.656744773 ], [ 140.487888786000013, 40.65675659 ], [ 140.487923507, 40.65676561 ], [ 140.487947491999989, 40.656769644 ], [ 140.48796984099999, 40.656769891 ], [ 140.487998941, 40.656768267 ], [ 140.488024392, 40.656763299 ], [ 140.488045484, 40.656755077 ], [ 140.48807287599999, 40.656740479 ], [ 140.488102566, 40.656716251 ], [ 140.488122632, 40.656700461 ], [ 140.488173808999989, 40.656660176 ], [ 140.488220592, 40.656623391 ], [ 140.488292672, 40.656565427 ], [ 140.488333516000012, 40.656533758 ], [ 140.488352064, 40.65651418 ], [ 140.488392481, 40.656473503 ], [ 140.48842732599999, 40.656444644 ], [ 140.488864398, 40.656734376 ], [ 140.489188082, 40.656418571 ], [ 140.489476177, 40.656565805 ], [ 140.489427701000011, 40.656665195 ], [ 140.48963127499999, 40.656737345 ], [ 140.489641505, 40.656679683 ], [ 140.48966824499999, 40.656469741 ], [ 140.489679091999989, 40.656409379 ], [ 140.489686331, 40.656379104 ], [ 140.48970053799999, 40.656341321 ], [ 140.489759475999989, 40.65622865 ], [ 140.489769426, 40.656202472 ], [ 140.489802927999989, 40.656126561 ], [ 140.48983049, 40.656055765 ], [ 140.490487409, 40.656304924 ], [ 140.49065456, 40.656305519 ], [ 140.49090897, 40.656336597 ], [ 140.490891452999989, 40.65641116 ], [ 140.491179386999988, 40.656475011 ], [ 140.49110588799999, 40.656648898 ], [ 140.491268716, 40.65668799 ], [ 140.490998065000014, 40.657073377 ], [ 140.491065013999986, 40.657107249 ], [ 140.491214473000014, 40.657242566 ], [ 140.491332570999987, 40.657465618 ], [ 140.49142643799999, 40.657610083 ], [ 140.491563627, 40.657749353 ], [ 140.49168129, 40.657849597 ], [ 140.491424075, 40.657956629 ], [ 140.491219097, 40.65805617 ], [ 140.491196659, 40.658119326 ], [ 140.491043727, 40.658123916 ], [ 140.491043921999989, 40.658282216 ], [ 140.49093826, 40.658281858 ], [ 140.490907738, 40.658450145 ], [ 140.490892575, 40.658533766 ], [ 140.49116624199999, 40.658533262 ], [ 140.490905399000013, 40.658911653 ], [ 140.490771575999986, 40.658869982 ], [ 140.490737424, 40.658911308 ], [ 140.49081926299999, 40.659049344 ], [ 140.490914971, 40.659123144 ], [ 140.490819402999989, 40.65920659 ], [ 140.490634207999989, 40.65936797 ], [ 140.490534524, 40.659458185 ], [ 140.490490943999987, 40.659493089 ], [ 140.4904425, 40.659530771 ], [ 140.49040995499999, 40.659558233 ], [ 140.490370039, 40.659593508 ], [ 140.490342889, 40.659618284 ], [ 140.49031573900001, 40.65964306 ], [ 140.490295941999989, 40.65966376 ], [ 140.490262472000012, 40.65969883 ], [ 140.490255792999989, 40.659815853 ], [ 140.490205129, 40.659845818 ], [ 140.490178011000012, 40.659852988 ], [ 140.490081374999988, 40.659853817 ], [ 140.490069613, 40.659864373 ], [ 140.490073744999989, 40.659914018 ], [ 140.490073622000011, 40.659938001 ], [ 140.490069146, 40.65995527 ], [ 140.489963655, 40.660123586 ], [ 140.489959086999988, 40.660144899 ], [ 140.48996442, 40.660188774 ], [ 140.489992140999988, 40.660248657 ], [ 140.490113353, 40.660443575 ], [ 140.490132538000012, 40.660486834 ], [ 140.490337753, 40.660469819 ], [ 140.49035228599999, 40.660541433 ], [ 140.49038757400001, 40.66069401 ], [ 140.490403413, 40.66074179 ], [ 140.49041329, 40.660764424 ], [ 140.490452960999988, 40.660858025 ], [ 140.490507427000011, 40.660983821 ], [ 140.490554062, 40.66112838 ], [ 140.490745507000014, 40.661186218 ], [ 140.490980517999986, 40.660907412 ], [ 140.491089571, 40.660789305 ], [ 140.491204028, 40.660652482 ], [ 140.491317473, 40.660510162 ] ] ] } },
{ "type": "Feature", "properties": { "A29_001": "02361", "A29_002": "青森県", "A29_003": "藤崎町", "A29_004": 8, "A29_005": "近隣商業地域", "A29_006": 80, "A29_007": 200, "A29_008": null }, "geometry": { "type": "Polygon", "coordinates": [ [ [ 140.495858806, 40.652577992 ], [ 140.49561886399999, 40.652473243 ], [ 140.495482632, 40.652404948 ], [ 140.49534932899999, 40.652330231 ], [ 140.49522135, 40.652250333 ], [ 140.49509902599999, 40.652165444 ], [ 140.494974275, 40.652069299 ], [ 140.495004884999986, 40.652042262 ], [ 140.49513419499999, 40.65192884 ], [ 140.49526339499999, 40.651799594 ], [ 140.495368815, 40.651691496 ], [ 140.495561204000012, 40.651497078 ], [ 140.495632906, 40.651425221 ], [ 140.49570082299999, 40.651360332 ], [ 140.495869072, 40.651187799 ], [ 140.49608398399999, 40.650983899 ], [ 140.49626237199999, 40.650819293 ], [ 140.496363265000014, 40.650724376 ], [ 140.496449668999986, 40.650646554 ], [ 140.496555355, 40.650543643 ], [ 140.496654928, 40.650452315 ], [ 140.496738794, 40.650378106 ], [ 140.496792926000012, 40.65033127 ], [ 140.497046017, 40.650077261 ], [ 140.49723425799999, 40.649885187 ], [ 140.497302934, 40.649814563 ], [ 140.497375454, 40.649753281 ], [ 140.497681231, 40.649499172 ], [ 140.49812759, 40.649099967 ], [ 140.498285035, 40.648955192 ], [ 140.498634622999987, 40.648644649 ], [ 140.49881016, 40.648477933 ], [ 140.499320318, 40.647986957 ], [ 140.499955156999988, 40.647369208 ], [ 140.500210382, 40.64711664 ], [ 140.499750111999987, 40.646720413 ], [ 140.49950731199999, 40.646952077 ], [ 140.498905181, 40.647526572 ], [ 140.498433323, 40.647984389 ], [ 140.498264548, 40.648146828 ], [ 140.49809757700001, 40.6483054 ], [ 140.497751563, 40.648612764 ], [ 140.497593381, 40.64875822 ], [ 140.497158352000014, 40.649147297 ], [ 140.496859212, 40.649395894 ], [ 140.49676231399999, 40.649477765 ], [ 140.496674430000013, 40.649568119 ], [ 140.496488613, 40.649757732 ], [ 140.496252539000011, 40.64999466 ], [ 140.4962126, 40.650029216 ], [ 140.496122152999988, 40.650109242 ], [ 140.496012114, 40.650210176 ], [ 140.49590836499999, 40.6503112 ], [ 140.49582575, 40.65038561 ], [ 140.49572223199999, 40.650482987 ], [ 140.49554292799999, 40.650648454 ], [ 140.495316835000011, 40.650862948 ], [ 140.49514787199999, 40.651036225 ], [ 140.495082343, 40.651098824 ], [ 140.495004924999989, 40.651176419 ], [ 140.494810217, 40.651373171 ], [ 140.494705796, 40.651480227 ], [ 140.494592699, 40.651593372 ], [ 140.494477356, 40.65169455 ], [ 140.494386787, 40.65177451 ], [ 140.494295332, 40.651847254 ], [ 140.494213003, 40.651906659 ], [ 140.493983859999986, 40.652067952 ], [ 140.493697544000014, 40.652270882 ], [ 140.49348411599999, 40.652410731 ], [ 140.493376360000013, 40.652477464 ], [ 140.493328623999986, 40.652505089 ], [ 140.493122279, 40.652628567 ], [ 140.492923568, 40.652741098 ], [ 140.49240304, 40.653041626 ], [ 140.49282131699999, 40.653468199 ], [ 140.493550395999989, 40.653038937 ], [ 140.493750764999987, 40.652928139 ], [ 140.493807597999989, 40.652895245 ], [ 140.493931771, 40.652818347 ], [ 140.494162866000011, 40.652666922 ], [ 140.494430929, 40.652476915 ], [ 140.494568801000014, 40.65258324 ], [ 140.494718627, 40.65268742 ], [ 140.494875318999988, 40.652785568 ], [ 140.49503844099999, 40.652877421 ], [ 140.49520758, 40.652962745 ], [ 140.495382275, 40.653041303 ], [ 140.495562079, 40.653112887 ], [ 140.49574646, 40.653177306 ], [ 140.495931192, 40.653233242 ], [ 140.49596418499999, 40.653242362 ], [ 140.49728168499999, 40.653618243 ], [ 140.49939666, 40.654205746 ], [ 140.499425495, 40.654171633 ], [ 140.499462255, 40.654132239 ], [ 140.499641244, 40.653963289 ], [ 140.498570532, 40.653675779 ], [ 140.498785622000014, 40.65342697 ], [ 140.496231701, 40.652698375 ], [ 140.496061145, 40.652647794 ], [ 140.495858806, 40.652577992 ] ] ] } },
{ "type": "Feature", "properties": { "A29_001": "02361", "A29_002": "青森県", "A29_003": "藤崎町", "A29_004": 5, "A29_005": "第一種住居地域", "A29_006": 60, "A29_007": 200, "A29_008": null }, "geometry": { "type": "Polygon", "coordinates": [ [ [ 140.50020441699999, 40.647580841 ], [ 140.499955156999988, 40.647369208 ], [ 140.499320318, 40.647986957 ], [ 140.49881016, 40.648477933 ], [ 140.498634622999987, 40.648644649 ], [ 140.498285035, 40.648955192 ], [ 140.49812759, 40.649099967 ], [ 140.497681231, 40.649499172 ], [ 140.497375454, 40.649753281 ], [ 140.497302934, 40.649814563 ], [ 140.49723425799999, 40.649885187 ], [ 140.497046017, 40.650077261 ], [ 140.496792926000012, 40.65033127 ], [ 140.496738794, 40.650378106 ], [ 140.496654928, 40.650452315 ], [ 140.496555355, 40.650543643 ], [ 140.496449668999986, 40.650646554 ], [ 140.496363265000014, 40.650724376 ], [ 140.49626237199999, 40.650819293 ], [ 140.49608398399999, 40.650983899 ], [ 140.495869072, 40.651187799 ], [ 140.49570082299999, 40.651360332 ], [ 140.495632906, 40.651425221 ], [ 140.495561204000012, 40.651497078 ], [ 140.495368815, 40.651691496 ], [ 140.49526339499999, 40.651799594 ], [ 140.49513419499999, 40.65192884 ], [ 140.495004884999986, 40.652042262 ], [ 140.494974275, 40.652069299 ], [ 140.49509902599999, 40.652165444 ], [ 140.49522135, 40.652250333 ], [ 140.49534932899999, 40.652330231 ], [ 140.495482632, 40.652404948 ], [ 140.49561886399999, 40.652473243 ], [ 140.495858806, 40.652577992 ], [ 140.496061145, 40.652647794 ], [ 140.496231701, 40.652698375 ], [ 140.498785622000014, 40.65342697 ], [ 140.499002839000013, 40.65317569 ], [ 140.499884371, 40.652179086 ], [ 140.50034814, 40.651654389 ], [ 140.500416660000013, 40.651572117 ], [ 140.499792429, 40.651214847 ], [ 140.499806591, 40.651189617 ], [ 140.500076213999989, 40.650791291 ], [ 140.50003656199999, 40.650751802 ], [ 140.50000072899999, 40.650719511 ], [ 140.500698703000012, 40.64992435 ], [ 140.501467580999986, 40.649050576 ], [ 140.50164511, 40.648855123 ], [ 140.50066560799999, 40.647990839 ], [ 140.50020441699999, 40.647580841 ] ] ] } },
{ "type": "Feature", "properties": { "A29_001": "02361", "A29_002": "青森県", "A29_003": "藤崎町", "A29_004": 6, "A29_005": "第二種住居地域", "A29_006": 60, "A29_007": 200, "A29_008": null }, "geometry": { "type": "Polygon", "coordinates": [ [ [ 140.500599026, 40.646994728 ], [ 140.500127985, 40.646545993 ], [ 140.49942541199999, 40.645944321 ], [ 140.499258373, 40.645808053 ], [ 140.499080034, 40.645673635 ], [ 140.49889485700001, 40.645544663 ], [ 140.498703127, 40.645421382 ], [ 140.49850516, 40.645303964 ], [ 140.498301239999989, 40.645192598 ], [ 140.49809170899999, 40.645087456 ], [ 140.49786285, 40.64498405 ], [ 140.497778184, 40.645094237 ], [ 140.49761651899999, 40.645273682 ], [ 140.497512268, 40.645250621 ], [ 140.497345139, 40.645580685 ], [ 140.497380432, 40.645597206 ], [ 140.497559755, 40.645678611 ], [ 140.497743465000013, 40.645769575 ], [ 140.497921945, 40.64586599 ], [ 140.498095172, 40.645967847 ], [ 140.498262852000011, 40.646074938 ], [ 140.49842470199999, 40.646187128 ], [ 140.498712356999988, 40.646403342 ], [ 140.49904230199999, 40.646554393 ], [ 140.49911252699999, 40.646612847 ], [ 140.499205799, 40.646692362 ], [ 140.499299973, 40.646775796 ], [ 140.49941186699999, 40.646872098 ], [ 140.49950731199999, 40.646952077 ], [ 140.499750111999987, 40.646720413 ], [ 140.500210382, 40.64711664 ], [ 140.499955156999988, 40.647369208 ], [ 140.50020441699999, 40.647580841 ], [ 140.50066560799999, 40.647990839 ], [ 140.50164511, 40.648855123 ], [ 140.501886998, 40.648583149 ], [ 140.50147153, 40.648225901 ], [ 140.501603210000013, 40.648157743 ], [ 140.501817195, 40.648049654 ], [ 140.5017542, 40.647993969 ], [ 140.501060142999989, 40.647378696 ], [ 140.500599026, 40.646994728 ] ] ] } },
{ "type": "Feature", "properties": { "A29_001": "02361", "A29_002": "青森県", "A29_003": "藤崎町", "A29_004": 10, "A29_005": "準工業地域", "A29_006": 60, "A29_007": 200, "A29_008": null }, "geometry": { "type": "Polygon", "coordinates": [ [ [ 140.502835272999988, 40.651120465 ], [ 140.503554013000013, 40.650503405 ], [ 140.503845165, 40.650756235 ], [ 140.50400299899999, 40.650888291 ], [ 140.50417561099999, 40.651062033 ], [ 140.504496464999988, 40.651318638 ], [ 140.504828559, 40.651598213 ], [ 140.50488923099999, 40.651646577 ], [ 140.504383453, 40.652047809 ], [ 140.505682989, 40.652998563 ], [ 140.504780492, 40.653791155 ], [ 140.505736297999988, 40.654444252 ], [ 140.506100315, 40.654692978 ], [ 140.50671228600001, 40.654181913 ], [ 140.50688399, 40.654210498 ], [ 140.50656864699999, 40.653472297 ], [ 140.506429231999988, 40.653147675 ], [ 140.506386521, 40.653048316 ], [ 140.50633792, 40.65294441 ], [ 140.506275587, 40.652821796 ], [ 140.506213841, 40.652704948 ], [ 140.506161572, 40.65261364 ], [ 140.506105768999987, 40.652519612 ], [ 140.506014884, 40.652384182 ], [ 140.50591942599999, 40.652250352 ], [ 140.50586934099999, 40.652186591 ], [ 140.505680944, 40.651960355 ], [ 140.505545289999986, 40.651810893 ], [ 140.505366495, 40.651708058 ], [ 140.505197611, 40.651566498 ], [ 140.505045077, 40.651444897 ], [ 140.504713148, 40.651165449 ], [ 140.504402199999987, 40.650916771 ], [ 140.504313583999988, 40.650825809 ], [ 140.504249386, 40.65076389 ], [ 140.50423694599999, 40.650749562 ], [ 140.50418395299999, 40.650705254 ], [ 140.504129771, 40.650660042 ], [ 140.504066146000014, 40.650606671 ], [ 140.503990793000014, 40.650540676 ], [ 140.503973120000012, 40.650525306 ], [ 140.503913066, 40.650471981 ], [ 140.503835329999987, 40.650405087 ], [ 140.503790584, 40.650367098 ], [ 140.50369472599999, 40.650315976 ], [ 140.503461402999989, 40.650088654 ], [ 140.503176474000014, 40.649812128 ], [ 140.503024676, 40.649655808 ], [ 140.5028905, 40.649520261 ], [ 140.502751456, 40.649408107 ], [ 140.502585285, 40.649279682 ], [ 140.502517014, 40.649207383 ], [ 140.50243982500001, 40.649130881 ], [ 140.502669983, 40.648992504 ], [ 140.50295694799999, 40.648798145 ], [ 140.502403963, 40.648337072 ], [ 140.502262488000014, 40.648205538 ], [ 140.50217030499999, 40.648119834 ], [ 140.502123187, 40.648079144 ], [ 140.502020912, 40.647994734 ], [ 140.501965313, 40.647949832 ], [ 140.501926262000012, 40.647994462 ], [ 140.501923634, 40.647997463 ], [ 140.501817195, 40.648049654 ], [ 140.501603210000013, 40.648157743 ], [ 140.50147153, 40.648225901 ], [ 140.501886998, 40.648583149 ], [ 140.50164511, 40.648855123 ], [ 140.501467580999986, 40.649050576 ], [ 140.500698703000012, 40.64992435 ], [ 140.50000072899999, 40.650719511 ], [ 140.50003656199999, 40.650751802 ], [ 140.500076213999989, 40.650791291 ], [ 140.499806591, 40.651189617 ], [ 140.499792429, 40.651214847 ], [ 140.500416660000013, 40.651572117 ], [ 140.50034814, 40.651654389 ], [ 140.499884371, 40.652179086 ], [ 140.499002839000013, 40.65317569 ], [ 140.498785622000014, 40.65342697 ], [ 140.498570532, 40.653675779 ], [ 140.499641244, 40.653963289 ], [ 140.499462255, 40.654132239 ], [ 140.499425495, 40.654171633 ], [ 140.49939666, 40.654205746 ], [ 140.49888486, 40.654937593 ], [ 140.498948294, 40.654877868 ], [ 140.49924341799999, 40.654600885 ], [ 140.49949095299999, 40.654426235 ], [ 140.50076912, 40.653201071 ], [ 140.500903474000012, 40.653049165 ], [ 140.501205472, 40.652618192 ], [ 140.501721307, 40.652091549 ], [ 140.501832967000013, 40.651989381 ], [ 140.502245518, 40.651634193 ], [ 140.502835272999988, 40.651120465 ] ] ] } },
{ "type": "Feature", "properties": { "A29_001": "02361", "A29_002": "青森県", "A29_003": "藤崎町", "A29_004": 5, "A29_005": "第一種住居地域", "A29_006": 60, "A29_007": 200, "A29_008": null }, "geometry": { "type": "Polygon", "coordinates": [ [ [ 140.504142230000014, 40.648000799 ], [ 140.504304267, 40.647890306 ], [ 140.50444486399999, 40.647797142 ], [ 140.504470368999989, 40.647727399 ], [ 140.504442489000013, 40.647678966 ], [ 140.504365232999987, 40.647567881 ], [ 140.50429175799999, 40.647481394 ], [ 140.504234314, 40.647429265 ], [ 140.504178263999989, 40.647382094 ], [ 140.504123133, 40.647340328 ], [ 140.50405714199999, 40.64729493 ], [ 140.504000795, 40.647260096 ], [ 140.503923230999987, 40.647211782 ], [ 140.503844128999987, 40.647163734 ], [ 140.503790479, 40.647133591 ], [ 140.503703726999987, 40.647078226 ], [ 140.50359824, 40.647009839 ], [ 140.503502692000012, 40.646947235 ], [ 140.50388311, 40.646691206 ], [ 140.503691661, 40.646522805 ], [ 140.503940254000014, 40.646348057 ], [ 140.50443944, 40.646014273 ], [ 140.50450021099999, 40.646019625 ], [ 140.504621278, 40.645937122 ], [ 140.50468658, 40.645884163 ], [ 140.50480168499999, 40.645814252 ], [ 140.505130901, 40.64560277 ], [ 140.505438615, 40.645430836 ], [ 140.505599706999988, 40.6454102 ], [ 140.505744018, 40.645390031 ], [ 140.50574231600001, 40.645262005 ], [ 140.50567870899999, 40.645273217 ], [ 140.505561975, 40.645292384 ], [ 140.505472313000013, 40.645300505 ], [ 140.50531881399999, 40.645306193 ], [ 140.505144476, 40.645318037 ], [ 140.50500406399999, 40.645331417 ], [ 140.504772344, 40.645350752 ], [ 140.50457101399999, 40.64538161 ], [ 140.504042629, 40.645467788 ], [ 140.50363996499999, 40.645548991 ], [ 140.50342787400001, 40.645591795 ], [ 140.50320609100001, 40.645657897 ], [ 140.50270779600001, 40.645803343 ], [ 140.5026441, 40.645638727 ], [ 140.502487644000013, 40.645644494 ], [ 140.50242352399999, 40.645649353 ], [ 140.502396303000012, 40.645654589 ], [ 140.502357469, 40.645665285 ], [ 140.502329457, 40.645677507 ], [ 140.502275172, 40.64564212 ], [ 140.50155731699999, 40.645173266 ], [ 140.50125547499999, 40.645456243 ], [ 140.501093895999986, 40.645636801 ], [ 140.500916982, 40.645785883 ], [ 140.500724983999987, 40.645948611 ], [ 140.500640688, 40.646042301 ], [ 140.500516545000011, 40.646207385 ], [ 140.50050582599999, 40.646222935 ], [ 140.50050197600001, 40.646236388 ], [ 140.50029049599999, 40.646117637 ], [ 140.500219797999989, 40.646066062 ], [ 140.500084114, 40.645989074 ], [ 140.499970165, 40.64612036 ], [ 140.499763253, 40.646064952 ], [ 140.499840605, 40.64587032 ], [ 140.499389103, 40.645553145 ], [ 140.499240163, 40.645687653 ], [ 140.499213316, 40.645689106 ], [ 140.49908998, 40.645620933 ], [ 140.49909464800001, 40.645586003 ], [ 140.49911118899999, 40.645564797 ], [ 140.499104778, 40.645546406 ], [ 140.499070096, 40.645506769 ], [ 140.499067233, 40.645488208 ], [ 140.499425736, 40.645182948 ], [ 140.49932257, 40.64509394 ], [ 140.499410038, 40.645061329 ], [ 140.499515241000012, 40.64502868 ], [ 140.499487726000012, 40.644903488 ], [ 140.49972488, 40.644837627 ], [ 140.499672471, 40.644741804 ], [ 140.49965621199999, 40.644704265 ], [ 140.499715384000012, 40.644686289 ], [ 140.499855972, 40.644637521 ], [ 140.499930952999989, 40.644609639 ], [ 140.49999767599999, 40.64457822 ], [ 140.500027788000011, 40.644562096 ], [ 140.50010416, 40.644516205 ], [ 140.50014897299999, 40.644482588 ], [ 140.50021925199999, 40.644435032 ], [ 140.50029360799999, 40.644395025 ], [ 140.500288479, 40.644361291 ], [ 140.500250649, 40.644364956 ], [ 140.49999163199999, 40.644400602 ], [ 140.49993249100001, 40.644407916 ], [ 140.499868612, 40.644407137 ], [ 140.499784594, 40.644400086 ], [ 140.499749079999987, 40.644394742 ], [ 140.499731287, 40.644384865 ], [ 140.499730097, 40.644379467 ], [ 140.499678049000011, 40.644386782 ], [ 140.49959880899999, 40.644407889 ], [ 140.499562163, 40.644404127 ], [ 140.499512514, 40.644414133 ], [ 140.499409558999986, 40.644406216 ], [ 140.49937286299999, 40.64440539 ], [ 140.499321990999988, 40.644404576 ], [ 140.499204514000013, 40.644402048 ], [ 140.499201035999988, 40.644430875 ], [ 140.499199495999989, 40.644478738 ], [ 140.49920255399999, 40.644552957 ], [ 140.499207117999987, 40.644633485 ], [ 140.49922215699999, 40.644785191 ], [ 140.49916210399999, 40.644799571 ], [ 140.49886967899999, 40.644722623 ], [ 140.49878616, 40.644835822 ], [ 140.498520301000013, 40.64472597 ], [ 140.498298874999989, 40.645010884 ], [ 140.497957982, 40.64486387 ], [ 140.49786285, 40.64498405 ], [ 140.49809170899999, 40.645087456 ], [ 140.498301239999989, 40.645192598 ], [ 140.49850516, 40.645303964 ], [ 140.498703127, 40.645421382 ], [ 140.49889485700001, 40.645544663 ], [ 140.499080034, 40.645673635 ], [ 140.499258373, 40.645808053 ], [ 140.49942541199999, 40.645944321 ], [ 140.500127985, 40.646545993 ], [ 140.500599026, 40.646994728 ], [ 140.501060142999989, 40.647378696 ], [ 140.5017542, 40.647993969 ], [ 140.501817195, 40.648049654 ], [ 140.501923634, 40.647997463 ], [ 140.501926262000012, 40.647994462 ], [ 140.501965313, 40.647949832 ], [ 140.502020912, 40.647994734 ], [ 140.502123187, 40.648079144 ], [ 140.50217030499999, 40.648119834 ], [ 140.502262488000014, 40.648205538 ], [ 140.502403963, 40.648337072 ], [ 140.50295694799999, 40.648798145 ], [ 140.503427585, 40.648482233 ], [ 140.503635503, 40.648337829 ], [ 140.503788508000014, 40.64823692 ], [ 140.504142230000014, 40.648000799 ] ] ] } }
]
}
