{
"type": "FeatureCollection",
"name": "A29-19_12421",
"features": [
{ "type": "Feature", "properties": { "A29_001": "12421", "A29_002": "千葉県", "A29_003": "一宮町", "A29_004": 3, "A29_005": "第一種中高層住居専用地域", "A29_006": 60, "A29_007": 200, "A29_008": null }, "geometry": { "type": "Polygon", "coordinates": [ [ [ 140.362858053999986, 35.371008575 ], [ 140.36295632, 35.370565164 ], [ 140.36301652899999, 35.370232786 ], [ 140.363165508, 35.369762701 ], [ 140.363246002000011, 35.369551583 ], [ 140.363399629000014, 35.369196441 ], [ 140.363484207999988, 35.369014045 ], [ 140.363678789, 35.368661916 ], [ 140.363798804999988, 35.368235069 ], [ 140.36382023199999, 35.367934795 ], [ 140.363902814, 35.367447437 ], [ 140.363984030000012, 35.367049501 ], [ 140.364158694, 35.36663359 ], [ 140.36442398599999, 35.36606719 ], [ 140.364679497999987, 35.365496043 ], [ 140.364952308, 35.364888095 ], [ 140.365201417, 35.3643385 ], [ 140.365447898000014, 35.36377301 ], [ 140.365464433, 35.363733201 ], [ 140.36538796100001, 35.363702365 ], [ 140.365312472, 35.363686333 ], [ 140.365209861000011, 35.363685806 ], [ 140.365115519999989, 35.363702752 ], [ 140.365019041000011, 35.363730842 ], [ 140.364924948, 35.363767508 ], [ 140.36485528599999, 35.36380025 ], [ 140.364610559999988, 35.363953964 ], [ 140.364517662, 35.363995394 ], [ 140.364451038, 35.364011905 ], [ 140.364386427, 35.364015766 ], [ 140.364319130000013, 35.364009623 ], [ 140.364239563000012, 35.363997093 ], [ 140.364184443, 35.363983026 ], [ 140.364116145999986, 35.363957568 ], [ 140.363891798, 35.363844074 ], [ 140.363819078, 35.36381005 ], [ 140.363690463000012, 35.363776986 ], [ 140.363620481, 35.363760837 ], [ 140.36319834599999, 35.363721905 ], [ 140.363111078, 35.363733736 ], [ 140.363053543, 35.36375116 ], [ 140.36299956799999, 35.363778585 ], [ 140.36294387800001, 35.363811026 ], [ 140.362805787000013, 35.363931834 ], [ 140.362751076, 35.363955377 ], [ 140.362735235, 35.363962194 ], [ 140.362706099, 35.363914384 ], [ 140.362612305999988, 35.363795694 ], [ 140.36221763899999, 35.363569667 ], [ 140.362090083, 35.363495056 ], [ 140.361974472000014, 35.363409472 ], [ 140.361775139, 35.363176861 ], [ 140.36169808299999, 35.363104472 ], [ 140.361592694, 35.363029056 ], [ 140.361538610999986, 35.362990361 ], [ 140.361427, 35.362933306 ], [ 140.361393069, 35.36291498 ], [ 140.361332675999989, 35.362895925 ], [ 140.361246091, 35.362878416 ], [ 140.361066349, 35.362862685 ], [ 140.360967346, 35.362860733 ], [ 140.360940878, 35.36286708 ], [ 140.360881761, 35.362907613 ], [ 140.360610847, 35.363109134 ], [ 140.36054282399999, 35.363170247 ], [ 140.36038943299999, 35.36331163 ], [ 140.360143642, 35.363571472 ], [ 140.35992797899999, 35.36376321 ], [ 140.359813503, 35.363844798 ], [ 140.35963487399999, 35.363911163 ], [ 140.359463362000014, 35.363952454 ], [ 140.359293189, 35.363975852 ], [ 140.359011951000014, 35.363984798 ], [ 140.358977033, 35.364048926 ], [ 140.3587885, 35.364301957 ], [ 140.35874167899999, 35.364345545 ], [ 140.35847302799999, 35.364595639 ], [ 140.35833333299999, 35.364705472 ], [ 140.358332944000011, 35.364705778 ], [ 140.358264166999987, 35.364762972 ], [ 140.35787130599999, 35.365108611 ], [ 140.357715167, 35.365270083 ], [ 140.357670555999988, 35.36532675 ], [ 140.35765783799999, 35.36534505 ], [ 140.35762813299999, 35.365427936 ], [ 140.357604121, 35.365500626 ], [ 140.3576104, 35.365567296 ], [ 140.35762011700001, 35.365629263 ], [ 140.357633249, 35.365678813 ], [ 140.357665051, 35.365734007 ], [ 140.35780025, 35.365904514 ], [ 140.35781670099999, 35.366036969 ], [ 140.357798282, 35.366203107 ], [ 140.357742457, 35.366311925 ], [ 140.357635609999988, 35.366368273 ], [ 140.35757186399999, 35.366457965 ], [ 140.357537366, 35.366549127 ], [ 140.357559478000013, 35.366652817 ], [ 140.357525011, 35.366748769 ], [ 140.357443730999989, 35.366840134 ], [ 140.35740735600001, 35.366942481 ], [ 140.357357532, 35.367075224 ], [ 140.357249561, 35.367259313 ], [ 140.357135101000011, 35.367344435 ], [ 140.357065516, 35.367435748 ], [ 140.35703905, 35.367536174 ], [ 140.35704360299999, 35.367564774 ], [ 140.357049934, 35.367598374 ], [ 140.357073875999987, 35.367618174 ], [ 140.35709296600001, 35.367633962 ], [ 140.35712644, 35.367677462 ], [ 140.357137152, 35.367713191 ], [ 140.35713910699999, 35.367745379 ], [ 140.357130598999987, 35.367780475 ], [ 140.357124633000012, 35.367803397 ], [ 140.357037308, 35.367897319 ], [ 140.35709108099999, 35.367957816 ], [ 140.357275292999987, 35.368123255 ], [ 140.357478084, 35.368248244 ], [ 140.357632375, 35.368279545 ], [ 140.357807511, 35.36823248 ], [ 140.357918258000012, 35.368176115 ], [ 140.358087081, 35.368057225 ], [ 140.358131831, 35.368044257 ], [ 140.358133087999988, 35.367937273 ], [ 140.35828471799999, 35.367872746 ], [ 140.35858187, 35.367703801 ], [ 140.358813884999989, 35.367710775 ], [ 140.358981449, 35.36769887 ], [ 140.359127425999986, 35.367664704 ], [ 140.35934143099999, 35.367599904 ], [ 140.359440111, 35.367587056 ], [ 140.359443666, 35.367615557 ], [ 140.359449024000014, 35.367658514 ], [ 140.359501478999988, 35.36768216 ], [ 140.35965611, 35.367683631 ], [ 140.359831398000011, 35.367774093 ], [ 140.35985182499999, 35.367781159 ], [ 140.359883438, 35.367789842 ], [ 140.360070059, 35.367783732 ], [ 140.36014348, 35.367804438 ], [ 140.360199169999987, 35.367822397 ], [ 140.36040619799999, 35.367967297 ], [ 140.360655662, 35.368098255 ], [ 140.360799249, 35.368157187 ], [ 140.360950523000014, 35.36803837 ], [ 140.36098849199999, 35.368059852 ], [ 140.36109335, 35.368119179 ], [ 140.360748945000012, 35.368744411 ], [ 140.360743235, 35.368754777 ], [ 140.360380959999986, 35.368602521 ], [ 140.36019743, 35.368478529 ], [ 140.360096586999987, 35.368393883 ], [ 140.360046321, 35.368365483 ], [ 140.359978611, 35.368340974 ], [ 140.359893468, 35.368322265 ], [ 140.359751278, 35.368297306 ], [ 140.35968091699999, 35.368294528 ], [ 140.359446416999987, 35.368294389 ], [ 140.35933638899999, 35.368307861 ], [ 140.359275774, 35.368323429 ], [ 140.359230478, 35.368342944 ], [ 140.359187679, 35.368382716 ], [ 140.359143673, 35.368427035 ], [ 140.358919904, 35.368583508 ], [ 140.35888043, 35.36860276 ], [ 140.358817681, 35.368624975 ], [ 140.358581684, 35.368714162 ], [ 140.358590936000013, 35.368802295 ], [ 140.358591515, 35.368891708 ], [ 140.358547343, 35.368994089 ], [ 140.35859719199999, 35.369117079 ], [ 140.358641234, 35.36917365 ], [ 140.358657601, 35.369183119 ], [ 140.35868091, 35.369185402 ], [ 140.358707675, 35.369181947 ], [ 140.358796539999986, 35.369163076 ], [ 140.358839181, 35.369200165 ], [ 140.358845374999987, 35.36926104 ], [ 140.35886362299999, 35.369369536 ], [ 140.358634075999987, 35.369528436 ], [ 140.358587715999988, 35.369474668 ], [ 140.358559488999987, 35.369440335 ], [ 140.358527014, 35.369430809 ], [ 140.358503770999988, 35.369438662 ], [ 140.358474042000012, 35.369456678 ], [ 140.358441483, 35.369487228 ], [ 140.358411655999987, 35.369524955 ], [ 140.35840898399999, 35.369603035 ], [ 140.35843698799999, 35.369713086 ], [ 140.35861282, 35.370008674 ], [ 140.358637096, 35.37004792 ], [ 140.35865256400001, 35.370075876 ], [ 140.35865937, 35.370115199 ], [ 140.35865443899999, 35.370252952 ], [ 140.358655457, 35.370297666 ], [ 140.358645478999989, 35.370330503 ], [ 140.35862823299999, 35.37036516 ], [ 140.358601593, 35.37041059 ], [ 140.358485644000012, 35.370603836 ], [ 140.358478235, 35.370650976 ], [ 140.358479985, 35.370696282 ], [ 140.358486806, 35.37073799 ], [ 140.358514187, 35.370796913 ], [ 140.358656824, 35.370958297 ], [ 140.358757364000013, 35.371020992 ], [ 140.358885286, 35.370907069 ], [ 140.358968747, 35.370777391 ], [ 140.358986832, 35.370749291 ], [ 140.358984673, 35.370685621 ], [ 140.35898447299999, 35.370654856 ], [ 140.358967672, 35.370623448 ], [ 140.35889266800001, 35.370507149 ], [ 140.35888133200001, 35.370297145 ], [ 140.358939077, 35.370183528 ], [ 140.359102596000014, 35.370305455 ], [ 140.35911472699999, 35.3703145 ], [ 140.359458921999988, 35.370295711 ], [ 140.359522921, 35.370174395 ], [ 140.35972886499999, 35.370227991 ], [ 140.359724132, 35.370257598 ], [ 140.359700765000014, 35.370403751 ], [ 140.35973802, 35.37043712 ], [ 140.35977675399999, 35.370834745 ], [ 140.359782892, 35.37083488 ], [ 140.359809778, 35.370835472 ], [ 140.360073304, 35.370870914 ], [ 140.360284446, 35.370921509 ], [ 140.36031832099999, 35.370936625 ], [ 140.360316992, 35.37096153 ], [ 140.36058457499999, 35.370966729 ], [ 140.360921780000012, 35.370960467 ], [ 140.361931424, 35.370997837 ], [ 140.362857854, 35.371009479 ], [ 140.362858053999986, 35.371008575 ] ] ] } },
{ "type": "Feature", "properties": { "A29_001": "12421", "A29_002": "千葉県", "A29_003": "一宮町", "A29_004": 8, "A29_005": "近隣商業地域", "A29_006": 80, "A29_007": 300, "A29_008": null }, "geometry": { "type": "Polygon", "coordinates": [ [ [ 140.36236583199999, 35.37671586 ], [ 140.362469479, 35.376167737 ], [ 140.362785480000014, 35.376195093 ], [ 140.363181567, 35.376246048 ], [ 140.363529161, 35.375738368 ], [ 140.363992712999988, 35.375076895 ], [ 140.364313183, 35.374596476 ], [ 140.364469496999988, 35.37435309 ], [ 140.36493792600001, 35.374140265 ], [ 140.365260764, 35.374022285 ], [ 140.36511989499999, 35.373350693 ], [ 140.365043031999988, 35.372926308 ], [ 140.36261783399999, 35.372913004 ], [ 140.362229332999988, 35.374255417 ], [ 140.361942075, 35.375411611 ], [ 140.361646952, 35.376792454 ], [ 140.361584814999986, 35.37712963 ], [ 140.361556551, 35.377279843 ], [ 140.361530569, 35.377481141 ], [ 140.361560572, 35.377733583 ], [ 140.36224791699999, 35.377546166 ], [ 140.36222554, 35.377324818 ], [ 140.36236583199999, 35.37671586 ] ] ] } },
{ "type": "Feature", "properties": { "A29_001": "12421", "A29_002": "千葉県", "A29_003": "一宮町", "A29_004": 5, "A29_005": "第一種住居地域", "A29_006": 60, "A29_007": 200, "A29_008": null }, "geometry": { "type": "Polygon", "coordinates": [ [ [ 140.36167266699999, 35.378643718 ], [ 140.361191695, 35.378732042 ], [ 140.360751641, 35.378816993 ], [ 140.360325284999988, 35.378909865 ], [ 140.36000628799999, 35.379023025 ], [ 140.359679719000013, 35.379171345 ], [ 140.359439189, 35.379359207 ], [ 140.359230368, 35.379626765 ], [ 140.358992655, 35.379948737 ], [ 140.358846569, 35.380270309 ], [ 140.35884368, 35.380279279 ], [ 140.35874034, 35.380599618 ], [ 140.358708473, 35.380805102 ], [ 140.35867744, 35.381127419 ], [ 140.35823954599999, 35.381457045 ], [ 140.35796710299999, 35.381639758 ], [ 140.357837983, 35.381699309 ], [ 140.35765369500001, 35.381780377 ], [ 140.35764601299999, 35.38214207 ], [ 140.357638103999989, 35.382426318 ], [ 140.357641531000013, 35.382654631 ], [ 140.357884711, 35.382873921 ], [ 140.358184556, 35.383112124 ], [ 140.35855905599999, 35.382835864 ], [ 140.358873757, 35.382658858 ], [ 140.359317349, 35.382514821 ], [ 140.36029200199999, 35.382186444 ], [ 140.360787958, 35.382000659 ], [ 140.361176674, 35.381813744 ], [ 140.361650086999987, 35.3814604 ], [ 140.361811361, 35.381297 ], [ 140.362034389, 35.380911528 ], [ 140.36210075, 35.38074575 ], [ 140.362167167, 35.380493417 ], [ 140.362243651999989, 35.380056723 ], [ 140.36221869799999, 35.379779635 ], [ 140.362167303, 35.379217387 ], [ 140.362692399999986, 35.379145833 ], [ 140.363841049, 35.379056891 ], [ 140.364747499, 35.378992685 ], [ 140.365534, 35.378944333 ], [ 140.366164674, 35.378817194 ], [ 140.366083565, 35.378341734 ], [ 140.365960323, 35.377981423 ], [ 140.36563198799999, 35.37800682 ], [ 140.365250198000012, 35.378056402 ], [ 140.364782690999988, 35.378115941 ], [ 140.364416517, 35.378168645 ], [ 140.364290766000011, 35.378188768 ], [ 140.363382668000014, 35.378352304 ], [ 140.363176356, 35.378392062 ], [ 140.362095444, 35.378600355 ], [ 140.36167266699999, 35.378643718 ] ] ] } },
{ "type": "Feature", "properties": { "A29_001": "12421", "A29_002": "千葉県", "A29_003": "一宮町", "A29_004": 5, "A29_005": "第一種住居地域", "A29_006": 60, "A29_007": 200, "A29_008": null }, "geometry": { "type": "Polygon", "coordinates": [ [ [ 140.361987258, 35.37815455 ], [ 140.36256246100001, 35.378030053 ], [ 140.363043217000012, 35.377925997 ], [ 140.363422343, 35.377863009 ], [ 140.36396528899999, 35.377772803 ], [ 140.365725053, 35.377554707 ], [ 140.366240906, 35.37751315 ], [ 140.366685098, 35.377466482 ], [ 140.367291013, 35.377406325 ], [ 140.367744741, 35.377327677 ], [ 140.368377557, 35.377208318 ], [ 140.36898705199999, 35.377100235 ], [ 140.369752218, 35.376948347 ], [ 140.37022926, 35.376858409 ], [ 140.370226629, 35.376197033 ], [ 140.370223181, 35.375330158 ], [ 140.370224156, 35.373812946 ], [ 140.37022713799999, 35.372540394 ], [ 140.370233052, 35.370577864 ], [ 140.370222536999989, 35.370529018 ], [ 140.370109797999987, 35.370432928 ], [ 140.370011885999986, 35.370377316 ], [ 140.36985240199999, 35.370257583 ], [ 140.369777626, 35.370178018 ], [ 140.369691641, 35.370036082 ], [ 140.36959753799999, 35.370116312 ], [ 140.36937001199999, 35.370274729 ], [ 140.369001802000014, 35.370512474 ], [ 140.367781331, 35.371331154 ], [ 140.367746528, 35.371318917 ], [ 140.367693634, 35.371279073 ], [ 140.367671089999988, 35.369154559 ], [ 140.367832781, 35.368595799 ], [ 140.36799869, 35.367967301 ], [ 140.368024765, 35.36777282 ], [ 140.368140153000013, 35.366856946 ], [ 140.36828535699999, 35.366339163 ], [ 140.3684298, 35.365778079 ], [ 140.368479237, 35.365589449 ], [ 140.368547638, 35.3653209 ], [ 140.368614353, 35.365092275 ], [ 140.368690423, 35.364804531 ], [ 140.368777787999989, 35.364456062 ], [ 140.367528773, 35.364228471 ], [ 140.366303144999989, 35.363999167 ], [ 140.365764429, 35.363888175 ], [ 140.365447898000014, 35.36377301 ], [ 140.365201417, 35.3643385 ], [ 140.364952308, 35.364888095 ], [ 140.364679497999987, 35.365496043 ], [ 140.36442398599999, 35.36606719 ], [ 140.364158694, 35.36663359 ], [ 140.363984030000012, 35.367049501 ], [ 140.363902814, 35.367447437 ], [ 140.36382023199999, 35.367934795 ], [ 140.363798804999988, 35.368235069 ], [ 140.363678789, 35.368661916 ], [ 140.363484207999988, 35.369014045 ], [ 140.363399629000014, 35.369196441 ], [ 140.363246002000011, 35.369551583 ], [ 140.363165508, 35.369762701 ], [ 140.36301652899999, 35.370232786 ], [ 140.36295632, 35.370565164 ], [ 140.362858053999986, 35.371008575 ], [ 140.362857854, 35.371009479 ], [ 140.361931424, 35.370997837 ], [ 140.360921780000012, 35.370960467 ], [ 140.36058457499999, 35.370966729 ], [ 140.360316992, 35.37096153 ], [ 140.35981629599999, 35.371508732 ], [ 140.359770524, 35.371589782 ], [ 140.35975090299999, 35.371662132 ], [ 140.35974761599999, 35.371873455 ], [ 140.359822398, 35.372089685 ], [ 140.359951166, 35.372368643 ], [ 140.35998214899999, 35.372476309 ], [ 140.359978165, 35.372580311 ], [ 140.359958928999987, 35.372667208 ], [ 140.35992467599999, 35.37277325 ], [ 140.35990476500001, 35.372935515 ], [ 140.359912013000013, 35.373190675 ], [ 140.36000597099999, 35.373310469 ], [ 140.360009862, 35.373550857 ], [ 140.359978227999989, 35.373550168 ], [ 140.35986441, 35.373547689 ], [ 140.3596612, 35.373543263 ], [ 140.35946235099999, 35.373538932 ], [ 140.359204237, 35.373796516 ], [ 140.35884372000001, 35.373817245 ], [ 140.358624434, 35.373671301 ], [ 140.35830761599999, 35.373516201 ], [ 140.358202301, 35.373810452 ], [ 140.358196064999987, 35.373822765 ], [ 140.357708881, 35.37386583 ], [ 140.35769667, 35.373866909 ], [ 140.35777456299999, 35.374254044 ], [ 140.358014443, 35.375446249 ], [ 140.358049641, 35.375600494 ], [ 140.358067291999987, 35.375749556 ], [ 140.35805105599999, 35.375799417 ], [ 140.35804605199999, 35.375811814 ], [ 140.35802097199999, 35.375873944 ], [ 140.357939861, 35.376028972 ], [ 140.357871031, 35.376242074 ], [ 140.357761417, 35.376242611 ], [ 140.357655528, 35.376224778 ], [ 140.357526944, 35.376214694 ], [ 140.357331249999987, 35.376215167 ], [ 140.35706819399999, 35.376227083 ], [ 140.356954833, 35.376228972 ], [ 140.35687089000001, 35.376236832 ], [ 140.356665056, 35.376737667 ], [ 140.35664726499999, 35.376929173 ], [ 140.356597103000013, 35.377312599 ], [ 140.356640371999987, 35.377673267 ], [ 140.356717546999988, 35.378151944 ], [ 140.356632611, 35.378152139 ], [ 140.356509, 35.37816083 ], [ 140.356511864999987, 35.378604701 ], [ 140.35645132499999, 35.378890774 ], [ 140.356355734, 35.379183384 ], [ 140.35633806199999, 35.379466077 ], [ 140.356319305999989, 35.379882898 ], [ 140.356324306, 35.3803555 ], [ 140.356230796, 35.380668859 ], [ 140.356196476, 35.38078876 ], [ 140.356248053, 35.380927017 ], [ 140.356332409, 35.38100692 ], [ 140.356481351000014, 35.381126028 ], [ 140.356969687, 35.380967435 ], [ 140.357319878999988, 35.380852551 ], [ 140.357854427, 35.380342377 ], [ 140.358148300000011, 35.3800619 ], [ 140.358538075000013, 35.379543264 ], [ 140.358695039, 35.379386366 ], [ 140.358771964, 35.379326049 ], [ 140.359075289, 35.379118866 ], [ 140.35951111, 35.378814739 ], [ 140.359752624, 35.378689621 ], [ 140.36009305499999, 35.378574772 ], [ 140.36044943499999, 35.37851414 ], [ 140.360644148, 35.378476566 ], [ 140.36132788, 35.378289752 ], [ 140.361654276, 35.378215084 ], [ 140.361987258, 35.37815455 ] ], [ [ 140.361646952, 35.376792454 ], [ 140.361942075, 35.375411611 ], [ 140.362229332999988, 35.374255417 ], [ 140.36261783399999, 35.372913004 ], [ 140.365043031999988, 35.372926308 ], [ 140.36511989499999, 35.373350693 ], [ 140.365260764, 35.374022285 ], [ 140.36493792600001, 35.374140265 ], [ 140.364469496999988, 35.37435309 ], [ 140.364313183, 35.374596476 ], [ 140.363992712999988, 35.375076895 ], [ 140.363529161, 35.375738368 ], [ 140.363181567, 35.376246048 ], [ 140.362785480000014, 35.376195093 ], [ 140.362469479, 35.376167737 ], [ 140.36236583199999, 35.37671586 ], [ 140.36222554, 35.377324818 ], [ 140.36224791699999, 35.377546166 ], [ 140.361560572, 35.377733583 ], [ 140.361530569, 35.377481141 ], [ 140.361556551, 35.377279843 ], [ 140.361584814999986, 35.37712963 ], [ 140.361646952, 35.376792454 ] ] ] } }
]
}
