{
"type": "FeatureCollection",
"name": "A29-19_32343",
"features": [
{ "type": "Feature", "properties": { "A29_001": "32343", "A29_002": "島根県", "A29_003": "奥出雲町", "A29_004": 8, "A29_005": "近隣商業地域", "A29_006": 80, "A29_007": 200, "A29_008": null }, "geometry": { "type": "Polygon", "coordinates": [ [ [ 133.08715055, 35.17541639 ], [ 133.08708715, 35.17513008 ], [ 133.08694008, 35.17444095 ], [ 133.0860638, 35.17456934 ], [ 133.08546547, 35.17464457 ], [ 133.08535312, 35.17465833 ], [ 133.08533491, 35.17466869 ], [ 133.08530937, 35.1749557 ], [ 133.08530202, 35.17517429 ], [ 133.08530108, 35.17526516 ], [ 133.085304939999986, 35.17531728 ], [ 133.08531925, 35.1754282 ], [ 133.08534796, 35.17559598 ], [ 133.08535924, 35.17566902 ], [ 133.085368640000013, 35.17569206 ], [ 133.08665387, 35.17550972 ], [ 133.08709345, 35.17545289 ], [ 133.08711753, 35.1754425 ], [ 133.08715055, 35.17541639 ] ] ] } },
{ "type": "Feature", "properties": { "A29_001": "32343", "A29_002": "島根県", "A29_003": "奥出雲町", "A29_004": 10, "A29_005": "準工業地域", "A29_006": 60, "A29_007": 200, "A29_008": null }, "geometry": { "type": "Polygon", "coordinates": [ [ [ 133.08758610000001, 35.17651853 ], [ 133.08764301, 35.17649581 ], [ 133.08759035, 35.17640857 ], [ 133.08756363, 35.17635931 ], [ 133.08750211, 35.17624123 ], [ 133.08747413, 35.17619628 ], [ 133.08747509, 35.17616563 ], [ 133.08748265, 35.17613949 ], [ 133.087506600000012, 35.17611673 ], [ 133.0875476, 35.17609868 ], [ 133.087649449999986, 35.1760807 ], [ 133.08771939, 35.1760756 ], [ 133.0877807, 35.17605953 ], [ 133.08782102, 35.17603934 ], [ 133.08785529, 35.17600225 ], [ 133.087887419999987, 35.17595039 ], [ 133.08790715, 35.17590239 ], [ 133.087922240000012, 35.17584851 ], [ 133.08792295, 35.17579501 ], [ 133.08790457, 35.17567311 ], [ 133.08787217, 35.17552631 ], [ 133.08784121, 35.17544938 ], [ 133.08782556, 35.1753952 ], [ 133.08783369, 35.17536288 ], [ 133.08784725000001, 35.1753461 ], [ 133.0878687, 35.17533412 ], [ 133.08789413, 35.17532694 ], [ 133.087952370000011, 35.17532918 ], [ 133.08798578, 35.17533322 ], [ 133.08800994, 35.17532981 ], [ 133.08808412, 35.17529511 ], [ 133.088225279999989, 35.17522469 ], [ 133.08826557, 35.17520126 ], [ 133.08833825, 35.17514882 ], [ 133.0883959, 35.17509838 ], [ 133.08843077, 35.17505779 ], [ 133.088448090000014, 35.17502889 ], [ 133.08846083, 35.17499761 ], [ 133.08845925, 35.17497504 ], [ 133.088453179999988, 35.17495842 ], [ 133.088441319999987, 35.17494991 ], [ 133.08842225, 35.17494145 ], [ 133.088390800000013, 35.17493685 ], [ 133.088260709999986, 35.17494511 ], [ 133.088136600000013, 35.17496057 ], [ 133.08787686, 35.1750147 ], [ 133.087854639999989, 35.17501703 ], [ 133.08784025, 35.17501659 ], [ 133.08782578, 35.17500972 ], [ 133.08781256, 35.17499745 ], [ 133.087806449999988, 35.17497814 ], [ 133.087806590000014, 35.17487356 ], [ 133.08779893, 35.17480305 ], [ 133.0877984, 35.17472712 ], [ 133.08780321, 35.17468891 ], [ 133.087822069999987, 35.17464979 ], [ 133.08786092, 35.17461509 ], [ 133.08792115, 35.17456114 ], [ 133.087948899999986, 35.17452813 ], [ 133.08797137, 35.17449033 ], [ 133.08799241, 35.17444177 ], [ 133.08799522000001, 35.17440009 ], [ 133.08798719, 35.17432541 ], [ 133.08796859, 35.17424275 ], [ 133.08796017, 35.17419146 ], [ 133.08795702, 35.17414471 ], [ 133.08796222, 35.17408284 ], [ 133.0879717, 35.17405347 ], [ 133.088005110000012, 35.17399999 ], [ 133.08805277, 35.17393349 ], [ 133.08810283, 35.17384764 ], [ 133.08812706, 35.17379208 ], [ 133.08813824, 35.17373876 ], [ 133.08813959, 35.17368472 ], [ 133.088130549999988, 35.17363747 ], [ 133.088118369999989, 35.1735973 ], [ 133.08806507, 35.17339422 ], [ 133.08805021, 35.17329595 ], [ 133.08804397, 35.17320568 ], [ 133.08804942, 35.17316693 ], [ 133.08805887, 35.17313486 ], [ 133.08807411, 35.1730939 ], [ 133.088083110000014, 35.17302286 ], [ 133.08808249, 35.17296802 ], [ 133.088064519999989, 35.17288188 ], [ 133.0881033, 35.17284019 ], [ 133.088153510000012, 35.17276884 ], [ 133.088171179999989, 35.17271145 ], [ 133.08818109, 35.17266191 ], [ 133.088183609999987, 35.17259577 ], [ 133.088178449999987, 35.17254285 ], [ 133.08815607, 35.17247312 ], [ 133.088121840000014, 35.17239623 ], [ 133.088082390000011, 35.17232019 ], [ 133.088023310000011, 35.17224456 ], [ 133.087988200000012, 35.17220559 ], [ 133.087932, 35.17215119 ], [ 133.08779737, 35.17204442 ], [ 133.08767978, 35.17194102 ], [ 133.0875647, 35.17182711 ], [ 133.087481669999988, 35.17171539 ], [ 133.087416100000013, 35.17164223 ], [ 133.08733017, 35.17156199 ], [ 133.08707038, 35.17137445 ], [ 133.08694639, 35.17128346 ], [ 133.086872660000012, 35.17124075 ], [ 133.08691602, 35.17119956 ], [ 133.086937189999986, 35.17116365 ], [ 133.08695115, 35.17112591 ], [ 133.08695594, 35.17108609 ], [ 133.08695261, 35.17102187 ], [ 133.086950159999986, 35.17097889 ], [ 133.086929340000012, 35.17093066 ], [ 133.086902110000011, 35.17089485 ], [ 133.086873059999988, 35.17086981 ], [ 133.08684072, 35.17084424 ], [ 133.08675648, 35.17079676 ], [ 133.08665514, 35.17074269 ], [ 133.08662007, 35.17070694 ], [ 133.08649555, 35.17056838 ], [ 133.08642745, 35.17050331 ], [ 133.08637474, 35.17046876 ], [ 133.08632214, 35.17044389 ], [ 133.0862669, 35.17041877 ], [ 133.08617693, 35.17038612 ], [ 133.0861114, 35.17037372 ], [ 133.086045250000012, 35.17036697 ], [ 133.086339470000013, 35.17163718 ], [ 133.086667619999986, 35.17313078 ], [ 133.08694008, 35.17444095 ], [ 133.08708715, 35.17513008 ], [ 133.08715055, 35.17541639 ], [ 133.08719724, 35.17561253 ], [ 133.08725322, 35.17587847 ], [ 133.08729137, 35.17606983 ], [ 133.0873147, 35.17616722 ], [ 133.08733651, 35.17624501 ], [ 133.08735417, 35.17630293 ], [ 133.08737101, 35.17634688 ], [ 133.08738836, 35.17637767 ], [ 133.08742974, 35.17645154 ], [ 133.08749849, 35.17655834 ], [ 133.08758610000001, 35.17651853 ] ] ] } },
{ "type": "Feature", "properties": { "A29_001": "32343", "A29_002": "島根県", "A29_003": "奥出雲町", "A29_004": 3, "A29_005": "第一種中高層住居専用地域", "A29_006": 60, "A29_007": 200, "A29_008": null }, "geometry": { "type": "Polygon", "coordinates": [ [ [ 133.099912518, 35.176950445 ], [ 133.09900377400001, 35.175728737 ], [ 133.098873286000014, 35.175461285 ], [ 133.09885547, 35.17545011 ], [ 133.09836603, 35.17515029 ], [ 133.098245060000011, 35.17508458 ], [ 133.09795986, 35.17492762 ], [ 133.09766127, 35.17476277 ], [ 133.097611230000012, 35.17478976 ], [ 133.097546130000012, 35.1748166 ], [ 133.0975057, 35.17482765 ], [ 133.09733673, 35.17486416 ], [ 133.0972017, 35.1748953 ], [ 133.09702049, 35.1749475 ], [ 133.096922119999988, 35.17498212 ], [ 133.096855729999987, 35.17501058 ], [ 133.096804350000014, 35.1750357 ], [ 133.09674983, 35.1750724 ], [ 133.09671749, 35.17510329 ], [ 133.09669752, 35.17512978 ], [ 133.096671109999988, 35.17516601 ], [ 133.09662419, 35.1752376 ], [ 133.09652365, 35.17536819 ], [ 133.09650123, 35.17540922 ], [ 133.096482759999986, 35.1754537 ], [ 133.0964759, 35.17548331 ], [ 133.09647164, 35.1755113 ], [ 133.09646826, 35.17555837 ], [ 133.09646942, 35.17560297 ], [ 133.09647665, 35.17572145 ], [ 133.09647063, 35.17588277 ], [ 133.09646749, 35.1761255 ], [ 133.0964649, 35.17624164 ], [ 133.096467319999988, 35.17628194 ], [ 133.09648245, 35.17640519 ], [ 133.09649517, 35.1765462 ], [ 133.09649468, 35.17661716 ], [ 133.09648619, 35.17673468 ], [ 133.09647328, 35.17680681 ], [ 133.0964525, 35.17687793 ], [ 133.09642458, 35.17695313 ], [ 133.096367500000014, 35.17705194 ], [ 133.0962653, 35.17720942 ], [ 133.09620267, 35.17733731 ], [ 133.09614973, 35.17745626 ], [ 133.096370830000012, 35.17740107 ], [ 133.0964978, 35.17735118 ], [ 133.09658302, 35.17731047 ], [ 133.09673436, 35.17721739 ], [ 133.09685257000001, 35.17714445 ], [ 133.0969287, 35.17711 ], [ 133.096982770000011, 35.1770913 ], [ 133.09702651, 35.17708398 ], [ 133.0970788, 35.17708062 ], [ 133.09713772, 35.17708501 ], [ 133.09721176, 35.17709788 ], [ 133.097277960000014, 35.17710866 ], [ 133.09734871, 35.17711887 ], [ 133.09739123, 35.17711961 ], [ 133.09743304, 35.17711499 ], [ 133.09747468, 35.17709719 ], [ 133.097569209999989, 35.17707067 ], [ 133.09762269, 35.17705682 ], [ 133.09768478, 35.17705311 ], [ 133.09775023, 35.17705584 ], [ 133.09782952, 35.17706974 ], [ 133.097914089999989, 35.17708655 ], [ 133.09800919, 35.17710947 ], [ 133.09808449, 35.17711749 ], [ 133.09816365, 35.1771185 ], [ 133.09832003, 35.17712429 ], [ 133.09846729, 35.17713309 ], [ 133.09857466, 35.17714248 ], [ 133.098639490000011, 35.17715004 ], [ 133.0987548, 35.17716743 ], [ 133.09887877, 35.17719765 ], [ 133.09912148, 35.17726004 ], [ 133.09925929, 35.17730091 ], [ 133.099648, 35.17742846 ], [ 133.099680729999989, 35.17733718 ], [ 133.09972226, 35.17725571 ], [ 133.09974863, 35.17719118 ], [ 133.09983007, 35.17706546 ], [ 133.099912518, 35.176950445 ] ] ] } },
{ "type": "Feature", "properties": { "A29_001": "32343", "A29_002": "島根県", "A29_003": "奥出雲町", "A29_004": 10, "A29_005": "準工業地域", "A29_006": 60, "A29_007": 200, "A29_008": null }, "geometry": { "type": "Polygon", "coordinates": [ [ [ 133.09532372699999, 35.177000783 ], [ 133.09559509499999, 35.176117231 ], [ 133.09547006, 35.17605457 ], [ 133.09541, 35.17611001 ], [ 133.09531911, 35.176169559 ], [ 133.095098433, 35.176333677 ], [ 133.094793767999988, 35.176516316 ], [ 133.09451508, 35.176684446 ], [ 133.094263933, 35.176822314 ], [ 133.09398478899999, 35.17694552 ], [ 133.09388, 35.17700001 ], [ 133.09378512, 35.17704176 ], [ 133.09328824, 35.17715278 ], [ 133.093232527999987, 35.17716172 ], [ 133.093159106, 35.177020754 ], [ 133.092437288000013, 35.177251789 ], [ 133.092396044999987, 35.177265335 ], [ 133.092517214999987, 35.177608888 ], [ 133.092558309999987, 35.17760141 ], [ 133.092806849999988, 35.1775498 ], [ 133.09305995, 35.17749761 ], [ 133.09321055, 35.17745777 ], [ 133.09332385, 35.17741659 ], [ 133.09339283, 35.17738786 ], [ 133.09351504, 35.17732458 ], [ 133.093648230000014, 35.17724832 ], [ 133.0937275, 35.17720444 ], [ 133.09377436, 35.17718528 ], [ 133.09380374, 35.17718183 ], [ 133.093850839999988, 35.17718416 ], [ 133.093888209999989, 35.17719247 ], [ 133.093926900000014, 35.17720239 ], [ 133.09399997, 35.17724562 ], [ 133.093994439999989, 35.1772763 ], [ 133.094014679999987, 35.17733203 ], [ 133.09406572, 35.17739345 ], [ 133.094139750000011, 35.17746301 ], [ 133.094203099999987, 35.17751304 ], [ 133.09426367, 35.17754966 ], [ 133.09431956, 35.17757826 ], [ 133.09446456, 35.17764854 ], [ 133.094671299999987, 35.17771845 ], [ 133.09474029, 35.17753511 ], [ 133.094786449999987, 35.17745414 ], [ 133.09484444, 35.17737819 ], [ 133.09492972000001, 35.17728563 ], [ 133.09500356, 35.17722352 ], [ 133.09512041, 35.17714791 ], [ 133.095212620000012, 35.17709077 ], [ 133.095262569999989, 35.17705627 ], [ 133.0953118, 35.17701451 ], [ 133.09532372699999, 35.177000783 ] ] ] } },
{ "type": "Feature", "properties": { "A29_001": "32343", "A29_002": "島根県", "A29_003": "奥出雲町", "A29_004": 5, "A29_005": "第一種住居地域", "A29_006": 60, "A29_007": 200, "A29_008": null }, "geometry": { "type": "Polygon", "coordinates": [ [ [ 133.09917922, 35.17880366 ], [ 133.09931370000001, 35.17852829 ], [ 133.09935779, 35.17844637 ], [ 133.09941272, 35.17832801 ], [ 133.099460850000014, 35.17819792 ], [ 133.09947759, 35.17814018 ], [ 133.09949684, 35.17807927 ], [ 133.09952628, 35.17796929 ], [ 133.09955036, 35.17788228 ], [ 133.09958294, 35.17782316 ], [ 133.09960143, 35.17778476 ], [ 133.09962606, 35.17774693 ], [ 133.099634869999988, 35.17771197 ], [ 133.09964714, 35.17748691 ], [ 133.099648, 35.17742846 ], [ 133.09925929, 35.17730091 ], [ 133.09912148, 35.17726004 ], [ 133.09887877, 35.17719765 ], [ 133.0987548, 35.17716743 ], [ 133.098639490000011, 35.17715004 ], [ 133.09857466, 35.17714248 ], [ 133.09846729, 35.17713309 ], [ 133.09832003, 35.17712429 ], [ 133.09816365, 35.1771185 ], [ 133.09808449, 35.17711749 ], [ 133.09800919, 35.17710947 ], [ 133.097914089999989, 35.17708655 ], [ 133.09782952, 35.17706974 ], [ 133.09775023, 35.17705584 ], [ 133.09768478, 35.17705311 ], [ 133.09762269, 35.17705682 ], [ 133.097569209999989, 35.17707067 ], [ 133.09747468, 35.17709719 ], [ 133.09743304, 35.17711499 ], [ 133.09739123, 35.17711961 ], [ 133.09734871, 35.17711887 ], [ 133.097277960000014, 35.17710866 ], [ 133.09721176, 35.17709788 ], [ 133.09713772, 35.17708501 ], [ 133.0970788, 35.17708062 ], [ 133.09702651, 35.17708398 ], [ 133.096982770000011, 35.1770913 ], [ 133.0969287, 35.17711 ], [ 133.09685257000001, 35.17714445 ], [ 133.09673436, 35.17721739 ], [ 133.09658302, 35.17731047 ], [ 133.0964978, 35.17735118 ], [ 133.096370830000012, 35.17740107 ], [ 133.09614973, 35.17745626 ], [ 133.09620267, 35.17733731 ], [ 133.0962653, 35.17720942 ], [ 133.096367500000014, 35.17705194 ], [ 133.09642458, 35.17695313 ], [ 133.0964525, 35.17687793 ], [ 133.09647328, 35.17680681 ], [ 133.09648619, 35.17673468 ], [ 133.09649468, 35.17661716 ], [ 133.09649517, 35.1765462 ], [ 133.09648245, 35.17640519 ], [ 133.096467319999988, 35.17628194 ], [ 133.0964649, 35.17624164 ], [ 133.09646749, 35.1761255 ], [ 133.09647063, 35.17588277 ], [ 133.09647665, 35.17572145 ], [ 133.09646942, 35.17560297 ], [ 133.09646826, 35.17555837 ], [ 133.09647164, 35.1755113 ], [ 133.0964759, 35.17548331 ], [ 133.096482759999986, 35.1754537 ], [ 133.09650123, 35.17540922 ], [ 133.09652365, 35.17536819 ], [ 133.09662419, 35.1752376 ], [ 133.096671109999988, 35.17516601 ], [ 133.09669752, 35.17512978 ], [ 133.09671749, 35.17510329 ], [ 133.09674983, 35.1750724 ], [ 133.096804350000014, 35.1750357 ], [ 133.096855729999987, 35.17501058 ], [ 133.096922119999988, 35.17498212 ], [ 133.09702049, 35.1749475 ], [ 133.0972017, 35.1748953 ], [ 133.09733673, 35.17486416 ], [ 133.0975057, 35.17482765 ], [ 133.097546130000012, 35.1748166 ], [ 133.097611230000012, 35.17478976 ], [ 133.09766127, 35.17476277 ], [ 133.097702840000011, 35.17472678 ], [ 133.09774223, 35.17468107 ], [ 133.097867869999988, 35.17448372 ], [ 133.09803061, 35.17417551 ], [ 133.097669489999987, 35.17404519 ], [ 133.09749781, 35.17397334 ], [ 133.09740925, 35.17392377 ], [ 133.09736025, 35.17388883 ], [ 133.09729664, 35.17382897 ], [ 133.09727224, 35.17379762 ], [ 133.097245640000011, 35.17375325 ], [ 133.09718716, 35.17364837 ], [ 133.097168110000013, 35.17359238 ], [ 133.0971597, 35.17352811 ], [ 133.09716089, 35.17346317 ], [ 133.097170330000012, 35.17339331 ], [ 133.09718338, 35.17332573 ], [ 133.097045259999987, 35.17332511 ], [ 133.0970049, 35.17332962 ], [ 133.09697338, 35.17334711 ], [ 133.096790739999989, 35.17352446 ], [ 133.09666424, 35.173693 ], [ 133.0966286, 35.17375171 ], [ 133.096588, 35.17386807 ], [ 133.096560110000013, 35.17398074 ], [ 133.09644, 35.17429001 ], [ 133.09643, 35.17445001 ], [ 133.09641, 35.17461 ], [ 133.09638, 35.17477001 ], [ 133.09634, 35.17490001 ], [ 133.09619, 35.17517001 ], [ 133.09613, 35.17528001 ], [ 133.096, 35.17546001 ], [ 133.09586, 35.17564001 ], [ 133.09567, 35.17587001 ], [ 133.09554877, 35.17598191 ], [ 133.095487389999988, 35.17595494 ], [ 133.095417160000011, 35.1759189 ], [ 133.0953898, 35.1758965 ], [ 133.09537524000001, 35.17587602 ], [ 133.095372450000013, 35.17585627 ], [ 133.09537368, 35.17582894 ], [ 133.09539245, 35.1757714 ], [ 133.09543765, 35.17565186 ], [ 133.09560153000001, 35.17526338 ], [ 133.095665919999988, 35.17507852 ], [ 133.095680679999987, 35.17502796 ], [ 133.09568767, 35.17487655 ], [ 133.095678459999988, 35.17465316 ], [ 133.095661374, 35.174489155 ], [ 133.095613377, 35.174328509 ], [ 133.095560516, 35.174239478 ], [ 133.095473518, 35.174137114 ], [ 133.09538865499999, 35.174069077 ], [ 133.095253344000014, 35.173971019 ], [ 133.095212006, 35.17393735 ], [ 133.095182157000011, 35.173917902 ], [ 133.095144971, 35.173904593 ], [ 133.095119052, 35.173885831 ], [ 133.094966771, 35.173789691 ], [ 133.094923389, 35.173767843 ], [ 133.094857233999988, 35.173735795 ], [ 133.094754521, 35.173707247 ], [ 133.094692490999989, 35.173693055 ], [ 133.094650505, 35.173679067 ], [ 133.094602363, 35.173660117 ], [ 133.094566410999988, 35.173640359 ], [ 133.094499238999987, 35.173595439 ], [ 133.094428024, 35.173539819 ], [ 133.094352469, 35.173485662 ], [ 133.094330128, 35.173475026 ], [ 133.09427437799999, 35.173457566 ], [ 133.094206079, 35.173422016 ], [ 133.094148612999987, 35.173381315 ], [ 133.094106086000011, 35.17334527 ], [ 133.094036732, 35.17328081 ], [ 133.093983114999986, 35.173241002 ], [ 133.093954771, 35.173220994 ], [ 133.093929115, 35.173212605 ], [ 133.09389257399999, 35.173207351 ], [ 133.093861331999989, 35.173198242 ], [ 133.093832584000012, 35.173183579 ], [ 133.09381682, 35.173166337 ], [ 133.093805452999987, 35.173147535 ], [ 133.093797768, 35.173125652 ], [ 133.09379500899999, 35.173107738 ], [ 133.093792694, 35.173086776 ], [ 133.09379217, 35.1730851 ], [ 133.093791821, 35.173078864 ], [ 133.09379024, 35.17305064 ], [ 133.093795410000013, 35.1730094 ], [ 133.09381504000001, 35.17293757 ], [ 133.09383478, 35.17287351 ], [ 133.093835767, 35.172852582 ], [ 133.092381460000013, 35.172697109 ], [ 133.091742391, 35.173042856 ], [ 133.09174368, 35.17304838 ], [ 133.091795501, 35.173124075 ], [ 133.092007808, 35.173275986 ], [ 133.09204275499999, 35.173289423 ], [ 133.092051450000014, 35.17330461 ], [ 133.09206669, 35.17334107 ], [ 133.09207095, 35.17340179 ], [ 133.092064459999989, 35.17346239 ], [ 133.0920542, 35.17350408 ], [ 133.09204239499999, 35.173558887 ], [ 133.09204910299999, 35.173586978 ], [ 133.092069872, 35.173625456 ], [ 133.092098600000014, 35.17364861 ], [ 133.09213713299999, 35.173665487 ], [ 133.09218309799999, 35.173671814 ], [ 133.092217917999989, 35.173668686 ], [ 133.092270686, 35.173660174 ], [ 133.09231018599999, 35.173659872 ], [ 133.092347487000012, 35.173670558 ], [ 133.092384949, 35.173695552 ], [ 133.092405121000013, 35.173732604 ], [ 133.092432018000011, 35.173799178 ], [ 133.092449974, 35.173845786 ], [ 133.09245164399999, 35.173890611 ], [ 133.09245188700001, 35.173915413 ], [ 133.092446880000011, 35.17393982 ], [ 133.092414670000011, 35.17398738 ], [ 133.092376879999989, 35.17403854 ], [ 133.09235324, 35.17407404 ], [ 133.09234283, 35.17410312 ], [ 133.092333090000011, 35.17414629 ], [ 133.092319788999987, 35.174213431 ], [ 133.09241087800001, 35.174321549 ], [ 133.09246572399999, 35.174355414 ], [ 133.092595198999987, 35.174406596 ], [ 133.09270827, 35.17445194 ], [ 133.09279972600001, 35.174512356 ], [ 133.092914983000014, 35.174590477 ], [ 133.092988084000012, 35.174633146 ], [ 133.093059066, 35.174648999 ], [ 133.09319158, 35.174647986 ], [ 133.093483752999987, 35.174638297 ], [ 133.09381615, 35.174653641 ], [ 133.09408123, 35.174656083 ], [ 133.09431795899999, 35.174719857 ], [ 133.09445413, 35.17484964 ], [ 133.09445981499999, 35.175004868 ], [ 133.09445654000001, 35.17501632 ], [ 133.09443402, 35.17506064 ], [ 133.094389361, 35.175150733 ], [ 133.094356669, 35.175211743 ], [ 133.094340198, 35.175264041 ], [ 133.094335867000012, 35.175330257 ], [ 133.09434203699999, 35.175394008 ], [ 133.094366062, 35.175463286 ], [ 133.094408087, 35.17555091 ], [ 133.09442042, 35.175581821 ], [ 133.09443295299999, 35.175630319 ], [ 133.094440819999988, 35.175683622 ], [ 133.094449278000013, 35.175724996 ], [ 133.094466297999986, 35.17575289 ], [ 133.09447908199999, 35.175759648 ], [ 133.09450238299999, 35.175765134 ], [ 133.094531044, 35.175763126 ], [ 133.09457339, 35.175751175 ], [ 133.094645113000013, 35.175736316 ], [ 133.09468900499999, 35.1757327 ], [ 133.094786101000011, 35.175745968 ], [ 133.094858275, 35.175770755 ], [ 133.09506799799999, 35.1758739 ], [ 133.095301826999986, 35.176001493 ], [ 133.095447325, 35.176075556 ], [ 133.09547006, 35.17605457 ], [ 133.09559509499999, 35.176117231 ], [ 133.09532372699999, 35.177000783 ], [ 133.0953118, 35.17701451 ], [ 133.095262569999989, 35.17705627 ], [ 133.095212620000012, 35.17709077 ], [ 133.09512041, 35.17714791 ], [ 133.09500356, 35.17722352 ], [ 133.09492972000001, 35.17728563 ], [ 133.09484444, 35.17737819 ], [ 133.094786449999987, 35.17745414 ], [ 133.09474029, 35.17753511 ], [ 133.094671299999987, 35.17771845 ], [ 133.09490222, 35.17778466 ], [ 133.09522997, 35.17785712 ], [ 133.095321680000012, 35.17787253 ], [ 133.095391080000013, 35.17788088 ], [ 133.09545911, 35.17788358 ], [ 133.095578139999986, 35.17788589 ], [ 133.09572401, 35.17789123 ], [ 133.095799840000012, 35.17789037 ], [ 133.09587849, 35.17790643 ], [ 133.09593361, 35.17792428 ], [ 133.09584597, 35.17809342 ], [ 133.09663394, 35.17804464 ], [ 133.09744781500001, 35.177992973 ], [ 133.097570327, 35.178352211 ], [ 133.097572163, 35.178382229 ], [ 133.097618759999989, 35.17839928 ], [ 133.097691630000014, 35.1784256 ], [ 133.09776395, 35.17845917 ], [ 133.09780866, 35.17848193 ], [ 133.09784758, 35.17851173 ], [ 133.09787401, 35.17853624 ], [ 133.09791673, 35.17857899 ], [ 133.09796859, 35.17863116 ], [ 133.09801535, 35.1786609 ], [ 133.098065319999989, 35.17868577 ], [ 133.098147399999988, 35.17871631 ], [ 133.09822748, 35.17874418 ], [ 133.09829761, 35.17875814 ], [ 133.098355239999989, 35.17876604 ], [ 133.09841473, 35.17876558 ], [ 133.09844744, 35.17876694 ], [ 133.09849073, 35.17877843 ], [ 133.098565549999989, 35.17880311 ], [ 133.09868368, 35.17884143 ], [ 133.098818990000012, 35.17889493 ], [ 133.09891954, 35.17893984 ], [ 133.099083150000013, 35.17901484 ], [ 133.09917922, 35.17880366 ] ] ] } },
{ "type": "Feature", "properties": { "A29_001": "32343", "A29_002": "島根県", "A29_003": "奥出雲町", "A29_004": 9, "A29_005": "商業地域", "A29_006": 80, "A29_007": 400, "A29_008": null }, "geometry": { "type": "Polygon", "coordinates": [ [ [ 133.092558309999987, 35.17760141 ], [ 133.092517214999987, 35.177608888 ], [ 133.092391178000014, 35.177251535 ], [ 133.09175162, 35.17751882 ], [ 133.09147, 35.17760001 ], [ 133.09092295, 35.17760001 ], [ 133.090853377, 35.177592365 ], [ 133.090843358, 35.177679721 ], [ 133.090781063, 35.178114648 ], [ 133.09076933599999, 35.178186529 ], [ 133.08998252, 35.17813339 ], [ 133.08993575, 35.178132074 ], [ 133.08993287199999, 35.178288551 ], [ 133.089977800000014, 35.17829358 ], [ 133.090316777, 35.178343146 ], [ 133.090314011, 35.178355813 ], [ 133.090313288, 35.178364028 ], [ 133.09019126699999, 35.178782385 ], [ 133.09012776599999, 35.179000097 ], [ 133.090089639000013, 35.179130818 ], [ 133.090084847000014, 35.179147247 ], [ 133.090035298, 35.179305772 ], [ 133.090035046999986, 35.179306572 ], [ 133.090004775000011, 35.179403423 ], [ 133.089891421, 35.179770498 ], [ 133.08976558, 35.180199688 ], [ 133.089813213000014, 35.180194368 ], [ 133.0898123, 35.18019747 ], [ 133.09040002, 35.18012339 ], [ 133.090421420000013, 35.18010656 ], [ 133.09051746, 35.1800983 ], [ 133.09053724, 35.18011267 ], [ 133.091140020000012, 35.180064091 ], [ 133.09135908499999, 35.178899673 ], [ 133.09134334699999, 35.178792469 ], [ 133.091529052, 35.178261586 ], [ 133.091575694999989, 35.178260437 ], [ 133.091771990000012, 35.17826935 ], [ 133.09212661, 35.17828384 ], [ 133.092485610000011, 35.1782819 ], [ 133.092581779999989, 35.17828547 ], [ 133.09260799, 35.17852042 ], [ 133.09263175000001, 35.17859763 ], [ 133.092685139999986, 35.17874906 ], [ 133.0935158, 35.17870319 ], [ 133.093933802, 35.178682511 ], [ 133.093960973, 35.179253295 ], [ 133.093998449999987, 35.17999533 ], [ 133.094056959999989, 35.1799979 ], [ 133.09414912, 35.1799937 ], [ 133.09421704, 35.17998512 ], [ 133.094301120000011, 35.1799603 ], [ 133.094381160000012, 35.17992501 ], [ 133.094465649999989, 35.1798776 ], [ 133.09450991, 35.17985899 ], [ 133.094527578, 35.17985243 ], [ 133.094550943, 35.180006625 ], [ 133.0945815, 35.18000114 ], [ 133.09462453, 35.17998899 ], [ 133.09468246, 35.17996408 ], [ 133.09474935, 35.17992326 ], [ 133.09481292000001, 35.17987762 ], [ 133.09489518, 35.17980711 ], [ 133.094972719999987, 35.17972563 ], [ 133.095021620000011, 35.17965377 ], [ 133.09509028, 35.17953902 ], [ 133.09516315, 35.17939065 ], [ 133.09533729, 35.17906171 ], [ 133.095743809999988, 35.17829105 ], [ 133.09584597, 35.17809342 ], [ 133.09593361, 35.17792428 ], [ 133.09587849, 35.17790643 ], [ 133.095799840000012, 35.17789037 ], [ 133.09572401, 35.17789123 ], [ 133.095578139999986, 35.17788589 ], [ 133.09545911, 35.17788358 ], [ 133.095391080000013, 35.17788088 ], [ 133.095321680000012, 35.17787253 ], [ 133.09522997, 35.17785712 ], [ 133.09490222, 35.17778466 ], [ 133.094671299999987, 35.17771845 ], [ 133.09446456, 35.17764854 ], [ 133.09431956, 35.17757826 ], [ 133.09426367, 35.17754966 ], [ 133.094203099999987, 35.17751304 ], [ 133.094139750000011, 35.17746301 ], [ 133.09406572, 35.17739345 ], [ 133.094014679999987, 35.17733203 ], [ 133.093994439999989, 35.1772763 ], [ 133.09399997, 35.17724562 ], [ 133.093926900000014, 35.17720239 ], [ 133.093888209999989, 35.17719247 ], [ 133.093850839999988, 35.17718416 ], [ 133.09380374, 35.17718183 ], [ 133.09377436, 35.17718528 ], [ 133.0937275, 35.17720444 ], [ 133.093648230000014, 35.17724832 ], [ 133.09351504, 35.17732458 ], [ 133.09339283, 35.17738786 ], [ 133.09332385, 35.17741659 ], [ 133.09321055, 35.17745777 ], [ 133.09305995, 35.17749761 ], [ 133.092806849999988, 35.1775498 ], [ 133.092558309999987, 35.17760141 ] ] ] } },
{ "type": "Feature", "properties": { "A29_001": "32343", "A29_002": "島根県", "A29_003": "奥出雲町", "A29_004": 3, "A29_005": "第一種中高層住居専用地域", "A29_006": 60, "A29_007": 200, "A29_008": null }, "geometry": { "type": "Polygon", "coordinates": [ [ [ 133.10009464, 35.1792239 ], [ 133.10000102, 35.17920097 ], [ 133.099919019999987, 35.17918878 ], [ 133.09982918, 35.17918369 ], [ 133.099784199999988, 35.17918625 ], [ 133.09972498, 35.17919743 ], [ 133.09968231, 35.17920186 ], [ 133.09964523, 35.17920383 ], [ 133.09961297000001, 35.1792005 ], [ 133.099566790000011, 35.17918856 ], [ 133.09949696000001, 35.1791666 ], [ 133.09928181, 35.17909666 ], [ 133.099083150000013, 35.17901484 ], [ 133.09891954, 35.17893984 ], [ 133.098818990000012, 35.17889493 ], [ 133.09868368, 35.17884143 ], [ 133.098565549999989, 35.17880311 ], [ 133.09849073, 35.17877843 ], [ 133.09844744, 35.17876694 ], [ 133.09841473, 35.17876558 ], [ 133.098355239999989, 35.17876604 ], [ 133.09829761, 35.17875814 ], [ 133.09822748, 35.17874418 ], [ 133.098147399999988, 35.17871631 ], [ 133.098065319999989, 35.17868577 ], [ 133.09801535, 35.1786609 ], [ 133.09796859, 35.17863116 ], [ 133.09791673, 35.17857899 ], [ 133.097902438, 35.178564688 ], [ 133.09759375199999, 35.179621332 ], [ 133.09759217300001, 35.179637242 ], [ 133.09758904200001, 35.17971931 ], [ 133.097573004999987, 35.179739467 ], [ 133.097553411, 35.17975345 ], [ 133.097539594000011, 35.179764527 ], [ 133.09752476700001, 35.179788968 ], [ 133.097499322, 35.180173087 ], [ 133.09753357, 35.18017406 ], [ 133.09784238, 35.1802047 ], [ 133.097989930000011, 35.18022374 ], [ 133.098170290000013, 35.18024884 ], [ 133.09861555, 35.18030996 ], [ 133.09907264, 35.18037686 ], [ 133.09956791, 35.18047248 ], [ 133.0997519, 35.1805009 ], [ 133.099926079999989, 35.18052375 ], [ 133.10001311, 35.18052854 ], [ 133.100274539999987, 35.18053031 ], [ 133.10071596, 35.18052502 ], [ 133.10072252, 35.18051656 ], [ 133.1007219, 35.18050647 ], [ 133.100714610000011, 35.18049602 ], [ 133.10068217, 35.18047735 ], [ 133.100593730000014, 35.18043915 ], [ 133.10053366, 35.18041943 ], [ 133.100398649999988, 35.18037865 ], [ 133.100320219999986, 35.18036496 ], [ 133.100248, 35.18035606 ], [ 133.10009588, 35.18034041 ], [ 133.099957569999987, 35.18032424 ], [ 133.100079060000013, 35.17985303 ], [ 133.100201989999988, 35.17941817 ], [ 133.1002388, 35.17928061 ], [ 133.10023969, 35.17926915 ], [ 133.1002322, 35.17926374 ], [ 133.100211159999986, 35.17925738 ], [ 133.10009464, 35.1792239 ] ] ] } },
{ "type": "Feature", "properties": { "A29_001": "32343", "A29_002": "島根県", "A29_003": "奥出雲町", "A29_004": 10, "A29_005": "準工業地域", "A29_006": 60, "A29_007": 200, "A29_008": null }, "geometry": { "type": "Polygon", "coordinates": [ [ [ 133.097618759999989, 35.17839928 ], [ 133.097572163, 35.178382229 ], [ 133.097570327, 35.178352211 ], [ 133.09744781500001, 35.177992973 ], [ 133.09663394, 35.17804464 ], [ 133.09584597, 35.17809342 ], [ 133.095743809999988, 35.17829105 ], [ 133.09533729, 35.17906171 ], [ 133.09516315, 35.17939065 ], [ 133.09509028, 35.17953902 ], [ 133.095021620000011, 35.17965377 ], [ 133.094972719999987, 35.17972563 ], [ 133.09489518, 35.17980711 ], [ 133.09481292000001, 35.17987762 ], [ 133.09474935, 35.17992326 ], [ 133.09468246, 35.17996408 ], [ 133.09462453, 35.17998899 ], [ 133.0945815, 35.18000114 ], [ 133.094550943, 35.180006625 ], [ 133.094562223999986, 35.18008107 ], [ 133.09456148000001, 35.18009387 ], [ 133.094619576000014, 35.18089239 ], [ 133.09466643, 35.181340704 ], [ 133.09478779599999, 35.181366128 ], [ 133.095893929999988, 35.181736239 ], [ 133.09591219399999, 35.181684426 ], [ 133.09593462399999, 35.181581402 ], [ 133.095928074999989, 35.181325068 ], [ 133.095806527, 35.181173959 ], [ 133.095798214000013, 35.181081605 ], [ 133.09577451199999, 35.180913348 ], [ 133.09566136399999, 35.18070255 ], [ 133.095527229999988, 35.180402476 ], [ 133.095631117000011, 35.179799474 ], [ 133.09576184299999, 35.179321477 ], [ 133.09582351, 35.17930772 ], [ 133.09759375199999, 35.179621332 ], [ 133.097902438, 35.178564688 ], [ 133.09787401, 35.17853624 ], [ 133.09784758, 35.17851173 ], [ 133.09780866, 35.17848193 ], [ 133.09776395, 35.17845917 ], [ 133.097691630000014, 35.1784256 ], [ 133.097618759999989, 35.17839928 ] ] ] } },
{ "type": "Feature", "properties": { "A29_001": "32343", "A29_002": "島根県", "A29_003": "奥出雲町", "A29_004": 10, "A29_005": "準工業地域", "A29_006": 60, "A29_007": 200, "A29_008": null }, "geometry": { "type": "Polygon", "coordinates": [ [ [ 133.093347455000014, 35.181772519 ], [ 133.093404416999988, 35.181723765 ], [ 133.09344384900001, 35.181678745 ], [ 133.093511866, 35.181434505 ], [ 133.093538817, 35.18121782 ], [ 133.093536257000011, 35.1810943 ], [ 133.092202390000011, 35.18073146 ], [ 133.092135852000013, 35.180712731 ], [ 133.092061594, 35.180914896 ], [ 133.09205556399999, 35.18099794 ], [ 133.092072511, 35.181057911 ], [ 133.09213364199999, 35.181120408 ], [ 133.092612631, 35.181450643 ], [ 133.09273694699999, 35.18155177 ], [ 133.092798079, 35.181614266 ], [ 133.09294198500001, 35.181700932 ], [ 133.093066998000012, 35.181761032 ], [ 133.093144208000012, 35.181773737 ], [ 133.093227649999989, 35.181787468 ], [ 133.093347455000014, 35.181772519 ] ] ] } },
{ "type": "Feature", "properties": { "A29_001": "32343", "A29_002": "島根県", "A29_003": "奥出雲町", "A29_004": 5, "A29_005": "第一種住居地域", "A29_006": 60, "A29_007": 200, "A29_008": null }, "geometry": { "type": "Polygon", "coordinates": [ [ [ 133.097499322, 35.180173087 ], [ 133.09752476700001, 35.179788968 ], [ 133.097539594000011, 35.179764527 ], [ 133.097553411, 35.17975345 ], [ 133.097573004999987, 35.179739467 ], [ 133.09758904200001, 35.17971931 ], [ 133.09759217300001, 35.179637242 ], [ 133.09759375199999, 35.179621332 ], [ 133.09582351, 35.17930772 ], [ 133.09576184299999, 35.179321477 ], [ 133.095631117000011, 35.179799474 ], [ 133.095527229999988, 35.180402476 ], [ 133.09566136399999, 35.18070255 ], [ 133.09577451199999, 35.180913348 ], [ 133.095798214000013, 35.181081605 ], [ 133.095806527, 35.181173959 ], [ 133.095928074999989, 35.181325068 ], [ 133.09593462399999, 35.181581402 ], [ 133.09591219399999, 35.181684426 ], [ 133.095893929999988, 35.181736239 ], [ 133.09594256, 35.18175251 ], [ 133.097185389, 35.182171154 ], [ 133.09719390399999, 35.182074813 ], [ 133.09723130899999, 35.18169293 ], [ 133.097253701, 35.18142743 ], [ 133.097311752, 35.180646794 ], [ 133.097302364, 35.18059977 ], [ 133.097297505, 35.180173493 ], [ 133.0973473, 35.18016877 ], [ 133.097499322, 35.180173087 ] ] ] } },
{ "type": "Feature", "properties": { "A29_001": "32343", "A29_002": "島根県", "A29_003": "奥出雲町", "A29_004": 10, "A29_005": "準工業地域", "A29_006": 60, "A29_007": 200, "A29_008": null }, "geometry": { "type": "Polygon", "coordinates": [ [ [ 133.095819861, 35.182026484 ], [ 133.09605488299999, 35.182325468 ], [ 133.096413996, 35.18257731 ], [ 133.09637426899999, 35.183199808 ], [ 133.09641975, 35.18319816 ], [ 133.096431700000011, 35.1832142 ], [ 133.096457320000013, 35.18322368 ], [ 133.09649332, 35.18322609 ], [ 133.09659683000001, 35.18324115 ], [ 133.09665651, 35.18325467 ], [ 133.0967085, 35.18328329 ], [ 133.09676466, 35.18333339 ], [ 133.096816890000014, 35.1833811 ], [ 133.096847849999989, 35.18340076 ], [ 133.09688662, 35.18341551 ], [ 133.096936480000011, 35.18343812 ], [ 133.096996646, 35.183405577 ], [ 133.097032222, 35.183420582 ], [ 133.097041917000013, 35.183426797 ], [ 133.097077031999987, 35.183449305 ], [ 133.09709160700001, 35.183446769 ], [ 133.097159932000011, 35.18343488 ], [ 133.097217648, 35.18340127 ], [ 133.097218254000012, 35.183334934 ], [ 133.097228518, 35.183279702 ], [ 133.09724964899999, 35.183222152 ], [ 133.09725909, 35.18317438 ], [ 133.097230822, 35.18308367 ], [ 133.097230397, 35.183046408 ], [ 133.097257136, 35.183002975 ], [ 133.09730331899999, 35.182913184 ], [ 133.09734240899999, 35.182838353 ], [ 133.09737296599999, 35.182811287 ], [ 133.097447144, 35.182788358 ], [ 133.09753795, 35.182790642 ], [ 133.09758311499999, 35.182770917 ], [ 133.097664062, 35.182704708 ], [ 133.097770816, 35.182672584 ], [ 133.097792483, 35.182661983 ], [ 133.097767148, 35.182510136 ], [ 133.097746693, 35.182360745 ], [ 133.097211890000011, 35.18218008 ], [ 133.097185389, 35.182171154 ], [ 133.09594256, 35.18175251 ], [ 133.095893929999988, 35.181736239 ], [ 133.09583041499999, 35.181873775 ], [ 133.095824117, 35.18195849 ], [ 133.095819861, 35.182026484 ] ] ] } },
{ "type": "Feature", "properties": { "A29_001": "32343", "A29_002": "島根県", "A29_003": "奥出雲町", "A29_004": 5, "A29_005": "第一種住居地域", "A29_006": 60, "A29_007": 200, "A29_008": null }, "geometry": { "type": "Polygon", "coordinates": [ [ [ 133.096431700000011, 35.1832142 ], [ 133.09641975, 35.18319816 ], [ 133.09637426899999, 35.183199808 ], [ 133.096413996, 35.18257731 ], [ 133.09605488299999, 35.182325468 ], [ 133.095819861, 35.182026484 ], [ 133.095824117, 35.18195849 ], [ 133.09583041499999, 35.181873775 ], [ 133.095893929999988, 35.181736239 ], [ 133.09478779599999, 35.181366128 ], [ 133.09466643, 35.181340704 ], [ 133.094619576000014, 35.18089239 ], [ 133.09456148000001, 35.18009387 ], [ 133.094562223999986, 35.18008107 ], [ 133.094527578, 35.17985243 ], [ 133.09450991, 35.17985899 ], [ 133.094465649999989, 35.1798776 ], [ 133.094381160000012, 35.17992501 ], [ 133.094301120000011, 35.1799603 ], [ 133.09421704, 35.17998512 ], [ 133.09414912, 35.1799937 ], [ 133.094056959999989, 35.1799979 ], [ 133.093998449999987, 35.17999533 ], [ 133.093960973, 35.179253295 ], [ 133.093933802, 35.178682511 ], [ 133.0935158, 35.17870319 ], [ 133.092685139999986, 35.17874906 ], [ 133.09263175000001, 35.17859763 ], [ 133.09260799, 35.17852042 ], [ 133.092581779999989, 35.17828547 ], [ 133.092485610000011, 35.1782819 ], [ 133.09212661, 35.17828384 ], [ 133.091771990000012, 35.17826935 ], [ 133.091575694999989, 35.178260437 ], [ 133.091529052, 35.178261586 ], [ 133.09134334699999, 35.178792469 ], [ 133.09135908499999, 35.178899673 ], [ 133.091140020000012, 35.180064091 ], [ 133.09053724, 35.18011267 ], [ 133.09051746, 35.1800983 ], [ 133.090421420000013, 35.18010656 ], [ 133.09040002, 35.18012339 ], [ 133.089846542, 35.180193154 ], [ 133.0898123, 35.18019747 ], [ 133.089813213000014, 35.180194368 ], [ 133.08976558, 35.180199688 ], [ 133.089891421, 35.179770498 ], [ 133.090004775000011, 35.179403423 ], [ 133.090035046999986, 35.179306572 ], [ 133.090035298, 35.179305772 ], [ 133.090084847000014, 35.179147247 ], [ 133.090089639000013, 35.179130818 ], [ 133.09012776599999, 35.179000097 ], [ 133.09019126699999, 35.178782385 ], [ 133.090313288, 35.178364028 ], [ 133.090314011, 35.178355813 ], [ 133.090316777, 35.178343146 ], [ 133.089977800000014, 35.17829358 ], [ 133.08993287199999, 35.178288551 ], [ 133.08993575, 35.178132074 ], [ 133.08998252, 35.17813339 ], [ 133.090767779, 35.178186423 ], [ 133.09076933599999, 35.178186529 ], [ 133.090781063, 35.178114648 ], [ 133.090843358, 35.177679721 ], [ 133.090853377, 35.177592365 ], [ 133.09092295, 35.17760001 ], [ 133.09147, 35.17760001 ], [ 133.09175162, 35.17751882 ], [ 133.091744870000014, 35.17750428 ], [ 133.09172013, 35.17740008 ], [ 133.091712730000012, 35.17733343 ], [ 133.09171253, 35.17731701 ], [ 133.091705780000012, 35.17730801 ], [ 133.09169877, 35.17729987 ], [ 133.09169078, 35.17729509 ], [ 133.09168001, 35.17729306 ], [ 133.09166464, 35.17729339 ], [ 133.0916258, 35.17730074 ], [ 133.09152056, 35.17732258 ], [ 133.09143783, 35.17734257 ], [ 133.091373440000012, 35.17735401 ], [ 133.09124345, 35.17736279 ], [ 133.091268649999989, 35.1770768 ], [ 133.09120085, 35.17708258 ], [ 133.091094809999987, 35.17710201 ], [ 133.09099723, 35.17712307 ], [ 133.090916459999988, 35.17713505 ], [ 133.0908533, 35.17714226 ], [ 133.09079035, 35.1771459 ], [ 133.090759960000014, 35.17715297 ], [ 133.09074648, 35.17716108 ], [ 133.090736560000011, 35.17716726 ], [ 133.09073229, 35.17717423 ], [ 133.090728539999986, 35.17718268 ], [ 133.09071799, 35.17722243 ], [ 133.090706329999989, 35.17723262 ], [ 133.09069107, 35.17724158 ], [ 133.09065066, 35.17724588 ], [ 133.09031915, 35.17722926 ], [ 133.090321, 35.17712201 ], [ 133.09031539, 35.17710301 ], [ 133.090308060000012, 35.17708834 ], [ 133.09027687, 35.17706911 ], [ 133.090251669999986, 35.17705962 ], [ 133.09021882, 35.17705272 ], [ 133.09018601, 35.17705002 ], [ 133.09015682, 35.17705024 ], [ 133.09012974, 35.17705508 ], [ 133.09011904, 35.17705937 ], [ 133.09010333, 35.17707253 ], [ 133.09009631, 35.17708605 ], [ 133.090088830000013, 35.17712745 ], [ 133.09007971, 35.17718139 ], [ 133.090069230000012, 35.1772062 ], [ 133.09005076, 35.17722465 ], [ 133.0900363, 35.17723654 ], [ 133.0900164, 35.1772428 ], [ 133.08998624, 35.17724735 ], [ 133.089948389999989, 35.17725101 ], [ 133.089936630000011, 35.17725215 ], [ 133.08993128, 35.17725535 ], [ 133.089919329999987, 35.1772628 ], [ 133.08987668, 35.1772948 ], [ 133.08984406, 35.17730789 ], [ 133.08980607, 35.17732269 ], [ 133.089776199999989, 35.17732955 ], [ 133.089735780000012, 35.17733259 ], [ 133.08969991, 35.17732981 ], [ 133.08967425, 35.17732496 ], [ 133.08964395000001, 35.17731698 ], [ 133.089595659999986, 35.17730272 ], [ 133.089564810000013, 35.17729201 ], [ 133.089535579999989, 35.1772876 ], [ 133.08949539, 35.17728875 ], [ 133.08946391, 35.1772892 ], [ 133.08944291, 35.17728936 ], [ 133.08942932, 35.17728799 ], [ 133.08941443, 35.17728326 ], [ 133.08938243, 35.17726236 ], [ 133.08935736, 35.17724193 ], [ 133.08933778, 35.17723018 ], [ 133.08932364, 35.17722544 ], [ 133.08930643, 35.17722053 ], [ 133.089288720000013, 35.17721645 ], [ 133.089232009999989, 35.1772048 ], [ 133.08921632, 35.17719923 ], [ 133.08920086, 35.1771902 ], [ 133.089174789999987, 35.17717229 ], [ 133.08914901, 35.17715638 ], [ 133.08910377, 35.17714093 ], [ 133.08907141, 35.17713172 ], [ 133.089023160000011, 35.17712123 ], [ 133.088991639999989, 35.17711853 ], [ 133.08896604, 35.17711873 ], [ 133.088942769999989, 35.17712037 ], [ 133.08891646, 35.17712605 ], [ 133.088882719999987, 35.17713072 ], [ 133.0888321, 35.17713604 ], [ 133.08879318000001, 35.17713466 ], [ 133.08874497, 35.17712787 ], [ 133.088676209999988, 35.17711452 ], [ 133.088539559999987, 35.17707473 ], [ 133.088513830000011, 35.1770621 ], [ 133.088505559999987, 35.17705543 ], [ 133.08850240000001, 35.17704703 ], [ 133.088503339999988, 35.17703987 ], [ 133.08850869, 35.177015 ], [ 133.08851056, 35.176999 ], [ 133.0885074, 35.17699103 ], [ 133.08850111000001, 35.17697846 ], [ 133.0884871, 35.17696279 ], [ 133.088458730000013, 35.1769449 ], [ 133.08842421, 35.17692455 ], [ 133.08839077, 35.17691049 ], [ 133.08835327, 35.17689984 ], [ 133.08833379, 35.17689747 ], [ 133.08831228, 35.17689721 ], [ 133.08828159, 35.17689996 ], [ 133.08818649, 35.17682052 ], [ 133.08815343, 35.17679384 ], [ 133.08812355, 35.17677766 ], [ 133.08804837, 35.17673994 ], [ 133.08795665, 35.17668781 ], [ 133.08792624, 35.17667037 ], [ 133.08783377, 35.1766431 ], [ 133.08774227, 35.17661055 ], [ 133.0876149, 35.1765301 ], [ 133.08758610000001, 35.17651853 ], [ 133.08749849, 35.17655834 ], [ 133.08765915, 35.17673156 ], [ 133.087845750000014, 35.17688941 ], [ 133.088001240000011, 35.1770113 ], [ 133.088256840000014, 35.17720273 ], [ 133.08848163, 35.17738681 ], [ 133.088636079999986, 35.1775083 ], [ 133.088716299999987, 35.17758406 ], [ 133.088789749999989, 35.17765188 ], [ 133.08886034, 35.17773719 ], [ 133.08891451, 35.17781799 ], [ 133.088945810000013, 35.17788821 ], [ 133.0888, 35.17798001 ], [ 133.088632499, 35.178091677 ], [ 133.088607489, 35.178091988 ], [ 133.088449067999989, 35.178210952 ], [ 133.088233245, 35.178391468 ], [ 133.088116458, 35.17849968 ], [ 133.087892802, 35.17879056 ], [ 133.087760870000011, 35.17900472 ], [ 133.087729303, 35.17910334 ], [ 133.088080529, 35.179498661 ], [ 133.088251816, 35.179714987 ], [ 133.088410243999988, 35.179917995 ], [ 133.088536282, 35.180146589 ], [ 133.088586408, 35.180244588 ], [ 133.088734469, 35.180574375 ], [ 133.088768472999988, 35.180561349 ], [ 133.08897945199999, 35.180403326 ], [ 133.08899996, 35.180430446 ], [ 133.088992931, 35.181114243 ], [ 133.088962830000014, 35.181342536 ], [ 133.08893079500001, 35.181560408 ], [ 133.088852064, 35.181823355 ], [ 133.088818497, 35.181905594 ], [ 133.088940084, 35.181979373 ], [ 133.08896030299999, 35.181991642 ], [ 133.089104109, 35.18195559 ], [ 133.089190323, 35.18187295 ], [ 133.089254955, 35.181808362 ], [ 133.08937983199999, 35.181773126 ], [ 133.08949922799999, 35.181734951 ], [ 133.089648898, 35.181644374 ], [ 133.08970278699999, 35.181593283 ], [ 133.089738286999989, 35.181521463 ], [ 133.08980826199999, 35.18144789 ], [ 133.089969093, 35.181381077 ], [ 133.090101213999986, 35.181344296 ], [ 133.09026197599999, 35.181271521 ], [ 133.090328489, 35.18121288 ], [ 133.090383738000014, 35.181121531 ], [ 133.090422733, 35.18103776 ], [ 133.090492758000011, 35.180968658 ], [ 133.090581409, 35.18094115 ], [ 133.09062582199999, 35.180940458 ], [ 133.09069395, 35.18091853 ], [ 133.09080842, 35.18085899 ], [ 133.09090795, 35.18079304 ], [ 133.09102544000001, 35.18068386 ], [ 133.091091119999987, 35.18061039 ], [ 133.091129740000014, 35.18058654 ], [ 133.0911908, 35.18055537 ], [ 133.091230520000011, 35.18053867 ], [ 133.091273300000012, 35.18052153 ], [ 133.0913193, 35.18051613 ], [ 133.09140893, 35.18052261 ], [ 133.091470429999987, 35.18053055 ], [ 133.09155153, 35.18055265 ], [ 133.091703419999988, 35.18059101 ], [ 133.092135852000013, 35.180712731 ], [ 133.092202390000011, 35.18073146 ], [ 133.093536257000011, 35.1810943 ], [ 133.093538817, 35.18121782 ], [ 133.093511866, 35.181434505 ], [ 133.09344384900001, 35.181678745 ], [ 133.09349598, 35.18169749 ], [ 133.09350966400001, 35.181701828 ], [ 133.093486737, 35.181778287 ], [ 133.093473906000014, 35.181927446 ], [ 133.09355373, 35.18196507 ], [ 133.093629641, 35.181979257 ], [ 133.093724536, 35.181934472 ], [ 133.093822214, 35.181902421 ], [ 133.093892626000013, 35.181867598 ], [ 133.093889053, 35.182117583 ], [ 133.09387473000001, 35.182263176 ], [ 133.093833641, 35.18235412 ], [ 133.093761741, 35.182417872 ], [ 133.093616993000012, 35.18246191 ], [ 133.09349814399999, 35.182484284 ], [ 133.09342594200001, 35.182538578 ], [ 133.09349795599999, 35.182766474 ], [ 133.09354439, 35.182769293 ], [ 133.09354657, 35.18277655 ], [ 133.09361907499999, 35.182789372 ], [ 133.09391236799999, 35.18277208 ], [ 133.094091286, 35.18273361 ], [ 133.094117926, 35.182710882 ], [ 133.094121097999988, 35.182640964 ], [ 133.094135845000011, 35.182500734 ], [ 133.094211179000013, 35.182419665 ], [ 133.094271768999988, 35.182393516 ], [ 133.094289984, 35.182395617 ], [ 133.094341579, 35.182401567 ], [ 133.094387176999987, 35.18242626 ], [ 133.094422473, 35.182464626 ], [ 133.09443969599999, 35.182523165 ], [ 133.094458378000013, 35.18255665 ], [ 133.094513619, 35.182586277 ], [ 133.09457275, 35.18260066 ], [ 133.09459637, 35.18260763 ], [ 133.09463663, 35.18261573 ], [ 133.094679180000014, 35.18262245 ], [ 133.094743200000011, 35.18262617 ], [ 133.09478648000001, 35.1826289 ], [ 133.09484181, 35.18263499 ], [ 133.094895619999988, 35.18264109 ], [ 133.09494179, 35.18265042 ], [ 133.09503447, 35.18267653 ], [ 133.09507068, 35.18268824 ], [ 133.095087608999989, 35.18269465 ], [ 133.09508903299999, 35.182819874 ], [ 133.095015123, 35.183026144 ], [ 133.09496478299999, 35.183124746 ], [ 133.094923262, 35.183250439 ], [ 133.09490853299999, 35.18339216 ], [ 133.094952584999987, 35.183406028 ], [ 133.09500309500001, 35.183402779 ], [ 133.095019326999989, 35.183395782 ], [ 133.095080155, 35.183361364 ], [ 133.09511464799999, 35.18331605 ], [ 133.09518782699999, 35.183205184 ], [ 133.09521781399999, 35.183197306 ], [ 133.095251061, 35.18316238 ], [ 133.09528310799999, 35.183059877 ], [ 133.09531450599999, 35.18297399 ], [ 133.095345904, 35.182888103 ], [ 133.095412267, 35.182824849 ], [ 133.09553099199999, 35.182807541 ], [ 133.095550331, 35.1828247 ], [ 133.095612611, 35.182879955 ], [ 133.095686187000013, 35.183043357 ], [ 133.095702741999986, 35.183048594 ], [ 133.095764972000012, 35.183106104 ], [ 133.095839829999989, 35.183142795 ], [ 133.09586415199999, 35.183145102 ], [ 133.095897992, 35.183148311 ], [ 133.095899753999987, 35.183158376 ], [ 133.095908673, 35.183209344 ], [ 133.095909148, 35.183251077 ], [ 133.095878574000011, 35.183276652 ], [ 133.09587098899999, 35.183286475 ], [ 133.095812274999986, 35.183274179 ], [ 133.095749328000011, 35.183326834 ], [ 133.095721621, 35.183365057 ], [ 133.09564734, 35.183538537 ], [ 133.095655534, 35.183620457 ], [ 133.09570557, 35.18364807 ], [ 133.09573189, 35.18366576 ], [ 133.095893139999987, 35.18373445 ], [ 133.0960427, 35.183792952 ], [ 133.096133205, 35.183794174 ], [ 133.09616620599999, 35.183742495 ], [ 133.096155067000012, 35.18364122 ], [ 133.096171448, 35.183565073 ], [ 133.096190519, 35.183485924 ], [ 133.096183359, 35.183415175 ], [ 133.096130837, 35.183347011 ], [ 133.096098141999988, 35.183266024 ], [ 133.096104489999988, 35.183230204 ], [ 133.096192917, 35.183041006 ], [ 133.096238661, 35.183169546 ], [ 133.096287654, 35.183326429 ], [ 133.096314395, 35.183601986 ], [ 133.096394479999987, 35.183778753 ], [ 133.096501440999987, 35.183924012 ], [ 133.096664427, 35.184046481 ], [ 133.096679173000012, 35.18422524 ], [ 133.09659157499999, 35.184504656 ], [ 133.096524267, 35.184652743 ], [ 133.096496798, 35.18479158 ], [ 133.096501007, 35.184842228 ], [ 133.096552652000014, 35.184817901 ], [ 133.096603945999988, 35.184793739 ], [ 133.09673544099999, 35.184701802 ], [ 133.09686827499999, 35.184568118 ], [ 133.09691064099999, 35.184461959 ], [ 133.097008641, 35.18429873 ], [ 133.097213669000013, 35.184127226 ], [ 133.097229405, 35.184074189 ], [ 133.097192669, 35.183957458 ], [ 133.09717658299999, 35.183900194 ], [ 133.09712059, 35.183766469 ], [ 133.09706789, 35.183682655 ], [ 133.096996322, 35.183616127 ], [ 133.096989916000012, 35.183531957 ], [ 133.096968537, 35.183488149 ], [ 133.096936480000011, 35.18343812 ], [ 133.09688662, 35.18341551 ], [ 133.096847849999989, 35.18340076 ], [ 133.096816890000014, 35.1833811 ], [ 133.09676466, 35.18333339 ], [ 133.0967085, 35.18328329 ], [ 133.09665651, 35.18325467 ], [ 133.09659683000001, 35.18324115 ], [ 133.09649332, 35.18322609 ], [ 133.096457320000013, 35.18322368 ], [ 133.096431700000011, 35.1832142 ] ] ] } }
]
}
