{
"type": "FeatureCollection",
"name": "A29-19_43211",
"features": [
{ "type": "Feature", "properties": { "A29_001": "43211", "A29_002": "熊本県", "A29_003": "宇土市", "A29_004": 5, "A29_005": "第一種住居地域", "A29_006": 60, "A29_007": 200, "A29_008": null }, "geometry": { "type": "Polygon", "coordinates": [ [ [ 130.66448285199999, 32.681607308 ], [ 130.66447165, 32.681528875 ], [ 130.664623576, 32.681253699 ], [ 130.664380474000012, 32.681318952 ], [ 130.664140932, 32.681438649 ], [ 130.66399555000001, 32.681585948 ], [ 130.663711941, 32.681809459 ], [ 130.661144701000012, 32.679838101 ], [ 130.661419556, 32.67957235 ], [ 130.660815402999987, 32.679137887 ], [ 130.661715628, 32.678209301 ], [ 130.662531413000011, 32.677431552 ], [ 130.661722594999986, 32.676869974 ], [ 130.661123667999988, 32.677399766 ], [ 130.661385669999987, 32.677619071 ], [ 130.66096413299999, 32.678047977 ], [ 130.66110465700001, 32.678150658 ], [ 130.660234543, 32.679083474 ], [ 130.659041390999988, 32.678209448 ], [ 130.65843963899999, 32.677751795 ], [ 130.658285994000011, 32.677634944 ], [ 130.657681714, 32.677182484 ], [ 130.657446193, 32.676975508 ], [ 130.65713915, 32.676812515 ], [ 130.656753204000012, 32.67666057 ], [ 130.65637965799999, 32.67715225 ], [ 130.656708689999988, 32.677278573 ], [ 130.657508438, 32.677856824 ], [ 130.659847095, 32.679687117 ], [ 130.660077226999988, 32.679492942 ], [ 130.660324621, 32.679660624 ], [ 130.660717102, 32.679949203 ], [ 130.660470237, 32.680161244 ], [ 130.662921936, 32.68205777 ], [ 130.662450272, 32.682502482 ], [ 130.662728676, 32.682757522 ], [ 130.663207250999989, 32.682278469 ], [ 130.663407948000014, 32.68207942 ], [ 130.66397326500001, 32.682535838 ], [ 130.663752124000013, 32.682750117 ], [ 130.664283863, 32.683223191 ], [ 130.664438001, 32.682746873 ], [ 130.664487414, 32.682661108 ], [ 130.664650219, 32.682582804 ], [ 130.664713174000013, 32.682497075 ], [ 130.664655982, 32.682399572 ], [ 130.664475707, 32.682170031 ], [ 130.664530189, 32.681935868 ], [ 130.664559959, 32.681821418 ], [ 130.664564944, 32.681739546 ], [ 130.66448285199999, 32.681607308 ] ] ] } },
{ "type": "Feature", "properties": { "A29_001": "43211", "A29_002": "熊本県", "A29_003": "宇土市", "A29_004": 5, "A29_005": "第一種住居地域", "A29_006": 60, "A29_007": 200, "A29_008": null }, "geometry": { "type": "Polygon", "coordinates": [ [ [ 130.673461350999986, 32.677932189 ], [ 130.673570508000012, 32.677987971 ], [ 130.673995837, 32.678306612 ], [ 130.67431569199999, 32.678560237 ], [ 130.67437016, 32.678615867 ], [ 130.674973095000013, 32.679215509 ], [ 130.675060362000011, 32.679274307 ], [ 130.67513306399999, 32.679329984 ], [ 130.675177931, 32.679021817 ], [ 130.675225094000012, 32.679083596 ], [ 130.675323112, 32.679194835 ], [ 130.67536283699999, 32.67929667 ], [ 130.675435539, 32.679352347 ], [ 130.675519114999986, 32.679426556 ], [ 130.675580989, 32.679451381 ], [ 130.676477976, 32.679379712 ], [ 130.67653286699999, 32.679321273 ], [ 130.676565799, 32.679287449 ], [ 130.67661693299999, 32.679256757 ], [ 130.67665355599999, 32.679210607 ], [ 130.676686622, 32.679139783 ], [ 130.676701431, 32.679075081 ], [ 130.676698018, 32.679010331 ], [ 130.676778203, 32.679013622 ], [ 130.676913101999986, 32.679004726 ], [ 130.677007952, 32.678986474 ], [ 130.677128352000011, 32.678955951 ], [ 130.677245027999987, 32.678947008 ], [ 130.67735068499999, 32.678962691 ], [ 130.677539997999986, 32.679027919 ], [ 130.67758005799999, 32.679037265 ], [ 130.677773327000011, 32.679019266 ], [ 130.677900921, 32.679016518 ], [ 130.678010468999986, 32.678961302 ], [ 130.678156573, 32.67887844 ], [ 130.67824062599999, 32.678820083 ], [ 130.67826637499999, 32.678755408 ], [ 130.678248539, 32.678647461 ], [ 130.678219917, 32.678496326 ], [ 130.67820957399999, 32.678329826 ], [ 130.67822063599999, 32.678295946 ], [ 130.678287184, 32.67803407 ], [ 130.678265646, 32.677941534 ], [ 130.678240539, 32.6778274 ], [ 130.678277271000013, 32.677750426 ], [ 130.678332160999986, 32.67768891 ], [ 130.67847106799999, 32.677581365 ], [ 130.678533339000012, 32.677495203 ], [ 130.678588658, 32.677316544 ], [ 130.678647590999987, 32.677147137 ], [ 130.677698477, 32.67703461 ], [ 130.677451233, 32.676923052 ], [ 130.676577019, 32.676970094 ], [ 130.676241618, 32.677067824 ], [ 130.67526546799999, 32.677102276 ], [ 130.674856494000011, 32.67753486 ], [ 130.674001277, 32.677742681 ], [ 130.673733564, 32.67773918 ], [ 130.67368691199999, 32.677663506 ], [ 130.673607307, 32.677544882 ], [ 130.673537352000011, 32.677344337 ], [ 130.67358187799999, 32.677095824 ], [ 130.67364753699999, 32.676979346 ], [ 130.671994143, 32.676208138 ], [ 130.672206577, 32.67595457 ], [ 130.671904834, 32.675879033 ], [ 130.671606372000014, 32.675853425 ], [ 130.671611848, 32.675673926 ], [ 130.671123583999986, 32.675620856 ], [ 130.671188902000011, 32.675537006 ], [ 130.670943972, 32.675358762 ], [ 130.670509321999987, 32.675050168 ], [ 130.670278816, 32.675068004 ], [ 130.67025920099999, 32.675641701 ], [ 130.67083506, 32.675976124 ], [ 130.670782057999986, 32.676051277 ], [ 130.671618345000013, 32.676634828 ], [ 130.67155575699999, 32.676712571 ], [ 130.673461350999986, 32.677932189 ] ] ] } },
{ "type": "Feature", "properties": { "A29_001": "43211", "A29_002": "熊本県", "A29_003": "宇土市", "A29_004": 11, "A29_005": "工業地域", "A29_006": 60, "A29_007": 200, "A29_008": null }, "geometry": { "type": "Polygon", "coordinates": [ [ [ 130.66581236799999, 32.678322039 ], [ 130.666052301, 32.679475656 ], [ 130.66643810799999, 32.681399425 ], [ 130.66645314199999, 32.681474414 ], [ 130.667866479, 32.681359008 ], [ 130.667961939, 32.681315162 ], [ 130.669657056, 32.681163543 ], [ 130.669746709, 32.68122842 ], [ 130.669704008, 32.681090665 ], [ 130.66965590800001, 32.680878668 ], [ 130.669634843000011, 32.680659726 ], [ 130.669643511, 32.680283641 ], [ 130.66966202899999, 32.680206621 ], [ 130.669616265, 32.679762568 ], [ 130.669517559000013, 32.678849788 ], [ 130.670106546, 32.678277932 ], [ 130.67033709899999, 32.678028828 ], [ 130.670871318, 32.677475321 ], [ 130.67123356799999, 32.677100163 ], [ 130.67155575699999, 32.676712571 ], [ 130.671618345000013, 32.676634828 ], [ 130.670782057999986, 32.676051277 ], [ 130.67083506, 32.675976124 ], [ 130.67025920099999, 32.675641701 ], [ 130.669785103, 32.67536699 ], [ 130.66962480399999, 32.675455659 ], [ 130.669645636000013, 32.675027984 ], [ 130.669487951, 32.674962012 ], [ 130.66922279, 32.674851073 ], [ 130.66926534000001, 32.674750805 ], [ 130.66934482, 32.67464645 ], [ 130.66915519599999, 32.67459158 ], [ 130.668807837, 32.674410816 ], [ 130.668412877, 32.674271751 ], [ 130.668323515999987, 32.674196232 ], [ 130.668239639, 32.674062173 ], [ 130.667875667, 32.674098852 ], [ 130.667674602, 32.674286536 ], [ 130.667288008000014, 32.674733033 ], [ 130.666721427, 32.675371443 ], [ 130.666250569999988, 32.675788432 ], [ 130.665467207, 32.676576826 ], [ 130.66581236799999, 32.678322039 ] ] ] } },
{ "type": "Feature", "properties": { "A29_001": "43211", "A29_002": "熊本県", "A29_003": "宇土市", "A29_004": 3, "A29_005": "第一種中高層住居専用地域", "A29_006": 60, "A29_007": 200, "A29_008": null }, "geometry": { "type": "Polygon", "coordinates": [ [ [ 130.665152095, 32.688228543 ], [ 130.66543002099999, 32.687998071 ], [ 130.665546962, 32.687921305 ], [ 130.66563839599999, 32.687841396 ], [ 130.665744487000012, 32.687743031 ], [ 130.665828728, 32.687638438 ], [ 130.6658947, 32.687543049 ], [ 130.666027181, 32.687210446 ], [ 130.666053377, 32.687028631 ], [ 130.666086766, 32.685891146 ], [ 130.66610202199999, 32.685620175 ], [ 130.665864838, 32.685467869 ], [ 130.665620550999989, 32.685304424 ], [ 130.66552418, 32.687027113 ], [ 130.665500533, 32.687165639 ], [ 130.665383662000011, 32.687455312 ], [ 130.664729749, 32.68794653 ], [ 130.664827008, 32.688014452 ], [ 130.664905798, 32.688130653 ], [ 130.66494390299999, 32.688335879 ], [ 130.665152095, 32.688228543 ] ] ] } },
{ "type": "Feature", "properties": { "A29_001": "43211", "A29_002": "熊本県", "A29_003": "宇土市", "A29_004": 5, "A29_005": "第一種住居地域", "A29_006": 60, "A29_007": 200, "A29_008": null }, "geometry": { "type": "Polygon", "coordinates": [ [ [ 130.667609434000013, 32.69535867 ], [ 130.66765196099999, 32.69538436 ], [ 130.667777398, 32.695492971 ], [ 130.667876124, 32.69557913 ], [ 130.667980699999987, 32.695686062 ], [ 130.668063386999989, 32.69576001 ], [ 130.668157893, 32.695827784 ], [ 130.668575491000013, 32.696065042 ], [ 130.668817925000013, 32.696206998 ], [ 130.668871865, 32.696271564 ], [ 130.668894069, 32.696295721 ], [ 130.66920348799999, 32.696255717 ], [ 130.669139152000014, 32.695990558 ], [ 130.669092087, 32.695710004 ], [ 130.668584388999989, 32.69443996 ], [ 130.666827441, 32.694770825 ], [ 130.666783372, 32.69478407 ], [ 130.666774417, 32.694764004 ], [ 130.66644824299999, 32.694856142 ], [ 130.66606424599999, 32.694972324 ], [ 130.665798822999989, 32.695322364 ], [ 130.66583873799999, 32.695325139 ], [ 130.66630417499999, 32.695330867 ], [ 130.667396172, 32.695340926 ], [ 130.66755023799999, 32.69534205 ], [ 130.667609434000013, 32.69535867 ] ] ] } },
{ "type": "Feature", "properties": { "A29_001": "43211", "A29_002": "熊本県", "A29_003": "宇土市", "A29_004": 3, "A29_005": "第一種中高層住居専用地域", "A29_006": 60, "A29_007": 200, "A29_008": null }, "geometry": { "type": "Polygon", "coordinates": [ [ [ 130.65318801699999, 32.685994224 ], [ 130.653135459999987, 32.686087134 ], [ 130.652968034, 32.686407592 ], [ 130.65244988500001, 32.686438369 ], [ 130.652281491999986, 32.68664334 ], [ 130.652144732000011, 32.686767512 ], [ 130.651945721, 32.687009619 ], [ 130.651856427000013, 32.687116743 ], [ 130.65165435, 32.687421594 ], [ 130.651556836, 32.687538239 ], [ 130.651368787, 32.6877181 ], [ 130.651181912999988, 32.687885557 ], [ 130.651113989, 32.687989745 ], [ 130.652205321, 32.688590871 ], [ 130.65212449399999, 32.688750961 ], [ 130.652029257, 32.68886785 ], [ 130.651977859999988, 32.688960188 ], [ 130.651749759000012, 32.689216217 ], [ 130.652326654, 32.689574328 ], [ 130.65239553, 32.689616281 ], [ 130.652462566999986, 32.689586212 ], [ 130.652877303, 32.688991204 ], [ 130.652743902999987, 32.688914154 ], [ 130.653117302, 32.688458964 ], [ 130.653501264, 32.688020512 ], [ 130.653993641999989, 32.687444743 ], [ 130.654119185000013, 32.687526341 ], [ 130.65574814199999, 32.685924111 ], [ 130.656620393, 32.685069452 ], [ 130.657401025000013, 32.684304555 ], [ 130.656070492, 32.683356409 ], [ 130.656447144999987, 32.682969589 ], [ 130.656010608, 32.6826186 ], [ 130.655958706, 32.682615595 ], [ 130.655664269, 32.6825852 ], [ 130.655431023, 32.682490073 ], [ 130.65541472000001, 32.682511407 ], [ 130.654609497, 32.683646472 ], [ 130.653699675000013, 32.684939579 ], [ 130.653594032, 32.685116809 ], [ 130.65357498, 32.685228422 ], [ 130.653608318000011, 32.685363086 ], [ 130.653552788000013, 32.685495358 ], [ 130.653481953000011, 32.685645482 ], [ 130.653425808, 32.685790875 ], [ 130.653371951999986, 32.685855149 ], [ 130.653229094000011, 32.685951389 ], [ 130.65318801699999, 32.685994224 ] ] ] } },
{ "type": "Feature", "properties": { "A29_001": "43211", "A29_002": "熊本県", "A29_003": "宇土市", "A29_004": 1, "A29_005": "第一種低層住居専用地域", "A29_006": 40, "A29_007": 80, "A29_008": null }, "geometry": { "type": "Polygon", "coordinates": [ [ [ 130.650922465, 32.680369495 ], [ 130.651214105, 32.680536374 ], [ 130.651159573, 32.680629755 ], [ 130.651614654000014, 32.680847671 ], [ 130.65152755599999, 32.680999069 ], [ 130.651702594, 32.681076551 ], [ 130.65156566600001, 32.681256978 ], [ 130.651491940999989, 32.681352215 ], [ 130.651393251, 32.681482695 ], [ 130.651345501, 32.681573232 ], [ 130.651270387000011, 32.681735273 ], [ 130.651204398, 32.681872526 ], [ 130.651135038, 32.682005951 ], [ 130.65107261899999, 32.682095492 ], [ 130.651005794000014, 32.682157343 ], [ 130.650902769999988, 32.682241045 ], [ 130.650805408, 32.68231999 ], [ 130.650617485999987, 32.68246931 ], [ 130.650472423, 32.682625429 ], [ 130.650379461999989, 32.682733019 ], [ 130.650163982, 32.683039501 ], [ 130.650009966, 32.683284236 ], [ 130.650038582, 32.683307011 ], [ 130.652090216, 32.68442871 ], [ 130.65244690899999, 32.684571508 ], [ 130.651799213, 32.685467129 ], [ 130.652063755, 32.685612428 ], [ 130.652166497, 32.685440072 ], [ 130.653185374, 32.685917657 ], [ 130.653229094000011, 32.685951389 ], [ 130.653371951999986, 32.685855149 ], [ 130.653425808, 32.685790875 ], [ 130.653481953000011, 32.685645482 ], [ 130.653552788000013, 32.685495358 ], [ 130.653608318000011, 32.685363086 ], [ 130.65357498, 32.685228422 ], [ 130.653594032, 32.685116809 ], [ 130.653699675000013, 32.684939579 ], [ 130.653773314, 32.68483492 ], [ 130.654609497, 32.683646472 ], [ 130.655431023, 32.682490073 ], [ 130.655185941000013, 32.682362103 ], [ 130.655043532, 32.682260654 ], [ 130.654980324, 32.682229182 ], [ 130.653640781, 32.681619675 ], [ 130.653209371, 32.681406603 ], [ 130.65272799600001, 32.680982466 ], [ 130.652124076, 32.680439641 ], [ 130.651875477, 32.680231844 ], [ 130.651777474, 32.68018576 ], [ 130.651232171, 32.679953277 ], [ 130.650922465, 32.680369495 ] ] ] } },
{ "type": "Feature", "properties": { "A29_001": "43211", "A29_002": "熊本県", "A29_003": "宇土市", "A29_004": 3, "A29_005": "第一種中高層住居専用地域", "A29_006": 60, "A29_007": 200, "A29_008": null }, "geometry": { "type": "Polygon", "coordinates": [ [ [ 130.65641827499999, 32.676551761 ], [ 130.65486699499999, 32.676155984 ], [ 130.652647519999988, 32.676060454 ], [ 130.65199926, 32.675916849 ], [ 130.651461073, 32.677822349 ], [ 130.651143248000011, 32.677762001 ], [ 130.65080956, 32.678157825 ], [ 130.65078589699999, 32.67819842 ], [ 130.650655394000012, 32.67809498 ], [ 130.650467152, 32.6780391 ], [ 130.649879712, 32.677908616 ], [ 130.64964527399999, 32.677834472 ], [ 130.649363666999989, 32.677701976 ], [ 130.64912706699999, 32.677603964 ], [ 130.648716863, 32.6774587 ], [ 130.64832956699999, 32.677227602 ], [ 130.64753459799999, 32.676783477 ], [ 130.647148235, 32.677464797 ], [ 130.64902199299999, 32.678212587 ], [ 130.649350886, 32.678373848 ], [ 130.649520912000014, 32.678470719 ], [ 130.649565813, 32.678531926 ], [ 130.649591421999986, 32.678620758 ], [ 130.649593216999989, 32.678739111 ], [ 130.649570237, 32.678844032 ], [ 130.649547186, 32.678967087 ], [ 130.64955544599999, 32.67904046 ], [ 130.649632247999989, 32.679073205 ], [ 130.650389741999987, 32.679370291 ], [ 130.65066122799999, 32.679495121 ], [ 130.65077494, 32.679564156 ], [ 130.650837891, 32.679627322 ], [ 130.65100524499999, 32.67954189 ], [ 130.65121177099999, 32.679712666 ], [ 130.651243701999988, 32.679744889 ], [ 130.651118274, 32.679905041 ], [ 130.651179767, 32.67993464 ], [ 130.651232171, 32.679953277 ], [ 130.651777474, 32.68018576 ], [ 130.651875477, 32.680231844 ], [ 130.652124076, 32.680439641 ], [ 130.652438655999987, 32.680722398 ], [ 130.652798929999989, 32.681044966 ], [ 130.653209371, 32.681406603 ], [ 130.653640781, 32.681619675 ], [ 130.654980324, 32.682229182 ], [ 130.655043532, 32.682260654 ], [ 130.655088589, 32.682182941 ], [ 130.655166968, 32.682050493 ], [ 130.655359091, 32.681686435 ], [ 130.655546527000013, 32.681367221 ], [ 130.65565182099999, 32.68127875 ], [ 130.655707428, 32.681059688 ], [ 130.655738801000012, 32.681049194 ], [ 130.656015227000012, 32.680980061 ], [ 130.656235396, 32.680952986 ], [ 130.65647790700001, 32.680943362 ], [ 130.656473651999988, 32.680609204 ], [ 130.656473908, 32.680542255 ], [ 130.656510032, 32.680345336 ], [ 130.656527632, 32.680151649 ], [ 130.65652019800001, 32.68004067 ], [ 130.656486454, 32.679947376 ], [ 130.65642601, 32.679859618 ], [ 130.65634816799999, 32.679753939 ], [ 130.656302962000012, 32.679635381 ], [ 130.656298733, 32.679447685 ], [ 130.656310832, 32.679301301 ], [ 130.656452416, 32.6787916 ], [ 130.656453492, 32.67866654 ], [ 130.656453684000013, 32.678616518 ], [ 130.656484989, 32.67849697 ], [ 130.656720544, 32.67808217 ], [ 130.65673894, 32.677975645 ], [ 130.656726493, 32.677912304 ], [ 130.656703419, 32.677853741 ], [ 130.656670302, 32.677803031 ], [ 130.656633195000012, 32.677761095 ], [ 130.65657252299999, 32.677699696 ], [ 130.656362481, 32.677533622 ], [ 130.65629525, 32.677500702 ], [ 130.656147815, 32.677453016 ], [ 130.65637965799999, 32.67715225 ], [ 130.656753204000012, 32.67666057 ], [ 130.65641827499999, 32.676551761 ] ] ] } },
{ "type": "Feature", "properties": { "A29_001": "43211", "A29_002": "熊本県", "A29_003": "宇土市", "A29_004": 3, "A29_005": "第一種中高層住居専用地域", "A29_006": 60, "A29_007": 200, "A29_008": null }, "geometry": { "type": "Polygon", "coordinates": [ [ [ 130.658910209, 32.67593275 ], [ 130.658699587, 32.675725628 ], [ 130.658517905999986, 32.675574072 ], [ 130.65844908599999, 32.675459824 ], [ 130.658293109999988, 32.675259009 ], [ 130.658173225000013, 32.675153874 ], [ 130.658082373000013, 32.675082717 ], [ 130.65794066699999, 32.674965186 ], [ 130.65744716899999, 32.675336855 ], [ 130.65675208, 32.67600085 ], [ 130.656864883, 32.676050478 ], [ 130.656908479, 32.676090673 ], [ 130.656553773000013, 32.676385658 ], [ 130.656753204000012, 32.67666057 ], [ 130.65713915, 32.676812515 ], [ 130.657446193, 32.676975508 ], [ 130.657681714, 32.677182484 ], [ 130.659002874, 32.676006987 ], [ 130.658910209, 32.67593275 ] ] ] } },
{ "type": "Feature", "properties": { "A29_001": "43211", "A29_002": "熊本県", "A29_003": "宇土市", "A29_004": 8, "A29_005": "近隣商業地域", "A29_006": 80, "A29_007": 200, "A29_008": null }, "geometry": { "type": "Polygon", "coordinates": [ [ [ 130.667092206, 32.684726195 ], [ 130.66800623, 32.685366005 ], [ 130.66854425599999, 32.684784779 ], [ 130.669397319000012, 32.68535945 ], [ 130.670117870000013, 32.684628605 ], [ 130.669964913, 32.683089882 ], [ 130.66981685499999, 32.681717628 ], [ 130.669798676999989, 32.681705243 ], [ 130.669760085, 32.681323028 ], [ 130.669746709, 32.68122842 ], [ 130.669657056, 32.681163543 ], [ 130.667961939, 32.681315162 ], [ 130.667866479, 32.681359008 ], [ 130.66645314199999, 32.681474414 ], [ 130.666923787, 32.683908991 ], [ 130.667002692000011, 32.684663534 ], [ 130.667092206, 32.684726195 ] ] ] } },
{ "type": "Feature", "properties": { "A29_001": "43211", "A29_002": "熊本県", "A29_003": "宇土市", "A29_004": 1, "A29_005": "第一種低層住居専用地域", "A29_006": 40, "A29_007": 80, "A29_008": null }, "geometry": { "type": "Polygon", "coordinates": [ [ [ 130.666102387, 32.685613738 ], [ 130.66627045300001, 32.685512452 ], [ 130.666442372, 32.685355679 ], [ 130.667002692000011, 32.684663534 ], [ 130.666923787, 32.683908991 ], [ 130.66638756399999, 32.684517034 ], [ 130.665973731, 32.684246347 ], [ 130.66590969, 32.684265015 ], [ 130.665294851999988, 32.685036916 ], [ 130.665331931999987, 32.685079078 ], [ 130.665620550999989, 32.685304424 ], [ 130.665864838, 32.685467869 ], [ 130.66610202199999, 32.685620175 ], [ 130.666102387, 32.685613738 ] ] ] } },
{ "type": "Feature", "properties": { "A29_001": "43211", "A29_002": "熊本県", "A29_003": "宇土市", "A29_004": 1, "A29_005": "第一種低層住居専用地域", "A29_006": 50, "A29_007": 100, "A29_008": null }, "geometry": { "type": "Polygon", "coordinates": [ [ [ 130.660899163000011, 32.676261836 ], [ 130.660848235, 32.676237034 ], [ 130.66077900499999, 32.676227603 ], [ 130.660662378000012, 32.676224204 ], [ 130.660549444999987, 32.676208486 ], [ 130.66046574399999, 32.676171259 ], [ 130.660403992999989, 32.676115603 ], [ 130.659654698999987, 32.676656146 ], [ 130.658285994000011, 32.677634944 ], [ 130.65843963899999, 32.677751795 ], [ 130.658575934, 32.677717753 ], [ 130.658725210999989, 32.677704975 ], [ 130.659103804000011, 32.677722958 ], [ 130.659406589000014, 32.677759591 ], [ 130.659644742000012, 32.677805463 ], [ 130.659842821000012, 32.677849341 ], [ 130.66017011, 32.677886029 ], [ 130.660479159, 32.677935428 ], [ 130.66096413299999, 32.678047977 ], [ 130.661385669999987, 32.677619071 ], [ 130.661123667999988, 32.677399766 ], [ 130.661722594999986, 32.676869974 ], [ 130.660899163000011, 32.676261836 ] ] ] } },
{ "type": "Feature", "properties": { "A29_001": "43211", "A29_002": "熊本県", "A29_003": "宇土市", "A29_004": 9, "A29_005": "商業地域", "A29_006": 80, "A29_007": 400, "A29_008": null }, "geometry": { "type": "Polygon", "coordinates": [ [ [ 130.664736355, 32.688720684 ], [ 130.66480578, 32.68867771 ], [ 130.664864343, 32.68861621 ], [ 130.664915818999987, 32.688499202 ], [ 130.664941684000013, 32.688406782 ], [ 130.664945596, 32.688335884 ], [ 130.664907491, 32.688130657 ], [ 130.664828701, 32.688014457 ], [ 130.664729749, 32.68794653 ], [ 130.664553332, 32.687863895 ], [ 130.664537919, 32.687836195 ], [ 130.66454186499999, 32.687670544 ], [ 130.664464697, 32.687573682 ], [ 130.66443702399999, 32.687557541 ], [ 130.664330148, 32.687539234 ], [ 130.664219718, 32.687494684 ], [ 130.664186816000012, 32.687465248 ], [ 130.664160685000013, 32.68743583 ], [ 130.664144803999989, 32.687382101 ], [ 130.664144091, 32.687346309 ], [ 130.664154348000011, 32.687319851 ], [ 130.664171162, 32.687296972 ], [ 130.664167494999987, 32.687195905 ], [ 130.663796937, 32.686880768 ], [ 130.663741929, 32.686924124 ], [ 130.663685982, 32.686879533 ], [ 130.66347264, 32.686486729 ], [ 130.663366180999986, 32.686367315 ], [ 130.663447350000013, 32.686235085 ], [ 130.663320309, 32.686141642 ], [ 130.662958632, 32.686007952 ], [ 130.66276142800001, 32.685975723 ], [ 130.66269880199999, 32.686023098 ], [ 130.662374529, 32.685755012 ], [ 130.66268304799999, 32.685467559 ], [ 130.658621184999987, 32.682311363 ], [ 130.658842085, 32.682092449 ], [ 130.658378373, 32.681753116 ], [ 130.65832230800001, 32.681648732 ], [ 130.658090558999987, 32.681509142 ], [ 130.65803713599999, 32.681492024 ], [ 130.65799037299999, 32.681529493 ], [ 130.65768219, 32.681395492 ], [ 130.657015671000011, 32.682046886 ], [ 130.656793556, 32.682207368 ], [ 130.656616957000011, 32.682438893 ], [ 130.656842610000012, 32.682588849 ], [ 130.65725627, 32.682906793 ], [ 130.658399836, 32.683770506 ], [ 130.659453047999989, 32.684564361 ], [ 130.66047226, 32.685332775 ], [ 130.66112948899999, 32.685828218 ], [ 130.661214172, 32.685751667 ], [ 130.66142838499999, 32.685950255 ], [ 130.661549377999989, 32.685955965 ], [ 130.661872966, 32.686221464 ], [ 130.661890039000014, 32.686235443 ], [ 130.661728498, 32.686366509 ], [ 130.661849192, 32.686451694 ], [ 130.661887532, 32.686416771 ], [ 130.662240333999989, 32.686602258 ], [ 130.662837741, 32.687382773 ], [ 130.662566282, 32.687460545 ], [ 130.663025849, 32.687921079 ], [ 130.664033139, 32.689083701 ], [ 130.664325983, 32.688997487 ], [ 130.664736355, 32.688720684 ] ] ] } },
{ "type": "Feature", "properties": { "A29_001": "43211", "A29_002": "熊本県", "A29_003": "宇土市", "A29_004": 3, "A29_005": "第一種中高層住居専用地域", "A29_006": 60, "A29_007": 200, "A29_008": null }, "geometry": { "type": "Polygon", "coordinates": [ [ [ 130.662138876, 32.691479203 ], [ 130.66150495, 32.691974982 ], [ 130.661664695000013, 32.692114757 ], [ 130.661834577, 32.692260286 ], [ 130.661976285, 32.692394285 ], [ 130.662050615999988, 32.692437434 ], [ 130.66218758299999, 32.692481944 ], [ 130.662364335, 32.692526801 ], [ 130.66244189299999, 32.692549008 ], [ 130.662391385, 32.692761897 ], [ 130.662694886999986, 32.692792301 ], [ 130.662644343000011, 32.69302695 ], [ 130.66280998900001, 32.693098976 ], [ 130.662766862000012, 32.693161852 ], [ 130.662997804000014, 32.69327891 ], [ 130.663232670000014, 32.693438461 ], [ 130.66331516599999, 32.69332613 ], [ 130.663341944, 32.693308467 ], [ 130.663401628, 32.693344895 ], [ 130.663437652999988, 32.693359998 ], [ 130.663674206, 32.693471609 ], [ 130.66397257, 32.693629638 ], [ 130.664113904, 32.6937028 ], [ 130.664357919999986, 32.693720155 ], [ 130.664511784000013, 32.693699092 ], [ 130.66457109800001, 32.693683742 ], [ 130.664531425, 32.694105963 ], [ 130.664505942, 32.694475212 ], [ 130.66449923799999, 32.695060249 ], [ 130.664535046999987, 32.695061578 ], [ 130.664631643, 32.694968025 ], [ 130.664785755999986, 32.694805233 ], [ 130.665668415999988, 32.695408868 ], [ 130.665798822999989, 32.695322364 ], [ 130.66606424599999, 32.694972324 ], [ 130.66644824299999, 32.694856142 ], [ 130.666119423, 32.693895812 ], [ 130.66526746299999, 32.691137739 ], [ 130.661925701, 32.691339107 ], [ 130.662138876, 32.691479203 ] ] ] } },
{ "type": "Feature", "properties": { "A29_001": "43211", "A29_002": "熊本県", "A29_003": "宇土市", "A29_004": 8, "A29_005": "近隣商業地域", "A29_006": 80, "A29_007": 300, "A29_008": null }, "geometry": { "type": "Polygon", "coordinates": [ [ [ 130.667806444, 32.690094582 ], [ 130.667508621, 32.689794754 ], [ 130.667243226000011, 32.689596745 ], [ 130.666963243999987, 32.689398696 ], [ 130.666788598000011, 32.689305743 ], [ 130.666406402, 32.689147497 ], [ 130.666038624, 32.689032458 ], [ 130.66573990399999, 32.688973081 ], [ 130.665510332999986, 32.688944721 ], [ 130.665098433, 32.688931285 ], [ 130.664752058, 32.688942697 ], [ 130.66432429, 32.688997483 ], [ 130.664031446, 32.689083696 ], [ 130.66475367699999, 32.690093062 ], [ 130.664987958000012, 32.690454365 ], [ 130.66509452, 32.690619319 ], [ 130.665249727, 32.691080322 ], [ 130.666104252, 32.693846701 ], [ 130.666822915000012, 32.69366353 ], [ 130.666585125000012, 32.692920413 ], [ 130.665854797, 32.690600172 ], [ 130.66580640399999, 32.690390563 ], [ 130.665020750999986, 32.689317727 ], [ 130.665940146, 32.689634918 ], [ 130.666254563, 32.689801227 ], [ 130.666495247, 32.689993302 ], [ 130.66673160900001, 32.690247013 ], [ 130.667708936999986, 32.692916452 ], [ 130.667848189000011, 32.692684416 ], [ 130.667920559, 32.69264834 ], [ 130.668092371, 32.692580077 ], [ 130.667263077, 32.690236764 ], [ 130.667886844, 32.690180827 ], [ 130.667806444, 32.690094582 ] ] ] } },
{ "type": "Feature", "properties": { "A29_001": "43211", "A29_002": "熊本県", "A29_003": "宇土市", "A29_004": 6, "A29_005": "第二種住居地域", "A29_006": 60, "A29_007": 200, "A29_008": null }, "geometry": { "type": "Polygon", "coordinates": [ [ [ 130.666416886, 32.681293606 ], [ 130.66589584, 32.681338947 ], [ 130.665396284, 32.681386291 ], [ 130.665304857, 32.681390342 ], [ 130.665086374, 32.681419823 ], [ 130.66489832900001, 32.681457975 ], [ 130.66469834899999, 32.681519 ], [ 130.664640724, 32.681537457 ], [ 130.66448285199999, 32.681607308 ], [ 130.664564944, 32.681739546 ], [ 130.664559959, 32.681821418 ], [ 130.66450198699999, 32.682057079 ], [ 130.664475707, 32.682170031 ], [ 130.664655982, 32.682399572 ], [ 130.664713174000013, 32.682497075 ], [ 130.664650219, 32.682582804 ], [ 130.664487414, 32.682661108 ], [ 130.664438001, 32.682746873 ], [ 130.664283863, 32.683223191 ], [ 130.664233892999988, 32.683382325 ], [ 130.663836787, 32.684200285 ], [ 130.664049798, 32.684333708 ], [ 130.664300622000013, 32.684563925 ], [ 130.664582802000012, 32.684781799 ], [ 130.664832671999989, 32.684428823 ], [ 130.665056763, 32.684125044 ], [ 130.665253299, 32.683899821 ], [ 130.66531640299999, 32.684384051 ], [ 130.665282982, 32.685023419 ], [ 130.665294851999988, 32.685036916 ], [ 130.66590969, 32.684265015 ], [ 130.665973731, 32.684246347 ], [ 130.66638756399999, 32.684517034 ], [ 130.666923787, 32.683908991 ], [ 130.66645314199999, 32.681474414 ], [ 130.666416886, 32.681293606 ] ] ] } },
{ "type": "Feature", "properties": { "A29_001": "43211", "A29_002": "熊本県", "A29_003": "宇土市", "A29_004": 3, "A29_005": "第一種中高層住居専用地域", "A29_006": 60, "A29_007": 200, "A29_008": null }, "geometry": { "type": "Polygon", "coordinates": [ [ [ 130.664724844, 32.681094286 ], [ 130.664712482999988, 32.680995 ], [ 130.66473107499999, 32.680896401 ], [ 130.664760389, 32.680856403 ], [ 130.664862801999988, 32.680764197 ], [ 130.664910466, 32.680690331 ], [ 130.66493997500001, 32.680597929 ], [ 130.664940136000013, 32.680554769 ], [ 130.66445604, 32.680359253 ], [ 130.664401451, 32.680337527 ], [ 130.664197800000011, 32.680207501 ], [ 130.663674111, 32.679879311 ], [ 130.663415977999989, 32.679699817 ], [ 130.663052353000012, 32.679458374 ], [ 130.66273003500001, 32.679870608 ], [ 130.662762708, 32.679904604 ], [ 130.662465962999988, 32.680298409 ], [ 130.661419556, 32.67957235 ], [ 130.661144701000012, 32.679838101 ], [ 130.663711941, 32.681809459 ], [ 130.66399555000001, 32.681585948 ], [ 130.664140932, 32.681438649 ], [ 130.664380474000012, 32.681318952 ], [ 130.664623576, 32.681253699 ], [ 130.664724844, 32.681094286 ] ] ] } },
{ "type": "Feature", "properties": { "A29_001": "43211", "A29_002": "熊本県", "A29_003": "宇土市", "A29_004": 10, "A29_005": "準工業地域", "A29_006": 60, "A29_007": 200, "A29_008": null }, "geometry": { "type": "Polygon", "coordinates": [ [ [ 130.670344349, 32.66910708 ], [ 130.670238818, 32.669060558 ], [ 130.669955133, 32.668893347 ], [ 130.66899619, 32.668002955 ], [ 130.668589239, 32.667659689 ], [ 130.668512869000011, 32.667616327 ], [ 130.66840370599999, 32.667566719 ], [ 130.66831266, 32.667547973 ], [ 130.667831379, 32.668579461 ], [ 130.666872453, 32.670639346 ], [ 130.66618908800001, 32.672095708 ], [ 130.66567102799999, 32.673204157 ], [ 130.66550904799999, 32.673635322 ], [ 130.665413167, 32.673934097 ], [ 130.665324106000014, 32.674359296 ], [ 130.665290332000012, 32.67461816 ], [ 130.665266739, 32.675080526 ], [ 130.66527642599999, 32.675416574 ], [ 130.66531520699999, 32.675768121 ], [ 130.665467207, 32.676576826 ], [ 130.666250569999988, 32.675788432 ], [ 130.666721427, 32.675371443 ], [ 130.667288008000014, 32.674733033 ], [ 130.667674602, 32.674286536 ], [ 130.667875667, 32.674098852 ], [ 130.668239639, 32.674062173 ], [ 130.668323515999987, 32.674196232 ], [ 130.668412877, 32.674271751 ], [ 130.668807837, 32.674410816 ], [ 130.66915519599999, 32.67459158 ], [ 130.66934482, 32.67464645 ], [ 130.66926534000001, 32.674750805 ], [ 130.66922279, 32.674851073 ], [ 130.669645636000013, 32.675027984 ], [ 130.66962480399999, 32.675455659 ], [ 130.669785103, 32.67536699 ], [ 130.67025920099999, 32.675641701 ], [ 130.670278816, 32.675068004 ], [ 130.670504641, 32.671181119 ], [ 130.67083729699999, 32.669306339 ], [ 130.670344349, 32.66910708 ] ] ] } },
{ "type": "Feature", "properties": { "A29_001": "43211", "A29_002": "熊本県", "A29_003": "宇土市", "A29_004": 10, "A29_005": "準工業地域", "A29_006": 60, "A29_007": 200, "A29_008": null }, "geometry": { "type": "Polygon", "coordinates": [ [ [ 130.66945246099999, 32.697303721 ], [ 130.669493947, 32.69729542 ], [ 130.669534516999988, 32.697285319 ], [ 130.669591935, 32.697271288 ], [ 130.669418995, 32.696217266 ], [ 130.66913725500001, 32.694567776 ], [ 130.669079125, 32.694262211 ], [ 130.668982266, 32.693746573 ], [ 130.66887430700001, 32.693180799 ], [ 130.668771684, 32.69269855 ], [ 130.668646488, 32.692216241 ], [ 130.668936151999986, 32.69217358 ], [ 130.668970109000014, 32.692129886 ], [ 130.669509223, 32.691641574 ], [ 130.669671244, 32.69147307 ], [ 130.669801517, 32.691343613 ], [ 130.669940693, 32.691248538 ], [ 130.670040338, 32.691160994 ], [ 130.670180764, 32.691032756 ], [ 130.670606948999989, 32.690617513 ], [ 130.670738230000012, 32.690483978 ], [ 130.670663811, 32.689970297 ], [ 130.670152750999989, 32.690015744 ], [ 130.67007182099999, 32.689955433 ], [ 130.669486046, 32.690013428 ], [ 130.667886844, 32.690180827 ], [ 130.667263077, 32.690236764 ], [ 130.668092371, 32.692580077 ], [ 130.667920559, 32.69264834 ], [ 130.667848189000011, 32.692684416 ], [ 130.667708936999986, 32.692916452 ], [ 130.667573866999987, 32.693056185 ], [ 130.66742880699999, 32.692956261 ], [ 130.667529218, 32.692853868 ], [ 130.667025896000013, 32.692495905 ], [ 130.666585125000012, 32.692920413 ], [ 130.666822915000012, 32.69366353 ], [ 130.66814425199999, 32.69332675 ], [ 130.66826686600001, 32.693636871 ], [ 130.668584388999989, 32.69443996 ], [ 130.668992965, 32.695462013 ], [ 130.669092087, 32.695710004 ], [ 130.669139152000014, 32.695990558 ], [ 130.66920348799999, 32.696255717 ], [ 130.669241822, 32.696382277 ], [ 130.669313794, 32.696646004 ], [ 130.66945246099999, 32.697303721 ] ] ] } },
{ "type": "Feature", "properties": { "A29_001": "43211", "A29_002": "熊本県", "A29_003": "宇土市", "A29_004": 11, "A29_005": "工業地域", "A29_006": 60, "A29_007": 200, "A29_008": null }, "geometry": { "type": "Polygon", "coordinates": [ [ [ 130.674131764, 32.689500497 ], [ 130.674225154, 32.689613641 ], [ 130.674324199000012, 32.689733635 ], [ 130.67438319199999, 32.689805369 ], [ 130.674493027000011, 32.689862918 ], [ 130.674526625999988, 32.689934587 ], [ 130.67468660099999, 32.690171219 ], [ 130.674846628000012, 32.690393535 ], [ 130.674837903999986, 32.690465093 ], [ 130.674837462999989, 32.69058678 ], [ 130.67478636199999, 32.690672544 ], [ 130.67478599899999, 32.690772757 ], [ 130.67479423, 32.690837201 ], [ 130.674793996, 32.690901623 ], [ 130.674734483, 32.69097305 ], [ 130.674598551, 32.691108701 ], [ 130.674496608, 32.69120865 ], [ 130.674428420999988, 32.691337319 ], [ 130.67434333, 32.691458786 ], [ 130.674275376999987, 32.691523032 ], [ 130.674181976, 32.691601529 ], [ 130.674088654, 32.691658551 ], [ 130.673978323, 32.691737003 ], [ 130.673910369, 32.69180125 ], [ 130.673860862, 32.691888944 ], [ 130.673809815999988, 32.691979362 ], [ 130.67371752599999, 32.69214018 ], [ 130.673551702999987, 32.692347333 ], [ 130.673442661, 32.692467167 ], [ 130.673295438, 32.692644737 ], [ 130.673256040000012, 32.692699876 ], [ 130.67323162400001, 32.692734047 ], [ 130.673212014, 32.69277265 ], [ 130.673181207999988, 32.692863477 ], [ 130.673174262, 32.692911418 ], [ 130.673172333999986, 32.692975836 ], [ 130.673177321999987, 32.693000903 ], [ 130.673152601, 32.693048082 ], [ 130.673273174, 32.693038895 ], [ 130.673364631999988, 32.693029589 ], [ 130.673461753999987, 32.693014571 ], [ 130.673590542, 32.692982456 ], [ 130.67364704799999, 32.692962561 ], [ 130.67383463499999, 32.692901012 ], [ 130.674074174, 32.692830053 ], [ 130.67410807600001, 32.692818689 ], [ 130.67417129899999, 32.692814081 ], [ 130.67422434, 32.692816127 ], [ 130.67429990299999, 32.692832549 ], [ 130.674472302999988, 32.692912212 ], [ 130.674638707000014, 32.693022741 ], [ 130.675453234, 32.6936106 ], [ 130.675602588, 32.693644895 ], [ 130.67564998200001, 32.693645017 ], [ 130.67570471499999, 32.693632831 ], [ 130.675744904, 32.69360827 ], [ 130.675766855, 32.693586747 ], [ 130.67582902800001, 32.693534504 ], [ 130.675924060999989, 32.693466925 ], [ 130.675993395, 32.693448608 ], [ 130.676080832999986, 32.693467329 ], [ 130.67612449, 32.693492107 ], [ 130.676153491, 32.693538426 ], [ 130.67621146, 32.693640308 ], [ 130.676247812000014, 32.693668142 ], [ 130.676320593000014, 32.693705331 ], [ 130.676415170000013, 32.693764147 ], [ 130.676506133, 32.693816785 ], [ 130.67657897, 32.693838553 ], [ 130.67666271600001, 32.693866518 ], [ 130.676753813, 32.693882164 ], [ 130.676819311, 32.69391625 ], [ 130.676826975000012, 32.694031744 ], [ 130.676845033, 32.69404941 ], [ 130.676881998, 32.694074785 ], [ 130.67692510399999, 32.694093149 ], [ 130.676967383, 32.6941065 ], [ 130.67711413399999, 32.694140163 ], [ 130.677204622, 32.694154944 ], [ 130.677283722999988, 32.694178895 ], [ 130.677421599000013, 32.694236337 ], [ 130.677488871, 32.69427924 ], [ 130.67756965, 32.694307947 ], [ 130.677667404, 32.694302491 ], [ 130.677842951, 32.694223153 ], [ 130.678106232, 32.694115542 ], [ 130.678173840999989, 32.694058719 ], [ 130.678191047000013, 32.694007378 ], [ 130.678221552, 32.693916349 ], [ 130.678259211000011, 32.693748273 ], [ 130.678279804999988, 32.693645745 ], [ 130.678322275, 32.693667319 ], [ 130.678397012, 32.693574097 ], [ 130.67844312599999, 32.693516577 ], [ 130.678516472000013, 32.693464957 ], [ 130.678601375, 32.693405203 ], [ 130.678704433, 32.693326631 ], [ 130.67882825699999, 32.693250521 ], [ 130.678942858999989, 32.69317361 ], [ 130.678896869999988, 32.693141515 ], [ 130.678791831000012, 32.693124093 ], [ 130.678671216, 32.69307855 ], [ 130.678620701, 32.693023825 ], [ 130.67861467099999, 32.692902932 ], [ 130.678626423, 32.692712672 ], [ 130.678639836, 32.692570762 ], [ 130.678686457999987, 32.692425826 ], [ 130.678730968, 32.692352632 ], [ 130.678788371, 32.692285712 ], [ 130.67884913099999, 32.692222137 ], [ 130.67891177300001, 32.692187037 ], [ 130.67903046, 32.692100605 ], [ 130.6791216, 32.692026087 ], [ 130.679214597, 32.691894463 ], [ 130.679252367, 32.691824047 ], [ 130.679259113, 32.691801501 ], [ 130.679302651, 32.691749434 ], [ 130.67942811099999, 32.691632692 ], [ 130.679541934000014, 32.691507469 ], [ 130.679570426, 32.691466636 ], [ 130.679789645, 32.691240139 ], [ 130.679888731, 32.691137947 ], [ 130.680009804, 32.691069637 ], [ 130.680304199, 32.690797357 ], [ 130.680539734, 32.690573119 ], [ 130.680660956, 32.690459538 ], [ 130.680678414, 32.690405565 ], [ 130.680685589, 32.690328199 ], [ 130.680729023, 32.690248013 ], [ 130.68076435899999, 32.690192641 ], [ 130.68096298899999, 32.689993171 ], [ 130.68105819499999, 32.689889931 ], [ 130.681105145, 32.68982843 ], [ 130.68121277899999, 32.689708944 ], [ 130.68131896599999, 32.68960923 ], [ 130.681432073, 32.689497901 ], [ 130.681491372000011, 32.689442239 ], [ 130.681680747, 32.689292641 ], [ 130.68179136, 32.689195878 ], [ 130.681905357, 32.689088753 ], [ 130.68198012900001, 32.689048425 ], [ 130.68219867900001, 32.688980198 ], [ 130.68226555199999, 32.688969058 ], [ 130.682336725, 32.688923851 ], [ 130.682323501000013, 32.688915016 ], [ 130.68223121, 32.688855207 ], [ 130.682154311, 32.688805373 ], [ 130.681381912, 32.688304819 ], [ 130.681259073, 32.688231636 ], [ 130.68120002399999, 32.688196456 ], [ 130.68114574399999, 32.688082249 ], [ 130.679828914000012, 32.687277351 ], [ 130.67978874100001, 32.687298829 ], [ 130.679470283, 32.687661786 ], [ 130.67883364299999, 32.687287135 ], [ 130.678895864999987, 32.68721947 ], [ 130.678583062, 32.687021362 ], [ 130.678484191, 32.687144422 ], [ 130.677731305, 32.686658482 ], [ 130.67726208, 32.68636748 ], [ 130.67732071099999, 32.686284394 ], [ 130.67648788, 32.6857335 ], [ 130.675246762, 32.687197731 ], [ 130.675027352, 32.687385216 ], [ 130.67491039699999, 32.687468141 ], [ 130.674716729000011, 32.687590961 ], [ 130.674645881, 32.68760699 ], [ 130.674627657, 32.687751628 ], [ 130.67457635, 32.687894657 ], [ 130.67454223199999, 32.68796615 ], [ 130.674423624000013, 32.687994474 ], [ 130.674262692000013, 32.688022689 ], [ 130.674127102, 32.688065286 ], [ 130.674025215, 32.688150918 ], [ 130.673965415999987, 32.688301083 ], [ 130.673922572, 32.688444133 ], [ 130.673888452999989, 32.688515626 ], [ 130.673811828999987, 32.688637114 ], [ 130.673819877, 32.688751665 ], [ 130.673954688, 32.68892381 ], [ 130.67402209299999, 32.689009882 ], [ 130.67402089699999, 32.689339151 ], [ 130.674131764, 32.689500497 ] ] ] } },
{ "type": "Feature", "properties": { "A29_001": "43211", "A29_002": "熊本県", "A29_003": "宇土市", "A29_004": 12, "A29_005": "工業専用地域", "A29_006": 60, "A29_007": 200, "A29_008": null }, "geometry": { "type": "Polygon", "coordinates": [ [ [ 130.656017079, 32.69806142 ], [ 130.656317661, 32.69797405 ], [ 130.65675904599999, 32.697920993 ], [ 130.65683135899999, 32.697902102 ], [ 130.656922951000013, 32.697859404 ], [ 130.656990992, 32.697776557 ], [ 130.657226845999986, 32.69749565 ], [ 130.657478594999986, 32.697189972 ], [ 130.657650948999986, 32.696984289 ], [ 130.657791643, 32.696792837 ], [ 130.657876781, 32.696666132 ], [ 130.657942859, 32.696505971 ], [ 130.657986212, 32.696384879 ], [ 130.658016038999989, 32.696258978 ], [ 130.65801656299999, 32.696121544 ], [ 130.657983175, 32.69599738 ], [ 130.657713523000012, 32.695376277 ], [ 130.657682271999988, 32.695283614 ], [ 130.657665753, 32.69517572 ], [ 130.657661719, 32.695049727 ], [ 130.657679386000012, 32.694856984 ], [ 130.657699062, 32.694729146 ], [ 130.657727806999986, 32.694590835 ], [ 130.65775290799999, 32.694520277 ], [ 130.657853038000013, 32.694309625 ], [ 130.658015511, 32.694029471 ], [ 130.65806104, 32.693929382 ], [ 130.658071624, 32.693817745 ], [ 130.658056718000012, 32.693582919 ], [ 130.658051475, 32.693477919 ], [ 130.658052872000013, 32.693407296 ], [ 130.658075817, 32.693310009 ], [ 130.658104318, 32.693235643 ], [ 130.658145238, 32.693160356 ], [ 130.658460944000012, 32.692653468 ], [ 130.65865953299999, 32.692372457 ], [ 130.65878095, 32.692201948 ], [ 130.658856945, 32.69210385 ], [ 130.65891475399999, 32.692039107 ], [ 130.659144696, 32.691823081 ], [ 130.659328257999988, 32.691736869 ], [ 130.659894796, 32.69121707 ], [ 130.66049368899999, 32.690680666 ], [ 130.658325682, 32.690824606 ], [ 130.65454606, 32.691056696 ], [ 130.653789991, 32.691100378 ], [ 130.65248865800001, 32.691165065 ], [ 130.651685587, 32.691203338 ], [ 130.65158076099999, 32.691341645 ], [ 130.650721159, 32.692384383 ], [ 130.650052476000013, 32.693214677 ], [ 130.65004747, 32.693268461 ], [ 130.650010788, 32.693340655 ], [ 130.650019052, 32.693392216 ], [ 130.650052681, 32.693451722 ], [ 130.65010493599999, 32.693510564 ], [ 130.650148852, 32.693746015 ], [ 130.650269642000012, 32.693821446 ], [ 130.650580252, 32.694055188 ], [ 130.650658012, 32.694085946 ], [ 130.65079896099999, 32.694121651 ], [ 130.651141841, 32.694184642 ], [ 130.651552458999987, 32.694244003 ], [ 130.651841217999987, 32.694292525 ], [ 130.65207122000001, 32.694358063 ], [ 130.652503997999986, 32.694524376 ], [ 130.653070942, 32.694730189 ], [ 130.653302015, 32.694810999 ], [ 130.653558941999989, 32.694919557 ], [ 130.653906871, 32.695138123 ], [ 130.654302597, 32.695363767 ], [ 130.654410993999988, 32.695421727 ], [ 130.654713133, 32.695630913 ], [ 130.65504270400001, 32.695928641 ], [ 130.655200081, 32.696096096 ], [ 130.655316852, 32.696256758 ], [ 130.655399800999987, 32.696406828 ], [ 130.65550451499999, 32.696767884 ], [ 130.655547395000013, 32.697064823 ], [ 130.655565902, 32.697242395 ], [ 130.65559589, 32.697369414 ], [ 130.655640449, 32.697523196 ], [ 130.65568178, 32.69763593 ], [ 130.65577799, 32.697860481 ], [ 130.655885638, 32.698045932 ], [ 130.655921189999987, 32.69809298 ], [ 130.656017079, 32.69806142 ] ] ] } },
{ "type": "Feature", "properties": { "A29_001": "43211", "A29_002": "熊本県", "A29_003": "宇土市", "A29_004": 3, "A29_005": "第一種中高層住居専用地域", "A29_006": 60, "A29_007": 200, "A29_008": null }, "geometry": { "type": "Polygon", "coordinates": [ [ [ 130.678705839, 32.677168866 ], [ 130.678727830000014, 32.677135005 ], [ 130.67876101499999, 32.677027189 ], [ 130.679009201000014, 32.676938428 ], [ 130.67910049, 32.676895501 ], [ 130.679126247999989, 32.676827742 ], [ 130.67918133500001, 32.676710738 ], [ 130.679229138000011, 32.67659679 ], [ 130.679258807999986, 32.676451973 ], [ 130.679273604, 32.676393438 ], [ 130.679324955, 32.676304164 ], [ 130.679365487000013, 32.676180954 ], [ 130.679365752, 32.676106962 ], [ 130.67933341599999, 32.675977398 ], [ 130.679337272, 32.675918835 ], [ 130.679403197999989, 32.675829598 ], [ 130.679458239000013, 32.675728006 ], [ 130.679480417, 32.675641741 ], [ 130.67949529, 32.675558543 ], [ 130.679528264, 32.675512391 ], [ 130.67962348399999, 32.675386237 ], [ 130.679663784000013, 32.675330842 ], [ 130.67836842599999, 32.674692457 ], [ 130.678419799000011, 32.674597025 ], [ 130.678383553, 32.674541434 ], [ 130.678329141, 32.674467311 ], [ 130.678292797000012, 32.674436385 ], [ 130.678194757999989, 32.674331316 ], [ 130.67825342399999, 32.674235902 ], [ 130.678315682, 32.674152825 ], [ 130.678377928, 32.674075907 ], [ 130.678243258, 32.674020073 ], [ 130.67815587199999, 32.673995184 ], [ 130.678090266, 32.673995016 ], [ 130.678039258000013, 32.673988726 ], [ 130.677970039, 32.673976212 ], [ 130.677930048, 32.67394836 ], [ 130.67788287499999, 32.673889667 ], [ 130.677835812000012, 32.673800141 ], [ 130.677730161, 32.673784458 ], [ 130.677617227000013, 32.673768756 ], [ 130.67753706799999, 32.673759297 ], [ 130.677486082, 32.673746838 ], [ 130.677449693999989, 32.673728249 ], [ 130.677417041000012, 32.673688088 ], [ 130.677409825000012, 32.67366649 ], [ 130.677400647000013, 32.673179372 ], [ 130.677379499000011, 32.672975852 ], [ 130.67721627899999, 32.672753461 ], [ 130.677231054, 32.672701095 ], [ 130.67715281400001, 32.672158303 ], [ 130.67711418799999, 32.671751271 ], [ 130.677270588999988, 32.670829899 ], [ 130.676206673, 32.670719257 ], [ 130.67616973, 32.670857887 ], [ 130.675962137, 32.670811115 ], [ 130.675903838000011, 32.670804796 ], [ 130.676004796, 32.67010216 ], [ 130.675815325, 32.670083175 ], [ 130.67588464799999, 32.66962527 ], [ 130.675943034, 32.669627568 ], [ 130.675967140000012, 32.669279745 ], [ 130.675934860000012, 32.669281938 ], [ 130.675172836, 32.669350877 ], [ 130.674593132000012, 32.669401788 ], [ 130.674181041, 32.669462375 ], [ 130.673768814999988, 32.669559953 ], [ 130.673601010999988, 32.669599593 ], [ 130.67346226699999, 32.669667057 ], [ 130.673239462999987, 32.669795959 ], [ 130.673010018000014, 32.669746033 ], [ 130.67196825799999, 32.669564512 ], [ 130.67178600299999, 32.66956712 ], [ 130.67160733899999, 32.669585148 ], [ 130.671457901999986, 32.669584757 ], [ 130.67137778099999, 32.669569136 ], [ 130.671319562, 32.669541235 ], [ 130.671075871, 32.669401871 ], [ 130.67087726599999, 32.669321838 ], [ 130.67083729699999, 32.669306339 ], [ 130.670504641, 32.671181119 ], [ 130.670278816, 32.675068004 ], [ 130.670509321999987, 32.675050168 ], [ 130.670943972, 32.675358762 ], [ 130.671188902000011, 32.675537006 ], [ 130.671450265, 32.675172945 ], [ 130.67168436899999, 32.674358134 ], [ 130.671992964, 32.674244358 ], [ 130.67207465199999, 32.674290401 ], [ 130.672228843, 32.674264074 ], [ 130.672478825000013, 32.674375487 ], [ 130.67319157899999, 32.674350607 ], [ 130.67324741199999, 32.674885461 ], [ 130.67282359, 32.674907272 ], [ 130.672890052000014, 32.675167166 ], [ 130.673033239, 32.67551891 ], [ 130.673076363, 32.675576315 ], [ 130.67332144299999, 32.675714452 ], [ 130.673334778999987, 32.676020037 ], [ 130.673418586, 32.676252083 ], [ 130.67369676199999, 32.676558357 ], [ 130.674810008, 32.676527276 ], [ 130.674856494000011, 32.67753486 ], [ 130.67526546799999, 32.677102276 ], [ 130.676241618, 32.677067824 ], [ 130.676577019, 32.676970094 ], [ 130.677451233, 32.676923052 ], [ 130.677698477, 32.67703461 ], [ 130.678647590999987, 32.677147137 ], [ 130.678705839, 32.677168866 ] ] ] } },
{ "type": "Feature", "properties": { "A29_001": "43211", "A29_002": "熊本県", "A29_003": "宇土市", "A29_004": 10, "A29_005": "準工業地域", "A29_006": 60, "A29_007": 200, "A29_008": null }, "geometry": { "type": "Polygon", "coordinates": [ [ [ 130.651025774, 32.690048889 ], [ 130.648892052, 32.688605636 ], [ 130.648646824999986, 32.688969382 ], [ 130.648313083, 32.689464417 ], [ 130.64807151799999, 32.690048794 ], [ 130.647978109, 32.69084308 ], [ 130.647927098999986, 32.690899009 ], [ 130.647644477999989, 32.691374228 ], [ 130.645685871000012, 32.691467732 ], [ 130.643991102, 32.691557182 ], [ 130.64326719499999, 32.691594495 ], [ 130.642606731, 32.691642721 ], [ 130.642128162, 32.691716517 ], [ 130.641813055, 32.691788854 ], [ 130.64180493, 32.691911179 ], [ 130.64179554399999, 32.69193551 ], [ 130.641693185, 32.692207923 ], [ 130.64166121299999, 32.692303712 ], [ 130.641736667, 32.692300735 ], [ 130.64185145499999, 32.692318269 ], [ 130.641980676, 32.692343122 ], [ 130.642222847999989, 32.692388948 ], [ 130.642310552999987, 32.692394546 ], [ 130.642372032, 32.692397787 ], [ 130.642467943000014, 32.692383524 ], [ 130.642555722, 32.692384089 ], [ 130.642674588, 32.692398081 ], [ 130.642736995, 32.69240688 ], [ 130.642795608, 32.692406687 ], [ 130.642853444, 32.69239033 ], [ 130.643037635000013, 32.692322958 ], [ 130.643116693, 32.692306652 ], [ 130.64322628799999, 32.69230553 ], [ 130.643311250000011, 32.692303617 ], [ 130.643368184, 32.692299459 ], [ 130.643526997, 32.692284688 ], [ 130.64371464199999, 32.692257617 ], [ 130.643903040999987, 32.692234046 ], [ 130.64401260599999, 32.692221669 ], [ 130.644070383000013, 32.69221993 ], [ 130.644233622, 32.692215911 ], [ 130.644358224, 32.692219421 ], [ 130.644481157, 32.692227119 ], [ 130.644614432, 32.692235559 ], [ 130.644802344, 32.692248698 ], [ 130.644926502, 32.692259556 ], [ 130.645143029, 32.69226438 ], [ 130.645223891, 32.692269018 ], [ 130.645289692, 32.692287962 ], [ 130.645457082, 32.692345267 ], [ 130.64554381100001, 32.692363061 ], [ 130.645669704999989, 32.692366402 ], [ 130.64582830099999, 32.692366101 ], [ 130.645943453, 32.692378123 ], [ 130.64601142399999, 32.692387567 ], [ 130.646113004999989, 32.692398432 ], [ 130.64617041599999, 32.692408513 ], [ 130.64631610399999, 32.692430703 ], [ 130.64639474099999, 32.69244786 ], [ 130.646457422999987, 32.69246812 ], [ 130.646549631999989, 32.692486461 ], [ 130.64665645299999, 32.692518145 ], [ 130.64671766699999, 32.692532124 ], [ 130.646808908, 32.692560589 ], [ 130.646910351, 32.692579587 ], [ 130.64701577, 32.692587946 ], [ 130.647125874000011, 32.692590222 ], [ 130.647206726, 32.692608684 ], [ 130.64731047699999, 32.692637166 ], [ 130.647380551, 32.692657049 ], [ 130.647531111, 32.692704249 ], [ 130.647607255, 32.692723861 ], [ 130.647697556999987, 32.692741799 ], [ 130.647845756, 32.692790137 ], [ 130.64789017199999, 32.69280185 ], [ 130.647961086, 32.692838653 ], [ 130.648039372, 32.692902143 ], [ 130.64810386, 32.692943446 ], [ 130.648199328, 32.692987551 ], [ 130.648295909000012, 32.693019908 ], [ 130.648412467000014, 32.693057389 ], [ 130.64847455200001, 32.693072217 ], [ 130.648575993, 32.693097193 ], [ 130.648652257, 32.693127103 ], [ 130.648717613, 32.693156577 ], [ 130.648786272, 32.693192084 ], [ 130.648897068, 32.693249379 ], [ 130.64895576, 32.693286463 ], [ 130.649073105000014, 32.693365447 ], [ 130.64916860299999, 32.693454009 ], [ 130.649238458000013, 32.693497491 ], [ 130.649360349, 32.693554222 ], [ 130.64946176399999, 32.693591398 ], [ 130.64956071899999, 32.69361697 ], [ 130.64967776099999, 32.693639959 ], [ 130.649737549, 32.693648026 ], [ 130.649793542999987, 32.693668744 ], [ 130.649845727000013, 32.693706828 ], [ 130.64987428399999, 32.693732213 ], [ 130.649927792, 32.693753437 ], [ 130.649980075, 32.693766235 ], [ 130.65005857, 32.693768565 ], [ 130.650148852, 32.693746015 ], [ 130.65010493599999, 32.693510564 ], [ 130.650052681, 32.693451722 ], [ 130.650019052, 32.693392216 ], [ 130.650010788, 32.693340655 ], [ 130.65004747, 32.693268461 ], [ 130.650052476000013, 32.693214677 ], [ 130.650721159, 32.692384383 ], [ 130.65158076099999, 32.691341645 ], [ 130.651685587, 32.691203338 ], [ 130.65248865800001, 32.691165065 ], [ 130.653789991, 32.691100378 ], [ 130.65454606, 32.691056696 ], [ 130.653992112999987, 32.690672425 ], [ 130.653156203, 32.690160624 ], [ 130.65481437599999, 32.68893997 ], [ 130.654490563, 32.688693919 ], [ 130.65253950499999, 32.689615174 ], [ 130.652452675, 32.689651088 ], [ 130.652326654, 32.689574328 ], [ 130.651749759000012, 32.689216217 ], [ 130.651025774, 32.690048889 ] ] ] } },
{ "type": "Feature", "properties": { "A29_001": "43211", "A29_002": "熊本県", "A29_003": "宇土市", "A29_004": 5, "A29_005": "第一種住居地域", "A29_006": 60, "A29_007": 200, "A29_008": null }, "geometry": { "type": "Polygon", "coordinates": [ [ [ 130.65253950499999, 32.689615174 ], [ 130.654490563, 32.688693919 ], [ 130.654786484999988, 32.688918777 ], [ 130.65481437599999, 32.68893997 ], [ 130.655458935000013, 32.688429281 ], [ 130.655263893000011, 32.688335941 ], [ 130.657701452999987, 32.687197944 ], [ 130.657337469, 32.686948882 ], [ 130.659042414, 32.685553997 ], [ 130.658878249, 32.685434918 ], [ 130.658817696, 32.685326446 ], [ 130.658723735, 32.685259547 ], [ 130.657650765999989, 32.684501199 ], [ 130.657437339000012, 32.68433996 ], [ 130.657401025000013, 32.684304555 ], [ 130.656620393, 32.685069452 ], [ 130.65574814199999, 32.685924111 ], [ 130.654119185000013, 32.687526341 ], [ 130.653993641999989, 32.687444743 ], [ 130.653501264, 32.688020512 ], [ 130.653117302, 32.688458964 ], [ 130.652743902999987, 32.688914154 ], [ 130.652877303, 32.688991204 ], [ 130.652462566999986, 32.689586212 ], [ 130.65239553, 32.689616281 ], [ 130.652452675, 32.689651088 ], [ 130.65253950499999, 32.689615174 ] ] ] } },
{ "type": "Feature", "properties": { "A29_001": "43211", "A29_002": "熊本県", "A29_003": "宇土市", "A29_004": 5, "A29_005": "第一種住居地域", "A29_006": 60, "A29_007": 200, "A29_008": null }, "geometry": { "type": "Polygon", "coordinates": [ [ [ 130.655088589, 32.682182941 ], [ 130.655043532, 32.682260654 ], [ 130.655185941000013, 32.682362103 ], [ 130.655431023, 32.682490073 ], [ 130.655664269, 32.6825852 ], [ 130.655958706, 32.682615595 ], [ 130.656010608, 32.6826186 ], [ 130.656056646, 32.682655616 ], [ 130.65641685599999, 32.682945236 ], [ 130.656447144999987, 32.682969589 ], [ 130.656859042, 32.682602775 ], [ 130.656615265, 32.682438888 ], [ 130.656791863, 32.682207363 ], [ 130.657013978, 32.682046881 ], [ 130.657680497, 32.681395487 ], [ 130.657988679999988, 32.681529488 ], [ 130.658035444, 32.681492019 ], [ 130.658066006000013, 32.681463732 ], [ 130.658130402000012, 32.681312738 ], [ 130.658364846000012, 32.68096821 ], [ 130.657565957, 32.680427175 ], [ 130.65729790099999, 32.680707167 ], [ 130.656961365, 32.681073283 ], [ 130.656727229000012, 32.680984337 ], [ 130.65647790700001, 32.680943362 ], [ 130.656235396, 32.680952986 ], [ 130.656015227000012, 32.680980061 ], [ 130.655738801000012, 32.681049194 ], [ 130.655707428, 32.681059688 ], [ 130.65565182099999, 32.68127875 ], [ 130.655546527000013, 32.681367221 ], [ 130.655359091, 32.681686435 ], [ 130.655166968, 32.682050493 ], [ 130.655088589, 32.682182941 ] ] ] } },
{ "type": "Feature", "properties": { "A29_001": "43211", "A29_002": "熊本県", "A29_003": "宇土市", "A29_004": 6, "A29_005": "第二種住居地域", "A29_006": 60, "A29_007": 200, "A29_008": null }, "geometry": { "type": "Polygon", "coordinates": [ [ [ 130.655548919000012, 32.688454481 ], [ 130.656323112, 32.688868279 ], [ 130.65659859499999, 32.689023206 ], [ 130.65685484299999, 32.689160999 ], [ 130.657206941, 32.688749287 ], [ 130.657870519, 32.689217386 ], [ 130.658012251, 32.689227701 ], [ 130.658183366, 32.689293133 ], [ 130.65852261, 32.688900545 ], [ 130.658732124000011, 32.688633261 ], [ 130.65889141400001, 32.688412139 ], [ 130.658971115000014, 32.688286689 ], [ 130.65906335599999, 32.68822288 ], [ 130.659491288, 32.688520233 ], [ 130.65968386899999, 32.688255068 ], [ 130.65992853899999, 32.687984685 ], [ 130.660140506, 32.687878856 ], [ 130.660305499, 32.687916141 ], [ 130.660476108000012, 32.687830661 ], [ 130.661136034, 32.687080267 ], [ 130.66050357, 32.686708645 ], [ 130.660412371, 32.686655057 ], [ 130.660089441, 32.686408197 ], [ 130.658669812, 32.687876675 ], [ 130.657701452999987, 32.687197944 ], [ 130.655263893000011, 32.688335941 ], [ 130.655458935000013, 32.688429281 ], [ 130.655548919000012, 32.688454481 ] ] ] } },
{ "type": "Feature", "properties": { "A29_001": "43211", "A29_002": "熊本県", "A29_003": "宇土市", "A29_004": 3, "A29_005": "第一種中高層住居専用地域", "A29_006": 60, "A29_007": 200, "A29_008": null }, "geometry": { "type": "Polygon", "coordinates": [ [ [ 130.655548919000012, 32.688454481 ], [ 130.655458935000013, 32.688429281 ], [ 130.65481437599999, 32.68893997 ], [ 130.653156203, 32.690160624 ], [ 130.653929549999987, 32.69063412 ], [ 130.655428519, 32.690521976 ], [ 130.65668527599999, 32.69045231 ], [ 130.659065887, 32.690203481 ], [ 130.660139348, 32.690039533 ], [ 130.660206765999988, 32.68985453 ], [ 130.660449359000012, 32.689660081 ], [ 130.660558385, 32.68949834 ], [ 130.65985509699999, 32.689126073 ], [ 130.65889141400001, 32.688412139 ], [ 130.658732124000011, 32.688633261 ], [ 130.65852261, 32.688900545 ], [ 130.658183366, 32.689293133 ], [ 130.658012251, 32.689227701 ], [ 130.657870519, 32.689217386 ], [ 130.657206941, 32.688749287 ], [ 130.65685484299999, 32.689160999 ], [ 130.65659859499999, 32.689023206 ], [ 130.656323112, 32.688868279 ], [ 130.655548919000012, 32.688454481 ] ] ] } },
{ "type": "Feature", "properties": { "A29_001": "43211", "A29_002": "熊本県", "A29_003": "宇土市", "A29_004": 5, "A29_005": "第一種住居地域", "A29_006": 60, "A29_007": 200, "A29_008": null }, "geometry": { "type": "Polygon", "coordinates": [ [ [ 130.653929549999987, 32.69063412 ], [ 130.653992112999987, 32.690672425 ], [ 130.65454606, 32.691056696 ], [ 130.658325682, 32.690824606 ], [ 130.658321231, 32.69077946 ], [ 130.659048006, 32.690652591 ], [ 130.660496537, 32.690381649 ], [ 130.661507706, 32.690332678 ], [ 130.662904397, 32.690265023 ], [ 130.664777922000013, 32.690130453 ], [ 130.66475367699999, 32.690093062 ], [ 130.664031446, 32.689083696 ], [ 130.663024156, 32.687921074 ], [ 130.662564589, 32.68746054 ], [ 130.66246162600001, 32.687463609 ], [ 130.66206071900001, 32.687724441 ], [ 130.66162341, 32.688028289 ], [ 130.6614521, 32.688206646 ], [ 130.661402541, 32.688419167 ], [ 130.661450878000011, 32.688530454 ], [ 130.66147474499999, 32.688665843 ], [ 130.661345598, 32.688974814 ], [ 130.660882679999986, 32.688910735 ], [ 130.65968386899999, 32.688255068 ], [ 130.659491288, 32.688520233 ], [ 130.65906335599999, 32.68822288 ], [ 130.658971115000014, 32.688286689 ], [ 130.65889141400001, 32.688412139 ], [ 130.65985509699999, 32.689126073 ], [ 130.660558385, 32.68949834 ], [ 130.660449359000012, 32.689660081 ], [ 130.660206765999988, 32.68985453 ], [ 130.660139348, 32.690039533 ], [ 130.659065887, 32.690203481 ], [ 130.65668527599999, 32.69045231 ], [ 130.655428519, 32.690521976 ], [ 130.653929549999987, 32.69063412 ] ] ] } },
{ "type": "Feature", "properties": { "A29_001": "43211", "A29_002": "熊本県", "A29_003": "宇土市", "A29_004": 1, "A29_005": "第一種低層住居専用地域", "A29_006": 40, "A29_007": 80, "A29_008": null }, "geometry": { "type": "Polygon", "coordinates": [ [ [ 130.656147815, 32.677453016 ], [ 130.65629525, 32.677500702 ], [ 130.656362481, 32.677533622 ], [ 130.65657252299999, 32.677699696 ], [ 130.656633195000012, 32.677761095 ], [ 130.656670302, 32.677803031 ], [ 130.656703419, 32.677853741 ], [ 130.656726493, 32.677912304 ], [ 130.65673894, 32.677975645 ], [ 130.656720544, 32.67808217 ], [ 130.656484989, 32.67849697 ], [ 130.656453684000013, 32.678616518 ], [ 130.656453492, 32.67866654 ], [ 130.656452416, 32.6787916 ], [ 130.656310832, 32.679301301 ], [ 130.656298733, 32.679447685 ], [ 130.656302962000012, 32.679635381 ], [ 130.65634816799999, 32.679753939 ], [ 130.65642601, 32.679859618 ], [ 130.656486454, 32.679947376 ], [ 130.65652019800001, 32.68004067 ], [ 130.656527632, 32.680151649 ], [ 130.656510032, 32.680345336 ], [ 130.656473908, 32.680542255 ], [ 130.656473651999988, 32.680609204 ], [ 130.65647790700001, 32.680943362 ], [ 130.656727229000012, 32.680984337 ], [ 130.656961365, 32.681073283 ], [ 130.65729790099999, 32.680707167 ], [ 130.657565957, 32.680427175 ], [ 130.658364846000012, 32.68096821 ], [ 130.658961812, 32.680375796 ], [ 130.659423898999989, 32.679964258 ], [ 130.65951714, 32.679955231 ], [ 130.659847095, 32.679687117 ], [ 130.657508438, 32.677856824 ], [ 130.656708689999988, 32.677278573 ], [ 130.65637965799999, 32.67715225 ], [ 130.656147815, 32.677453016 ] ] ] } },
{ "type": "Feature", "properties": { "A29_001": "43211", "A29_002": "熊本県", "A29_003": "宇土市", "A29_004": 8, "A29_005": "近隣商業地域", "A29_006": 80, "A29_007": 300, "A29_008": null }, "geometry": { "type": "Polygon", "coordinates": [ [ [ 130.659042414, 32.685553997 ], [ 130.657337469, 32.686948882 ], [ 130.657701452999987, 32.687197944 ], [ 130.658669812, 32.687876675 ], [ 130.660089441, 32.686408197 ], [ 130.660412371, 32.686655057 ], [ 130.66050357, 32.686708645 ], [ 130.661136034, 32.687080267 ], [ 130.661399407, 32.687252033 ], [ 130.66206071900001, 32.687724441 ], [ 130.66246162600001, 32.687463609 ], [ 130.662564589, 32.68746054 ], [ 130.662836048, 32.687382768 ], [ 130.662238640999988, 32.686602253 ], [ 130.661885839, 32.686416766 ], [ 130.661847499, 32.686451689 ], [ 130.661726805, 32.686366504 ], [ 130.661888346000012, 32.686235438 ], [ 130.661871273, 32.686221459 ], [ 130.661547684999988, 32.685955961 ], [ 130.66142669199999, 32.68595025 ], [ 130.661212479, 32.685751663 ], [ 130.661127795999988, 32.685828214 ], [ 130.660470567, 32.68533277 ], [ 130.659451354999987, 32.684564356 ], [ 130.658398143, 32.683770501 ], [ 130.657254577, 32.682906789 ], [ 130.656859042, 32.682602775 ], [ 130.656447144999987, 32.682969589 ], [ 130.656348266, 32.683071137 ], [ 130.656070492, 32.683356409 ], [ 130.657401025000013, 32.684304555 ], [ 130.657437339000012, 32.68433996 ], [ 130.657650765999989, 32.684501199 ], [ 130.658723735, 32.685259547 ], [ 130.658817696, 32.685326446 ], [ 130.658878249, 32.685434918 ], [ 130.659042414, 32.685553997 ] ] ] } },
{ "type": "Feature", "properties": { "A29_001": "43211", "A29_002": "熊本県", "A29_003": "宇土市", "A29_004": 8, "A29_005": "近隣商業地域", "A29_006": 80, "A29_007": 300, "A29_008": null }, "geometry": { "type": "Polygon", "coordinates": [ [ [ 130.658130402000012, 32.681312738 ], [ 130.658066006000013, 32.681463732 ], [ 130.658035444, 32.681492019 ], [ 130.658088866000014, 32.681509137 ], [ 130.658320615, 32.681648728 ], [ 130.65837668, 32.681753111 ], [ 130.65884039299999, 32.682092444 ], [ 130.65942373499999, 32.681528937 ], [ 130.65923369, 32.68139039 ], [ 130.660470237, 32.680161244 ], [ 130.660717102, 32.679949203 ], [ 130.660324621, 32.679660624 ], [ 130.660077226999988, 32.679492942 ], [ 130.659847095, 32.679687117 ], [ 130.65951714, 32.679955231 ], [ 130.659423898999989, 32.679964258 ], [ 130.658961812, 32.680375796 ], [ 130.658364846000012, 32.68096821 ], [ 130.658130402000012, 32.681312738 ] ] ] } },
{ "type": "Feature", "properties": { "A29_001": "43211", "A29_002": "熊本県", "A29_003": "宇土市", "A29_004": 3, "A29_005": "第一種中高層住居専用地域", "A29_006": 60, "A29_007": 200, "A29_008": null }, "geometry": { "type": "Polygon", "coordinates": [ [ [ 130.658575934, 32.677717753 ], [ 130.65843963899999, 32.677751795 ], [ 130.659041390999988, 32.678209448 ], [ 130.660234543, 32.679083474 ], [ 130.66110465700001, 32.678150658 ], [ 130.66096413299999, 32.678047977 ], [ 130.660479159, 32.677935428 ], [ 130.66017011, 32.677886029 ], [ 130.659842821000012, 32.677849341 ], [ 130.659644742000012, 32.677805463 ], [ 130.659406589000014, 32.677759591 ], [ 130.659103804000011, 32.677722958 ], [ 130.658725210999989, 32.677704975 ], [ 130.658575934, 32.677717753 ] ] ] } },
{ "type": "Feature", "properties": { "A29_001": "43211", "A29_002": "熊本県", "A29_003": "宇土市", "A29_004": 7, "A29_005": "準住居地域", "A29_006": 60, "A29_007": 200, "A29_008": null }, "geometry": { "type": "Polygon", "coordinates": [ [ [ 130.660496537, 32.690381649 ], [ 130.659048006, 32.690652591 ], [ 130.658321231, 32.69077946 ], [ 130.658325682, 32.690824606 ], [ 130.66049368899999, 32.690680666 ], [ 130.659646884000011, 32.691444531 ], [ 130.661925701, 32.691339107 ], [ 130.66526746299999, 32.691137739 ], [ 130.665249727, 32.691080322 ], [ 130.66509452, 32.690619319 ], [ 130.664987958000012, 32.690454365 ], [ 130.664777922000013, 32.690130453 ], [ 130.662904397, 32.690265023 ], [ 130.660496537, 32.690381649 ] ] ] } },
{ "type": "Feature", "properties": { "A29_001": "43211", "A29_002": "熊本県", "A29_003": "宇土市", "A29_004": 5, "A29_005": "第一種住居地域", "A29_006": 60, "A29_007": 200, "A29_008": null }, "geometry": { "type": "Polygon", "coordinates": [ [ [ 130.65884039299999, 32.682092444 ], [ 130.658619492000014, 32.682311359 ], [ 130.660374437, 32.68367505 ], [ 130.661087393, 32.684229038 ], [ 130.662108875, 32.683362303 ], [ 130.661218506000012, 32.68271518 ], [ 130.659537922999988, 32.681419515 ], [ 130.65942373499999, 32.681528937 ], [ 130.65884039299999, 32.682092444 ] ] ] } },
{ "type": "Feature", "properties": { "A29_001": "43211", "A29_002": "熊本県", "A29_003": "宇土市", "A29_004": 3, "A29_005": "第一種中高層住居専用地域", "A29_006": 60, "A29_007": 200, "A29_008": null }, "geometry": { "type": "Polygon", "coordinates": [ [ [ 130.659537922999988, 32.681419515 ], [ 130.661218506000012, 32.68271518 ], [ 130.662108875, 32.683362303 ], [ 130.662728676, 32.682757522 ], [ 130.662450272, 32.682502482 ], [ 130.662921936, 32.68205777 ], [ 130.660470237, 32.680161244 ], [ 130.65923369, 32.68139039 ], [ 130.65942373499999, 32.681528937 ], [ 130.659537922999988, 32.681419515 ] ] ] } },
{ "type": "Feature", "properties": { "A29_001": "43211", "A29_002": "熊本県", "A29_003": "宇土市", "A29_004": 3, "A29_005": "第一種中高層住居専用地域", "A29_006": 60, "A29_007": 200, "A29_008": null }, "geometry": { "type": "Polygon", "coordinates": [ [ [ 130.660140506, 32.687878856 ], [ 130.65992853899999, 32.687984685 ], [ 130.65968386899999, 32.688255068 ], [ 130.660882679999986, 32.688910735 ], [ 130.661345598, 32.688974814 ], [ 130.66147474499999, 32.688665843 ], [ 130.661450878000011, 32.688530454 ], [ 130.661402541, 32.688419167 ], [ 130.6614521, 32.688206646 ], [ 130.66162341, 32.688028289 ], [ 130.66206071900001, 32.687724441 ], [ 130.661399407, 32.687252033 ], [ 130.661136034, 32.687080267 ], [ 130.660476108000012, 32.687830661 ], [ 130.660305499, 32.687916141 ], [ 130.660140506, 32.687878856 ] ] ] } },
{ "type": "Feature", "properties": { "A29_001": "43211", "A29_002": "熊本県", "A29_003": "宇土市", "A29_004": 5, "A29_005": "第一種住居地域", "A29_006": 60, "A29_007": 200, "A29_008": null }, "geometry": { "type": "Polygon", "coordinates": [ [ [ 130.662372836, 32.685755007 ], [ 130.66269710899999, 32.686023094 ], [ 130.662759735, 32.685975719 ], [ 130.662956939, 32.686007947 ], [ 130.663318616, 32.686141637 ], [ 130.663445657000011, 32.68623508 ], [ 130.663364488000013, 32.686367311 ], [ 130.663470947, 32.686486725 ], [ 130.66368429, 32.686879528 ], [ 130.663740236, 32.686924119 ], [ 130.663795244, 32.686880764 ], [ 130.66385804, 32.686839377 ], [ 130.663855774000012, 32.686777967 ], [ 130.663802464000014, 32.686672836 ], [ 130.663759184000014, 32.686557821 ], [ 130.663749489, 32.686478562 ], [ 130.663779694999988, 32.686294693 ], [ 130.664026150000012, 32.685189712 ], [ 130.664029391000014, 32.685138831 ], [ 130.664005249000013, 32.685058803 ], [ 130.663956868000014, 32.684970432 ], [ 130.662607223, 32.683839444 ], [ 130.66166360599999, 32.684676763 ], [ 130.662681354999989, 32.685467555 ], [ 130.662372836, 32.685755007 ] ] ] } },
{ "type": "Feature", "properties": { "A29_001": "43211", "A29_002": "熊本県", "A29_003": "宇土市", "A29_004": 8, "A29_005": "近隣商業地域", "A29_006": 80, "A29_007": 300, "A29_008": null }, "geometry": { "type": "Polygon", "coordinates": [ [ [ 130.663207250999989, 32.682278469 ], [ 130.662728676, 32.682757522 ], [ 130.66204306, 32.683426522 ], [ 130.661087393, 32.684229038 ], [ 130.661385806999988, 32.684460912 ], [ 130.66166360599999, 32.684676763 ], [ 130.662607223, 32.683839444 ], [ 130.663566914, 32.682929578 ], [ 130.66397326500001, 32.682535838 ], [ 130.663407948000014, 32.68207942 ], [ 130.663207250999989, 32.682278469 ] ] ] } },
{ "type": "Feature", "properties": { "A29_001": "43211", "A29_002": "熊本県", "A29_003": "宇土市", "A29_004": 3, "A29_005": "第一種中高層住居専用地域", "A29_006": 60, "A29_007": 200, "A29_008": null }, "geometry": { "type": "Polygon", "coordinates": [ [ [ 130.663749489, 32.686478562 ], [ 130.663759184000014, 32.686557821 ], [ 130.663802464000014, 32.686672836 ], [ 130.663855774000012, 32.686777967 ], [ 130.66385804, 32.686839377 ], [ 130.663795244, 32.686880764 ], [ 130.664165802000014, 32.6871959 ], [ 130.664171162, 32.687296972 ], [ 130.664154348000011, 32.687319851 ], [ 130.664144091, 32.687346309 ], [ 130.664144803999989, 32.687382101 ], [ 130.664160685000013, 32.68743583 ], [ 130.664186816000012, 32.687465248 ], [ 130.664202237000012, 32.687479045 ], [ 130.664492188999986, 32.687235163 ], [ 130.66468178299999, 32.687016108 ], [ 130.664797095000011, 32.686467487 ], [ 130.664832671999989, 32.684428823 ], [ 130.664582802000012, 32.684781799 ], [ 130.664300622000013, 32.684563925 ], [ 130.664049798, 32.684333708 ], [ 130.663836787, 32.684200285 ], [ 130.664233892999988, 32.683382325 ], [ 130.664283863, 32.683223191 ], [ 130.663752124000013, 32.682750117 ], [ 130.662607223, 32.683839444 ], [ 130.663956868000014, 32.684970432 ], [ 130.664005249000013, 32.685058803 ], [ 130.664029391000014, 32.685138831 ], [ 130.664026150000012, 32.685189712 ], [ 130.663779694999988, 32.686294693 ], [ 130.663749489, 32.686478562 ] ] ] } },
{ "type": "Feature", "properties": { "A29_001": "43211", "A29_002": "熊本県", "A29_003": "宇土市", "A29_004": 5, "A29_005": "第一種住居地域", "A29_006": 60, "A29_007": 200, "A29_008": null }, "geometry": { "type": "Polygon", "coordinates": [ [ [ 130.66454186499999, 32.687670544 ], [ 130.664537919, 32.687836195 ], [ 130.664553332, 32.687863895 ], [ 130.664729749, 32.68794653 ], [ 130.665383662000011, 32.687455312 ], [ 130.665500533, 32.687165639 ], [ 130.66552418, 32.687027113 ], [ 130.665620550999989, 32.685304424 ], [ 130.665331931999987, 32.685079078 ], [ 130.665282982, 32.685023419 ], [ 130.66531640299999, 32.684384051 ], [ 130.665253299, 32.683899821 ], [ 130.665056763, 32.684125044 ], [ 130.664832671999989, 32.684428823 ], [ 130.664797095000011, 32.686467487 ], [ 130.66468178299999, 32.687016108 ], [ 130.664492188999986, 32.687235163 ], [ 130.664202237000012, 32.687479045 ], [ 130.664219718, 32.687494684 ], [ 130.664330148, 32.687539234 ], [ 130.664367548, 32.687545641 ], [ 130.66443702399999, 32.687557541 ], [ 130.664464697, 32.687573682 ], [ 130.66454186499999, 32.687670544 ] ] ] } },
{ "type": "Feature", "properties": { "A29_001": "43211", "A29_002": "熊本県", "A29_003": "宇土市", "A29_004": 5, "A29_005": "第一種住居地域", "A29_006": 60, "A29_007": 200, "A29_008": null }, "geometry": { "type": "Polygon", "coordinates": [ [ [ 130.66580640399999, 32.690390563 ], [ 130.665854797, 32.690600172 ], [ 130.666585125000012, 32.692920413 ], [ 130.667025896000013, 32.692495905 ], [ 130.667529218, 32.692853868 ], [ 130.66742880699999, 32.692956261 ], [ 130.667573866999987, 32.693056185 ], [ 130.667708936999986, 32.692916452 ], [ 130.66673160900001, 32.690247013 ], [ 130.666495247, 32.689993302 ], [ 130.666254563, 32.689801227 ], [ 130.665940146, 32.689634918 ], [ 130.665020750999986, 32.689317727 ], [ 130.66580640399999, 32.690390563 ] ] ] } },
{ "type": "Feature", "properties": { "A29_001": "43211", "A29_002": "熊本県", "A29_003": "宇土市", "A29_004": 1, "A29_005": "第一種低層住居専用地域", "A29_006": 40, "A29_007": 80, "A29_008": null }, "geometry": { "type": "Polygon", "coordinates": [ [ [ 130.671123583999986, 32.675620856 ], [ 130.671611848, 32.675673926 ], [ 130.671606372000014, 32.675853425 ], [ 130.671904834, 32.675879033 ], [ 130.672206577, 32.67595457 ], [ 130.671994143, 32.676208138 ], [ 130.67364753699999, 32.676979346 ], [ 130.67358187799999, 32.677095824 ], [ 130.673537352000011, 32.677344337 ], [ 130.673607307, 32.677544882 ], [ 130.67368691199999, 32.677663506 ], [ 130.673733564, 32.67773918 ], [ 130.674001277, 32.677742681 ], [ 130.674856494000011, 32.67753486 ], [ 130.674810008, 32.676527276 ], [ 130.67369676199999, 32.676558357 ], [ 130.673418586, 32.676252083 ], [ 130.673334778999987, 32.676020037 ], [ 130.67332144299999, 32.675714452 ], [ 130.673076363, 32.675576315 ], [ 130.673033239, 32.67551891 ], [ 130.672890052000014, 32.675167166 ], [ 130.67282359, 32.674907272 ], [ 130.67324741199999, 32.674885461 ], [ 130.67319157899999, 32.674350607 ], [ 130.672478825000013, 32.674375487 ], [ 130.672228843, 32.674264074 ], [ 130.67207465199999, 32.674290401 ], [ 130.671992964, 32.674244358 ], [ 130.67168436899999, 32.674358134 ], [ 130.671450265, 32.675172945 ], [ 130.671188902000011, 32.675537006 ], [ 130.671123583999986, 32.675620856 ] ] ] } },
{ "type": "Feature", "properties": { "A29_001": "43211", "A29_002": "熊本県", "A29_003": "宇土市", "A29_004": 1, "A29_005": "第一種低層住居専用地域", "A29_006": 40, "A29_007": 80, "A29_008": null }, "geometry": { "type": "Polygon", "coordinates": [ [ [ 130.657681714, 32.677182484 ], [ 130.658285994000011, 32.677634944 ], [ 130.659654698999987, 32.676656146 ], [ 130.65909553899999, 32.676081223 ], [ 130.659002874, 32.676006987 ], [ 130.657681714, 32.677182484 ] ] ] } },
{ "type": "Feature", "properties": { "A29_001": "43211", "A29_002": "熊本県", "A29_003": "宇土市", "A29_004": 9, "A29_005": "商業地域", "A29_006": 80, "A29_007": 400, "A29_008": null }, "geometry": { "type": "Polygon", "coordinates": [ [ [ 130.66644824299999, 32.694856142 ], [ 130.666774417, 32.694764004 ], [ 130.666783372, 32.69478407 ], [ 130.666827441, 32.694770825 ], [ 130.66713317599999, 32.694713252 ], [ 130.668584388999989, 32.69443996 ], [ 130.66814425199999, 32.69332675 ], [ 130.666104252, 32.693846701 ], [ 130.666119423, 32.693895812 ], [ 130.66644824299999, 32.694856142 ] ] ] } },
{ "type": "Feature", "properties": { "A29_001": "43211", "A29_002": "熊本県", "A29_003": "宇土市", "A29_004": 6, "A29_005": "第二種住居地域", "A29_006": 60, "A29_007": 200, "A29_008": null }, "geometry": { "type": "Polygon", "coordinates": [ [ [ 130.673954688, 32.68892381 ], [ 130.673819877, 32.688751665 ], [ 130.673811828999987, 32.688637114 ], [ 130.673888452999989, 32.688515626 ], [ 130.673922572, 32.688444133 ], [ 130.673965415999987, 32.688301083 ], [ 130.674025215, 32.688150918 ], [ 130.674127102, 32.688065286 ], [ 130.674262692000013, 32.688022689 ], [ 130.674423624000013, 32.687994474 ], [ 130.67454223199999, 32.68796615 ], [ 130.67457635, 32.687894657 ], [ 130.674627657, 32.687751628 ], [ 130.674645881, 32.68760699 ], [ 130.67454159799999, 32.687630583 ], [ 130.673713408999987, 32.687810308 ], [ 130.67304931699999, 32.687975053 ], [ 130.67291416899999, 32.688045609 ], [ 130.672778806999986, 32.688177813 ], [ 130.671950656, 32.689117572 ], [ 130.673954688, 32.68892381 ] ] ] } },
{ "type": "Feature", "properties": { "A29_001": "43211", "A29_002": "熊本県", "A29_003": "宇土市", "A29_004": 6, "A29_005": "第二種住居地域", "A29_006": 60, "A29_007": 200, "A29_008": null }, "geometry": { "type": "Polygon", "coordinates": [ [ [ 130.671739422, 32.689137993 ], [ 130.671221010000011, 32.688783133 ], [ 130.671287336, 32.689181699 ], [ 130.671739422, 32.689137993 ] ] ] } },
{ "type": "Feature", "properties": { "A29_001": "43211", "A29_002": "熊本県", "A29_003": "宇土市", "A29_004": 8, "A29_005": "近隣商業地域", "A29_006": 80, "A29_007": 300, "A29_008": null }, "geometry": { "type": "Polygon", "coordinates": [ [ [ 130.67007182099999, 32.689955433 ], [ 130.670152750999989, 32.690015744 ], [ 130.670663811, 32.689970297 ], [ 130.670997238000012, 32.689936873 ], [ 130.671928737, 32.689837906 ], [ 130.674225154, 32.689613641 ], [ 130.674131764, 32.689500497 ], [ 130.67402089699999, 32.689339151 ], [ 130.67402209299999, 32.689009882 ], [ 130.673954688, 32.68892381 ], [ 130.671950656, 32.689117572 ], [ 130.671859952, 32.689220498 ], [ 130.671739422, 32.689137993 ], [ 130.671287336, 32.689181699 ], [ 130.671221010000011, 32.688783133 ], [ 130.670856285000013, 32.68853347 ], [ 130.669486046, 32.690013428 ], [ 130.67007182099999, 32.689955433 ] ] ] } },
{ "type": "Feature", "properties": { "A29_001": "43211", "A29_002": "熊本県", "A29_003": "宇土市", "A29_004": 8, "A29_005": "近隣商業地域", "A29_006": 80, "A29_007": 300, "A29_008": null }, "geometry": { "type": "Polygon", "coordinates": [ [ [ 130.672196039, 32.694015693 ], [ 130.672262749, 32.694019261 ], [ 130.672312643999987, 32.694032991 ], [ 130.672366753, 32.694051744 ], [ 130.67241067, 32.694079775 ], [ 130.672442714999988, 32.694113502 ], [ 130.672454499999986, 32.694131428 ], [ 130.672456094000012, 32.694158633 ], [ 130.67248758299999, 32.694112903 ], [ 130.672537768000012, 32.69404718 ], [ 130.67266277499999, 32.693891459 ], [ 130.67278288599999, 32.69368562 ], [ 130.672906446000013, 32.693462609 ], [ 130.672971323000013, 32.69331389 ], [ 130.67302081299999, 32.693206648 ], [ 130.673069335, 32.69313233 ], [ 130.673152601, 32.693048082 ], [ 130.673177321999987, 32.693000903 ], [ 130.673172333999986, 32.692975836 ], [ 130.673174262, 32.692911418 ], [ 130.673181207999988, 32.692863477 ], [ 130.673212014, 32.69277265 ], [ 130.67323162400001, 32.692734047 ], [ 130.673295438, 32.692644737 ], [ 130.673442661, 32.692467167 ], [ 130.673477069, 32.692429353 ], [ 130.67131469099999, 32.690956978 ], [ 130.671025676999989, 32.691285493 ], [ 130.670887572999987, 32.69146812 ], [ 130.67098253, 32.691985116 ], [ 130.670835075000014, 32.69190651 ], [ 130.67018191, 32.691507758 ], [ 130.670592203000012, 32.69331226 ], [ 130.671055059999986, 32.693243233 ], [ 130.671283928, 32.69434018 ], [ 130.66913725500001, 32.694567776 ], [ 130.669210948, 32.694999228 ], [ 130.66936999699999, 32.695930401 ], [ 130.671050341000011, 32.696357797 ], [ 130.671070482, 32.696098011 ], [ 130.671076647, 32.69595582 ], [ 130.67101445899999, 32.695946948 ], [ 130.67096234499999, 32.695922354 ], [ 130.670845517, 32.695871425 ], [ 130.670761774999988, 32.695804485 ], [ 130.670701608, 32.695730549 ], [ 130.670757013000014, 32.695703971 ], [ 130.67147512299999, 32.69536835 ], [ 130.67156701799999, 32.695317291 ], [ 130.671593048, 32.695144372 ], [ 130.671639244, 32.69491266 ], [ 130.671646259, 32.694868925 ], [ 130.671619392999986, 32.69467752 ], [ 130.671707919, 32.694571774 ], [ 130.671808355, 32.694429663 ], [ 130.671957248000012, 32.694224615 ], [ 130.672061852000013, 32.69409318 ], [ 130.67211960099999, 32.694042508 ], [ 130.672196039, 32.694015693 ] ] ] } },
{ "type": "Feature", "properties": { "A29_001": "43211", "A29_002": "熊本県", "A29_003": "宇土市", "A29_004": 9, "A29_005": "商業地域", "A29_006": 80, "A29_007": 400, "A29_008": null }, "geometry": { "type": "Polygon", "coordinates": [ [ [ 130.670767027000011, 32.69067743 ], [ 130.670887572999987, 32.69146812 ], [ 130.671025676999989, 32.691285493 ], [ 130.67131469099999, 32.690956978 ], [ 130.673477069, 32.692429353 ], [ 130.673551702999987, 32.692347333 ], [ 130.67371752599999, 32.69214018 ], [ 130.673809815999988, 32.691979362 ], [ 130.673910369, 32.69180125 ], [ 130.673978323, 32.691737003 ], [ 130.674088654, 32.691658551 ], [ 130.674181976, 32.691601529 ], [ 130.674275376999987, 32.691523032 ], [ 130.67434333, 32.691458786 ], [ 130.674428420999988, 32.691337319 ], [ 130.674496608, 32.69120865 ], [ 130.674598551, 32.691108701 ], [ 130.674734483, 32.69097305 ], [ 130.674793996, 32.690901623 ], [ 130.67479423, 32.690837201 ], [ 130.67478599899999, 32.690772757 ], [ 130.67478636199999, 32.690672544 ], [ 130.674837462999989, 32.69058678 ], [ 130.674837903999986, 32.690465093 ], [ 130.674846628000012, 32.690393535 ], [ 130.67468660099999, 32.690171219 ], [ 130.674526625999988, 32.689934587 ], [ 130.674493027000011, 32.689862918 ], [ 130.67438319199999, 32.689805369 ], [ 130.674324199000012, 32.689733635 ], [ 130.674225154, 32.689613641 ], [ 130.671928737, 32.689837906 ], [ 130.670997238000012, 32.689936873 ], [ 130.670663811, 32.689970297 ], [ 130.67069133699999, 32.69015827 ], [ 130.670725721, 32.690399946 ], [ 130.670767027000011, 32.69067743 ] ] ] } },
{ "type": "Feature", "properties": { "A29_001": "43211", "A29_002": "熊本県", "A29_003": "宇土市", "A29_004": 9, "A29_005": "商業地域", "A29_006": 80, "A29_007": 400, "A29_008": null }, "geometry": { "type": "Polygon", "coordinates": [ [ [ 130.66895039, 32.693579521 ], [ 130.66913725500001, 32.694567776 ], [ 130.671283928, 32.69434018 ], [ 130.671055059999986, 32.693243233 ], [ 130.670592203000012, 32.69331226 ], [ 130.66895039, 32.693579521 ] ] ] } },
{ "type": "Feature", "properties": { "A29_001": "43211", "A29_002": "熊本県", "A29_003": "宇土市", "A29_004": 7, "A29_005": "準住居地域", "A29_006": 60, "A29_007": 200, "A29_008": null }, "geometry": { "type": "Polygon", "coordinates": [ [ [ 130.671049818, 32.696381514 ], [ 130.671050341000011, 32.696357797 ], [ 130.66936999699999, 32.695930401 ], [ 130.669450501, 32.696409285 ], [ 130.669591935, 32.697271288 ], [ 130.669672803999987, 32.6972555 ], [ 130.669859196, 32.697214831 ], [ 130.670181387000014, 32.697079079 ], [ 130.670276247, 32.697038436 ], [ 130.670404651000013, 32.696987207 ], [ 130.670556530999988, 32.696950929 ], [ 130.67057410699999, 32.696947686 ], [ 130.67050798599999, 32.696730104 ], [ 130.670749462, 32.696646314 ], [ 130.670883221999986, 32.696596235 ], [ 130.670900257999989, 32.696501162 ], [ 130.67093416099999, 32.696489917 ], [ 130.671037864, 32.696489592 ], [ 130.671049818, 32.696381514 ] ] ] } },
{ "type": "Feature", "properties": { "A29_001": "43211", "A29_002": "熊本県", "A29_003": "宇土市", "A29_004": 10, "A29_005": "準工業地域", "A29_006": 60, "A29_007": 200, "A29_008": null }, "geometry": { "type": "Polygon", "coordinates": [ [ [ 130.670592203000012, 32.69331226 ], [ 130.670233615, 32.691735165 ], [ 130.670203522, 32.691602813 ], [ 130.67018191, 32.691507758 ], [ 130.670835075000014, 32.69190651 ], [ 130.67098253, 32.691985116 ], [ 130.670887572999987, 32.69146812 ], [ 130.670767027000011, 32.69067743 ], [ 130.670738230000012, 32.690483978 ], [ 130.670606948999989, 32.690617513 ], [ 130.67047453699999, 32.690746526 ], [ 130.670180764, 32.691032756 ], [ 130.670040338, 32.691160994 ], [ 130.669940693, 32.691248538 ], [ 130.669801517, 32.691343613 ], [ 130.669671244, 32.69147307 ], [ 130.669509223, 32.691641574 ], [ 130.669348646, 32.69178702 ], [ 130.668970109000014, 32.692129886 ], [ 130.668936151999986, 32.69217358 ], [ 130.668646488, 32.692216241 ], [ 130.668701494, 32.692428149 ], [ 130.668771684, 32.69269855 ], [ 130.66887430700001, 32.693180799 ], [ 130.66895039, 32.693579521 ], [ 130.670592203000012, 32.69331226 ] ] ] } }
]
}
