{
"type": "FeatureCollection",
"name": "A29-19_43213",
"features": [
{ "type": "Feature", "properties": { "A29_001": "43213", "A29_002": "熊本県", "A29_003": "宇城市", "A29_004": 2, "A29_005": "第二種低層住居専用地域", "A29_006": 50, "A29_007": 100, "A29_008": null }, "geometry": { "type": "Polygon", "coordinates": [ [ [ 130.698009861, 32.638722733 ], [ 130.698059878, 32.638552592 ], [ 130.698187080999986, 32.638262949 ], [ 130.697901088, 32.638189427 ], [ 130.697696150000013, 32.638072613 ], [ 130.697403156, 32.637935455 ], [ 130.697224024, 32.637857873 ], [ 130.69697344, 32.637851071 ], [ 130.696744548999988, 32.637828657 ], [ 130.696493048, 32.637817438 ], [ 130.69638027, 32.6378293 ], [ 130.696319743, 32.637831857 ], [ 130.696229327, 32.63785108 ], [ 130.696144053000012, 32.637874473 ], [ 130.69608046799999, 32.637891916 ], [ 130.696108275, 32.638340282 ], [ 130.69624960499999, 32.638706145 ], [ 130.696389012, 32.638975174 ], [ 130.69653691900001, 32.639256175 ], [ 130.696756892, 32.639665287 ], [ 130.69680209, 32.639719732 ], [ 130.696802891, 32.639796076 ], [ 130.696802967, 32.639803354 ], [ 130.696749297, 32.639838545 ], [ 130.696746321, 32.639840496 ], [ 130.696578912, 32.639875944 ], [ 130.69654999, 32.639882962 ], [ 130.69638394, 32.63994001 ], [ 130.69607223, 32.63998407 ], [ 130.695670299999989, 32.63999101 ], [ 130.695520749999986, 32.63999064 ], [ 130.69534292899999, 32.640056471 ], [ 130.695135303, 32.640133337 ], [ 130.695116899, 32.640362949 ], [ 130.69507547, 32.640625314 ], [ 130.69503790600001, 32.640787772 ], [ 130.695068846999987, 32.641018996 ], [ 130.695302105, 32.641020762 ], [ 130.696073930000011, 32.64109717 ], [ 130.69636989, 32.64110052 ], [ 130.69663166, 32.64108797 ], [ 130.696980238, 32.641010223 ], [ 130.696985735999988, 32.641247329 ], [ 130.697054337999987, 32.641358301 ], [ 130.697239867, 32.641371466 ], [ 130.69735536799999, 32.641371464 ], [ 130.697448342, 32.641390629 ], [ 130.69757226499999, 32.641472045 ], [ 130.697749743, 32.641539071 ], [ 130.69793846799999, 32.641572597 ], [ 130.69802714299999, 32.641580275 ], [ 130.698113697, 32.641401411 ], [ 130.698397062, 32.640975483 ], [ 130.698410631, 32.640955086 ], [ 130.698057487, 32.641019645 ], [ 130.697992481999989, 32.641018274 ], [ 130.697949513999987, 32.641017369 ], [ 130.698008886, 32.640760365 ], [ 130.698000799999988, 32.640712171 ], [ 130.697984297, 32.640666865 ], [ 130.698011906, 32.640631503 ], [ 130.69804226, 32.640530779 ], [ 130.698078641, 32.640410028 ], [ 130.69811388299999, 32.640293026 ], [ 130.698157095999989, 32.640149663 ], [ 130.698194282, 32.640023966 ], [ 130.69822444, 32.639891076 ], [ 130.698249847999989, 32.639758157 ], [ 130.698259255000011, 32.639612434 ], [ 130.698263024, 32.639478321 ], [ 130.698250766, 32.639365848 ], [ 130.698217789000012, 32.639285792 ], [ 130.698169752000013, 32.639162486 ], [ 130.698131853, 32.639073893 ], [ 130.698101936, 32.639003957 ], [ 130.69805106699999, 32.638893485 ], [ 130.698018448999989, 32.638787873 ], [ 130.698009861, 32.638722733 ] ] ] } },
{ "type": "Feature", "properties": { "A29_001": "43213", "A29_002": "熊本県", "A29_003": "宇城市", "A29_004": 10, "A29_005": "準工業地域", "A29_006": 60, "A29_007": 200, "A29_008": null }, "geometry": { "type": "Polygon", "coordinates": [ [ [ 130.698040768, 32.643163301 ], [ 130.698288795, 32.64309988 ], [ 130.698480584, 32.643058141 ], [ 130.69849984199999, 32.64293463 ], [ 130.698541592999987, 32.642836305 ], [ 130.698638899, 32.642727675 ], [ 130.698664689, 32.642715578 ], [ 130.698666620000012, 32.642487023 ], [ 130.698830224, 32.642439572 ], [ 130.698846575, 32.642294211 ], [ 130.69889354, 32.642217523 ], [ 130.69904617200001, 32.642167185 ], [ 130.698984865999989, 32.64205221 ], [ 130.699144891, 32.642010217 ], [ 130.69963485299999, 32.641793379 ], [ 130.699845433, 32.641719932 ], [ 130.699918196999988, 32.641774084 ], [ 130.700178931000011, 32.641811988 ], [ 130.70028023899999, 32.641798174 ], [ 130.70037034, 32.64180408 ], [ 130.70039726600001, 32.641801615 ], [ 130.700568796, 32.641710766 ], [ 130.700587821, 32.641734788 ], [ 130.700674107, 32.641843741 ], [ 130.700733292, 32.641800174 ], [ 130.70088103099999, 32.641632473 ], [ 130.701082781999986, 32.641631664 ], [ 130.70116433699999, 32.64150788 ], [ 130.70121486, 32.64151547 ], [ 130.701578047999988, 32.641480515 ], [ 130.701682260000013, 32.641324193 ], [ 130.701791343999986, 32.641117164 ], [ 130.701851884, 32.640932389 ], [ 130.70188405499999, 32.64079825 ], [ 130.70187759800001, 32.640619281 ], [ 130.701966338, 32.640434573 ], [ 130.701995012999987, 32.640291478 ], [ 130.70197685799999, 32.640108451 ], [ 130.70201406699999, 32.639860543 ], [ 130.702004386999988, 32.639590598 ], [ 130.702015402, 32.6394579 ], [ 130.702084743, 32.639276128 ], [ 130.702240743, 32.639005085 ], [ 130.702371652000011, 32.63885925 ], [ 130.702381201, 32.638841161 ], [ 130.70233746299999, 32.638804737 ], [ 130.702078683, 32.638711664 ], [ 130.701826966999988, 32.638614133 ], [ 130.70146782, 32.638492486 ], [ 130.701305115999986, 32.638446298 ], [ 130.700996164, 32.638403079 ], [ 130.70079649199999, 32.638356638 ], [ 130.700541205, 32.638283807 ], [ 130.700411701, 32.638240558 ], [ 130.700237441000013, 32.638130088 ], [ 130.700137576, 32.638093255 ], [ 130.700002656, 32.638067007 ], [ 130.7, 32.63806649 ], [ 130.69987007, 32.638041203 ], [ 130.699642649, 32.637984733 ], [ 130.699512926000011, 32.637974012 ], [ 130.699348982, 32.637983209 ], [ 130.699242559999988, 32.637995427 ], [ 130.699215649, 32.637998516 ], [ 130.699013847, 32.638050603 ], [ 130.698819267, 32.638110328 ], [ 130.698693158999987, 32.638168524 ], [ 130.698488856000012, 32.63821625 ], [ 130.69844233, 32.63822345 ], [ 130.698212735999988, 32.638258979 ], [ 130.698187080999986, 32.638262949 ], [ 130.698059878, 32.638552592 ], [ 130.698009861, 32.638722733 ], [ 130.698018448999989, 32.638787873 ], [ 130.69805106699999, 32.638893485 ], [ 130.698101936, 32.639003957 ], [ 130.698131853, 32.639073893 ], [ 130.698169752000013, 32.639162486 ], [ 130.698217789000012, 32.639285792 ], [ 130.698250766, 32.639365848 ], [ 130.698263024, 32.639478321 ], [ 130.698259255000011, 32.639612434 ], [ 130.698249847999989, 32.639758157 ], [ 130.69822444, 32.639891076 ], [ 130.698194282, 32.640023966 ], [ 130.698157095999989, 32.640149663 ], [ 130.69811388299999, 32.640293026 ], [ 130.698078641, 32.640410028 ], [ 130.69804226, 32.640530779 ], [ 130.698011906, 32.640631503 ], [ 130.697984297, 32.640666865 ], [ 130.698000799999988, 32.640712171 ], [ 130.698008886, 32.640760365 ], [ 130.697949513999987, 32.641017369 ], [ 130.697992481999989, 32.641018274 ], [ 130.698057487, 32.641019645 ], [ 130.698410631, 32.640955086 ], [ 130.69846095, 32.64096057 ], [ 130.69857624, 32.6409569 ], [ 130.69867901, 32.64096769 ], [ 130.698809759999989, 32.64100359 ], [ 130.698877024000012, 32.641033563 ], [ 130.698782153, 32.64125898 ], [ 130.698636196, 32.641608934 ], [ 130.698611913, 32.641666589 ], [ 130.698611879999987, 32.641666667 ], [ 130.698455427, 32.642038122 ], [ 130.698298611000013, 32.642410438 ], [ 130.69825454299999, 32.642527394 ], [ 130.698076205, 32.643021908 ], [ 130.698040768, 32.643163301 ] ] ] } },
{ "type": "Feature", "properties": { "A29_001": "43213", "A29_002": "熊本県", "A29_003": "宇城市", "A29_004": 1, "A29_005": "第一種低層住居専用地域", "A29_006": 40, "A29_007": 80, "A29_008": null }, "geometry": { "type": "Polygon", "coordinates": [ [ [ 130.696578912, 32.639875944 ], [ 130.696746321, 32.639840496 ], [ 130.696749297, 32.639838545 ], [ 130.696802967, 32.639803354 ], [ 130.696802891, 32.639796076 ], [ 130.69680209, 32.639719732 ], [ 130.696756892, 32.639665287 ], [ 130.69653691900001, 32.639256175 ], [ 130.696389012, 32.638975174 ], [ 130.69624960499999, 32.638706145 ], [ 130.696108275, 32.638340282 ], [ 130.69608046799999, 32.637891916 ], [ 130.695933552000014, 32.637903946 ], [ 130.69558313499999, 32.637917561 ], [ 130.695437852999987, 32.637906657 ], [ 130.695114612, 32.63791948 ], [ 130.695098136000013, 32.637912932 ], [ 130.69490153000001, 32.63792508 ], [ 130.69464905000001, 32.637964 ], [ 130.69423046, 32.63805855 ], [ 130.69345594, 32.63815156 ], [ 130.69312394, 32.63821137 ], [ 130.6928916, 32.63827803 ], [ 130.69306574, 32.63860203 ], [ 130.69315255, 32.63872878 ], [ 130.69316946, 32.63879472 ], [ 130.693169219999987, 32.63886589 ], [ 130.69316841, 32.63910314 ], [ 130.69349351, 32.63924101 ], [ 130.69328441, 32.63957331 ], [ 130.69353655899999, 32.63972531 ], [ 130.69354017399999, 32.639755515 ], [ 130.693661444000014, 32.639856472 ], [ 130.693782715, 32.639957429 ], [ 130.693828821000011, 32.640004517 ], [ 130.69382289699999, 32.640191285 ], [ 130.693801552999986, 32.640256139 ], [ 130.69346514, 32.64025188 ], [ 130.69337164, 32.64025957 ], [ 130.69327811, 32.6402791 ], [ 130.693178249999988, 32.640325 ], [ 130.69309076, 32.64039859 ], [ 130.69291309, 32.64065188 ], [ 130.69276283, 32.64085977 ], [ 130.69250488, 32.64112669 ], [ 130.69240702, 32.64127211 ], [ 130.69237396, 32.64137087 ], [ 130.69235806, 32.64146837 ], [ 130.69220399, 32.64142054 ], [ 130.69219909, 32.64148775 ], [ 130.69221393, 32.64159093 ], [ 130.69225805, 32.6416688 ], [ 130.69231782, 32.64172958 ], [ 130.692433670000014, 32.64179312 ], [ 130.69256823, 32.6418475 ], [ 130.69262895, 32.64185687 ], [ 130.6927552, 32.64183741 ], [ 130.69283338, 32.64198325 ], [ 130.69277878, 32.6420042 ], [ 130.692764415999989, 32.6420185 ], [ 130.692873292, 32.642265667 ], [ 130.69289619700001, 32.642332551 ], [ 130.693025299, 32.642329878 ], [ 130.693151296999986, 32.642669773 ], [ 130.693160303000013, 32.642705364 ], [ 130.693175365, 32.642761825 ], [ 130.693183143999988, 32.642790982 ], [ 130.692990047, 32.642818472 ], [ 130.692852469, 32.642846656 ], [ 130.692720212000012, 32.642864787 ], [ 130.692530420999987, 32.642891724 ], [ 130.692306976999987, 32.642902361 ], [ 130.69211013899999, 32.642863851 ], [ 130.69193302299999, 32.642856706 ], [ 130.691676945000012, 32.64286433 ], [ 130.691660487, 32.642919789 ], [ 130.69160872099999, 32.643001252 ], [ 130.69157701, 32.64311302 ], [ 130.69180737, 32.64317159 ], [ 130.69191933, 32.64322986 ], [ 130.692049809999986, 32.64334089 ], [ 130.692205230000013, 32.64344936 ], [ 130.69236702, 32.64351301 ], [ 130.69269692, 32.6436219 ], [ 130.692861740000012, 32.64371193 ], [ 130.693042, 32.64384418 ], [ 130.69313508, 32.64396039 ], [ 130.69324975, 32.64413729 ], [ 130.69345612, 32.64415295 ], [ 130.69365166, 32.64414355 ], [ 130.693911930000013, 32.64411123 ], [ 130.69405224, 32.64408258 ], [ 130.69427514, 32.64404358 ], [ 130.69437183, 32.64401481 ], [ 130.6944982, 32.64395976 ], [ 130.6947792, 32.64378646 ], [ 130.69490166, 32.64373997 ], [ 130.695000990000011, 32.64373593 ], [ 130.69639437, 32.64284633 ], [ 130.697837607, 32.642055863 ], [ 130.697886356, 32.641916847 ], [ 130.69794863199999, 32.641742517 ], [ 130.69802714299999, 32.641580275 ], [ 130.69793846799999, 32.641572597 ], [ 130.697749743, 32.641539071 ], [ 130.69757226499999, 32.641472045 ], [ 130.697448342, 32.641390629 ], [ 130.69735536799999, 32.641371464 ], [ 130.697239867, 32.641371466 ], [ 130.697054337999987, 32.641358301 ], [ 130.696985735999988, 32.641247329 ], [ 130.696980238, 32.641010223 ], [ 130.69663166, 32.64108797 ], [ 130.69636989, 32.64110052 ], [ 130.696073930000011, 32.64109717 ], [ 130.695302105, 32.641020762 ], [ 130.695068846999987, 32.641018996 ], [ 130.69503790600001, 32.640787772 ], [ 130.69507547, 32.640625314 ], [ 130.695116899, 32.640362949 ], [ 130.695135303, 32.640133337 ], [ 130.69534292899999, 32.640056471 ], [ 130.695520749999986, 32.63999064 ], [ 130.695670299999989, 32.63999101 ], [ 130.69607223, 32.63998407 ], [ 130.69638394, 32.63994001 ], [ 130.69654999, 32.639882962 ], [ 130.696578912, 32.639875944 ] ] ] } },
{ "type": "Feature", "properties": { "A29_001": "43213", "A29_002": "熊本県", "A29_003": "宇城市", "A29_004": 7, "A29_005": "準住居地域", "A29_006": 60, "A29_007": 200, "A29_008": null }, "geometry": { "type": "Polygon", "coordinates": [ [ [ 130.698040768, 32.643163301 ], [ 130.698076205, 32.643021908 ], [ 130.69825454299999, 32.642527394 ], [ 130.698298611000013, 32.642410438 ], [ 130.698455427, 32.642038122 ], [ 130.698611879999987, 32.641666667 ], [ 130.698611913, 32.641666589 ], [ 130.698636196, 32.641608934 ], [ 130.698782153, 32.64125898 ], [ 130.698877024000012, 32.641033563 ], [ 130.698809759999989, 32.64100359 ], [ 130.69867901, 32.64096769 ], [ 130.69857624, 32.6409569 ], [ 130.69846095, 32.64096057 ], [ 130.698410631, 32.640955086 ], [ 130.698113697, 32.641401411 ], [ 130.69794863199999, 32.641742517 ], [ 130.697886356, 32.641916847 ], [ 130.697796485, 32.642173131 ], [ 130.697644270000012, 32.642623131 ], [ 130.697581641999989, 32.64290185 ], [ 130.697443634, 32.643581541 ], [ 130.697372202, 32.643857256 ], [ 130.697333047, 32.644492446 ], [ 130.69737394399999, 32.644910103 ], [ 130.69743275799999, 32.645241309 ], [ 130.697459581, 32.645282328 ], [ 130.69749242, 32.64523069 ], [ 130.697875821, 32.644731629 ], [ 130.697860099, 32.64473285 ], [ 130.697856886000011, 32.644696788 ], [ 130.697839971, 32.644289761 ], [ 130.697859298999987, 32.644135406 ], [ 130.69788488099999, 32.643931105 ], [ 130.697915988, 32.643752444 ], [ 130.697968046, 32.643453458 ], [ 130.698040768, 32.643163301 ] ] ] } },
{ "type": "Feature", "properties": { "A29_001": "43213", "A29_002": "熊本県", "A29_003": "宇城市", "A29_004": 4, "A29_005": "第二種中高層住居専用地域", "A29_006": 60, "A29_007": 200, "A29_008": null }, "geometry": { "type": "Polygon", "coordinates": [ [ [ 130.682658620000012, 32.64623204 ], [ 130.68270049899999, 32.646301028 ], [ 130.683197428999989, 32.646090521 ], [ 130.68352381599999, 32.646006341 ], [ 130.684382253, 32.645696873 ], [ 130.68451954599999, 32.64568813 ], [ 130.684972288000012, 32.645510313 ], [ 130.684974699, 32.645409366 ], [ 130.68480214600001, 32.645171821 ], [ 130.68480212, 32.64517179 ], [ 130.68469024, 32.64508979 ], [ 130.684471050000013, 32.645004647 ], [ 130.684367056000013, 32.645067002 ], [ 130.684112153, 32.644999253 ], [ 130.683935107, 32.644926783 ], [ 130.68304497, 32.64468892 ], [ 130.682183009999989, 32.64437831 ], [ 130.68156708, 32.64409997 ], [ 130.68151408899999, 32.644087598 ], [ 130.681497983000014, 32.644096951 ], [ 130.681352507000014, 32.644060976 ], [ 130.681272560999986, 32.644054448 ], [ 130.680972309, 32.64408154 ], [ 130.680916609, 32.644193436 ], [ 130.680807018, 32.644413595 ], [ 130.68101339, 32.64450254 ], [ 130.681282399999986, 32.64464426 ], [ 130.681543440000013, 32.64483471 ], [ 130.68191589, 32.64524425 ], [ 130.68235493, 32.645766 ], [ 130.682658620000012, 32.64623204 ] ] ] } },
{ "type": "Feature", "properties": { "A29_001": "43213", "A29_002": "熊本県", "A29_003": "宇城市", "A29_004": 2, "A29_005": "第二種低層住居専用地域", "A29_006": 50, "A29_007": 100, "A29_008": null }, "geometry": { "type": "Polygon", "coordinates": [ [ [ 130.690385740000011, 32.643417722 ], [ 130.690299684, 32.643498503 ], [ 130.69026171499999, 32.643546061 ], [ 130.69010819799999, 32.643682182 ], [ 130.689983704000014, 32.643773134 ], [ 130.689863851000013, 32.643910793 ], [ 130.689836285000013, 32.644195867 ], [ 130.689850903, 32.644214982 ], [ 130.689851908, 32.644299417 ], [ 130.689851928, 32.644301106 ], [ 130.689881178, 32.644340453 ], [ 130.68991885, 32.644445552 ], [ 130.68999738, 32.644673912 ], [ 130.689940468, 32.645076417 ], [ 130.689917215, 32.645302288 ], [ 130.689867719, 32.645374403 ], [ 130.689843669, 32.645443629 ], [ 130.68969984, 32.64569671 ], [ 130.689719996, 32.645755895 ], [ 130.689749834, 32.645920382 ], [ 130.689657028999989, 32.645997327 ], [ 130.689582050000013, 32.6459719 ], [ 130.68885526, 32.645697552 ], [ 130.688754894999988, 32.64592895 ], [ 130.68958203, 32.64620189 ], [ 130.690495199999987, 32.64658507 ], [ 130.69084203, 32.6462999 ], [ 130.69155803000001, 32.64580674 ], [ 130.69265866, 32.64512933 ], [ 130.69365708, 32.64449581 ], [ 130.69417683, 32.64420842 ], [ 130.695000990000011, 32.64373593 ], [ 130.69490166, 32.64373997 ], [ 130.6947792, 32.64378646 ], [ 130.6944982, 32.64395976 ], [ 130.69437183, 32.64401481 ], [ 130.69427514, 32.64404358 ], [ 130.69405224, 32.64408258 ], [ 130.693911930000013, 32.64411123 ], [ 130.69365166, 32.64414355 ], [ 130.69345612, 32.64415295 ], [ 130.69324975, 32.64413729 ], [ 130.69313508, 32.64396039 ], [ 130.693042, 32.64384418 ], [ 130.692861740000012, 32.64371193 ], [ 130.69269692, 32.6436219 ], [ 130.69236702, 32.64351301 ], [ 130.692205230000013, 32.64344936 ], [ 130.692049809999986, 32.64334089 ], [ 130.69191933, 32.64322986 ], [ 130.69180737, 32.64317159 ], [ 130.69157701, 32.64311302 ], [ 130.69118989399999, 32.643068143 ], [ 130.691125761, 32.643111968 ], [ 130.69086665, 32.643114686 ], [ 130.690631177, 32.643163318 ], [ 130.69046455099999, 32.643180803 ], [ 130.690385740000011, 32.643417722 ] ] ] } },
{ "type": "Feature", "properties": { "A29_001": "43213", "A29_002": "熊本県", "A29_003": "宇城市", "A29_004": 3, "A29_005": "第一種中高層住居専用地域", "A29_006": 60, "A29_007": 200, "A29_008": null }, "geometry": { "type": "Polygon", "coordinates": [ [ [ 130.667293545, 32.646644921 ], [ 130.667884641, 32.645545402 ], [ 130.667985662, 32.644919332 ], [ 130.667984100000012, 32.644581838 ], [ 130.66787806, 32.64454691 ], [ 130.667461800000012, 32.64441993 ], [ 130.666994675000012, 32.644327762 ], [ 130.666569834, 32.643235935 ], [ 130.666370669, 32.642758942 ], [ 130.66632031899999, 32.642784586 ], [ 130.66565083399999, 32.642947165 ], [ 130.665581988000014, 32.642915359 ], [ 130.66540894, 32.642586377 ], [ 130.665343076999989, 32.642597684 ], [ 130.66460267299999, 32.642909697 ], [ 130.66400033, 32.643139608 ], [ 130.663574057, 32.643301761 ], [ 130.663547919, 32.643249004 ], [ 130.66330504199999, 32.642772009 ], [ 130.66295692599999, 32.642186121 ], [ 130.66289931899999, 32.64207459 ], [ 130.662875396, 32.642028272 ], [ 130.662844175, 32.642039917 ], [ 130.662169981, 32.642291378 ], [ 130.6619184, 32.642401428 ], [ 130.66189104899999, 32.642343728 ], [ 130.661851512, 32.642260322 ], [ 130.66181074799999, 32.642307402 ], [ 130.661429301, 32.642747951 ], [ 130.66134736, 32.64271517 ], [ 130.660581446, 32.642268362 ], [ 130.660182690999989, 32.64275353 ], [ 130.659810744, 32.643230105 ], [ 130.659535825, 32.643567134 ], [ 130.658831716, 32.644482358 ], [ 130.65874233, 32.64444266 ], [ 130.658439867, 32.644267265 ], [ 130.658080004, 32.64470214 ], [ 130.65791593099999, 32.644912129 ], [ 130.65811104, 32.64494707 ], [ 130.658555527, 32.645011946 ], [ 130.658981009, 32.644989643 ], [ 130.65942511099999, 32.644880729 ], [ 130.659818542000011, 32.644755892 ], [ 130.660146747999988, 32.644661339 ], [ 130.660683635, 32.644623623 ], [ 130.66101129, 32.64466892 ], [ 130.66191401, 32.64489278 ], [ 130.66289126, 32.64518538 ], [ 130.66510125, 32.64577651 ], [ 130.667177970000012, 32.64660581 ], [ 130.667293545, 32.646644921 ] ] ] } },
{ "type": "Feature", "properties": { "A29_001": "43213", "A29_002": "熊本県", "A29_003": "宇城市", "A29_004": 11, "A29_005": "工業地域", "A29_006": 60, "A29_007": 200, "A29_008": null }, "geometry": { "type": "Polygon", "coordinates": [ [ [ 130.67108697899999, 32.646381771 ], [ 130.671418087, 32.646667006 ], [ 130.67191790699999, 32.646638115 ], [ 130.672434337, 32.646404588 ], [ 130.673236640999988, 32.646081207 ], [ 130.674034682000013, 32.645838339 ], [ 130.67562291499999, 32.645325725 ], [ 130.675457947000012, 32.644882389 ], [ 130.675464336, 32.644211331 ], [ 130.675361745, 32.644066784 ], [ 130.67531924799999, 32.643754624 ], [ 130.67524289, 32.642935715 ], [ 130.675190961, 32.642937295 ], [ 130.674939021, 32.64294496 ], [ 130.674634653999988, 32.643340141 ], [ 130.674184931000013, 32.643776851 ], [ 130.673767234, 32.644129758 ], [ 130.673732425, 32.644146557 ], [ 130.67323551199999, 32.644483207 ], [ 130.67323081699999, 32.644513523 ], [ 130.67297001, 32.64467001 ], [ 130.67189001, 32.64533001 ], [ 130.67175554, 32.645412061 ], [ 130.671192009, 32.645858608 ], [ 130.670925430000011, 32.646160695 ], [ 130.670877393000012, 32.646215131 ], [ 130.67108697899999, 32.646381771 ] ] ] } },
{ "type": "Feature", "properties": { "A29_001": "43213", "A29_002": "熊本県", "A29_003": "宇城市", "A29_004": 6, "A29_005": "第二種住居地域", "A29_006": 60, "A29_007": 200, "A29_008": null }, "geometry": { "type": "Polygon", "coordinates": [ [ [ 130.667293545, 32.646644921 ], [ 130.668116199999986, 32.64692331 ], [ 130.668611090000013, 32.6470696 ], [ 130.66904996, 32.64719202 ], [ 130.66984001, 32.64737001 ], [ 130.67000222499999, 32.647387774 ], [ 130.67044399, 32.64663881 ], [ 130.670475162, 32.646579812 ], [ 130.670239041, 32.646405625 ], [ 130.670196479999987, 32.64636994 ], [ 130.66966890099999, 32.645997772 ], [ 130.668493896, 32.644857203 ], [ 130.668267203999989, 32.64467094 ], [ 130.668085780000013, 32.64461533 ], [ 130.667984100000012, 32.644581838 ], [ 130.667985662, 32.644919332 ], [ 130.667884641, 32.645545402 ], [ 130.667293545, 32.646644921 ] ] ] } },
{ "type": "Feature", "properties": { "A29_001": "43213", "A29_002": "熊本県", "A29_003": "宇城市", "A29_004": 11, "A29_005": "工業地域", "A29_006": 60, "A29_007": 200, "A29_008": null }, "geometry": { "type": "Polygon", "coordinates": [ [ [ 130.651776606999988, 32.647557352 ], [ 130.65189872900001, 32.647589918 ], [ 130.652754597000012, 32.64781815 ], [ 130.653053687000011, 32.647916176 ], [ 130.653363582, 32.648014174 ], [ 130.653440307000011, 32.648023912 ], [ 130.654813061, 32.646742046 ], [ 130.655342698999988, 32.646237911 ], [ 130.655598469000012, 32.646019611 ], [ 130.65667435200001, 32.645015977 ], [ 130.656580434, 32.644966049 ], [ 130.656311144, 32.644826466 ], [ 130.656035808000013, 32.644683748 ], [ 130.656026961, 32.644687345 ], [ 130.654203849, 32.643794822 ], [ 130.65412358899999, 32.643954425 ], [ 130.654073923999988, 32.644150018 ], [ 130.653807733, 32.644960166 ], [ 130.65358508, 32.645791685 ], [ 130.653485663, 32.646204121 ], [ 130.653364485, 32.6467742 ], [ 130.652962653, 32.646759668 ], [ 130.65187745099999, 32.646701008 ], [ 130.651855098, 32.64704301 ], [ 130.651776606999988, 32.647557352 ] ] ] } },
{ "type": "Feature", "properties": { "A29_001": "43213", "A29_002": "熊本県", "A29_003": "宇城市", "A29_004": 1, "A29_005": "第一種低層住居専用地域", "A29_006": 40, "A29_007": 80, "A29_008": null }, "geometry": { "type": "Polygon", "coordinates": [ [ [ 130.69737394399999, 32.644910103 ], [ 130.697333047, 32.644492446 ], [ 130.69733911, 32.644394091 ], [ 130.69726146, 32.64442217 ], [ 130.69685377, 32.64497542 ], [ 130.69665706, 32.64509622 ], [ 130.69652298, 32.64512752 ], [ 130.69634517, 32.64519036 ], [ 130.69629833, 32.64522452 ], [ 130.69625763, 32.64527977 ], [ 130.69624805, 32.64534828 ], [ 130.696219610000014, 32.64546684 ], [ 130.69607695, 32.64573143 ], [ 130.69579418, 32.64550667 ], [ 130.69531573, 32.64647427 ], [ 130.69542770000001, 32.64653254 ], [ 130.69529344, 32.64661657 ], [ 130.69519638, 32.64675341 ], [ 130.69507743, 32.6469192 ], [ 130.69497124, 32.64699011 ], [ 130.69483053, 32.6471374 ], [ 130.69504522, 32.64722754 ], [ 130.6951306, 32.64731606 ], [ 130.695459989999989, 32.64758047 ], [ 130.695199159999987, 32.64800359 ], [ 130.69551038, 32.64810979 ], [ 130.695731529999989, 32.64813141 ], [ 130.69589353, 32.64813971 ], [ 130.69606187, 32.6481164 ], [ 130.697228380000013, 32.64776598 ], [ 130.69722284, 32.64756298 ], [ 130.69725766, 32.64739963 ], [ 130.69735185, 32.64718634 ], [ 130.697473910000014, 32.64702583 ], [ 130.69758955, 32.64692066 ], [ 130.69759595, 32.64687323 ], [ 130.69757741, 32.64682573 ], [ 130.6975277, 32.64678344 ], [ 130.6967986, 32.64632168 ], [ 130.697459581, 32.645282328 ], [ 130.69743275799999, 32.645241309 ], [ 130.69737394399999, 32.644910103 ] ] ] } },
{ "type": "Feature", "properties": { "A29_001": "43213", "A29_002": "熊本県", "A29_003": "宇城市", "A29_004": 3, "A29_005": "第一種中高層住居専用地域", "A29_006": 60, "A29_007": 200, "A29_008": null }, "geometry": { "type": "Polygon", "coordinates": [ [ [ 130.685366101, 32.646671609 ], [ 130.68529468700001, 32.646930912 ], [ 130.685260047000014, 32.647258906 ], [ 130.685248933, 32.64741248 ], [ 130.685256864, 32.647664526 ], [ 130.685242214, 32.647821074 ], [ 130.68520468, 32.647968616 ], [ 130.685228982000012, 32.648076049 ], [ 130.685281094, 32.648295398 ], [ 130.685333164000014, 32.648521033 ], [ 130.68651315, 32.64838354 ], [ 130.68755765, 32.64818843 ], [ 130.68796311, 32.64807083 ], [ 130.6883999, 32.64791111 ], [ 130.68887428, 32.64768821 ], [ 130.6894395, 32.6473232 ], [ 130.690495199999987, 32.64658507 ], [ 130.68958203, 32.64620189 ], [ 130.688754894999988, 32.64592895 ], [ 130.688706368999988, 32.64604083 ], [ 130.68865883, 32.64602035 ], [ 130.686807538000011, 32.645479353 ], [ 130.685714077, 32.645843236 ], [ 130.685513042999986, 32.645869576 ], [ 130.685412955, 32.645893598 ], [ 130.685440594, 32.646036511 ], [ 130.685435993, 32.646343703 ], [ 130.685366101, 32.646671609 ] ] ] } },
{ "type": "Feature", "properties": { "A29_001": "43213", "A29_002": "熊本県", "A29_003": "宇城市", "A29_004": 2, "A29_005": "第二種低層住居専用地域", "A29_006": 50, "A29_007": 100, "A29_008": null }, "geometry": { "type": "Polygon", "coordinates": [ [ [ 130.695199159999987, 32.64800359 ], [ 130.695459989999989, 32.64758047 ], [ 130.6951306, 32.64731606 ], [ 130.69504522, 32.64722754 ], [ 130.69483053, 32.6471374 ], [ 130.69497124, 32.64699011 ], [ 130.69507743, 32.6469192 ], [ 130.69519638, 32.64675341 ], [ 130.69529344, 32.64661657 ], [ 130.69542770000001, 32.64653254 ], [ 130.69531573, 32.64647427 ], [ 130.69579418, 32.64550667 ], [ 130.69607695, 32.64573143 ], [ 130.696219610000014, 32.64546684 ], [ 130.69624805, 32.64534828 ], [ 130.69625763, 32.64527977 ], [ 130.69629833, 32.64522452 ], [ 130.69634517, 32.64519036 ], [ 130.69652298, 32.64512752 ], [ 130.69665706, 32.64509622 ], [ 130.69685377, 32.64497542 ], [ 130.69726146, 32.64442217 ], [ 130.697151850000012, 32.64435534 ], [ 130.69705249, 32.64425757 ], [ 130.69699057, 32.64413617 ], [ 130.69693475, 32.64405958 ], [ 130.69679495, 32.64394062 ], [ 130.69591459, 32.64444989 ], [ 130.69296891, 32.64619968 ], [ 130.69241548, 32.64653772 ], [ 130.691642480000013, 32.64729831 ], [ 130.69151756, 32.64760972 ], [ 130.69182367, 32.64784377 ], [ 130.69177246000001, 32.64823906 ], [ 130.69180635, 32.64834986 ], [ 130.692106599999988, 32.64893054 ], [ 130.69242641, 32.64880611 ], [ 130.69273263, 32.64855642 ], [ 130.6930141, 32.64824606 ], [ 130.6932266, 32.64806732 ], [ 130.69339518000001, 32.6479702 ], [ 130.69360104, 32.64791007 ], [ 130.693878469999987, 32.64787385 ], [ 130.694096519999988, 32.64789283 ], [ 130.694408, 32.64792258 ], [ 130.69485332, 32.64799748 ], [ 130.69490346, 32.64791324 ], [ 130.695199159999987, 32.64800359 ] ] ] } },
{ "type": "Feature", "properties": { "A29_001": "43213", "A29_002": "熊本県", "A29_003": "宇城市", "A29_004": 6, "A29_005": "第二種住居地域", "A29_006": 60, "A29_007": 200, "A29_008": null }, "geometry": { "type": "Polygon", "coordinates": [ [ [ 130.685366101, 32.646671609 ], [ 130.685435993, 32.646343703 ], [ 130.685440594, 32.646036511 ], [ 130.685412955, 32.645893598 ], [ 130.685354015, 32.645907744 ], [ 130.685190207, 32.645947059 ], [ 130.68518305399999, 32.645906583 ], [ 130.685096875, 32.645418912 ], [ 130.6850303, 32.6454083 ], [ 130.684974699, 32.645409366 ], [ 130.684972288000012, 32.645510313 ], [ 130.68451954599999, 32.64568813 ], [ 130.684382253, 32.645696873 ], [ 130.68352381599999, 32.646006341 ], [ 130.683197428999989, 32.646090521 ], [ 130.68270049899999, 32.646301028 ], [ 130.68238342699999, 32.646430327 ], [ 130.683017917, 32.647260721 ], [ 130.683572492, 32.647951091 ], [ 130.683761013, 32.648476496 ], [ 130.684087225000013, 32.649363839 ], [ 130.684113835, 32.649398994 ], [ 130.685050467999986, 32.649219984 ], [ 130.685530102, 32.649128313 ], [ 130.685583495, 32.649118108 ], [ 130.68541686, 32.64878786 ], [ 130.68536270199999, 32.648649035 ], [ 130.685281094, 32.648295398 ], [ 130.685228982000012, 32.648076049 ], [ 130.68520468, 32.647968616 ], [ 130.685242214, 32.647821074 ], [ 130.685256864, 32.647664526 ], [ 130.685248933, 32.64741248 ], [ 130.685260047000014, 32.647258906 ], [ 130.68529468700001, 32.646930912 ], [ 130.685366101, 32.646671609 ] ] ] } },
{ "type": "Feature", "properties": { "A29_001": "43213", "A29_002": "熊本県", "A29_003": "宇城市", "A29_004": 5, "A29_005": "第一種住居地域", "A29_006": 60, "A29_007": 200, "A29_008": null }, "geometry": { "type": "Polygon", "coordinates": [ [ [ 130.67356034, 32.64949327 ], [ 130.67366823099999, 32.649550109 ], [ 130.674565486, 32.648203578 ], [ 130.674804685999987, 32.64786195 ], [ 130.67534617199999, 32.647279516 ], [ 130.67551341, 32.647095403 ], [ 130.675440845, 32.646872083 ], [ 130.67506488399999, 32.646161757 ], [ 130.674984383, 32.646189588 ], [ 130.674974198, 32.646193111 ], [ 130.67463187199999, 32.646304926 ], [ 130.673831916000012, 32.646557642 ], [ 130.673290509, 32.64672535 ], [ 130.673063853, 32.64677205 ], [ 130.672993206, 32.646786606 ], [ 130.672877123, 32.646909761 ], [ 130.6723935, 32.647203352 ], [ 130.672421864, 32.647378452 ], [ 130.672349803, 32.64756281 ], [ 130.672571736, 32.648152257 ], [ 130.67266957199999, 32.648513215 ], [ 130.672745920000011, 32.648785199 ], [ 130.672784944999989, 32.64895978 ], [ 130.672728760000012, 32.649140824 ], [ 130.67272939, 32.649295503 ], [ 130.67356034, 32.64949327 ] ] ] } },
{ "type": "Feature", "properties": { "A29_001": "43213", "A29_002": "熊本県", "A29_003": "宇城市", "A29_004": 3, "A29_005": "第一種中高層住居専用地域", "A29_006": 60, "A29_007": 200, "A29_008": null }, "geometry": { "type": "Polygon", "coordinates": [ [ [ 130.678123551, 32.646400849 ], [ 130.67791678, 32.64655131 ], [ 130.677739591, 32.646747145 ], [ 130.677421363, 32.647011403 ], [ 130.677392989999987, 32.647037566 ], [ 130.677797671, 32.64769351 ], [ 130.678083535000013, 32.648160641 ], [ 130.678353622, 32.648604242 ], [ 130.67869064300001, 32.649185585 ], [ 130.67895281599999, 32.64962581 ], [ 130.67906335699999, 32.649801926 ], [ 130.679088873000012, 32.649842579 ], [ 130.68044244, 32.64952895 ], [ 130.681268069999987, 32.649338115 ], [ 130.681922988999986, 32.649193817 ], [ 130.682946815, 32.649031994 ], [ 130.683559933, 32.648931202 ], [ 130.683461638000011, 32.648687689 ], [ 130.683300562, 32.648252762 ], [ 130.68301441, 32.647859461 ], [ 130.682590209000011, 32.647251066 ], [ 130.682463961, 32.647062846 ], [ 130.682400293, 32.647083693 ], [ 130.682255504000011, 32.647131103 ], [ 130.68222212399999, 32.647089546 ], [ 130.681864592000011, 32.646644423 ], [ 130.681736257000011, 32.646486395 ], [ 130.681697165, 32.646494403 ], [ 130.681641802, 32.646505744 ], [ 130.681618133, 32.646452769 ], [ 130.68149563599999, 32.646118371 ], [ 130.68132012800001, 32.645842784 ], [ 130.680986264000012, 32.645487944 ], [ 130.680821484, 32.64541247 ], [ 130.680727639999986, 32.64534537 ], [ 130.68049749, 32.64522879 ], [ 130.68030447000001, 32.64518349 ], [ 130.68003144299999, 32.645215407 ], [ 130.679630301, 32.645378797 ], [ 130.679262845000011, 32.645548983 ], [ 130.679109720000014, 32.645671063 ], [ 130.678823356, 32.645899335 ], [ 130.678449473, 32.646202039 ], [ 130.678397186000012, 32.646154631 ], [ 130.678358550000013, 32.6461196 ], [ 130.678214106000013, 32.646216722 ], [ 130.678123551, 32.646400849 ] ] ] } },
{ "type": "Feature", "properties": { "A29_001": "43213", "A29_002": "熊本県", "A29_003": "宇城市", "A29_004": 8, "A29_005": "近隣商業地域", "A29_006": 80, "A29_007": 200, "A29_008": null }, "geometry": { "type": "Polygon", "coordinates": [ [ [ 130.67587755, 32.64588717 ], [ 130.67580128099999, 32.645903311 ], [ 130.675350745, 32.64606294 ], [ 130.67506488399999, 32.646161757 ], [ 130.675440845, 32.646872083 ], [ 130.67551341, 32.647095403 ], [ 130.67534617199999, 32.647279516 ], [ 130.674804685999987, 32.64786195 ], [ 130.674565486, 32.648203578 ], [ 130.67366823099999, 32.649550109 ], [ 130.67356034, 32.64949327 ], [ 130.67272939, 32.649295503 ], [ 130.672730709, 32.649619863 ], [ 130.673383159999986, 32.64980255 ], [ 130.673675550000013, 32.64994039 ], [ 130.673805963, 32.649969795 ], [ 130.67396915, 32.649797725 ], [ 130.674014763, 32.649749629 ], [ 130.674116676000011, 32.64983937 ], [ 130.674230071000011, 32.649944574 ], [ 130.67433415299999, 32.650041137 ], [ 130.674546894, 32.649580199 ], [ 130.675011547, 32.648785213 ], [ 130.67543759899999, 32.648319918 ], [ 130.676066644, 32.647652146 ], [ 130.676686659000012, 32.647255009 ], [ 130.676734477, 32.64722438 ], [ 130.676833308999989, 32.647351661 ], [ 130.676896335, 32.64743283 ], [ 130.677252078, 32.647167502 ], [ 130.677421363, 32.647011403 ], [ 130.677739591, 32.646747145 ], [ 130.67791678, 32.64655131 ], [ 130.677566399, 32.646238615 ], [ 130.67778374299999, 32.646047663 ], [ 130.677372388, 32.645739589 ], [ 130.67734285200001, 32.645758714 ], [ 130.677026546, 32.64596351 ], [ 130.676372453, 32.646433256 ], [ 130.676341796, 32.646376208 ], [ 130.67624244699999, 32.646191334 ], [ 130.676062965, 32.645922441 ], [ 130.675970310999986, 32.645954451 ], [ 130.675962841, 32.645942945 ], [ 130.675916851000011, 32.645872098 ], [ 130.67587755, 32.64588717 ] ] ] } },
{ "type": "Feature", "properties": { "A29_001": "43213", "A29_002": "熊本県", "A29_003": "宇城市", "A29_004": 6, "A29_005": "第二種住居地域", "A29_006": 60, "A29_007": 200, "A29_008": null }, "geometry": { "type": "Polygon", "coordinates": [ [ [ 130.688531683, 32.648947293 ], [ 130.688553307, 32.648945129 ], [ 130.688587353, 32.648944054 ], [ 130.688631229, 32.649404478 ], [ 130.688634971999988, 32.649445241 ], [ 130.68892651199999, 32.649355402 ], [ 130.688961424000013, 32.649344644 ], [ 130.688967276999989, 32.649690635 ], [ 130.68893318799999, 32.650372064 ], [ 130.688908751000014, 32.650588435 ], [ 130.688905911, 32.650613583 ], [ 130.69033337499999, 32.650717029 ], [ 130.690783786, 32.650743085 ], [ 130.690818033, 32.650745066 ], [ 130.69080752, 32.650982899 ], [ 130.690822884999989, 32.651180064 ], [ 130.691656927999986, 32.651231292 ], [ 130.69213719199999, 32.651246379 ], [ 130.6923362, 32.65126469 ], [ 130.69635094, 32.65155061 ], [ 130.69372372, 32.65076921 ], [ 130.692641290000012, 32.65066244 ], [ 130.691756840000011, 32.65052056 ], [ 130.68981522499999, 32.650395869 ], [ 130.68981583199999, 32.64925812 ], [ 130.689792084, 32.649071348 ], [ 130.69018422, 32.64889681 ], [ 130.690352639999986, 32.64884714 ], [ 130.69047104, 32.64885007 ], [ 130.69068904, 32.64888223 ], [ 130.691078190000013, 32.64898073 ], [ 130.69130547, 32.64903138 ], [ 130.69145814, 32.64903702 ], [ 130.69173862, 32.64902189 ], [ 130.6919069, 32.64901176 ], [ 130.692106599999988, 32.64893054 ], [ 130.69180635, 32.64834986 ], [ 130.69177246000001, 32.64823906 ], [ 130.69182367, 32.64784377 ], [ 130.69151756, 32.64760972 ], [ 130.691642480000013, 32.64729831 ], [ 130.69172989, 32.64702503 ], [ 130.691155355, 32.646848359 ], [ 130.69042608699999, 32.647364212 ], [ 130.690169946, 32.647524638 ], [ 130.689836071, 32.647735575 ], [ 130.68883958, 32.648410149 ], [ 130.688539345, 32.648576428 ], [ 130.688538693999988, 32.648764327 ], [ 130.688531683, 32.648947293 ] ] ] } },
{ "type": "Feature", "properties": { "A29_001": "43213", "A29_002": "熊本県", "A29_003": "宇城市", "A29_004": 5, "A29_005": "第一種住居地域", "A29_006": 60, "A29_007": 200, "A29_008": null }, "geometry": { "type": "Polygon", "coordinates": [ [ [ 130.68834837599999, 32.648958665 ], [ 130.688470099999989, 32.648953456 ], [ 130.688531683, 32.648947293 ], [ 130.688538693999988, 32.648764327 ], [ 130.688539345, 32.648576428 ], [ 130.68883958, 32.648410149 ], [ 130.689836071, 32.647735575 ], [ 130.690169946, 32.647524638 ], [ 130.69042608699999, 32.647364212 ], [ 130.691155355, 32.646848359 ], [ 130.69172989, 32.64702503 ], [ 130.691642480000013, 32.64729831 ], [ 130.69241548, 32.64653772 ], [ 130.69296891, 32.64619968 ], [ 130.69591459, 32.64444989 ], [ 130.69679495, 32.64394062 ], [ 130.69693475, 32.64405958 ], [ 130.69699057, 32.64413617 ], [ 130.69705249, 32.64425757 ], [ 130.697151850000012, 32.64435534 ], [ 130.69726146, 32.64442217 ], [ 130.69733911, 32.644394091 ], [ 130.697372202, 32.643857256 ], [ 130.697443634, 32.643581541 ], [ 130.697581641999989, 32.64290185 ], [ 130.697644270000012, 32.642623131 ], [ 130.697796485, 32.642173131 ], [ 130.697837607, 32.642055863 ], [ 130.69639437, 32.64284633 ], [ 130.695000990000011, 32.64373593 ], [ 130.69417683, 32.64420842 ], [ 130.69365708, 32.64449581 ], [ 130.69265866, 32.64512933 ], [ 130.69155803000001, 32.64580674 ], [ 130.69084203, 32.6462999 ], [ 130.690495199999987, 32.64658507 ], [ 130.6894395, 32.6473232 ], [ 130.68887428, 32.64768821 ], [ 130.6883999, 32.64791111 ], [ 130.68796311, 32.64807083 ], [ 130.68755765, 32.64818843 ], [ 130.68651315, 32.64838354 ], [ 130.685333164000014, 32.648521033 ], [ 130.68536270199999, 32.648649035 ], [ 130.68541686, 32.64878786 ], [ 130.685583495, 32.649118108 ], [ 130.685530102, 32.649128313 ], [ 130.685050467999986, 32.649219984 ], [ 130.684113835, 32.649398994 ], [ 130.684087225000013, 32.649363839 ], [ 130.683761013, 32.648476496 ], [ 130.683572492, 32.647951091 ], [ 130.683017917, 32.647260721 ], [ 130.68238342699999, 32.646430327 ], [ 130.68270049899999, 32.646301028 ], [ 130.682658620000012, 32.64623204 ], [ 130.68235493, 32.645766 ], [ 130.68191589, 32.64524425 ], [ 130.681543440000013, 32.64483471 ], [ 130.681282399999986, 32.64464426 ], [ 130.68101339, 32.64450254 ], [ 130.680807018, 32.644413595 ], [ 130.680916609, 32.644193436 ], [ 130.680972309, 32.64408154 ], [ 130.680960355, 32.644071757 ], [ 130.680864848, 32.644099636 ], [ 130.680162475, 32.644304662 ], [ 130.680137953000013, 32.644261353 ], [ 130.679854271000011, 32.644375349 ], [ 130.679716664000011, 32.644431657 ], [ 130.67926426299999, 32.644596153 ], [ 130.678500114, 32.644925205 ], [ 130.677925128999988, 32.645145491 ], [ 130.677896163000014, 32.645172757 ], [ 130.67745135199999, 32.645347586 ], [ 130.677190098000011, 32.645454287 ], [ 130.677005959000013, 32.645516089 ], [ 130.676287867000013, 32.645793765 ], [ 130.676185288, 32.645848823 ], [ 130.676062965, 32.645922441 ], [ 130.67624244699999, 32.646191334 ], [ 130.676341796, 32.646376208 ], [ 130.676372453, 32.646433256 ], [ 130.677026546, 32.64596351 ], [ 130.67734285200001, 32.645758714 ], [ 130.677372388, 32.645739589 ], [ 130.67778374299999, 32.646047663 ], [ 130.677566399, 32.646238615 ], [ 130.67785636799999, 32.646497396 ], [ 130.67791678, 32.64655131 ], [ 130.678123551, 32.646400849 ], [ 130.678214106000013, 32.646216722 ], [ 130.678358550000013, 32.6461196 ], [ 130.678397186000012, 32.646154631 ], [ 130.678449473, 32.646202039 ], [ 130.678823356, 32.645899335 ], [ 130.679109720000014, 32.645671063 ], [ 130.679262845000011, 32.645548983 ], [ 130.679630301, 32.645378797 ], [ 130.68003144299999, 32.645215407 ], [ 130.68030447000001, 32.64518349 ], [ 130.68049749, 32.64522879 ], [ 130.680727639999986, 32.64534537 ], [ 130.680821484, 32.64541247 ], [ 130.680986264000012, 32.645487944 ], [ 130.68132012800001, 32.645842784 ], [ 130.68149563599999, 32.646118371 ], [ 130.681618133, 32.646452769 ], [ 130.681641802, 32.646505744 ], [ 130.681697165, 32.646494403 ], [ 130.681736257000011, 32.646486395 ], [ 130.681864592000011, 32.646644423 ], [ 130.68222212399999, 32.647089546 ], [ 130.682255504000011, 32.647131103 ], [ 130.682400293, 32.647083693 ], [ 130.682463961, 32.647062846 ], [ 130.682590209000011, 32.647251066 ], [ 130.68301441, 32.647859461 ], [ 130.683300562, 32.648252762 ], [ 130.683461638000011, 32.648687689 ], [ 130.683559933, 32.648931202 ], [ 130.682946815, 32.649031994 ], [ 130.681922988999986, 32.649193817 ], [ 130.681268069999987, 32.649338115 ], [ 130.68044244, 32.64952895 ], [ 130.679088873000012, 32.649842579 ], [ 130.67906335699999, 32.649801926 ], [ 130.67895281599999, 32.64962581 ], [ 130.67869064300001, 32.649185585 ], [ 130.678353622, 32.648604242 ], [ 130.678083535000013, 32.648160641 ], [ 130.677797671, 32.64769351 ], [ 130.677392989999987, 32.647037566 ], [ 130.677350856, 32.647076418 ], [ 130.677252078, 32.647167502 ], [ 130.676896335, 32.64743283 ], [ 130.676833308999989, 32.647351661 ], [ 130.676734477, 32.64722438 ], [ 130.676686659000012, 32.647255009 ], [ 130.676066644, 32.647652146 ], [ 130.67543759899999, 32.648319918 ], [ 130.675011547, 32.648785213 ], [ 130.674546894, 32.649580199 ], [ 130.67433415299999, 32.650041137 ], [ 130.674923089, 32.650587522 ], [ 130.67503381099999, 32.650670897 ], [ 130.675549238, 32.650475382 ], [ 130.676353694, 32.650295523 ], [ 130.677023795, 32.650222685 ], [ 130.677458183999988, 32.650288427 ], [ 130.677637510000011, 32.65035922 ], [ 130.67810412, 32.65057921 ], [ 130.678226278000011, 32.650631401 ], [ 130.67863236, 32.650305163 ], [ 130.67868944, 32.650261259 ], [ 130.67888167800001, 32.650527662 ], [ 130.678924472, 32.650589941 ], [ 130.679061705, 32.650538448 ], [ 130.67914158, 32.650508476 ], [ 130.679215852999988, 32.6507552 ], [ 130.67928138900001, 32.650847353 ], [ 130.679753385, 32.650806327 ], [ 130.67986532, 32.65082097 ], [ 130.68010493, 32.65090857 ], [ 130.680157205, 32.650935967 ], [ 130.68020653100001, 32.650931734 ], [ 130.680364964, 32.650991788 ], [ 130.68070248699999, 32.65125213 ], [ 130.681122093, 32.651598799 ], [ 130.681164720999988, 32.651638054 ], [ 130.682250098, 32.651775021 ], [ 130.68280697899999, 32.651818185 ], [ 130.68401918399999, 32.651481231 ], [ 130.685279275999989, 32.651057892 ], [ 130.685926904000013, 32.650858191 ], [ 130.686302834, 32.650724916 ], [ 130.686867479, 32.650562285 ], [ 130.687225375, 32.650545282 ], [ 130.68753913399999, 32.649798979 ], [ 130.687947533999989, 32.649692578 ], [ 130.68816224, 32.649284501 ], [ 130.68834837599999, 32.648958665 ] ] ] } },
{ "type": "Feature", "properties": { "A29_001": "43213", "A29_002": "熊本県", "A29_003": "宇城市", "A29_004": 5, "A29_005": "第一種住居地域", "A29_006": 60, "A29_007": 200, "A29_008": null }, "geometry": { "type": "Polygon", "coordinates": [ [ [ 130.672068953, 32.648718842 ], [ 130.671955774999986, 32.64821524 ], [ 130.671503042000012, 32.647656784 ], [ 130.671287314000011, 32.647360947 ], [ 130.671087599, 32.647024886 ], [ 130.670892629, 32.646837593 ], [ 130.670689672, 32.646665377 ], [ 130.670555431, 32.646681243 ], [ 130.67053898099999, 32.646660456 ], [ 130.670475162, 32.646579812 ], [ 130.67044399, 32.64663881 ], [ 130.67000222499999, 32.647387774 ], [ 130.66984001, 32.64737001 ], [ 130.66904996, 32.64719202 ], [ 130.668611090000013, 32.6470696 ], [ 130.668116199999986, 32.64692331 ], [ 130.667293545, 32.646644921 ], [ 130.667177970000012, 32.64660581 ], [ 130.66510125, 32.64577651 ], [ 130.66289126, 32.64518538 ], [ 130.66191401, 32.64489278 ], [ 130.66101129, 32.64466892 ], [ 130.660683635, 32.644623623 ], [ 130.660146747999988, 32.644661339 ], [ 130.659818542000011, 32.644755892 ], [ 130.65942511099999, 32.644880729 ], [ 130.658981009, 32.644989643 ], [ 130.658555527, 32.645011946 ], [ 130.65811104, 32.64494707 ], [ 130.65791593099999, 32.644912129 ], [ 130.657700955, 32.645187264 ], [ 130.65754251300001, 32.645397375 ], [ 130.657080059, 32.645231657 ], [ 130.65667435200001, 32.645015977 ], [ 130.655598469000012, 32.646019611 ], [ 130.65534255899999, 32.64623803 ], [ 130.656347667, 32.646922395 ], [ 130.656559507, 32.647118584 ], [ 130.656618067000011, 32.64719753 ], [ 130.656979608, 32.647013499 ], [ 130.657026037, 32.646989866 ], [ 130.657132824, 32.647182533 ], [ 130.65716821699999, 32.647306429 ], [ 130.657176310000011, 32.647334762 ], [ 130.65736492, 32.647333785 ], [ 130.657335598, 32.647165191 ], [ 130.65769917, 32.647043898 ], [ 130.657955288000011, 32.646904416 ], [ 130.658160391, 32.646737952 ], [ 130.65845571599999, 32.646485239 ], [ 130.658753448999988, 32.646287996 ], [ 130.658843389999987, 32.6463429 ], [ 130.658942618, 32.646377699 ], [ 130.65909807, 32.646288645 ], [ 130.65926778, 32.646157873 ], [ 130.65928280899999, 32.645913345 ], [ 130.659388861, 32.645836086 ], [ 130.659643289, 32.645675718 ], [ 130.659823692, 32.645513658 ], [ 130.660051775, 32.645327866 ], [ 130.66033021699999, 32.645326003 ], [ 130.66040028, 32.64537572 ], [ 130.66050911, 32.645434 ], [ 130.66064608, 32.64546338 ], [ 130.66072076, 32.64549257 ], [ 130.66089168, 32.64561166 ], [ 130.66110765900001, 32.645778104 ], [ 130.661233646, 32.646023014 ], [ 130.66132506, 32.646321516 ], [ 130.66134223099999, 32.646442355 ], [ 130.661413118000013, 32.64657527 ], [ 130.661479049, 32.646620186 ], [ 130.661721707, 32.646776679 ], [ 130.661771415, 32.646826205 ], [ 130.661823838, 32.646878437 ], [ 130.661930673, 32.646874139 ], [ 130.662231131, 32.646651653 ], [ 130.663013842, 32.646469675 ], [ 130.663057237, 32.646464523 ], [ 130.663163578, 32.64656958 ], [ 130.66326358500001, 32.646675738 ], [ 130.663374733000012, 32.646793723 ], [ 130.663439183, 32.646840946 ], [ 130.663605858000011, 32.647048681 ], [ 130.664080759, 32.646850121 ], [ 130.664389725, 32.64671636 ], [ 130.664497092, 32.646662782 ], [ 130.664509368000012, 32.646656656 ], [ 130.664701659, 32.646755261 ], [ 130.664930249, 32.64682201 ], [ 130.665003563999989, 32.646848332 ], [ 130.665090948999989, 32.646879705 ], [ 130.665250509, 32.646902066 ], [ 130.665264173999986, 32.646903981 ], [ 130.665301222000011, 32.646899238 ], [ 130.665383795, 32.64697253 ], [ 130.66540193899999, 32.647089444 ], [ 130.665403590000011, 32.647100087 ], [ 130.66542294300001, 32.647109832 ], [ 130.665646047, 32.647076127 ], [ 130.665804855, 32.647031066 ], [ 130.665804740999988, 32.646862159 ], [ 130.665845625, 32.646838813 ], [ 130.665867327, 32.646821708 ], [ 130.66601938299999, 32.646933213 ], [ 130.666060367, 32.647051133 ], [ 130.666119148, 32.647179633 ], [ 130.6661359, 32.64718628 ], [ 130.66627283, 32.6472341 ], [ 130.666372462999988, 32.647260741 ], [ 130.666357123000012, 32.647356888 ], [ 130.666412294999986, 32.647451731 ], [ 130.666572097, 32.647613959 ], [ 130.666601603, 32.647737813 ], [ 130.666603817, 32.647876987 ], [ 130.666604462, 32.64791752 ], [ 130.666908756999987, 32.647854948 ], [ 130.66691898, 32.647853247 ], [ 130.66697048899999, 32.647844673 ], [ 130.667185225, 32.648031203 ], [ 130.66718660399999, 32.648032401 ], [ 130.667265828000012, 32.648058709 ], [ 130.667392003, 32.648020217 ], [ 130.667428179000012, 32.648009181 ], [ 130.66775798, 32.648199447 ], [ 130.66782135599999, 32.648227322 ], [ 130.667896125999988, 32.648260209 ], [ 130.668015954999987, 32.648245827 ], [ 130.668067334999989, 32.648198774 ], [ 130.66814113800001, 32.648314135 ], [ 130.66825624399999, 32.648496085 ], [ 130.668286611000013, 32.648673925 ], [ 130.66828362699999, 32.648816734 ], [ 130.668244363000014, 32.648947863 ], [ 130.668313054, 32.649440166 ], [ 130.66837472, 32.649925797 ], [ 130.668374591, 32.649960784 ], [ 130.66881643100001, 32.649869739 ], [ 130.669017542, 32.649822708 ], [ 130.669160627, 32.649815818 ], [ 130.669300349999986, 32.649804928 ], [ 130.669363766, 32.649785427 ], [ 130.669498387, 32.649720815 ], [ 130.66953115199999, 32.649705089 ], [ 130.669608544, 32.649709029 ], [ 130.669678989, 32.65020581 ], [ 130.669729017, 32.650502705 ], [ 130.66930895199999, 32.650647745 ], [ 130.66929345, 32.650565816 ], [ 130.669281286, 32.650501527 ], [ 130.669149209000011, 32.650488252 ], [ 130.66876323299999, 32.650449457 ], [ 130.668811901999987, 32.650757702 ], [ 130.668721398, 32.650799797 ], [ 130.66874495499999, 32.651104079 ], [ 130.668568445, 32.651167738 ], [ 130.668709764, 32.651564791 ], [ 130.66881295499999, 32.651876464 ], [ 130.668835285, 32.651943906 ], [ 130.669539598, 32.651680315 ], [ 130.669767412, 32.651566832 ], [ 130.669779997, 32.651499758 ], [ 130.669748915000014, 32.651323705 ], [ 130.66970718499999, 32.651167012 ], [ 130.669632713999988, 32.650805927 ], [ 130.669409757000011, 32.650758346 ], [ 130.66967108599999, 32.650620157 ], [ 130.66995677700001, 32.650587179 ], [ 130.67003592399999, 32.650578043 ], [ 130.670208175999988, 32.650946129 ], [ 130.67029541, 32.651192418 ], [ 130.67044769, 32.6514866 ], [ 130.670721332999989, 32.651854172 ], [ 130.670769138999987, 32.651927503 ], [ 130.67151141, 32.651756326 ], [ 130.671943593, 32.651672454 ], [ 130.671881049, 32.651421756 ], [ 130.67162944899999, 32.650809675 ], [ 130.67150009299999, 32.650512572 ], [ 130.671366272, 32.649990275 ], [ 130.671269916, 32.649491654 ], [ 130.671558248, 32.649552342 ], [ 130.671872478000012, 32.649487879 ], [ 130.671974561000013, 32.649466936 ], [ 130.67217290799999, 32.650180285 ], [ 130.67228088600001, 32.650539965 ], [ 130.67258777, 32.650977709 ], [ 130.672703203, 32.651142352 ], [ 130.672743844, 32.651200317 ], [ 130.672966116999987, 32.651154666 ], [ 130.673190103, 32.651122442 ], [ 130.673445219, 32.651097309 ], [ 130.673650801, 32.651044074 ], [ 130.673864079, 32.650952295 ], [ 130.673934882999987, 32.650877461 ], [ 130.673594229, 32.650574573 ], [ 130.673310742000012, 32.65027063 ], [ 130.673188232, 32.650182932 ], [ 130.67279127099999, 32.649794166 ], [ 130.672730709, 32.649619863 ], [ 130.672618199999988, 32.64958836 ], [ 130.672215354, 32.649361023 ], [ 130.672219987, 32.649173889 ], [ 130.672068953, 32.648718842 ] ] ] } },
{ "type": "Feature", "properties": { "A29_001": "43213", "A29_002": "熊本県", "A29_003": "宇城市", "A29_004": 9, "A29_005": "商業地域", "A29_006": 80, "A29_007": 400, "A29_008": null }, "geometry": { "type": "Polygon", "coordinates": [ [ [ 130.686186776, 32.651085609 ], [ 130.686407927, 32.651455872 ], [ 130.6878285, 32.65139197 ], [ 130.68791693, 32.651398523 ], [ 130.688123065000013, 32.651937387 ], [ 130.688307245, 32.65244912 ], [ 130.688435046, 32.652454143 ], [ 130.688396519, 32.651872449 ], [ 130.68841706, 32.651546439 ], [ 130.688575750000012, 32.65155989 ], [ 130.688656681999987, 32.651573348 ], [ 130.68872154499999, 32.651613271 ], [ 130.688771018000011, 32.651643722 ], [ 130.68884232100001, 32.651315051 ], [ 130.69228834, 32.65159146 ], [ 130.692335547999988, 32.651577945 ], [ 130.692367514000011, 32.651285327 ], [ 130.692369509, 32.651267063 ], [ 130.6923362, 32.65126469 ], [ 130.69213719199999, 32.651246379 ], [ 130.691656927999986, 32.651231292 ], [ 130.690822884999989, 32.651180064 ], [ 130.69080752, 32.650982899 ], [ 130.690818033, 32.650745066 ], [ 130.690783786, 32.650743085 ], [ 130.69033337499999, 32.650717029 ], [ 130.688905911, 32.650613583 ], [ 130.688908751000014, 32.650588435 ], [ 130.68893318799999, 32.650372064 ], [ 130.688967276999989, 32.649690635 ], [ 130.688961424000013, 32.649344644 ], [ 130.68892651199999, 32.649355402 ], [ 130.688634971999988, 32.649445241 ], [ 130.688631229, 32.649404478 ], [ 130.688587353, 32.648944054 ], [ 130.688553307, 32.648945129 ], [ 130.688531683, 32.648947293 ], [ 130.688470099999989, 32.648953456 ], [ 130.68834837599999, 32.648958665 ], [ 130.68816224, 32.649284501 ], [ 130.687947533999989, 32.649692578 ], [ 130.68753913399999, 32.649798979 ], [ 130.687225375, 32.650545282 ], [ 130.686867479, 32.650562285 ], [ 130.686302834, 32.650724916 ], [ 130.686068862000013, 32.650807864 ], [ 130.686186776, 32.651085609 ] ] ] } },
{ "type": "Feature", "properties": { "A29_001": "43213", "A29_002": "熊本県", "A29_003": "宇城市", "A29_004": 8, "A29_005": "近隣商業地域", "A29_006": 80, "A29_007": 300, "A29_008": null }, "geometry": { "type": "Polygon", "coordinates": [ [ [ 130.683829795, 32.652222758 ], [ 130.68560514399999, 32.651651584 ], [ 130.686152095000011, 32.65150979 ], [ 130.68617716899999, 32.65148324 ], [ 130.68632949, 32.6514594 ], [ 130.686407927, 32.651455872 ], [ 130.686186776, 32.651085609 ], [ 130.686068862000013, 32.650807864 ], [ 130.685975038, 32.650841127 ], [ 130.685926904000013, 32.650858191 ], [ 130.685279275999989, 32.651057892 ], [ 130.68401918399999, 32.651481231 ], [ 130.68280697899999, 32.651818185 ], [ 130.682250098, 32.651775021 ], [ 130.681164720999988, 32.651638054 ], [ 130.681122093, 32.651598799 ], [ 130.68070248699999, 32.65125213 ], [ 130.680364964, 32.650991788 ], [ 130.68020653100001, 32.650931734 ], [ 130.680157205, 32.650935967 ], [ 130.68010493, 32.65090857 ], [ 130.67986532, 32.65082097 ], [ 130.679753385, 32.650806327 ], [ 130.67928138900001, 32.650847353 ], [ 130.67874434699999, 32.651174061 ], [ 130.678152334, 32.651590102 ], [ 130.678719066000014, 32.651342511 ], [ 130.67936942599999, 32.651369525 ], [ 130.679395739, 32.651468424 ], [ 130.679405954, 32.651506816 ], [ 130.67974146200001, 32.651514872 ], [ 130.67989243400001, 32.651518496 ], [ 130.679900096000011, 32.652016077 ], [ 130.679901023000014, 32.652076256 ], [ 130.68039307399999, 32.652089875 ], [ 130.68044967, 32.6521036 ], [ 130.680751429999987, 32.65224144 ], [ 130.680879049999987, 32.65228131 ], [ 130.681062809999986, 32.65230549 ], [ 130.68127468, 32.65230867 ], [ 130.681654689999988, 32.65235182 ], [ 130.682615559999988, 32.65246891 ], [ 130.682862878, 32.652482784 ], [ 130.683325047000011, 32.652391491 ], [ 130.683829795, 32.652222758 ] ] ] } },
{ "type": "Feature", "properties": { "A29_001": "43213", "A29_002": "熊本県", "A29_003": "宇城市", "A29_004": 9, "A29_005": "商業地域", "A29_006": 80, "A29_007": 400, "A29_008": null }, "geometry": { "type": "Polygon", "coordinates": [ [ [ 130.67536221899999, 32.65316098 ], [ 130.675404574999988, 32.653405579 ], [ 130.675628816, 32.65326127 ], [ 130.67604407799999, 32.652994028 ], [ 130.67631624399999, 32.652800864 ], [ 130.67764504499999, 32.651912501 ], [ 130.678152334, 32.651590102 ], [ 130.67874434699999, 32.651174061 ], [ 130.67928138900001, 32.650847353 ], [ 130.679215852999988, 32.6507552 ], [ 130.67914158, 32.650508476 ], [ 130.679061705, 32.650538448 ], [ 130.678924472, 32.650589941 ], [ 130.67888167800001, 32.650527662 ], [ 130.67868944, 32.650261259 ], [ 130.67863236, 32.650305163 ], [ 130.678226278000011, 32.650631401 ], [ 130.67810412, 32.65057921 ], [ 130.677637510000011, 32.65035922 ], [ 130.677458183999988, 32.650288427 ], [ 130.677023795, 32.650222685 ], [ 130.676353694, 32.650295523 ], [ 130.675549238, 32.650475382 ], [ 130.67503381099999, 32.650670897 ], [ 130.674923089, 32.650587522 ], [ 130.674116676000011, 32.64983937 ], [ 130.674014763, 32.649749629 ], [ 130.67396915, 32.649797725 ], [ 130.673805963, 32.649969795 ], [ 130.673675550000013, 32.64994039 ], [ 130.673383159999986, 32.64980255 ], [ 130.672730709, 32.649619863 ], [ 130.67279127099999, 32.649794166 ], [ 130.673188232, 32.650182932 ], [ 130.673310742000012, 32.65027063 ], [ 130.673594229, 32.650574573 ], [ 130.673934882999987, 32.650877461 ], [ 130.673864079, 32.650952295 ], [ 130.673650801, 32.651044074 ], [ 130.673445219, 32.651097309 ], [ 130.673190103, 32.651122442 ], [ 130.672966116999987, 32.651154666 ], [ 130.672743844, 32.651200317 ], [ 130.672703203, 32.651142352 ], [ 130.67258777, 32.650977709 ], [ 130.67228088600001, 32.650539965 ], [ 130.67217290799999, 32.650180285 ], [ 130.671974561000013, 32.649466936 ], [ 130.671872478000012, 32.649487879 ], [ 130.671558248, 32.649552342 ], [ 130.671269916, 32.649491654 ], [ 130.671366272, 32.649990275 ], [ 130.67150009299999, 32.650512572 ], [ 130.67162944899999, 32.650809675 ], [ 130.671881049, 32.651421756 ], [ 130.671943593, 32.651672454 ], [ 130.67151141, 32.651756326 ], [ 130.670769138999987, 32.651927503 ], [ 130.670826508, 32.652015505 ], [ 130.67091691499999, 32.652358736 ], [ 130.670986744, 32.652548869 ], [ 130.67214279699999, 32.652417408 ], [ 130.672295201, 32.652434762 ], [ 130.672309027000011, 32.652938345 ], [ 130.672503150000011, 32.65294314 ], [ 130.672716253, 32.652987633 ], [ 130.672718409, 32.65336344 ], [ 130.672928781, 32.653783977 ], [ 130.67295994599999, 32.653838295 ], [ 130.673369314000013, 32.653729007 ], [ 130.673296220999987, 32.653469334 ], [ 130.673201682000013, 32.653290135 ], [ 130.67312229699999, 32.65225081 ], [ 130.674621449999989, 32.65224744 ], [ 130.674792106000012, 32.652250372 ], [ 130.674944074, 32.652635515 ], [ 130.67502739, 32.652704758 ], [ 130.675038253999986, 32.652793089 ], [ 130.675190805999989, 32.653017175 ], [ 130.675320448, 32.653071573 ], [ 130.67535652399999, 32.653134669 ], [ 130.67536221899999, 32.65316098 ] ] ] } },
{ "type": "Feature", "properties": { "A29_001": "43213", "A29_002": "熊本県", "A29_003": "宇城市", "A29_004": 2, "A29_005": "第二種低層住居専用地域", "A29_006": 50, "A29_007": 100, "A29_008": null }, "geometry": { "type": "Polygon", "coordinates": [ [ [ 130.68925440000001, 32.653096964 ], [ 130.689412858, 32.653117202 ], [ 130.689646802, 32.653263926 ], [ 130.689980958, 32.653488443 ], [ 130.690275586000013, 32.653673601 ], [ 130.69052657, 32.6537619 ], [ 130.690694689999987, 32.65380186 ], [ 130.6908411, 32.65381539 ], [ 130.691081598000011, 32.653811036 ], [ 130.691289868000013, 32.653735493 ], [ 130.691431429, 32.653579257 ], [ 130.691517134, 32.653261826 ], [ 130.691625354, 32.653060769 ], [ 130.691814727, 32.652893968 ], [ 130.691865782, 32.652860037 ], [ 130.692083849, 32.653111084 ], [ 130.692282729999988, 32.65300109 ], [ 130.69257363, 32.65290625 ], [ 130.6929058, 32.65281348 ], [ 130.69302117, 32.65279135 ], [ 130.69313491, 32.65279031 ], [ 130.69328285, 32.65281044 ], [ 130.693538170000011, 32.65286775 ], [ 130.693632400000013, 32.65287786 ], [ 130.69387079, 32.65287053 ], [ 130.69400257699999, 32.652863553 ], [ 130.694075368999989, 32.652879236 ], [ 130.694180337, 32.652881839 ], [ 130.694255172, 32.652879674 ], [ 130.6942626, 32.653109879 ], [ 130.694876187, 32.653275433 ], [ 130.69489757, 32.653279942 ], [ 130.694959978000014, 32.653293101 ], [ 130.695063497, 32.653314928 ], [ 130.69509919399999, 32.653315971 ], [ 130.695350107, 32.653323307 ], [ 130.695413554, 32.653325689 ], [ 130.695456546, 32.653327303 ], [ 130.695490245, 32.653328568 ], [ 130.69558094199999, 32.653488673 ], [ 130.69581216, 32.65353889 ], [ 130.69608451, 32.65362786 ], [ 130.69642671, 32.65379476 ], [ 130.69676732, 32.65397088 ], [ 130.697044260000013, 32.65408754 ], [ 130.69738826, 32.65418459 ], [ 130.697784070000012, 32.65393577 ], [ 130.69788416, 32.65382398 ], [ 130.69807974, 32.65357534 ], [ 130.698195489999989, 32.65343986 ], [ 130.69825207, 32.65329501 ], [ 130.698299170000013, 32.65318704 ], [ 130.698452370000012, 32.65303452 ], [ 130.69847041, 32.652997 ], [ 130.69848156, 32.65292453 ], [ 130.69848171000001, 32.65287972 ], [ 130.6984414, 32.65282163 ], [ 130.6983653, 32.65274895 ], [ 130.69828766, 32.652671 ], [ 130.698281400000013, 32.65244758 ], [ 130.69807884, 32.652455 ], [ 130.6981793, 32.65222985 ], [ 130.69461758599999, 32.651961526 ], [ 130.69444168699999, 32.651684124 ], [ 130.694391139, 32.651703877 ], [ 130.693975329000011, 32.651866367 ], [ 130.693757726, 32.651910658 ], [ 130.693602813000012, 32.651928639 ], [ 130.693426761000012, 32.651941815 ], [ 130.693031022000014, 32.65199692 ], [ 130.692786739000013, 32.65201186 ], [ 130.692746590000013, 32.65198667 ], [ 130.69268747000001, 32.65196281 ], [ 130.69242774, 32.65182905 ], [ 130.692228590000013, 32.65174948 ], [ 130.69206051, 32.65169898 ], [ 130.69197949, 32.65169878 ], [ 130.691898439999989, 32.65170649 ], [ 130.69176312, 32.651747744 ], [ 130.691763415, 32.651747944 ], [ 130.691465572999988, 32.651865296 ], [ 130.691322609, 32.651910804 ], [ 130.691274792, 32.651967174 ], [ 130.691182626, 32.652113092 ], [ 130.69111314, 32.652096921 ], [ 130.69094608, 32.65205804 ], [ 130.690847627000011, 32.651995409 ], [ 130.69071197, 32.652111934 ], [ 130.690679819, 32.652234139 ], [ 130.690615939, 32.652356266 ], [ 130.690255873000012, 32.652489593 ], [ 130.69017423, 32.65247066 ], [ 130.68987396, 32.65234602 ], [ 130.68964545, 32.65219652 ], [ 130.68931021, 32.65205005 ], [ 130.689103147999987, 32.651958159 ], [ 130.689001983, 32.652140517 ], [ 130.689053410000014, 32.652561184 ], [ 130.68920016199999, 32.652943315 ], [ 130.68925440000001, 32.653096964 ] ] ] } },
{ "type": "Feature", "properties": { "A29_001": "43213", "A29_002": "熊本県", "A29_003": "宇城市", "A29_004": 10, "A29_005": "準工業地域", "A29_006": 60, "A29_007": 200, "A29_008": null }, "geometry": { "type": "Polygon", "coordinates": [ [ [ 130.669632713999988, 32.650805927 ], [ 130.66970718499999, 32.651167012 ], [ 130.669748915000014, 32.651323705 ], [ 130.669779997, 32.651499758 ], [ 130.669767412, 32.651566832 ], [ 130.66952668499999, 32.65185234 ], [ 130.669467016, 32.651923108 ], [ 130.669870301, 32.652768386 ], [ 130.66999855899999, 32.65294622 ], [ 130.670499336, 32.653495774 ], [ 130.67055064499999, 32.653571496 ], [ 130.670672384999989, 32.653665944 ], [ 130.67081220599999, 32.653994391 ], [ 130.670857367, 32.654165342 ], [ 130.67088001499999, 32.654251068 ], [ 130.671307004, 32.654144815 ], [ 130.67112051399999, 32.653562729 ], [ 130.670993672, 32.653059837 ], [ 130.67097303700001, 32.652918112 ], [ 130.671002437999988, 32.652591599 ], [ 130.670986744, 32.652548869 ], [ 130.67091691499999, 32.652358736 ], [ 130.670826508, 32.652015505 ], [ 130.670721332999989, 32.651854172 ], [ 130.67044769, 32.6514866 ], [ 130.67029541, 32.651192418 ], [ 130.670208175999988, 32.650946129 ], [ 130.67003592399999, 32.650578043 ], [ 130.66995677700001, 32.650587179 ], [ 130.66967108599999, 32.650620157 ], [ 130.669409757000011, 32.650758346 ], [ 130.669632713999988, 32.650805927 ] ] ] } },
{ "type": "Feature", "properties": { "A29_001": "43213", "A29_002": "熊本県", "A29_003": "宇城市", "A29_004": 6, "A29_005": "第二種住居地域", "A29_006": 60, "A29_007": 200, "A29_008": null }, "geometry": { "type": "Polygon", "coordinates": [ [ [ 130.67779815899999, 32.654593282 ], [ 130.678273579, 32.654035827 ], [ 130.678374088999988, 32.653535015 ], [ 130.678554483999989, 32.65293934 ], [ 130.67847726299999, 32.6528437 ], [ 130.678030675, 32.65252044 ], [ 130.678021306, 32.652183387 ], [ 130.677840701, 32.651788155 ], [ 130.677753937, 32.651843297 ], [ 130.67764504499999, 32.651912501 ], [ 130.67631624399999, 32.652800864 ], [ 130.67604407799999, 32.652994028 ], [ 130.67530551499999, 32.653469328 ], [ 130.67464841899999, 32.653959748 ], [ 130.67450544799999, 32.654069888 ], [ 130.674523681000011, 32.654086929 ], [ 130.674535717999987, 32.654170471 ], [ 130.67464710499999, 32.654309502 ], [ 130.67466382399999, 32.65433037 ], [ 130.674684610000014, 32.654431831 ], [ 130.674838841, 32.654323778 ], [ 130.67496976000001, 32.6543737 ], [ 130.67506627, 32.65439767 ], [ 130.675241628, 32.654440729 ], [ 130.675481977, 32.654272837 ], [ 130.67596575799999, 32.654059343 ], [ 130.675879763000012, 32.65395324 ], [ 130.676143236, 32.653727246 ], [ 130.676301375, 32.653694234 ], [ 130.676404327, 32.653672743 ], [ 130.67728685599999, 32.654340124 ], [ 130.67751876299999, 32.654558446 ], [ 130.677543816999986, 32.654643609 ], [ 130.67757447299999, 32.65474781 ], [ 130.67779815899999, 32.654593282 ] ] ] } },
{ "type": "Feature", "properties": { "A29_001": "43213", "A29_002": "熊本県", "A29_003": "宇城市", "A29_004": 11, "A29_005": "工業地域", "A29_006": 60, "A29_007": 200, "A29_008": null }, "geometry": { "type": "Polygon", "coordinates": [ [ [ 130.70516379, 32.653621245 ], [ 130.705195462, 32.653687368 ], [ 130.70522302099999, 32.653884281 ], [ 130.705020437, 32.654378909 ], [ 130.70483536099999, 32.654909369 ], [ 130.70474445, 32.655215613 ], [ 130.70474518, 32.65541405 ], [ 130.704844650000013, 32.65548809 ], [ 130.705557809999988, 32.65561893 ], [ 130.70597777, 32.65583872 ], [ 130.70646296000001, 32.65611928 ], [ 130.707312967, 32.655855092 ], [ 130.707339975999986, 32.65583237 ], [ 130.708247234, 32.655476575 ], [ 130.708522912, 32.655268437 ], [ 130.70889381, 32.655051571 ], [ 130.709176527000011, 32.65484643 ], [ 130.709534155999989, 32.654346244 ], [ 130.709486492, 32.654321982 ], [ 130.709224479, 32.65419187 ], [ 130.709323616, 32.654062358 ], [ 130.709391027, 32.653931282 ], [ 130.709352728, 32.653782066 ], [ 130.70925806599999, 32.653643917 ], [ 130.70891529, 32.65350142 ], [ 130.70867562, 32.65341915 ], [ 130.7083766, 32.65338154 ], [ 130.708359099, 32.653364587 ], [ 130.708270039000013, 32.653339627 ], [ 130.70775690799999, 32.652846312 ], [ 130.707764618, 32.652643516 ], [ 130.70764899400001, 32.652422537 ], [ 130.707720106000011, 32.652237784 ], [ 130.707978322, 32.65197592 ], [ 130.708046112, 32.651728526 ], [ 130.707909218, 32.651543289 ], [ 130.707804016000011, 32.651370056 ], [ 130.707605926000014, 32.651084664 ], [ 130.70665831, 32.65140838 ], [ 130.70630602, 32.65146292 ], [ 130.705953889999989, 32.65147 ], [ 130.70558635, 32.65142432 ], [ 130.70490854, 32.65121646 ], [ 130.70435616, 32.65099769 ], [ 130.70409465, 32.65092852 ], [ 130.70373014, 32.65091185 ], [ 130.70340597, 32.65094536 ], [ 130.70311283, 32.65102111 ], [ 130.70307391, 32.651026401 ], [ 130.70255917099999, 32.649966375 ], [ 130.702414925, 32.64934417 ], [ 130.702404432, 32.648879792 ], [ 130.70227539199999, 32.6487314 ], [ 130.701776453, 32.648198648 ], [ 130.70148841, 32.64850769 ], [ 130.70139244, 32.64855162 ], [ 130.701274, 32.64856584 ], [ 130.701127570000011, 32.64856021 ], [ 130.70091273, 32.64851489 ], [ 130.70070254, 32.64847485 ], [ 130.70059519, 32.64842846 ], [ 130.70044048, 32.64833649 ], [ 130.70034093000001, 32.64829276 ], [ 130.70024281, 32.6482833 ], [ 130.70003089, 32.64829333 ], [ 130.699769, 32.64834148 ], [ 130.69938839, 32.64848292 ], [ 130.69973277, 32.64938923 ], [ 130.699877429999987, 32.64992735 ], [ 130.69996536, 32.65018985 ], [ 130.700016049999988, 32.65087271 ], [ 130.70001126, 32.65184147 ], [ 130.70001919, 32.6522659 ], [ 130.70008458, 32.65274187 ], [ 130.70010614, 32.652821 ], [ 130.700183610000011, 32.65294772 ], [ 130.70068716, 32.65332588 ], [ 130.701006080000013, 32.65299713 ], [ 130.70098149, 32.6528969 ], [ 130.70188533000001, 32.65283842 ], [ 130.70431162, 32.65270049 ], [ 130.70468704000001, 32.65319169 ], [ 130.704926089999987, 32.65346114 ], [ 130.70507526, 32.65358274 ], [ 130.70516379, 32.653621245 ] ] ] } },
{ "type": "Feature", "properties": { "A29_001": "43213", "A29_002": "熊本県", "A29_003": "宇城市", "A29_004": 5, "A29_005": "第一種住居地域", "A29_006": 60, "A29_007": 200, "A29_008": null }, "geometry": { "type": "Polygon", "coordinates": [ [ [ 130.67779815899999, 32.654593282 ], [ 130.67757447299999, 32.65474781 ], [ 130.67763531, 32.6547717 ], [ 130.677698740000011, 32.65478801 ], [ 130.677820962, 32.654807133 ], [ 130.677822076000012, 32.654809438 ], [ 130.677868737000011, 32.654850516 ], [ 130.678070117, 32.654841147 ], [ 130.67817727100001, 32.654839378 ], [ 130.678520165, 32.65507886 ], [ 130.678863215, 32.655275096 ], [ 130.67936826, 32.655523939 ], [ 130.679426597, 32.655576347 ], [ 130.680041710000012, 32.65575881 ], [ 130.68112838, 32.65599882 ], [ 130.681788719999986, 32.65607958 ], [ 130.68181927099999, 32.65608186 ], [ 130.681915177, 32.656129912 ], [ 130.682886015, 32.656161458 ], [ 130.68332457, 32.65619418 ], [ 130.68374459, 32.656230107 ], [ 130.684332195, 32.656319958 ], [ 130.684458302, 32.656319758 ], [ 130.684481756, 32.656353467 ], [ 130.68451443, 32.656400428 ], [ 130.685105650999986, 32.656211029 ], [ 130.685835043, 32.655998754 ], [ 130.68615983, 32.65609125 ], [ 130.686261116, 32.656051049 ], [ 130.68639585, 32.65610041 ], [ 130.686523283000014, 32.656125101 ], [ 130.68654545699999, 32.655832866 ], [ 130.686463717, 32.655662134 ], [ 130.68638572, 32.65565619 ], [ 130.68599823, 32.65552078 ], [ 130.68557969, 32.65557707 ], [ 130.68540521, 32.655574 ], [ 130.68528687, 32.65555261 ], [ 130.68515926, 32.65550748 ], [ 130.684470118, 32.655234751 ], [ 130.68410754300001, 32.655303316 ], [ 130.684089175999986, 32.655250477 ], [ 130.68406914900001, 32.655192865 ], [ 130.683946961, 32.655195393 ], [ 130.68394663, 32.6551947 ], [ 130.68173642, 32.65500853 ], [ 130.681004339999987, 32.65494869 ], [ 130.68006115, 32.65467213 ], [ 130.67952118, 32.65448491 ], [ 130.67894805099999, 32.65411556 ], [ 130.67834055099999, 32.653702129 ], [ 130.678273579, 32.654035827 ], [ 130.67779815899999, 32.654593282 ] ] ] } },
{ "type": "Feature", "properties": { "A29_001": "43213", "A29_002": "熊本県", "A29_003": "宇城市", "A29_004": 3, "A29_005": "第一種中高層住居専用地域", "A29_006": 60, "A29_007": 200, "A29_008": null }, "geometry": { "type": "Polygon", "coordinates": [ [ [ 130.683829795, 32.652222758 ], [ 130.683325047000011, 32.652391491 ], [ 130.682862878, 32.652482784 ], [ 130.682615559999988, 32.65246891 ], [ 130.681654689999988, 32.65235182 ], [ 130.68127468, 32.65230867 ], [ 130.681062809999986, 32.65230549 ], [ 130.680879049999987, 32.65228131 ], [ 130.680751429999987, 32.65224144 ], [ 130.68044967, 32.6521036 ], [ 130.68039307399999, 32.652089875 ], [ 130.679901023000014, 32.652076256 ], [ 130.679900096000011, 32.652016077 ], [ 130.67989243400001, 32.651518496 ], [ 130.67974146200001, 32.651514872 ], [ 130.679405954, 32.651506816 ], [ 130.679395739, 32.651468424 ], [ 130.67936942599999, 32.651369525 ], [ 130.678719066000014, 32.651342511 ], [ 130.678152334, 32.651590102 ], [ 130.677840701, 32.651788155 ], [ 130.678021306, 32.652183387 ], [ 130.678030675, 32.65252044 ], [ 130.67847726299999, 32.6528437 ], [ 130.678554483999989, 32.65293934 ], [ 130.678374088999988, 32.653535015 ], [ 130.67834055099999, 32.653702129 ], [ 130.67894805099999, 32.65411556 ], [ 130.67952118, 32.65448491 ], [ 130.68006115, 32.65467213 ], [ 130.681004339999987, 32.65494869 ], [ 130.68173642, 32.65500853 ], [ 130.68394663, 32.6551947 ], [ 130.683946961, 32.655195393 ], [ 130.68406914900001, 32.655192865 ], [ 130.684089175999986, 32.655250477 ], [ 130.68410754300001, 32.655303316 ], [ 130.684470118, 32.655234751 ], [ 130.68515926, 32.65550748 ], [ 130.68528687, 32.65555261 ], [ 130.68540521, 32.655574 ], [ 130.68557969, 32.65557707 ], [ 130.68599823, 32.65552078 ], [ 130.68638572, 32.65565619 ], [ 130.68662716, 32.65567459 ], [ 130.6869197, 32.65578077 ], [ 130.689112169999987, 32.65682813 ], [ 130.689232522999987, 32.656837118 ], [ 130.688967881999986, 32.656007406 ], [ 130.688750096, 32.655265702 ], [ 130.6884953, 32.654522414 ], [ 130.68831216699999, 32.653956766 ], [ 130.688225052, 32.653661277 ], [ 130.68814852, 32.653659104 ], [ 130.68787957699999, 32.65365147 ], [ 130.687873172, 32.653620516 ], [ 130.687861399000013, 32.653620647 ], [ 130.68779631699999, 32.653325046 ], [ 130.68772446, 32.652697786 ], [ 130.68761451099999, 32.652174598 ], [ 130.68743272099999, 32.65209222 ], [ 130.687431664, 32.652072212 ], [ 130.68693610299999, 32.651908124 ], [ 130.686834678, 32.651852317 ], [ 130.686780255, 32.651822372 ], [ 130.686630681, 32.651702898 ], [ 130.68645082, 32.651527686 ], [ 130.686407927, 32.651455872 ], [ 130.68632949, 32.6514594 ], [ 130.68617716899999, 32.65148324 ], [ 130.686152095000011, 32.65150979 ], [ 130.68560514399999, 32.651651584 ], [ 130.683829795, 32.652222758 ] ] ] } },
{ "type": "Feature", "properties": { "A29_001": "43213", "A29_002": "熊本県", "A29_003": "宇城市", "A29_004": 7, "A29_005": "準住居地域", "A29_006": 60, "A29_007": 200, "A29_008": null }, "geometry": { "type": "Polygon", "coordinates": [ [ [ 130.67536221899999, 32.65316098 ], [ 130.67535652399999, 32.653134669 ], [ 130.675320448, 32.653071573 ], [ 130.675190805999989, 32.653017175 ], [ 130.675077307, 32.652850455 ], [ 130.674978994000014, 32.65286286 ], [ 130.67410200099999, 32.653459499 ], [ 130.67346573099999, 32.653917158 ], [ 130.672974329, 32.654285715 ], [ 130.67273162, 32.654616146 ], [ 130.672362205000013, 32.655369768 ], [ 130.672332325000013, 32.655829003 ], [ 130.672288548000012, 32.656231533 ], [ 130.672256667, 32.657238806 ], [ 130.67227440799999, 32.657549745 ], [ 130.672431995000011, 32.657551606 ], [ 130.67259572899999, 32.657560315 ], [ 130.672602995, 32.657662937 ], [ 130.672609142, 32.657749742 ], [ 130.672993506000012, 32.65773434 ], [ 130.672994676, 32.657646544 ], [ 130.67299835599999, 32.657370481 ], [ 130.673029797, 32.656481763 ], [ 130.673095756, 32.655795948 ], [ 130.673231249999986, 32.655378744 ], [ 130.67356110599999, 32.654836778 ], [ 130.674289566999988, 32.654236195 ], [ 130.67464841899999, 32.653959748 ], [ 130.67530551499999, 32.653469328 ], [ 130.675404574999988, 32.653405579 ], [ 130.67536221899999, 32.65316098 ] ] ] } },
{ "type": "Feature", "properties": { "A29_001": "43213", "A29_002": "熊本県", "A29_003": "宇城市", "A29_004": 5, "A29_005": "第一種住居地域", "A29_006": 60, "A29_007": 200, "A29_008": null }, "geometry": { "type": "Polygon", "coordinates": [ [ [ 130.68693610299999, 32.651908124 ], [ 130.687431664, 32.652072212 ], [ 130.68743272099999, 32.65209222 ], [ 130.68761451099999, 32.652174598 ], [ 130.68772446, 32.652697786 ], [ 130.68779631699999, 32.653325046 ], [ 130.687861399000013, 32.653620647 ], [ 130.687873172, 32.653620516 ], [ 130.68787957699999, 32.65365147 ], [ 130.68814852, 32.653659104 ], [ 130.688225052, 32.653661277 ], [ 130.68831216699999, 32.653956766 ], [ 130.6884953, 32.654522414 ], [ 130.688750096, 32.655265702 ], [ 130.688967881999986, 32.656007406 ], [ 130.689232522999987, 32.656837118 ], [ 130.689333381000012, 32.657238521 ], [ 130.68936763799999, 32.657462087 ], [ 130.689374756, 32.657508545 ], [ 130.689602406, 32.657572528 ], [ 130.68980786899999, 32.657669182 ], [ 130.690047201999988, 32.657790567 ], [ 130.690048969, 32.657794083 ], [ 130.690112346, 32.657814588 ], [ 130.69006918, 32.657552017 ], [ 130.690173364, 32.657501571 ], [ 130.69029739699999, 32.65731845 ], [ 130.69060125499999, 32.657131299 ], [ 130.69051200199999, 32.656941686 ], [ 130.690341243, 32.656361159 ], [ 130.690123140999987, 32.655707441 ], [ 130.68984311299999, 32.654693715 ], [ 130.689489947, 32.653764234 ], [ 130.68920016199999, 32.652943315 ], [ 130.689053410000014, 32.652561184 ], [ 130.689001983, 32.652140517 ], [ 130.689103147999987, 32.651958159 ], [ 130.68931021, 32.65205005 ], [ 130.68964545, 32.65219652 ], [ 130.68987396, 32.65234602 ], [ 130.69017423, 32.65247066 ], [ 130.690255873000012, 32.652489593 ], [ 130.690615939, 32.652356266 ], [ 130.690679819, 32.652234139 ], [ 130.69071197, 32.652111934 ], [ 130.690847627000011, 32.651995409 ], [ 130.69094608, 32.65205804 ], [ 130.69111314, 32.652096921 ], [ 130.691182626, 32.652113092 ], [ 130.691274792, 32.651967174 ], [ 130.691322609, 32.651910804 ], [ 130.691465572999988, 32.651865296 ], [ 130.691763415, 32.651747944 ], [ 130.69176312, 32.651747744 ], [ 130.691898439999989, 32.65170649 ], [ 130.69197949, 32.65169878 ], [ 130.69206051, 32.65169898 ], [ 130.692228590000013, 32.65174948 ], [ 130.69242774, 32.65182905 ], [ 130.69268747000001, 32.65196281 ], [ 130.692746590000013, 32.65198667 ], [ 130.692786739000013, 32.65201186 ], [ 130.693031022000014, 32.65199692 ], [ 130.693426761000012, 32.651941815 ], [ 130.693602813000012, 32.651928639 ], [ 130.693757726, 32.651910658 ], [ 130.693975329000011, 32.651866367 ], [ 130.694391139, 32.651703877 ], [ 130.69444168699999, 32.651684124 ], [ 130.69461758599999, 32.651961526 ], [ 130.6981793, 32.65222985 ], [ 130.69937406, 32.65230125 ], [ 130.699382109999988, 32.65175561 ], [ 130.69754255, 32.65162861 ], [ 130.69635094, 32.65155061 ], [ 130.692369509, 32.651267063 ], [ 130.692335547999988, 32.651577945 ], [ 130.69228834, 32.65159146 ], [ 130.68884232100001, 32.651315051 ], [ 130.688771018000011, 32.651643722 ], [ 130.68872154499999, 32.651613271 ], [ 130.688656681999987, 32.651573348 ], [ 130.688575750000012, 32.65155989 ], [ 130.68841706, 32.651546439 ], [ 130.688396519, 32.651872449 ], [ 130.688435046, 32.652454143 ], [ 130.688307245, 32.65244912 ], [ 130.688123065000013, 32.651937387 ], [ 130.68791693, 32.651398523 ], [ 130.6878285, 32.65139197 ], [ 130.686407927, 32.651455872 ], [ 130.68645082, 32.651527686 ], [ 130.686630681, 32.651702898 ], [ 130.686780255, 32.651822372 ], [ 130.686834678, 32.651852317 ], [ 130.68693610299999, 32.651908124 ] ] ] } },
{ "type": "Feature", "properties": { "A29_001": "43213", "A29_002": "熊本県", "A29_003": "宇城市", "A29_004": 6, "A29_005": "第二種住居地域", "A29_006": 60, "A29_007": 200, "A29_008": null }, "geometry": { "type": "Polygon", "coordinates": [ [ [ 130.686261116, 32.656051049 ], [ 130.686318395, 32.656793181 ], [ 130.68644596199999, 32.656838169 ], [ 130.686544443, 32.656881231 ], [ 130.686593617, 32.656844942 ], [ 130.686631046, 32.656817322 ], [ 130.686932135, 32.656920971 ], [ 130.686816263999987, 32.657415693 ], [ 130.686855463, 32.657802031 ], [ 130.686926462, 32.658103432 ], [ 130.68745171, 32.658229021 ], [ 130.68787847499999, 32.658333333 ], [ 130.687880949, 32.658333938 ], [ 130.688009365999989, 32.658365326 ], [ 130.688092254999987, 32.658371437 ], [ 130.688191366000012, 32.658353076 ], [ 130.688273587, 32.658333937 ], [ 130.688276175, 32.658333333 ], [ 130.68827692, 32.658333159 ], [ 130.68827761599999, 32.658333333 ], [ 130.688280031, 32.658333937 ], [ 130.68832580899999, 32.658345409 ], [ 130.68836342099999, 32.658368381 ], [ 130.688478061000012, 32.658422379 ], [ 130.688642922000014, 32.658449183 ], [ 130.688692193, 32.658465656 ], [ 130.688708514000012, 32.658471113 ], [ 130.688752838999989, 32.658485932 ], [ 130.688853728999987, 32.658545653 ], [ 130.68896723200001, 32.658655928 ], [ 130.689024676, 32.658654094 ], [ 130.68911137, 32.658665094 ], [ 130.689217676, 32.658695732 ], [ 130.689347399000013, 32.658743202 ], [ 130.689405066, 32.658743202 ], [ 130.689443368000013, 32.658743974 ], [ 130.68945378, 32.6587408 ], [ 130.689595277, 32.658737156 ], [ 130.689676717999987, 32.658636696 ], [ 130.68978474299999, 32.658495292 ], [ 130.68989522699999, 32.65840758 ], [ 130.690067879999987, 32.658333933 ], [ 130.690082679, 32.658238037 ], [ 130.69010836699999, 32.657945811 ], [ 130.690112346, 32.657814588 ], [ 130.690048969, 32.657794083 ], [ 130.690047201999988, 32.657790567 ], [ 130.68980786899999, 32.657669182 ], [ 130.689602406, 32.657572528 ], [ 130.689374756, 32.657508545 ], [ 130.68936763799999, 32.657462087 ], [ 130.689333381000012, 32.657238521 ], [ 130.689232522999987, 32.656837118 ], [ 130.689112169999987, 32.65682813 ], [ 130.6869197, 32.65578077 ], [ 130.68662716, 32.65567459 ], [ 130.686463717, 32.655662134 ], [ 130.68654545699999, 32.655832866 ], [ 130.686523283000014, 32.656125101 ], [ 130.68639585, 32.65610041 ], [ 130.686261116, 32.656051049 ] ] ] } },
{ "type": "Feature", "properties": { "A29_001": "43213", "A29_002": "熊本県", "A29_003": "宇城市", "A29_004": 5, "A29_005": "第一種住居地域", "A29_006": 60, "A29_007": 200, "A29_008": null }, "geometry": { "type": "Polygon", "coordinates": [ [ [ 130.67312229699999, 32.65225081 ], [ 130.673201682000013, 32.653290135 ], [ 130.673296220999987, 32.653469334 ], [ 130.673369314000013, 32.653729007 ], [ 130.67295994599999, 32.653838295 ], [ 130.672928781, 32.653783977 ], [ 130.672718409, 32.65336344 ], [ 130.672716253, 32.652987633 ], [ 130.672503150000011, 32.65294314 ], [ 130.672309027000011, 32.652938345 ], [ 130.672295201, 32.652434762 ], [ 130.67214279699999, 32.652417408 ], [ 130.670986744, 32.652548869 ], [ 130.671002437999988, 32.652591599 ], [ 130.67097303700001, 32.652918112 ], [ 130.670993672, 32.653059837 ], [ 130.67112051399999, 32.653562729 ], [ 130.671307004, 32.654144815 ], [ 130.67088001499999, 32.654251068 ], [ 130.670857367, 32.654165342 ], [ 130.67081220599999, 32.653994391 ], [ 130.670672384999989, 32.653665944 ], [ 130.670500256999986, 32.653975677 ], [ 130.670077056999986, 32.654010356 ], [ 130.67005429299999, 32.653959819 ], [ 130.67000001400001, 32.653868483 ], [ 130.66990386099999, 32.653903737 ], [ 130.669612594, 32.65401053 ], [ 130.669833855, 32.654472012 ], [ 130.669439724999989, 32.654749843 ], [ 130.669262615, 32.65497456 ], [ 130.669207298, 32.655156349 ], [ 130.669399578, 32.655352591 ], [ 130.669488295, 32.655443414 ], [ 130.670078703, 32.655002059 ], [ 130.670270955, 32.655000695 ], [ 130.670441798000013, 32.655014943 ], [ 130.670397167, 32.655105614 ], [ 130.670454449, 32.655230281 ], [ 130.670522148, 32.655327197 ], [ 130.67112931299999, 32.655811361 ], [ 130.671275743, 32.655943212 ], [ 130.671255823, 32.656087813 ], [ 130.67109290499999, 32.656288709 ], [ 130.670600546, 32.656912262 ], [ 130.67065351, 32.657371713 ], [ 130.670760218999988, 32.657597176 ], [ 130.67078006700001, 32.657768406 ], [ 130.670789269000011, 32.657847786 ], [ 130.67098787099999, 32.657832491 ], [ 130.671224795, 32.657822085 ], [ 130.670964086, 32.658249398 ], [ 130.670643152, 32.658754098 ], [ 130.67032154899999, 32.659227831 ], [ 130.670304608, 32.659252786 ], [ 130.670781788999989, 32.65940764 ], [ 130.671149804, 32.659354292 ], [ 130.671381978, 32.65939329 ], [ 130.671484564, 32.659397901 ], [ 130.671576345, 32.659418539 ], [ 130.671866653, 32.659461175 ], [ 130.67202945, 32.65951618 ], [ 130.672091661, 32.659526515 ], [ 130.672203744, 32.659120563 ], [ 130.67221053099999, 32.659050533 ], [ 130.672228925000013, 32.659043922 ], [ 130.672319148000014, 32.65847449 ], [ 130.67228483400001, 32.657732491 ], [ 130.672256667, 32.657238806 ], [ 130.672288548000012, 32.656231533 ], [ 130.672332325000013, 32.655829003 ], [ 130.672362205000013, 32.655369768 ], [ 130.67273162, 32.654616146 ], [ 130.672974329, 32.654285715 ], [ 130.67346573099999, 32.653917158 ], [ 130.67410200099999, 32.653459499 ], [ 130.674978994000014, 32.65286286 ], [ 130.675077307, 32.652850455 ], [ 130.675038253999986, 32.652793089 ], [ 130.67502739, 32.652704758 ], [ 130.674944074, 32.652635515 ], [ 130.674792106000012, 32.652250372 ], [ 130.674621449999989, 32.65224744 ], [ 130.67312229699999, 32.65225081 ] ] ] } },
{ "type": "Feature", "properties": { "A29_001": "43213", "A29_002": "熊本県", "A29_003": "宇城市", "A29_004": 1, "A29_005": "第一種低層住居専用地域", "A29_006": 40, "A29_007": 80, "A29_008": null }, "geometry": { "type": "Polygon", "coordinates": [ [ [ 130.677379057, 32.654718355 ], [ 130.6770535, 32.655076587 ], [ 130.676851375000012, 32.655399673 ], [ 130.67674816600001, 32.655667837 ], [ 130.676599788, 32.655747846 ], [ 130.67641928099999, 32.655944367 ], [ 130.676357716000012, 32.65627406 ], [ 130.67681112, 32.6561756 ], [ 130.676992465000012, 32.656239904 ], [ 130.677308419000013, 32.65613499 ], [ 130.67780976, 32.6561953 ], [ 130.67828939, 32.65626771 ], [ 130.67841704, 32.65629966 ], [ 130.678615756, 32.656322363 ], [ 130.678780679, 32.656515897 ], [ 130.67887429000001, 32.65653282 ], [ 130.67906729, 32.65658603 ], [ 130.679319349999986, 32.65668421 ], [ 130.67947109, 32.656718247 ], [ 130.679644997999986, 32.656890933 ], [ 130.679823604, 32.657229163 ], [ 130.679725335, 32.657349706 ], [ 130.679874195, 32.657525043 ], [ 130.67996255599999, 32.657565054 ], [ 130.680461290000011, 32.65759789 ], [ 130.680631267, 32.657649524 ], [ 130.680730852000011, 32.657902548 ], [ 130.680962867, 32.658095513 ], [ 130.68115361400001, 32.658456355 ], [ 130.68119139, 32.658527817 ], [ 130.681397796, 32.658460599 ], [ 130.681517006, 32.658425746 ], [ 130.68181138700001, 32.658929798 ], [ 130.681984621999987, 32.659294854 ], [ 130.68201283, 32.659543223 ], [ 130.6820107, 32.660144947 ], [ 130.682109684000011, 32.660795966 ], [ 130.68255306, 32.66089831 ], [ 130.68275019399999, 32.660925224 ], [ 130.682928022, 32.660973807 ], [ 130.683281929, 32.660997693 ], [ 130.68337661699999, 32.660995071 ], [ 130.683438983, 32.661044298 ], [ 130.683497921999987, 32.661090819 ], [ 130.68380752600001, 32.661126679 ], [ 130.684103883, 32.661231034 ], [ 130.684483854, 32.66146612 ], [ 130.684741135, 32.661706415 ], [ 130.684844078999987, 32.661802562 ], [ 130.684947068000014, 32.661592551 ], [ 130.685129294, 32.661409581 ], [ 130.685385045, 32.661374432 ], [ 130.686140166, 32.6612093 ], [ 130.686337603999988, 32.661212776 ], [ 130.686490830999986, 32.660750864 ], [ 130.68649535099999, 32.660466041 ], [ 130.68644339, 32.660200465 ], [ 130.686511682, 32.659827816 ], [ 130.686492601999987, 32.659738292 ], [ 130.686271341, 32.659490188 ], [ 130.68623627, 32.659436414 ], [ 130.686328472000014, 32.659284534 ], [ 130.686487706, 32.659120892 ], [ 130.686562173999988, 32.658998793 ], [ 130.68656622, 32.658849676 ], [ 130.68648294499999, 32.658464719 ], [ 130.68638418399999, 32.65797086 ], [ 130.686586344, 32.657585315 ], [ 130.686653869999986, 32.65739471 ], [ 130.686816263999987, 32.657415693 ], [ 130.686932135, 32.656920971 ], [ 130.686631046, 32.656817322 ], [ 130.686593617, 32.656844942 ], [ 130.686544443, 32.656881231 ], [ 130.68644596199999, 32.656838169 ], [ 130.686318395, 32.656793181 ], [ 130.686261116, 32.656051049 ], [ 130.68615983, 32.65609125 ], [ 130.685835043, 32.655998754 ], [ 130.685105650999986, 32.656211029 ], [ 130.68451443, 32.656400428 ], [ 130.684481756, 32.656353467 ], [ 130.684458302, 32.656319758 ], [ 130.684332195, 32.656319958 ], [ 130.68374459, 32.656230107 ], [ 130.68332457, 32.65619418 ], [ 130.682886015, 32.656161458 ], [ 130.681915177, 32.656129912 ], [ 130.68181927099999, 32.65608186 ], [ 130.681788719999986, 32.65607958 ], [ 130.68112838, 32.65599882 ], [ 130.680041710000012, 32.65575881 ], [ 130.679426597, 32.655576347 ], [ 130.67936826, 32.655523939 ], [ 130.678863215, 32.655275096 ], [ 130.678520165, 32.65507886 ], [ 130.67817727100001, 32.654839378 ], [ 130.678070117, 32.654841147 ], [ 130.677868737000011, 32.654850516 ], [ 130.677822076000012, 32.654809438 ], [ 130.677820962, 32.654807133 ], [ 130.677698740000011, 32.65478801 ], [ 130.67763531, 32.6547717 ], [ 130.67757447299999, 32.65474781 ], [ 130.677379057, 32.654718355 ] ] ] } },
{ "type": "Feature", "properties": { "A29_001": "43213", "A29_002": "熊本県", "A29_003": "宇城市", "A29_004": 1, "A29_005": "第一種低層住居専用地域", "A29_006": 40, "A29_007": 80, "A29_008": null }, "geometry": { "type": "Polygon", "coordinates": [ [ [ 130.674293268000014, 32.662615398 ], [ 130.674332128, 32.662607196 ], [ 130.67444282, 32.662563612 ], [ 130.67446461, 32.6625474 ], [ 130.674572369, 32.662467222 ], [ 130.67464256299999, 32.662446582 ], [ 130.674874928, 32.662424719 ], [ 130.675282095999989, 32.662446651 ], [ 130.675347713, 32.662339449 ], [ 130.675359315, 32.662056137 ], [ 130.675378408, 32.661651305 ], [ 130.675394872999988, 32.661485816 ], [ 130.675633839, 32.661218005 ], [ 130.67581424, 32.661057413 ], [ 130.67598482, 32.660686526 ], [ 130.675983255, 32.660632961 ], [ 130.675858455, 32.660529616 ], [ 130.675752777000014, 32.6605025 ], [ 130.675712303000012, 32.660447922 ], [ 130.67556330299999, 32.660247003 ], [ 130.675395325000011, 32.65989761 ], [ 130.67540066699999, 32.659551519 ], [ 130.67540223, 32.659450246 ], [ 130.675552407999987, 32.659348047 ], [ 130.675736242, 32.659222944 ], [ 130.67580394699999, 32.658922555 ], [ 130.67594501, 32.65895001 ], [ 130.67604301, 32.65891701 ], [ 130.67622891100001, 32.658996051 ], [ 130.67625122699999, 32.658673993 ], [ 130.67612001, 32.65859001 ], [ 130.67615732199999, 32.658315845 ], [ 130.67610071199999, 32.657881737 ], [ 130.675937556, 32.657662099 ], [ 130.67581400899999, 32.657458221 ], [ 130.675809867, 32.657140568 ], [ 130.675630250000012, 32.657086418 ], [ 130.675725863999986, 32.656970346 ], [ 130.675889711999986, 32.656997612 ], [ 130.67594284, 32.656930642 ], [ 130.676277534, 32.656510966 ], [ 130.676357716000012, 32.65627406 ], [ 130.67619233, 32.65623991 ], [ 130.67591656, 32.65623722 ], [ 130.67568916, 32.65621422 ], [ 130.67555213, 32.65619147 ], [ 130.675537193999986, 32.656183409 ], [ 130.675481667000014, 32.656371434 ], [ 130.675336531999989, 32.656532116 ], [ 130.67514942299999, 32.656600231 ], [ 130.674887659, 32.656838157 ], [ 130.674844302999986, 32.657127352 ], [ 130.674821431999987, 32.657601519 ], [ 130.67495772699999, 32.657935917 ], [ 130.67492478599999, 32.658269877 ], [ 130.674773383, 32.658698954 ], [ 130.674816951, 32.658839265 ], [ 130.674603762, 32.65929206 ], [ 130.67446464599999, 32.659736099 ], [ 130.67380161, 32.659785081 ], [ 130.673884334, 32.660307242 ], [ 130.673896672000012, 32.66079343 ], [ 130.67376003199999, 32.660793735 ], [ 130.673769453, 32.661501204 ], [ 130.673770429, 32.661574529 ], [ 130.674160722000011, 32.661579497 ], [ 130.674330989999987, 32.661590898 ], [ 130.67433003799999, 32.661853338 ], [ 130.674329897, 32.661892132 ], [ 130.67433066800001, 32.661892174 ], [ 130.674506159, 32.661901537 ], [ 130.674494447, 32.662214674 ], [ 130.674293268000014, 32.662615398 ] ] ] } },
{ "type": "Feature", "properties": { "A29_001": "43213", "A29_002": "熊本県", "A29_003": "宇城市", "A29_004": 2, "A29_005": "第二種低層住居専用地域", "A29_006": 50, "A29_007": 100, "A29_008": null }, "geometry": { "type": "Polygon", "coordinates": [ [ [ 130.677379057, 32.654718355 ], [ 130.67757447299999, 32.65474781 ], [ 130.677543816999986, 32.654643609 ], [ 130.67751876299999, 32.654558446 ], [ 130.67728685599999, 32.654340124 ], [ 130.676404327, 32.653672743 ], [ 130.676301375, 32.653694234 ], [ 130.676143236, 32.653727246 ], [ 130.675879763000012, 32.65395324 ], [ 130.67596575799999, 32.654059343 ], [ 130.675481977, 32.654272837 ], [ 130.675241628, 32.654440729 ], [ 130.67506627, 32.65439767 ], [ 130.67496976000001, 32.6543737 ], [ 130.674838841, 32.654323778 ], [ 130.674684610000014, 32.654431831 ], [ 130.67466382399999, 32.65433037 ], [ 130.67464710499999, 32.654309502 ], [ 130.674535717999987, 32.654170471 ], [ 130.674523681000011, 32.654086929 ], [ 130.67450544799999, 32.654069888 ], [ 130.674289566999988, 32.654236195 ], [ 130.67356110599999, 32.654836778 ], [ 130.673231249999986, 32.655378744 ], [ 130.673095756, 32.655795948 ], [ 130.673029797, 32.656481763 ], [ 130.67299835599999, 32.657370481 ], [ 130.672994676, 32.657646544 ], [ 130.672993506000012, 32.65773434 ], [ 130.673032634, 32.657734442 ], [ 130.673190946, 32.657734854 ], [ 130.673186807, 32.657903357 ], [ 130.673176576, 32.658777218 ], [ 130.673125012000014, 32.659382541 ], [ 130.673031767, 32.659814768 ], [ 130.672866766, 32.660586818 ], [ 130.672691945, 32.661150064 ], [ 130.672541445, 32.661811797 ], [ 130.672342979, 32.662788095 ], [ 130.67259801, 32.66285801 ], [ 130.67271855300001, 32.662979833 ], [ 130.673106405, 32.662980844 ], [ 130.67324935799999, 32.662903568 ], [ 130.673458743, 32.662821427 ], [ 130.673708422, 32.662749772 ], [ 130.674087465000014, 32.662749265 ], [ 130.674293268000014, 32.662615398 ], [ 130.674494447, 32.662214674 ], [ 130.674506159, 32.661901537 ], [ 130.67433066800001, 32.661892174 ], [ 130.674329897, 32.661892132 ], [ 130.67433003799999, 32.661853338 ], [ 130.674330989999987, 32.661590898 ], [ 130.674160722000011, 32.661579497 ], [ 130.673770429, 32.661574529 ], [ 130.673769453, 32.661501204 ], [ 130.67376003199999, 32.660793735 ], [ 130.673896672000012, 32.66079343 ], [ 130.673884334, 32.660307242 ], [ 130.67380161, 32.659785081 ], [ 130.67446464599999, 32.659736099 ], [ 130.674603762, 32.65929206 ], [ 130.674816951, 32.658839265 ], [ 130.674773383, 32.658698954 ], [ 130.67492478599999, 32.658269877 ], [ 130.67495772699999, 32.657935917 ], [ 130.674821431999987, 32.657601519 ], [ 130.674844302999986, 32.657127352 ], [ 130.674887659, 32.656838157 ], [ 130.67514942299999, 32.656600231 ], [ 130.675336531999989, 32.656532116 ], [ 130.675481667000014, 32.656371434 ], [ 130.675537193999986, 32.656183409 ], [ 130.67555213, 32.65619147 ], [ 130.67568916, 32.65621422 ], [ 130.67591656, 32.65623722 ], [ 130.67619233, 32.65623991 ], [ 130.676357716000012, 32.65627406 ], [ 130.67641928099999, 32.655944367 ], [ 130.676599788, 32.655747846 ], [ 130.67674816600001, 32.655667837 ], [ 130.676851375000012, 32.655399673 ], [ 130.6770535, 32.655076587 ], [ 130.677379057, 32.654718355 ] ] ] } },
{ "type": "Feature", "properties": { "A29_001": "43213", "A29_002": "熊本県", "A29_003": "宇城市", "A29_004": 10, "A29_005": "準工業地域", "A29_006": 60, "A29_007": 200, "A29_008": null }, "geometry": { "type": "Polygon", "coordinates": [ [ [ 130.67221053099999, 32.659050533 ], [ 130.672203744, 32.659120563 ], [ 130.67206796799999, 32.659612329 ], [ 130.671911198, 32.660059302 ], [ 130.671505993000011, 32.660950024 ], [ 130.670546081, 32.663024981 ], [ 130.670930156, 32.663179461 ], [ 130.67119478699999, 32.663406239 ], [ 130.671356521, 32.663544837 ], [ 130.671375463, 32.663474213 ], [ 130.671677171999988, 32.662349287 ], [ 130.672004471, 32.662517165 ], [ 130.672142091000012, 32.662621124 ], [ 130.672342979, 32.662788095 ], [ 130.672541445, 32.661811797 ], [ 130.672691945, 32.661150064 ], [ 130.672866766, 32.660586818 ], [ 130.673031767, 32.659814768 ], [ 130.673125012000014, 32.659382541 ], [ 130.673176576, 32.658777218 ], [ 130.673186807, 32.657903357 ], [ 130.673190946, 32.657734854 ], [ 130.673032634, 32.657734442 ], [ 130.672993506000012, 32.65773434 ], [ 130.672609142, 32.657749742 ], [ 130.672602995, 32.657662937 ], [ 130.67259572899999, 32.657560315 ], [ 130.672431995000011, 32.657551606 ], [ 130.67227440799999, 32.657549745 ], [ 130.67228483400001, 32.657732491 ], [ 130.672319148000014, 32.65847449 ], [ 130.672228925000013, 32.659043922 ], [ 130.67221053099999, 32.659050533 ] ] ] } }
]
}
