{
"type": "FeatureCollection",
"name": "A29-19_17207",
"features": [
{ "type": "Feature", "properties": { "A29_001": "17207", "A29_002": "石川県", "A29_003": "羽咋市", "A29_004": 8, "A29_005": "近隣商業地域", "A29_006": 80, "A29_007": 300, "A29_008": null }, "geometry": { "type": "Polygon", "coordinates": [ [ [ 136.788840921, 36.894809291 ], [ 136.79085390099999, 36.895178146 ], [ 136.791007845, 36.895052053 ], [ 136.79103137199999, 36.895032782 ], [ 136.791080743, 36.894990648 ], [ 136.790198706000012, 36.894822261 ], [ 136.788903139000013, 36.894574915 ], [ 136.788840921, 36.894809291 ] ] ] } },
{ "type": "Feature", "properties": { "A29_001": "17207", "A29_002": "石川県", "A29_003": "羽咋市", "A29_004": 8, "A29_005": "近隣商業地域", "A29_006": 80, "A29_007": 300, "A29_008": null }, "geometry": { "type": "Polygon", "coordinates": [ [ [ 136.788258807, 36.894667878 ], [ 136.788297465999989, 36.894536239 ], [ 136.788319187000013, 36.894464915 ], [ 136.787711177, 36.894349064 ], [ 136.786413162, 36.894101727 ], [ 136.786488945, 36.893858066 ], [ 136.786107173, 36.893784723 ], [ 136.78571137899999, 36.893711502 ], [ 136.785378307, 36.893691407 ], [ 136.785336492, 36.893870952 ], [ 136.785338180999986, 36.89396552 ], [ 136.78534032799999, 36.894266112 ], [ 136.785976690000012, 36.894282567 ], [ 136.788258807, 36.894667878 ] ] ] } },
{ "type": "Feature", "properties": { "A29_001": "17207", "A29_002": "石川県", "A29_003": "羽咋市", "A29_004": 8, "A29_005": "近隣商業地域", "A29_006": 80, "A29_007": 300, "A29_008": null }, "geometry": { "type": "Polygon", "coordinates": [ [ [ 136.767501587, 36.886725205 ], [ 136.768018587, 36.886579701 ], [ 136.76862922699999, 36.886503494 ], [ 136.769192218, 36.886443867 ], [ 136.76940681799999, 36.88641975 ], [ 136.769654347999989, 36.886395906 ], [ 136.773496058, 36.886724482 ], [ 136.773490264, 36.886800498 ], [ 136.77348933799999, 36.886825847 ], [ 136.773505699, 36.886861113 ], [ 136.773536551, 36.886877729 ], [ 136.77365623099999, 36.886913911 ], [ 136.774033253999988, 36.886941068 ], [ 136.773953726, 36.886614214 ], [ 136.773643888, 36.885241362 ], [ 136.77310674200001, 36.885240984 ], [ 136.771748468999988, 36.8851582 ], [ 136.770369100000011, 36.884973434 ], [ 136.769742508, 36.884890018 ], [ 136.769440159999988, 36.884880797 ], [ 136.769103324000014, 36.884875391 ], [ 136.76845563099999, 36.884873355 ], [ 136.767134042, 36.884691157 ], [ 136.766497385, 36.884656828 ], [ 136.766401895, 36.885835298 ], [ 136.76704528799999, 36.885753762 ], [ 136.767129673999989, 36.885935762 ], [ 136.767226262, 36.886140788 ], [ 136.767501587, 36.886725205 ] ] ] } },
{ "type": "Feature", "properties": { "A29_001": "17207", "A29_002": "石川県", "A29_003": "羽咋市", "A29_004": 8, "A29_005": "近隣商業地域", "A29_006": 80, "A29_007": 300, "A29_008": null }, "geometry": { "type": "Polygon", "coordinates": [ [ [ 136.776573211, 36.899886778 ], [ 136.776505175000011, 36.89881534 ], [ 136.77637176499999, 36.898794996 ], [ 136.776363808000013, 36.898545364 ], [ 136.776349603999989, 36.898252012 ], [ 136.776328734, 36.897965406 ], [ 136.77631987, 36.897812322 ], [ 136.776486742, 36.897834144 ], [ 136.776526095, 36.897828478 ], [ 136.77685258599999, 36.897701199 ], [ 136.776922375999987, 36.897695879 ], [ 136.777014208999987, 36.897686727 ], [ 136.777066420000011, 36.89761013 ], [ 136.777257240000012, 36.897678275 ], [ 136.777190010999988, 36.897764072 ], [ 136.777293278, 36.897838404 ], [ 136.777405603, 36.897725236 ], [ 136.777583170000014, 36.897688107 ], [ 136.77761930299999, 36.897733487 ], [ 136.777675964999986, 36.897687426 ], [ 136.77792000299999, 36.897707648 ], [ 136.778061559, 36.897725685 ], [ 136.778170777000014, 36.897762114 ], [ 136.778307488, 36.897827305 ], [ 136.778346873, 36.897770376 ], [ 136.778626567, 36.897838732 ], [ 136.778640617, 36.897980983 ], [ 136.778831696999987, 36.897998256 ], [ 136.778854435999989, 36.89797014 ], [ 136.77891329799999, 36.897954743 ], [ 136.779017055999986, 36.897932267 ], [ 136.779087702999988, 36.897929414 ], [ 136.779201596, 36.897942347 ], [ 136.779366450999987, 36.898005406 ], [ 136.779512272, 36.898062982 ], [ 136.779670634000013, 36.898099014 ], [ 136.779759071, 36.898119433 ], [ 136.780214892, 36.898228673 ], [ 136.780316430999989, 36.898246799 ], [ 136.780422558, 36.898262084 ], [ 136.78054324499999, 36.898272672 ], [ 136.780683202, 36.89827078 ], [ 136.78185312799999, 36.898301781 ], [ 136.781868723, 36.898287024 ], [ 136.781919225, 36.898226374 ], [ 136.781986077999989, 36.898138905 ], [ 136.782027629, 36.898141917 ], [ 136.782210952000014, 36.89815517 ], [ 136.78228415800001, 36.897415916 ], [ 136.782376449999987, 36.897424975 ], [ 136.782417331, 36.897428994 ], [ 136.782870989, 36.897463421 ], [ 136.78285384599999, 36.897682529 ], [ 136.78320846299999, 36.897681776 ], [ 136.783316254999988, 36.8969132 ], [ 136.783134604999987, 36.896899958 ], [ 136.783193073, 36.896446365 ], [ 136.78336006399999, 36.89645463 ], [ 136.783466132, 36.895791242 ], [ 136.78352331, 36.895791248 ], [ 136.783522917999989, 36.895550841 ], [ 136.783509290000012, 36.895063855 ], [ 136.783495652, 36.894876515 ], [ 136.783488006999988, 36.894724993 ], [ 136.783453723, 36.894585971 ], [ 136.783419353999989, 36.894464118 ], [ 136.783354073, 36.894306266 ], [ 136.783229361999986, 36.893998856 ], [ 136.780594172, 36.89437701 ], [ 136.780301646999987, 36.894379081 ], [ 136.780351927, 36.894457716 ], [ 136.78037587599999, 36.89451644 ], [ 136.780440524999989, 36.894570521 ], [ 136.780482113, 36.894699183 ], [ 136.778902647, 36.894292777 ], [ 136.77856859, 36.894205907 ], [ 136.777928546999988, 36.894059772 ], [ 136.77733399600001, 36.893935249 ], [ 136.777528862, 36.893501597 ], [ 136.777989694000013, 36.893581304 ], [ 136.778588441000011, 36.892043995 ], [ 136.778658826999987, 36.891871641 ], [ 136.778756155999986, 36.891708504 ], [ 136.778499086000011, 36.891577806 ], [ 136.778451260999987, 36.891553532 ], [ 136.777976916, 36.891604854 ], [ 136.777905659999988, 36.89156383 ], [ 136.777972269, 36.891888887 ], [ 136.777209529, 36.893539079 ], [ 136.777127532, 36.893716476 ], [ 136.77709855399999, 36.893776002 ], [ 136.777000458, 36.893727929 ], [ 136.77695352500001, 36.894026096 ], [ 136.776450191, 36.894804338 ], [ 136.776382281, 36.894783825 ], [ 136.776263617000012, 36.895098985 ], [ 136.776471281, 36.895151173 ], [ 136.776373774, 36.895407119 ], [ 136.776320728, 36.895393418 ], [ 136.776219607, 36.895661543 ], [ 136.77613832, 36.895630381 ], [ 136.776033608, 36.895936977 ], [ 136.776084096, 36.895944426 ], [ 136.776018373, 36.896157351 ], [ 136.776037542000012, 36.896162187 ], [ 136.775967521000013, 36.896343704 ], [ 136.77599167599999, 36.896349332 ], [ 136.775926859, 36.896526704 ], [ 136.77552353199999, 36.896427664 ], [ 136.774647646, 36.896189971 ], [ 136.774636525, 36.896218546 ], [ 136.774539565999987, 36.896576546 ], [ 136.774520308, 36.896736124 ], [ 136.77450844399999, 36.896834435 ], [ 136.774507836999987, 36.896839461 ], [ 136.774495769, 36.896895926 ], [ 136.774485201, 36.896965751 ], [ 136.774942524000011, 36.897017327 ], [ 136.77539354000001, 36.897065464 ], [ 136.776051526, 36.897295626 ], [ 136.77606794, 36.897538883 ], [ 136.77595992, 36.897573328 ], [ 136.775801414999989, 36.897637897 ], [ 136.77582787599999, 36.897903403 ], [ 136.775740813, 36.89803908 ], [ 136.77569899299999, 36.898110161 ], [ 136.775679231999987, 36.898146168 ], [ 136.77566402, 36.898193288 ], [ 136.77565678, 36.898258009 ], [ 136.775651073, 36.898358466 ], [ 136.775640213, 36.898455547 ], [ 136.775624834000013, 36.898510987 ], [ 136.775499876, 36.898625265 ], [ 136.775324087, 36.898770824 ], [ 136.77539095, 36.898824377 ], [ 136.775795466, 36.899263135 ], [ 136.77586295099999, 36.899314558 ], [ 136.775902964000011, 36.899685696 ], [ 136.77584203399999, 36.899703979 ], [ 136.77584443, 36.899861967 ], [ 136.776105876, 36.899856275 ], [ 136.776126162999986, 36.899856048 ], [ 136.776311998000011, 36.899870118 ], [ 136.776573211, 36.899886778 ] ], [ [ 136.779583996000014, 36.896650207 ], [ 136.77961681799999, 36.896614193 ], [ 136.779853962, 36.89665886 ], [ 136.78026978599999, 36.896721852 ], [ 136.780481487, 36.896777438 ], [ 136.780542502, 36.896788673 ], [ 136.780474978, 36.896971641 ], [ 136.78058052099999, 36.897169609 ], [ 136.781271838, 36.897217442 ], [ 136.781256496999987, 36.897293965 ], [ 136.781246891, 36.897361478 ], [ 136.78122974199999, 36.897482009 ], [ 136.781150113, 36.897861958 ], [ 136.781142197, 36.897951371 ], [ 136.78114139600001, 36.897990149 ], [ 136.780945282, 36.898012522 ], [ 136.780759827999987, 36.898036472 ], [ 136.780664266, 36.8980423 ], [ 136.780572541, 36.898045071 ], [ 136.780482756999987, 36.89804171 ], [ 136.780368519, 36.898029349 ], [ 136.779836089000014, 36.897902168 ], [ 136.779611863000014, 36.897850496 ], [ 136.779313683999987, 36.897732132 ], [ 136.779101749, 36.89765925 ], [ 136.778982681, 36.897401634 ], [ 136.778964588, 36.897348122 ], [ 136.779000341999989, 36.897306093 ], [ 136.779075819000013, 36.897230278 ], [ 136.7791928, 36.897084581 ], [ 136.779302449, 36.8970163 ], [ 136.77938537599999, 36.89695267 ], [ 136.779470865, 36.896824228 ], [ 136.779566182, 36.896678656 ], [ 136.779583996000014, 36.896650207 ] ], [ [ 136.78128462699999, 36.896633879 ], [ 136.781282170999987, 36.896542564 ], [ 136.780970958000012, 36.896524172 ], [ 136.780949677, 36.896587794 ], [ 136.780831709000012, 36.896562489 ], [ 136.78083779799999, 36.896511002 ], [ 136.780567061, 36.896491046 ], [ 136.780385878, 36.896452998 ], [ 136.780381151, 36.896471877 ], [ 136.780148524999987, 36.896436497 ], [ 136.78018157299999, 36.896188715 ], [ 136.780071916999987, 36.896175515 ], [ 136.78006187299999, 36.896278575 ], [ 136.779889472, 36.896264676 ], [ 136.779894351, 36.896226025 ], [ 136.77985701099999, 36.896221357 ], [ 136.779806775, 36.896343869 ], [ 136.77960526199999, 36.896287979 ], [ 136.779658305, 36.89616123 ], [ 136.779626202, 36.896153086 ], [ 136.779401699, 36.89607732 ], [ 136.779317427, 36.89615021 ], [ 136.779215072, 36.896229095 ], [ 136.778960544, 36.89614581 ], [ 136.778498495, 36.896140723 ], [ 136.778498084, 36.896221882 ], [ 136.77832675, 36.896218832 ], [ 136.778338818, 36.89609985 ], [ 136.778352555, 36.896020948 ], [ 136.777866761000013, 36.895939552 ], [ 136.77775509599999, 36.895988182 ], [ 136.777723285, 36.896142562 ], [ 136.777661746, 36.896134209 ], [ 136.777648325, 36.896184864 ], [ 136.777365034000013, 36.896256121 ], [ 136.77735394199999, 36.896217173 ], [ 136.777205049, 36.896224451 ], [ 136.777208516, 36.896319744 ], [ 136.776996372000013, 36.896320472 ], [ 136.776997271999988, 36.896289116 ], [ 136.776673808999988, 36.896287326 ], [ 136.77725188, 36.894912648 ], [ 136.777316782000014, 36.894924114 ], [ 136.777396863, 36.89478883 ], [ 136.777388300000013, 36.894593914 ], [ 136.77750297099999, 36.894372465 ], [ 136.780388842, 36.895125 ], [ 136.780529688, 36.895125694 ], [ 136.78052344299999, 36.895219841 ], [ 136.78050696299999, 36.895329832 ], [ 136.78049427799999, 36.89535667 ], [ 136.780458282000012, 36.895404417 ], [ 136.780447597, 36.895704969 ], [ 136.781071970999989, 36.895712818 ], [ 136.781064808999986, 36.895416544 ], [ 136.78103821900001, 36.895302905 ], [ 136.78103464599999, 36.895242993 ], [ 136.78094389, 36.895185911 ], [ 136.780943286, 36.895096293 ], [ 136.781034541, 36.895078413 ], [ 136.781608882, 36.895347208 ], [ 136.78161001, 36.895380508 ], [ 136.78166702199999, 36.895378612 ], [ 136.781782627000013, 36.895432608 ], [ 136.781779446, 36.895550178 ], [ 136.781890847999989, 36.89555262 ], [ 136.781895256000013, 36.895647705 ], [ 136.782093793, 36.895642763 ], [ 136.78273870000001, 36.89606831 ], [ 136.782504684, 36.896648267 ], [ 136.78222087899999, 36.896628093 ], [ 136.782232469, 36.896511807 ], [ 136.782004937000011, 36.896489434 ], [ 136.781989654, 36.896600643 ], [ 136.781674259, 36.896578069 ], [ 136.781657599999988, 36.896688755 ], [ 136.78128462699999, 36.896633879 ] ] ] } },
{ "type": "Feature", "properties": { "A29_001": "17207", "A29_002": "石川県", "A29_003": "羽咋市", "A29_004": 8, "A29_005": "近隣商業地域", "A29_006": 80, "A29_007": 300, "A29_008": null }, "geometry": { "type": "Polygon", "coordinates": [ [ [ 136.77074575099999, 36.901570608 ], [ 136.771419928, 36.901266808 ], [ 136.77153915299999, 36.901219498 ], [ 136.772850769, 36.900722807 ], [ 136.773506776, 36.900502194 ], [ 136.77348657499999, 36.900458556 ], [ 136.773271222, 36.900511933 ], [ 136.772821595000011, 36.900620511 ], [ 136.77266798299999, 36.900652865 ], [ 136.77250135700001, 36.90068111 ], [ 136.772331804, 36.900703227 ], [ 136.772143602999989, 36.900718902 ], [ 136.771904775, 36.900727106 ], [ 136.771712044, 36.900728943 ], [ 136.771585894, 36.900725615 ], [ 136.771487145, 36.900717849 ], [ 136.771384899, 36.900707687 ], [ 136.770649771, 36.900557484 ], [ 136.770494493, 36.900701438 ], [ 136.77074575099999, 36.901570608 ] ] ] } },
{ "type": "Feature", "properties": { "A29_001": "17207", "A29_002": "石川県", "A29_003": "羽咋市", "A29_004": 11, "A29_005": "工業地域", "A29_006": 60, "A29_007": 200, "A29_008": null }, "geometry": { "type": "Polygon", "coordinates": [ [ [ 136.769704248000011, 36.896440934 ], [ 136.770316857000012, 36.896518211 ], [ 136.770300488, 36.896607549 ], [ 136.77059638, 36.89664476 ], [ 136.770490173000013, 36.897139341 ], [ 136.770753885, 36.897197821 ], [ 136.770929923000011, 36.897210743 ], [ 136.771096319, 36.896470572 ], [ 136.77107469399999, 36.896467445 ], [ 136.77104157799999, 36.896460676 ], [ 136.771005726, 36.8964396 ], [ 136.771000649, 36.896396566 ], [ 136.77104604499999, 36.896218055 ], [ 136.771045272, 36.896210922 ], [ 136.771027941999989, 36.896176059 ], [ 136.771011499, 36.896167417 ], [ 136.770991202, 36.89616388 ], [ 136.77096572799999, 36.896163539 ], [ 136.77088778800001, 36.896183385 ], [ 136.770816147, 36.896191016 ], [ 136.770826527999986, 36.89611614 ], [ 136.770837899000014, 36.896055467 ], [ 136.770872642, 36.895891985 ], [ 136.77092305299999, 36.895679848 ], [ 136.770964142999986, 36.895490211 ], [ 136.77100262, 36.895353031 ], [ 136.771035931, 36.895210961 ], [ 136.771053569, 36.895149379 ], [ 136.771024798000013, 36.895142022 ], [ 136.770847264, 36.895098805 ], [ 136.770236737, 36.894960185 ], [ 136.770078762999987, 36.894930261 ], [ 136.76991751700001, 36.894912673 ], [ 136.76975834000001, 36.894905321 ], [ 136.769616101999986, 36.894906551 ], [ 136.769399169, 36.894934574 ], [ 136.769704248000011, 36.896440934 ] ] ] } },
{ "type": "Feature", "properties": { "A29_001": "17207", "A29_002": "石川県", "A29_003": "羽咋市", "A29_004": 11, "A29_005": "工業地域", "A29_006": 60, "A29_007": 200, "A29_008": null }, "geometry": { "type": "Polygon", "coordinates": [ [ [ 136.779321836, 36.892206703 ], [ 136.780434813999989, 36.892331785 ], [ 136.780477291000011, 36.892227153 ], [ 136.780916929999989, 36.89227256 ], [ 136.78093900499999, 36.892269088 ], [ 136.780949002999989, 36.892254947 ], [ 136.780943001999987, 36.892164036 ], [ 136.780944624, 36.892133922 ], [ 136.780953262999986, 36.892111963 ], [ 136.780967604000011, 36.892096791 ], [ 136.78099338199999, 36.892088016 ], [ 136.781322009, 36.892073217 ], [ 136.78135103599999, 36.89206644 ], [ 136.781362887, 36.892049155 ], [ 136.78136487, 36.892030244 ], [ 136.781354576000012, 36.89201009 ], [ 136.78121355, 36.891716581 ], [ 136.781135901999988, 36.891488928 ], [ 136.78111569399999, 36.891291992 ], [ 136.78113846299999, 36.890924646 ], [ 136.779364566, 36.890531795 ], [ 136.77925963199999, 36.890672968 ], [ 136.779524778, 36.890736103 ], [ 136.779429461, 36.891306388 ], [ 136.779351795, 36.891300802 ], [ 136.77930666899999, 36.891585376 ], [ 136.779395929, 36.89159258 ], [ 136.779321836, 36.892206703 ] ] ] } },
{ "type": "Feature", "properties": { "A29_001": "17207", "A29_002": "石川県", "A29_003": "羽咋市", "A29_004": 11, "A29_005": "工業地域", "A29_006": 60, "A29_007": 200, "A29_008": null }, "geometry": { "type": "Polygon", "coordinates": [ [ [ 136.782273245, 36.905252094 ], [ 136.78222132, 36.904451049 ], [ 136.78221761099999, 36.904285694 ], [ 136.782217266, 36.90412226 ], [ 136.782227080000013, 36.903957249 ], [ 136.782255740000011, 36.903674233 ], [ 136.781547085999989, 36.903704112 ], [ 136.78155814199999, 36.903877787 ], [ 136.780898243, 36.903905893 ], [ 136.780876119, 36.903615187 ], [ 136.780679053, 36.903641312 ], [ 136.779742333, 36.903761418 ], [ 136.778952835000013, 36.903865304 ], [ 136.77938318599999, 36.906223118 ], [ 136.77972813400001, 36.906172698 ], [ 136.779789958, 36.906592272 ], [ 136.779897651, 36.906544526 ], [ 136.780641148, 36.906245379 ], [ 136.780905893000011, 36.906142863 ], [ 136.781149647, 36.906038755 ], [ 136.781395616, 36.905920237 ], [ 136.78158671700001, 36.905816424 ], [ 136.781859024, 36.905628997 ], [ 136.78204158, 36.905479977 ], [ 136.782190592, 36.905337307 ], [ 136.782225694, 36.905301117 ], [ 136.782273245, 36.905252094 ] ] ] } },
{ "type": "Feature", "properties": { "A29_001": "17207", "A29_002": "石川県", "A29_003": "羽咋市", "A29_004": 10, "A29_005": "準工業地域", "A29_006": 60, "A29_007": 200, "A29_008": null }, "geometry": { "type": "Polygon", "coordinates": [ [ [ 136.788258807, 36.894667878 ], [ 136.788166705, 36.894981498 ], [ 136.788763988, 36.895099708 ], [ 136.788840921, 36.894809291 ], [ 136.788903139000013, 36.894574915 ], [ 136.788319187000013, 36.894464915 ], [ 136.788297465999989, 36.894536239 ], [ 136.788258807, 36.894667878 ] ] ] } },
{ "type": "Feature", "properties": { "A29_001": "17207", "A29_002": "石川県", "A29_003": "羽咋市", "A29_004": 10, "A29_005": "準工業地域", "A29_006": 60, "A29_007": 200, "A29_008": null }, "geometry": { "type": "Polygon", "coordinates": [ [ [ 136.790198706000012, 36.894822261 ], [ 136.791080743, 36.894990648 ], [ 136.791142498, 36.894934213 ], [ 136.791625559000011, 36.894546124 ], [ 136.792432934, 36.893919082 ], [ 136.792359581999989, 36.893890685 ], [ 136.792050018, 36.893732561 ], [ 136.79189883, 36.89365912 ], [ 136.791456931999988, 36.893453104 ], [ 136.791345476, 36.89332664 ], [ 136.791040976, 36.893206986 ], [ 136.791023388000013, 36.892916689 ], [ 136.790932096, 36.892197385 ], [ 136.790912658, 36.892220071 ], [ 136.790911539, 36.892339049 ], [ 136.7908897, 36.892436913 ], [ 136.790218556000013, 36.894753738 ], [ 136.790198706000012, 36.894822261 ] ] ] } },
{ "type": "Feature", "properties": { "A29_001": "17207", "A29_002": "石川県", "A29_003": "羽咋市", "A29_004": 10, "A29_005": "準工業地域", "A29_006": 60, "A29_007": 200, "A29_008": null }, "geometry": { "type": "Polygon", "coordinates": [ [ [ 136.787711177, 36.894349064 ], [ 136.787784898000012, 36.894122873 ], [ 136.788489148, 36.891711984 ], [ 136.788305538, 36.89170932 ], [ 136.787157587, 36.891486087 ], [ 136.78712299899999, 36.891627383 ], [ 136.787025556, 36.891956972 ], [ 136.786977788, 36.892118539 ], [ 136.786488945, 36.893858066 ], [ 136.786413162, 36.894101727 ], [ 136.787711177, 36.894349064 ] ] ] } },
{ "type": "Feature", "properties": { "A29_001": "17207", "A29_002": "石川県", "A29_003": "羽咋市", "A29_004": 10, "A29_005": "準工業地域", "A29_006": 60, "A29_007": 200, "A29_008": null }, "geometry": { "type": "Polygon", "coordinates": [ [ [ 136.775776173, 36.906420533 ], [ 136.77577803299999, 36.906687886 ], [ 136.776188762, 36.906689772 ], [ 136.77620257, 36.907295657 ], [ 136.776177762, 36.907705657 ], [ 136.776275715, 36.90771036 ], [ 136.77629472699999, 36.907807457 ], [ 136.77635696199999, 36.90803286 ], [ 136.776465803, 36.908228422 ], [ 136.776526139, 36.908311082 ], [ 136.776677353, 36.908514014 ], [ 136.77684055, 36.90871508 ], [ 136.776933949000011, 36.908986853 ], [ 136.776933178, 36.909200209 ], [ 136.776950262000014, 36.909436392 ], [ 136.777430697999989, 36.909424918 ], [ 136.77744355499999, 36.90952335 ], [ 136.77721929, 36.909900474 ], [ 136.777831281, 36.909718669 ], [ 136.777892009999988, 36.909724788 ], [ 136.777952477000014, 36.90973697 ], [ 136.777991022, 36.909754329 ], [ 136.77804157599999, 36.909782712 ], [ 136.778068555, 36.910026039 ], [ 136.77803980499999, 36.910433184 ], [ 136.77920395000001, 36.910449332 ], [ 136.779285139, 36.910456913 ], [ 136.779326741, 36.910100987 ], [ 136.778614185, 36.910068605 ], [ 136.778603471999986, 36.909976231 ], [ 136.778560707, 36.909687159 ], [ 136.77851580699999, 36.90952316 ], [ 136.77847319, 36.909438079 ], [ 136.778470601, 36.909277558 ], [ 136.778427623999988, 36.90926359 ], [ 136.778397608, 36.909178257 ], [ 136.778350875, 36.909061341 ], [ 136.778295004, 36.908948611 ], [ 136.778182926, 36.908765193 ], [ 136.778140498, 36.908698295 ], [ 136.777933561999987, 36.9084378 ], [ 136.777757627999989, 36.908227604 ], [ 136.777610986000013, 36.908046939 ], [ 136.777570451, 36.907992561 ], [ 136.777469851, 36.907857607 ], [ 136.77744419699999, 36.907822436 ], [ 136.777411567, 36.907764386 ], [ 136.777330209000013, 36.907599361 ], [ 136.777262946, 36.907417323 ], [ 136.777467086, 36.907380745 ], [ 136.777479914, 36.907117594 ], [ 136.777307599000011, 36.907100763 ], [ 136.777360754, 36.90682227 ], [ 136.777750188999988, 36.906754021 ], [ 136.777844362, 36.906500086 ], [ 136.777504295999989, 36.906438971 ], [ 136.777624653, 36.906170466 ], [ 136.777238376000014, 36.906067011 ], [ 136.777301346, 36.905728837 ], [ 136.77726025199999, 36.905726598 ], [ 136.777257835, 36.904945384 ], [ 136.777403531, 36.90490308 ], [ 136.777412486, 36.904604464 ], [ 136.777515009000012, 36.904461457 ], [ 136.777527956, 36.904061225 ], [ 136.77724615599999, 36.904022765 ], [ 136.777232551999987, 36.903155066 ], [ 136.777231847, 36.903114692 ], [ 136.77722328199999, 36.902624387 ], [ 136.777212885000012, 36.902430279 ], [ 136.777205227, 36.902330553 ], [ 136.777196672, 36.902240322 ], [ 136.77718111499999, 36.902095326 ], [ 136.777134512, 36.901822591 ], [ 136.777024874, 36.901353114 ], [ 136.777024928, 36.901112097 ], [ 136.776878339, 36.90109118 ], [ 136.776664927000013, 36.901077287 ], [ 136.776393767, 36.901090968 ], [ 136.775954770999988, 36.901113116 ], [ 136.77598780400001, 36.901530197 ], [ 136.77599020400001, 36.901565184 ], [ 136.775620865, 36.901970903 ], [ 136.775495806, 36.901980531 ], [ 136.775511486999989, 36.90200276 ], [ 136.775668771999989, 36.902306016 ], [ 136.775695904, 36.902358329 ], [ 136.776118217, 36.903143382 ], [ 136.77623008399999, 36.903371272 ], [ 136.776196734, 36.903465749 ], [ 136.776128083, 36.903592221 ], [ 136.776068412, 36.9036854 ], [ 136.775966296, 36.903823722 ], [ 136.775807211999989, 36.90397561 ], [ 136.775950555, 36.904014679 ], [ 136.775998103, 36.904026914 ], [ 136.776023011, 36.904030686 ], [ 136.776080936, 36.90403595 ], [ 136.776126868, 36.904036915 ], [ 136.776135461, 36.904454499 ], [ 136.77611682700001, 36.904581868 ], [ 136.77586325199999, 36.904580283 ], [ 136.775803824, 36.904938155 ], [ 136.776140618999989, 36.905025692 ], [ 136.77615926499999, 36.905885289 ], [ 136.776157519, 36.906138417 ], [ 136.775771426, 36.906149648 ], [ 136.775776173, 36.906420533 ] ] ] } },
{ "type": "Feature", "properties": { "A29_001": "17207", "A29_002": "石川県", "A29_003": "羽咋市", "A29_004": 10, "A29_005": "準工業地域", "A29_006": 60, "A29_007": 200, "A29_008": null }, "geometry": { "type": "Polygon", "coordinates": [ [ [ 136.777905659999988, 36.89156383 ], [ 136.777976916, 36.891604854 ], [ 136.778451260999987, 36.891553532 ], [ 136.778499086000011, 36.891577806 ], [ 136.778841688999989, 36.891163635 ], [ 136.778756820000012, 36.891124534 ], [ 136.778664509, 36.890701823 ], [ 136.778840142, 36.890491601 ], [ 136.778548883000013, 36.8901648 ], [ 136.77805630899999, 36.887783029 ], [ 136.778231017, 36.887792536 ], [ 136.77821204899999, 36.887557984 ], [ 136.778023682999986, 36.887556597 ], [ 136.77797593599999, 36.887223307 ], [ 136.778004465, 36.887217157 ], [ 136.778009981, 36.886837585 ], [ 136.777815917, 36.88682732 ], [ 136.777756909, 36.886592654 ], [ 136.778053461000013, 36.886486905 ], [ 136.777984307, 36.886012452 ], [ 136.77763294, 36.88563808 ], [ 136.777495707000014, 36.88470735 ], [ 136.77759383099999, 36.884708555 ], [ 136.777781793, 36.884709957 ], [ 136.777957738, 36.884719558 ], [ 136.778154457, 36.884754916 ], [ 136.778205434, 36.884556203 ], [ 136.7778971, 36.884481882 ], [ 136.777893936999988, 36.884303341 ], [ 136.77791078300001, 36.88407046 ], [ 136.777721211, 36.884057434 ], [ 136.777785142, 36.883849348 ], [ 136.777543290000011, 36.883496111 ], [ 136.777693817, 36.883501874 ], [ 136.77769865, 36.883281926 ], [ 136.777495237000011, 36.883275372 ], [ 136.777500844, 36.883010568 ], [ 136.777179491, 36.883033381 ], [ 136.777157189, 36.882768426 ], [ 136.777200402, 36.882608004 ], [ 136.77745072799999, 36.882578195 ], [ 136.777504197000013, 36.882415252 ], [ 136.77761075399999, 36.882062003 ], [ 136.777271617999986, 36.882111159 ], [ 136.77729872, 36.882193353 ], [ 136.776962246000011, 36.882368223 ], [ 136.776926728, 36.882161147 ], [ 136.776882984, 36.881932899 ], [ 136.776722608, 36.881964185 ], [ 136.776428290000013, 36.882042695 ], [ 136.776320543999987, 36.882072447 ], [ 136.775878138, 36.882156213 ], [ 136.775962528, 36.882544925 ], [ 136.775892801, 36.882564422 ], [ 136.775780878, 36.882594721 ], [ 136.775959237, 36.882918674 ], [ 136.776087671999989, 36.883290718 ], [ 136.776054388, 36.883478704 ], [ 136.776107919999987, 36.883486538 ], [ 136.776252433, 36.884056868 ], [ 136.776114067, 36.884597594 ], [ 136.776218298, 36.884615639 ], [ 136.77639732099999, 36.884644577 ], [ 136.776322101, 36.88487307 ], [ 136.776133109, 36.885257722 ], [ 136.774770667000013, 36.88529764 ], [ 136.77358288, 36.885141658 ], [ 136.773643888, 36.885241362 ], [ 136.773953726, 36.886614214 ], [ 136.77425366599999, 36.886583472 ], [ 136.774267597, 36.886618604 ], [ 136.77509428, 36.886681673 ], [ 136.77500776799999, 36.886456997 ], [ 136.775458066999988, 36.886442691 ], [ 136.77542588, 36.886543514 ], [ 136.775725897, 36.886532466 ], [ 136.775878506, 36.886791185 ], [ 136.776152204, 36.886768778 ], [ 136.776409973999989, 36.886758627 ], [ 136.776417858, 36.886785384 ], [ 136.776488734999987, 36.887203987 ], [ 136.77688311899999, 36.887205281 ], [ 136.776942953, 36.887731677 ], [ 136.77690622, 36.887903804 ], [ 136.776889618000013, 36.887956765 ], [ 136.776931706999989, 36.887970124 ], [ 136.777042483, 36.88800022 ], [ 136.777120897, 36.888497679 ], [ 136.776964429, 36.888874749 ], [ 136.77723233, 36.888972925 ], [ 136.777170189, 36.889189713 ], [ 136.777183877, 36.889390606 ], [ 136.777335886, 36.889417626 ], [ 136.777432441, 36.890047516 ], [ 136.777389637, 36.890051811 ], [ 136.777435508999986, 36.890394568 ], [ 136.777495578000014, 36.890386117 ], [ 136.77750638, 36.89070157 ], [ 136.77772446, 36.891449844 ], [ 136.777826963, 36.891518522 ], [ 136.777905659999988, 36.89156383 ] ] ] } },
{ "type": "Feature", "properties": { "A29_001": "17207", "A29_002": "石川県", "A29_003": "羽咋市", "A29_004": 7, "A29_005": "準住居地域", "A29_006": 60, "A29_007": 200, "A29_008": null }, "geometry": { "type": "Polygon", "coordinates": [ [ [ 136.777209529, 36.893539079 ], [ 136.776698084, 36.893281894 ], [ 136.77660905499999, 36.893243263 ], [ 136.776074615999988, 36.893024077 ], [ 136.775925612, 36.892969083 ], [ 136.77565430300001, 36.892875948 ], [ 136.775520572, 36.892828928 ], [ 136.77109400399999, 36.891887952 ], [ 136.77041740199999, 36.892339302 ], [ 136.769798503, 36.892683416 ], [ 136.770242408, 36.893103806 ], [ 136.771243371999986, 36.892431694 ], [ 136.773094498, 36.892827342 ], [ 136.77496667599999, 36.893228957 ], [ 136.775040553, 36.893058221 ], [ 136.77507131199999, 36.89299476 ], [ 136.775340739, 36.893050332 ], [ 136.775553835000011, 36.893109759 ], [ 136.77579377699999, 36.893177918 ], [ 136.775994578, 36.893249108 ], [ 136.77620729099999, 36.893322639 ], [ 136.77640102699999, 36.89341335 ], [ 136.777000458, 36.893727929 ], [ 136.77709855399999, 36.893776002 ], [ 136.777127532, 36.893716476 ], [ 136.777209529, 36.893539079 ] ] ] } },
{ "type": "Feature", "properties": { "A29_001": "17207", "A29_002": "石川県", "A29_003": "羽咋市", "A29_004": 9, "A29_005": "商業地域", "A29_006": 80, "A29_007": 300, "A29_008": null }, "geometry": { "type": "Polygon", "coordinates": [ [ [ 136.780301646999987, 36.894379081 ], [ 136.78026067499999, 36.894292195 ], [ 136.779638885999987, 36.894121851 ], [ 136.779858985, 36.893599563 ], [ 136.779893442, 36.893601387 ], [ 136.780162507, 36.892880051 ], [ 136.78017538899999, 36.892845513 ], [ 136.780310105000012, 36.892484348 ], [ 136.77928679499999, 36.892222618 ], [ 136.778588441000011, 36.892043995 ], [ 136.777989694000013, 36.893581304 ], [ 136.777528862, 36.893501597 ], [ 136.77733399600001, 36.893935249 ], [ 136.777928546999988, 36.894059772 ], [ 136.77856859, 36.894205907 ], [ 136.778902647, 36.894292777 ], [ 136.780482113, 36.894699183 ], [ 136.780440524999989, 36.894570521 ], [ 136.78037587599999, 36.89451644 ], [ 136.780351927, 36.894457716 ], [ 136.780301646999987, 36.894379081 ] ] ] } },
{ "type": "Feature", "properties": { "A29_001": "17207", "A29_002": "石川県", "A29_003": "羽咋市", "A29_004": 5, "A29_005": "第一種住居地域", "A29_006": 60, "A29_007": 200, "A29_008": null }, "geometry": { "type": "Polygon", "coordinates": [ [ [ 136.773641626, 36.906110128 ], [ 136.773574378, 36.906235296 ], [ 136.773567727, 36.906244237 ], [ 136.774129652, 36.906401139 ], [ 136.775776173, 36.906420533 ], [ 136.775771426, 36.906149648 ], [ 136.776157519, 36.906138417 ], [ 136.77615926499999, 36.905885289 ], [ 136.774265207000013, 36.905928239 ], [ 136.77382039299999, 36.905814165 ], [ 136.773727022, 36.905988033 ], [ 136.773641626, 36.906110128 ] ] ] } },
{ "type": "Feature", "properties": { "A29_001": "17207", "A29_002": "石川県", "A29_003": "羽咋市", "A29_004": 5, "A29_005": "第一種住居地域", "A29_006": 60, "A29_007": 200, "A29_008": null }, "geometry": { "type": "Polygon", "coordinates": [ [ [ 136.77961681799999, 36.896614193 ], [ 136.779583996000014, 36.896650207 ], [ 136.779566182, 36.896678656 ], [ 136.779470865, 36.896824228 ], [ 136.77938537599999, 36.89695267 ], [ 136.779302449, 36.8970163 ], [ 136.7791928, 36.897084581 ], [ 136.779075819000013, 36.897230278 ], [ 136.779000341999989, 36.897306093 ], [ 136.778964588, 36.897348122 ], [ 136.778982681, 36.897401634 ], [ 136.779101749, 36.89765925 ], [ 136.779313683999987, 36.897732132 ], [ 136.779611863000014, 36.897850496 ], [ 136.779836089000014, 36.897902168 ], [ 136.780368519, 36.898029349 ], [ 136.780482756999987, 36.89804171 ], [ 136.780572541, 36.898045071 ], [ 136.780664266, 36.8980423 ], [ 136.780759827999987, 36.898036472 ], [ 136.780945282, 36.898012522 ], [ 136.78114139600001, 36.897990149 ], [ 136.781142197, 36.897951371 ], [ 136.781150113, 36.897861958 ], [ 136.78122974199999, 36.897482009 ], [ 136.781246891, 36.897361478 ], [ 136.781256496999987, 36.897293965 ], [ 136.781271838, 36.897217442 ], [ 136.78058052099999, 36.897169609 ], [ 136.780474978, 36.896971641 ], [ 136.780542502, 36.896788673 ], [ 136.780481487, 36.896777438 ], [ 136.78026978599999, 36.896721852 ], [ 136.779853962, 36.89665886 ], [ 136.77961681799999, 36.896614193 ] ] ] } },
{ "type": "Feature", "properties": { "A29_001": "17207", "A29_002": "石川県", "A29_003": "羽咋市", "A29_004": 5, "A29_005": "第一種住居地域", "A29_006": 60, "A29_007": 200, "A29_008": null }, "geometry": { "type": "Polygon", "coordinates": [ [ [ 136.776573211, 36.899886778 ], [ 136.77689449499999, 36.899907406 ], [ 136.777195127, 36.899945327 ], [ 136.7775073, 36.900004014 ], [ 136.777685827, 36.900029774 ], [ 136.77791593399999, 36.900042761 ], [ 136.77818307199999, 36.900044356 ], [ 136.778438021, 36.900030379 ], [ 136.778625267, 36.900004901 ], [ 136.778754297, 36.899982832 ], [ 136.778859696000012, 36.899961375 ], [ 136.778961162, 36.899936741 ], [ 136.778986233000012, 36.899930627 ], [ 136.779053929000014, 36.89991412 ], [ 136.779069071, 36.899909469 ], [ 136.779118777, 36.899894203 ], [ 136.779198760000014, 36.899869638 ], [ 136.779330687, 36.89982391 ], [ 136.779468635, 36.899770012 ], [ 136.779732880000012, 36.899648158 ], [ 136.779912472, 36.899559764 ], [ 136.779967593, 36.899531286 ], [ 136.780080598000012, 36.899472903 ], [ 136.780224798, 36.899391154 ], [ 136.780335387, 36.899316108 ], [ 136.780425076, 36.899251101 ], [ 136.780634856, 36.899077162 ], [ 136.780764151999989, 36.89894962 ], [ 136.780823239, 36.898891333 ], [ 136.780955912, 36.898973598 ], [ 136.78103689299999, 36.898931625 ], [ 136.781059332000012, 36.898893216 ], [ 136.781189433, 36.898789032 ], [ 136.781259293, 36.898735192 ], [ 136.78146115199999, 36.898596798 ], [ 136.781595376000013, 36.898497512 ], [ 136.781729645000013, 36.898402918 ], [ 136.781792317, 36.898359323 ], [ 136.78185312799999, 36.898301781 ], [ 136.780683202, 36.89827078 ], [ 136.78054324499999, 36.898272672 ], [ 136.780422558, 36.898262084 ], [ 136.780316430999989, 36.898246799 ], [ 136.780214892, 36.898228673 ], [ 136.779759071, 36.898119433 ], [ 136.779670634000013, 36.898099014 ], [ 136.779512272, 36.898062982 ], [ 136.779366450999987, 36.898005406 ], [ 136.779201596, 36.897942347 ], [ 136.779087702999988, 36.897929414 ], [ 136.779017055999986, 36.897932267 ], [ 136.77891329799999, 36.897954743 ], [ 136.778854435999989, 36.89797014 ], [ 136.778831696999987, 36.897998256 ], [ 136.778640617, 36.897980983 ], [ 136.778626567, 36.897838732 ], [ 136.778346873, 36.897770376 ], [ 136.778307488, 36.897827305 ], [ 136.778170777000014, 36.897762114 ], [ 136.778061559, 36.897725685 ], [ 136.77792000299999, 36.897707648 ], [ 136.777675964999986, 36.897687426 ], [ 136.77761930299999, 36.897733487 ], [ 136.777583170000014, 36.897688107 ], [ 136.777405603, 36.897725236 ], [ 136.777293278, 36.897838404 ], [ 136.777190010999988, 36.897764072 ], [ 136.777257240000012, 36.897678275 ], [ 136.777066420000011, 36.89761013 ], [ 136.777014208999987, 36.897686727 ], [ 136.776922375999987, 36.897695879 ], [ 136.77685258599999, 36.897701199 ], [ 136.776526095, 36.897828478 ], [ 136.776486742, 36.897834144 ], [ 136.77631987, 36.897812322 ], [ 136.776328734, 36.897965406 ], [ 136.776349603999989, 36.898252012 ], [ 136.776363808000013, 36.898545364 ], [ 136.77637176499999, 36.898794996 ], [ 136.776505175000011, 36.89881534 ], [ 136.776573211, 36.899886778 ] ] ] } },
{ "type": "Feature", "properties": { "A29_001": "17207", "A29_002": "石川県", "A29_003": "羽咋市", "A29_004": 5, "A29_005": "第一種住居地域", "A29_006": 60, "A29_007": 200, "A29_008": null }, "geometry": { "type": "Polygon", "coordinates": [ [ [ 136.779285139, 36.910456913 ], [ 136.780150206, 36.910612959 ], [ 136.780178103999987, 36.9100596 ], [ 136.78038548399999, 36.909542875 ], [ 136.780822878, 36.909149621 ], [ 136.780976095999989, 36.908762498 ], [ 136.781237885, 36.908370246 ], [ 136.78149810799999, 36.907955058 ], [ 136.78172731, 36.907767453 ], [ 136.78269495399999, 36.907510834 ], [ 136.782541482, 36.906962678 ], [ 136.78245933299999, 36.906625307 ], [ 136.782407272, 36.906357608 ], [ 136.782369716, 36.906153093 ], [ 136.78231821899999, 36.905773074 ], [ 136.782277555, 36.905306651 ], [ 136.782273245, 36.905252094 ], [ 136.782225694, 36.905301117 ], [ 136.782190592, 36.905337307 ], [ 136.78204158, 36.905479977 ], [ 136.781859024, 36.905628997 ], [ 136.78158671700001, 36.905816424 ], [ 136.781395616, 36.905920237 ], [ 136.781149647, 36.906038755 ], [ 136.780905893000011, 36.906142863 ], [ 136.780641148, 36.906245379 ], [ 136.779897651, 36.906544526 ], [ 136.779789958, 36.906592272 ], [ 136.77972813400001, 36.906172698 ], [ 136.77938318599999, 36.906223118 ], [ 136.778952835000013, 36.903865304 ], [ 136.779742333, 36.903761418 ], [ 136.780679053, 36.903641312 ], [ 136.780876119, 36.903615187 ], [ 136.780898243, 36.903905893 ], [ 136.78155814199999, 36.903877787 ], [ 136.781547085999989, 36.903704112 ], [ 136.782255740000011, 36.903674233 ], [ 136.782284427, 36.903399316 ], [ 136.782210201999987, 36.903400953 ], [ 136.781859348000012, 36.903402367 ], [ 136.781629551, 36.903388372 ], [ 136.781338111999986, 36.903353408 ], [ 136.780976466999988, 36.903291037 ], [ 136.780927689, 36.903279097 ], [ 136.78068519499999, 36.903219738 ], [ 136.780388276999986, 36.903134858 ], [ 136.780188546, 36.903075561 ], [ 136.779907629, 36.902959407 ], [ 136.779512372999989, 36.902764416 ], [ 136.779081158, 36.902533125 ], [ 136.77885709899999, 36.902389828 ], [ 136.778764661999986, 36.902306175 ], [ 136.778662196, 36.902207405 ], [ 136.77837313399999, 36.901847643 ], [ 136.778148893, 36.901636527 ], [ 136.777841115, 36.901395723 ], [ 136.77750185799999, 36.901243264 ], [ 136.777051257000011, 36.901115853 ], [ 136.777024928, 36.901112097 ], [ 136.777024874, 36.901353114 ], [ 136.777134512, 36.901822591 ], [ 136.77718111499999, 36.902095326 ], [ 136.777196672, 36.902240322 ], [ 136.777205227, 36.902330553 ], [ 136.777212885000012, 36.902430279 ], [ 136.77722328199999, 36.902624387 ], [ 136.777231847, 36.903114692 ], [ 136.777232551999987, 36.903155066 ], [ 136.77724615599999, 36.904022765 ], [ 136.777527956, 36.904061225 ], [ 136.777515009000012, 36.904461457 ], [ 136.777412486, 36.904604464 ], [ 136.777403531, 36.90490308 ], [ 136.777257835, 36.904945384 ], [ 136.77726025199999, 36.905726598 ], [ 136.777301346, 36.905728837 ], [ 136.777238376000014, 36.906067011 ], [ 136.777624653, 36.906170466 ], [ 136.777504295999989, 36.906438971 ], [ 136.777844362, 36.906500086 ], [ 136.777750188999988, 36.906754021 ], [ 136.777360754, 36.90682227 ], [ 136.777307599000011, 36.907100763 ], [ 136.777479914, 36.907117594 ], [ 136.777467086, 36.907380745 ], [ 136.777262946, 36.907417323 ], [ 136.777330209000013, 36.907599361 ], [ 136.777411567, 36.907764386 ], [ 136.77744419699999, 36.907822436 ], [ 136.777469851, 36.907857607 ], [ 136.777570451, 36.907992561 ], [ 136.777610986000013, 36.908046939 ], [ 136.777757627999989, 36.908227604 ], [ 136.777933561999987, 36.9084378 ], [ 136.778140498, 36.908698295 ], [ 136.778182926, 36.908765193 ], [ 136.778295004, 36.908948611 ], [ 136.778350875, 36.909061341 ], [ 136.778397608, 36.909178257 ], [ 136.778427623999988, 36.90926359 ], [ 136.778470601, 36.909277558 ], [ 136.77847319, 36.909438079 ], [ 136.77851580699999, 36.90952316 ], [ 136.778560707, 36.909687159 ], [ 136.778603471999986, 36.909976231 ], [ 136.778614185, 36.910068605 ], [ 136.779326741, 36.910100987 ], [ 136.779285139, 36.910456913 ] ], [ [ 136.777814148, 36.904235685 ], [ 136.777812461, 36.904043068 ], [ 136.778163508, 36.904041587 ], [ 136.778198835000012, 36.904239033 ], [ 136.777814148, 36.904235685 ] ] ] } },
{ "type": "Feature", "properties": { "A29_001": "17207", "A29_002": "石川県", "A29_003": "羽咋市", "A29_004": 5, "A29_005": "第一種住居地域", "A29_006": 60, "A29_007": 200, "A29_008": null }, "geometry": { "type": "Polygon", "coordinates": [ [ [ 136.77011507899999, 36.898485284 ], [ 136.770378560000012, 36.900271943 ], [ 136.770494493, 36.900701438 ], [ 136.770649771, 36.900557484 ], [ 136.771384899, 36.900707687 ], [ 136.771487145, 36.900717849 ], [ 136.771585894, 36.900725615 ], [ 136.771712044, 36.900728943 ], [ 136.771904775, 36.900727106 ], [ 136.772143602999989, 36.900718902 ], [ 136.772331804, 36.900703227 ], [ 136.77250135700001, 36.90068111 ], [ 136.77266798299999, 36.900652865 ], [ 136.772821595000011, 36.900620511 ], [ 136.773271222, 36.900511933 ], [ 136.77348657499999, 36.900458556 ], [ 136.77343142399999, 36.900330875 ], [ 136.77342887099999, 36.9003253 ], [ 136.77357601599999, 36.900283794 ], [ 136.773643349999986, 36.900261885 ], [ 136.7742815, 36.90005187 ], [ 136.774513074999987, 36.899979978 ], [ 136.774572342999988, 36.899965162 ], [ 136.774604489000012, 36.899957125 ], [ 136.774623738, 36.899952313 ], [ 136.774735029999988, 36.899928051 ], [ 136.77483254099999, 36.899909595 ], [ 136.774959676, 36.899892746 ], [ 136.77509433899999, 36.899882901 ], [ 136.77525401, 36.899874819 ], [ 136.77584443, 36.899861967 ], [ 136.77584203399999, 36.899703979 ], [ 136.775902964000011, 36.899685696 ], [ 136.77586295099999, 36.899314558 ], [ 136.775795466, 36.899263135 ], [ 136.77539095, 36.898824377 ], [ 136.775324087, 36.898770824 ], [ 136.775499876, 36.898625265 ], [ 136.775624834000013, 36.898510987 ], [ 136.775640213, 36.898455547 ], [ 136.775651073, 36.898358466 ], [ 136.77565678, 36.898258009 ], [ 136.77566402, 36.898193288 ], [ 136.775679231999987, 36.898146168 ], [ 136.77569899299999, 36.898110161 ], [ 136.775740813, 36.89803908 ], [ 136.77582787599999, 36.897903403 ], [ 136.775801414999989, 36.897637897 ], [ 136.77595992, 36.897573328 ], [ 136.77606794, 36.897538883 ], [ 136.776051526, 36.897295626 ], [ 136.77539354000001, 36.897065464 ], [ 136.774942524000011, 36.897017327 ], [ 136.774485201, 36.896965751 ], [ 136.774495769, 36.896895926 ], [ 136.774507836999987, 36.896839461 ], [ 136.77450844399999, 36.896834435 ], [ 136.774520308, 36.896736124 ], [ 136.774539565999987, 36.896576546 ], [ 136.774636525, 36.896218546 ], [ 136.774647646, 36.896189971 ], [ 136.77552353199999, 36.896427664 ], [ 136.775926859, 36.896526704 ], [ 136.77599167599999, 36.896349332 ], [ 136.775967521000013, 36.896343704 ], [ 136.776037542000012, 36.896162187 ], [ 136.776018373, 36.896157351 ], [ 136.776084096, 36.895944426 ], [ 136.776033608, 36.895936977 ], [ 136.77613832, 36.895630381 ], [ 136.776219607, 36.895661543 ], [ 136.776320728, 36.895393418 ], [ 136.776373774, 36.895407119 ], [ 136.776471281, 36.895151173 ], [ 136.776263617000012, 36.895098985 ], [ 136.776382281, 36.894783825 ], [ 136.776450191, 36.894804338 ], [ 136.77695352500001, 36.894026096 ], [ 136.777000458, 36.893727929 ], [ 136.77640102699999, 36.89341335 ], [ 136.77620729099999, 36.893322639 ], [ 136.775994578, 36.893249108 ], [ 136.77579377699999, 36.893177918 ], [ 136.775553835000011, 36.893109759 ], [ 136.775340739, 36.893050332 ], [ 136.77507131199999, 36.89299476 ], [ 136.775040553, 36.893058221 ], [ 136.77496667599999, 36.893228957 ], [ 136.773094498, 36.892827342 ], [ 136.771243371999986, 36.892431694 ], [ 136.770242408, 36.893103806 ], [ 136.769798503, 36.892683416 ], [ 136.77041740199999, 36.892339302 ], [ 136.77109400399999, 36.891887952 ], [ 136.775520572, 36.892828928 ], [ 136.77565430300001, 36.892875948 ], [ 136.775925612, 36.892969083 ], [ 136.776074615999988, 36.893024077 ], [ 136.77660905499999, 36.893243263 ], [ 136.776698084, 36.893281894 ], [ 136.777209529, 36.893539079 ], [ 136.777972269, 36.891888887 ], [ 136.777905659999988, 36.89156383 ], [ 136.777826963, 36.891518522 ], [ 136.77772446, 36.891449844 ], [ 136.77750638, 36.89070157 ], [ 136.777495578000014, 36.890386117 ], [ 136.777435508999986, 36.890394568 ], [ 136.777081168, 36.890488254 ], [ 136.777024305, 36.890499167 ], [ 136.776965939, 36.890503908 ], [ 136.77690148100001, 36.890498764 ], [ 136.776344212999987, 36.89035325 ], [ 136.775335324, 36.890079097 ], [ 136.77530708099999, 36.890127195 ], [ 136.775174994, 36.890437533 ], [ 136.775035935, 36.890609726 ], [ 136.77343685, 36.890048462 ], [ 136.77347867099999, 36.889965611 ], [ 136.773520515, 36.889877295 ], [ 136.77245104799999, 36.889794555 ], [ 136.771781779, 36.889694602 ], [ 136.771605827, 36.889672062 ], [ 136.77077646399999, 36.889616858 ], [ 136.77046654099999, 36.889642133 ], [ 136.770455965, 36.889611783 ], [ 136.77041175299999, 36.88947548 ], [ 136.770390585, 36.889371249 ], [ 136.770377736, 36.88930689 ], [ 136.770358061, 36.889328824 ], [ 136.769903715, 36.88939136 ], [ 136.7692357, 36.889479646 ], [ 136.76924116399999, 36.889506323 ], [ 136.769270852, 36.889637588 ], [ 136.768950536, 36.889676489 ], [ 136.76907850399999, 36.889956467 ], [ 136.768985554000011, 36.88998517 ], [ 136.768699712, 36.89006789 ], [ 136.76888269299999, 36.890449566 ], [ 136.769186838, 36.891204543 ], [ 136.769700295, 36.892281732 ], [ 136.769491754, 36.892343931 ], [ 136.769441828999987, 36.892496795 ], [ 136.76937093699999, 36.892481469 ], [ 136.768962302, 36.892392555 ], [ 136.768930649, 36.892485271 ], [ 136.76834319299999, 36.892348406 ], [ 136.768312939, 36.892342285 ], [ 136.768192347, 36.892686346 ], [ 136.76810038799999, 36.892986109 ], [ 136.768089516, 36.893021551 ], [ 136.76829896699999, 36.893094745 ], [ 136.768993179, 36.893245837 ], [ 136.768943127999989, 36.893406925 ], [ 136.769063466, 36.893434381 ], [ 136.76896929599999, 36.893606795 ], [ 136.768865596000012, 36.893940886 ], [ 136.768751191, 36.893893679 ], [ 136.76874691, 36.89383828 ], [ 136.768328290999989, 36.893746738 ], [ 136.768251741, 36.893980546 ], [ 136.768225726999987, 36.894049577 ], [ 136.768223107000011, 36.894705627 ], [ 136.76798345, 36.894755883 ], [ 136.768001429, 36.894826623 ], [ 136.768011605999988, 36.894917816 ], [ 136.768306771, 36.894923252 ], [ 136.768310219, 36.895010479 ], [ 136.768519688, 36.895008007 ], [ 136.768548634000012, 36.895145671 ], [ 136.76891036, 36.895050881 ], [ 136.76923484400001, 36.894966632 ], [ 136.769399169, 36.894934574 ], [ 136.769616101999986, 36.894906551 ], [ 136.76975834000001, 36.894905321 ], [ 136.76991751700001, 36.894912673 ], [ 136.770078762999987, 36.894930261 ], [ 136.770236737, 36.894960185 ], [ 136.770847264, 36.895098805 ], [ 136.771024798000013, 36.895142022 ], [ 136.771053569, 36.895149379 ], [ 136.771035931, 36.895210961 ], [ 136.77100262, 36.895353031 ], [ 136.770964142999986, 36.895490211 ], [ 136.77092305299999, 36.895679848 ], [ 136.770872642, 36.895891985 ], [ 136.770837899000014, 36.896055467 ], [ 136.770826527999986, 36.89611614 ], [ 136.770816147, 36.896191016 ], [ 136.77088778800001, 36.896183385 ], [ 136.77096572799999, 36.896163539 ], [ 136.770991202, 36.89616388 ], [ 136.771011499, 36.896167417 ], [ 136.771027941999989, 36.896176059 ], [ 136.771045272, 36.896210922 ], [ 136.77104604499999, 36.896218055 ], [ 136.771000649, 36.896396566 ], [ 136.771005726, 36.8964396 ], [ 136.77104157799999, 36.896460676 ], [ 136.77107469399999, 36.896467445 ], [ 136.771096319, 36.896470572 ], [ 136.770929923000011, 36.897210743 ], [ 136.770753885, 36.897197821 ], [ 136.770490173000013, 36.897139341 ], [ 136.77059638, 36.89664476 ], [ 136.770300488, 36.896607549 ], [ 136.770316857000012, 36.896518211 ], [ 136.769704248000011, 36.896440934 ], [ 136.76928554, 36.89649568 ], [ 136.769320470999986, 36.896652263 ], [ 136.769186228, 36.896670484 ], [ 136.769204726999988, 36.896822624 ], [ 136.76900334199999, 36.896866393 ], [ 136.769058511999987, 36.897001717 ], [ 136.769169648, 36.896977968 ], [ 136.76926149900001, 36.896965422 ], [ 136.769340089, 36.897180853 ], [ 136.769375884, 36.897178578 ], [ 136.769393377, 36.897286052 ], [ 136.769435141, 36.897282998 ], [ 136.769456926, 36.897429671 ], [ 136.769414767, 36.897437024 ], [ 136.769426974999988, 36.897532264 ], [ 136.769396878, 36.897535286 ], [ 136.769415606, 36.897672743 ], [ 136.769312363000012, 36.897637552 ], [ 136.76931116, 36.897681415 ], [ 136.769325745, 36.897798721 ], [ 136.770012818999987, 36.897703133 ], [ 136.770170736000011, 36.898476718 ], [ 136.77011507899999, 36.898485284 ] ], [ [ 136.77011507899999, 36.898485284 ], [ 136.77009776, 36.898397756 ], [ 136.77030316, 36.898631041 ], [ 136.770388515, 36.898682902 ], [ 136.770498962, 36.898711923 ], [ 136.770805832, 36.898701485 ], [ 136.770900869, 36.899159322 ], [ 136.770283396999986, 36.89933594 ], [ 136.77011507899999, 36.898485284 ] ] ] } },
{ "type": "Feature", "properties": { "A29_001": "17207", "A29_002": "石川県", "A29_003": "羽咋市", "A29_004": 3, "A29_005": "第一種中高層住居専用地域", "A29_006": 60, "A29_007": 200, "A29_008": null }, "geometry": { "type": "Polygon", "coordinates": [ [ [ 136.77074575099999, 36.901570608 ], [ 136.770494493, 36.900701438 ], [ 136.770378560000012, 36.900271943 ], [ 136.77011507899999, 36.898485284 ], [ 136.76915206699999, 36.898650113 ], [ 136.769356611, 36.899546031 ], [ 136.769770142999988, 36.902014998 ], [ 136.77074575099999, 36.901570608 ] ] ] } },
{ "type": "Feature", "properties": { "A29_001": "17207", "A29_002": "石川県", "A29_003": "羽咋市", "A29_004": 3, "A29_005": "第一種中高層住居専用地域", "A29_006": 60, "A29_007": 200, "A29_008": null }, "geometry": { "type": "Polygon", "coordinates": [ [ [ 136.788903139000013, 36.894574915 ], [ 136.790198706000012, 36.894822261 ], [ 136.790218556000013, 36.894753738 ], [ 136.7908897, 36.892436913 ], [ 136.790911539, 36.892339049 ], [ 136.790912658, 36.892220071 ], [ 136.790932096, 36.892197385 ], [ 136.79093041199999, 36.892168932 ], [ 136.79085727099999, 36.892158198 ], [ 136.788489148, 36.891711984 ], [ 136.787784898000012, 36.894122873 ], [ 136.787711177, 36.894349064 ], [ 136.788319187000013, 36.894464915 ], [ 136.788903139000013, 36.894574915 ] ] ] } },
{ "type": "Feature", "properties": { "A29_001": "17207", "A29_002": "石川県", "A29_003": "羽咋市", "A29_004": 3, "A29_005": "第一種中高層住居専用地域", "A29_006": 60, "A29_007": 200, "A29_008": null }, "geometry": { "type": "Polygon", "coordinates": [ [ [ 136.785338180999986, 36.89396552 ], [ 136.785336492, 36.893870952 ], [ 136.785378307, 36.893691407 ], [ 136.78571137899999, 36.893711502 ], [ 136.786107173, 36.893784723 ], [ 136.786488945, 36.893858066 ], [ 136.786977788, 36.892118539 ], [ 136.787025556, 36.891956972 ], [ 136.78712299899999, 36.891627383 ], [ 136.787157587, 36.891486087 ], [ 136.78661126099999, 36.891379843 ], [ 136.78644754699999, 36.891335686 ], [ 136.785332033, 36.891122196 ], [ 136.785080601, 36.891076516 ], [ 136.784842301999987, 36.891043629 ], [ 136.78479339899999, 36.891041226 ], [ 136.784709162000013, 36.890956513 ], [ 136.784672132, 36.890919714 ], [ 136.784904288, 36.890128174 ], [ 136.784399473, 36.890035706 ], [ 136.784355962, 36.889879677 ], [ 136.784304693, 36.889876855 ], [ 136.78380511899999, 36.889137256 ], [ 136.783580097, 36.889264763 ], [ 136.783442130999987, 36.889318559 ], [ 136.78355546099999, 36.889487326 ], [ 136.783426373, 36.889513503 ], [ 136.782984217, 36.889615057 ], [ 136.782956289, 36.889620894 ], [ 136.782977299, 36.889673889 ], [ 136.782974574, 36.889674586 ], [ 136.783085285999988, 36.88995385 ], [ 136.783043958, 36.890432172 ], [ 136.783053942, 36.890441692 ], [ 136.78308369199999, 36.890454313 ], [ 136.783946343, 36.890524554 ], [ 136.784140124, 36.890540783 ], [ 136.784139985, 36.890568516 ], [ 136.784086252, 36.890957682 ], [ 136.783647488000014, 36.893593007 ], [ 136.783629824, 36.893672951 ], [ 136.783601562, 36.893747527 ], [ 136.78356408499999, 36.893806074 ], [ 136.783528036, 36.893844358 ], [ 136.783438143000012, 36.89390396 ], [ 136.783548446999987, 36.894186783 ], [ 136.78461621, 36.89403358 ], [ 136.784758633, 36.894013015 ], [ 136.784979506000013, 36.893989468 ], [ 136.785159521, 36.893975593 ], [ 136.785338180999986, 36.89396552 ] ] ] } },
{ "type": "Feature", "properties": { "A29_001": "17207", "A29_002": "石川県", "A29_003": "羽咋市", "A29_004": 1, "A29_005": "第一種低層住居専用地域", "A29_006": 60, "A29_007": 100, "A29_008": null }, "geometry": { "type": "Polygon", "coordinates": [ [ [ 136.783438143000012, 36.89390396 ], [ 136.783528036, 36.893844358 ], [ 136.78356408499999, 36.893806074 ], [ 136.783601562, 36.893747527 ], [ 136.783629824, 36.893672951 ], [ 136.783647488000014, 36.893593007 ], [ 136.784086252, 36.890957682 ], [ 136.784139985, 36.890568516 ], [ 136.784140124, 36.890540783 ], [ 136.783946343, 36.890524554 ], [ 136.78308369199999, 36.890454313 ], [ 136.783053942, 36.890441692 ], [ 136.783043958, 36.890432172 ], [ 136.783085285999988, 36.88995385 ], [ 136.782974574, 36.889674586 ], [ 136.782977299, 36.889673889 ], [ 136.782956289, 36.889620894 ], [ 136.782984217, 36.889615057 ], [ 136.783426373, 36.889513503 ], [ 136.78355546099999, 36.889487326 ], [ 136.783442130999987, 36.889318559 ], [ 136.783401051999988, 36.889335795 ], [ 136.782970991000013, 36.888720706 ], [ 136.782902328, 36.888745165 ], [ 136.782478117000011, 36.888908447 ], [ 136.78236062, 36.888998374 ], [ 136.782171522999988, 36.889087877 ], [ 136.782026642, 36.889135525 ], [ 136.781422104, 36.889331343 ], [ 136.781490936000012, 36.889473374 ], [ 136.78146667499999, 36.889481019 ], [ 136.781549966999989, 36.889653521 ], [ 136.781574271000011, 36.889645331 ], [ 136.781591139, 36.889683094 ], [ 136.781700445000013, 36.889936119 ], [ 136.781732217000012, 36.890009665 ], [ 136.78201550599999, 36.890647448 ], [ 136.782185035999987, 36.891038395 ], [ 136.782221615999987, 36.891121142 ], [ 136.78234831, 36.891407728 ], [ 136.782381138, 36.891481973 ], [ 136.782495681, 36.891740877 ], [ 136.782528528, 36.891815119 ], [ 136.782655510000012, 36.892099169 ], [ 136.782688656, 36.892173308 ], [ 136.78269013100001, 36.892176606 ], [ 136.782763151000012, 36.89234358 ], [ 136.78280138, 36.892430857 ], [ 136.782982782, 36.892843305 ], [ 136.783063701, 36.893017301 ], [ 136.783110963000013, 36.893138898 ], [ 136.783118621999989, 36.893156561 ], [ 136.783366709, 36.893720799 ], [ 136.783438143000012, 36.89390396 ] ], [ [ 136.781809863, 36.890128856 ], [ 136.78207934, 36.890051251 ], [ 136.782174029, 36.8902379 ], [ 136.782353314, 36.890605227 ], [ 136.782520088000012, 36.890947204 ], [ 136.782508645, 36.890971692 ], [ 136.782216116, 36.891050299 ], [ 136.781809863, 36.890128856 ] ] ] } },
{ "type": "Feature", "properties": { "A29_001": "17207", "A29_002": "石川県", "A29_003": "羽咋市", "A29_004": 1, "A29_005": "第一種低層住居専用地域", "A29_006": 60, "A29_007": 100, "A29_008": null }, "geometry": { "type": "Polygon", "coordinates": [ [ [ 136.773641626, 36.906110128 ], [ 136.773727022, 36.905988033 ], [ 136.77382039299999, 36.905814165 ], [ 136.774265207000013, 36.905928239 ], [ 136.77615926499999, 36.905885289 ], [ 136.776140618999989, 36.905025692 ], [ 136.775803824, 36.904938155 ], [ 136.77586325199999, 36.904580283 ], [ 136.77611682700001, 36.904581868 ], [ 136.776135461, 36.904454499 ], [ 136.776126868, 36.904036915 ], [ 136.776080936, 36.90403595 ], [ 136.776023011, 36.904030686 ], [ 136.775998103, 36.904026914 ], [ 136.775950555, 36.904014679 ], [ 136.775807211999989, 36.90397561 ], [ 136.775966296, 36.903823722 ], [ 136.776068412, 36.9036854 ], [ 136.776128083, 36.903592221 ], [ 136.776196734, 36.903465749 ], [ 136.77623008399999, 36.903371272 ], [ 136.776118217, 36.903143382 ], [ 136.775695904, 36.902358329 ], [ 136.775668771999989, 36.902306016 ], [ 136.775511486999989, 36.90200276 ], [ 136.775495806, 36.901980531 ], [ 136.775620865, 36.901970903 ], [ 136.77599020400001, 36.901565184 ], [ 136.77598780400001, 36.901530197 ], [ 136.775954770999988, 36.901113116 ], [ 136.775862998, 36.901117746 ], [ 136.775495643999989, 36.901162315 ], [ 136.77502733099999, 36.90123535 ], [ 136.77470108, 36.901300077 ], [ 136.77438435, 36.901385072 ], [ 136.773108981, 36.901827439 ], [ 136.77279980899999, 36.901933894 ], [ 136.77247059199999, 36.902071897 ], [ 136.771231793999988, 36.902495369 ], [ 136.77097606000001, 36.90256144 ], [ 136.77116049899999, 36.903161994 ], [ 136.77117395799999, 36.903205821 ], [ 136.771633928999989, 36.904703494 ], [ 136.77171692499999, 36.904976429 ], [ 136.771743441000012, 36.905064505 ], [ 136.771773892999988, 36.905147268 ], [ 136.77180804599999, 36.905226484 ], [ 136.771850559, 36.905307065 ], [ 136.77190374, 36.905376927 ], [ 136.77196055499999, 36.905433006 ], [ 136.772039745, 36.905505321 ], [ 136.77210525000001, 36.905562061 ], [ 136.77218189199999, 36.905622018 ], [ 136.772237686000011, 36.905658941 ], [ 136.772309099000012, 36.905699654 ], [ 136.772437937, 36.905760846 ], [ 136.772522759999987, 36.905793163 ], [ 136.772614744, 36.905818652 ], [ 136.77362874100001, 36.906085454 ], [ 136.773641626, 36.906110128 ] ], [ [ 136.771850685, 36.904672877 ], [ 136.77260493899999, 36.904418113 ], [ 136.77268084100001, 36.904557382 ], [ 136.773464202000014, 36.904542672 ], [ 136.773509159000014, 36.904637019 ], [ 136.77380478, 36.904542578 ], [ 136.774152367, 36.90452149 ], [ 136.774257602, 36.904553442 ], [ 136.774252236, 36.904563801 ], [ 136.773506626, 36.905930044 ], [ 136.77329021700001, 36.905822175 ], [ 136.77308692, 36.905655241 ], [ 136.772622223000013, 36.905544997 ], [ 136.772489361999988, 36.905494997 ], [ 136.772416961, 36.905461597 ], [ 136.77231754799999, 36.905398641 ], [ 136.77201277899999, 36.905137665 ], [ 136.771850685, 36.904672877 ] ] ] } },
{ "type": "Feature", "properties": { "A29_001": "17207", "A29_002": "石川県", "A29_003": "羽咋市", "A29_004": 1, "A29_005": "第一種低層住居専用地域", "A29_006": 60, "A29_007": 100, "A29_008": null }, "geometry": { "type": "Polygon", "coordinates": [ [ [ 136.768985554000011, 36.88998517 ], [ 136.76907850399999, 36.889956467 ], [ 136.768950536, 36.889676489 ], [ 136.769270852, 36.889637588 ], [ 136.76924116399999, 36.889506323 ], [ 136.7692357, 36.889479646 ], [ 136.769903715, 36.88939136 ], [ 136.770358061, 36.889328824 ], [ 136.770377736, 36.88930689 ], [ 136.770390585, 36.889371249 ], [ 136.77041175299999, 36.88947548 ], [ 136.770455965, 36.889611783 ], [ 136.77046654099999, 36.889642133 ], [ 136.77077646399999, 36.889616858 ], [ 136.771605827, 36.889672062 ], [ 136.771781779, 36.889694602 ], [ 136.77245104799999, 36.889794555 ], [ 136.773520515, 36.889877295 ], [ 136.77347867099999, 36.889965611 ], [ 136.77343685, 36.890048462 ], [ 136.775035935, 36.890609726 ], [ 136.775174994, 36.890437533 ], [ 136.77530708099999, 36.890127195 ], [ 136.775335324, 36.890079097 ], [ 136.776344212999987, 36.89035325 ], [ 136.77690148100001, 36.890498764 ], [ 136.776965939, 36.890503908 ], [ 136.777024305, 36.890499167 ], [ 136.777081168, 36.890488254 ], [ 136.777435508999986, 36.890394568 ], [ 136.777389637, 36.890051811 ], [ 136.777432441, 36.890047516 ], [ 136.777335886, 36.889417626 ], [ 136.777183877, 36.889390606 ], [ 136.777170189, 36.889189713 ], [ 136.77723233, 36.888972925 ], [ 136.776964429, 36.888874749 ], [ 136.777120897, 36.888497679 ], [ 136.777042483, 36.88800022 ], [ 136.776931706999989, 36.887970124 ], [ 136.776889618000013, 36.887956765 ], [ 136.77690622, 36.887903804 ], [ 136.776942953, 36.887731677 ], [ 136.77688311899999, 36.887205281 ], [ 136.776488734999987, 36.887203987 ], [ 136.776417858, 36.886785384 ], [ 136.776409973999989, 36.886758627 ], [ 136.776152204, 36.886768778 ], [ 136.775878506, 36.886791185 ], [ 136.775725897, 36.886532466 ], [ 136.77542588, 36.886543514 ], [ 136.775458066999988, 36.886442691 ], [ 136.77500776799999, 36.886456997 ], [ 136.77509428, 36.886681673 ], [ 136.774267597, 36.886618604 ], [ 136.77425366599999, 36.886583472 ], [ 136.773953726, 36.886614214 ], [ 136.774033253999988, 36.886941068 ], [ 136.77365623099999, 36.886913911 ], [ 136.773536551, 36.886877729 ], [ 136.773505699, 36.886861113 ], [ 136.77348933799999, 36.886825847 ], [ 136.773490264, 36.886800498 ], [ 136.773496058, 36.886724482 ], [ 136.769654347999989, 36.886395906 ], [ 136.76940681799999, 36.88641975 ], [ 136.769192218, 36.886443867 ], [ 136.76862922699999, 36.886503494 ], [ 136.768018587, 36.886579701 ], [ 136.767501587, 36.886725205 ], [ 136.76852467099999, 36.888950235 ], [ 136.768985554000011, 36.88998517 ] ] ] } },
{ "type": "Feature", "properties": { "A29_001": "17207", "A29_002": "石川県", "A29_003": "羽咋市", "A29_004": 6, "A29_005": "第二種住居地域", "A29_006": 60, "A29_007": 200, "A29_008": null }, "geometry": { "type": "Polygon", "coordinates": [ [ [ 136.776996372000013, 36.896320472 ], [ 136.777208516, 36.896319744 ], [ 136.777205049, 36.896224451 ], [ 136.77735394199999, 36.896217173 ], [ 136.777365034000013, 36.896256121 ], [ 136.777648325, 36.896184864 ], [ 136.777661746, 36.896134209 ], [ 136.777723285, 36.896142562 ], [ 136.77775509599999, 36.895988182 ], [ 136.777866761000013, 36.895939552 ], [ 136.778352555, 36.896020948 ], [ 136.778338818, 36.89609985 ], [ 136.77832675, 36.896218832 ], [ 136.778498084, 36.896221882 ], [ 136.778498495, 36.896140723 ], [ 136.778960544, 36.89614581 ], [ 136.779215072, 36.896229095 ], [ 136.779317427, 36.89615021 ], [ 136.779401699, 36.89607732 ], [ 136.779626202, 36.896153086 ], [ 136.779658305, 36.89616123 ], [ 136.77960526199999, 36.896287979 ], [ 136.779806775, 36.896343869 ], [ 136.77985701099999, 36.896221357 ], [ 136.779894351, 36.896226025 ], [ 136.779889472, 36.896264676 ], [ 136.78006187299999, 36.896278575 ], [ 136.780071916999987, 36.896175515 ], [ 136.78018157299999, 36.896188715 ], [ 136.780148524999987, 36.896436497 ], [ 136.780381151, 36.896471877 ], [ 136.780385878, 36.896452998 ], [ 136.780567061, 36.896491046 ], [ 136.78083779799999, 36.896511002 ], [ 136.780831709000012, 36.896562489 ], [ 136.780949677, 36.896587794 ], [ 136.780970958000012, 36.896524172 ], [ 136.781282170999987, 36.896542564 ], [ 136.78128462699999, 36.896633879 ], [ 136.781657599999988, 36.896688755 ], [ 136.781674259, 36.896578069 ], [ 136.781989654, 36.896600643 ], [ 136.782004937000011, 36.896489434 ], [ 136.782232469, 36.896511807 ], [ 136.78222087899999, 36.896628093 ], [ 136.782504684, 36.896648267 ], [ 136.78273870000001, 36.89606831 ], [ 136.782093793, 36.895642763 ], [ 136.781895256000013, 36.895647705 ], [ 136.781890847999989, 36.89555262 ], [ 136.781779446, 36.895550178 ], [ 136.781782627000013, 36.895432608 ], [ 136.78166702199999, 36.895378612 ], [ 136.78161001, 36.895380508 ], [ 136.781608882, 36.895347208 ], [ 136.781034541, 36.895078413 ], [ 136.780943286, 36.895096293 ], [ 136.78094389, 36.895185911 ], [ 136.78103464599999, 36.895242993 ], [ 136.78103821900001, 36.895302905 ], [ 136.781064808999986, 36.895416544 ], [ 136.781071970999989, 36.895712818 ], [ 136.780447597, 36.895704969 ], [ 136.780458282000012, 36.895404417 ], [ 136.78049427799999, 36.89535667 ], [ 136.78050696299999, 36.895329832 ], [ 136.78052344299999, 36.895219841 ], [ 136.780529688, 36.895125694 ], [ 136.780388842, 36.895125 ], [ 136.77750297099999, 36.894372465 ], [ 136.777388300000013, 36.894593914 ], [ 136.777396863, 36.89478883 ], [ 136.777316782000014, 36.894924114 ], [ 136.77725188, 36.894912648 ], [ 136.776673808999988, 36.896287326 ], [ 136.776997271999988, 36.896289116 ], [ 136.776996372000013, 36.896320472 ] ] ] } },
{ "type": "Feature", "properties": { "A29_001": "17207", "A29_002": "石川県", "A29_003": "羽咋市", "A29_004": 6, "A29_005": "第二種住居地域", "A29_006": 60, "A29_007": 200, "A29_008": null }, "geometry": { "type": "Polygon", "coordinates": [ [ [ 136.77358288, 36.885141658 ], [ 136.774770667000013, 36.88529764 ], [ 136.776133109, 36.885257722 ], [ 136.776322101, 36.88487307 ], [ 136.77639732099999, 36.884644577 ], [ 136.776218298, 36.884615639 ], [ 136.776114067, 36.884597594 ], [ 136.776252433, 36.884056868 ], [ 136.776107919999987, 36.883486538 ], [ 136.776054388, 36.883478704 ], [ 136.776087671999989, 36.883290718 ], [ 136.775959237, 36.882918674 ], [ 136.775780878, 36.882594721 ], [ 136.775892801, 36.882564422 ], [ 136.775962528, 36.882544925 ], [ 136.775878138, 36.882156213 ], [ 136.774688657000013, 36.882381421 ], [ 136.7746453, 36.882389823 ], [ 136.7740284, 36.882511144 ], [ 136.773995523999986, 36.882517609 ], [ 136.773405997999987, 36.882633544 ], [ 136.773275109, 36.882655182 ], [ 136.77323804299999, 36.8826603 ], [ 136.773085005000013, 36.882681432 ], [ 136.772966954999987, 36.882681592 ], [ 136.772994587, 36.883099986 ], [ 136.772993705, 36.883271657 ], [ 136.773165127, 36.88385727 ], [ 136.77327026899999, 36.884243821 ], [ 136.77349901, 36.885084767 ], [ 136.77358288, 36.885141658 ] ] ] } },
{ "type": "Feature", "properties": { "A29_001": "17207", "A29_002": "石川県", "A29_003": "羽咋市", "A29_004": 6, "A29_005": "第二種住居地域", "A29_006": 60, "A29_007": 200, "A29_008": null }, "geometry": { "type": "Polygon", "coordinates": [ [ [ 136.778169584000011, 36.900789227 ], [ 136.778452248, 36.900942835 ], [ 136.778760812, 36.90119484 ], [ 136.779086479999989, 36.901506245 ], [ 136.77939999899999, 36.901822305 ], [ 136.779538064, 36.901941261 ], [ 136.779748328000011, 36.902062503 ], [ 136.780348264999986, 36.902356099 ], [ 136.780557093999988, 36.902439378 ], [ 136.780776591, 36.902516994 ], [ 136.78101207, 36.90259039 ], [ 136.781192916, 36.902630293 ], [ 136.781566811, 36.902684198 ], [ 136.78185575399999, 36.902705073 ], [ 136.782365647, 36.90271001 ], [ 136.782419893999986, 36.90225443 ], [ 136.782463052, 36.902015525 ], [ 136.782561062000013, 36.901643077 ], [ 136.782623745, 36.90141919 ], [ 136.782696433000012, 36.901187162 ], [ 136.782756115000012, 36.900948415 ], [ 136.782805625, 36.900709636 ], [ 136.782939282, 36.899894678 ], [ 136.78296580899999, 36.899756044 ], [ 136.78312445099999, 36.898672164 ], [ 136.78308193, 36.898676084 ], [ 136.782871782, 36.898704474 ], [ 136.782604522000014, 36.898747934 ], [ 136.78244274799999, 36.898781974 ], [ 136.782124141, 36.898870229 ], [ 136.781982355, 36.898918565 ], [ 136.781936937000012, 36.898935451 ], [ 136.781893036000014, 36.898956747 ], [ 136.781847262000014, 36.898982992 ], [ 136.78167105, 36.899088597 ], [ 136.78152499, 36.899187855 ], [ 136.781378292999989, 36.899316688 ], [ 136.78126958199999, 36.899447111 ], [ 136.78105093, 36.899634361 ], [ 136.78090112699999, 36.899743662 ], [ 136.78076524, 36.899842809 ], [ 136.780675957, 36.899901633 ], [ 136.78057973899999, 36.899953615 ], [ 136.78026580400001, 36.900111301 ], [ 136.779990328999986, 36.900249561 ], [ 136.77981526100001, 36.900328317 ], [ 136.779720329000014, 36.900363873 ], [ 136.77950736599999, 36.900442718 ], [ 136.779455807, 36.900461806 ], [ 136.779411891, 36.900478065 ], [ 136.779217167000013, 36.900535757 ], [ 136.77909609400001, 36.900564111 ], [ 136.778968329, 36.900585131 ], [ 136.778841992999986, 36.900601463 ], [ 136.778764657000011, 36.900608766 ], [ 136.778429456999987, 36.900644428 ], [ 136.77821118899999, 36.900659972 ], [ 136.77818642299999, 36.90073449 ], [ 136.778169584000011, 36.900789227 ] ] ] } },
{ "type": "Feature", "properties": { "A29_001": "17207", "A29_002": "石川県", "A29_003": "羽咋市", "A29_004": 6, "A29_005": "第二種住居地域", "A29_006": 60, "A29_007": 200, "A29_008": null }, "geometry": { "type": "Polygon", "coordinates": [ [ [ 136.780301646999987, 36.894379081 ], [ 136.780594172, 36.89437701 ], [ 136.783229361999986, 36.893998856 ], [ 136.783354073, 36.894306266 ], [ 136.783419353999989, 36.894464118 ], [ 136.783453723, 36.894585971 ], [ 136.783488006999988, 36.894724993 ], [ 136.783495652, 36.894876515 ], [ 136.783509290000012, 36.895063855 ], [ 136.783522917999989, 36.895550841 ], [ 136.78352331, 36.895791248 ], [ 136.783466132, 36.895791242 ], [ 136.78336006399999, 36.89645463 ], [ 136.783193073, 36.896446365 ], [ 136.783134604999987, 36.896899958 ], [ 136.783316254999988, 36.8969132 ], [ 136.78320846299999, 36.897681776 ], [ 136.78285384599999, 36.897682529 ], [ 136.782870989, 36.897463421 ], [ 136.782417331, 36.897428994 ], [ 136.782376449999987, 36.897424975 ], [ 136.78228415800001, 36.897415916 ], [ 136.782210952000014, 36.89815517 ], [ 136.78217306799999, 36.898224353 ], [ 136.782028042, 36.898435084 ], [ 136.78198373, 36.898488102 ], [ 136.78201328599999, 36.898519122 ], [ 136.782083336, 36.898511765 ], [ 136.782335663999987, 36.898452098 ], [ 136.78239689899999, 36.898437618 ], [ 136.782508107000012, 36.898414217 ], [ 136.782794091, 36.898367712 ], [ 136.78301120399999, 36.898338382 ], [ 136.783140284000012, 36.898317015 ], [ 136.78339705799999, 36.898270667 ], [ 136.78342125899999, 36.898266074 ], [ 136.783541184, 36.898236536 ], [ 136.78360731699999, 36.898219576 ], [ 136.78638374, 36.897502378 ], [ 136.78661925, 36.897441634 ], [ 136.78670585899999, 36.897419295 ], [ 136.78683673, 36.897385539 ], [ 136.787076676, 36.89732365 ], [ 136.787298625, 36.897265095 ], [ 136.78753279099999, 36.897199319 ], [ 136.787909144999986, 36.89707854 ], [ 136.788088141, 36.897007824 ], [ 136.788320258, 36.896909239 ], [ 136.788486105, 36.896834662 ], [ 136.788633164, 36.896760718 ], [ 136.788878184, 36.896637965 ], [ 136.78897624199999, 36.896587446 ], [ 136.789076088, 36.896531148 ], [ 136.789193004999987, 36.896468356 ], [ 136.78936614599999, 36.896369481 ], [ 136.78947195399999, 36.896296675 ], [ 136.789657941, 36.896174503 ], [ 136.789894572, 36.895995803 ], [ 136.78996462399999, 36.895906525 ], [ 136.79085390099999, 36.895178146 ], [ 136.788840921, 36.894809291 ], [ 136.788763988, 36.895099708 ], [ 136.788166705, 36.894981498 ], [ 136.788258807, 36.894667878 ], [ 136.785976690000012, 36.894282567 ], [ 136.78534032799999, 36.894266112 ], [ 136.785338180999986, 36.89396552 ], [ 136.785159521, 36.893975593 ], [ 136.784979506000013, 36.893989468 ], [ 136.784758633, 36.894013015 ], [ 136.78461621, 36.89403358 ], [ 136.783548446999987, 36.894186783 ], [ 136.783438143000012, 36.89390396 ], [ 136.783366709, 36.893720799 ], [ 136.783118621999989, 36.893156561 ], [ 136.783110963000013, 36.893138898 ], [ 136.783063701, 36.893017301 ], [ 136.782982782, 36.892843305 ], [ 136.78280138, 36.892430857 ], [ 136.782763151000012, 36.89234358 ], [ 136.78269013100001, 36.892176606 ], [ 136.782688656, 36.892173308 ], [ 136.782655510000012, 36.892099169 ], [ 136.782528528, 36.891815119 ], [ 136.782495681, 36.891740877 ], [ 136.782381138, 36.891481973 ], [ 136.78234831, 36.891407728 ], [ 136.782221615999987, 36.891121142 ], [ 136.782185035999987, 36.891038395 ], [ 136.78201550599999, 36.890647448 ], [ 136.781732217000012, 36.890009665 ], [ 136.781700445000013, 36.889936119 ], [ 136.781591139, 36.889683094 ], [ 136.781574271000011, 36.889645331 ], [ 136.781549966999989, 36.889653521 ], [ 136.78146667499999, 36.889481019 ], [ 136.781490936000012, 36.889473374 ], [ 136.781422104, 36.889331343 ], [ 136.782026642, 36.889135525 ], [ 136.782171522999988, 36.889087877 ], [ 136.78236062, 36.888998374 ], [ 136.782478117000011, 36.888908447 ], [ 136.782902328, 36.888745165 ], [ 136.782970991000013, 36.888720706 ], [ 136.782953826000011, 36.888696155 ], [ 136.78261093399999, 36.888183414 ], [ 136.782395146999988, 36.88786361 ], [ 136.782323165, 36.887732422 ], [ 136.782094344, 36.887219058 ], [ 136.78207888599999, 36.887184377 ], [ 136.782169751999987, 36.887174361 ], [ 136.78247224899999, 36.887149162 ], [ 136.78245985, 36.886990116 ], [ 136.78245921300001, 36.886908714 ], [ 136.782470889, 36.886769198 ], [ 136.782495821999987, 36.886634512 ], [ 136.782499733, 36.886607437 ], [ 136.782532349, 36.886359701 ], [ 136.78253864199999, 36.8862945 ], [ 136.782539609, 36.886234917 ], [ 136.78253258699999, 36.886180011 ], [ 136.782435591, 36.885847718 ], [ 136.78232113199999, 36.885622951 ], [ 136.782212941000012, 36.885423771 ], [ 136.78219506, 36.885381182 ], [ 136.782157272, 36.885218276 ], [ 136.78214322, 36.885146251 ], [ 136.782076394, 36.88477766 ], [ 136.782058578, 36.884657762 ], [ 136.78205938799999, 36.884587051 ], [ 136.782070577000013, 36.884473379 ], [ 136.782100095, 36.884215601 ], [ 136.782109787, 36.883939682 ], [ 136.78210633899999, 36.883867397 ], [ 136.782105051, 36.88384038 ], [ 136.782086784, 36.88369262 ], [ 136.782040556999988, 36.883468135 ], [ 136.781995505, 36.883264667 ], [ 136.78198898299999, 36.883189636 ], [ 136.781956697, 36.883080903 ], [ 136.781880023000014, 36.882912707 ], [ 136.78182660600001, 36.882776738 ], [ 136.781794924, 36.882751736 ], [ 136.781712457, 36.882701291 ], [ 136.781603364, 36.882652703 ], [ 136.78150017199999, 36.882617443 ], [ 136.781350514, 36.882595069 ], [ 136.781312152999988, 36.882596674 ], [ 136.781313054, 36.882483973 ], [ 136.781310459, 36.882463816 ], [ 136.781319071000013, 36.882357465 ], [ 136.78132659100001, 36.882255356 ], [ 136.781314441, 36.882136108 ], [ 136.781188179999987, 36.882151541 ], [ 136.780902322, 36.882170794 ], [ 136.780300434999987, 36.882138514 ], [ 136.78017587799999, 36.882160277 ], [ 136.780059273, 36.881795941 ], [ 136.77999873600001, 36.881806847 ], [ 136.779956817999988, 36.881786616 ], [ 136.779664722, 36.881774453 ], [ 136.779256870000012, 36.881784962 ], [ 136.779140422000012, 36.881795499 ], [ 136.77898393800001, 36.881258603 ], [ 136.777907809, 36.881476929 ], [ 136.77796347899999, 36.881728099 ], [ 136.777764482, 36.881764128 ], [ 136.777239908000013, 36.881858169 ], [ 136.77715988, 36.881875199 ], [ 136.776932917000011, 36.881923497 ], [ 136.776882984, 36.881932899 ], [ 136.776926728, 36.882161147 ], [ 136.776962246000011, 36.882368223 ], [ 136.77729872, 36.882193353 ], [ 136.777271617999986, 36.882111159 ], [ 136.77761075399999, 36.882062003 ], [ 136.777504197000013, 36.882415252 ], [ 136.77745072799999, 36.882578195 ], [ 136.777200402, 36.882608004 ], [ 136.777157189, 36.882768426 ], [ 136.777179491, 36.883033381 ], [ 136.777500844, 36.883010568 ], [ 136.777495237000011, 36.883275372 ], [ 136.77769865, 36.883281926 ], [ 136.777693817, 36.883501874 ], [ 136.777543290000011, 36.883496111 ], [ 136.777785142, 36.883849348 ], [ 136.777721211, 36.884057434 ], [ 136.77791078300001, 36.88407046 ], [ 136.777893936999988, 36.884303341 ], [ 136.7778971, 36.884481882 ], [ 136.778205434, 36.884556203 ], [ 136.778154457, 36.884754916 ], [ 136.777957738, 36.884719558 ], [ 136.777781793, 36.884709957 ], [ 136.77759383099999, 36.884708555 ], [ 136.777495707000014, 36.88470735 ], [ 136.77763294, 36.88563808 ], [ 136.777984307, 36.886012452 ], [ 136.778053461000013, 36.886486905 ], [ 136.777756909, 36.886592654 ], [ 136.777815917, 36.88682732 ], [ 136.778009981, 36.886837585 ], [ 136.778004465, 36.887217157 ], [ 136.77797593599999, 36.887223307 ], [ 136.778023682999986, 36.887556597 ], [ 136.77821204899999, 36.887557984 ], [ 136.778231017, 36.887792536 ], [ 136.77805630899999, 36.887783029 ], [ 136.778548883000013, 36.8901648 ], [ 136.778840142, 36.890491601 ], [ 136.778664509, 36.890701823 ], [ 136.778756820000012, 36.891124534 ], [ 136.778841688999989, 36.891163635 ], [ 136.778499086000011, 36.891577806 ], [ 136.778756155999986, 36.891708504 ], [ 136.778658826999987, 36.891871641 ], [ 136.778588441000011, 36.892043995 ], [ 136.77928679499999, 36.892222618 ], [ 136.780310105000012, 36.892484348 ], [ 136.78017538899999, 36.892845513 ], [ 136.780162507, 36.892880051 ], [ 136.779893442, 36.893601387 ], [ 136.779858985, 36.893599563 ], [ 136.779638885999987, 36.894121851 ], [ 136.78026067499999, 36.894292195 ], [ 136.780301646999987, 36.894379081 ] ], [ [ 136.779321836, 36.892206703 ], [ 136.779395929, 36.89159258 ], [ 136.77930666899999, 36.891585376 ], [ 136.779351795, 36.891300802 ], [ 136.779429461, 36.891306388 ], [ 136.779524778, 36.890736103 ], [ 136.77925963199999, 36.890672968 ], [ 136.779364566, 36.890531795 ], [ 136.78113846299999, 36.890924646 ], [ 136.78111569399999, 36.891291992 ], [ 136.781135901999988, 36.891488928 ], [ 136.78121355, 36.891716581 ], [ 136.781354576000012, 36.89201009 ], [ 136.78136487, 36.892030244 ], [ 136.781362887, 36.892049155 ], [ 136.78135103599999, 36.89206644 ], [ 136.781322009, 36.892073217 ], [ 136.78099338199999, 36.892088016 ], [ 136.780967604000011, 36.892096791 ], [ 136.780953262999986, 36.892111963 ], [ 136.780944624, 36.892133922 ], [ 136.780943001999987, 36.892164036 ], [ 136.780949002999989, 36.892254947 ], [ 136.78093900499999, 36.892269088 ], [ 136.780916929999989, 36.89227256 ], [ 136.780477291000011, 36.892227153 ], [ 136.780434813999989, 36.892331785 ], [ 136.779321836, 36.892206703 ] ] ] } },
{ "type": "Feature", "properties": { "A29_001": "17207", "A29_002": "石川県", "A29_003": "羽咋市", "A29_004": 2, "A29_005": "第二種低層住居専用地域", "A29_006": 60, "A29_007": 100, "A29_008": null }, "geometry": { "type": "Polygon", "coordinates": [ [ [ 136.772042284, 36.909256809 ], [ 136.772182523, 36.909278034 ], [ 136.77258341699999, 36.90932228 ], [ 136.77300246199999, 36.909357331 ], [ 136.773882157, 36.909467775 ], [ 136.774822989, 36.909570495 ], [ 136.775348519, 36.909635811 ], [ 136.775686044, 36.909684577 ], [ 136.776745944, 36.90985291 ], [ 136.77721929, 36.909900474 ], [ 136.77744355499999, 36.90952335 ], [ 136.777430697999989, 36.909424918 ], [ 136.776950262000014, 36.909436392 ], [ 136.776933178, 36.909200209 ], [ 136.776933949000011, 36.908986853 ], [ 136.77684055, 36.90871508 ], [ 136.776677353, 36.908514014 ], [ 136.776526139, 36.908311082 ], [ 136.776465803, 36.908228422 ], [ 136.77635696199999, 36.90803286 ], [ 136.77629472699999, 36.907807457 ], [ 136.776275715, 36.90771036 ], [ 136.776177762, 36.907705657 ], [ 136.77620257, 36.907295657 ], [ 136.776188762, 36.906689772 ], [ 136.77577803299999, 36.906687886 ], [ 136.775776173, 36.906420533 ], [ 136.774129652, 36.906401139 ], [ 136.773567727, 36.906244237 ], [ 136.773541083999987, 36.906280051 ], [ 136.773493118, 36.90633739 ], [ 136.773410625999986, 36.906417319 ], [ 136.773269985000013, 36.90651844 ], [ 136.772973189999988, 36.906660996 ], [ 136.774116851, 36.907028231 ], [ 136.774020572000012, 36.907376641 ], [ 136.772441183000012, 36.907206232 ], [ 136.772042284, 36.909256809 ] ] ] } }
]
}
