{
"type": "FeatureCollection",
"name": "A29-19_19368",
"features": [
{ "type": "Feature", "properties": { "A29_001": "19368", "A29_002": "山梨県", "A29_003": "富士川町", "A29_004": 3, "A29_005": "第一種中高層住居専用地域", "A29_006": 60, "A29_007": 150, "A29_008": null }, "geometry": { "type": "Polygon", "coordinates": [ [ [ 138.468093089, 35.573809082 ], [ 138.467737953000011, 35.573856454 ], [ 138.467126503, 35.573944895 ], [ 138.46707318899999, 35.573952605 ], [ 138.467085359, 35.574005024 ], [ 138.467299534, 35.575037883 ], [ 138.467336589000013, 35.575213078 ], [ 138.467357369000013, 35.575311344 ], [ 138.467604849999987, 35.576481618 ], [ 138.46764244100001, 35.576479339 ], [ 138.467755446000012, 35.576474871 ], [ 138.46785201099999, 35.576472968 ], [ 138.468184373000014, 35.576458725 ], [ 138.468259918, 35.576403995 ], [ 138.468424004000013, 35.576292131 ], [ 138.46837867, 35.576203323 ], [ 138.468484373, 35.576164618 ], [ 138.46865759100001, 35.576119288 ], [ 138.46859726299999, 35.575973229 ], [ 138.46903495699999, 35.575842768 ], [ 138.469428926, 35.575567531 ], [ 138.469137988999989, 35.575283285 ], [ 138.469306941000013, 35.57516458 ], [ 138.469296649, 35.575099263 ], [ 138.469303368, 35.575072259 ], [ 138.469337394, 35.575042928 ], [ 138.469366726, 35.575028107 ], [ 138.469224362, 35.574890492 ], [ 138.469060008000014, 35.574731571 ], [ 138.46852334799999, 35.5742193 ], [ 138.468429006, 35.574129244 ], [ 138.468224244, 35.573933788 ], [ 138.468146679, 35.573859745 ], [ 138.468093089, 35.573809082 ] ] ] } },
{ "type": "Feature", "properties": { "A29_001": "19368", "A29_002": "山梨県", "A29_003": "富士川町", "A29_004": 3, "A29_005": "第一種中高層住居専用地域", "A29_006": 60, "A29_007": 150, "A29_008": null }, "geometry": { "type": "Polygon", "coordinates": [ [ [ 138.462945952000013, 35.576555006 ], [ 138.463153417, 35.576566427 ], [ 138.463200594999989, 35.576568569 ], [ 138.463445828, 35.576579605 ], [ 138.463676740000011, 35.576590005 ], [ 138.464099968999989, 35.57661245 ], [ 138.46423694399999, 35.576619711 ], [ 138.46474052799999, 35.576646415 ], [ 138.464979183999986, 35.57666042 ], [ 138.46527392199999, 35.576676722 ], [ 138.465424391, 35.57668495 ], [ 138.465528653, 35.576691397 ], [ 138.465652998, 35.576695038 ], [ 138.46575097499999, 35.576693768 ], [ 138.465852493, 35.576692977 ], [ 138.46589477399999, 35.576690303 ], [ 138.466085281, 35.57667826 ], [ 138.46616140099999, 35.576675181 ], [ 138.466220256000014, 35.576668113 ], [ 138.466301499999986, 35.576655444 ], [ 138.466534316, 35.576624348 ], [ 138.46633997, 35.575680037 ], [ 138.466292928, 35.575457399 ], [ 138.466272358999987, 35.575360035 ], [ 138.466018262, 35.57415744 ], [ 138.4660103, 35.574122617 ], [ 138.465816646, 35.574153931 ], [ 138.46575497500001, 35.57391272 ], [ 138.465732954, 35.573832535 ], [ 138.46569434700001, 35.573656132 ], [ 138.465678712999988, 35.573605676 ], [ 138.46563784, 35.573413056 ], [ 138.465624389999988, 35.573415694 ], [ 138.465500647999988, 35.573433442 ], [ 138.465390137000014, 35.573447707 ], [ 138.465300324, 35.573459849 ], [ 138.465203099, 35.573466347 ], [ 138.465115516, 35.573473948 ], [ 138.465028939, 35.573477708 ], [ 138.464955921000012, 35.573484412 ], [ 138.464923604, 35.573487359 ], [ 138.464853917, 35.573493693 ], [ 138.464827735, 35.573496074 ], [ 138.46448576899999, 35.573448335 ], [ 138.464432366000011, 35.573431986 ], [ 138.464080351, 35.573405642 ], [ 138.46401325299999, 35.573445995 ], [ 138.463685763, 35.573421857 ], [ 138.463468917, 35.573432247 ], [ 138.463316367, 35.573452572 ], [ 138.463171966, 35.573433608 ], [ 138.462989195, 35.57338667 ], [ 138.462805188, 35.573338047 ], [ 138.46265729000001, 35.57331945 ], [ 138.46259729799999, 35.573308489 ], [ 138.462508043000014, 35.573282573 ], [ 138.462214179, 35.573195569 ], [ 138.461965641, 35.57312621 ], [ 138.461946643, 35.573122968 ], [ 138.461881632, 35.573111852 ], [ 138.461846638999987, 35.573105873 ], [ 138.461712038, 35.573081673 ], [ 138.4616374, 35.573061062 ], [ 138.461504982, 35.572994605 ], [ 138.461431852, 35.572957526 ], [ 138.461395264, 35.572939856 ], [ 138.46128757299999, 35.572893309 ], [ 138.461172284000014, 35.572839351 ], [ 138.461062793, 35.572795256 ], [ 138.460953963, 35.572754 ], [ 138.46085023, 35.572713233 ], [ 138.460752308999986, 35.572678804 ], [ 138.46063299799999, 35.572637607 ], [ 138.460499899000013, 35.572591431 ], [ 138.460302465000012, 35.57252962 ], [ 138.460008176, 35.572439763 ], [ 138.45995469799999, 35.572421897 ], [ 138.459918684, 35.572406634 ], [ 138.459885140000011, 35.572392363 ], [ 138.459705417, 35.572281522 ], [ 138.459503090999988, 35.572164742 ], [ 138.459422948999986, 35.572120169 ], [ 138.45933727, 35.572074115 ], [ 138.459167417, 35.571995096 ], [ 138.459052957000011, 35.571942957 ], [ 138.458965267, 35.571904636 ], [ 138.458772097, 35.571835595 ], [ 138.458714547999989, 35.571840083 ], [ 138.458642391000012, 35.572214242 ], [ 138.458634329, 35.572251457 ], [ 138.458615536999986, 35.572386938 ], [ 138.45859934, 35.57264774 ], [ 138.458582995, 35.573003458 ], [ 138.458606538999987, 35.573046237 ], [ 138.4586059, 35.57306687 ], [ 138.458581341000013, 35.573388314 ], [ 138.458566214, 35.573520426 ], [ 138.458568191000012, 35.573558131 ], [ 138.458573002, 35.57360002 ], [ 138.458589745000012, 35.573675355 ], [ 138.458623848, 35.573847505 ], [ 138.45862751199999, 35.573866021 ], [ 138.458662441, 35.57404238 ], [ 138.45873635800001, 35.574374855 ], [ 138.458756985, 35.574449119 ], [ 138.458775566000014, 35.574511717 ], [ 138.459007555999989, 35.574471478 ], [ 138.459199786999989, 35.574444898 ], [ 138.459285990000012, 35.574441259 ], [ 138.459325807, 35.574442985 ], [ 138.45935867, 35.574453209 ], [ 138.459403399, 35.574471693 ], [ 138.459518323999987, 35.574528402 ], [ 138.459558410999989, 35.574543451 ], [ 138.459614773, 35.574556089 ], [ 138.459722964, 35.574575028 ], [ 138.459761799, 35.57457943 ], [ 138.45989247599999, 35.574598818 ], [ 138.459924753, 35.574608843 ], [ 138.459956742, 35.574622546 ], [ 138.459993725, 35.574645967 ], [ 138.460007587, 35.574658889 ], [ 138.46003579500001, 35.574688328 ], [ 138.460044506, 35.574699581 ], [ 138.46032223899999, 35.574591137 ], [ 138.460514781, 35.574492174 ], [ 138.46061397, 35.574444595 ], [ 138.460636147, 35.574441754 ], [ 138.460708454000013, 35.574473191 ], [ 138.460848483, 35.57440849 ], [ 138.460947338000011, 35.574365318 ], [ 138.461065182, 35.574341551 ], [ 138.461080407, 35.574365939 ], [ 138.46112394299999, 35.574437063 ], [ 138.46120347499999, 35.574561246 ], [ 138.461423809, 35.574853844 ], [ 138.461492986, 35.574948566 ], [ 138.461501476, 35.574960197 ], [ 138.461565525999987, 35.575047904 ], [ 138.461788369, 35.575313299 ], [ 138.461833684, 35.575355714 ], [ 138.462036969, 35.575569624 ], [ 138.462250426999987, 35.57583432 ], [ 138.462263352, 35.575845483 ], [ 138.462325545, 35.575896711 ], [ 138.46242152, 35.575998192 ], [ 138.462596096999988, 35.576170474 ], [ 138.462748559, 35.576305883 ], [ 138.462810209999986, 35.576384305 ], [ 138.462945952000013, 35.576555006 ] ] ] } },
{ "type": "Feature", "properties": { "A29_001": "19368", "A29_002": "山梨県", "A29_003": "富士川町", "A29_004": 3, "A29_005": "第一種中高層住居専用地域", "A29_006": 60, "A29_007": 150, "A29_008": null }, "geometry": { "type": "Polygon", "coordinates": [ [ [ 138.462300075, 35.570246372 ], [ 138.462374119, 35.56945303 ], [ 138.462412502, 35.569069916 ], [ 138.46244543099999, 35.56869503 ], [ 138.462466561000014, 35.568472781 ], [ 138.462486375, 35.568259546 ], [ 138.462497015, 35.568153158 ], [ 138.46250831899999, 35.568066854 ], [ 138.46251608, 35.568007761 ], [ 138.46253440699999, 35.567906198 ], [ 138.46255358799999, 35.567818905 ], [ 138.462588118000014, 35.567653961 ], [ 138.46262543899999, 35.567486324 ], [ 138.46266544, 35.567299415 ], [ 138.462703933, 35.567126838 ], [ 138.462776475, 35.566801523 ], [ 138.46285373, 35.566443759 ], [ 138.462998999, 35.565792884 ], [ 138.463029482, 35.565643839 ], [ 138.463039543, 35.565594636 ], [ 138.463075256, 35.56541994 ], [ 138.46311820299999, 35.565223802 ], [ 138.46313622299999, 35.565117398 ], [ 138.463139223000013, 35.565093693 ], [ 138.463144172, 35.565054655 ], [ 138.463145508999986, 35.565000374 ], [ 138.46314609, 35.564936844 ], [ 138.463143753999987, 35.564882886 ], [ 138.463139068, 35.564828486 ], [ 138.46312422599999, 35.564764474 ], [ 138.4630723, 35.564498665 ], [ 138.463059057, 35.564437313 ], [ 138.463052264999988, 35.564405834 ], [ 138.462978971000013, 35.564066069 ], [ 138.462960259, 35.56397505 ], [ 138.462949285, 35.563921712 ], [ 138.462843728, 35.563408582 ], [ 138.462794882999987, 35.563185491 ], [ 138.462635844, 35.563253253 ], [ 138.462552761000012, 35.563287849 ], [ 138.462155962999987, 35.563394008 ], [ 138.462085264, 35.563412743 ], [ 138.462021623999988, 35.563434366 ], [ 138.461995107, 35.563451664 ], [ 138.461954423, 35.563522347 ], [ 138.461936736000013, 35.563551204 ], [ 138.46191375, 35.563567061 ], [ 138.461878399999989, 35.563578597 ], [ 138.46173523600001, 35.563592973 ], [ 138.461567325, 35.563616004 ], [ 138.461432991, 35.563644815 ], [ 138.461233257, 35.563706793 ], [ 138.461083003, 35.563761567 ], [ 138.461003921000014, 35.563800076 ], [ 138.460989833000014, 35.563778735 ], [ 138.460984101, 35.563770161 ], [ 138.46065391, 35.563189649 ], [ 138.460781852999986, 35.56314391 ], [ 138.460622941, 35.562856756 ], [ 138.46044347899999, 35.562907211 ], [ 138.45950194400001, 35.563192917 ], [ 138.45906003499999, 35.563319737 ], [ 138.459035405, 35.563096094 ], [ 138.45910841599999, 35.562976775 ], [ 138.45922871, 35.562744537 ], [ 138.459260551, 35.56269261 ], [ 138.459299445999989, 35.562652223 ], [ 138.45955100399999, 35.562437624 ], [ 138.459627031999986, 35.562371271 ], [ 138.459632511, 35.562047593 ], [ 138.459658171, 35.561977915 ], [ 138.459681203, 35.561915051 ], [ 138.45978409899999, 35.561701574 ], [ 138.45981171599999, 35.561645787 ], [ 138.45982694, 35.561621427 ], [ 138.459940202000013, 35.561524909 ], [ 138.45995191099999, 35.561514781 ], [ 138.460111415, 35.561374641 ], [ 138.460208939000012, 35.561291024 ], [ 138.46027186, 35.561226163 ], [ 138.460332928000014, 35.561161959 ], [ 138.46038038, 35.56107929 ], [ 138.460392481000014, 35.561034793 ], [ 138.46046184299999, 35.560882337 ], [ 138.460488559999988, 35.560836627 ], [ 138.46049469799999, 35.560805089 ], [ 138.460499542, 35.560780213 ], [ 138.460537447, 35.560617696 ], [ 138.460603762, 35.560445146 ], [ 138.460619877999989, 35.560377295 ], [ 138.460618587999988, 35.560331477 ], [ 138.460612752, 35.560265268 ], [ 138.46060253499999, 35.56017856 ], [ 138.46060944199999, 35.560108263 ], [ 138.460418452999988, 35.559898132 ], [ 138.46031317, 35.559768928 ], [ 138.460230630000012, 35.559667945 ], [ 138.460122635, 35.559537253 ], [ 138.460084079000012, 35.559496389 ], [ 138.460034396, 35.55945106 ], [ 138.459974767, 35.559398164 ], [ 138.459922204, 35.559353997 ], [ 138.459902147, 35.559337161 ], [ 138.459859220999988, 35.559301073 ], [ 138.459598341, 35.559097794 ], [ 138.459552968, 35.559059984 ], [ 138.459503102000014, 35.5590061 ], [ 138.45943035900001, 35.558927429 ], [ 138.45936862100001, 35.558857821 ], [ 138.459354929999989, 35.558838374 ], [ 138.459286179, 35.558743227 ], [ 138.459259583, 35.558699041 ], [ 138.459226636000011, 35.558630064 ], [ 138.45918697, 35.558539749 ], [ 138.459150776, 35.558412335 ], [ 138.45901747799999, 35.557783885 ], [ 138.458473394, 35.558003512 ], [ 138.457696717, 35.558298004 ], [ 138.457634254, 35.558204869 ], [ 138.457600875999987, 35.558160148 ], [ 138.457578563999988, 35.558133738 ], [ 138.457541103000011, 35.558113543 ], [ 138.457523382, 35.558103297 ], [ 138.457485854999987, 35.558081551 ], [ 138.457435507000014, 35.558046496 ], [ 138.457380543, 35.558000461 ], [ 138.457249585999989, 35.557895366 ], [ 138.457232277, 35.557918066 ], [ 138.457017310999987, 35.558206011 ], [ 138.457004727, 35.558222871 ], [ 138.456980718000011, 35.558254402 ], [ 138.456900537, 35.558374294 ], [ 138.456861836, 35.558446374 ], [ 138.456807172, 35.558582112 ], [ 138.456803033999989, 35.558625278 ], [ 138.456790399999988, 35.55871416 ], [ 138.456775021, 35.55878001 ], [ 138.456750695000011, 35.558847452 ], [ 138.45671236699999, 35.558921316 ], [ 138.456652991999988, 35.559015941 ], [ 138.456588247000013, 35.559128888 ], [ 138.45650588399999, 35.559282536 ], [ 138.456491242, 35.559309834 ], [ 138.456458507, 35.55938361 ], [ 138.45644979, 35.55945022 ], [ 138.456451321, 35.559495614 ], [ 138.45646652, 35.559601154 ], [ 138.45649314, 35.559821869 ], [ 138.456520514, 35.559996 ], [ 138.456525559999989, 35.560028065 ], [ 138.456527571, 35.560040919 ], [ 138.456544654, 35.56015277 ], [ 138.45655173599999, 35.560192289 ], [ 138.456566849000012, 35.560254554 ], [ 138.456602890999989, 35.560350213 ], [ 138.456628548, 35.560414221 ], [ 138.456652706999989, 35.560474479 ], [ 138.45675375, 35.560725786 ], [ 138.456804936, 35.560848123 ], [ 138.456818432, 35.560880263 ], [ 138.45688324299999, 35.560998692 ], [ 138.45691917900001, 35.561066814 ], [ 138.456979002999987, 35.561168089 ], [ 138.45701771, 35.561233633 ], [ 138.457041505, 35.561273925 ], [ 138.45723112499999, 35.561599025 ], [ 138.45727182600001, 35.561670528 ], [ 138.457347421, 35.561801545 ], [ 138.457401823, 35.561892541 ], [ 138.457454901, 35.561985124 ], [ 138.457524842999987, 35.562105466 ], [ 138.45753345899999, 35.56212566 ], [ 138.457545678, 35.562154266 ], [ 138.457551263999989, 35.562167338 ], [ 138.457690582, 35.562520263 ], [ 138.457116503, 35.562674701 ], [ 138.457073108, 35.56289714 ], [ 138.457071248, 35.562910434 ], [ 138.457061614, 35.562979225 ], [ 138.45706005299999, 35.562990393 ], [ 138.457055293, 35.563042176 ], [ 138.45705862599999, 35.563142456 ], [ 138.457061004, 35.563214001 ], [ 138.457066859, 35.563406999 ], [ 138.457084269, 35.563734912 ], [ 138.457093851, 35.56390929 ], [ 138.457103651000011, 35.564088237 ], [ 138.45710434599999, 35.564110195 ], [ 138.457091092000013, 35.564202222 ], [ 138.456999477000011, 35.564446583 ], [ 138.457154822, 35.564473175 ], [ 138.457233226, 35.564490897 ], [ 138.45738186299999, 35.564539057 ], [ 138.457428971000013, 35.564555263 ], [ 138.457452166, 35.564563248 ], [ 138.457521635, 35.564579759 ], [ 138.45764786699999, 35.564607296 ], [ 138.45767020400001, 35.564611369 ], [ 138.45768592499999, 35.564611294 ], [ 138.45770433199999, 35.564598762 ], [ 138.457740945000012, 35.564559853 ], [ 138.45777271099999, 35.56452718 ], [ 138.458026085, 35.564551984 ], [ 138.458048235, 35.564554354 ], [ 138.458208506, 35.564571527 ], [ 138.458218620999986, 35.564572648 ], [ 138.45827082, 35.564578462 ], [ 138.458392933999988, 35.564592052 ], [ 138.458545836000013, 35.564608691 ], [ 138.458601929, 35.5646142 ], [ 138.458959326000013, 35.564652072 ], [ 138.458968558, 35.565088492 ], [ 138.45896853, 35.56514518 ], [ 138.458954213999988, 35.56542018 ], [ 138.458964681999987, 35.565750182 ], [ 138.458985775, 35.566183658 ], [ 138.45898967, 35.566204075 ], [ 138.458998146, 35.566306368 ], [ 138.459019473000012, 35.566606781 ], [ 138.45903350899999, 35.566752315 ], [ 138.459044196, 35.566823177 ], [ 138.459061283000011, 35.566892202 ], [ 138.459091445000013, 35.567000415 ], [ 138.45910685199999, 35.56705316 ], [ 138.45912526399999, 35.567098398 ], [ 138.45915772399999, 35.567177984 ], [ 138.459189466, 35.567238144 ], [ 138.459220722, 35.567299224 ], [ 138.459252123999988, 35.567355346 ], [ 138.459292398, 35.567407496 ], [ 138.45934454499999, 35.567477407 ], [ 138.459441937, 35.567608295 ], [ 138.459582468, 35.567798039 ], [ 138.459718228000014, 35.567978849 ], [ 138.459800306, 35.56809201 ], [ 138.459834218999987, 35.568135396 ], [ 138.459849635000012, 35.568150166 ], [ 138.45990368, 35.568198661 ], [ 138.459915623, 35.568208724 ], [ 138.459946237, 35.568230025 ], [ 138.459974826, 35.568244529 ], [ 138.46001297699999, 35.568263561 ], [ 138.460110062000012, 35.568304255 ], [ 138.460248048000011, 35.568358799 ], [ 138.460342575, 35.568397635 ], [ 138.460401396, 35.568425922 ], [ 138.460457504, 35.568452793 ], [ 138.46050865699999, 35.56848251 ], [ 138.46055446, 35.568509855 ], [ 138.46061337399999, 35.568551086 ], [ 138.460657035, 35.568583388 ], [ 138.460696933, 35.568617636 ], [ 138.460735916, 35.568651793 ], [ 138.460771147, 35.568686301 ], [ 138.460821207, 35.568741104 ], [ 138.46090859099999, 35.568837211 ], [ 138.460994222000011, 35.568931641 ], [ 138.461118656999986, 35.569065258 ], [ 138.461204046, 35.569159111 ], [ 138.461293243999989, 35.569249694 ], [ 138.46138650099999, 35.56933943 ], [ 138.461391706, 35.569344083 ], [ 138.461430699, 35.569381854 ], [ 138.461601292000012, 35.569544898 ], [ 138.461777038, 35.569707213 ], [ 138.46195593499999, 35.569879895 ], [ 138.462114592, 35.570045971 ], [ 138.462300075, 35.570246372 ] ] ] } },
{ "type": "Feature", "properties": { "A29_001": "19368", "A29_002": "山梨県", "A29_003": "富士川町", "A29_004": 4, "A29_005": "第二種中高層住居専用地域", "A29_006": 60, "A29_007": 150, "A29_008": null }, "geometry": { "type": "Polygon", "coordinates": [ [ [ 138.466534316, 35.576624348 ], [ 138.466574314000013, 35.576618996 ], [ 138.466896924999986, 35.576575233 ], [ 138.46720386699999, 35.576532429 ], [ 138.467405316, 35.576500773 ], [ 138.467501773, 35.57649019 ], [ 138.467597954000013, 35.576482031 ], [ 138.467604849999987, 35.576481618 ], [ 138.467357369000013, 35.575311344 ], [ 138.467336589000013, 35.575213078 ], [ 138.467299534, 35.575037883 ], [ 138.467085359, 35.574005024 ], [ 138.46707318899999, 35.573952605 ], [ 138.467023979, 35.573959722 ], [ 138.466522048, 35.574032325 ], [ 138.46641139499999, 35.573507831 ], [ 138.46635287, 35.573230421 ], [ 138.466036718999987, 35.573318794 ], [ 138.465828593999987, 35.573373242 ], [ 138.465651290000011, 35.573410464 ], [ 138.46563784, 35.573413056 ], [ 138.465678712999988, 35.573605676 ], [ 138.46569434700001, 35.573656132 ], [ 138.465732954, 35.573832535 ], [ 138.46575497500001, 35.57391272 ], [ 138.465816646, 35.574153931 ], [ 138.4660103, 35.574122617 ], [ 138.466018262, 35.57415744 ], [ 138.466272358999987, 35.575360035 ], [ 138.466292928, 35.575457399 ], [ 138.46633997, 35.575680037 ], [ 138.466534316, 35.576624348 ] ] ] } },
{ "type": "Feature", "properties": { "A29_001": "19368", "A29_002": "山梨県", "A29_003": "富士川町", "A29_004": 5, "A29_005": "第一種住居地域", "A29_006": 60, "A29_007": 200, "A29_008": null }, "geometry": { "type": "Polygon", "coordinates": [ [ [ 138.469155685, 35.55954257 ], [ 138.46882821299999, 35.559670636 ], [ 138.46879666000001, 35.559683698 ], [ 138.46861539, 35.559761134 ], [ 138.468431818, 35.559831043 ], [ 138.46821621399999, 35.559919746 ], [ 138.46819155599999, 35.559929889 ], [ 138.468137539, 35.559952121 ], [ 138.467864864, 35.560060594 ], [ 138.467629665, 35.560156447 ], [ 138.467528914000013, 35.560193116 ], [ 138.467759381, 35.56067881 ], [ 138.467767965, 35.560703691 ], [ 138.467389782999987, 35.56081373 ], [ 138.467289052000012, 35.560855581 ], [ 138.467026792000013, 35.560920662 ], [ 138.466963179, 35.560939465 ], [ 138.467068812, 35.561269222 ], [ 138.467147848, 35.561519929 ], [ 138.467156122, 35.561546153 ], [ 138.467170764, 35.561592624 ], [ 138.467271544, 35.561897429 ], [ 138.467281985, 35.561910862 ], [ 138.467413310000012, 35.562000208 ], [ 138.467425870999989, 35.562008765 ], [ 138.46743762700001, 35.562016755 ], [ 138.467562425000011, 35.562098572 ], [ 138.467668784000011, 35.562166709 ], [ 138.467732993, 35.562207848 ], [ 138.46777875, 35.562237164 ], [ 138.46798704299999, 35.562381235 ], [ 138.468208753999988, 35.56251506 ], [ 138.468291767000011, 35.562567272 ], [ 138.468296906, 35.562627387 ], [ 138.46829902799999, 35.562674134 ], [ 138.46829455, 35.562700282 ], [ 138.468269155, 35.562759154 ], [ 138.46823552, 35.562814788 ], [ 138.46806468299999, 35.562993137 ], [ 138.468016624, 35.563065352 ], [ 138.46800306899999, 35.563085729 ], [ 138.467962809, 35.563156585 ], [ 138.467937376, 35.563226589 ], [ 138.467910722999989, 35.563367298 ], [ 138.467923402, 35.563442495 ], [ 138.46793502700001, 35.563503865 ], [ 138.467943759, 35.563543646 ], [ 138.46789480699999, 35.563556712 ], [ 138.467814054, 35.56350669 ], [ 138.467712479, 35.563442808 ], [ 138.467648876, 35.563402806 ], [ 138.467484724, 35.563299543 ], [ 138.46724612599999, 35.563155527 ], [ 138.46721397799999, 35.563133776 ], [ 138.467019085, 35.562998983 ], [ 138.466815188999988, 35.562868343 ], [ 138.466676638, 35.562777499 ], [ 138.466400665, 35.562589744 ], [ 138.466397268, 35.562587057 ], [ 138.46633735399999, 35.562539627 ], [ 138.466250687000013, 35.562470998 ], [ 138.46614987699999, 35.562323908 ], [ 138.466107036000011, 35.562207274 ], [ 138.466094338, 35.562155909 ], [ 138.46606756599999, 35.562074957 ], [ 138.466057474, 35.562044415 ], [ 138.465992129999989, 35.56184674 ], [ 138.465888982, 35.56151956 ], [ 138.465812746000012, 35.561281572 ], [ 138.465798634, 35.561237535 ], [ 138.465702539, 35.560954913 ], [ 138.465597276000011, 35.560987721 ], [ 138.465442676, 35.56103545 ], [ 138.465215789000013, 35.561105486 ], [ 138.465083123999989, 35.561140394 ], [ 138.46497926399999, 35.561167721 ], [ 138.464742519999987, 35.561224809 ], [ 138.464516358, 35.561275608 ], [ 138.464227332, 35.561341765 ], [ 138.464194985, 35.561349174 ], [ 138.464156957, 35.561357879 ], [ 138.463760619999988, 35.561444816 ], [ 138.463717968999987, 35.561454178 ], [ 138.463653959999988, 35.56146822 ], [ 138.46348304599999, 35.561506198 ], [ 138.463514569000012, 35.561589919 ], [ 138.463605712, 35.561829257 ], [ 138.463616983, 35.56186153 ], [ 138.463373679999989, 35.561974292 ], [ 138.463030849, 35.562118608 ], [ 138.462874179000011, 35.562172715 ], [ 138.46264171499999, 35.562244303 ], [ 138.462555028999986, 35.562270993 ], [ 138.462527677999987, 35.562279422 ], [ 138.46177265899999, 35.56251003 ], [ 138.461242739, 35.561598673 ], [ 138.461185511999986, 35.561500232 ], [ 138.461153746, 35.561445624 ], [ 138.460954936, 35.561089078 ], [ 138.461530619, 35.560932756 ], [ 138.46212856599999, 35.560765432 ], [ 138.46221952799999, 35.560742087 ], [ 138.462283195999987, 35.560726612 ], [ 138.462666546, 35.560641425 ], [ 138.46268276399999, 35.560637824 ], [ 138.462968421999989, 35.560574337 ], [ 138.463032332000012, 35.560560133 ], [ 138.463331659, 35.560493612 ], [ 138.463397621000013, 35.560479147 ], [ 138.463440272000014, 35.560469786 ], [ 138.463830139, 35.560384263 ], [ 138.463861724, 35.560377034 ], [ 138.46389407, 35.560369634 ], [ 138.464185972, 35.560302811 ], [ 138.46440392400001, 35.560253859 ], [ 138.464615036999987, 35.560202956 ], [ 138.464704433, 35.560179429 ], [ 138.464807861, 35.560152211 ], [ 138.46500605, 35.560091037 ], [ 138.465158828, 35.560043876 ], [ 138.465332933000013, 35.559989617 ], [ 138.465251306, 35.559776839 ], [ 138.465243316999988, 35.5597567 ], [ 138.465214401999987, 35.559684877 ], [ 138.465206854, 35.559666126 ], [ 138.465079825, 35.559350603 ], [ 138.464893424, 35.558917008 ], [ 138.46481518499999, 35.558731154 ], [ 138.464808584, 35.558715486 ], [ 138.464744572, 35.558563421 ], [ 138.464654252, 35.558360456 ], [ 138.464635273999988, 35.558321501 ], [ 138.464631306, 35.558313387 ], [ 138.464622135000013, 35.558298187 ], [ 138.464607617000013, 35.558277352 ], [ 138.464592028, 35.558255903 ], [ 138.464548423999986, 35.558204863 ], [ 138.464522733, 35.558179454 ], [ 138.464468828, 35.558123867 ], [ 138.464395454, 35.558042946 ], [ 138.464343603, 35.557979968 ], [ 138.464296256000011, 35.557912891 ], [ 138.46425828299999, 35.557850098 ], [ 138.46422582299999, 35.557791119 ], [ 138.46419741299999, 35.557730267 ], [ 138.46416427599999, 35.557656785 ], [ 138.464129398000011, 35.557554223 ], [ 138.464124946999988, 35.557541143 ], [ 138.464114977, 35.557511781 ], [ 138.464076935, 35.557406398 ], [ 138.464052509, 35.557341175 ], [ 138.464026117, 35.557280639 ], [ 138.46398560599999, 35.557197239 ], [ 138.463910887, 35.557066001 ], [ 138.46381735599999, 35.556898774 ], [ 138.463761838000011, 35.556800966 ], [ 138.463751433999988, 35.556782655 ], [ 138.463749791, 35.556779761 ], [ 138.463710455000012, 35.556709621 ], [ 138.463687154000013, 35.556669935 ], [ 138.46366383899999, 35.556635684 ], [ 138.463642685, 35.5566054 ], [ 138.463628309, 35.556587314 ], [ 138.463546689, 35.556499791 ], [ 138.463420133, 35.556358252 ], [ 138.463308931, 35.556220252 ], [ 138.46324116400001, 35.556112073 ], [ 138.463222822, 35.556082781 ], [ 138.46316958599999, 35.555993843 ], [ 138.46306041599999, 35.555802354 ], [ 138.462904036999987, 35.555512942 ], [ 138.46280377299999, 35.555315281 ], [ 138.462844281, 35.555256757 ], [ 138.46295723099999, 35.555091738 ], [ 138.463034576000013, 35.55499471 ], [ 138.46311795, 35.55490941 ], [ 138.463265594, 35.554781926 ], [ 138.463458213, 35.554595397 ], [ 138.463628233, 35.55440028 ], [ 138.463659224999986, 35.554458158 ], [ 138.463676451999987, 35.554487945 ], [ 138.46371942499999, 35.554562269 ], [ 138.463958372, 35.554990204 ], [ 138.463987245999988, 35.555048091 ], [ 138.46399556599999, 35.555064787 ], [ 138.464077207, 35.555228486 ], [ 138.464188005000011, 35.555433856 ], [ 138.464265184999988, 35.555557351 ], [ 138.464308722999988, 35.555630079 ], [ 138.464321202, 35.555648255 ], [ 138.46433351499999, 35.555666205 ], [ 138.46436254, 35.55570848 ], [ 138.464426327000012, 35.555787641 ], [ 138.464537162, 35.555911597 ], [ 138.464634323000013, 35.556028941 ], [ 138.464686523000012, 35.556097183 ], [ 138.46472416899999, 35.556150529 ], [ 138.464771052, 35.556218886 ], [ 138.46481209800001, 35.556290478 ], [ 138.46484781, 35.556352495 ], [ 138.464891848, 35.556420599 ], [ 138.464908559, 35.556446438 ], [ 138.464925832, 35.55647316 ], [ 138.465031277, 35.556670721 ], [ 138.465049208000011, 35.556706584 ], [ 138.46507141699999, 35.556747432 ], [ 138.465103535999987, 35.556803841 ], [ 138.465164933000011, 35.55693027 ], [ 138.46520783299999, 35.557028624 ], [ 138.465242154, 35.557120242 ], [ 138.465284649000012, 35.557238003 ], [ 138.465294223, 35.557266129 ], [ 138.465323942999987, 35.557334725 ], [ 138.465343890000014, 35.557378971 ], [ 138.465357103, 35.55740726 ], [ 138.46536584399999, 35.557423145 ], [ 138.465376502999987, 35.55744077 ], [ 138.465383051, 35.557450057 ], [ 138.465413391999988, 35.557486896 ], [ 138.465511985, 35.557588574 ], [ 138.465584103, 35.557669251 ], [ 138.465621798, 35.557713376 ], [ 138.465673425, 35.557784429 ], [ 138.46571411, 35.557853965 ], [ 138.46574862, 35.557918758 ], [ 138.465791416, 35.558006556 ], [ 138.465891645999989, 35.558231824 ], [ 138.466042662, 35.558590539 ], [ 138.466181847, 35.558914276 ], [ 138.466207193, 35.558973234 ], [ 138.466231779, 35.559030443 ], [ 138.46642656099999, 35.559514175 ], [ 138.46652289, 35.559473378 ], [ 138.466602912000013, 35.559438813 ], [ 138.466758860999988, 35.559374705 ], [ 138.466873260999989, 35.559327747 ], [ 138.466918064, 35.559310281 ], [ 138.467102353, 35.559243196 ], [ 138.467314248, 35.559156793 ], [ 138.467589315999987, 35.559047358 ], [ 138.467635984, 35.559028162 ], [ 138.46766062, 35.559018028 ], [ 138.467892914, 35.558922462 ], [ 138.468163653, 35.558819324 ], [ 138.467869725000014, 35.55831555 ], [ 138.467324987000012, 35.557392875 ], [ 138.467165911, 35.557125615 ], [ 138.46702032799999, 35.55685605 ], [ 138.466948798, 35.556712448 ], [ 138.466919947, 35.556644431 ], [ 138.466841002, 35.556428805 ], [ 138.466755494000012, 35.556183414 ], [ 138.466746668000013, 35.556161382 ], [ 138.466643997, 35.555889602 ], [ 138.466577371999989, 35.555705763 ], [ 138.466569537999987, 35.555684155 ], [ 138.46640263899999, 35.555223606 ], [ 138.466394806000011, 35.555201997 ], [ 138.46633766799999, 35.555044337 ], [ 138.46622582399999, 35.554741998 ], [ 138.46620987, 35.554698853 ], [ 138.466173225, 35.554599807 ], [ 138.466040463000013, 35.554233363 ], [ 138.46603263, 35.554211754 ], [ 138.465867809, 35.553756857 ], [ 138.465684504, 35.553272515 ], [ 138.46554629, 35.552899128 ], [ 138.465516124, 35.552817643 ], [ 138.465395454, 35.552589872 ], [ 138.465358315, 35.552642151 ], [ 138.465333404, 35.55268066 ], [ 138.46531037599999, 35.552698654 ], [ 138.465171981, 35.552777783 ], [ 138.46502407, 35.552849536 ], [ 138.464912123, 35.552906408 ], [ 138.46483114599999, 35.552944117 ], [ 138.464663476, 35.553023435 ], [ 138.464548315, 35.55306381 ], [ 138.464429913, 35.553100065 ], [ 138.46432014199999, 35.553123126 ], [ 138.464136102999987, 35.553151934 ], [ 138.46399942299999, 35.55316509 ], [ 138.463836922000013, 35.553174938 ], [ 138.463717460999987, 35.553185638 ], [ 138.46374727700001, 35.553256748 ], [ 138.463657137000013, 35.553309308 ], [ 138.463618397, 35.553315074 ], [ 138.463240152999987, 35.553358848 ], [ 138.463164862000013, 35.553381306 ], [ 138.462886994, 35.553469232 ], [ 138.46247353699999, 35.553608975 ], [ 138.462480074000013, 35.553619365 ], [ 138.46249286299999, 35.553639745 ], [ 138.462570242999988, 35.553762819 ], [ 138.46264399, 35.553880483 ], [ 138.46267638099999, 35.553933292 ], [ 138.46271274899999, 35.553992517 ], [ 138.462788157, 35.554115338 ], [ 138.46284824899999, 35.554213554 ], [ 138.46287726, 35.554261015 ], [ 138.462900534999989, 35.554298373 ], [ 138.462997551, 35.554454073 ], [ 138.462695868, 35.554536536 ], [ 138.462613385999987, 35.554554638 ], [ 138.462535664, 35.554559796 ], [ 138.462416706, 35.554550691 ], [ 138.46224066100001, 35.55453122 ], [ 138.461961534000011, 35.554494869 ], [ 138.46172388, 35.554461136 ], [ 138.461582740000011, 35.55443002 ], [ 138.46154149899999, 35.554427411 ], [ 138.46149074600001, 35.554431279 ], [ 138.46141935899999, 35.554451979 ], [ 138.461230591, 35.554512781 ], [ 138.46083402799999, 35.554605883 ], [ 138.460313918, 35.554734638 ], [ 138.460221912, 35.554761803 ], [ 138.460034713, 35.554835555 ], [ 138.45968095500001, 35.554953267 ], [ 138.45954317799999, 35.554990006 ], [ 138.45923387900001, 35.555027454 ], [ 138.459170432, 35.555027432 ], [ 138.458932526000012, 35.555011811 ], [ 138.458737445999986, 35.555003974 ], [ 138.458550279, 35.55501168 ], [ 138.45846304299999, 35.555025901 ], [ 138.458295427, 35.555066162 ], [ 138.458206652, 35.555092848 ], [ 138.458167119, 35.554963972 ], [ 138.45812537899999, 35.554817571 ], [ 138.458073989000013, 35.554645631 ], [ 138.458068594, 35.554627575 ], [ 138.45802784, 35.554493614 ], [ 138.458026397999987, 35.554488439 ], [ 138.45796981699999, 35.554287887 ], [ 138.457948722, 35.554213136 ], [ 138.4579439, 35.554196008 ], [ 138.457929697, 35.554209209 ], [ 138.457838024000012, 35.554294403 ], [ 138.457814394, 35.55432259 ], [ 138.457582679000012, 35.554598866 ], [ 138.457582591, 35.554598974 ], [ 138.45743596, 35.554776406 ], [ 138.457401178999987, 35.55482122 ], [ 138.45725556799999, 35.555008766 ], [ 138.457253337999987, 35.55501164 ], [ 138.45698209299999, 35.555358453 ], [ 138.456933593, 35.55542046 ], [ 138.456734289, 35.555677961 ], [ 138.4566187, 35.555802969 ], [ 138.456458285999986, 35.555962926 ], [ 138.456343994, 35.556095001 ], [ 138.456201001000011, 35.556264699 ], [ 138.455890587999988, 35.556652895 ], [ 138.455857923999986, 35.556698142 ], [ 138.455553662, 35.557068429 ], [ 138.455492816, 35.55715028 ], [ 138.455604931000011, 35.557411896 ], [ 138.455745771000011, 35.557694993 ], [ 138.455870994, 35.557953486 ], [ 138.455918036000014, 35.558042037 ], [ 138.455955569, 35.558112684 ], [ 138.456035656000012, 35.558269095 ], [ 138.456096695000014, 35.558380052 ], [ 138.45614817, 35.558472751 ], [ 138.456233593, 35.558635718 ], [ 138.456293276999986, 35.558786353 ], [ 138.456337617, 35.558895653 ], [ 138.45639896599999, 35.55904783 ], [ 138.456443027, 35.559144547 ], [ 138.45650588399999, 35.559282536 ], [ 138.456588247000013, 35.559128888 ], [ 138.456652991999988, 35.559015941 ], [ 138.45671236699999, 35.558921316 ], [ 138.456750695000011, 35.558847452 ], [ 138.456775021, 35.55878001 ], [ 138.456790399999988, 35.55871416 ], [ 138.456803033999989, 35.558625278 ], [ 138.456807172, 35.558582112 ], [ 138.456861836, 35.558446374 ], [ 138.456900537, 35.558374294 ], [ 138.456980718000011, 35.558254402 ], [ 138.457004727, 35.558222871 ], [ 138.457017310999987, 35.558206011 ], [ 138.457232277, 35.557918066 ], [ 138.457249585999989, 35.557895366 ], [ 138.457380543, 35.558000461 ], [ 138.457435507000014, 35.558046496 ], [ 138.457485854999987, 35.558081551 ], [ 138.457523382, 35.558103297 ], [ 138.457541103000011, 35.558113543 ], [ 138.457578563999988, 35.558133738 ], [ 138.457600875999987, 35.558160148 ], [ 138.457634254, 35.558204869 ], [ 138.457696717, 35.558298004 ], [ 138.458473394, 35.558003512 ], [ 138.45901747799999, 35.557783885 ], [ 138.459150776, 35.558412335 ], [ 138.45918697, 35.558539749 ], [ 138.459226636000011, 35.558630064 ], [ 138.459259583, 35.558699041 ], [ 138.459286179, 35.558743227 ], [ 138.459354929999989, 35.558838374 ], [ 138.45936862100001, 35.558857821 ], [ 138.45943035900001, 35.558927429 ], [ 138.459503102000014, 35.5590061 ], [ 138.459552968, 35.559059984 ], [ 138.459598341, 35.559097794 ], [ 138.459859220999988, 35.559301073 ], [ 138.459902147, 35.559337161 ], [ 138.459922204, 35.559353997 ], [ 138.459974767, 35.559398164 ], [ 138.460034396, 35.55945106 ], [ 138.460084079000012, 35.559496389 ], [ 138.460122635, 35.559537253 ], [ 138.460230630000012, 35.559667945 ], [ 138.46031317, 35.559768928 ], [ 138.460418452999988, 35.559898132 ], [ 138.46060944199999, 35.560108263 ], [ 138.46060253499999, 35.56017856 ], [ 138.460612752, 35.560265268 ], [ 138.460618587999988, 35.560331477 ], [ 138.460619877999989, 35.560377295 ], [ 138.460603762, 35.560445146 ], [ 138.460537447, 35.560617696 ], [ 138.460499542, 35.560780213 ], [ 138.46049469799999, 35.560805089 ], [ 138.460488559999988, 35.560836627 ], [ 138.46046184299999, 35.560882337 ], [ 138.460392481000014, 35.561034793 ], [ 138.46038038, 35.56107929 ], [ 138.460332928000014, 35.561161959 ], [ 138.46027186, 35.561226163 ], [ 138.460208939000012, 35.561291024 ], [ 138.460111415, 35.561374641 ], [ 138.45995191099999, 35.561514781 ], [ 138.459940202000013, 35.561524909 ], [ 138.45982694, 35.561621427 ], [ 138.45981171599999, 35.561645787 ], [ 138.45978409899999, 35.561701574 ], [ 138.459681203, 35.561915051 ], [ 138.459658171, 35.561977915 ], [ 138.459632511, 35.562047593 ], [ 138.459627031999986, 35.562371271 ], [ 138.45955100399999, 35.562437624 ], [ 138.459299445999989, 35.562652223 ], [ 138.459260551, 35.56269261 ], [ 138.45922871, 35.562744537 ], [ 138.45910841599999, 35.562976775 ], [ 138.459035405, 35.563096094 ], [ 138.45906003499999, 35.563319737 ], [ 138.45950194400001, 35.563192917 ], [ 138.46044347899999, 35.562907211 ], [ 138.460622941, 35.562856756 ], [ 138.460781852999986, 35.56314391 ], [ 138.46065391, 35.563189649 ], [ 138.460984101, 35.563770161 ], [ 138.460989833000014, 35.563778735 ], [ 138.461003921000014, 35.563800076 ], [ 138.461083003, 35.563761567 ], [ 138.461233257, 35.563706793 ], [ 138.461432991, 35.563644815 ], [ 138.461567325, 35.563616004 ], [ 138.46173523600001, 35.563592973 ], [ 138.461878399999989, 35.563578597 ], [ 138.46191375, 35.563567061 ], [ 138.461936736000013, 35.563551204 ], [ 138.461954423, 35.563522347 ], [ 138.461995107, 35.563451664 ], [ 138.462021623999988, 35.563434366 ], [ 138.462085264, 35.563412743 ], [ 138.462155962999987, 35.563394008 ], [ 138.462552761000012, 35.563287849 ], [ 138.462635844, 35.563253253 ], [ 138.462794882999987, 35.563185491 ], [ 138.462843728, 35.563408582 ], [ 138.462949285, 35.563921712 ], [ 138.462960259, 35.56397505 ], [ 138.462978971000013, 35.564066069 ], [ 138.463052264999988, 35.564405834 ], [ 138.463059057, 35.564437313 ], [ 138.4630723, 35.564498665 ], [ 138.46312422599999, 35.564764474 ], [ 138.463139068, 35.564828486 ], [ 138.463143753999987, 35.564882886 ], [ 138.46314609, 35.564936844 ], [ 138.463145508999986, 35.565000374 ], [ 138.463144172, 35.565054655 ], [ 138.463139223000013, 35.565093693 ], [ 138.46313622299999, 35.565117398 ], [ 138.46311820299999, 35.565223802 ], [ 138.463075256, 35.56541994 ], [ 138.463039543, 35.565594636 ], [ 138.463029482, 35.565643839 ], [ 138.462998999, 35.565792884 ], [ 138.46285373, 35.566443759 ], [ 138.462776475, 35.566801523 ], [ 138.462703933, 35.567126838 ], [ 138.46266544, 35.567299415 ], [ 138.46262543899999, 35.567486324 ], [ 138.462588118000014, 35.567653961 ], [ 138.46255358799999, 35.567818905 ], [ 138.46253440699999, 35.567906198 ], [ 138.46251608, 35.568007761 ], [ 138.46250831899999, 35.568066854 ], [ 138.462497015, 35.568153158 ], [ 138.462486375, 35.568259546 ], [ 138.462466561000014, 35.568472781 ], [ 138.46244543099999, 35.56869503 ], [ 138.462412502, 35.569069916 ], [ 138.462374119, 35.56945303 ], [ 138.462300075, 35.570246372 ], [ 138.462285106, 35.570407977 ], [ 138.462245736999989, 35.570820864 ], [ 138.46221627, 35.571101844 ], [ 138.462210766, 35.571147877 ], [ 138.46216206, 35.571566763 ], [ 138.46213712, 35.571744392 ], [ 138.462043389, 35.572302231 ], [ 138.46198525, 35.572648814 ], [ 138.462505284, 35.572759623 ], [ 138.46253393399999, 35.572765194 ], [ 138.462921206, 35.572840372 ], [ 138.46315299599999, 35.572885765 ], [ 138.46317140799999, 35.572889323 ], [ 138.46324357899999, 35.572903271 ], [ 138.46335623600001, 35.572925056 ], [ 138.463466547, 35.572940648 ], [ 138.463567235999989, 35.572957786 ], [ 138.463610648000014, 35.572962243 ], [ 138.463686319, 35.572970009 ], [ 138.463701742000012, 35.5729716 ], [ 138.463866223999986, 35.572985423 ], [ 138.463994345, 35.572994385 ], [ 138.46413889199999, 35.573004614 ], [ 138.464411563, 35.573018991 ], [ 138.464456256, 35.573021348 ], [ 138.464787003, 35.573037508 ], [ 138.464798819, 35.573037971 ], [ 138.464941337999988, 35.573043548 ], [ 138.464951853, 35.573043965 ], [ 138.465042963, 35.573042378 ], [ 138.465140574, 35.573032527 ], [ 138.465199227999989, 35.573025045 ], [ 138.465255609, 35.573018085 ], [ 138.465339663, 35.5730053 ], [ 138.46540401199999, 35.572991572 ], [ 138.465498274, 35.572972021 ], [ 138.46558965700001, 35.572950144 ], [ 138.46569660899999, 35.572926017 ], [ 138.46580153, 35.572903558 ], [ 138.465903341, 35.57287677 ], [ 138.46603606, 35.572836912 ], [ 138.466115187000014, 35.572813111 ], [ 138.466457609, 35.572715362 ], [ 138.466476996000011, 35.572708931 ], [ 138.466564627, 35.572634645 ], [ 138.46657721599999, 35.57260758 ], [ 138.46657837399999, 35.572581449 ], [ 138.46646156700001, 35.572294856 ], [ 138.466416235999986, 35.572076167 ], [ 138.46641563599999, 35.572059725 ], [ 138.46641738, 35.571551334 ], [ 138.466418971, 35.570987724 ], [ 138.466417153, 35.570954877 ], [ 138.466393599000014, 35.570901075 ], [ 138.4664133, 35.570483053 ], [ 138.466420652000011, 35.570337779 ], [ 138.466432048, 35.570154674 ], [ 138.466434881999987, 35.569970251 ], [ 138.46643979000001, 35.569893445 ], [ 138.466445783000012, 35.569862258 ], [ 138.46645422, 35.569841466 ], [ 138.466462858999989, 35.569814399 ], [ 138.466499672, 35.569739009 ], [ 138.466583078000014, 35.569602084 ], [ 138.466643059, 35.569501271 ], [ 138.466650558, 35.569479838 ], [ 138.466655717, 35.56946311 ], [ 138.466657636, 35.569439738 ], [ 138.46665752199999, 35.569420403 ], [ 138.46665090799999, 35.569380884 ], [ 138.466598925, 35.569163996 ], [ 138.46654883299999, 35.56893456 ], [ 138.466544957, 35.56891682 ], [ 138.466530654, 35.568851303 ], [ 138.466400792, 35.568241153 ], [ 138.466400219, 35.568212597 ], [ 138.466627146, 35.568172494 ], [ 138.466716593, 35.568175593 ], [ 138.46703387299999, 35.56813638 ], [ 138.467292721, 35.568107372 ], [ 138.467928134, 35.568015097 ], [ 138.46827984699999, 35.567967723 ], [ 138.46864718399999, 35.567881629 ], [ 138.46870812, 35.567869395 ], [ 138.469492307, 35.567691077 ], [ 138.469594848000014, 35.567667279 ], [ 138.47095217899999, 35.567343368 ], [ 138.470583758, 35.565473023 ], [ 138.470508567, 35.565103652 ], [ 138.470450676000013, 35.564819312 ], [ 138.470386198, 35.564482312 ], [ 138.470382784, 35.564464473 ], [ 138.470325386000013, 35.564164495 ], [ 138.47028354299999, 35.563953983 ], [ 138.47027734400001, 35.56392282 ], [ 138.47016464399999, 35.5633559 ], [ 138.470089836999989, 35.562974125 ], [ 138.470074653000012, 35.562896674 ], [ 138.46999920799999, 35.562511717 ], [ 138.46995963399999, 35.562314276 ], [ 138.469933891000011, 35.562184244 ], [ 138.469918089, 35.562107568 ], [ 138.469902878999989, 35.562043205 ], [ 138.46988069, 35.561966653 ], [ 138.46985768499999, 35.561889885 ], [ 138.46982682399999, 35.56178985 ], [ 138.469811428000014, 35.561748545 ], [ 138.46980610599999, 35.561734238 ], [ 138.469986618, 35.561685158 ], [ 138.47010288199999, 35.561639585 ], [ 138.47020555899999, 35.561587853 ], [ 138.470268981, 35.561547189 ], [ 138.470309974, 35.56151456 ], [ 138.469981176, 35.560949965 ], [ 138.469961375999986, 35.560918132 ], [ 138.469449204999989, 35.560050641 ], [ 138.469416380000013, 35.559980964 ], [ 138.469155685, 35.55954257 ] ] ] } },
{ "type": "Feature", "properties": { "A29_001": "19368", "A29_002": "山梨県", "A29_003": "富士川町", "A29_004": 6, "A29_005": "第二種住居地域", "A29_006": 60, "A29_007": 200, "A29_008": null }, "geometry": { "type": "Polygon", "coordinates": [ [ [ 138.468093089, 35.573809082 ], [ 138.468073921000013, 35.573790941 ], [ 138.467964317, 35.573687315 ], [ 138.467865189, 35.573596844 ], [ 138.467675482, 35.573418129 ], [ 138.46767146799999, 35.573414342 ], [ 138.46766023, 35.573403757 ], [ 138.467601820999988, 35.573348738 ], [ 138.467558765, 35.573308182 ], [ 138.467513926, 35.573338736 ], [ 138.467361234, 35.573195329 ], [ 138.46641139499999, 35.573507831 ], [ 138.466522048, 35.574032325 ], [ 138.467023979, 35.573959722 ], [ 138.46707318899999, 35.573952605 ], [ 138.467126503, 35.573944895 ], [ 138.467737953000011, 35.573856454 ], [ 138.468093089, 35.573809082 ] ] ] } },
{ "type": "Feature", "properties": { "A29_001": "19368", "A29_002": "山梨県", "A29_003": "富士川町", "A29_004": 8, "A29_005": "近隣商業地域", "A29_006": 80, "A29_007": 200, "A29_008": null }, "geometry": { "type": "Polygon", "coordinates": [ [ [ 138.470920957, 35.558856395 ], [ 138.47003058199999, 35.557316368 ], [ 138.469452752, 35.556289187 ], [ 138.469124857999986, 35.555766892 ], [ 138.469042535999989, 35.555625524 ], [ 138.46765130599999, 35.555962791 ], [ 138.467587720000012, 35.555978116 ], [ 138.466755494000012, 35.556183414 ], [ 138.466841002, 35.556428805 ], [ 138.466919947, 35.556644431 ], [ 138.466948798, 35.556712448 ], [ 138.46702032799999, 35.55685605 ], [ 138.467165911, 35.557125615 ], [ 138.467324987000012, 35.557392875 ], [ 138.467869725000014, 35.55831555 ], [ 138.468163653, 35.558819324 ], [ 138.467892914, 35.558922462 ], [ 138.46766062, 35.559018028 ], [ 138.467635984, 35.559028162 ], [ 138.467589315999987, 35.559047358 ], [ 138.467314248, 35.559156793 ], [ 138.467102353, 35.559243196 ], [ 138.466918064, 35.559310281 ], [ 138.466873260999989, 35.559327747 ], [ 138.466758860999988, 35.559374705 ], [ 138.466602912000013, 35.559438813 ], [ 138.46652289, 35.559473378 ], [ 138.46642656099999, 35.559514175 ], [ 138.466231779, 35.559030443 ], [ 138.466207193, 35.558973234 ], [ 138.466181847, 35.558914276 ], [ 138.466042662, 35.558590539 ], [ 138.465891645999989, 35.558231824 ], [ 138.465791416, 35.558006556 ], [ 138.46574862, 35.557918758 ], [ 138.46571411, 35.557853965 ], [ 138.465673425, 35.557784429 ], [ 138.465621798, 35.557713376 ], [ 138.465584103, 35.557669251 ], [ 138.465511985, 35.557588574 ], [ 138.465413391999988, 35.557486896 ], [ 138.465383051, 35.557450057 ], [ 138.465376502999987, 35.55744077 ], [ 138.46536584399999, 35.557423145 ], [ 138.465357103, 35.55740726 ], [ 138.465343890000014, 35.557378971 ], [ 138.465323942999987, 35.557334725 ], [ 138.465294223, 35.557266129 ], [ 138.465284649000012, 35.557238003 ], [ 138.465242154, 35.557120242 ], [ 138.46520783299999, 35.557028624 ], [ 138.465164933000011, 35.55693027 ], [ 138.465103535999987, 35.556803841 ], [ 138.46507141699999, 35.556747432 ], [ 138.465049208000011, 35.556706584 ], [ 138.465031277, 35.556670721 ], [ 138.464925832, 35.55647316 ], [ 138.464908559, 35.556446438 ], [ 138.464891848, 35.556420599 ], [ 138.46484781, 35.556352495 ], [ 138.46481209800001, 35.556290478 ], [ 138.464771052, 35.556218886 ], [ 138.46472416899999, 35.556150529 ], [ 138.464686523000012, 35.556097183 ], [ 138.464634323000013, 35.556028941 ], [ 138.464537162, 35.555911597 ], [ 138.464426327000012, 35.555787641 ], [ 138.46436254, 35.55570848 ], [ 138.46433351499999, 35.555666205 ], [ 138.464321202, 35.555648255 ], [ 138.464308722999988, 35.555630079 ], [ 138.464265184999988, 35.555557351 ], [ 138.464188005000011, 35.555433856 ], [ 138.464077207, 35.555228486 ], [ 138.46399556599999, 35.555064787 ], [ 138.463987245999988, 35.555048091 ], [ 138.463958372, 35.554990204 ], [ 138.46371942499999, 35.554562269 ], [ 138.463676451999987, 35.554487945 ], [ 138.463659224999986, 35.554458158 ], [ 138.463628233, 35.55440028 ], [ 138.463458213, 35.554595397 ], [ 138.463265594, 35.554781926 ], [ 138.46311795, 35.55490941 ], [ 138.463034576000013, 35.55499471 ], [ 138.46295723099999, 35.555091738 ], [ 138.462844281, 35.555256757 ], [ 138.46280377299999, 35.555315281 ], [ 138.462904036999987, 35.555512942 ], [ 138.46306041599999, 35.555802354 ], [ 138.46316958599999, 35.555993843 ], [ 138.463222822, 35.556082781 ], [ 138.46324116400001, 35.556112073 ], [ 138.463308931, 35.556220252 ], [ 138.463420133, 35.556358252 ], [ 138.463546689, 35.556499791 ], [ 138.463628309, 35.556587314 ], [ 138.463642685, 35.5566054 ], [ 138.46366383899999, 35.556635684 ], [ 138.463687154000013, 35.556669935 ], [ 138.463710455000012, 35.556709621 ], [ 138.463749791, 35.556779761 ], [ 138.463751433999988, 35.556782655 ], [ 138.463761838000011, 35.556800966 ], [ 138.46381735599999, 35.556898774 ], [ 138.463910887, 35.557066001 ], [ 138.46398560599999, 35.557197239 ], [ 138.464026117, 35.557280639 ], [ 138.464052509, 35.557341175 ], [ 138.464076935, 35.557406398 ], [ 138.464114977, 35.557511781 ], [ 138.464124946999988, 35.557541143 ], [ 138.464129398000011, 35.557554223 ], [ 138.46416427599999, 35.557656785 ], [ 138.46419741299999, 35.557730267 ], [ 138.46422582299999, 35.557791119 ], [ 138.46425828299999, 35.557850098 ], [ 138.464296256000011, 35.557912891 ], [ 138.464343603, 35.557979968 ], [ 138.464395454, 35.558042946 ], [ 138.464468828, 35.558123867 ], [ 138.464522733, 35.558179454 ], [ 138.464548423999986, 35.558204863 ], [ 138.464592028, 35.558255903 ], [ 138.464607617000013, 35.558277352 ], [ 138.464622135000013, 35.558298187 ], [ 138.464631306, 35.558313387 ], [ 138.464635273999988, 35.558321501 ], [ 138.464654252, 35.558360456 ], [ 138.464744572, 35.558563421 ], [ 138.464808584, 35.558715486 ], [ 138.46481518499999, 35.558731154 ], [ 138.464893424, 35.558917008 ], [ 138.465079825, 35.559350603 ], [ 138.465206854, 35.559666126 ], [ 138.465214401999987, 35.559684877 ], [ 138.465243316999988, 35.5597567 ], [ 138.465251306, 35.559776839 ], [ 138.465332933000013, 35.559989617 ], [ 138.465158828, 35.560043876 ], [ 138.46500605, 35.560091037 ], [ 138.464807861, 35.560152211 ], [ 138.464704433, 35.560179429 ], [ 138.464615036999987, 35.560202956 ], [ 138.46440392400001, 35.560253859 ], [ 138.464185972, 35.560302811 ], [ 138.46389407, 35.560369634 ], [ 138.463861724, 35.560377034 ], [ 138.463830139, 35.560384263 ], [ 138.463440272000014, 35.560469786 ], [ 138.463397621000013, 35.560479147 ], [ 138.463331659, 35.560493612 ], [ 138.463032332000012, 35.560560133 ], [ 138.462968421999989, 35.560574337 ], [ 138.46268276399999, 35.560637824 ], [ 138.462666546, 35.560641425 ], [ 138.462283195999987, 35.560726612 ], [ 138.46221952799999, 35.560742087 ], [ 138.46212856599999, 35.560765432 ], [ 138.461530619, 35.560932756 ], [ 138.460954936, 35.561089078 ], [ 138.461153746, 35.561445624 ], [ 138.461185511999986, 35.561500232 ], [ 138.461242739, 35.561598673 ], [ 138.46177265899999, 35.56251003 ], [ 138.462527677999987, 35.562279422 ], [ 138.462555028999986, 35.562270993 ], [ 138.46264171499999, 35.562244303 ], [ 138.462874179000011, 35.562172715 ], [ 138.463030849, 35.562118608 ], [ 138.463373679999989, 35.561974292 ], [ 138.463616983, 35.56186153 ], [ 138.463605712, 35.561829257 ], [ 138.463514569000012, 35.561589919 ], [ 138.46348304599999, 35.561506198 ], [ 138.463653959999988, 35.56146822 ], [ 138.463717968999987, 35.561454178 ], [ 138.463760619999988, 35.561444816 ], [ 138.464156957, 35.561357879 ], [ 138.464194985, 35.561349174 ], [ 138.464227332, 35.561341765 ], [ 138.464516358, 35.561275608 ], [ 138.464742519999987, 35.561224809 ], [ 138.46497926399999, 35.561167721 ], [ 138.465083123999989, 35.561140394 ], [ 138.465215789000013, 35.561105486 ], [ 138.465442676, 35.56103545 ], [ 138.465597276000011, 35.560987721 ], [ 138.465702539, 35.560954913 ], [ 138.465798634, 35.561237535 ], [ 138.465812746000012, 35.561281572 ], [ 138.465888982, 35.56151956 ], [ 138.465992129999989, 35.56184674 ], [ 138.466057474, 35.562044415 ], [ 138.46606756599999, 35.562074957 ], [ 138.466094338, 35.562155909 ], [ 138.466107036000011, 35.562207274 ], [ 138.46614987699999, 35.562323908 ], [ 138.466250687000013, 35.562470998 ], [ 138.46633735399999, 35.562539627 ], [ 138.466397268, 35.562587057 ], [ 138.466400665, 35.562589744 ], [ 138.466676638, 35.562777499 ], [ 138.466815188999988, 35.562868343 ], [ 138.467019085, 35.562998983 ], [ 138.46721397799999, 35.563133776 ], [ 138.46724612599999, 35.563155527 ], [ 138.467484724, 35.563299543 ], [ 138.467648876, 35.563402806 ], [ 138.467712479, 35.563442808 ], [ 138.467814054, 35.56350669 ], [ 138.46789480699999, 35.563556712 ], [ 138.467943759, 35.563543646 ], [ 138.46793502700001, 35.563503865 ], [ 138.467923402, 35.563442495 ], [ 138.467910722999989, 35.563367298 ], [ 138.467937376, 35.563226589 ], [ 138.467962809, 35.563156585 ], [ 138.46800306899999, 35.563085729 ], [ 138.468016624, 35.563065352 ], [ 138.46806468299999, 35.562993137 ], [ 138.46823552, 35.562814788 ], [ 138.468269155, 35.562759154 ], [ 138.46829455, 35.562700282 ], [ 138.46829902799999, 35.562674134 ], [ 138.468296906, 35.562627387 ], [ 138.468291767000011, 35.562567272 ], [ 138.468208753999988, 35.56251506 ], [ 138.46798704299999, 35.562381235 ], [ 138.46777875, 35.562237164 ], [ 138.467732993, 35.562207848 ], [ 138.467668784000011, 35.562166709 ], [ 138.467562425000011, 35.562098572 ], [ 138.46743762700001, 35.562016755 ], [ 138.467425870999989, 35.562008765 ], [ 138.467413310000012, 35.562000208 ], [ 138.467281985, 35.561910862 ], [ 138.467271544, 35.561897429 ], [ 138.467170764, 35.561592624 ], [ 138.467156122, 35.561546153 ], [ 138.467147848, 35.561519929 ], [ 138.467068812, 35.561269222 ], [ 138.466963179, 35.560939465 ], [ 138.467026792000013, 35.560920662 ], [ 138.467289052000012, 35.560855581 ], [ 138.467389782999987, 35.56081373 ], [ 138.467767965, 35.560703691 ], [ 138.467759381, 35.56067881 ], [ 138.467528914000013, 35.560193116 ], [ 138.467629665, 35.560156447 ], [ 138.467864864, 35.560060594 ], [ 138.468137539, 35.559952121 ], [ 138.46819155599999, 35.559929889 ], [ 138.46821621399999, 35.559919746 ], [ 138.468431818, 35.559831043 ], [ 138.46861539, 35.559761134 ], [ 138.46879666000001, 35.559683698 ], [ 138.46882821299999, 35.559670636 ], [ 138.469155685, 35.55954257 ], [ 138.46945861899999, 35.559424087 ], [ 138.46957624800001, 35.559378137 ], [ 138.46971240100001, 35.559324882 ], [ 138.470920957, 35.558856395 ] ] ] } },
{ "type": "Feature", "properties": { "A29_001": "19368", "A29_002": "山梨県", "A29_003": "富士川町", "A29_004": 7, "A29_005": "準住居地域", "A29_006": 60, "A29_007": 200, "A29_008": null }, "geometry": { "type": "Polygon", "coordinates": [ [ [ 138.470920957, 35.558856395 ], [ 138.46971240100001, 35.559324882 ], [ 138.46957624800001, 35.559378137 ], [ 138.46945861899999, 35.559424087 ], [ 138.469155685, 35.55954257 ], [ 138.469416380000013, 35.559980964 ], [ 138.469449204999989, 35.560050641 ], [ 138.469961375999986, 35.560918132 ], [ 138.469981176, 35.560949965 ], [ 138.470309974, 35.56151456 ], [ 138.470268981, 35.561547189 ], [ 138.47020555899999, 35.561587853 ], [ 138.47010288199999, 35.561639585 ], [ 138.469986618, 35.561685158 ], [ 138.46980610599999, 35.561734238 ], [ 138.469811428000014, 35.561748545 ], [ 138.46982682399999, 35.56178985 ], [ 138.46985768499999, 35.561889885 ], [ 138.46988069, 35.561966653 ], [ 138.469902878999989, 35.562043205 ], [ 138.469918089, 35.562107568 ], [ 138.469933891000011, 35.562184244 ], [ 138.46995963399999, 35.562314276 ], [ 138.46999920799999, 35.562511717 ], [ 138.470074653000012, 35.562896674 ], [ 138.470089836999989, 35.562974125 ], [ 138.47016464399999, 35.5633559 ], [ 138.47027734400001, 35.56392282 ], [ 138.47028354299999, 35.563953983 ], [ 138.470325386000013, 35.564164495 ], [ 138.470382784, 35.564464473 ], [ 138.470386198, 35.564482312 ], [ 138.470450676000013, 35.564819312 ], [ 138.470508567, 35.565103652 ], [ 138.470583758, 35.565473023 ], [ 138.47095217899999, 35.567343368 ], [ 138.47117817099999, 35.56731145 ], [ 138.47138078399999, 35.567286386 ], [ 138.471578905, 35.567265449 ], [ 138.47150628899999, 35.56680247 ], [ 138.471499685, 35.566760193 ], [ 138.471459618000011, 35.566505289 ], [ 138.471424, 35.566274939 ], [ 138.47283294499999, 35.566131657 ], [ 138.472838316, 35.566005365 ], [ 138.472843229, 35.565961622 ], [ 138.472850013999988, 35.565927398 ], [ 138.47286184699999, 35.565906704 ], [ 138.472890871, 35.565877055 ], [ 138.47302143499999, 35.565836711 ], [ 138.47299690599999, 35.565786724 ], [ 138.47289464, 35.565557694 ], [ 138.472854305999988, 35.5654644 ], [ 138.472789060999986, 35.565306255 ], [ 138.472735806, 35.565092325 ], [ 138.472683276999987, 35.564881343 ], [ 138.472648502, 35.564727261 ], [ 138.471862652, 35.564809592 ], [ 138.471840808, 35.564811841 ], [ 138.471246044, 35.564874094 ], [ 138.471229786, 35.564772386 ], [ 138.471164968000011, 35.564357669 ], [ 138.47109771800001, 35.563928258 ], [ 138.471088693000013, 35.563869701 ], [ 138.471083971000013, 35.563838422 ], [ 138.47101156299999, 35.563367375 ], [ 138.470929305, 35.562831885 ], [ 138.470882894, 35.562529601 ], [ 138.470857593, 35.562361243 ], [ 138.47085450099999, 35.5623406 ], [ 138.47079937699999, 35.561974019 ], [ 138.470753565, 35.561664678 ], [ 138.470731163000011, 35.561535197 ], [ 138.470717802, 35.561478487 ], [ 138.470705560999988, 35.561440338 ], [ 138.470690636, 35.561406937 ], [ 138.470667631, 35.561359951 ], [ 138.470640511999989, 35.561309819 ], [ 138.47060153000001, 35.561243377 ], [ 138.470629026000012, 35.561194672 ], [ 138.470663344, 35.561166107 ], [ 138.47067868100001, 35.561156465 ], [ 138.47070063699999, 35.561144302 ], [ 138.470756904000012, 35.561122051 ], [ 138.47108489499999, 35.561029738 ], [ 138.471394462, 35.560942648 ], [ 138.471660558999986, 35.56087033 ], [ 138.47200902099999, 35.560749057 ], [ 138.47197786800001, 35.560687422 ], [ 138.471862321, 35.560484213 ], [ 138.47174486899999, 35.560271512 ], [ 138.47158211499999, 35.559992962 ], [ 138.47114726, 35.559246859 ], [ 138.470920957, 35.558856395 ] ] ] } },
{ "type": "Feature", "properties": { "A29_001": "19368", "A29_002": "山梨県", "A29_003": "富士川町", "A29_004": 10, "A29_005": "準工業地域", "A29_006": 60, "A29_007": 200, "A29_008": null }, "geometry": { "type": "Polygon", "coordinates": [ [ [ 138.46247353699999, 35.553608975 ], [ 138.462424954999989, 35.553625395 ], [ 138.462381111000013, 35.553555707 ], [ 138.46224826299999, 35.55339126 ], [ 138.462221817, 35.553358523 ], [ 138.462151167, 35.553243844 ], [ 138.462117992, 35.55318984 ], [ 138.462093083000013, 35.55314936 ], [ 138.462067982, 35.553105842 ], [ 138.462019241, 35.553021339 ], [ 138.462002598999987, 35.552992489 ], [ 138.461946832, 35.552895843 ], [ 138.461845684, 35.552718961 ], [ 138.46175639, 35.552562809 ], [ 138.46172729599999, 35.552507544 ], [ 138.461682665000012, 35.552422754 ], [ 138.461638033000014, 35.552338054 ], [ 138.46158359399999, 35.552234647 ], [ 138.461528941000012, 35.55212502 ], [ 138.461449928, 35.551966531 ], [ 138.46138412799999, 35.551830137 ], [ 138.461356376, 35.551772612 ], [ 138.461336343999989, 35.551734469 ], [ 138.461165182, 35.551408568 ], [ 138.46113520599999, 35.55137259 ], [ 138.461126269, 35.551361864 ], [ 138.461106973, 35.551348246 ], [ 138.46108734399999, 35.551339677 ], [ 138.461063853000013, 35.55133372 ], [ 138.461042125, 35.551332721 ], [ 138.461010135, 35.55133848 ], [ 138.460728012, 35.551546204 ], [ 138.460725728, 35.551547898 ], [ 138.46065327, 35.551598974 ], [ 138.46043935899999, 35.551749778 ], [ 138.46038472, 35.551788322 ], [ 138.460317237, 35.551835929 ], [ 138.46015807500001, 35.551948208 ], [ 138.460141259000011, 35.551961912 ], [ 138.460050854, 35.552035616 ], [ 138.459929182, 35.552125084 ], [ 138.459831161000011, 35.552209538 ], [ 138.459772401, 35.552260159 ], [ 138.459692929, 35.552328629 ], [ 138.459496739, 35.552502558 ], [ 138.45929969299999, 35.552688512 ], [ 138.459225051, 35.552758957 ], [ 138.459221431, 35.552762318 ], [ 138.459086558, 35.552887809 ], [ 138.459042933, 35.552932846 ], [ 138.458992346, 35.552983541 ], [ 138.458944672, 35.553030929 ], [ 138.458794176999987, 35.553203998 ], [ 138.458625533, 35.553406483 ], [ 138.45828277199999, 35.553809583 ], [ 138.458227389, 35.553875059 ], [ 138.457999961000013, 35.554143892 ], [ 138.4579439, 35.554196008 ], [ 138.457948722, 35.554213136 ], [ 138.45796981699999, 35.554287887 ], [ 138.458026397999987, 35.554488439 ], [ 138.45802784, 35.554493614 ], [ 138.458068594, 35.554627575 ], [ 138.458073989000013, 35.554645631 ], [ 138.45812537899999, 35.554817571 ], [ 138.458167119, 35.554963972 ], [ 138.458206652, 35.555092848 ], [ 138.458295427, 35.555066162 ], [ 138.45846304299999, 35.555025901 ], [ 138.458550279, 35.55501168 ], [ 138.458737445999986, 35.555003974 ], [ 138.458932526000012, 35.555011811 ], [ 138.459170432, 35.555027432 ], [ 138.45923387900001, 35.555027454 ], [ 138.45954317799999, 35.554990006 ], [ 138.45968095500001, 35.554953267 ], [ 138.460034713, 35.554835555 ], [ 138.460221912, 35.554761803 ], [ 138.460313918, 35.554734638 ], [ 138.46083402799999, 35.554605883 ], [ 138.461230591, 35.554512781 ], [ 138.46141935899999, 35.554451979 ], [ 138.46149074600001, 35.554431279 ], [ 138.46154149899999, 35.554427411 ], [ 138.461582740000011, 35.55443002 ], [ 138.46172388, 35.554461136 ], [ 138.461961534000011, 35.554494869 ], [ 138.46224066100001, 35.55453122 ], [ 138.462416706, 35.554550691 ], [ 138.462535664, 35.554559796 ], [ 138.462613385999987, 35.554554638 ], [ 138.462695868, 35.554536536 ], [ 138.462997551, 35.554454073 ], [ 138.462900534999989, 35.554298373 ], [ 138.46287726, 35.554261015 ], [ 138.46284824899999, 35.554213554 ], [ 138.462788157, 35.554115338 ], [ 138.46271274899999, 35.553992517 ], [ 138.46267638099999, 35.553933292 ], [ 138.46264399, 35.553880483 ], [ 138.462570242999988, 35.553762819 ], [ 138.46249286299999, 35.553639745 ], [ 138.462480074000013, 35.553619365 ], [ 138.46247353699999, 35.553608975 ] ] ] } },
{ "type": "Feature", "properties": { "A29_001": "19368", "A29_002": "山梨県", "A29_003": "富士川町", "A29_004": 11, "A29_005": "工業地域", "A29_006": 60, "A29_007": 200, "A29_008": null }, "geometry": { "type": "Polygon", "coordinates": [ [ [ 138.468184373000014, 35.576458725 ], [ 138.46785201099999, 35.576472968 ], [ 138.467755446000012, 35.576474871 ], [ 138.46764244100001, 35.576479339 ], [ 138.467604849999987, 35.576481618 ], [ 138.467597954000013, 35.576482031 ], [ 138.467501773, 35.57649019 ], [ 138.467405316, 35.576500773 ], [ 138.46720386699999, 35.576532429 ], [ 138.466896924999986, 35.576575233 ], [ 138.466574314000013, 35.576618996 ], [ 138.466534316, 35.576624348 ], [ 138.466301499999986, 35.576655444 ], [ 138.466220256000014, 35.576668113 ], [ 138.46616140099999, 35.576675181 ], [ 138.466085281, 35.57667826 ], [ 138.46589477399999, 35.576690303 ], [ 138.465852493, 35.576692977 ], [ 138.46575097499999, 35.576693768 ], [ 138.465652998, 35.576695038 ], [ 138.465528653, 35.576691397 ], [ 138.465424391, 35.57668495 ], [ 138.46527392199999, 35.576676722 ], [ 138.464979183999986, 35.57666042 ], [ 138.46474052799999, 35.576646415 ], [ 138.46423694399999, 35.576619711 ], [ 138.464099968999989, 35.57661245 ], [ 138.463676740000011, 35.576590005 ], [ 138.463445828, 35.576579605 ], [ 138.463200594999989, 35.576568569 ], [ 138.463153417, 35.576566427 ], [ 138.462945952000013, 35.576555006 ], [ 138.462729252, 35.576543077 ], [ 138.46249147899999, 35.576528959 ], [ 138.46224390899999, 35.576514279 ], [ 138.46134046899999, 35.576464064 ], [ 138.461288106000012, 35.576461433 ], [ 138.460798966999988, 35.576436856 ], [ 138.460129251000012, 35.576401058 ], [ 138.45952441099999, 35.576366098 ], [ 138.458981907, 35.576336872 ], [ 138.45851142699999, 35.576312201 ], [ 138.458250376, 35.576296787 ], [ 138.45814902699999, 35.57629165 ], [ 138.45796072600001, 35.57628212 ], [ 138.457676064, 35.576267697 ], [ 138.45678240399999, 35.576219642 ], [ 138.456880189, 35.576597412 ], [ 138.456900104, 35.576679734 ], [ 138.45691321000001, 35.576725628 ], [ 138.45692184699999, 35.5767707 ], [ 138.45692753599999, 35.576820162 ], [ 138.456928334999986, 35.576852053 ], [ 138.456927044, 35.576893796 ], [ 138.456916693000011, 35.576958872 ], [ 138.456901636999987, 35.577033583 ], [ 138.45689334799999, 35.577081371 ], [ 138.456894745999989, 35.577127901 ], [ 138.45690171699999, 35.577173757 ], [ 138.456912206999988, 35.577219804 ], [ 138.456970383, 35.577350679 ], [ 138.456998805000012, 35.577413354 ], [ 138.45707973, 35.577589045 ], [ 138.457125929, 35.577689728 ], [ 138.45716903499999, 35.577819354 ], [ 138.457202998000014, 35.577982652 ], [ 138.457230656, 35.578155061 ], [ 138.457229074999987, 35.578224278 ], [ 138.457209156, 35.578314131 ], [ 138.456969593999986, 35.578853858 ], [ 138.45691235000001, 35.57898197 ], [ 138.456881428, 35.579096056 ], [ 138.45688446299999, 35.57915645 ], [ 138.456962954, 35.57938919 ], [ 138.45696928699999, 35.579409969 ], [ 138.457004016000013, 35.579523889 ], [ 138.457105418, 35.579854293 ], [ 138.45722144699999, 35.580275363 ], [ 138.457273327, 35.580255677 ], [ 138.457493199, 35.580171349 ], [ 138.457653474000011, 35.58009139 ], [ 138.457777633, 35.580015131 ], [ 138.457913217, 35.579929637 ], [ 138.45803328299999, 35.5798528 ], [ 138.458135258, 35.579787458 ], [ 138.458230128, 35.579720265 ], [ 138.458329436000014, 35.579647414 ], [ 138.458476374000014, 35.579537405 ], [ 138.45852156399999, 35.57950251 ], [ 138.45859521, 35.579445622 ], [ 138.458767404000014, 35.579311978 ], [ 138.458866734999987, 35.579236584 ], [ 138.458940930000011, 35.579183969 ], [ 138.45902377499999, 35.579131969 ], [ 138.45908377, 35.579100937 ], [ 138.459140432999988, 35.579069921 ], [ 138.459218060000012, 35.578731756 ], [ 138.459233708, 35.578661183 ], [ 138.459243410999989, 35.57860905 ], [ 138.459249368, 35.578346704 ], [ 138.459212492, 35.57815502 ], [ 138.459241744, 35.578149523 ], [ 138.459577516, 35.578085773 ], [ 138.459955095, 35.578019332 ], [ 138.460634003, 35.577898194 ], [ 138.46104112899999, 35.577829605 ], [ 138.46155067, 35.577730346 ], [ 138.46160701299999, 35.5777187 ], [ 138.461692755, 35.577693407 ], [ 138.461746349, 35.577892874 ], [ 138.46176157, 35.57792879 ], [ 138.461805231999989, 35.578016833 ], [ 138.461853767, 35.578020346 ], [ 138.461899506, 35.577986694 ], [ 138.461975857999988, 35.577985546 ], [ 138.462043040999987, 35.578009184 ], [ 138.46225515399999, 35.578142755 ], [ 138.462845888, 35.578146626 ], [ 138.463012287, 35.578119284 ], [ 138.463125166999987, 35.578104356 ], [ 138.463267174, 35.57809178 ], [ 138.463442721, 35.578084352 ], [ 138.463577001, 35.57808195 ], [ 138.46374646000001, 35.578091916 ], [ 138.46394186500001, 35.578115691 ], [ 138.46416616, 35.578153165 ], [ 138.464353928, 35.578181885 ], [ 138.464465483999987, 35.577940067 ], [ 138.46502454899999, 35.578126386 ], [ 138.465129831000013, 35.578152106 ], [ 138.465549106, 35.578151127 ], [ 138.465617852, 35.578134931 ], [ 138.465684950999986, 35.578101229 ], [ 138.466917171, 35.577304758 ], [ 138.467101845, 35.577177271 ], [ 138.46723904000001, 35.577082582 ], [ 138.467942998000012, 35.576596636 ], [ 138.468184373000014, 35.576458725 ] ] ] } }
]
}
