{
"type": "FeatureCollection",
"name": "A29-19_19205",
"features": [
{ "type": "Feature", "properties": { "A29_001": "19205", "A29_002": "山梨県", "A29_003": "山梨市", "A29_004": 4, "A29_005": "第二種中高層住居専用地域", "A29_006": 60, "A29_007": 200, "A29_008": null }, "geometry": { "type": "Polygon", "coordinates": [ [ [ 138.688595017000011, 35.696050358 ], [ 138.688882524, 35.696327077 ], [ 138.689869283, 35.697214362 ], [ 138.69004800499999, 35.69737236 ], [ 138.69013191, 35.697433791 ], [ 138.690239902, 35.697494282 ], [ 138.690309703999986, 35.697526531 ], [ 138.690497255999986, 35.697586986 ], [ 138.690641766, 35.697622902 ], [ 138.69071107799999, 35.697634871 ], [ 138.69085066299999, 35.697644655 ], [ 138.691125554, 35.697630518 ], [ 138.691143452, 35.697629317 ], [ 138.691354719, 35.697579316 ], [ 138.692783714, 35.697444715 ], [ 138.694089420000012, 35.696959665 ], [ 138.694855625, 35.696643309 ], [ 138.69455485899999, 35.696148765 ], [ 138.69441708, 35.695880831 ], [ 138.69406856099999, 35.69528541 ], [ 138.694034184, 35.69518929 ], [ 138.693902065, 35.694976059 ], [ 138.693631442, 35.694512922 ], [ 138.69344999399999, 35.694233159 ], [ 138.69339754, 35.694245953 ], [ 138.692645, 35.694494134 ], [ 138.691775803000013, 35.694801716 ], [ 138.691315213, 35.694969112 ], [ 138.688595017000011, 35.696050358 ] ] ] } },
{ "type": "Feature", "properties": { "A29_001": "19205", "A29_002": "山梨県", "A29_003": "山梨市", "A29_004": 8, "A29_005": "近隣商業地域", "A29_006": 80, "A29_007": 200, "A29_008": null }, "geometry": { "type": "Polygon", "coordinates": [ [ [ 138.674973593, 35.68798017 ], [ 138.675042673, 35.687991697 ], [ 138.675318653, 35.688084767 ], [ 138.675659348000011, 35.688213887 ], [ 138.675804778000014, 35.688277311 ], [ 138.6760528, 35.68806666 ], [ 138.676479797000013, 35.687699899 ], [ 138.676598614999989, 35.687620314 ], [ 138.676690091000012, 35.687566909 ], [ 138.67687021399999, 35.687480564 ], [ 138.67702035100001, 35.687424368 ], [ 138.67742126600001, 35.68730705 ], [ 138.677679606999988, 35.687218425 ], [ 138.677560957999987, 35.686975772 ], [ 138.677503202, 35.686838849 ], [ 138.677373713, 35.686590172 ], [ 138.676872992999989, 35.686739004 ], [ 138.676462077999986, 35.686880491 ], [ 138.676254363999988, 35.686979946 ], [ 138.676005435, 35.687128315 ], [ 138.67574335899999, 35.68732781 ], [ 138.675605727, 35.687443837 ], [ 138.674973593, 35.68798017 ] ] ] } },
{ "type": "Feature", "properties": { "A29_001": "19205", "A29_002": "山梨県", "A29_003": "山梨市", "A29_004": 8, "A29_005": "近隣商業地域", "A29_006": 80, "A29_007": 200, "A29_008": null }, "geometry": { "type": "Polygon", "coordinates": [ [ [ 138.686841890000011, 35.696065982 ], [ 138.686858543, 35.696099306 ], [ 138.686860421, 35.696193857 ], [ 138.68685832700001, 35.696243345 ], [ 138.686984876, 35.696397012 ], [ 138.687103987, 35.696347071 ], [ 138.687291655, 35.696600604 ], [ 138.687865319999986, 35.696346336 ], [ 138.688005092, 35.696295641 ], [ 138.688121547, 35.696244262 ], [ 138.688285027, 35.696172978 ], [ 138.688595017000011, 35.696050358 ], [ 138.691315213, 35.694969112 ], [ 138.691775803000013, 35.694801716 ], [ 138.692645, 35.694494134 ], [ 138.69339754, 35.694245953 ], [ 138.693430006, 35.694238059 ], [ 138.693627348, 35.694191141 ], [ 138.69419440499999, 35.694097567 ], [ 138.694641085, 35.694030505 ], [ 138.695148017, 35.694022022 ], [ 138.69523936600001, 35.694009345 ], [ 138.69578784699999, 35.69386694 ], [ 138.696252775, 35.693672298 ], [ 138.696894422000014, 35.693404716 ], [ 138.696796060999986, 35.693216582 ], [ 138.696769068, 35.693158578 ], [ 138.696751441, 35.693134901 ], [ 138.696691159000011, 35.693154108 ], [ 138.69665606800001, 35.693082867 ], [ 138.69655666599999, 35.692875625 ], [ 138.696009928, 35.693094828 ], [ 138.695839951000011, 35.693170008 ], [ 138.695472486999989, 35.693321584 ], [ 138.695147287, 35.693405849 ], [ 138.695062244000013, 35.69342122 ], [ 138.694896519, 35.693428339 ], [ 138.694583924, 35.69342587 ], [ 138.693873061, 35.69354086 ], [ 138.69338000799999, 35.693621784 ], [ 138.69314977, 35.693681104 ], [ 138.692233843, 35.693988133 ], [ 138.691349177, 35.694294115 ], [ 138.691125615, 35.69400459 ], [ 138.690653569, 35.693119566 ], [ 138.690634724, 35.693093997 ], [ 138.690275463, 35.693260867 ], [ 138.690000088, 35.693390649 ], [ 138.69009373099999, 35.693552747 ], [ 138.69022468899999, 35.693840617 ], [ 138.69033317099999, 35.694062632 ], [ 138.690423345, 35.694205987 ], [ 138.69067994299999, 35.69454152 ], [ 138.689126292, 35.69516294 ], [ 138.68818, 35.695539933 ], [ 138.686841890000011, 35.696065982 ] ] ] } },
{ "type": "Feature", "properties": { "A29_001": "19205", "A29_002": "山梨県", "A29_003": "山梨市", "A29_004": 8, "A29_005": "近隣商業地域", "A29_006": 80, "A29_007": 200, "A29_008": null }, "geometry": { "type": "Polygon", "coordinates": [ [ [ 138.68338637, 35.686470112 ], [ 138.683543415, 35.687260012 ], [ 138.68357730299999, 35.687390839 ], [ 138.683635793, 35.687698116 ], [ 138.683680427000013, 35.687889589 ], [ 138.683870461999987, 35.688416869 ], [ 138.683982558, 35.688684044 ], [ 138.684297034, 35.688599645 ], [ 138.684437378000013, 35.688562384 ], [ 138.684948670000011, 35.688399263 ], [ 138.684913368, 35.688327298 ], [ 138.685152549, 35.688268792 ], [ 138.68535047899999, 35.688241446 ], [ 138.685518717, 35.688226585 ], [ 138.685535498, 35.688221241 ], [ 138.685563143, 35.688183611 ], [ 138.68558554099999, 35.688170056 ], [ 138.685852694, 35.688120159 ], [ 138.686141816, 35.688774826 ], [ 138.686271425, 35.68901493 ], [ 138.686351828, 35.689000835 ], [ 138.686416557, 35.688993704 ], [ 138.686600539000011, 35.688954119 ], [ 138.68699305199999, 35.688837414 ], [ 138.686939079000012, 35.68876665 ], [ 138.686852311, 35.688610037 ], [ 138.686721637, 35.68834019 ], [ 138.686573103, 35.687992042 ], [ 138.68644575499999, 35.687631692 ], [ 138.68636184499999, 35.687277945 ], [ 138.686283210999989, 35.687054437 ], [ 138.686012936999987, 35.686520795 ], [ 138.685786490999988, 35.686161138 ], [ 138.685833414, 35.686147004 ], [ 138.685820017999987, 35.685707338 ], [ 138.685914864000011, 35.685681412 ], [ 138.68653749500001, 35.685847022 ], [ 138.686688217000011, 35.685856162 ], [ 138.686770078, 35.685853151 ], [ 138.686868933999989, 35.68584146 ], [ 138.686957051, 35.685820141 ], [ 138.687086978999986, 35.685772347 ], [ 138.687387390999987, 35.685586197 ], [ 138.687415243, 35.685590841 ], [ 138.687475557, 35.68558624 ], [ 138.687509229999989, 35.685576093 ], [ 138.688620092, 35.685554257 ], [ 138.68859532799999, 35.68531345 ], [ 138.68850593, 35.685165495 ], [ 138.68848506, 35.685076292 ], [ 138.688420323, 35.684938394 ], [ 138.688393157, 35.684896884 ], [ 138.688057746, 35.684902816 ], [ 138.687375707, 35.684937771 ], [ 138.687322134999988, 35.684942993 ], [ 138.687319261999988, 35.684942997 ], [ 138.68731937199999, 35.684942366 ], [ 138.687205928, 35.684951736 ], [ 138.687119353000014, 35.684970619 ], [ 138.68704627, 35.68499489 ], [ 138.686969675, 35.685029171 ], [ 138.686880546, 35.684995057 ], [ 138.68595814, 35.684716701 ], [ 138.685961924999987, 35.68463413 ], [ 138.68595358499999, 35.684515883 ], [ 138.68590765799999, 35.684340097 ], [ 138.685590745000013, 35.68322325 ], [ 138.685439202999987, 35.682667249 ], [ 138.68511863399999, 35.682733993 ], [ 138.685080645, 35.682740722 ], [ 138.685041799, 35.682615852 ], [ 138.684900891000012, 35.68264374 ], [ 138.68468965, 35.682689764 ], [ 138.68507473, 35.684051861 ], [ 138.685192085000011, 35.684491368 ], [ 138.685056573, 35.684465167 ], [ 138.685115647, 35.684689156 ], [ 138.685188321, 35.684965223 ], [ 138.685522241, 35.685030419 ], [ 138.685664949999989, 35.685063189 ], [ 138.686154587, 35.685195294 ], [ 138.686470679, 35.685289719 ], [ 138.686695238999988, 35.685361841 ], [ 138.686866194, 35.685425302 ], [ 138.68698761499999, 35.685472345 ], [ 138.686894048999989, 35.685525581 ], [ 138.686831125, 35.685547672 ], [ 138.68673505000001, 35.685567291 ], [ 138.68663639799999, 35.68557132 ], [ 138.686031422000013, 35.685395679 ], [ 138.685867788, 35.685392055 ], [ 138.68534733199999, 35.685405567 ], [ 138.685384693, 35.685937768 ], [ 138.685433425000014, 35.686274714 ], [ 138.685360137, 35.686306826 ], [ 138.685146726, 35.686421718 ], [ 138.685054928, 35.686476122 ], [ 138.68485179699999, 35.686641564 ], [ 138.684997659, 35.686794212 ], [ 138.685084780000011, 35.686914771 ], [ 138.684918208, 35.686979926 ], [ 138.684654104, 35.687056767 ], [ 138.683976182, 35.687305141 ], [ 138.683810974000011, 35.686330384 ], [ 138.68338637, 35.686470112 ] ], [ [ 138.686976969999989, 35.685030601 ], [ 138.686974541000012, 35.685031236 ], [ 138.68697056, 35.68502962 ], [ 138.686976969999989, 35.685030601 ] ] ] } },
{ "type": "Feature", "properties": { "A29_001": "19205", "A29_002": "山梨県", "A29_003": "山梨市", "A29_004": 11, "A29_005": "工業地域", "A29_006": 60, "A29_007": 200, "A29_008": null }, "geometry": { "type": "Polygon", "coordinates": [ [ [ 138.680182045, 35.684147709 ], [ 138.680240489999989, 35.684245601 ], [ 138.680356775, 35.684418309 ], [ 138.680687675, 35.684958724 ], [ 138.68070301899999, 35.685002057 ], [ 138.680737607, 35.685347229 ], [ 138.680766755, 35.685387296 ], [ 138.680946538, 35.68535034 ], [ 138.681125129, 35.685323571 ], [ 138.681398419, 35.685254565 ], [ 138.681922627, 35.68509306 ], [ 138.68221954, 35.685015815 ], [ 138.682787437, 35.684877405 ], [ 138.68292272, 35.68485169 ], [ 138.683325208000014, 35.684803215 ], [ 138.683333405000013, 35.684764624 ], [ 138.68334842499999, 35.684665631 ], [ 138.683316193, 35.684581763 ], [ 138.683201454, 35.684459712 ], [ 138.68318021799999, 35.684256576 ], [ 138.683146556999986, 35.683934748 ], [ 138.683172071, 35.683931645 ], [ 138.68347759400001, 35.683901434 ], [ 138.683501783, 35.683898693 ], [ 138.683540443, 35.683895029 ], [ 138.683552372, 35.683893839 ], [ 138.683644374000011, 35.684073702 ], [ 138.68364958699999, 35.684082618 ], [ 138.68371776399999, 35.684230879 ], [ 138.683977078, 35.684188569 ], [ 138.68398188099999, 35.684211547 ], [ 138.684324632999989, 35.684179474 ], [ 138.684348515000011, 35.684331408 ], [ 138.68435241899999, 35.684347357 ], [ 138.68437641599999, 35.684357055 ], [ 138.684450711000011, 35.684379205 ], [ 138.68456931099999, 35.684401918 ], [ 138.684701276, 35.684423438 ], [ 138.685001527999987, 35.684454525 ], [ 138.685192085000011, 35.684491368 ], [ 138.68507473, 35.684051861 ], [ 138.68468965, 35.682689764 ], [ 138.683058894999988, 35.683044149 ], [ 138.68315213599999, 35.683235188 ], [ 138.683154866, 35.683510462 ], [ 138.68311336799999, 35.68362572 ], [ 138.683128038, 35.683856358 ], [ 138.682966728, 35.683853358 ], [ 138.682838405000012, 35.68387789 ], [ 138.682714874, 35.683920712 ], [ 138.682370838, 35.6841162 ], [ 138.682110419999987, 35.683916581 ], [ 138.682069283, 35.683754126 ], [ 138.681826581, 35.683765129 ], [ 138.68160389900001, 35.683738064 ], [ 138.681577809, 35.68382797 ], [ 138.68155993100001, 35.683933907 ], [ 138.681320008, 35.683904344 ], [ 138.68121108599999, 35.683909645 ], [ 138.681103236000013, 35.684096211 ], [ 138.680835798, 35.684064344 ], [ 138.680585447, 35.684162158 ], [ 138.680414078000013, 35.683961319 ], [ 138.680182045, 35.684147709 ] ] ] } },
{ "type": "Feature", "properties": { "A29_001": "19205", "A29_002": "山梨県", "A29_003": "山梨市", "A29_004": 10, "A29_005": "準工業地域", "A29_006": 60, "A29_007": 200, "A29_008": null }, "geometry": { "type": "Polygon", "coordinates": [ [ [ 138.686194003999987, 35.69163839 ], [ 138.687401386, 35.694010446 ], [ 138.687827668000011, 35.693959576 ], [ 138.68893735899999, 35.693860762 ], [ 138.689025945, 35.693847643 ], [ 138.688847004, 35.693452675 ], [ 138.688768409, 35.693344994 ], [ 138.68864829099999, 35.693199612 ], [ 138.688640921, 35.693213865 ], [ 138.688077467999989, 35.69253782 ], [ 138.687753061, 35.692162186 ], [ 138.687729667000013, 35.6921277 ], [ 138.68771199299999, 35.69208302 ], [ 138.687688675, 35.691987241 ], [ 138.68760475, 35.691537049 ], [ 138.687559281, 35.691324307 ], [ 138.687520677, 35.691164915 ], [ 138.687184814, 35.691319752 ], [ 138.68696062399999, 35.691413032 ], [ 138.686747107, 35.691487816 ], [ 138.686492926, 35.691561311 ], [ 138.686194003999987, 35.69163839 ] ] ] } },
{ "type": "Feature", "properties": { "A29_001": "19205", "A29_002": "山梨県", "A29_003": "山梨市", "A29_004": 9, "A29_005": "商業地域", "A29_006": 80, "A29_007": 400, "A29_008": null }, "geometry": { "type": "Polygon", "coordinates": [ [ [ 138.68010407, 35.685532418 ], [ 138.680805453, 35.686475099 ], [ 138.681118792, 35.686379173 ], [ 138.681647069, 35.686254709 ], [ 138.681728219, 35.686521932 ], [ 138.682248367999989, 35.686369806 ], [ 138.68232629900001, 35.686532475 ], [ 138.682643148000011, 35.686474397 ], [ 138.68267529100001, 35.68656746 ], [ 138.683050028, 35.68650695 ], [ 138.682904877, 35.686180154 ], [ 138.68319472499999, 35.686104359 ], [ 138.68338637, 35.686470112 ], [ 138.683810974000011, 35.686330384 ], [ 138.683976182, 35.687305141 ], [ 138.684654104, 35.687056767 ], [ 138.684918208, 35.686979926 ], [ 138.685084780000011, 35.686914771 ], [ 138.684997659, 35.686794212 ], [ 138.68485179699999, 35.686641564 ], [ 138.685054928, 35.686476122 ], [ 138.685360137, 35.686306826 ], [ 138.685433425000014, 35.686274714 ], [ 138.685384693, 35.685937768 ], [ 138.68534733199999, 35.685405567 ], [ 138.685867788, 35.685392055 ], [ 138.686031422000013, 35.685395679 ], [ 138.68663639799999, 35.68557132 ], [ 138.68673505000001, 35.685567291 ], [ 138.686831125, 35.685547672 ], [ 138.686894048999989, 35.685525581 ], [ 138.68698761499999, 35.685472345 ], [ 138.686866194, 35.685425302 ], [ 138.686695238999988, 35.685361841 ], [ 138.686470679, 35.685289719 ], [ 138.686154587, 35.685195294 ], [ 138.685664949999989, 35.685063189 ], [ 138.685522241, 35.685030419 ], [ 138.685188321, 35.684965223 ], [ 138.685115647, 35.684689156 ], [ 138.685056573, 35.684465167 ], [ 138.685001527999987, 35.684454525 ], [ 138.684701276, 35.684423438 ], [ 138.68456931099999, 35.684401918 ], [ 138.684450711000011, 35.684379205 ], [ 138.68437641599999, 35.684357055 ], [ 138.68435241899999, 35.684347357 ], [ 138.684348515000011, 35.684331408 ], [ 138.684324632999989, 35.684179474 ], [ 138.68398188099999, 35.684211547 ], [ 138.683977078, 35.684188569 ], [ 138.68371776399999, 35.684230879 ], [ 138.68364958699999, 35.684082618 ], [ 138.683644374000011, 35.684073702 ], [ 138.683552372, 35.683893839 ], [ 138.683540443, 35.683895029 ], [ 138.683501783, 35.683898693 ], [ 138.68347759400001, 35.683901434 ], [ 138.683172071, 35.683931645 ], [ 138.683146556999986, 35.683934748 ], [ 138.68318021799999, 35.684256756 ], [ 138.683201454, 35.684459712 ], [ 138.683316193, 35.684581763 ], [ 138.68334842499999, 35.684665631 ], [ 138.683333405000013, 35.684764624 ], [ 138.683325208000014, 35.684803215 ], [ 138.68292272, 35.68485169 ], [ 138.682787437, 35.684877405 ], [ 138.68221954, 35.685015815 ], [ 138.681922627, 35.68509306 ], [ 138.681398419, 35.685254565 ], [ 138.681125129, 35.685323571 ], [ 138.680946538, 35.68535034 ], [ 138.680766755, 35.685387296 ], [ 138.680716503000014, 35.685395303 ], [ 138.68010407, 35.685532418 ] ] ] } },
{ "type": "Feature", "properties": { "A29_001": "19205", "A29_002": "山梨県", "A29_003": "山梨市", "A29_004": 5, "A29_005": "第一種住居地域", "A29_006": 60, "A29_007": 200, "A29_008": null }, "geometry": { "type": "Polygon", "coordinates": [ [ [ 138.67206043499999, 35.684053142 ], [ 138.672245868, 35.684227652 ], [ 138.672518512000011, 35.684625757 ], [ 138.672380620000013, 35.684672105 ], [ 138.672321192, 35.684677868 ], [ 138.672275221, 35.684672706 ], [ 138.672189788, 35.684659128 ], [ 138.672157747, 35.684658452 ], [ 138.672792456, 35.685163391 ], [ 138.673179553000011, 35.685452805 ], [ 138.673550303000013, 35.685692125 ], [ 138.673968636000012, 35.685913978 ], [ 138.674314349000014, 35.686069595 ], [ 138.67456171399999, 35.686166044 ], [ 138.67469882, 35.686214158 ], [ 138.674703353000012, 35.686215774 ], [ 138.67476151, 35.686235069 ], [ 138.674811264999988, 35.686251582 ], [ 138.67486566, 35.686268539 ], [ 138.674912428, 35.686283433 ], [ 138.674986722, 35.686305499 ], [ 138.67504962699999, 35.686323615 ], [ 138.675137183, 35.686347194 ], [ 138.675184497, 35.686359474 ], [ 138.675288741, 35.686385011 ], [ 138.675319693, 35.686392537 ], [ 138.675375516, 35.686405436 ], [ 138.675433437, 35.68641788 ], [ 138.675498545000011, 35.686432297 ], [ 138.67556597, 35.68644599 ], [ 138.675633284000014, 35.686458781 ], [ 138.67570722799999, 35.686472104 ], [ 138.675774206, 35.686483093 ], [ 138.675982108999989, 35.686519835 ], [ 138.67624590599999, 35.686551448 ], [ 138.676588908000014, 35.686576995 ], [ 138.67671399, 35.686582399 ], [ 138.67706412199999, 35.686584769 ], [ 138.677365501, 35.686573689 ], [ 138.677373713, 35.686590172 ], [ 138.677503202, 35.686838849 ], [ 138.677560957999987, 35.686975772 ], [ 138.677679606999988, 35.687218425 ], [ 138.678229235, 35.687052031 ], [ 138.678189298, 35.686781139 ], [ 138.678169344999986, 35.686702029 ], [ 138.678236914, 35.686680296 ], [ 138.678170107, 35.686498679 ], [ 138.67816839299999, 35.686423237 ], [ 138.67818292199999, 35.686349393 ], [ 138.678192341, 35.686312243 ], [ 138.678210411, 35.686290043 ], [ 138.67825274899999, 35.6862505 ], [ 138.678303246000013, 35.686203464 ], [ 138.67847998900001, 35.68608972 ], [ 138.678409585, 35.685880256 ], [ 138.67831261500001, 35.685896174 ], [ 138.677947405, 35.685968373 ], [ 138.677836845, 35.68598431 ], [ 138.677698271999986, 35.685873286 ], [ 138.67754439, 35.685684406 ], [ 138.677131115, 35.685305809 ], [ 138.67674556, 35.68492023 ], [ 138.67565966399999, 35.685340956 ], [ 138.675460492000013, 35.685404523 ], [ 138.67536073799999, 35.68535978 ], [ 138.67511517599999, 35.685228357 ], [ 138.67496114, 35.685167649 ], [ 138.674663325000012, 35.68508822 ], [ 138.67459689099999, 35.685072903 ], [ 138.674533295, 35.685041448 ], [ 138.67447224, 35.685010168 ], [ 138.674359426, 35.68490379 ], [ 138.67417657499999, 35.684801569 ], [ 138.673569422000014, 35.684676796 ], [ 138.673407236, 35.684677841 ], [ 138.673327317, 35.684659117 ], [ 138.67319805299999, 35.684608737 ], [ 138.673048411, 35.68453522 ], [ 138.672799610999988, 35.684384598 ], [ 138.672386683000013, 35.684051053 ], [ 138.672098089, 35.683838653 ], [ 138.67206043499999, 35.684053142 ] ] ] } },
{ "type": "Feature", "properties": { "A29_001": "19205", "A29_002": "山梨県", "A29_003": "山梨市", "A29_004": 5, "A29_005": "第一種住居地域", "A29_006": 60, "A29_007": 200, "A29_008": null }, "geometry": { "type": "Polygon", "coordinates": [ [ [ 138.67002836399999, 35.686970965 ], [ 138.67113821800001, 35.68734373 ], [ 138.672062272, 35.687627335 ], [ 138.672613270999989, 35.687781762 ], [ 138.67285390399999, 35.687829369 ], [ 138.673347871, 35.687871113 ], [ 138.67453988299999, 35.687907428 ], [ 138.674973593, 35.68798017 ], [ 138.675316901, 35.687688889 ], [ 138.674914354, 35.687618447 ], [ 138.674268160999986, 35.687587566 ], [ 138.673366636, 35.68755732 ], [ 138.67321614, 35.687551317 ], [ 138.672914552, 35.687518491 ], [ 138.672865588, 35.687510178 ], [ 138.672189034000013, 35.687335111 ], [ 138.67126464099999, 35.68704682 ], [ 138.670443928, 35.686776583 ], [ 138.670172705999988, 35.686681873 ], [ 138.670091764, 35.6866508 ], [ 138.67002836399999, 35.686970965 ] ] ] } },
{ "type": "Feature", "properties": { "A29_001": "19205", "A29_002": "山梨県", "A29_003": "山梨市", "A29_004": 5, "A29_005": "第一種住居地域", "A29_006": 60, "A29_007": 200, "A29_008": null }, "geometry": { "type": "Polygon", "coordinates": [ [ [ 138.675804778000014, 35.688277311 ], [ 138.676130832000013, 35.688480183 ], [ 138.678497198, 35.689739964 ], [ 138.678715971, 35.689643193 ], [ 138.678719914999988, 35.689627774 ], [ 138.678588803, 35.689496819 ], [ 138.678570900000011, 35.689445919 ], [ 138.678557844000011, 35.68938807 ], [ 138.677402408, 35.688766934 ], [ 138.6760528, 35.68806666 ], [ 138.675804778000014, 35.688277311 ] ] ] } },
{ "type": "Feature", "properties": { "A29_001": "19205", "A29_002": "山梨県", "A29_003": "山梨市", "A29_004": 5, "A29_005": "第一種住居地域", "A29_006": 60, "A29_007": 200, "A29_008": null }, "geometry": { "type": "Polygon", "coordinates": [ [ [ 138.69344779, 35.685191006 ], [ 138.694390832000011, 35.685173532 ], [ 138.695937541, 35.685151555 ], [ 138.696847131999988, 35.685145113 ], [ 138.696797812999989, 35.684947524 ], [ 138.69671021, 35.684816789 ], [ 138.696607188, 35.684256396 ], [ 138.696544044, 35.683962383 ], [ 138.696273227, 35.683140957 ], [ 138.696071416, 35.682660135 ], [ 138.696227920000013, 35.682551356 ], [ 138.69609929500001, 35.682224639 ], [ 138.694939197, 35.683511514 ], [ 138.694328885, 35.684187175 ], [ 138.694075456, 35.684467008 ], [ 138.693730456, 35.684846589 ], [ 138.69344779, 35.685191006 ] ] ] } },
{ "type": "Feature", "properties": { "A29_001": "19205", "A29_002": "山梨県", "A29_003": "山梨市", "A29_004": 5, "A29_005": "第一種住居地域", "A29_006": 60, "A29_007": 200, "A29_008": null }, "geometry": { "type": "Polygon", "coordinates": [ [ [ 138.680414078000013, 35.683961319 ], [ 138.680585447, 35.684162158 ], [ 138.680835798, 35.684064344 ], [ 138.681103345999986, 35.68409585 ], [ 138.68121108599999, 35.683909645 ], [ 138.681320008, 35.683904344 ], [ 138.68155993100001, 35.683933907 ], [ 138.681577809, 35.68382797 ], [ 138.68160389900001, 35.683738064 ], [ 138.681826581, 35.683765129 ], [ 138.682069283, 35.683754126 ], [ 138.682110419999987, 35.683916581 ], [ 138.682370838, 35.6841162 ], [ 138.682714874, 35.683920712 ], [ 138.682838405000012, 35.68387789 ], [ 138.682966728, 35.683853448 ], [ 138.683128038, 35.683856358 ], [ 138.68311336799999, 35.68362572 ], [ 138.683154866, 35.683510462 ], [ 138.68315213599999, 35.683235188 ], [ 138.683058894999988, 35.683044149 ], [ 138.684900891000012, 35.68264374 ], [ 138.685041799, 35.682615852 ], [ 138.685080645, 35.682740722 ], [ 138.68511863399999, 35.682733993 ], [ 138.685439202999987, 35.682667249 ], [ 138.68497889299999, 35.681020796 ], [ 138.686142181, 35.680814031 ], [ 138.686282436999988, 35.680792182 ], [ 138.68682671900001, 35.680728513 ], [ 138.687328760000014, 35.680695463 ], [ 138.689911247999987, 35.680640219 ], [ 138.690717137, 35.680623532 ], [ 138.690615177000012, 35.679978674 ], [ 138.690600154, 35.679979238 ], [ 138.690317125, 35.679983652 ], [ 138.69007663, 35.679988088 ], [ 138.689984168, 35.679990938 ], [ 138.689866512, 35.679991394 ], [ 138.689213631, 35.680004771 ], [ 138.688595109, 35.680018721 ], [ 138.687661964, 35.680038297 ], [ 138.687494929, 35.68004054 ], [ 138.68728680699999, 35.680046813 ], [ 138.687061026, 35.680060415 ], [ 138.686713641000011, 35.680087364 ], [ 138.686066759, 35.68016363 ], [ 138.685496822, 35.68026321 ], [ 138.684804202, 35.680388123 ], [ 138.684716758, 35.680076384 ], [ 138.684558200999987, 35.679491458 ], [ 138.684453956, 35.679127194 ], [ 138.684409351, 35.678946989 ], [ 138.68439159, 35.678861927 ], [ 138.68436993899999, 35.678719363 ], [ 138.684355966999988, 35.678600494 ], [ 138.684323678, 35.678347529 ], [ 138.684243427000013, 35.677655671 ], [ 138.684218058, 35.677432981 ], [ 138.68414243699999, 35.676784291 ], [ 138.684048526999987, 35.675963918 ], [ 138.683957875, 35.67540656 ], [ 138.68357418799999, 35.675299161 ], [ 138.68357702, 35.675329894 ], [ 138.683580240999987, 35.675337551 ], [ 138.68367888899999, 35.675962139 ], [ 138.68396304, 35.678517358 ], [ 138.68403506199999, 35.678946751 ], [ 138.684356759999986, 35.680143186 ], [ 138.683996404, 35.680198811 ], [ 138.684337711000012, 35.68141694 ], [ 138.684009561000011, 35.681500007 ], [ 138.683312742999988, 35.681726773 ], [ 138.683151691, 35.681786419 ], [ 138.68267640900001, 35.681930098 ], [ 138.681833004, 35.682265513 ], [ 138.681781126, 35.682286142 ], [ 138.681891973, 35.682448041 ], [ 138.681788508000011, 35.68256898 ], [ 138.681760129, 35.682624007 ], [ 138.681723518000013, 35.682654258 ], [ 138.681586212000013, 35.682711792 ], [ 138.681557856000012, 35.682727879 ], [ 138.681072167, 35.682816765 ], [ 138.681059957, 35.682840489 ], [ 138.681160527, 35.683196379 ], [ 138.680807393, 35.683423964 ], [ 138.680766051, 35.683463056 ], [ 138.680637523, 35.683690213 ], [ 138.68053679499999, 35.683850718 ], [ 138.680483575000011, 35.683913984 ], [ 138.680414078000013, 35.683961319 ] ] ] } },
{ "type": "Feature", "properties": { "A29_001": "19205", "A29_002": "山梨県", "A29_003": "山梨市", "A29_004": 5, "A29_005": "第一種住居地域", "A29_006": 60, "A29_007": 200, "A29_008": null }, "geometry": { "type": "Polygon", "coordinates": [ [ [ 138.684747178, 35.68846357 ], [ 138.686014285, 35.691280645 ], [ 138.686013737, 35.691282268 ], [ 138.686014951, 35.691281996 ], [ 138.686066020999988, 35.691386746 ], [ 138.686194003999987, 35.69163839 ], [ 138.686492926, 35.691561311 ], [ 138.686747107, 35.691487816 ], [ 138.68696062399999, 35.691413032 ], [ 138.687184814, 35.691319752 ], [ 138.687520677, 35.691164915 ], [ 138.687559281, 35.691324307 ], [ 138.68760475, 35.691537049 ], [ 138.687688675, 35.691987241 ], [ 138.687715555000011, 35.692094101 ], [ 138.687729667000013, 35.6921277 ], [ 138.687753061, 35.692162186 ], [ 138.688077467999989, 35.69253782 ], [ 138.688640921, 35.693213865 ], [ 138.68864829099999, 35.693199612 ], [ 138.688768409, 35.693344994 ], [ 138.688847004, 35.693452675 ], [ 138.689024718000013, 35.693842868 ], [ 138.68893735899999, 35.693860762 ], [ 138.688832854, 35.693870661 ], [ 138.687827668000011, 35.693959576 ], [ 138.687401386, 35.694010446 ], [ 138.68818, 35.695539933 ], [ 138.689126292, 35.69516294 ], [ 138.69067994299999, 35.69454152 ], [ 138.690423345, 35.694205987 ], [ 138.69033317099999, 35.694062632 ], [ 138.69022468899999, 35.693840617 ], [ 138.69009373099999, 35.693552747 ], [ 138.690000088, 35.693390649 ], [ 138.690275463, 35.693260867 ], [ 138.690634724, 35.693093997 ], [ 138.69030456499999, 35.692628603 ], [ 138.690262649, 35.692565844 ], [ 138.69022035, 35.692481452 ], [ 138.690191763, 35.692215414 ], [ 138.689911833, 35.691356402 ], [ 138.689868964999988, 35.69126435 ], [ 138.69005879299999, 35.691172922 ], [ 138.690088788, 35.691101757 ], [ 138.690019078, 35.691012812 ], [ 138.690020479999987, 35.690998478 ], [ 138.690233725000013, 35.690811649 ], [ 138.690195870999986, 35.690783766 ], [ 138.68993965300001, 35.690508983 ], [ 138.68980718099999, 35.690371824 ], [ 138.689683608, 35.690213107 ], [ 138.690595113, 35.689872483 ], [ 138.690785223, 35.689808275 ], [ 138.692750561, 35.689146244 ], [ 138.695965521, 35.690935135 ], [ 138.695705169, 35.691011183 ], [ 138.695413201, 35.691125951 ], [ 138.69550665, 35.691341226 ], [ 138.695515704, 35.691338507 ], [ 138.695635165, 35.691617556 ], [ 138.695752676000012, 35.691731659 ], [ 138.69673591899999, 35.691451443 ], [ 138.696688676, 35.691335695 ], [ 138.698377330999989, 35.692276114 ], [ 138.697774200999987, 35.692430789 ], [ 138.697332894, 35.692566088 ], [ 138.69655666599999, 35.692875625 ], [ 138.69665606800001, 35.693082867 ], [ 138.696691159000011, 35.693154108 ], [ 138.696751441, 35.693134901 ], [ 138.696769068, 35.693158578 ], [ 138.696796060999986, 35.693216582 ], [ 138.696894422000014, 35.693404716 ], [ 138.697512264000011, 35.69316349 ], [ 138.697805351, 35.693052501 ], [ 138.698443821000012, 35.692888934 ], [ 138.69906529799999, 35.69366768 ], [ 138.699236340999988, 35.693888502 ], [ 138.69975817400001, 35.69458196 ], [ 138.697452242999987, 35.695571319 ], [ 138.697283132, 35.695640641 ], [ 138.694815775, 35.696659688 ], [ 138.694089420000012, 35.696959665 ], [ 138.692783714, 35.697444715 ], [ 138.691354719, 35.697579316 ], [ 138.691143452, 35.697629317 ], [ 138.69085066299999, 35.697644655 ], [ 138.69071107799999, 35.697634871 ], [ 138.690641766, 35.697622902 ], [ 138.690497255999986, 35.697586986 ], [ 138.690309703999986, 35.697526531 ], [ 138.69013191, 35.697433791 ], [ 138.69004800499999, 35.69737236 ], [ 138.689869283, 35.697214362 ], [ 138.689063906, 35.6964903 ], [ 138.688595017000011, 35.696050358 ], [ 138.688285027, 35.696172978 ], [ 138.688288349, 35.696176038 ], [ 138.688121547, 35.696244262 ], [ 138.688005092, 35.696295641 ], [ 138.687865319999986, 35.696346336 ], [ 138.687179504999989, 35.696650354 ], [ 138.686665075, 35.696862523 ], [ 138.687525596, 35.697172247 ], [ 138.687570713000014, 35.697186328 ], [ 138.687610962, 35.697197803 ], [ 138.68769863599999, 35.697218217 ], [ 138.68778067, 35.697236477 ], [ 138.687914328, 35.69726376 ], [ 138.688904269, 35.697486561 ], [ 138.68893006, 35.697505539 ], [ 138.688943567, 35.697516154 ], [ 138.689331478000014, 35.697633083 ], [ 138.689350389999987, 35.697639993 ], [ 138.68938247, 35.697654725 ], [ 138.68949748, 35.697692492 ], [ 138.689790937, 35.697772341 ], [ 138.689865575, 35.697793496 ], [ 138.69001529499999, 35.697882855 ], [ 138.690046857, 35.69791219 ], [ 138.690077976999987, 35.697941165 ], [ 138.690428915000012, 35.698260956 ], [ 138.69064477500001, 35.698282697 ], [ 138.690830667, 35.698294481 ], [ 138.690942158000013, 35.698292682 ], [ 138.69102923, 35.698291462 ], [ 138.69119329099999, 35.698277771 ], [ 138.691577131, 35.698260395 ], [ 138.691797433, 35.698244811 ], [ 138.692089982, 35.698220909 ], [ 138.692381751, 35.698194394 ], [ 138.692629211, 35.698168219 ], [ 138.692811596000013, 35.698146745 ], [ 138.693056688000013, 35.698101284 ], [ 138.69322918200001, 35.698056299 ], [ 138.693368639, 35.6980129 ], [ 138.693546934000011, 35.697945371 ], [ 138.69365920199999, 35.697899131 ], [ 138.694602825, 35.697514528 ], [ 138.696064150000012, 35.696913109 ], [ 138.697572825, 35.696298614 ], [ 138.697792603000011, 35.696207756 ], [ 138.69970048499999, 35.695419065 ], [ 138.700225617, 35.695173651 ], [ 138.70033025, 35.695303184 ], [ 138.70049391, 35.695485168 ], [ 138.700535013, 35.695528545 ], [ 138.700585423, 35.695581822 ], [ 138.700609025, 35.695607922 ], [ 138.700628636, 35.695629342 ], [ 138.70065611199999, 35.69565805 ], [ 138.70068790799999, 35.695691167 ], [ 138.70070773899999, 35.695712046 ], [ 138.700774227000011, 35.695787469 ], [ 138.700874750999986, 35.695907814 ], [ 138.70115237600001, 35.696193084 ], [ 138.701305082, 35.696367784 ], [ 138.701334355, 35.696408116 ], [ 138.701360107999989, 35.696454583 ], [ 138.701557501, 35.696909984 ], [ 138.70157727899999, 35.696953216 ], [ 138.701659075, 35.697139301 ], [ 138.701761968, 35.697365192 ], [ 138.70186192, 35.697564316 ], [ 138.70209874299999, 35.697922212 ], [ 138.702425616, 35.697752746 ], [ 138.702172983, 35.697391453 ], [ 138.702100453000014, 35.69724366 ], [ 138.701693661, 35.696306561 ], [ 138.701583188, 35.696141346 ], [ 138.70097103, 35.695438312 ], [ 138.70040609099999, 35.69478991 ], [ 138.70022049100001, 35.694582814 ], [ 138.699413732000011, 35.693552449 ], [ 138.698953784999986, 35.692947492 ], [ 138.69871629299999, 35.692664134 ], [ 138.69859616299999, 35.692521195 ], [ 138.698789753, 35.692434615 ], [ 138.69909752699999, 35.692322066 ], [ 138.69930191, 35.692265843 ], [ 138.698301015999988, 35.691711082 ], [ 138.697103844, 35.691042882 ], [ 138.696992693999988, 35.690416614 ], [ 138.696220861, 35.689987562 ], [ 138.69569167, 35.689693586 ], [ 138.69521724099999, 35.689427281 ], [ 138.694665711, 35.68912207 ], [ 138.69375107, 35.688613282 ], [ 138.69345954100001, 35.688450783 ], [ 138.691309577, 35.687255671 ], [ 138.691822949, 35.68709405 ], [ 138.692560292, 35.686848512 ], [ 138.69261747499999, 35.68682859 ], [ 138.692406080000012, 35.686399697 ], [ 138.692344948, 35.686247734 ], [ 138.692387091, 35.686222158 ], [ 138.692276174, 35.685950482 ], [ 138.69215130399999, 35.685802857 ], [ 138.69211225, 35.685780656 ], [ 138.69198178799999, 35.685788886 ], [ 138.691913418000013, 35.685750777 ], [ 138.691800389, 35.685749425 ], [ 138.691656233, 35.68552927 ], [ 138.691581625999987, 35.685424199 ], [ 138.691528072000011, 35.685298544 ], [ 138.690866402000012, 35.685397303 ], [ 138.6907479, 35.6854166 ], [ 138.690346874999989, 35.685475824 ], [ 138.690167272999986, 35.685494405 ], [ 138.689998591, 35.685505308 ], [ 138.68973599099999, 35.685513744 ], [ 138.68931110299999, 35.685527212 ], [ 138.688620092, 35.685554257 ], [ 138.687509229999989, 35.685576093 ], [ 138.687475557, 35.68558624 ], [ 138.687415243, 35.685590841 ], [ 138.687387390999987, 35.685586197 ], [ 138.687086978999986, 35.685772347 ], [ 138.686957051, 35.685820141 ], [ 138.686868933999989, 35.68584146 ], [ 138.686770078, 35.685853151 ], [ 138.686642033999988, 35.685856053 ], [ 138.68653749500001, 35.685847022 ], [ 138.685914864000011, 35.685681412 ], [ 138.685820017999987, 35.685707338 ], [ 138.685833414, 35.686147004 ], [ 138.685786490999988, 35.686161138 ], [ 138.686012936999987, 35.686520795 ], [ 138.686283210999989, 35.687054437 ], [ 138.686357507, 35.687265513 ], [ 138.686457104, 35.687239129 ], [ 138.686483454000012, 35.687215021 ], [ 138.686504445999987, 35.687167397 ], [ 138.686960795, 35.687091064 ], [ 138.687307841, 35.687000838 ], [ 138.687445552000014, 35.686973312 ], [ 138.687761642999988, 35.686922974 ], [ 138.688537187, 35.686801609 ], [ 138.691994582, 35.688725252 ], [ 138.690039664000011, 35.689353452 ], [ 138.689502506, 35.689556566 ], [ 138.688370155, 35.690047966 ], [ 138.687756895, 35.689653855 ], [ 138.687731111, 35.689636589 ], [ 138.687720266000014, 35.689629305 ], [ 138.687683743, 35.689603312 ], [ 138.687625415000014, 35.689560679 ], [ 138.687596415, 35.68953837 ], [ 138.687575379, 35.689519925 ], [ 138.687558325999987, 35.689503907 ], [ 138.687544925, 35.689490407 ], [ 138.68752665, 35.689471417 ], [ 138.68750372, 35.689446214 ], [ 138.687358714, 35.689285816 ], [ 138.68710476699999, 35.688984163 ], [ 138.68699305199999, 35.688837414 ], [ 138.686600539000011, 35.688954119 ], [ 138.686416557, 35.688993704 ], [ 138.686271425, 35.68901493 ], [ 138.686141816, 35.688774826 ], [ 138.685852694, 35.688120159 ], [ 138.68558554099999, 35.688170056 ], [ 138.685563143, 35.688183611 ], [ 138.685535498, 35.688221241 ], [ 138.685518717, 35.688226585 ], [ 138.68535047899999, 35.688241446 ], [ 138.685152549, 35.688268792 ], [ 138.684913368, 35.688327298 ], [ 138.684948670000011, 35.688399263 ], [ 138.684747178, 35.68846357 ] ] ] } },
{ "type": "Feature", "properties": { "A29_001": "19205", "A29_002": "山梨県", "A29_003": "山梨市", "A29_004": 3, "A29_005": "第一種中高層住居専用地域", "A29_006": 60, "A29_007": 200, "A29_008": null }, "geometry": { "type": "Polygon", "coordinates": [ [ [ 138.690428915000012, 35.698260956 ], [ 138.69130689, 35.699064213 ], [ 138.691337003, 35.699087691 ], [ 138.691705629000012, 35.699129739 ], [ 138.69205851699999, 35.69942852 ], [ 138.693521398, 35.699995209 ], [ 138.693739711, 35.700023521 ], [ 138.693965604, 35.699987733 ], [ 138.694024495, 35.699984754 ], [ 138.69407443899999, 35.699983412 ], [ 138.694406105000013, 35.700138002 ], [ 138.694866819, 35.700419925 ], [ 138.695711487000011, 35.700951352 ], [ 138.696011825999989, 35.701126629 ], [ 138.696225233, 35.70100018 ], [ 138.696954303000012, 35.700624923 ], [ 138.697639091000013, 35.700264155 ], [ 138.69813120500001, 35.700012676 ], [ 138.698408175999987, 35.699854571 ], [ 138.698938192000014, 35.699560662 ], [ 138.698071486, 35.698387882 ], [ 138.698026230000011, 35.698363439 ], [ 138.697985472999989, 35.698370357 ], [ 138.69763964099999, 35.698564178 ], [ 138.69743457199999, 35.698349359 ], [ 138.69724988499999, 35.698467831 ], [ 138.696890329000013, 35.69865374 ], [ 138.696330668, 35.698935881 ], [ 138.695962517, 35.698637317 ], [ 138.695788149, 35.698503117 ], [ 138.695617271, 35.698350433 ], [ 138.695540306999987, 35.698282505 ], [ 138.695262687, 35.697632169 ], [ 138.695165589, 35.697282957 ], [ 138.694602825, 35.697514528 ], [ 138.69365920199999, 35.697899131 ], [ 138.693546934000011, 35.697945371 ], [ 138.69322918200001, 35.698056299 ], [ 138.693056688000013, 35.698101284 ], [ 138.692811596000013, 35.698146745 ], [ 138.692629211, 35.698168219 ], [ 138.692381751, 35.698194394 ], [ 138.692089982, 35.698220909 ], [ 138.691797433, 35.698244811 ], [ 138.691577131, 35.698260395 ], [ 138.69119329099999, 35.698277771 ], [ 138.69102923, 35.698291462 ], [ 138.69094193699999, 35.698292682 ], [ 138.690830667, 35.698294481 ], [ 138.69064477500001, 35.698282697 ], [ 138.690428915000012, 35.698260956 ] ] ] } },
{ "type": "Feature", "properties": { "A29_001": "19205", "A29_002": "山梨県", "A29_003": "山梨市", "A29_004": 3, "A29_005": "第一種中高層住居専用地域", "A29_006": 60, "A29_007": 200, "A29_008": null }, "geometry": { "type": "Polygon", "coordinates": [ [ [ 138.68497889299999, 35.681020796 ], [ 138.685439202999987, 35.682667249 ], [ 138.685590745000013, 35.68322325 ], [ 138.68641402, 35.683069827 ], [ 138.68661903, 35.683573013 ], [ 138.688002289, 35.683213198 ], [ 138.68926914299999, 35.682969195 ], [ 138.690375214999989, 35.682760677 ], [ 138.69113299599999, 35.682622018 ], [ 138.691044138, 35.682145515 ], [ 138.690717137, 35.680623532 ], [ 138.68991169, 35.680640218 ], [ 138.687328760000014, 35.680695463 ], [ 138.68682671900001, 35.680728513 ], [ 138.686282436999988, 35.680792182 ], [ 138.686142181, 35.680814031 ], [ 138.68558626699999, 35.680912238 ], [ 138.68497889299999, 35.681020796 ] ] ] } },
{ "type": "Feature", "properties": { "A29_001": "19205", "A29_002": "山梨県", "A29_003": "山梨市", "A29_004": 3, "A29_005": "第一種中高層住居専用地域", "A29_006": 60, "A29_007": 200, "A29_008": null }, "geometry": { "type": "Polygon", "coordinates": [ [ [ 138.686357507, 35.687265513 ], [ 138.68636184499999, 35.687277945 ], [ 138.68644575499999, 35.687631692 ], [ 138.686573103, 35.687992042 ], [ 138.686721637, 35.68834019 ], [ 138.686852311, 35.688610037 ], [ 138.686939079000012, 35.68876665 ], [ 138.68710476699999, 35.688984163 ], [ 138.687358714, 35.689285816 ], [ 138.68750372, 35.689446214 ], [ 138.68752665, 35.689471417 ], [ 138.687544925, 35.689490407 ], [ 138.687558325999987, 35.689503907 ], [ 138.687575379, 35.689519925 ], [ 138.687596415, 35.68953837 ], [ 138.687625415000014, 35.689560679 ], [ 138.687683743, 35.689603312 ], [ 138.687720266000014, 35.689629305 ], [ 138.687731111, 35.689636589 ], [ 138.687756895, 35.689653855 ], [ 138.68778953899999, 35.689674716 ], [ 138.687817645, 35.689692609 ], [ 138.688370155, 35.690047966 ], [ 138.689502506, 35.689556566 ], [ 138.690039664000011, 35.689353452 ], [ 138.691994582, 35.688725252 ], [ 138.688537187, 35.686801609 ], [ 138.687761642999988, 35.686922974 ], [ 138.687445552000014, 35.686973312 ], [ 138.687307841, 35.687000838 ], [ 138.686960795, 35.687091064 ], [ 138.686504445999987, 35.687167397 ], [ 138.686496519, 35.687179577 ], [ 138.686483454000012, 35.687215021 ], [ 138.686457104, 35.687239129 ], [ 138.686357507, 35.687265513 ] ] ] } },
{ "type": "Feature", "properties": { "A29_001": "19205", "A29_002": "山梨県", "A29_003": "山梨市", "A29_004": 3, "A29_005": "第一種中高層住居専用地域", "A29_006": 60, "A29_007": 200, "A29_008": null }, "geometry": { "type": "Polygon", "coordinates": [ [ [ 138.69344999399999, 35.694233159 ], [ 138.693631442, 35.694512922 ], [ 138.693902065, 35.694976059 ], [ 138.694034184, 35.69518929 ], [ 138.69406856099999, 35.69528541 ], [ 138.69441708, 35.695880831 ], [ 138.69455485899999, 35.696148765 ], [ 138.694855625, 35.696643309 ], [ 138.697283132, 35.695640641 ], [ 138.697452242999987, 35.695571319 ], [ 138.69975817400001, 35.69458196 ], [ 138.69906529799999, 35.69366768 ], [ 138.698443821000012, 35.692888934 ], [ 138.697805351, 35.693052501 ], [ 138.697512264000011, 35.69316349 ], [ 138.696894422000014, 35.693404716 ], [ 138.696252775, 35.693672298 ], [ 138.69578784699999, 35.69386694 ], [ 138.69523936600001, 35.694009345 ], [ 138.695148017, 35.694022022 ], [ 138.694641085, 35.694030505 ], [ 138.69419440499999, 35.694097567 ], [ 138.693627348, 35.694191141 ], [ 138.69344999399999, 35.694233159 ] ] ] } },
{ "type": "Feature", "properties": { "A29_001": "19205", "A29_002": "山梨県", "A29_003": "山梨市", "A29_004": 1, "A29_005": "第一種低層住居専用地域", "A29_006": 50, "A29_007": 80, "A29_008": null }, "geometry": { "type": "Polygon", "coordinates": [ [ [ 138.67997042799999, 35.681182163 ], [ 138.68001168699999, 35.681352189 ], [ 138.68016161700001, 35.681651309 ], [ 138.68017900699999, 35.681671474 ], [ 138.680204761999988, 35.681677204 ], [ 138.68041493199999, 35.681646063 ], [ 138.680440017, 35.681648819 ], [ 138.680453648999986, 35.681668178 ], [ 138.68048901, 35.681769529 ], [ 138.68059276299999, 35.68197128 ], [ 138.680665013, 35.682214541 ], [ 138.680684063, 35.682235515 ], [ 138.68070750699999, 35.682245304 ], [ 138.680892761, 35.682237004 ], [ 138.68092758, 35.682244974 ], [ 138.68093958, 35.682274881 ], [ 138.681072167, 35.682816765 ], [ 138.681557856000012, 35.682727879 ], [ 138.681586212000013, 35.682711792 ], [ 138.681708377, 35.682651757 ], [ 138.681760129, 35.682624007 ], [ 138.681788508000011, 35.68256898 ], [ 138.681891973, 35.682448041 ], [ 138.681781126, 35.682286142 ], [ 138.68267640900001, 35.681930098 ], [ 138.683151691, 35.681786419 ], [ 138.683312742999988, 35.681726773 ], [ 138.684009561000011, 35.681500007 ], [ 138.684337711000012, 35.68141694 ], [ 138.684183764000011, 35.68086725 ], [ 138.684154924000012, 35.680768775 ], [ 138.68415613799999, 35.680768412 ], [ 138.683996404, 35.680198811 ], [ 138.683647952, 35.680242789 ], [ 138.68295734099999, 35.680329471 ], [ 138.68253100699999, 35.680375457 ], [ 138.6819969, 35.680541848 ], [ 138.681921847000012, 35.680573148 ], [ 138.681665822000014, 35.680745787 ], [ 138.681372398, 35.680844659 ], [ 138.681086369000013, 35.680989759 ], [ 138.68095026, 35.68084286 ], [ 138.680904712, 35.680780103 ], [ 138.68045971699999, 35.680880914 ], [ 138.679987462000014, 35.680847639 ], [ 138.67997042799999, 35.681182163 ] ] ] } },
{ "type": "Feature", "properties": { "A29_001": "19205", "A29_002": "山梨県", "A29_003": "山梨市", "A29_004": 1, "A29_005": "第一種低層住居専用地域", "A29_006": 50, "A29_007": 80, "A29_008": null }, "geometry": { "type": "Polygon", "coordinates": [ [ [ 138.6760528, 35.68806666 ], [ 138.677402408, 35.688766934 ], [ 138.678557844000011, 35.68938807 ], [ 138.678459436999987, 35.688959796 ], [ 138.678428212, 35.688880522 ], [ 138.67833331599999, 35.688737706 ], [ 138.67842303399999, 35.688689079 ], [ 138.67843362, 35.688679779 ], [ 138.678441647, 35.688662371 ], [ 138.67842333499999, 35.688576408 ], [ 138.67837832, 35.688407017 ], [ 138.678359368, 35.68813312 ], [ 138.67830258699999, 35.687889384 ], [ 138.67828666599999, 35.687785389 ], [ 138.678257422, 35.68745436 ], [ 138.67823442400001, 35.687199127 ], [ 138.678229235, 35.687052031 ], [ 138.677679606999988, 35.687218425 ], [ 138.67742126600001, 35.68730705 ], [ 138.67702035100001, 35.687424368 ], [ 138.67687021399999, 35.687480564 ], [ 138.676690091000012, 35.687566909 ], [ 138.676598614999989, 35.687620314 ], [ 138.676479797000013, 35.687699899 ], [ 138.6760528, 35.68806666 ] ] ] } },
{ "type": "Feature", "properties": { "A29_001": "19205", "A29_002": "山梨県", "A29_003": "山梨市", "A29_004": 1, "A29_005": "第一種低層住居専用地域", "A29_006": 50, "A29_007": 80, "A29_008": null }, "geometry": { "type": "Polygon", "coordinates": [ [ [ 138.670091764, 35.6866508 ], [ 138.670443928, 35.686776583 ], [ 138.67126464099999, 35.68704682 ], [ 138.672189034000013, 35.687335111 ], [ 138.672865588, 35.687510178 ], [ 138.672914552, 35.687518491 ], [ 138.67321614, 35.687551317 ], [ 138.673366636, 35.68755732 ], [ 138.674268160999986, 35.687587566 ], [ 138.674914354, 35.687618447 ], [ 138.675316901, 35.687688889 ], [ 138.675605727, 35.687443837 ], [ 138.67574335899999, 35.68732781 ], [ 138.676005435, 35.687128315 ], [ 138.676254363999988, 35.686979946 ], [ 138.676462077999986, 35.686880491 ], [ 138.676872992999989, 35.686739004 ], [ 138.677373713, 35.686590172 ], [ 138.677365501, 35.686573689 ], [ 138.677096823, 35.686583549 ], [ 138.676806688, 35.686582984 ], [ 138.676655648, 35.686579871 ], [ 138.67648183099999, 35.686568949 ], [ 138.67624590599999, 35.686551448 ], [ 138.675982108999989, 35.686519835 ], [ 138.675774206, 35.686483093 ], [ 138.67570722799999, 35.686472104 ], [ 138.675633284000014, 35.686458781 ], [ 138.67556597, 35.68644599 ], [ 138.675498545000011, 35.686432297 ], [ 138.675433437, 35.68641788 ], [ 138.675375516, 35.686405436 ], [ 138.675319693, 35.686392537 ], [ 138.675288741, 35.686385011 ], [ 138.675184497, 35.686359474 ], [ 138.675137183, 35.686347194 ], [ 138.67504962699999, 35.686323615 ], [ 138.674986722, 35.686305499 ], [ 138.674912428, 35.686283433 ], [ 138.67486566, 35.686268539 ], [ 138.674811264999988, 35.686251582 ], [ 138.67476151, 35.686235069 ], [ 138.674703353000012, 35.686215774 ], [ 138.67469871, 35.686214519 ], [ 138.67456171399999, 35.686166044 ], [ 138.674314349000014, 35.686069595 ], [ 138.673968636000012, 35.685913978 ], [ 138.673550303000013, 35.685692125 ], [ 138.673179553000011, 35.685452805 ], [ 138.672792456, 35.685163391 ], [ 138.672157747, 35.684658452 ], [ 138.672102005999989, 35.684682959 ], [ 138.671942621999989, 35.684805322 ], [ 138.671862935, 35.684894581 ], [ 138.671775171, 35.68508147 ], [ 138.671695432, 35.685146753 ], [ 138.671530563, 35.685030892 ], [ 138.671459360999989, 35.685007197 ], [ 138.67114709, 35.684985378 ], [ 138.671092754999989, 35.684996091 ], [ 138.670952586, 35.685115271 ], [ 138.670872784000011, 35.685151259 ], [ 138.670806551999988, 35.685178394 ], [ 138.67070298499999, 35.685261286 ], [ 138.670647556, 35.685328697 ], [ 138.670637903999989, 35.685362062 ], [ 138.670646627, 35.685411084 ], [ 138.670664394, 35.685453062 ], [ 138.67066225100001, 35.685484433 ], [ 138.67053318, 35.68573114 ], [ 138.670540444000011, 35.685821627 ], [ 138.670514932, 35.685929737 ], [ 138.670459673000011, 35.68607764 ], [ 138.67037972899999, 35.686254872 ], [ 138.67032914699999, 35.686316237 ], [ 138.670247413999988, 35.686379989 ], [ 138.670185788, 35.686443623 ], [ 138.670130406, 35.686533567 ], [ 138.670091764, 35.6866508 ] ] ] } },
{ "type": "Feature", "properties": { "A29_001": "19205", "A29_002": "山梨県", "A29_003": "山梨市", "A29_004": 1, "A29_005": "第一種低層住居専用地域", "A29_006": 50, "A29_007": 80, "A29_008": null }, "geometry": { "type": "Polygon", "coordinates": [ [ [ 138.691309577, 35.687255671 ], [ 138.69345954100001, 35.688450783 ], [ 138.69375107, 35.688613282 ], [ 138.694207115000012, 35.688866192 ], [ 138.69466582199999, 35.68912207 ], [ 138.696220861, 35.689987562 ], [ 138.696992693999988, 35.690416614 ], [ 138.696916281999989, 35.690076563 ], [ 138.696865057999986, 35.689869963 ], [ 138.696692086000013, 35.689262995 ], [ 138.69665634099999, 35.689015087 ], [ 138.696666650999987, 35.688849489 ], [ 138.696680936, 35.688682893 ], [ 138.696896337, 35.688033917 ], [ 138.696947534, 35.687736652 ], [ 138.696946927, 35.687535107 ], [ 138.69694202, 35.687381793 ], [ 138.696930540000011, 35.687161698 ], [ 138.696930511, 35.685714101 ], [ 138.696902757, 35.685345667 ], [ 138.696847131999988, 35.685145113 ], [ 138.695937541, 35.685151555 ], [ 138.69344779, 35.685191006 ], [ 138.692017807000013, 35.685236921 ], [ 138.691528072000011, 35.685298544 ], [ 138.691581625999987, 35.685424199 ], [ 138.691656233, 35.68552927 ], [ 138.691800389, 35.685749425 ], [ 138.691913418000013, 35.685750777 ], [ 138.69198178799999, 35.685788886 ], [ 138.69211225, 35.685780656 ], [ 138.69215130399999, 35.685802857 ], [ 138.692276174, 35.685950482 ], [ 138.692387091, 35.686222158 ], [ 138.692344948, 35.686247734 ], [ 138.692406080000012, 35.686399697 ], [ 138.69261747499999, 35.68682859 ], [ 138.692560292, 35.686848512 ], [ 138.691822949, 35.68709405 ], [ 138.691309577, 35.687255671 ] ] ] } },
{ "type": "Feature", "properties": { "A29_001": "19205", "A29_002": "山梨県", "A29_003": "山梨市", "A29_004": 1, "A29_005": "第一種低層住居専用地域", "A29_006": 50, "A29_007": 80, "A29_008": null }, "geometry": { "type": "Polygon", "coordinates": [ [ [ 138.695165589, 35.697282957 ], [ 138.695262687, 35.697632169 ], [ 138.695540306999987, 35.698282505 ], [ 138.695617271, 35.698350433 ], [ 138.695788149, 35.698503117 ], [ 138.695962517, 35.698637317 ], [ 138.696330668, 35.698935881 ], [ 138.696890329000013, 35.69865374 ], [ 138.69724988499999, 35.698467831 ], [ 138.69743457199999, 35.698349359 ], [ 138.69763964099999, 35.698564178 ], [ 138.697985472999989, 35.698370357 ], [ 138.698026230000011, 35.698363439 ], [ 138.698071486, 35.698387882 ], [ 138.698938192000014, 35.699560662 ], [ 138.699381014000011, 35.699353877 ], [ 138.69943044199999, 35.699322878 ], [ 138.699612051, 35.699211529 ], [ 138.699772316, 35.699137531 ], [ 138.699961809, 35.699086019 ], [ 138.700015229, 35.699060692 ], [ 138.700181866, 35.698928275 ], [ 138.700517251, 35.698756727 ], [ 138.701054359000011, 35.698476588 ], [ 138.70160556, 35.698177945 ], [ 138.70209874299999, 35.697922212 ], [ 138.70186192, 35.697564316 ], [ 138.701761968, 35.697365192 ], [ 138.701659075, 35.697139301 ], [ 138.70157727899999, 35.696953216 ], [ 138.701557501, 35.696909984 ], [ 138.701360107999989, 35.696454583 ], [ 138.701334355, 35.696408116 ], [ 138.701305082, 35.696367784 ], [ 138.70115237600001, 35.696193084 ], [ 138.700874750999986, 35.695907814 ], [ 138.700774227000011, 35.695787469 ], [ 138.70070773899999, 35.695712046 ], [ 138.70068790799999, 35.695691167 ], [ 138.70065611199999, 35.69565805 ], [ 138.700628636, 35.695629342 ], [ 138.700609025, 35.695607922 ], [ 138.700585423, 35.695581822 ], [ 138.700535013, 35.695528545 ], [ 138.70049391, 35.695485168 ], [ 138.70033025, 35.695303184 ], [ 138.700225617, 35.695173651 ], [ 138.69970048499999, 35.695419065 ], [ 138.697792603000011, 35.696207756 ], [ 138.697572825, 35.696298614 ], [ 138.696064150000012, 35.696913109 ], [ 138.695165589, 35.697282957 ] ] ] } },
{ "type": "Feature", "properties": { "A29_001": "19205", "A29_002": "山梨県", "A29_003": "山梨市", "A29_004": 1, "A29_005": "第一種低層住居専用地域", "A29_006": 50, "A29_007": 80, "A29_008": null }, "geometry": { "type": "Polygon", "coordinates": [ [ [ 138.683957875, 35.67540656 ], [ 138.684048526999987, 35.675963918 ], [ 138.68414243699999, 35.676784291 ], [ 138.684218058, 35.677432981 ], [ 138.684243427000013, 35.677655671 ], [ 138.684323678, 35.678347529 ], [ 138.684355966999988, 35.678600494 ], [ 138.68436993899999, 35.678719363 ], [ 138.68439159, 35.678861927 ], [ 138.684409351, 35.678946989 ], [ 138.684453956, 35.679127194 ], [ 138.684558200999987, 35.679491458 ], [ 138.684716758, 35.680076384 ], [ 138.684804202, 35.680388123 ], [ 138.685496822, 35.68026321 ], [ 138.686066759, 35.68016363 ], [ 138.686713641000011, 35.680087364 ], [ 138.687061026, 35.680060415 ], [ 138.68728680699999, 35.680046813 ], [ 138.687494929, 35.68004054 ], [ 138.687661964, 35.680038297 ], [ 138.688595109, 35.680018721 ], [ 138.689213631, 35.680004771 ], [ 138.689866512, 35.679991394 ], [ 138.689984168, 35.679990938 ], [ 138.69007663, 35.679988088 ], [ 138.690317125, 35.679983652 ], [ 138.690600154, 35.679979238 ], [ 138.690948349, 35.679968501 ], [ 138.691100279000011, 35.679979257 ], [ 138.691457285000013, 35.679957597 ], [ 138.691563190000011, 35.679940393 ], [ 138.691650528, 35.679920244 ], [ 138.691898592, 35.679846928 ], [ 138.691441164, 35.679453307 ], [ 138.69062730499999, 35.678716377 ], [ 138.690405844999987, 35.678501391 ], [ 138.690165787000012, 35.678269938 ], [ 138.689683411, 35.6778302 ], [ 138.688896467, 35.6771089 ], [ 138.688375834, 35.676883742 ], [ 138.687882108999986, 35.67673101 ], [ 138.687438727999989, 35.676611549 ], [ 138.687206651999986, 35.675960851 ], [ 138.687144808999989, 35.675591836 ], [ 138.68652408, 35.675782177 ], [ 138.686208314, 35.675906695 ], [ 138.68609537099999, 35.675936164 ], [ 138.686034917, 35.67592472 ], [ 138.685815561999988, 35.675893781 ], [ 138.684871558999987, 35.675640778 ], [ 138.683957875, 35.67540656 ] ] ] } },
{ "type": "Feature", "properties": { "A29_001": "19205", "A29_002": "山梨県", "A29_003": "山梨市", "A29_004": 1, "A29_005": "第一種低層住居専用地域", "A29_006": 50, "A29_007": 80, "A29_008": null }, "geometry": { "type": "Polygon", "coordinates": [ [ [ 138.689683608, 35.690213107 ], [ 138.68980718099999, 35.690371824 ], [ 138.68993965300001, 35.690508983 ], [ 138.690195870999986, 35.690783766 ], [ 138.690233725000013, 35.690811649 ], [ 138.690020479999987, 35.690998478 ], [ 138.690019078, 35.691012812 ], [ 138.690088788, 35.691101757 ], [ 138.69005879299999, 35.691172922 ], [ 138.689868964999988, 35.69126435 ], [ 138.689911833, 35.691356402 ], [ 138.690191763, 35.692215414 ], [ 138.69022035, 35.692481452 ], [ 138.690262649, 35.692565844 ], [ 138.69030456499999, 35.692628603 ], [ 138.690653569, 35.693119566 ], [ 138.691125615, 35.69400459 ], [ 138.691349177, 35.694294115 ], [ 138.692233843, 35.693988133 ], [ 138.69314977, 35.693681104 ], [ 138.69338000799999, 35.693621784 ], [ 138.693873061, 35.69354086 ], [ 138.694583924, 35.69342587 ], [ 138.69493, 35.693428825 ], [ 138.695062244000013, 35.69342122 ], [ 138.695147287, 35.693405849 ], [ 138.695472486999989, 35.693321584 ], [ 138.695839951000011, 35.693170008 ], [ 138.696009928, 35.693094828 ], [ 138.69655666599999, 35.692875625 ], [ 138.697332894, 35.692566088 ], [ 138.697774200999987, 35.692430789 ], [ 138.698377330999989, 35.692276114 ], [ 138.696688676, 35.691335695 ], [ 138.69673591899999, 35.691451443 ], [ 138.695752676000012, 35.691731659 ], [ 138.695635165, 35.691617556 ], [ 138.695515704, 35.691338507 ], [ 138.69550665, 35.691341226 ], [ 138.695413201, 35.691125951 ], [ 138.695705169, 35.691011183 ], [ 138.695965521, 35.690935135 ], [ 138.692750561, 35.689146244 ], [ 138.690785223, 35.689808275 ], [ 138.690595113, 35.689872483 ], [ 138.689683608, 35.690213107 ] ] ] } },
{ "type": "Feature", "properties": { "A29_001": "19205", "A29_002": "山梨県", "A29_003": "山梨市", "A29_004": 6, "A29_005": "第二種住居地域", "A29_006": 60, "A29_007": 200, "A29_008": null }, "geometry": { "type": "Polygon", "coordinates": [ [ [ 138.690615177000012, 35.679978674 ], [ 138.6906578, 35.680248115 ], [ 138.69094325, 35.68023937 ], [ 138.69098809, 35.680187471 ], [ 138.690948349, 35.679968501 ], [ 138.690615177000012, 35.679978674 ] ] ] } },
{ "type": "Feature", "properties": { "A29_001": "19205", "A29_002": "山梨県", "A29_003": "山梨市", "A29_004": 6, "A29_005": "第二種住居地域", "A29_006": 60, "A29_007": 200, "A29_008": null }, "geometry": { "type": "Polygon", "coordinates": [ [ [ 138.680805453, 35.686475099 ], [ 138.68180501099999, 35.687835831 ], [ 138.682537083999989, 35.688895092 ], [ 138.683113332, 35.689834433 ], [ 138.683427692, 35.69037171 ], [ 138.683979298999986, 35.691349122 ], [ 138.68401843, 35.691404767 ], [ 138.684012095000014, 35.691628766 ], [ 138.683954916, 35.691748916 ], [ 138.683975690000011, 35.691893553 ], [ 138.68400528399999, 35.692125791 ], [ 138.684025569999989, 35.69244268 ], [ 138.684002138000011, 35.692631282 ], [ 138.683994383, 35.693822541 ], [ 138.684017345, 35.694053706 ], [ 138.684031376, 35.694148959 ], [ 138.684076690000012, 35.694345388 ], [ 138.684131345999987, 35.694520079 ], [ 138.684235906, 35.694773203 ], [ 138.684326031000012, 35.69494757 ], [ 138.684410216, 35.69508562 ], [ 138.684416618, 35.695082726 ], [ 138.684486243, 35.695183663 ], [ 138.684563809, 35.695278187 ], [ 138.684635269000012, 35.695359832 ], [ 138.684716022, 35.69544687 ], [ 138.68483741, 35.695568999 ], [ 138.684910718999987, 35.695638111 ], [ 138.685020896, 35.695738174 ], [ 138.68521342, 35.695897239 ], [ 138.685385881, 35.696028934 ], [ 138.685510724000011, 35.696115814 ], [ 138.686024256, 35.696420584 ], [ 138.686097808999989, 35.696451477 ], [ 138.686284586999989, 35.696561516 ], [ 138.686406693, 35.696657953 ], [ 138.68666518500001, 35.696862523 ], [ 138.687291655, 35.696600604 ], [ 138.687103987, 35.696347071 ], [ 138.686984876, 35.696397012 ], [ 138.68685832700001, 35.696243345 ], [ 138.686861174, 35.696185022 ], [ 138.686858543, 35.696099306 ], [ 138.686841890000011, 35.696065982 ], [ 138.68818, 35.695539933 ], [ 138.686194003999987, 35.69163839 ], [ 138.686066020999988, 35.691386746 ], [ 138.686014285, 35.691280645 ], [ 138.684747178, 35.68846357 ], [ 138.684437378000013, 35.688562384 ], [ 138.684297034, 35.688599645 ], [ 138.683982558, 35.688684044 ], [ 138.683870461999987, 35.688416869 ], [ 138.683680427000013, 35.687889589 ], [ 138.683635793, 35.687698116 ], [ 138.68357730299999, 35.687390839 ], [ 138.683543415, 35.687260012 ], [ 138.68338637, 35.686470112 ], [ 138.68319472499999, 35.686104359 ], [ 138.682904877, 35.686180154 ], [ 138.683050028, 35.68650695 ], [ 138.68267529100001, 35.68656746 ], [ 138.682643148000011, 35.686474397 ], [ 138.68232629900001, 35.686532475 ], [ 138.682248367999989, 35.686369806 ], [ 138.681728219, 35.686521932 ], [ 138.68165286199999, 35.686275973 ], [ 138.681647069, 35.686254709 ], [ 138.68107274499999, 35.686390419 ], [ 138.680805453, 35.686475099 ] ] ] } },
{ "type": "Feature", "properties": { "A29_001": "19205", "A29_002": "山梨県", "A29_003": "山梨市", "A29_004": 6, "A29_005": "第二種住居地域", "A29_006": 60, "A29_007": 200, "A29_008": null }, "geometry": { "type": "Polygon", "coordinates": [ [ [ 138.685590745000013, 35.68322325 ], [ 138.68590765799999, 35.684340097 ], [ 138.68595358499999, 35.684515883 ], [ 138.685961924999987, 35.68463413 ], [ 138.68595814, 35.684716701 ], [ 138.686880546, 35.684995057 ], [ 138.686969675, 35.685029171 ], [ 138.68704627, 35.68499489 ], [ 138.687119353000014, 35.684970619 ], [ 138.687205928, 35.684951736 ], [ 138.687375707, 35.684937771 ], [ 138.688057746, 35.684902816 ], [ 138.688393157, 35.684896884 ], [ 138.688420323, 35.684938394 ], [ 138.68848506, 35.685076292 ], [ 138.68850593, 35.685165495 ], [ 138.68859532799999, 35.68531345 ], [ 138.688620092, 35.685554257 ], [ 138.68931110299999, 35.685527212 ], [ 138.68973599099999, 35.685513744 ], [ 138.689998591, 35.685505308 ], [ 138.690167272999986, 35.685494405 ], [ 138.690346874999989, 35.685475824 ], [ 138.6907479, 35.6854166 ], [ 138.690866402000012, 35.685397303 ], [ 138.691528072000011, 35.685298544 ], [ 138.692017807000013, 35.685236921 ], [ 138.69344779, 35.685191006 ], [ 138.693730456, 35.684846589 ], [ 138.694075456, 35.684467008 ], [ 138.694328885, 35.684187175 ], [ 138.694939197, 35.683511514 ], [ 138.69609929500001, 35.682224639 ], [ 138.69606489899999, 35.682119686 ], [ 138.696036776999989, 35.681779465 ], [ 138.696546813, 35.681222399 ], [ 138.696089120000011, 35.681273982 ], [ 138.695921349, 35.681156627 ], [ 138.694682806, 35.681800861 ], [ 138.694356817, 35.681950745 ], [ 138.693992772, 35.682080137 ], [ 138.693695082, 35.682237996 ], [ 138.693614765, 35.682101387 ], [ 138.693495907, 35.681651615 ], [ 138.693380557000012, 35.681098721 ], [ 138.69331011599999, 35.680979673 ], [ 138.69321714, 35.680907352 ], [ 138.693225869, 35.680907789 ], [ 138.692332967999988, 35.680208495 ], [ 138.691898592, 35.679846928 ], [ 138.691650528, 35.679920244 ], [ 138.691563190000011, 35.679940393 ], [ 138.691457285000013, 35.679957597 ], [ 138.691100279000011, 35.679979257 ], [ 138.690948349, 35.679968501 ], [ 138.69077029799999, 35.680122647 ], [ 138.6906578, 35.680248115 ], [ 138.690717137, 35.680623532 ], [ 138.691044138, 35.682145515 ], [ 138.69113299599999, 35.682622018 ], [ 138.690375214999989, 35.682760677 ], [ 138.68926914299999, 35.682969195 ], [ 138.688002289, 35.683213198 ], [ 138.68661903, 35.683573013 ], [ 138.68641402, 35.683069827 ], [ 138.685590745000013, 35.68322325 ] ] ] } }
]
}
