{
"type": "FeatureCollection",
"name": "A29-19_06364",
"features": [
{ "type": "Feature", "properties": { "A29_001": "06364", "A29_002": "山形県", "A29_003": "真室川町", "A29_004": 8, "A29_005": "近隣商業地域", "A29_006": 80, "A29_007": 200, "A29_008": "オープンデータ公開可" }, "geometry": { "type": "Polygon", "coordinates": [ [ [ 140.251871498000014, 38.856562822 ], [ 140.25241343499999, 38.857460357 ], [ 140.252435870999989, 38.85749254 ], [ 140.252456388000013, 38.857519938 ], [ 140.252477946, 38.857546801 ], [ 140.252500429, 38.857573219 ], [ 140.253501207999989, 38.858653113 ], [ 140.253690100999989, 38.85886035 ], [ 140.253801907, 38.858982973 ], [ 140.254186827000012, 38.859413248 ], [ 140.254314832, 38.85955622 ], [ 140.25500670299999, 38.860286292 ], [ 140.25564332799999, 38.85992909 ], [ 140.254950653, 38.859198207 ], [ 140.25443030400001, 38.858616638 ], [ 140.254134399, 38.858292208 ], [ 140.25314366500001, 38.85722327 ], [ 140.25313601900001, 38.857214313 ], [ 140.25312678, 38.857202736 ], [ 140.253118003, 38.857191071 ], [ 140.25311208, 38.857182664 ], [ 140.25259493499999, 38.856324263 ], [ 140.251871498000014, 38.856562822 ] ] ] } },
{ "type": "Feature", "properties": { "A29_001": "06364", "A29_002": "山形県", "A29_003": "真室川町", "A29_004": 11, "A29_005": "工業地域", "A29_006": 60, "A29_007": 200, "A29_008": "オープンデータ公開可" }, "geometry": { "type": "Polygon", "coordinates": [ [ [ 140.25312386499999, 38.859176451 ], [ 140.253677654, 38.859697472 ], [ 140.254186827000012, 38.859413248 ], [ 140.253801907, 38.858982973 ], [ 140.253690100999989, 38.85886035 ], [ 140.25312386499999, 38.859176451 ] ] ] } },
{ "type": "Feature", "properties": { "A29_001": "06364", "A29_002": "山形県", "A29_003": "真室川町", "A29_004": 11, "A29_005": "工業地域", "A29_006": 60, "A29_007": 200, "A29_008": "オープンデータ公開可" }, "geometry": { "type": "Polygon", "coordinates": [ [ [ 140.254759079, 38.85757343 ], [ 140.254919769, 38.857663773 ], [ 140.255007266, 38.857743573 ], [ 140.25516353, 38.857896774 ], [ 140.255208571999987, 38.857926275 ], [ 140.25536417699999, 38.857990286 ], [ 140.255471835, 38.858041988 ], [ 140.255483733, 38.858052497 ], [ 140.255487663999986, 38.858065039 ], [ 140.25548758, 38.858075489 ], [ 140.255467849000013, 38.858207009 ], [ 140.255470397000011, 38.858219544 ], [ 140.25547833600001, 38.858235258 ], [ 140.255581675, 38.858322253 ], [ 140.255642832, 38.858353906 ], [ 140.25568797599999, 38.858370886 ], [ 140.255703907, 38.858381324 ], [ 140.25575691099999, 38.858437981 ], [ 140.25576221899999, 38.858437016 ], [ 140.25581970799999, 38.858267035 ], [ 140.255932438, 38.858190387 ], [ 140.25605048, 38.858140791 ], [ 140.256098406, 38.858169946 ], [ 140.256255541, 38.858258647 ], [ 140.256502673, 38.858360495 ], [ 140.256531972, 38.858370639 ], [ 140.256564403999988, 38.858378096 ], [ 140.256680612999986, 38.858398399 ], [ 140.256707897000013, 38.858401326 ], [ 140.25695896, 38.858415988 ], [ 140.256015832, 38.857282265 ], [ 140.255986613, 38.857262212 ], [ 140.255749615000013, 38.857190052 ], [ 140.255645571, 38.857175934 ], [ 140.255554816, 38.857171342 ], [ 140.25549208000001, 38.857178329 ], [ 140.255409160999989, 38.857201972 ], [ 140.255294246, 38.857249781 ], [ 140.254759079, 38.85757343 ] ] ] } },
{ "type": "Feature", "properties": { "A29_001": "06364", "A29_002": "山形県", "A29_003": "真室川町", "A29_004": 5, "A29_005": "第一種住居地域", "A29_006": 60, "A29_007": 200, "A29_008": "オープンデータ公開可" }, "geometry": { "type": "Polygon", "coordinates": [ [ [ 140.24630233799999, 38.858059176 ], [ 140.246367412000012, 38.85811824 ], [ 140.246455851, 38.858194448 ], [ 140.246546375, 38.858269314 ], [ 140.24666289699999, 38.85836323 ], [ 140.24681852399999, 38.858479864 ], [ 140.246890697999987, 38.858530405 ], [ 140.24693470599999, 38.858559183 ], [ 140.247123949000013, 38.858679408 ], [ 140.24718895699999, 38.858718652 ], [ 140.24722554499999, 38.858739015 ], [ 140.247273392000011, 38.858763399 ], [ 140.24731241500001, 38.858781972 ], [ 140.247501597, 38.858867603 ], [ 140.247575769, 38.858899415 ], [ 140.247738499, 38.858965184 ], [ 140.247823931999989, 38.859000746 ], [ 140.24810041399999, 38.859119335 ], [ 140.248351527000011, 38.859226355 ], [ 140.24848466, 38.859276299 ], [ 140.24870267, 38.859373603 ], [ 140.248720236, 38.859381348 ], [ 140.24898712000001, 38.859490337 ], [ 140.249264221, 38.859604152 ], [ 140.24959436099999, 38.859741833 ], [ 140.249727564000011, 38.859797452 ], [ 140.249926820000013, 38.859877814 ], [ 140.250087823, 38.859943841 ], [ 140.250300947999989, 38.8600331 ], [ 140.25031955099999, 38.86004085 ], [ 140.250325292000014, 38.860043311 ], [ 140.250483889, 38.860107794 ], [ 140.250592619, 38.860141128 ], [ 140.250614219999989, 38.860148623 ], [ 140.25078245899999, 38.860203514 ], [ 140.25086829599999, 38.860232409 ], [ 140.25103511899999, 38.860319725 ], [ 140.251135893, 38.860353649 ], [ 140.251191978, 38.860371405 ], [ 140.251248763, 38.860387994 ], [ 140.251305903, 38.860403503 ], [ 140.251363626999989, 38.860418025 ], [ 140.25142170699999, 38.860431287 ], [ 140.251480256, 38.86044356 ], [ 140.251539161000011, 38.860454663 ], [ 140.251598304, 38.860464687 ], [ 140.251657803, 38.860473542 ], [ 140.25171754199999, 38.860481226 ], [ 140.25177752, 38.860487831 ], [ 140.251837738, 38.860493265 ], [ 140.251897965000012, 38.860497529 ], [ 140.251958432, 38.860500712 ], [ 140.25198861199999, 38.860501853 ], [ 140.253362275, 38.8605212 ], [ 140.25335604599999, 38.860791342 ], [ 140.253547411999989, 38.860794093 ], [ 140.255500481000013, 38.860821602 ], [ 140.255827197, 38.861156721 ], [ 140.256101741, 38.861460411 ], [ 140.256266145000012, 38.861506086 ], [ 140.25633953900001, 38.861520953 ], [ 140.256379457, 38.861529078 ], [ 140.256456667, 38.861542251 ], [ 140.25651259899999, 38.861550635 ], [ 140.25672777599999, 38.861601515 ], [ 140.256819307, 38.861639173 ], [ 140.256960849, 38.861704914 ], [ 140.257085862, 38.861763006 ], [ 140.25778224699999, 38.862068321 ], [ 140.257673054, 38.861677524 ], [ 140.25753757199999, 38.861260562 ], [ 140.257305084, 38.860884923 ], [ 140.258509655000012, 38.86089815 ], [ 140.25885531599999, 38.860856968 ], [ 140.25979106599999, 38.860870302 ], [ 140.260169101, 38.860886931 ], [ 140.26054832299999, 38.860913654 ], [ 140.260732432999987, 38.860930411 ], [ 140.264031378999988, 38.861285076 ], [ 140.26378774, 38.859978159 ], [ 140.26321803799999, 38.857690219 ], [ 140.262941759, 38.857687971 ], [ 140.262888277, 38.85764717 ], [ 140.262853654, 38.85762547 ], [ 140.26283632900001, 38.857616287 ], [ 140.262797247, 38.857604745 ], [ 140.26269740399999, 38.857583808 ], [ 140.26266338100001, 38.857573462 ], [ 140.26264319, 38.857562553 ], [ 140.26262373, 38.857546602 ], [ 140.262609344999987, 38.857530046 ], [ 140.262600015, 38.857515316 ], [ 140.262590749, 38.857492569 ], [ 140.262589512, 38.857474365 ], [ 140.262590284, 38.857464189 ], [ 140.26259326499999, 38.857451681 ], [ 140.262601324, 38.857438118 ], [ 140.262612374000014, 38.857425109 ], [ 140.262648041, 38.857402671 ], [ 140.262667727, 38.857390245 ], [ 140.26268233499999, 38.857378965 ], [ 140.262696159, 38.857364889 ], [ 140.262705074, 38.857345023 ], [ 140.262711145999987, 38.857306225 ], [ 140.26270786399999, 38.857269904 ], [ 140.262702165, 38.857247804 ], [ 140.262680034, 38.857205715 ], [ 140.262648715000012, 38.857145474 ], [ 140.262646636, 38.857131771 ], [ 140.262650271000012, 38.857123861 ], [ 140.26266046399999, 38.857117154 ], [ 140.26269394900001, 38.857108219 ], [ 140.262839753, 38.857087309 ], [ 140.262855824000013, 38.857080361 ], [ 140.262867217, 38.857067624 ], [ 140.262874146, 38.857051172 ], [ 140.262876126, 38.857034155 ], [ 140.262873410999987, 38.857013512 ], [ 140.26286386000001, 38.856983105 ], [ 140.262856731, 38.856966855 ], [ 140.26284704, 38.856954105 ], [ 140.26277823699999, 38.856898546 ], [ 140.262715551000014, 38.856856259 ], [ 140.262649901, 38.856809994 ], [ 140.262641355, 38.85679806 ], [ 140.262641437000013, 38.856787791 ], [ 140.262645107999987, 38.856775377 ], [ 140.26265905599999, 38.85676013 ], [ 140.262697672, 38.856729148 ], [ 140.262773699, 38.856688079 ], [ 140.262190898, 38.856245155 ], [ 140.26428514599999, 38.854635053 ], [ 140.26370963299999, 38.854218207 ], [ 140.261532953999989, 38.855892218 ], [ 140.261347362, 38.855731224 ], [ 140.260764951, 38.855945483 ], [ 140.26001482800001, 38.856210988 ], [ 140.25996431499999, 38.85623119 ], [ 140.259919572, 38.85625034 ], [ 140.259875396000012, 38.856270573 ], [ 140.259832018999987, 38.856291891 ], [ 140.259789554, 38.856314295 ], [ 140.259748003999988, 38.856337513 ], [ 140.25970736799999, 38.856361728 ], [ 140.259667529000012, 38.856387027 ], [ 140.25962953199999, 38.856412606 ], [ 140.259464638999987, 38.85652927 ], [ 140.258698384000013, 38.857122606 ], [ 140.25868088499999, 38.857135223 ], [ 140.258668836, 38.857143452 ], [ 140.25865516799999, 38.857152303 ], [ 140.258641388, 38.857160884 ], [ 140.258627265, 38.857169192 ], [ 140.25861291199999, 38.85717732 ], [ 140.258598447999987, 38.857184996 ], [ 140.25858363899999, 38.857192581 ], [ 140.258568717, 38.857199805 ], [ 140.258553568, 38.857206757 ], [ 140.258524314, 38.857219496 ], [ 140.257957726, 38.854740199 ], [ 140.257955622999987, 38.854729558 ], [ 140.257953205, 38.854715132 ], [ 140.257951244, 38.854701159 ], [ 140.257949859, 38.854687099 ], [ 140.257948822, 38.85467286 ], [ 140.257948244, 38.854658803 ], [ 140.25794812699999, 38.854644749 ], [ 140.25794847099999, 38.854630607 ], [ 140.257949161, 38.854616557 ], [ 140.257950427, 38.854602419 ], [ 140.257952038000013, 38.854588373 ], [ 140.25795422499999, 38.854574331 ], [ 140.257956756999988, 38.854560379 ], [ 140.25795975, 38.854546431 ], [ 140.257963203, 38.854532574 ], [ 140.257967001, 38.854518809 ], [ 140.25797137399999, 38.854505047 ], [ 140.257976093, 38.854491377 ], [ 140.257981271, 38.85447798 ], [ 140.25798691, 38.854464494 ], [ 140.25799289299999, 38.854451191 ], [ 140.257999336000012, 38.85443798 ], [ 140.258006239999986, 38.854424861 ], [ 140.258013487, 38.854412014 ], [ 140.258021078000013, 38.854399259 ], [ 140.258029246, 38.854386597 ], [ 140.258037757000011, 38.854374117 ], [ 140.258046613, 38.854361728 ], [ 140.258055812, 38.854349702 ], [ 140.258072454, 38.854329063 ], [ 140.258088867999987, 38.854308064 ], [ 140.258098875, 38.854295861 ], [ 140.258109227, 38.85428375 ], [ 140.258120268999988, 38.854271733 ], [ 140.258131307000014, 38.854260256 ], [ 140.258142805, 38.854248871 ], [ 140.258154647, 38.854237668 ], [ 140.25816706399999, 38.854226649 ], [ 140.258179594000012, 38.8542159 ], [ 140.258192466, 38.854205513 ], [ 140.258205683999989, 38.854195218 ], [ 140.258219244, 38.854185285 ], [ 140.258233147999988, 38.854175534 ], [ 140.258247396, 38.854166055 ], [ 140.258261757000014, 38.854156846 ], [ 140.258276575, 38.854148001 ], [ 140.258291507, 38.854139426 ], [ 140.25830678299999, 38.854131033 ], [ 140.258322286, 38.854123001 ], [ 140.258338133, 38.854115331 ], [ 140.258354207999986, 38.854107843 ], [ 140.258370394, 38.854100806 ], [ 140.258401028, 38.854088164 ], [ 140.257872725999988, 38.853108023 ], [ 140.25779773, 38.853135671 ], [ 140.257736122000011, 38.853160412 ], [ 140.25767553899999, 38.853186599 ], [ 140.257616095, 38.853214414 ], [ 140.257557907, 38.853243766 ], [ 140.25750097400001, 38.853274476 ], [ 140.257445297, 38.853306633 ], [ 140.25739099099999, 38.853340239 ], [ 140.257338172, 38.853375203 ], [ 140.257286724000011, 38.853411525 ], [ 140.25723699400001, 38.853449116 ], [ 140.257188753, 38.853487886 ], [ 140.257142112999986, 38.853528016 ], [ 140.25709719299999, 38.853569235 ], [ 140.257054106999988, 38.853611544 ], [ 140.25701274, 38.853655032 ], [ 140.256973324, 38.853699431 ], [ 140.256936442000011, 38.853743843 ], [ 140.256916649, 38.85376942 ], [ 140.256896399999988, 38.853794455 ], [ 140.256862160999987, 38.85383978 ], [ 140.256828942, 38.853887183 ], [ 140.256797791, 38.853935316 ], [ 140.25676870800001, 38.85398418 ], [ 140.25674169199999, 38.854033865 ], [ 140.256716860000012, 38.854084192 ], [ 140.256694097, 38.854135069 ], [ 140.256673519, 38.854186588 ], [ 140.256655125, 38.854238568 ], [ 140.256638915999986, 38.854291099 ], [ 140.25662501, 38.854343822 ], [ 140.25661317399999, 38.854397005 ], [ 140.256603754999986, 38.854450471 ], [ 140.256596523000013, 38.854504217 ], [ 140.25659159599999, 38.854557885 ], [ 140.256588971000014, 38.854611835 ], [ 140.256588534, 38.854665885 ], [ 140.256590518, 38.854719768 ], [ 140.256594576999987, 38.85477357 ], [ 140.256601055, 38.854827384 ], [ 140.256609508999986, 38.854879046 ], [ 140.256616594, 38.854914666 ], [ 140.256730188, 38.855414762 ], [ 140.256611217999989, 38.85540877 ], [ 140.256461499000011, 38.855401094 ], [ 140.25636855799999, 38.855396401 ], [ 140.25587541499999, 38.855370093 ], [ 140.255788693999989, 38.85536552 ], [ 140.255604205999987, 38.855354609 ], [ 140.255365969, 38.855336765 ], [ 140.255252675, 38.855327016 ], [ 140.255203857, 38.8553229 ], [ 140.255116930000014, 38.855315353 ], [ 140.254888875, 38.855292063 ], [ 140.254711226000012, 38.85527614 ], [ 140.25453707, 38.855255728 ], [ 140.254294106, 38.855195608 ], [ 140.254104651, 38.85495927 ], [ 140.25389756199999, 38.854681224 ], [ 140.253686105000014, 38.854373878 ], [ 140.253657782, 38.854328783 ], [ 140.253496033, 38.854057898 ], [ 140.25322158099999, 38.853520785 ], [ 140.25320320099999, 38.85348583 ], [ 140.253191272, 38.853465141 ], [ 140.253178534999989, 38.853444628 ], [ 140.25316521900001, 38.853424472 ], [ 140.253151209, 38.853404583 ], [ 140.253136506, 38.853384961 ], [ 140.253121109, 38.853365696 ], [ 140.25310513299999, 38.853346788 ], [ 140.253088464, 38.853328058 ], [ 140.253071215, 38.853309864 ], [ 140.253053271999988, 38.853291938 ], [ 140.253034866, 38.853274369 ], [ 140.253015764999986, 38.853257248 ], [ 140.252996200000013, 38.853240485 ], [ 140.25297594, 38.853224078 ], [ 140.252955216, 38.85320821 ], [ 140.252934028, 38.8531927 ], [ 140.252912259999988, 38.853177637 ], [ 140.252889912, 38.853163022 ], [ 140.252867215, 38.853148856 ], [ 140.252843938000012, 38.853135227 ], [ 140.25282031099999, 38.853122047 ], [ 140.252796104, 38.853109404 ], [ 140.252771663, 38.853097211 ], [ 140.252746757000011, 38.853085556 ], [ 140.25272138599999, 38.85307435 ], [ 140.252696813999989, 38.853064138 ], [ 140.252569658999988, 38.85301675 ], [ 140.25237228, 38.852948474 ], [ 140.252170944, 38.852885133 ], [ 140.252024279000011, 38.852842693 ], [ 140.251907128999989, 38.85281184 ], [ 140.251788807, 38.852783505 ], [ 140.251749246, 38.85277466 ], [ 140.251720721, 38.852768842 ], [ 140.251690579000012, 38.852763467 ], [ 140.25166020099999, 38.852758811 ], [ 140.25162970400001, 38.852754696 ], [ 140.251599199999987, 38.852751301 ], [ 140.250783683, 38.852700664 ], [ 140.249607583999989, 38.852843531 ], [ 140.249737794999987, 38.854151173 ], [ 140.249945939000014, 38.856059727 ], [ 140.24630233799999, 38.858059176 ] ], [ [ 140.253690100999989, 38.85886035 ], [ 140.253501207999989, 38.858653113 ], [ 140.252500429, 38.857573219 ], [ 140.252477946, 38.857546801 ], [ 140.252456388000013, 38.857519938 ], [ 140.252435870999989, 38.85749254 ], [ 140.25241343499999, 38.857460357 ], [ 140.251871498000014, 38.856562822 ], [ 140.25259493499999, 38.856324263 ], [ 140.25311208, 38.857182664 ], [ 140.253118003, 38.857191071 ], [ 140.25312678, 38.857202736 ], [ 140.25313601900001, 38.857214313 ], [ 140.25314366500001, 38.85722327 ], [ 140.254134399, 38.858292208 ], [ 140.25443030400001, 38.858616638 ], [ 140.254950653, 38.859198207 ], [ 140.25564332799999, 38.85992909 ], [ 140.25500670299999, 38.860286292 ], [ 140.254314832, 38.85955622 ], [ 140.254186827000012, 38.859413248 ], [ 140.253677654, 38.859697472 ], [ 140.25312386499999, 38.859176451 ], [ 140.253690100999989, 38.85886035 ] ], [ [ 140.25605048, 38.858140791 ], [ 140.255932438, 38.858190387 ], [ 140.25581970799999, 38.858267035 ], [ 140.25576221899999, 38.858437016 ], [ 140.25575691099999, 38.858437981 ], [ 140.255703907, 38.858381324 ], [ 140.25568797599999, 38.858370886 ], [ 140.255642832, 38.858353906 ], [ 140.255581675, 38.858322253 ], [ 140.25547833600001, 38.858235258 ], [ 140.255470397000011, 38.858219544 ], [ 140.255467849000013, 38.858207009 ], [ 140.25548758, 38.858075489 ], [ 140.255487663999986, 38.858065039 ], [ 140.255483733, 38.858052497 ], [ 140.255471835, 38.858041988 ], [ 140.25536417699999, 38.857990286 ], [ 140.255208571999987, 38.857926275 ], [ 140.25516353, 38.857896774 ], [ 140.255007266, 38.857743573 ], [ 140.254919769, 38.857663773 ], [ 140.254759079, 38.85757343 ], [ 140.255294246, 38.857249781 ], [ 140.255409160999989, 38.857201972 ], [ 140.25549208000001, 38.857178329 ], [ 140.255554816, 38.857171342 ], [ 140.255645571, 38.857175934 ], [ 140.255749615000013, 38.857190052 ], [ 140.255986613, 38.857262212 ], [ 140.256015832, 38.857282265 ], [ 140.25695896, 38.858415988 ], [ 140.256707897000013, 38.858401326 ], [ 140.256680612999986, 38.858398399 ], [ 140.256564403999988, 38.858378096 ], [ 140.256531972, 38.858370639 ], [ 140.256502673, 38.858360495 ], [ 140.256255541, 38.858258647 ], [ 140.256098406, 38.858169946 ], [ 140.25605048, 38.858140791 ] ] ] } }
]
}
