{
"type": "FeatureCollection",
"name": "A29-19_06323",
"features": [
{ "type": "Feature", "properties": { "A29_001": "06323", "A29_002": "山形県", "A29_003": "朝日町", "A29_004": 6, "A29_005": "第二種住居地域", "A29_006": 60, "A29_007": 200, "A29_008": "オープンデータ公開可" }, "geometry": { "type": "Polygon", "coordinates": [ [ [ 140.15535982599999, 38.300086121 ], [ 140.155257436, 38.300016436 ], [ 140.155121347, 38.2999365 ], [ 140.154997869999988, 38.299872653 ], [ 140.15484227799999, 38.299806199 ], [ 140.154701229000011, 38.299751376 ], [ 140.15451786, 38.299698542 ], [ 140.154373813, 38.299661207 ], [ 140.15425868299999, 38.299640055 ], [ 140.15412504, 38.299627548 ], [ 140.154013572999986, 38.299619081 ], [ 140.153695610999989, 38.299604948 ], [ 140.15310148899999, 38.299579715 ], [ 140.15267566899999, 38.29956365 ], [ 140.151904392, 38.299529003 ], [ 140.150732181, 38.299482706 ], [ 140.15037359199999, 38.299466465 ], [ 140.149811817, 38.29944457 ], [ 140.149489112999987, 38.29943226 ], [ 140.1486093, 38.299395813 ], [ 140.148058463000012, 38.299375677 ], [ 140.147345015000013, 38.299348972 ], [ 140.14665471699999, 38.299323331 ], [ 140.146446126, 38.299314474 ], [ 140.146341344, 38.299310489 ], [ 140.146055149, 38.299299706 ], [ 140.14591078, 38.299296998 ], [ 140.145817173000012, 38.299299429 ], [ 140.145653307, 38.29930927 ], [ 140.14549795799999, 38.29931823 ], [ 140.145335434, 38.299336086 ], [ 140.145194914, 38.299351278 ], [ 140.145119446, 38.299359775 ], [ 140.145006384, 38.299370285 ], [ 140.14495434599999, 38.299375194 ], [ 140.145173242, 38.300519158 ], [ 140.145242712999988, 38.300868253 ], [ 140.145581674, 38.300782001 ], [ 140.14556839299999, 38.300724377 ], [ 140.14553917500001, 38.300564977 ], [ 140.145442858, 38.300078343 ], [ 140.145434467, 38.300036102 ], [ 140.145432932, 38.300028374 ], [ 140.145506051000012, 38.300018374 ], [ 140.14560943399999, 38.300006875 ], [ 140.145696926999989, 38.300001429 ], [ 140.145894102999989, 38.2999929 ], [ 140.146046573, 38.299988765 ], [ 140.146141553, 38.299991184 ], [ 140.146484074, 38.300007344 ], [ 140.146553161000014, 38.300010493 ], [ 140.14666218799999, 38.300015463 ], [ 140.146933851999989, 38.300027296 ], [ 140.148609728999986, 38.300093705 ], [ 140.150325865000013, 38.300164049 ], [ 140.150755096000012, 38.30018275 ], [ 140.150989221, 38.300190817 ], [ 140.151964862999989, 38.300232431 ], [ 140.152162368, 38.300239351 ], [ 140.15224478799999, 38.300245603 ], [ 140.152445848000013, 38.300251426 ], [ 140.15263649100001, 38.300259237 ], [ 140.152793822, 38.300265923 ], [ 140.15299061499999, 38.30027321 ], [ 140.15319236, 38.300281643 ], [ 140.153377568, 38.300289421 ], [ 140.15374516899999, 38.300302818 ], [ 140.153838603999986, 38.300306339 ], [ 140.153899765, 38.300311443 ], [ 140.15398210399999, 38.300313689 ], [ 140.154049891999989, 38.300317806 ], [ 140.154098877, 38.30032349 ], [ 140.15420942, 38.300342381 ], [ 140.154280166, 38.300358714 ], [ 140.15434473900001, 38.300378083 ], [ 140.15438903399999, 38.300392586 ], [ 140.154442479000011, 38.300414219 ], [ 140.154505769999986, 38.300444383 ], [ 140.154563166, 38.300473116 ], [ 140.15464062800001, 38.300516956 ], [ 140.154734299000012, 38.300577512 ], [ 140.154814533, 38.300640923 ], [ 140.154854945000011, 38.300679055 ], [ 140.15490372299999, 38.300732321 ], [ 140.154938423, 38.300774703 ], [ 140.15496153, 38.300805845 ], [ 140.154983226000013, 38.30083614 ], [ 140.15500452399999, 38.300871182 ], [ 140.15502346, 38.300906117 ], [ 140.155048088, 38.300951514 ], [ 140.155069166, 38.300997449 ], [ 140.15509054899999, 38.301048787 ], [ 140.155109306000014, 38.301115567 ], [ 140.15512247699999, 38.301173189 ], [ 140.155130976, 38.301224825 ], [ 140.155134499000013, 38.301328764 ], [ 140.155131788, 38.301391508 ], [ 140.155308956999988, 38.301399982 ], [ 140.155474325, 38.301406897 ], [ 140.155701857999986, 38.301412681 ], [ 140.155737799, 38.301410654 ], [ 140.155809928999986, 38.301397376 ], [ 140.155970274, 38.30136786 ], [ 140.156033374, 38.301342524 ], [ 140.156027641, 38.301221998 ], [ 140.15601369, 38.301121165 ], [ 140.155994991, 38.301022539 ], [ 140.155956370000013, 38.300880779 ], [ 140.15593564299999, 38.300822368 ], [ 140.155897006, 38.300733126 ], [ 140.15583435799999, 38.30060836 ], [ 140.155794785000012, 38.300543509 ], [ 140.15571441099999, 38.300431584 ], [ 140.155631949999986, 38.30032812 ], [ 140.155559157999988, 38.300252275 ], [ 140.155486274, 38.3001863 ], [ 140.15535982599999, 38.300086121 ] ] ] } },
{ "type": "Feature", "properties": { "A29_001": "06323", "A29_002": "山形県", "A29_003": "朝日町", "A29_004": 10, "A29_005": "準工業地域", "A29_006": 60, "A29_007": 200, "A29_008": "オープンデータ公開可" }, "geometry": { "type": "Polygon", "coordinates": [ [ [ 140.15226662, 38.301883001 ], [ 140.152242159999986, 38.301950639 ], [ 140.152148621, 38.302209293 ], [ 140.152129699999989, 38.302262571 ], [ 140.152612370000014, 38.302380838 ], [ 140.152630299, 38.302384294 ], [ 140.152745118000013, 38.302413827 ], [ 140.152919255, 38.302456181 ], [ 140.153178981, 38.302520075 ], [ 140.153385766000014, 38.302571557 ], [ 140.153605258999988, 38.302628885 ], [ 140.153680474, 38.302646469 ], [ 140.15368017899999, 38.302643946 ], [ 140.153671499000012, 38.302569511 ], [ 140.153654359, 38.302443818 ], [ 140.153646228000014, 38.302254875 ], [ 140.153909346, 38.30230885 ], [ 140.154209974, 38.302380675 ], [ 140.15422464299999, 38.302322573 ], [ 140.154236063000013, 38.302275637 ], [ 140.15426687499999, 38.302113978 ], [ 140.154277502000014, 38.302064129 ], [ 140.154291968, 38.301995493 ], [ 140.154304047000011, 38.301942021 ], [ 140.154322261, 38.301838767 ], [ 140.154347967, 38.301717864 ], [ 140.154370672999988, 38.30161445 ], [ 140.15438824, 38.301530002 ], [ 140.154405577, 38.301444807 ], [ 140.154425092, 38.301354224 ], [ 140.154441407, 38.301277218 ], [ 140.15444983099999, 38.301235551 ], [ 140.154468829, 38.301149621 ], [ 140.154488429999986, 38.301049727 ], [ 140.15450810199999, 38.300942198 ], [ 140.154524165999987, 38.300866867 ], [ 140.154350083999987, 38.30085692 ], [ 140.154218958, 38.300852995 ], [ 140.154096349000014, 38.300848002 ], [ 140.154090539, 38.300875536 ], [ 140.154083985999989, 38.300906594 ], [ 140.154073270999987, 38.30096594 ], [ 140.154060706, 38.301020806 ], [ 140.154050618000014, 38.301063581 ], [ 140.154040736000013, 38.301134851 ], [ 140.153962487, 38.301132356 ], [ 140.153933711, 38.301131438 ], [ 140.15377518299999, 38.30112605 ], [ 140.153610057, 38.301118762 ], [ 140.153525695000013, 38.3011179 ], [ 140.153524933, 38.30113309 ], [ 140.153521047999988, 38.301210617 ], [ 140.153517326000014, 38.301305575 ], [ 140.153512181, 38.30142641 ], [ 140.15350926799999, 38.301510571 ], [ 140.153428837, 38.301510786 ], [ 140.15342135099999, 38.301510806 ], [ 140.153230208999986, 38.301505415 ], [ 140.153179488, 38.301518804 ], [ 140.153110093, 38.301537123 ], [ 140.152981192999988, 38.301573063 ], [ 140.152967633, 38.301721692 ], [ 140.152946103, 38.301997401 ], [ 140.15227735900001, 38.3018533 ], [ 140.152266717, 38.301882831 ], [ 140.15226662, 38.301883001 ] ] ] } },
{ "type": "Feature", "properties": { "A29_001": "06323", "A29_002": "山形県", "A29_003": "朝日町", "A29_004": 8, "A29_005": "近隣商業地域", "A29_006": 80, "A29_007": 200, "A29_008": "オープンデータ公開可" }, "geometry": { "type": "Polygon", "coordinates": [ [ [ 140.145024524, 38.302657529 ], [ 140.145524822, 38.302454862 ], [ 140.145696405, 38.302384355 ], [ 140.145764113000013, 38.302359687 ], [ 140.145808146, 38.302484337 ], [ 140.14584967499999, 38.302591478 ], [ 140.146201733, 38.302499865 ], [ 140.146497393, 38.302424124 ], [ 140.146683101, 38.302379398 ], [ 140.146938928, 38.302317203 ], [ 140.147315364, 38.302221447 ], [ 140.147744132000014, 38.302114821 ], [ 140.148261506000011, 38.301984873 ], [ 140.14837497100001, 38.301957042 ], [ 140.14852887, 38.301919344 ], [ 140.148648705, 38.301887778 ], [ 140.14871292399999, 38.301869343 ], [ 140.148726786999987, 38.301869156 ], [ 140.148774006999986, 38.301857781 ], [ 140.148924158999989, 38.301824018 ], [ 140.148877142, 38.301822626 ], [ 140.148905117999988, 38.301813105 ], [ 140.148947505, 38.301804227 ], [ 140.14913505199999, 38.301764722 ], [ 140.149244993999986, 38.301734449 ], [ 140.149382796, 38.301707131 ], [ 140.149402234, 38.30170388 ], [ 140.149441972, 38.301697233 ], [ 140.149528043, 38.301692334 ], [ 140.149564695, 38.301690127 ], [ 140.149681472999987, 38.301686897 ], [ 140.149755004000014, 38.301688807 ], [ 140.149869172, 38.301706614 ], [ 140.149982158, 38.301729806 ], [ 140.150067529000012, 38.301749113 ], [ 140.15014840500001, 38.301768952 ], [ 140.150190622, 38.301778137 ], [ 140.15030265499999, 38.301802069 ], [ 140.15047626399999, 38.301837533 ], [ 140.150659530000013, 38.301876405 ], [ 140.150814716000014, 38.301910644 ], [ 140.150866838000013, 38.301922121 ], [ 140.150895350000013, 38.30193104 ], [ 140.151008792999988, 38.30195591 ], [ 140.15115691599999, 38.301987314 ], [ 140.151354319, 38.302030923 ], [ 140.151554318, 38.302074919 ], [ 140.151728338999987, 38.302116901 ], [ 140.151912546, 38.302156336 ], [ 140.152069153000014, 38.302190395 ], [ 140.152148621, 38.302209293 ], [ 140.152242159999986, 38.301950639 ], [ 140.15226662, 38.301883001 ], [ 140.152266717, 38.301882831 ], [ 140.15227735900001, 38.3018533 ], [ 140.152946103, 38.301997401 ], [ 140.152967633, 38.301721692 ], [ 140.152861726, 38.301699661 ], [ 140.152556034000014, 38.301636058 ], [ 140.152474928, 38.301615474 ], [ 140.15203245399999, 38.301520906 ], [ 140.151543796, 38.301411914 ], [ 140.151112181, 38.301318895 ], [ 140.150686725000014, 38.30122442 ], [ 140.150312953999986, 38.301146555 ], [ 140.150329972, 38.301011528 ], [ 140.15035867200001, 38.300823972 ], [ 140.15033977499999, 38.300822931 ], [ 140.150274594, 38.300818081 ], [ 140.15017390599999, 38.300819357 ], [ 140.150098034, 38.300820405 ], [ 140.149945393, 38.300817468 ], [ 140.149884431, 38.300816368 ], [ 140.14977118499999, 38.300808445 ], [ 140.149668574, 38.300800584 ], [ 140.149556752, 38.30079211 ], [ 140.14947447, 38.300783715 ], [ 140.149377875999988, 38.30077682 ], [ 140.149283889, 38.300769196 ], [ 140.14920925199999, 38.30076457 ], [ 140.149083850000011, 38.300755086 ], [ 140.148963192999986, 38.300743766 ], [ 140.148914107, 38.300736217 ], [ 140.148870762, 38.300733916 ], [ 140.14878229499999, 38.300729861 ], [ 140.148697746000011, 38.300723874 ], [ 140.14859264099999, 38.300717301 ], [ 140.14851658, 38.300713411 ], [ 140.14846581399999, 38.300708645 ], [ 140.148421098, 38.3007014 ], [ 140.148364969999989, 38.300688781 ], [ 140.14829187399999, 38.300671128 ], [ 140.14826439399999, 38.300665567 ], [ 140.148185430000012, 38.300656259 ], [ 140.14815543, 38.300654781 ], [ 140.148063011, 38.300656382 ], [ 140.14804112600001, 38.300658955 ], [ 140.14798800299999, 38.300666094 ], [ 140.147958888, 38.30067121 ], [ 140.147941843000012, 38.300674205 ], [ 140.14788892499999, 38.300684697 ], [ 140.147828456000013, 38.300693935 ], [ 140.147801383, 38.300695359 ], [ 140.147761264, 38.300701829 ], [ 140.14767946399999, 38.300717554 ], [ 140.147619080999988, 38.300730237 ], [ 140.147571715, 38.300740948 ], [ 140.147499375, 38.300755889 ], [ 140.147438931000011, 38.30076252 ], [ 140.14740008199999, 38.300764647 ], [ 140.147380293999987, 38.300765436 ], [ 140.147345742, 38.300770541 ], [ 140.147299597999989, 38.300776883 ], [ 140.147266553, 38.30078507 ], [ 140.147176269999989, 38.300810708 ], [ 140.147097105, 38.3008352 ], [ 140.147044591, 38.300851409 ], [ 140.147013319, 38.300861062 ], [ 140.146927844, 38.300890638 ], [ 140.146850773000011, 38.300918588 ], [ 140.146795027, 38.300940796 ], [ 140.146786897, 38.300938234 ], [ 140.14673707899999, 38.300920716 ], [ 140.146700912999989, 38.300906732 ], [ 140.146692575, 38.300903508 ], [ 140.14668325299999, 38.30090215 ], [ 140.146597394999986, 38.300909562 ], [ 140.14650584200001, 38.300919548 ], [ 140.146408724999986, 38.300930526 ], [ 140.14633301, 38.300939953 ], [ 140.146292682, 38.300945177 ], [ 140.146248418999988, 38.300950911 ], [ 140.146220346, 38.300958103 ], [ 140.14611213, 38.300993319 ], [ 140.145901559, 38.301068534 ], [ 140.145793923000014, 38.301104777 ], [ 140.145788657999987, 38.301096024 ], [ 140.145727144, 38.300993763 ], [ 140.145680363999986, 38.30091732 ], [ 140.14561987799999, 38.300815654 ], [ 140.145597772, 38.300779116 ], [ 140.145581674, 38.300782001 ], [ 140.145242712999988, 38.300868253 ], [ 140.145351667999989, 38.301351076 ], [ 140.145315581, 38.301392552 ], [ 140.145303342, 38.301407308 ], [ 140.145254101, 38.301466676 ], [ 140.14521524, 38.301471999 ], [ 140.145184996000012, 38.301476886 ], [ 140.14505444, 38.301587674 ], [ 140.145022766000011, 38.301613325 ], [ 140.144949652, 38.30167254 ], [ 140.14480900699999, 38.301775446 ], [ 140.144698812, 38.301857301 ], [ 140.144807654, 38.301968562 ], [ 140.144776661, 38.301981852 ], [ 140.144651277, 38.302035619 ], [ 140.144557111000012, 38.302071835 ], [ 140.14447523199999, 38.302099832 ], [ 140.144287146000011, 38.302154346 ], [ 140.14419546799999, 38.302177273 ], [ 140.144142219, 38.302185154 ], [ 140.144099385, 38.302191235 ], [ 140.144028357, 38.302192363 ], [ 140.144013819, 38.302192594 ], [ 140.143954538, 38.302188521 ], [ 140.143895273, 38.302176574 ], [ 140.14388981799999, 38.30218831 ], [ 140.143873963, 38.302218888 ], [ 140.143749734000011, 38.302458478 ], [ 140.14366798099999, 38.302575691 ], [ 140.144084006000014, 38.302517797 ], [ 140.144256727999988, 38.302496836 ], [ 140.144390883, 38.30265555 ], [ 140.144558167000014, 38.302848043 ], [ 140.144874995, 38.302715055 ], [ 140.145024524, 38.302657529 ] ] ] } },
{ "type": "Feature", "properties": { "A29_001": "06323", "A29_002": "山形県", "A29_003": "朝日町", "A29_004": 5, "A29_005": "第一種住居地域", "A29_006": 60, "A29_007": 200, "A29_008": "オープンデータ公開可" }, "geometry": { "type": "Polygon", "coordinates": [ [ [ 140.142955148, 38.302320069 ], [ 140.143173573000013, 38.302289508 ], [ 140.14309013799999, 38.302539874 ], [ 140.14305263, 38.302657352 ], [ 140.14323011499999, 38.302632696 ], [ 140.14354172099999, 38.30259542 ], [ 140.14366798099999, 38.302575691 ], [ 140.143749734000011, 38.302458478 ], [ 140.143873963, 38.302218888 ], [ 140.14388981799999, 38.30218831 ], [ 140.143895273, 38.302176574 ], [ 140.143954538, 38.302188521 ], [ 140.144013819, 38.302192594 ], [ 140.144028357, 38.302192363 ], [ 140.144099385, 38.302191235 ], [ 140.144142219, 38.302185154 ], [ 140.14419546799999, 38.302177273 ], [ 140.144287146000011, 38.302154346 ], [ 140.14447523199999, 38.302099832 ], [ 140.144557111000012, 38.302071835 ], [ 140.144651277, 38.302035619 ], [ 140.144776661, 38.301981852 ], [ 140.144807654, 38.301968562 ], [ 140.144698812, 38.301857301 ], [ 140.14480900699999, 38.301775446 ], [ 140.144949652, 38.30167254 ], [ 140.145022766000011, 38.301613325 ], [ 140.14505444, 38.301587674 ], [ 140.145184996000012, 38.301476886 ], [ 140.14521524, 38.301471999 ], [ 140.145254101, 38.301466676 ], [ 140.145303342, 38.301407308 ], [ 140.145315581, 38.301392552 ], [ 140.145351667999989, 38.301351076 ], [ 140.145242712999988, 38.300868253 ], [ 140.145173242, 38.300519158 ], [ 140.14495434599999, 38.299375194 ], [ 140.145006384, 38.299370285 ], [ 140.145119446, 38.299359775 ], [ 140.145194914, 38.299351278 ], [ 140.145335434, 38.299336086 ], [ 140.14549795799999, 38.29931823 ], [ 140.145653307, 38.29930927 ], [ 140.145817173000012, 38.299299429 ], [ 140.14591078, 38.299296998 ], [ 140.146055149, 38.299299706 ], [ 140.146341344, 38.299310489 ], [ 140.146446126, 38.299314474 ], [ 140.14665471699999, 38.299323331 ], [ 140.147345015000013, 38.299348972 ], [ 140.148058463000012, 38.299375677 ], [ 140.1486093, 38.299395813 ], [ 140.149489112999987, 38.29943226 ], [ 140.149811817, 38.29944457 ], [ 140.15037359199999, 38.299466465 ], [ 140.150732181, 38.299482706 ], [ 140.151904392, 38.299529003 ], [ 140.15267566899999, 38.29956365 ], [ 140.15310148899999, 38.299579715 ], [ 140.15311552, 38.299342535 ], [ 140.15313822499999, 38.298986216 ], [ 140.153151240999989, 38.298705824 ], [ 140.153172657, 38.298310389 ], [ 140.152592223999989, 38.298288212 ], [ 140.152549521999987, 38.298280515 ], [ 140.152511228, 38.29827227 ], [ 140.15250329599999, 38.298270563 ], [ 140.15227889499999, 38.29825939 ], [ 140.152090165, 38.298249727 ], [ 140.151864601999989, 38.298236498 ], [ 140.15171626, 38.298229304 ], [ 140.151523286000014, 38.298218685 ], [ 140.150445022000014, 38.298161013 ], [ 140.150349366, 38.298155241 ], [ 140.150199603, 38.29814841 ], [ 140.14954813899999, 38.298115562 ], [ 140.149492149999986, 38.298113559 ], [ 140.14945756, 38.298110285 ], [ 140.149411476000012, 38.298110482 ], [ 140.149388533, 38.298112583 ], [ 140.14935588099999, 38.298116862 ], [ 140.14910382, 38.298157294 ], [ 140.148241262999989, 38.298294077 ], [ 140.14805593599999, 38.298324654 ], [ 140.148048603, 38.298324076 ], [ 140.147763677, 38.298371046 ], [ 140.147662357, 38.298385999 ], [ 140.147550064, 38.298402849 ], [ 140.147444501, 38.298420203 ], [ 140.14734213599999, 38.298436831 ], [ 140.14725232, 38.298450832 ], [ 140.14713079500001, 38.298469303 ], [ 140.14701066500001, 38.298490111 ], [ 140.146950543, 38.298500374 ], [ 140.14690995399999, 38.298506748 ], [ 140.146857759, 38.298515847 ], [ 140.146819676, 38.298519628 ], [ 140.146694582, 38.298540592 ], [ 140.146562743, 38.298562634 ], [ 140.146343363999989, 38.29859543 ], [ 140.14614218, 38.298628333 ], [ 140.145975084000014, 38.298655102 ], [ 140.14587982, 38.298672461 ], [ 140.14551451, 38.298729889 ], [ 140.14549685899999, 38.298733031 ], [ 140.14536193699999, 38.298756171 ], [ 140.145274007000012, 38.298770554 ], [ 140.145197332, 38.298781837 ], [ 140.145097220999986, 38.298797359 ], [ 140.144952759, 38.298818197 ], [ 140.14476269, 38.298949131 ], [ 140.14467337, 38.298960526 ], [ 140.144578018, 38.298972537 ], [ 140.144478891, 38.298983967 ], [ 140.144391700999989, 38.298995001 ], [ 140.14428357, 38.299008892 ], [ 140.144191871, 38.299022042 ], [ 140.144104191999986, 38.299034842 ], [ 140.14403085699999, 38.299042699 ], [ 140.143892662000013, 38.299062 ], [ 140.143811733, 38.299073164 ], [ 140.143740154, 38.2990828 ], [ 140.143708202999989, 38.299087826 ], [ 140.14368555199999, 38.299096539 ], [ 140.143654016999989, 38.299112959 ], [ 140.143612495000013, 38.299149931 ], [ 140.143539565, 38.29921487 ], [ 140.143459044999986, 38.299282744 ], [ 140.143400946000014, 38.299328775 ], [ 140.143367528, 38.299350461 ], [ 140.14333945199999, 38.299358955 ], [ 140.143101389, 38.299388331 ], [ 140.142780355000014, 38.2994039 ], [ 140.142692415, 38.299406734 ], [ 140.142115719, 38.29932633 ], [ 140.142078217, 38.29931866 ], [ 140.142042866999986, 38.299308209 ], [ 140.142007095999986, 38.299292354 ], [ 140.141981245000011, 38.299277117 ], [ 140.141952352, 38.299258696 ], [ 140.141938352000011, 38.299239804 ], [ 140.141929355, 38.299216658 ], [ 140.141930274, 38.299194502 ], [ 140.141957391, 38.299151083 ], [ 140.141996330000012, 38.299098853 ], [ 140.142002154000011, 38.299091007 ], [ 140.142021895, 38.299052759 ], [ 140.142028642000014, 38.299001678 ], [ 140.14201661199999, 38.298978285 ], [ 140.14201356, 38.298972351 ], [ 140.141990174, 38.298946326 ], [ 140.14196951, 38.298932423 ], [ 140.141931597, 38.298918232 ], [ 140.141889604, 38.298910536 ], [ 140.14184379, 38.2989071 ], [ 140.141774801999986, 38.298905203 ], [ 140.141712589, 38.298911541 ], [ 140.141670199, 38.298920789 ], [ 140.14162061799999, 38.298940796 ], [ 140.141584453, 38.298962101 ], [ 140.14155278699999, 38.298991237 ], [ 140.14152509199999, 38.299036971 ], [ 140.14148266699999, 38.299120778 ], [ 140.141430363000012, 38.299283248 ], [ 140.141412572, 38.299351468 ], [ 140.141395518, 38.299443592 ], [ 140.141396527000012, 38.299494406 ], [ 140.14139556399999, 38.299600713 ], [ 140.14140513000001, 38.299731749 ], [ 140.141423957, 38.299899321 ], [ 140.14142782, 38.29995193 ], [ 140.141419275, 38.30001014 ], [ 140.141402021, 38.300035303 ], [ 140.141377102, 38.300071285 ], [ 140.141347681000013, 38.300108358 ], [ 140.141059078000012, 38.300406431 ], [ 140.140852795, 38.300632291 ], [ 140.140810138, 38.300694428 ], [ 140.140788327, 38.300726517 ], [ 140.14076402500001, 38.300790227 ], [ 140.140673279999987, 38.301074399 ], [ 140.140580884, 38.301391821 ], [ 140.14049835099999, 38.301702943 ], [ 140.140606322, 38.301910258 ], [ 140.140622459000014, 38.302052449 ], [ 140.140622597, 38.302087648 ], [ 140.140434058000011, 38.302653242 ], [ 140.14043766099999, 38.30279629 ], [ 140.140440160999987, 38.302858353 ], [ 140.140461291, 38.302848235 ], [ 140.14062006, 38.302778776 ], [ 140.140783277999986, 38.302713627 ], [ 140.14093479600001, 38.302661073 ], [ 140.141108300000013, 38.302607717 ], [ 140.141242629, 38.302573311 ], [ 140.141419101, 38.30253096 ], [ 140.141505069, 38.302512099 ], [ 140.141525873, 38.302511477 ], [ 140.14160471400001, 38.302496484 ], [ 140.141823374000012, 38.3024663 ], [ 140.141951129, 38.302452154 ], [ 140.142175709000014, 38.302420701 ], [ 140.14240214, 38.302393355 ], [ 140.142599969, 38.302366585 ], [ 140.142785709, 38.302343654 ], [ 140.142955148, 38.302320069 ] ] ] } },
{ "type": "Feature", "properties": { "A29_001": "06323", "A29_002": "山形県", "A29_003": "朝日町", "A29_004": 10, "A29_005": "準工業地域", "A29_006": 60, "A29_007": 200, "A29_008": "オープンデータ公開可" }, "geometry": { "type": "Polygon", "coordinates": [ [ [ 140.141610407, 38.303128965 ], [ 140.141779902, 38.303096228 ], [ 140.14178606199999, 38.303094742 ], [ 140.14201149499999, 38.3030641 ], [ 140.142298547, 38.303024447 ], [ 140.142542249, 38.302995341 ], [ 140.142771326, 38.302963354 ], [ 140.142823596999989, 38.302959005 ], [ 140.143001561, 38.302933794 ], [ 140.14317171, 38.302910213 ], [ 140.143269030999988, 38.302840575 ], [ 140.143343595, 38.302778253 ], [ 140.143381753999989, 38.302744164 ], [ 140.143452488, 38.302684474 ], [ 140.143541405, 38.302603799 ], [ 140.14354172099999, 38.30259542 ], [ 140.14323011499999, 38.302632696 ], [ 140.14305263, 38.302657352 ], [ 140.14309013799999, 38.302539874 ], [ 140.143173573000013, 38.302289508 ], [ 140.142955148, 38.302320069 ], [ 140.142785709, 38.302343654 ], [ 140.142599969, 38.302366585 ], [ 140.14240214, 38.302393355 ], [ 140.142175709000014, 38.302420701 ], [ 140.141951129, 38.302452154 ], [ 140.141823374000012, 38.3024663 ], [ 140.14160471400001, 38.302496484 ], [ 140.141525873, 38.302511477 ], [ 140.141505069, 38.302512099 ], [ 140.141419101, 38.30253096 ], [ 140.141242629, 38.302573311 ], [ 140.141108300000013, 38.302607717 ], [ 140.14093479600001, 38.302661073 ], [ 140.140783277999986, 38.302713627 ], [ 140.14062006, 38.302778776 ], [ 140.140461291, 38.302848235 ], [ 140.140440160999987, 38.302858353 ], [ 140.140442412, 38.302967652 ], [ 140.140451197, 38.303275766 ], [ 140.140573115, 38.3032046 ], [ 140.140636969000013, 38.30317518 ], [ 140.140798877, 38.303098849 ], [ 140.14080220299999, 38.303151986 ], [ 140.14080339099999, 38.303170948 ], [ 140.140804653, 38.303173937 ], [ 140.140813560999987, 38.303195032 ], [ 140.140822621000012, 38.303211474 ], [ 140.14081787, 38.303313502 ], [ 140.140812068, 38.303401742 ], [ 140.140869525999989, 38.30337396 ], [ 140.140971323, 38.303330983 ], [ 140.141100376999987, 38.303279785 ], [ 140.141237190999988, 38.303232731 ], [ 140.141443887, 38.303168396 ], [ 140.141610407, 38.303128965 ] ] ] } },
{ "type": "Feature", "properties": { "A29_001": "06323", "A29_002": "山形県", "A29_003": "朝日町", "A29_004": 5, "A29_005": "第一種住居地域", "A29_006": 60, "A29_007": 200, "A29_008": "オープンデータ公開可" }, "geometry": { "type": "Polygon", "coordinates": [ [ [ 140.15719615399999, 38.303212373 ], [ 140.156988498, 38.303144759 ], [ 140.157017883, 38.303040878 ], [ 140.15705348099999, 38.302923198 ], [ 140.157101753, 38.302764061 ], [ 140.157102336, 38.302726631 ], [ 140.157100888, 38.302704461 ], [ 140.157086881999987, 38.302660243 ], [ 140.157076729000011, 38.302633739 ], [ 140.157038938, 38.302580445 ], [ 140.157008315000013, 38.302544139 ], [ 140.156983172999986, 38.302515687 ], [ 140.156899374, 38.302428605 ], [ 140.15684079, 38.302374818 ], [ 140.15676904099999, 38.302313506 ], [ 140.156687194999989, 38.302245245 ], [ 140.156601556999988, 38.30217808 ], [ 140.15654342, 38.302127089 ], [ 140.15650666499999, 38.302089444 ], [ 140.156476321000014, 38.30204867 ], [ 140.15645284499999, 38.30200626 ], [ 140.156443435, 38.301976222 ], [ 140.156428936999987, 38.301908722 ], [ 140.156419494, 38.301856708 ], [ 140.156415122, 38.301818505 ], [ 140.156409991, 38.301760371 ], [ 140.15640871799999, 38.301693878 ], [ 140.156411705000011, 38.301652179 ], [ 140.156419534, 38.301572703 ], [ 140.156428815, 38.301463996 ], [ 140.156453613999986, 38.30121142 ], [ 140.156356714999987, 38.30123575 ], [ 140.156346305999989, 38.301238364 ], [ 140.15625734299999, 38.301264907 ], [ 140.156149132, 38.301297193 ], [ 140.156093985000012, 38.301318664 ], [ 140.156033374, 38.301342524 ], [ 140.155970274, 38.30136786 ], [ 140.155809928999986, 38.301397376 ], [ 140.155737799, 38.301410654 ], [ 140.155701857999986, 38.301412681 ], [ 140.155474325, 38.301406897 ], [ 140.155308956999988, 38.301399982 ], [ 140.155131788, 38.301391508 ], [ 140.155134499000013, 38.301328764 ], [ 140.155130976, 38.301224825 ], [ 140.15512247699999, 38.301173189 ], [ 140.155109306000014, 38.301115567 ], [ 140.15509054899999, 38.301048787 ], [ 140.155069166, 38.300997449 ], [ 140.155048088, 38.300951514 ], [ 140.15502346, 38.300906117 ], [ 140.15500452399999, 38.300871182 ], [ 140.154983226000013, 38.30083614 ], [ 140.15496153, 38.300805845 ], [ 140.154938423, 38.300774703 ], [ 140.15490372299999, 38.300732321 ], [ 140.154854945000011, 38.300679055 ], [ 140.154814533, 38.300640923 ], [ 140.154734299000012, 38.300577512 ], [ 140.15464062800001, 38.300516956 ], [ 140.154563166, 38.300473116 ], [ 140.154505769999986, 38.300444383 ], [ 140.154442479000011, 38.300414219 ], [ 140.15438903399999, 38.300392586 ], [ 140.15434473900001, 38.300378083 ], [ 140.154280166, 38.300358714 ], [ 140.15420942, 38.300342381 ], [ 140.154098877, 38.30032349 ], [ 140.154049891999989, 38.300317806 ], [ 140.15398210399999, 38.300313689 ], [ 140.153899765, 38.300311443 ], [ 140.153838603999986, 38.300306339 ], [ 140.15374516899999, 38.300302818 ], [ 140.153377568, 38.300289421 ], [ 140.15319236, 38.300281643 ], [ 140.15299061499999, 38.30027321 ], [ 140.152793822, 38.300265923 ], [ 140.15263649100001, 38.300259237 ], [ 140.152445848000013, 38.300251426 ], [ 140.15224478799999, 38.300245603 ], [ 140.152162368, 38.300239351 ], [ 140.151964862999989, 38.300232431 ], [ 140.150989221, 38.300190817 ], [ 140.150755096000012, 38.30018275 ], [ 140.150325865000013, 38.300164049 ], [ 140.148609728999986, 38.300093705 ], [ 140.146933851999989, 38.300027296 ], [ 140.14666218799999, 38.300015463 ], [ 140.146553161000014, 38.300010493 ], [ 140.146484074, 38.300007344 ], [ 140.146141553, 38.299991184 ], [ 140.146046573, 38.299988765 ], [ 140.145894102999989, 38.2999929 ], [ 140.145696926999989, 38.300001429 ], [ 140.14560943399999, 38.300006875 ], [ 140.145506051000012, 38.300018374 ], [ 140.145432932, 38.300028374 ], [ 140.145434467, 38.300036102 ], [ 140.145442858, 38.300078343 ], [ 140.14553917500001, 38.300564977 ], [ 140.14556839299999, 38.300724377 ], [ 140.145581674, 38.300782001 ], [ 140.145597772, 38.300779116 ], [ 140.14561987799999, 38.300815654 ], [ 140.145680363999986, 38.30091732 ], [ 140.145727144, 38.300993763 ], [ 140.145788657999987, 38.301096024 ], [ 140.145793923000014, 38.301104777 ], [ 140.145901559, 38.301068534 ], [ 140.14611213, 38.300993319 ], [ 140.146220346, 38.300958103 ], [ 140.146248418999988, 38.300950911 ], [ 140.146292682, 38.300945177 ], [ 140.14633301, 38.300939953 ], [ 140.146408724999986, 38.300930526 ], [ 140.14650584200001, 38.300919548 ], [ 140.146597394999986, 38.300909562 ], [ 140.14668325299999, 38.30090215 ], [ 140.146692575, 38.300903508 ], [ 140.146700912999989, 38.300906732 ], [ 140.14673707899999, 38.300920716 ], [ 140.146786897, 38.300938234 ], [ 140.146795027, 38.300940796 ], [ 140.146850773000011, 38.300918588 ], [ 140.146927844, 38.300890638 ], [ 140.147013319, 38.300861062 ], [ 140.147044591, 38.300851409 ], [ 140.147097105, 38.3008352 ], [ 140.147176269999989, 38.300810708 ], [ 140.147266553, 38.30078507 ], [ 140.147299597999989, 38.300776883 ], [ 140.147345742, 38.300770541 ], [ 140.147380293999987, 38.300765436 ], [ 140.14740008199999, 38.300764647 ], [ 140.147438931000011, 38.30076252 ], [ 140.147499375, 38.300755889 ], [ 140.147571715, 38.300740948 ], [ 140.147619080999988, 38.300730237 ], [ 140.14767946399999, 38.300717554 ], [ 140.147761264, 38.300701829 ], [ 140.147801383, 38.300695359 ], [ 140.147828456000013, 38.300693935 ], [ 140.14788892499999, 38.300684697 ], [ 140.147941843000012, 38.300674205 ], [ 140.147958888, 38.30067121 ], [ 140.14798800299999, 38.300666094 ], [ 140.14804112600001, 38.300658955 ], [ 140.148063011, 38.300656382 ], [ 140.14815543, 38.300654781 ], [ 140.148185430000012, 38.300656259 ], [ 140.14826439399999, 38.300665567 ], [ 140.14829187399999, 38.300671128 ], [ 140.148364969999989, 38.300688781 ], [ 140.148421098, 38.3007014 ], [ 140.14846581399999, 38.300708645 ], [ 140.14851658, 38.300713411 ], [ 140.14859264099999, 38.300717301 ], [ 140.148697746000011, 38.300723874 ], [ 140.14878229499999, 38.300729861 ], [ 140.148870762, 38.300733916 ], [ 140.148914107, 38.300736217 ], [ 140.148963192999986, 38.300743766 ], [ 140.149083850000011, 38.300755086 ], [ 140.14920925199999, 38.30076457 ], [ 140.149283889, 38.300769196 ], [ 140.149377875999988, 38.30077682 ], [ 140.14947447, 38.300783715 ], [ 140.149556752, 38.30079211 ], [ 140.149668574, 38.300800584 ], [ 140.14977118499999, 38.300808445 ], [ 140.149884431, 38.300816368 ], [ 140.149945393, 38.300817468 ], [ 140.150098034, 38.300820405 ], [ 140.15017390599999, 38.300819357 ], [ 140.150274594, 38.300818081 ], [ 140.15033977499999, 38.300822931 ], [ 140.15035867200001, 38.300823972 ], [ 140.150329972, 38.301011528 ], [ 140.150312953999986, 38.301146555 ], [ 140.150686725000014, 38.30122442 ], [ 140.151112181, 38.301318895 ], [ 140.151543796, 38.301411914 ], [ 140.15203245399999, 38.301520906 ], [ 140.152474928, 38.301615474 ], [ 140.152556034000014, 38.301636058 ], [ 140.152861726, 38.301699661 ], [ 140.152967633, 38.301721692 ], [ 140.152981192999988, 38.301573063 ], [ 140.153110093, 38.301537123 ], [ 140.153179488, 38.301518804 ], [ 140.153230208999986, 38.301505415 ], [ 140.15342135099999, 38.301510806 ], [ 140.153428837, 38.301510786 ], [ 140.15350926799999, 38.301510571 ], [ 140.153512181, 38.30142641 ], [ 140.153517326000014, 38.301305575 ], [ 140.153521047999988, 38.301210617 ], [ 140.153524933, 38.30113309 ], [ 140.153525695000013, 38.3011179 ], [ 140.153610057, 38.301118762 ], [ 140.15377518299999, 38.30112605 ], [ 140.153933711, 38.301131438 ], [ 140.153962487, 38.301132356 ], [ 140.154040736000013, 38.301134851 ], [ 140.154050618000014, 38.301063581 ], [ 140.154060706, 38.301020806 ], [ 140.154073270999987, 38.30096594 ], [ 140.154083985999989, 38.300906594 ], [ 140.154090539, 38.300875536 ], [ 140.154096349000014, 38.300848002 ], [ 140.154218958, 38.300852995 ], [ 140.154350083999987, 38.30085692 ], [ 140.154524165999987, 38.300866867 ], [ 140.15450810199999, 38.300942198 ], [ 140.154488429999986, 38.301049727 ], [ 140.154468829, 38.301149621 ], [ 140.15444983099999, 38.301235551 ], [ 140.154441407, 38.301277218 ], [ 140.154425092, 38.301354224 ], [ 140.154405577, 38.301444807 ], [ 140.15438824, 38.301530002 ], [ 140.154370672999988, 38.30161445 ], [ 140.154347967, 38.301717864 ], [ 140.154322261, 38.301838767 ], [ 140.154304047000011, 38.301942021 ], [ 140.154291968, 38.301995493 ], [ 140.154277502000014, 38.302064129 ], [ 140.15426687499999, 38.302113978 ], [ 140.154236063000013, 38.302275637 ], [ 140.15422464299999, 38.302322573 ], [ 140.154209974, 38.302380675 ], [ 140.153909346, 38.30230885 ], [ 140.153646228000014, 38.302254875 ], [ 140.153654359, 38.302443818 ], [ 140.153671499000012, 38.302569511 ], [ 140.15368017899999, 38.302643946 ], [ 140.153680474, 38.302646469 ], [ 140.153768361, 38.303230839 ], [ 140.154187764, 38.303184827 ], [ 140.15424072799999, 38.303182154 ], [ 140.15448654, 38.303179852 ], [ 140.154608303, 38.303199925 ], [ 140.154774481, 38.303221744 ], [ 140.15484342799999, 38.303228475 ], [ 140.154910496000014, 38.303234078 ], [ 140.15504111199999, 38.303242469 ], [ 140.155103722, 38.303244507 ], [ 140.155136062, 38.303248605 ], [ 140.155201611, 38.303252586 ], [ 140.155299551000013, 38.303256163 ], [ 140.155293269999987, 38.303771265 ], [ 140.15548551099999, 38.303776335 ], [ 140.155539903, 38.303771563 ], [ 140.155569686, 38.303761767 ], [ 140.15607179599999, 38.303596615 ], [ 140.156271212, 38.303545733 ], [ 140.156451742, 38.303498354 ], [ 140.156491748, 38.303470608 ], [ 140.156500743, 38.30346437 ], [ 140.156533932, 38.303453387 ], [ 140.156701284, 38.3034253 ], [ 140.15675206200001, 38.303403972 ], [ 140.156837809, 38.303357368 ], [ 140.15688863, 38.303331029 ], [ 140.156918467, 38.30331202 ], [ 140.156940036, 38.303305253 ], [ 140.156967872, 38.303298151 ], [ 140.157014078, 38.303285195 ], [ 140.157229605999987, 38.303222838 ], [ 140.15723094399999, 38.303219749 ], [ 140.15719615399999, 38.303212373 ] ] ] } },
{ "type": "Feature", "properties": { "A29_001": "06323", "A29_002": "山形県", "A29_003": "朝日町", "A29_004": 5, "A29_005": "第一種住居地域", "A29_006": 60, "A29_007": 200, "A29_008": "オープンデータ公開可" }, "geometry": { "type": "Polygon", "coordinates": [ [ [ 140.15044080199999, 38.30372432 ], [ 140.150784684, 38.303602084 ], [ 140.151131424999988, 38.303492753 ], [ 140.15127168399999, 38.303228559 ], [ 140.151339562, 38.303097101 ], [ 140.151382412, 38.303013545 ], [ 140.151428646, 38.302922 ], [ 140.151485017, 38.302807795 ], [ 140.15154688699999, 38.302686917 ], [ 140.151576688, 38.302628198 ], [ 140.151588541, 38.302604844 ], [ 140.151696872, 38.302620558 ], [ 140.15191352299999, 38.302653104 ], [ 140.152112695, 38.302684617 ], [ 140.152270337, 38.302709184 ], [ 140.15240369599999, 38.302730383 ], [ 140.152413816, 38.302731992 ], [ 140.152454412999987, 38.302661832 ], [ 140.152518336000014, 38.3025486 ], [ 140.152612370000014, 38.302380838 ], [ 140.152129699999989, 38.302262571 ], [ 140.152148621, 38.302209293 ], [ 140.152069153000014, 38.302190395 ], [ 140.151912546, 38.302156336 ], [ 140.151728338999987, 38.302116901 ], [ 140.151554318, 38.302074919 ], [ 140.151354319, 38.302030923 ], [ 140.15115691599999, 38.301987314 ], [ 140.151008792999988, 38.30195591 ], [ 140.150895350000013, 38.30193104 ], [ 140.150866838000013, 38.301922121 ], [ 140.150814716000014, 38.301910644 ], [ 140.150659530000013, 38.301876405 ], [ 140.15047626399999, 38.301837533 ], [ 140.15030265499999, 38.301802069 ], [ 140.150190622, 38.301778137 ], [ 140.15014840500001, 38.301768952 ], [ 140.150067529000012, 38.301749113 ], [ 140.149982158, 38.301729806 ], [ 140.149869172, 38.301706614 ], [ 140.149755004000014, 38.301688807 ], [ 140.149681472999987, 38.301686897 ], [ 140.149564695, 38.301690127 ], [ 140.149528043, 38.301692334 ], [ 140.149441972, 38.301697233 ], [ 140.149402234, 38.30170388 ], [ 140.149382796, 38.301707131 ], [ 140.149244993999986, 38.301734449 ], [ 140.14913505199999, 38.301764722 ], [ 140.148947505, 38.301804227 ], [ 140.148905117999988, 38.301813105 ], [ 140.148877142, 38.301822626 ], [ 140.148924158999989, 38.301824018 ], [ 140.148774006999986, 38.301857781 ], [ 140.148726786999987, 38.301869156 ], [ 140.14871292399999, 38.301869343 ], [ 140.148648705, 38.301887778 ], [ 140.14852887, 38.301919344 ], [ 140.14837497100001, 38.301957042 ], [ 140.148261506000011, 38.301984873 ], [ 140.147744132000014, 38.302114821 ], [ 140.147315364, 38.302221447 ], [ 140.146938928, 38.302317203 ], [ 140.146683101, 38.302379398 ], [ 140.146497393, 38.302424124 ], [ 140.146201733, 38.302499865 ], [ 140.14584967499999, 38.302591478 ], [ 140.145751385000011, 38.302670225 ], [ 140.145713298, 38.302699203 ], [ 140.145590914, 38.302765232 ], [ 140.145505227, 38.302805373 ], [ 140.14543347, 38.302844046 ], [ 140.145395708, 38.302870523 ], [ 140.145360936, 38.302900832 ], [ 140.145317021000011, 38.302938238 ], [ 140.145283436, 38.302970937 ], [ 140.145263405, 38.302993824 ], [ 140.145254959999988, 38.303007183 ], [ 140.145251058000014, 38.303019973 ], [ 140.145250065, 38.303044997 ], [ 140.145250272, 38.303063174 ], [ 140.145259157999988, 38.303083191 ], [ 140.14533865199999, 38.303223174 ], [ 140.145414726000013, 38.303368078 ], [ 140.14543367600001, 38.303411574 ], [ 140.145446558, 38.303456942 ], [ 140.145459319, 38.303515181 ], [ 140.145466516999988, 38.303585783 ], [ 140.145473935000012, 38.303675116 ], [ 140.145471484000012, 38.303718471 ], [ 140.145555943, 38.303709282 ], [ 140.1455886, 38.303704817 ], [ 140.14562411, 38.303698508 ], [ 140.14577317199999, 38.303655617 ], [ 140.145906811, 38.303619153 ], [ 140.145922178, 38.303618685 ], [ 140.145976628999989, 38.303608761 ], [ 140.146079805999989, 38.303594653 ], [ 140.146213272000011, 38.303576439 ], [ 140.146314604, 38.303557478 ], [ 140.14633518299999, 38.30355555 ], [ 140.14644106599999, 38.303530097 ], [ 140.146610899, 38.303489934 ], [ 140.146693524, 38.303474774 ], [ 140.146793084, 38.30346828 ], [ 140.14689284100001, 38.303465884 ], [ 140.147010137, 38.30345819 ], [ 140.147031236, 38.303639425 ], [ 140.147113638, 38.303622774 ], [ 140.147222964, 38.303608142 ], [ 140.147240771000014, 38.303624635 ], [ 140.147283249, 38.303681498 ], [ 140.147319476, 38.303724544 ], [ 140.147338194000014, 38.30374458 ], [ 140.147362141, 38.303761481 ], [ 140.147389669, 38.303774679 ], [ 140.14741652, 38.303784334 ], [ 140.147444127, 38.303789151 ], [ 140.147485216, 38.303792743 ], [ 140.14757577899999, 38.303787872 ], [ 140.14765881, 38.303779791 ], [ 140.148114955000011, 38.303728448 ], [ 140.14816014499999, 38.303723125 ], [ 140.148248934, 38.303705952 ], [ 140.148540825999987, 38.303654207 ], [ 140.148666561, 38.303653824 ], [ 140.148750874, 38.303658199 ], [ 140.148910295, 38.303671635 ], [ 140.149064807, 38.303677378 ], [ 140.149260657000013, 38.303685225 ], [ 140.149389265999986, 38.303706088 ], [ 140.149759671999988, 38.303774919 ], [ 140.149882805, 38.303800033 ], [ 140.150049349999989, 38.303833035 ], [ 140.150061394, 38.303834036 ], [ 140.150250375000013, 38.303793234 ], [ 140.15044080199999, 38.30372432 ] ] ] } },
{ "type": "Feature", "properties": { "A29_001": "06323", "A29_002": "山形県", "A29_003": "朝日町", "A29_004": 10, "A29_005": "準工業地域", "A29_006": 60, "A29_007": 200, "A29_008": "オープンデータ公開可" }, "geometry": { "type": "Polygon", "coordinates": [ [ [ 140.14929379899999, 38.306607994 ], [ 140.149420357, 38.306584388 ], [ 140.149593513000013, 38.306567749 ], [ 140.15, 38.306491058 ], [ 140.150041316999989, 38.306483263 ], [ 140.150372309, 38.306420815 ], [ 140.150498809, 38.306393891 ], [ 140.150600736, 38.306376898 ], [ 140.150736763, 38.306350686 ], [ 140.15101285599999, 38.306302336 ], [ 140.151235644, 38.30626117 ], [ 140.151614204, 38.306192602 ], [ 140.151716437, 38.306178577 ], [ 140.151826898, 38.306156685 ], [ 140.151964329, 38.306131876 ], [ 140.15204873499999, 38.306116071 ], [ 140.152152758, 38.3061001 ], [ 140.15214304700001, 38.306089708 ], [ 140.15206810699999, 38.306015897 ], [ 140.152006924, 38.305955714 ], [ 140.151959733000012, 38.305909534 ], [ 140.15182194499999, 38.305770455 ], [ 140.15177673, 38.305727731 ], [ 140.151689604000012, 38.305642861 ], [ 140.151602962999988, 38.305556691 ], [ 140.151518629, 38.305476493 ], [ 140.15151197099999, 38.305455596 ], [ 140.151491738, 38.305369997 ], [ 140.15146714, 38.305270964 ], [ 140.15144232599999, 38.305169696 ], [ 140.151422776, 38.305086894 ], [ 140.151405307, 38.305008947 ], [ 140.151398409, 38.304988422 ], [ 140.151283842, 38.304982169 ], [ 140.15114921899999, 38.30497226 ], [ 140.151024521000011, 38.304962596 ], [ 140.150915406, 38.304954512 ], [ 140.150817194000012, 38.304955803 ], [ 140.150677003, 38.304960015 ], [ 140.150589128, 38.304967884 ], [ 140.150498405, 38.30497704 ], [ 140.15037987, 38.304990597 ], [ 140.150231823000013, 38.305000909 ], [ 140.150148314, 38.305009362 ], [ 140.150029518, 38.305025617 ], [ 140.149934374999987, 38.305039775 ], [ 140.149734817, 38.305073997 ], [ 140.14956887299999, 38.305102454 ], [ 140.14944723, 38.30511981 ], [ 140.149387151000013, 38.30512486 ], [ 140.149229549000012, 38.305145917 ], [ 140.149044729, 38.305171098 ], [ 140.148994339000012, 38.305176205 ], [ 140.148926229000011, 38.305180835 ], [ 140.148825456, 38.30519049 ], [ 140.148743372000013, 38.305198205 ], [ 140.148620892, 38.305204009 ], [ 140.148508631, 38.305203726 ], [ 140.148381218, 38.305206334 ], [ 140.14815283199999, 38.305210279 ], [ 140.148205934, 38.305544971 ], [ 140.148239472, 38.305748347 ], [ 140.148254979, 38.305858687 ], [ 140.148271662000013, 38.30595693 ], [ 140.148289556, 38.306064677 ], [ 140.148301389000011, 38.306138494 ], [ 140.14832419699999, 38.306276626 ], [ 140.148334346000013, 38.30634011 ], [ 140.148335134, 38.306345037 ], [ 140.148409404, 38.306338953 ], [ 140.148474709, 38.306331233 ], [ 140.148566848, 38.306322459 ], [ 140.148639910000014, 38.306314243 ], [ 140.14876925199999, 38.306300269 ], [ 140.148784815, 38.306379508 ], [ 140.148813198999989, 38.306528009 ], [ 140.148835372, 38.306645837 ], [ 140.148841293, 38.306694851 ], [ 140.148878919, 38.306689856 ], [ 140.148945469000012, 38.306675346 ], [ 140.149110767, 38.306640554 ], [ 140.14929379899999, 38.306607994 ] ] ] } },
{ "type": "Feature", "properties": { "A29_001": "06323", "A29_002": "山形県", "A29_003": "朝日町", "A29_004": 4, "A29_005": "第二種中高層住居専用地域", "A29_006": 60, "A29_007": 200, "A29_008": "オープンデータ公開可" }, "geometry": { "type": "Polygon", "coordinates": [ [ [ 140.140671249, 38.30675264 ], [ 140.14074042499999, 38.306735635 ], [ 140.140758903, 38.306755951 ], [ 140.14077358899999, 38.306764977 ], [ 140.14078643900001, 38.306768219 ], [ 140.14080345, 38.306768878 ], [ 140.140820010999988, 38.306767113 ], [ 140.140844519000012, 38.306749161 ], [ 140.14085595, 38.306740787 ], [ 140.14090216299999, 38.306706736 ], [ 140.140928664, 38.306687209 ], [ 140.141017081, 38.306622642 ], [ 140.141074989, 38.306585086 ], [ 140.141090243, 38.306574701 ], [ 140.141103058999988, 38.306565976 ], [ 140.14106375099999, 38.306524028 ], [ 140.14101601499999, 38.30647365 ], [ 140.140965822999988, 38.306420649 ], [ 140.14095348, 38.306408309 ], [ 140.140918413, 38.306373253 ], [ 140.140916467000011, 38.30636663 ], [ 140.140935977999987, 38.306340486 ], [ 140.140940174, 38.306334774 ], [ 140.140943400999987, 38.30633038 ], [ 140.140942889, 38.30632209 ], [ 140.140932813, 38.306312905 ], [ 140.14091014499999, 38.306298245 ], [ 140.140896628, 38.306290447 ], [ 140.140884054, 38.306283192 ], [ 140.140868465000011, 38.306269692 ], [ 140.14086060599999, 38.306257261 ], [ 140.140861785, 38.306245162 ], [ 140.140865176, 38.306236523 ], [ 140.140888545, 38.306199021 ], [ 140.14093631099999, 38.306112818 ], [ 140.14102145699999, 38.306081475 ], [ 140.141189825, 38.306022315 ], [ 140.141308903, 38.305976832 ], [ 140.14142123100001, 38.305920321 ], [ 140.141550152, 38.305858694 ], [ 140.141603511, 38.30583964 ], [ 140.14183401299999, 38.305758125 ], [ 140.14197867199999, 38.305706647 ], [ 140.14204475, 38.305692137 ], [ 140.142129224, 38.305681647 ], [ 140.142220579, 38.305668404 ], [ 140.142266962, 38.30566216 ], [ 140.142284323000013, 38.305658538 ], [ 140.142295617, 38.305656183 ], [ 140.1423167, 38.305651092 ], [ 140.142347984, 38.305641965 ], [ 140.142380976999988, 38.305627074 ], [ 140.142482346, 38.305579623 ], [ 140.142508893000013, 38.305571586 ], [ 140.142536113, 38.305567276 ], [ 140.142605651999986, 38.305511816 ], [ 140.142815308, 38.305335384 ], [ 140.142979458000013, 38.305197234 ], [ 140.14306476499999, 38.305123801 ], [ 140.14313171500001, 38.305067022 ], [ 140.143171816, 38.305050311 ], [ 140.143212121, 38.305036953 ], [ 140.14324485, 38.305024854 ], [ 140.143280221, 38.305008487 ], [ 140.14330946699999, 38.30498985 ], [ 140.143398396, 38.304901912 ], [ 140.143417304, 38.304883214 ], [ 140.14360574299999, 38.304950249 ], [ 140.144094181000014, 38.305133766 ], [ 140.14431747099999, 38.305214413 ], [ 140.144327010000012, 38.30521926 ], [ 140.144685398, 38.305079129 ], [ 140.14501782100001, 38.304955931 ], [ 140.145622018000012, 38.304724672 ], [ 140.14554430199999, 38.304457303 ], [ 140.145395447999988, 38.304037285 ], [ 140.145390633, 38.303986601 ], [ 140.14539785, 38.303943139 ], [ 140.14541189, 38.30389793 ], [ 140.145449715000012, 38.303811086 ], [ 140.145453497, 38.303796211 ], [ 140.145471484000012, 38.303718471 ], [ 140.145473935000012, 38.303675116 ], [ 140.145466516999988, 38.303585783 ], [ 140.145459319, 38.303515181 ], [ 140.145446558, 38.303456942 ], [ 140.14543367600001, 38.303411574 ], [ 140.145414726000013, 38.303368078 ], [ 140.14533865199999, 38.303223174 ], [ 140.145259157999988, 38.303083191 ], [ 140.145250272, 38.303063174 ], [ 140.145250065, 38.303044997 ], [ 140.145251058000014, 38.303019973 ], [ 140.145254959999988, 38.303007183 ], [ 140.145263405, 38.302993824 ], [ 140.145283436, 38.302970937 ], [ 140.145317021000011, 38.302938238 ], [ 140.145360936, 38.302900832 ], [ 140.145395708, 38.302870523 ], [ 140.14543347, 38.302844046 ], [ 140.145505227, 38.302805373 ], [ 140.145590914, 38.302765232 ], [ 140.145713298, 38.302699203 ], [ 140.145751385000011, 38.302670225 ], [ 140.14584967499999, 38.302591478 ], [ 140.145808146, 38.302484337 ], [ 140.145764113000013, 38.302359687 ], [ 140.145696405, 38.302384355 ], [ 140.145524822, 38.302454862 ], [ 140.145024524, 38.302657529 ], [ 140.144874995, 38.302715055 ], [ 140.144558167000014, 38.302848043 ], [ 140.144390883, 38.30265555 ], [ 140.144256727999988, 38.302496836 ], [ 140.144084006000014, 38.302517797 ], [ 140.14366798099999, 38.302575691 ], [ 140.14354172099999, 38.30259542 ], [ 140.143541405, 38.302603799 ], [ 140.143452488, 38.302684474 ], [ 140.143381753999989, 38.302744164 ], [ 140.143343595, 38.302778253 ], [ 140.143269030999988, 38.302840575 ], [ 140.14317171, 38.302910213 ], [ 140.143001561, 38.302933794 ], [ 140.142823596999989, 38.302959005 ], [ 140.142771326, 38.302963354 ], [ 140.142542249, 38.302995341 ], [ 140.142298547, 38.303024447 ], [ 140.14201149499999, 38.3030641 ], [ 140.14178606199999, 38.303094742 ], [ 140.141779902, 38.303096228 ], [ 140.141610407, 38.303128965 ], [ 140.141443887, 38.303168396 ], [ 140.141237190999988, 38.303232731 ], [ 140.141100376999987, 38.303279785 ], [ 140.140971323, 38.303330983 ], [ 140.140869525999989, 38.30337396 ], [ 140.140812068, 38.303401742 ], [ 140.14081787, 38.303313502 ], [ 140.140822621000012, 38.303211474 ], [ 140.140813560999987, 38.303195032 ], [ 140.140804653, 38.303173937 ], [ 140.14080339099999, 38.303170948 ], [ 140.14080220299999, 38.303151986 ], [ 140.140798877, 38.303098849 ], [ 140.140636969000013, 38.30317518 ], [ 140.140573115, 38.3032046 ], [ 140.140451197, 38.303275766 ], [ 140.140452371, 38.303386549 ], [ 140.14046232199999, 38.303706929 ], [ 140.140468234999986, 38.303867869 ], [ 140.14047040299999, 38.303925708 ], [ 140.140500206000013, 38.304569133 ], [ 140.14054080299999, 38.305096598 ], [ 140.140548432, 38.305189015 ], [ 140.140555594, 38.305287062 ], [ 140.140287769999986, 38.305329245 ], [ 140.140247151000011, 38.305338316 ], [ 140.14021456899999, 38.305347156 ], [ 140.14015311899999, 38.305372121 ], [ 140.140123206999988, 38.305386005 ], [ 140.140071823, 38.305421085 ], [ 140.140040835, 38.305448744 ], [ 140.14001780800001, 38.305471887 ], [ 140.139995860999989, 38.305493174 ], [ 140.139977095, 38.305515597 ], [ 140.139953268999989, 38.30554814 ], [ 140.139932354, 38.305572786 ], [ 140.139917954, 38.305595794 ], [ 140.139902981, 38.305616936 ], [ 140.13987811199999, 38.305659715 ], [ 140.139860706, 38.305688199 ], [ 140.139843343, 38.305724598 ], [ 140.139825427, 38.305769374 ], [ 140.139797571, 38.305840351 ], [ 140.139776208, 38.305899633 ], [ 140.139746699999989, 38.305970413 ], [ 140.139737217, 38.305998292 ], [ 140.139717839000014, 38.306047715 ], [ 140.139688914, 38.306131722 ], [ 140.13967107900001, 38.306192794 ], [ 140.139663035000012, 38.306224638 ], [ 140.139643216, 38.30630786 ], [ 140.139635026, 38.306348876 ], [ 140.13962614799999, 38.306393892 ], [ 140.139618723000012, 38.306429046 ], [ 140.13961186899999, 38.306503499 ], [ 140.139605913999986, 38.306595184 ], [ 140.139606203, 38.306676476 ], [ 140.139613399000012, 38.306690207 ], [ 140.13961491399999, 38.306691316 ], [ 140.139628655, 38.306701378 ], [ 140.139645972000011, 38.30670716 ], [ 140.139699510000014, 38.306719023 ], [ 140.139719645000014, 38.306726685 ], [ 140.139742617, 38.306746561 ], [ 140.139764316999987, 38.306788406 ], [ 140.1397829, 38.306834981 ], [ 140.13980217400001, 38.306883422 ], [ 140.139816634, 38.306916099 ], [ 140.139819112, 38.306920188 ], [ 140.139868021000012, 38.306977976 ], [ 140.13990397399999, 38.307002096 ], [ 140.139904941, 38.307002498 ], [ 140.13993951099999, 38.307016855 ], [ 140.14001815200001, 38.307049515 ], [ 140.140091176, 38.307075088 ], [ 140.140153048, 38.307038985 ], [ 140.140194861999987, 38.307016232 ], [ 140.140257248000012, 38.306980099 ], [ 140.140296213999989, 38.30695854 ], [ 140.140343331, 38.306924924 ], [ 140.140404055, 38.306877048 ], [ 140.140443413000014, 38.306851674 ], [ 140.14048703099999, 38.306825579 ], [ 140.140515787, 38.306808988 ], [ 140.140552461999988, 38.306792258 ], [ 140.140587815, 38.306777847 ], [ 140.140623721999987, 38.306767258 ], [ 140.140671249, 38.30675264 ] ] ] } },
{ "type": "Feature", "properties": { "A29_001": "06323", "A29_002": "山形県", "A29_003": "朝日町", "A29_004": 12, "A29_005": "工業専用地域", "A29_006": 60, "A29_007": 200, "A29_008": "オープンデータ公開可" }, "geometry": { "type": "Polygon", "coordinates": [ [ [ 140.145682443999988, 38.307270086 ], [ 140.14580731699999, 38.307264652 ], [ 140.145956603, 38.307252081 ], [ 140.146080676, 38.307240702 ], [ 140.146188899, 38.307243385 ], [ 140.146215205, 38.307248381 ], [ 140.146337114, 38.307265949 ], [ 140.146488693, 38.307288845 ], [ 140.146565194, 38.307303321 ], [ 140.146612387, 38.307311512 ], [ 140.146650467, 38.307321047 ], [ 140.14668488699999, 38.307330281 ], [ 140.146720001, 38.307341195 ], [ 140.14678520699999, 38.307369046 ], [ 140.146855534, 38.307405307 ], [ 140.146896427, 38.307429943 ], [ 140.146945762, 38.307461612 ], [ 140.146982417, 38.307484547 ], [ 140.147099485000012, 38.307564381 ], [ 140.147158448, 38.307602717 ], [ 140.147252638999987, 38.307664911 ], [ 140.147333186999987, 38.307720135 ], [ 140.147413074000013, 38.307772191 ], [ 140.14749099, 38.307829073 ], [ 140.147553746999989, 38.307866128 ], [ 140.147650155, 38.307918836 ], [ 140.147737358, 38.307970188 ], [ 140.14783042799999, 38.308026043 ], [ 140.147895315999989, 38.308062738 ], [ 140.147971804, 38.308097451 ], [ 140.148101962, 38.308155385 ], [ 140.148228354, 38.308211621 ], [ 140.14830581199999, 38.308243733 ], [ 140.148448908, 38.30829569 ], [ 140.14850038099999, 38.308313775 ], [ 140.1485647, 38.308335661 ], [ 140.14862016699999, 38.308356284 ], [ 140.148716979, 38.308391395 ], [ 140.148800126999987, 38.308421678 ], [ 140.148866556, 38.308445345 ], [ 140.149197969, 38.308560676 ], [ 140.14930331, 38.3085993 ], [ 140.149296674999988, 38.308536483 ], [ 140.14929751299999, 38.308486781 ], [ 140.149302572000011, 38.308451427 ], [ 140.14930920899999, 38.308424275 ], [ 140.149317403, 38.308407376 ], [ 140.149330784999989, 38.30839181 ], [ 140.14934908699999, 38.308380929 ], [ 140.149379452, 38.308369001 ], [ 140.149422558999987, 38.308359382 ], [ 140.149512738, 38.308345754 ], [ 140.149590155999988, 38.308331866 ], [ 140.149594029000014, 38.308296876 ], [ 140.149602878, 38.308235471 ], [ 140.149600916999987, 38.308192626 ], [ 140.149596473, 38.30816243 ], [ 140.149589397, 38.308135758 ], [ 140.149556342000011, 38.308056602 ], [ 140.14953501299999, 38.308012341 ], [ 140.149518785, 38.307953397 ], [ 140.149499007, 38.307869849 ], [ 140.149478259, 38.307788903 ], [ 140.14946013, 38.307705923 ], [ 140.149447887, 38.307650541 ], [ 140.149449049999987, 38.307614791 ], [ 140.149455507999988, 38.307606634 ], [ 140.14944529600001, 38.307561506 ], [ 140.149414869999987, 38.30742901 ], [ 140.14940362499999, 38.307380617 ], [ 140.149547394, 38.307360784 ], [ 140.149500713, 38.307159566 ], [ 140.149482145, 38.307073046 ], [ 140.14937940499999, 38.307090511 ], [ 140.14932050199999, 38.307100937 ], [ 140.14930199, 38.307104213 ], [ 140.14929386599999, 38.30706712 ], [ 140.149278874, 38.306998671 ], [ 140.149262333, 38.306922777 ], [ 140.14925461199999, 38.306889304 ], [ 140.149252095, 38.306869232 ], [ 140.149251643000014, 38.306865635 ], [ 140.149253077, 38.306863077 ], [ 140.149270632999986, 38.306831758 ], [ 140.14930325899999, 38.306780362 ], [ 140.149302893, 38.306768999 ], [ 140.149292495999987, 38.306718469 ], [ 140.149291440000013, 38.306679913 ], [ 140.14929379899999, 38.306607994 ], [ 140.149110767, 38.306640554 ], [ 140.148945469000012, 38.306675346 ], [ 140.148878919, 38.306689856 ], [ 140.148841293, 38.306694851 ], [ 140.148840248, 38.306686203 ], [ 140.148835372, 38.306645837 ], [ 140.148813198999989, 38.306528009 ], [ 140.148784815, 38.306379508 ], [ 140.14876925199999, 38.306300269 ], [ 140.148639910000014, 38.306314243 ], [ 140.148566848, 38.306322459 ], [ 140.148474709, 38.306331233 ], [ 140.148409404, 38.306338953 ], [ 140.148335134, 38.306345037 ], [ 140.148334346000013, 38.30634011 ], [ 140.14832419699999, 38.306276626 ], [ 140.148301389000011, 38.306138494 ], [ 140.148289556, 38.306064677 ], [ 140.148271662000013, 38.30595693 ], [ 140.148254979, 38.305858687 ], [ 140.148239472, 38.305748347 ], [ 140.148205934, 38.305544971 ], [ 140.14815283199999, 38.305210279 ], [ 140.148079292, 38.305214226 ], [ 140.147973135, 38.305218448 ], [ 140.147719832, 38.305237453 ], [ 140.14763682899999, 38.305242369 ], [ 140.147556791, 38.305246184 ], [ 140.14747780499999, 38.305251216 ], [ 140.147409565, 38.305257056 ], [ 140.14735208499999, 38.305262121 ], [ 140.147305493, 38.305265573 ], [ 140.14724977899999, 38.305271393 ], [ 140.147217017, 38.30527446 ], [ 140.147182125, 38.305277794 ], [ 140.147130669, 38.305283267 ], [ 140.147100749, 38.305285606 ], [ 140.14705745, 38.305290753 ], [ 140.14702374399999, 38.305293536 ], [ 140.146973933999988, 38.305299949 ], [ 140.146900366000011, 38.305306874 ], [ 140.146835435000014, 38.30531264 ], [ 140.14678941599999, 38.305317958 ], [ 140.146728615, 38.305324399 ], [ 140.146685305, 38.305330664 ], [ 140.146656826, 38.30533059 ], [ 140.146640143000013, 38.305332821 ], [ 140.14658631099999, 38.305339582 ], [ 140.146543137, 38.305343892 ], [ 140.14648753, 38.305350923 ], [ 140.146420205999988, 38.30535984 ], [ 140.1463588, 38.305367768 ], [ 140.146295619999989, 38.305375872 ], [ 140.146253615, 38.305381585 ], [ 140.146234345000011, 38.305382496 ], [ 140.146214595, 38.305384057 ], [ 140.146160275, 38.305392398 ], [ 140.146089276999987, 38.305402505 ], [ 140.146017927, 38.305412329 ], [ 140.145933922000012, 38.305423197 ], [ 140.145868369999988, 38.305432125 ], [ 140.145773378, 38.305442742 ], [ 140.14568930499999, 38.30546078 ], [ 140.145599885, 38.305482045 ], [ 140.14551862499999, 38.305502519 ], [ 140.145444937, 38.305522107 ], [ 140.145428267999989, 38.305522848 ], [ 140.145352559, 38.305543634 ], [ 140.145320569, 38.305552572 ], [ 140.145301987000011, 38.305555536 ], [ 140.145226441, 38.30555919 ], [ 140.145169571, 38.305562301 ], [ 140.145111507, 38.305566617 ], [ 140.145049961000012, 38.305569996 ], [ 140.144999895000012, 38.305572759 ], [ 140.14497908199999, 38.30557422 ], [ 140.144959078, 38.305577734 ], [ 140.144908410999989, 38.305587214 ], [ 140.144828023, 38.305602945 ], [ 140.14473777500001, 38.305624204 ], [ 140.144703716, 38.305633194 ], [ 140.144591111000011, 38.305662918 ], [ 140.144523103000012, 38.3056817 ], [ 140.144458396, 38.305701247 ], [ 140.14440932799999, 38.305716509 ], [ 140.144352067, 38.305735914 ], [ 140.14432053499999, 38.305746251 ], [ 140.14429810199999, 38.305756641 ], [ 140.144268062, 38.305771736 ], [ 140.144222133, 38.305804988 ], [ 140.144172295, 38.305839148 ], [ 140.144116832, 38.305880818 ], [ 140.144086018, 38.305902799 ], [ 140.14405226299999, 38.305923272 ], [ 140.144015204, 38.305943168 ], [ 140.14397688599999, 38.305971343 ], [ 140.143954966, 38.30598993 ], [ 140.14394207699999, 38.306003357 ], [ 140.14393131599999, 38.306016516 ], [ 140.14392580099999, 38.306024957 ], [ 140.143914790999986, 38.306051989 ], [ 140.143908441, 38.306079887 ], [ 140.143896573, 38.306110173 ], [ 140.143878945000012, 38.30614983 ], [ 140.143860182, 38.306184452 ], [ 140.143834156999986, 38.30623654 ], [ 140.143821022999987, 38.30626393 ], [ 140.143808725000014, 38.306289744 ], [ 140.143792945, 38.306321311 ], [ 140.143778709, 38.306352142 ], [ 140.143768582, 38.306373313 ], [ 140.143757158, 38.306394197 ], [ 140.143753863, 38.306417643 ], [ 140.143753583, 38.306447252 ], [ 140.143758658, 38.306460412 ], [ 140.14376564, 38.306471906 ], [ 140.143774984, 38.306483414 ], [ 140.143816506, 38.306516342 ], [ 140.143856763, 38.306545631 ], [ 140.143893134, 38.306573408 ], [ 140.14391668, 38.306595242 ], [ 140.143948626999986, 38.306628393 ], [ 140.143998149999987, 38.306690048 ], [ 140.144023057999988, 38.306730328 ], [ 140.144198076, 38.306855015 ], [ 140.144293427, 38.306931558 ], [ 140.144359431999987, 38.306987257 ], [ 140.14439837899999, 38.307017655 ], [ 140.144425159, 38.307034946 ], [ 140.144504237, 38.307070422 ], [ 140.144648299000011, 38.307132166 ], [ 140.144819471, 38.307201332 ], [ 140.144933672, 38.307246699 ], [ 140.145034044999989, 38.307279692 ], [ 140.145201651, 38.307301161 ], [ 140.145259557, 38.307301128 ], [ 140.14543741599999, 38.307288018 ], [ 140.145682443999988, 38.307270086 ] ] ] } },
{ "type": "Feature", "properties": { "A29_001": "06323", "A29_002": "山形県", "A29_003": "朝日町", "A29_004": 12, "A29_005": "工業専用地域", "A29_006": 60, "A29_007": 200, "A29_008": "オープンデータ公開可" }, "geometry": { "type": "Polygon", "coordinates": [ [ [ 140.140848876, 38.309169725 ], [ 140.140866553, 38.309186399 ], [ 140.141021145, 38.309135166 ], [ 140.14104649, 38.309129357 ], [ 140.141160299, 38.309091664 ], [ 140.14131109600001, 38.309041712 ], [ 140.1414275, 38.309004594 ], [ 140.141596072, 38.308949439 ], [ 140.14167775199999, 38.308922544 ], [ 140.141721819, 38.308911537 ], [ 140.141786782, 38.308889143 ], [ 140.14185922499999, 38.308865416 ], [ 140.141967161, 38.308923412 ], [ 140.14202595399999, 38.308954581 ], [ 140.142041205, 38.308966403 ], [ 140.142073997000011, 38.309047608 ], [ 140.142093335999988, 38.30907696 ], [ 140.14212312399999, 38.309126022 ], [ 140.142155765000012, 38.309173238 ], [ 140.14216439, 38.309180763 ], [ 140.14216608000001, 38.309182238 ], [ 140.142310873000014, 38.309129735 ], [ 140.142417628, 38.309088182 ], [ 140.142360681000014, 38.309011864 ], [ 140.14229199499999, 38.308927282 ], [ 140.14236384899999, 38.30888998 ], [ 140.142478927000013, 38.308830238 ], [ 140.142605937000013, 38.30895809 ], [ 140.14263717, 38.308990768 ], [ 140.142669125999987, 38.309024203 ], [ 140.142796428, 38.308959305 ], [ 140.14283620399999, 38.308943032 ], [ 140.14292648, 38.308903549 ], [ 140.143024529, 38.309025055 ], [ 140.14305972599999, 38.309009462 ], [ 140.143080981999987, 38.309036032 ], [ 140.143184832, 38.309169204 ], [ 140.143210603, 38.309200307 ], [ 140.143265826, 38.309184243 ], [ 140.143413073, 38.30913464 ], [ 140.143494003, 38.309099546 ], [ 140.14351578599999, 38.309120532 ], [ 140.143685527, 38.309041636 ], [ 140.143859311, 38.308963854 ], [ 140.14359066099999, 38.308637203 ], [ 140.143496636, 38.308520273 ], [ 140.143373174, 38.308354784 ], [ 140.14336441, 38.308335717 ], [ 140.143363314, 38.308333333 ], [ 140.143359197, 38.308324375 ], [ 140.143335224, 38.30827222 ], [ 140.143322715000011, 38.308223423 ], [ 140.14331247699999, 38.308183486 ], [ 140.14335740199999, 38.308141513 ], [ 140.143516422, 38.308055691 ], [ 140.14351043799999, 38.308041634 ], [ 140.14347029000001, 38.307921122 ], [ 140.14340715599999, 38.307746907 ], [ 140.14335981100001, 38.307608387 ], [ 140.143320253000013, 38.307499051 ], [ 140.143273408, 38.307366449 ], [ 140.14324144599999, 38.307277094 ], [ 140.143211938, 38.307192792 ], [ 140.14318683799999, 38.307112898 ], [ 140.143158631, 38.307038025 ], [ 140.143130472, 38.306958113 ], [ 140.143105510999987, 38.306892898 ], [ 140.1430787, 38.306817375 ], [ 140.14302221299999, 38.306668176 ], [ 140.14293604400001, 38.306431058 ], [ 140.142927281999988, 38.306402197 ], [ 140.142866854, 38.306426708 ], [ 140.142822364000011, 38.306441782 ], [ 140.14259558099999, 38.306519645 ], [ 140.142528494, 38.306542692 ], [ 140.142484732000014, 38.306554374 ], [ 140.142431174, 38.306572681 ], [ 140.142362259, 38.306598017 ], [ 140.142272604, 38.30662597 ], [ 140.142202037, 38.306649544 ], [ 140.14214670199999, 38.306664663 ], [ 140.14206470100001, 38.306691894 ], [ 140.141978368999986, 38.30672129 ], [ 140.141953035, 38.306731985 ], [ 140.141922646000012, 38.306748018 ], [ 140.141896378000013, 38.30676194 ], [ 140.141869859, 38.306776763 ], [ 140.141847364, 38.306788571 ], [ 140.141835157, 38.3067931 ], [ 140.141807003, 38.30680805 ], [ 140.141795113, 38.306815758 ], [ 140.141744331000012, 38.306841913 ], [ 140.141708362, 38.306859939 ], [ 140.14167777599999, 38.306874711 ], [ 140.14164161299999, 38.306891313 ], [ 140.141612288, 38.306905106 ], [ 140.141565034, 38.306925695 ], [ 140.141525051, 38.306941891 ], [ 140.141478487, 38.306963032 ], [ 140.1414361, 38.306983485 ], [ 140.141402426000013, 38.307001416 ], [ 140.141392200000013, 38.307009571 ], [ 140.141390105, 38.307017938 ], [ 140.14139052499999, 38.307023651 ], [ 140.14139121299999, 38.307033007 ], [ 140.141397471, 38.307054678 ], [ 140.141404552000012, 38.307077614 ], [ 140.141406687, 38.307094277 ], [ 140.14140659200001, 38.3071043 ], [ 140.14140514499999, 38.307117601 ], [ 140.141397941, 38.307129553 ], [ 140.141382068000013, 38.307146876 ], [ 140.141366373000011, 38.307159984 ], [ 140.141328957000013, 38.307183917 ], [ 140.141325064, 38.307186036 ], [ 140.141290738, 38.307204723 ], [ 140.141254370000013, 38.307220831 ], [ 140.141218847, 38.307235738 ], [ 140.141171461999988, 38.307255504 ], [ 140.141094737, 38.307283313 ], [ 140.141016871, 38.307314073 ], [ 140.140943063, 38.307342009 ], [ 140.140896035, 38.307360791 ], [ 140.140872644000012, 38.307379166 ], [ 140.140854504, 38.307400858 ], [ 140.140850839, 38.30741666 ], [ 140.140839282, 38.307466493 ], [ 140.140829988, 38.307508283 ], [ 140.14082249, 38.3075365 ], [ 140.140816887999989, 38.307555418 ], [ 140.140794169, 38.307620133 ], [ 140.14075130399999, 38.307618336 ], [ 140.140647015000013, 38.307612801 ], [ 140.140582714, 38.307605849 ], [ 140.140464479, 38.307598359 ], [ 140.140361227999989, 38.307593915 ], [ 140.14030792599999, 38.307556137 ], [ 140.14024109499999, 38.30750831 ], [ 140.140216947, 38.307526466 ], [ 140.140166867, 38.30756571 ], [ 140.140047211, 38.30765636 ], [ 140.140018357, 38.307678974 ], [ 140.13989103599999, 38.307778836 ], [ 140.139851345000011, 38.307808123 ], [ 140.139802542000012, 38.307845297 ], [ 140.139704654000013, 38.307920029 ], [ 140.13966341599999, 38.307951059 ], [ 140.13969943399999, 38.307979041 ], [ 140.13973685799999, 38.307998103 ], [ 140.139857183, 38.308056324 ], [ 140.139890979, 38.308113376 ], [ 140.139948530999987, 38.308288873 ], [ 140.140114739000012, 38.30845614 ], [ 140.14016514299999, 38.308506389 ], [ 140.140220226, 38.308561704 ], [ 140.140377223, 38.308718181 ], [ 140.140533409, 38.308872243 ], [ 140.140698058999988, 38.309042786 ], [ 140.140848876, 38.309169725 ] ] ] } }
]
}
