{
"type": "FeatureCollection",
"name": "A29-19_06361",
"features": [
{ "type": "Feature", "properties": { "A29_001": "06361", "A29_002": "山形県", "A29_003": "金山町", "A29_004": 1, "A29_005": "第一種低層住居専用地域", "A29_006": 50, "A29_007": 100, "A29_008": "オープンデータ公開可" }, "geometry": { "type": "Polygon", "coordinates": [ [ [ 140.33246219, 38.878669903 ], [ 140.33242282099999, 38.878604102 ], [ 140.33232671499999, 38.878618028 ], [ 140.332225026, 38.878629882 ], [ 140.332129465, 38.878634127 ], [ 140.33204192, 38.878633286 ], [ 140.332010015, 38.878630728 ], [ 140.331922405, 38.878622158 ], [ 140.331845023999989, 38.878615867 ], [ 140.331751036000014, 38.878603485 ], [ 140.331736914, 38.87860268 ], [ 140.33157581399999, 38.878582868 ], [ 140.33138112, 38.878557264 ], [ 140.331196412999986, 38.878534311 ], [ 140.33099289399999, 38.878510158 ], [ 140.330860487, 38.87850215 ], [ 140.331005446, 38.878846742 ], [ 140.331092152, 38.879021618 ], [ 140.331160446000013, 38.879169608 ], [ 140.33122277199999, 38.879304548 ], [ 140.331259501, 38.879393494 ], [ 140.331278932, 38.879448996 ], [ 140.331291564999987, 38.87949553 ], [ 140.331304176, 38.879545043 ], [ 140.331339113000013, 38.879672118 ], [ 140.331485229, 38.880012064 ], [ 140.33164843, 38.880481138 ], [ 140.331677237, 38.880569454 ], [ 140.331707797, 38.880668503 ], [ 140.331917854000011, 38.881153271 ], [ 140.332083909, 38.881499006 ], [ 140.332242154, 38.88176307 ], [ 140.332690902, 38.882481348 ], [ 140.332883248, 38.882425736 ], [ 140.333081811999989, 38.882376681 ], [ 140.33344696099999, 38.882286254 ], [ 140.333798695000013, 38.882206196 ], [ 140.334434402, 38.882059941 ], [ 140.33440115799999, 38.881976002 ], [ 140.334265323000011, 38.881640604 ], [ 140.33406921299999, 38.88113512 ], [ 140.333867325, 38.880638549 ], [ 140.333628498, 38.880049625 ], [ 140.333567335, 38.880025528 ], [ 140.333405226999986, 38.87998622 ], [ 140.333302526000011, 38.879966072 ], [ 140.332889024, 38.879889619 ], [ 140.332768155999986, 38.879861809 ], [ 140.332601133999987, 38.879816722 ], [ 140.332597373999988, 38.879571398 ], [ 140.332592282, 38.879550147 ], [ 140.332580965, 38.879533339 ], [ 140.33252156899999, 38.879476102 ], [ 140.332476691000011, 38.879438015 ], [ 140.332469435, 38.879419548 ], [ 140.332452085, 38.87937981 ], [ 140.332447752, 38.879352231 ], [ 140.33244883, 38.879300467 ], [ 140.332455622999987, 38.87926614 ], [ 140.332484345000012, 38.879111331 ], [ 140.332511454000013, 38.878982585 ], [ 140.332524933, 38.878895121 ], [ 140.332524689, 38.878861974 ], [ 140.332480772999986, 38.878737765 ], [ 140.33246219, 38.878669903 ] ] ] } },
{ "type": "Feature", "properties": { "A29_001": "06361", "A29_002": "山形県", "A29_003": "金山町", "A29_004": 5, "A29_005": "第一種住居地域", "A29_006": 60, "A29_007": 200, "A29_008": "オープンデータ公開可" }, "geometry": { "type": "Polygon", "coordinates": [ [ [ 140.341153939, 38.88519958 ], [ 140.341072172, 38.885102589 ], [ 140.341004379999987, 38.885017575 ], [ 140.340936414999987, 38.884923063 ], [ 140.340892075, 38.8848577 ], [ 140.340853383, 38.884802417 ], [ 140.34082908, 38.88476805 ], [ 140.340810212, 38.884740225 ], [ 140.340785239000013, 38.884699338 ], [ 140.34077063, 38.884675813 ], [ 140.340756104, 38.884640185 ], [ 140.340756593, 38.884569424 ], [ 140.34076483199999, 38.884549348 ], [ 140.340781698, 38.884522045 ], [ 140.340801905, 38.884494012 ], [ 140.340826588, 38.88447326 ], [ 140.340917983999987, 38.88441778 ], [ 140.34102516499999, 38.884353429 ], [ 140.341079724, 38.884319023 ], [ 140.341109479000011, 38.884288236 ], [ 140.341132044, 38.884263751 ], [ 140.341151827, 38.884228081 ], [ 140.3411683, 38.884188672 ], [ 140.34117525799999, 38.884146989 ], [ 140.341335017, 38.884059023 ], [ 140.34157561, 38.883926706 ], [ 140.341849200000013, 38.883777023 ], [ 140.34220936299999, 38.883579659 ], [ 140.342487731, 38.883427759 ], [ 140.34291245899999, 38.883195284 ], [ 140.343117177000011, 38.883082179 ], [ 140.343018003999987, 38.882952529 ], [ 140.342911702, 38.882820241 ], [ 140.342799211, 38.882687183 ], [ 140.342676348999987, 38.882538066 ], [ 140.34260691599999, 38.882449135 ], [ 140.34254733099999, 38.882383336 ], [ 140.34249061, 38.882316805 ], [ 140.342464124, 38.882288016 ], [ 140.342418552, 38.882256963 ], [ 140.34242003, 38.882256174 ], [ 140.34275427, 38.882085515 ], [ 140.342999085, 38.881961406 ], [ 140.34302219700001, 38.881926494 ], [ 140.343132571000012, 38.881743348 ], [ 140.34319141200001, 38.881640059 ], [ 140.343119472000012, 38.881569367 ], [ 140.342946745, 38.881396206 ], [ 140.34287215399999, 38.8813917 ], [ 140.342681691, 38.881380195 ], [ 140.34254310599999, 38.881369743 ], [ 140.34247880699999, 38.881365935 ], [ 140.34245570499999, 38.881364907 ], [ 140.342402375, 38.881394291 ], [ 140.34229764, 38.881450088 ], [ 140.342074797, 38.881566467 ], [ 140.341833312, 38.881691333 ], [ 140.341666667, 38.881777974 ], [ 140.341456478, 38.881888998 ], [ 140.34121211199999, 38.882016644 ], [ 140.341053818, 38.882100146 ], [ 140.340943468, 38.882158153 ], [ 140.340869709, 38.88219583 ], [ 140.340826072999988, 38.882218458 ], [ 140.34082283399999, 38.882220465 ], [ 140.340788623, 38.882174331 ], [ 140.340725716, 38.8820895 ], [ 140.340716289, 38.882090902 ], [ 140.34066375, 38.882101484 ], [ 140.340543321000013, 38.882125739 ], [ 140.34040783099999, 38.882149934 ], [ 140.340308109, 38.882169625 ], [ 140.340219611, 38.882185452 ], [ 140.340151203, 38.882155555 ], [ 140.340136523000012, 38.882148929 ], [ 140.34003791399999, 38.882104425 ], [ 140.34003411399999, 38.882107337 ], [ 140.33998210499999, 38.882147392 ], [ 140.339924888000013, 38.882118473 ], [ 140.339915018, 38.882113002 ], [ 140.339901867, 38.882105713 ], [ 140.339864675, 38.882075016 ], [ 140.33984176300001, 38.882046428 ], [ 140.339830217000014, 38.882027944 ], [ 140.339805434999988, 38.881994134 ], [ 140.33976756199999, 38.881958593 ], [ 140.33973178299999, 38.881930323 ], [ 140.339672933, 38.881896369 ], [ 140.339613832, 38.881864276 ], [ 140.33957306100001, 38.881834495 ], [ 140.33952226, 38.881808024 ], [ 140.339495236, 38.881788357 ], [ 140.339457836, 38.881753376 ], [ 140.339439454, 38.881724249 ], [ 140.339432698, 38.881702247 ], [ 140.33939479899999, 38.88167043 ], [ 140.339352452000014, 38.881661685 ], [ 140.339333094000011, 38.881649316 ], [ 140.339279397000013, 38.881615008 ], [ 140.339200076999987, 38.88157836 ], [ 140.339197093, 38.881567207 ], [ 140.339185910999987, 38.881525414 ], [ 140.33916375199999, 38.881456979 ], [ 140.33912862599999, 38.881334487 ], [ 140.33909390299999, 38.88122261 ], [ 140.339035203, 38.881029627 ], [ 140.339013103000013, 38.880952813 ], [ 140.338999359000013, 38.88090769 ], [ 140.338963594, 38.880911822 ], [ 140.338909725, 38.880922368 ], [ 140.338800655, 38.88094372 ], [ 140.338711909000011, 38.880961034 ], [ 140.338589775, 38.880983422 ], [ 140.33853062099999, 38.880993599 ], [ 140.33848942099999, 38.880955596 ], [ 140.33846126, 38.880929619 ], [ 140.338439714, 38.880910348 ], [ 140.338407512, 38.88088172 ], [ 140.338387417, 38.880859289 ], [ 140.338367170999987, 38.880824194 ], [ 140.338333291999987, 38.880762599 ], [ 140.33828448700001, 38.880654759 ], [ 140.33822410799999, 38.880498082 ], [ 140.338198476, 38.880415293 ], [ 140.33816237, 38.880331343 ], [ 140.338119089, 38.880251458 ], [ 140.338044153, 38.880132707 ], [ 140.33798848399999, 38.88005277 ], [ 140.337934937999989, 38.879941558 ], [ 140.337889123999986, 38.879814737 ], [ 140.33784475499999, 38.879685687 ], [ 140.337794382, 38.879529424 ], [ 140.337753733999989, 38.879413424 ], [ 140.33772898, 38.879338576 ], [ 140.33762428599999, 38.879254405 ], [ 140.337528147, 38.879170386 ], [ 140.33743931699999, 38.879097198 ], [ 140.337385356, 38.879045945 ], [ 140.33732028899999, 38.878981611 ], [ 140.337268474000012, 38.878929995 ], [ 140.337236735, 38.878903603 ], [ 140.33717426699999, 38.878842259 ], [ 140.337113407, 38.878789674 ], [ 140.337066060000012, 38.878780906 ], [ 140.336958771000013, 38.878758663 ], [ 140.336846290000011, 38.878729508 ], [ 140.336807052000012, 38.878719285 ], [ 140.33677566599999, 38.878710586 ], [ 140.336744153000012, 38.878685871 ], [ 140.336728096, 38.878665319 ], [ 140.336704801, 38.87858943 ], [ 140.33665819, 38.878440631 ], [ 140.336620479, 38.878313843 ], [ 140.33657998000001, 38.878176988 ], [ 140.336535344999987, 38.878018142 ], [ 140.336481778, 38.877842126 ], [ 140.33641382499999, 38.877610928 ], [ 140.33636453299999, 38.877436792 ], [ 140.33633195199999, 38.877326041 ], [ 140.336240764, 38.877340228 ], [ 140.33604767599999, 38.877370268 ], [ 140.335774844000014, 38.877413053 ], [ 140.335589776, 38.877442059 ], [ 140.33537418099999, 38.877475776 ], [ 140.335301176, 38.877491107 ], [ 140.335114046, 38.877542449 ], [ 140.33483000699999, 38.877620565 ], [ 140.334555052000013, 38.87769425 ], [ 140.334217064, 38.877787776 ], [ 140.333878141000014, 38.877878691 ], [ 140.333793668999988, 38.877898441 ], [ 140.33371013499999, 38.877920429 ], [ 140.333500085999987, 38.877978375 ], [ 140.33331611700001, 38.878027324 ], [ 140.333316301, 38.878027867 ], [ 140.333360054, 38.878175537 ], [ 140.333410781, 38.878347818 ], [ 140.33328813, 38.878376343 ], [ 140.333031304, 38.878446005 ], [ 140.332837955, 38.878500297 ], [ 140.332749618, 38.878527478 ], [ 140.33250823099999, 38.878586591 ], [ 140.33242282099999, 38.878604102 ], [ 140.33246219, 38.878669903 ], [ 140.332480772999986, 38.878737765 ], [ 140.332524689, 38.878861974 ], [ 140.332524933, 38.878895121 ], [ 140.332511454000013, 38.878982585 ], [ 140.332484345000012, 38.879111331 ], [ 140.332455622999987, 38.87926614 ], [ 140.33244883, 38.879300467 ], [ 140.332447752, 38.879352231 ], [ 140.332452085, 38.87937981 ], [ 140.332469435, 38.879419548 ], [ 140.332476691000011, 38.879438015 ], [ 140.33252156899999, 38.879476102 ], [ 140.332580965, 38.879533339 ], [ 140.332592282, 38.879550147 ], [ 140.332597373999988, 38.879571398 ], [ 140.332601133999987, 38.879816722 ], [ 140.332768155999986, 38.879861809 ], [ 140.332889024, 38.879889619 ], [ 140.333302526000011, 38.879966072 ], [ 140.333405226999986, 38.87998622 ], [ 140.333567335, 38.880025528 ], [ 140.333628498, 38.880049625 ], [ 140.333867325, 38.880638549 ], [ 140.33406921299999, 38.88113512 ], [ 140.334265323000011, 38.881640604 ], [ 140.33440115799999, 38.881976002 ], [ 140.334434402, 38.882059941 ], [ 140.334880524, 38.881939223 ], [ 140.334986469, 38.88218846 ], [ 140.335060691, 38.882340729 ], [ 140.33511622099999, 38.882440405 ], [ 140.335139097, 38.882480037 ], [ 140.33514818399999, 38.882494478 ], [ 140.335354333999987, 38.882494403 ], [ 140.335563326, 38.882436659 ], [ 140.335608502000014, 38.882430654 ], [ 140.335753653000012, 38.882431749 ], [ 140.335938884, 38.882457804 ], [ 140.336132104, 38.882532928 ], [ 140.336203828, 38.882563791 ], [ 140.336218613999989, 38.882581921 ], [ 140.33633918699999, 38.882748441 ], [ 140.336381968000012, 38.882798539 ], [ 140.336393179999988, 38.882644362 ], [ 140.336379603000012, 38.882472985 ], [ 140.336361165999989, 38.882383523 ], [ 140.336335488, 38.882254403 ], [ 140.33624223699999, 38.881945408 ], [ 140.336089619, 38.881442571 ], [ 140.336907688, 38.881289778 ], [ 140.337075371999987, 38.881843367 ], [ 140.33724034299999, 38.881890039 ], [ 140.337323579000014, 38.881917977 ], [ 140.337398162999989, 38.881950323 ], [ 140.337487836, 38.882005452 ], [ 140.337730935, 38.882198286 ], [ 140.33820613899999, 38.882589494 ], [ 140.338750046, 38.883037601 ], [ 140.33918971599999, 38.883401094 ], [ 140.339536501, 38.883140927 ], [ 140.339709096, 38.883366979 ], [ 140.339722794000011, 38.883418805 ], [ 140.339234508, 38.883796499 ], [ 140.33947391699999, 38.884024818 ], [ 140.339690072, 38.884228646 ], [ 140.339179771, 38.884627193 ], [ 140.338496115, 38.88518582 ], [ 140.33827459599999, 38.885026373 ], [ 140.338099102, 38.884924978 ], [ 140.337777442, 38.884694899 ], [ 140.33748963, 38.884489584 ], [ 140.337483717999987, 38.884485562 ], [ 140.33722688899999, 38.884310818 ], [ 140.336964072, 38.884143224 ], [ 140.33702355599999, 38.884097432 ], [ 140.337344081, 38.883859746 ], [ 140.33735732, 38.883849928 ], [ 140.337505842000013, 38.883956702 ], [ 140.337762448, 38.884148702 ], [ 140.337945158999986, 38.884278593 ], [ 140.33802825, 38.88433628 ], [ 140.338245333, 38.884494467 ], [ 140.338834276, 38.884015779 ], [ 140.33858506199999, 38.883810072 ], [ 140.338405021, 38.883661826 ], [ 140.338218868000013, 38.883501636 ], [ 140.33807246500001, 38.883381464 ], [ 140.337920387, 38.883254937 ], [ 140.337820408, 38.883174067 ], [ 140.33759913599999, 38.882993988 ], [ 140.337501069000012, 38.882912381 ], [ 140.337385457000011, 38.88281841 ], [ 140.337146692, 38.882618889 ], [ 140.337026818999988, 38.882521174 ], [ 140.336844896, 38.882370311 ], [ 140.336734981, 38.882279715 ], [ 140.33667902900001, 38.882240371 ], [ 140.336719243, 38.882418565 ], [ 140.336737395, 38.882548994 ], [ 140.336738945, 38.882668551 ], [ 140.336735037000011, 38.882750842 ], [ 140.33670021099999, 38.882962236 ], [ 140.33665208799999, 38.883098714 ], [ 140.33657222299999, 38.883277142 ], [ 140.336497544, 38.883395258 ], [ 140.336351952, 38.883569309 ], [ 140.33629244299999, 38.883630134 ], [ 140.335427081, 38.88452996 ], [ 140.33504578099999, 38.884938804 ], [ 140.335235649999987, 38.885115018 ], [ 140.335443206, 38.885280518 ], [ 140.335520976999987, 38.88533448 ], [ 140.33595198899999, 38.885621865 ], [ 140.336030152, 38.885669988 ], [ 140.336168683000011, 38.885757727 ], [ 140.336246910999989, 38.885810804 ], [ 140.336296508, 38.885843186 ], [ 140.336371767, 38.885881681 ], [ 140.33648406099999, 38.885939327 ], [ 140.336560530000014, 38.88597522 ], [ 140.336693043, 38.886037607 ], [ 140.33682913199999, 38.886099823 ], [ 140.33691349899999, 38.886138129 ], [ 140.336938785, 38.886150806 ], [ 140.337031415000013, 38.88619254 ], [ 140.33713261599999, 38.886235241 ], [ 140.33723294699999, 38.886266021 ], [ 140.337325918, 38.886293045 ], [ 140.337462636, 38.886333476 ], [ 140.337568979, 38.886356273 ], [ 140.337780263000013, 38.886397951 ], [ 140.33783642099999, 38.886408245 ], [ 140.33792780600001, 38.88642353 ], [ 140.338033222, 38.886434411 ], [ 140.338106866, 38.886439559 ], [ 140.33829679199999, 38.886469042 ], [ 140.338549476999987, 38.886518902 ], [ 140.33878829299999, 38.886576151 ], [ 140.33906467700001, 38.886644359 ], [ 140.339333896999989, 38.886715143 ], [ 140.33967317299999, 38.886819369 ], [ 140.339820796999987, 38.88686785 ], [ 140.339937037999988, 38.886906702 ], [ 140.34002642199999, 38.886935943 ], [ 140.340183481999986, 38.886998058 ], [ 140.34040063099999, 38.887087986 ], [ 140.340483076999988, 38.887121481 ], [ 140.340544795, 38.887154701 ], [ 140.340610263, 38.88717932 ], [ 140.340642214000013, 38.887193473 ], [ 140.340751278999988, 38.887236577 ], [ 140.34098192499999, 38.887338851 ], [ 140.341105214, 38.887392256 ], [ 140.341237310999986, 38.887447002 ], [ 140.34143697499999, 38.887515998 ], [ 140.341646196, 38.88758131 ], [ 140.341922796, 38.887653795 ], [ 140.342140214000011, 38.887705361 ], [ 140.34230721899999, 38.887742562 ], [ 140.342575506, 38.887811472 ], [ 140.342849465, 38.88788711 ], [ 140.343066857999986, 38.887942398 ], [ 140.34325332200001, 38.887991224 ], [ 140.343410333, 38.888026706 ], [ 140.34348809299999, 38.888048819 ], [ 140.34354782, 38.888060056 ], [ 140.343642781999989, 38.888075538 ], [ 140.343738747, 38.888083575 ], [ 140.343891395000014, 38.888095202 ], [ 140.34404118099999, 38.888107189 ], [ 140.344156149000014, 38.888123871 ], [ 140.344396569, 38.888156908 ], [ 140.344434295000013, 38.88800623 ], [ 140.34448911199999, 38.887795291 ], [ 140.344535868, 38.887613181 ], [ 140.344564001, 38.887506224 ], [ 140.344597518, 38.88737862 ], [ 140.344622014, 38.887280773 ], [ 140.344644063, 38.887192413 ], [ 140.34465987499999, 38.887144994 ], [ 140.344606392, 38.887126707 ], [ 140.344564262, 38.88710768 ], [ 140.344557699, 38.887104716 ], [ 140.34448482900001, 38.887064374 ], [ 140.344366387, 38.886998703 ], [ 140.344254865000011, 38.88693157 ], [ 140.344125085, 38.886851512 ], [ 140.344000491, 38.88677967 ], [ 140.343951833, 38.886752651 ], [ 140.343886551999987, 38.886717554 ], [ 140.343817675, 38.886685795 ], [ 140.343765657, 38.8866623 ], [ 140.3437791, 38.886637097 ], [ 140.343829378, 38.88654283 ], [ 140.343803589, 38.886516466 ], [ 140.343750738000011, 38.886475463 ], [ 140.34371514099999, 38.88645483 ], [ 140.343701290000013, 38.886446962 ], [ 140.34362827699999, 38.886405491 ], [ 140.343584848, 38.886380355 ], [ 140.343509186, 38.886330505 ], [ 140.343451318, 38.886291529 ], [ 140.343393166999988, 38.886259256 ], [ 140.343335201, 38.886234618 ], [ 140.34327700099999, 38.886209421 ], [ 140.34318189199999, 38.886181089 ], [ 140.343117648, 38.886168529 ], [ 140.34302603899999, 38.886151013 ], [ 140.342920894, 38.886127108 ], [ 140.34281580199999, 38.886095382 ], [ 140.342748050000012, 38.88607331 ], [ 140.342657495999987, 38.886041087 ], [ 140.34253731199999, 38.885986579 ], [ 140.342457978999988, 38.885951051 ], [ 140.34233011500001, 38.885904704 ], [ 140.34223882399999, 38.885875643 ], [ 140.342161954, 38.885863029 ], [ 140.342115543, 38.885855944 ], [ 140.34206294099999, 38.885848274 ], [ 140.342016774, 38.885840259 ], [ 140.341982757000011, 38.885832481 ], [ 140.341950652, 38.88582378 ], [ 140.34191925799999, 38.88581564 ], [ 140.341894059, 38.885807527 ], [ 140.341862471000013, 38.885793056 ], [ 140.341830673, 38.8857743 ], [ 140.341795069999989, 38.885747929 ], [ 140.34178516, 38.88574059 ], [ 140.341730144, 38.885702928 ], [ 140.341678249000012, 38.885661929 ], [ 140.34159750399999, 38.885589337 ], [ 140.341483985, 38.885501523 ], [ 140.341442131, 38.885476271 ], [ 140.341377026, 38.885429752 ], [ 140.341314223000012, 38.885381257 ], [ 140.341258315, 38.88533484 ], [ 140.341240828, 38.88531391 ], [ 140.341153939, 38.88519958 ] ] ] } },
{ "type": "Feature", "properties": { "A29_001": "06361", "A29_002": "山形県", "A29_003": "金山町", "A29_004": 5, "A29_005": "第一種住居地域", "A29_006": 60, "A29_007": 200, "A29_008": "オープンデータ公開可" }, "geometry": { "type": "Polygon", "coordinates": [ [ [ 140.33666313099999, 38.888439808 ], [ 140.33676804699999, 38.888439844 ], [ 140.33681049399999, 38.888446174 ], [ 140.33692897200001, 38.888457338 ], [ 140.337048987, 38.888473837 ], [ 140.33710537799999, 38.888474077 ], [ 140.337272928, 38.888444245 ], [ 140.33738843099999, 38.888430591 ], [ 140.33749858499999, 38.888431879 ], [ 140.33756618000001, 38.888442826 ], [ 140.33762246, 38.888459054 ], [ 140.337687649, 38.88847655 ], [ 140.33776698299999, 38.888496771 ], [ 140.33783663599999, 38.888513466 ], [ 140.33791313099999, 38.888527115 ], [ 140.338023029, 38.888527377 ], [ 140.33807553599999, 38.888520425 ], [ 140.338124924, 38.888509359 ], [ 140.33816829700001, 38.888495604 ], [ 140.33821728, 38.888467317 ], [ 140.338247873, 38.888443258 ], [ 140.33827430299999, 38.888414261 ], [ 140.338302631, 38.888376457 ], [ 140.33833206599999, 38.888330253 ], [ 140.338351835999987, 38.888278269 ], [ 140.338681810999987, 38.888276387 ], [ 140.338936776, 38.888273777 ], [ 140.339109885, 38.888274305 ], [ 140.339139104, 38.888221335 ], [ 140.339223815999986, 38.888071024 ], [ 140.33930112199999, 38.887929495 ], [ 140.339344928, 38.887853549 ], [ 140.33936829699999, 38.887811703 ], [ 140.3394408, 38.887682044 ], [ 140.339476902, 38.887619878 ], [ 140.339444222999987, 38.887604366 ], [ 140.339397037, 38.88758342 ], [ 140.339317403, 38.887548071 ], [ 140.339155567, 38.887472974 ], [ 140.33901411799999, 38.887408212 ], [ 140.338862465, 38.887339922 ], [ 140.33872019899999, 38.887279461 ], [ 140.338606177, 38.887231215 ], [ 140.338430364, 38.887167127 ], [ 140.338233591, 38.887099875 ], [ 140.338042776, 38.887043512 ], [ 140.33796764600001, 38.887022489 ], [ 140.337805514, 38.886990232 ], [ 140.337611928, 38.886955177 ], [ 140.337506932999986, 38.886929107 ], [ 140.337393555, 38.886901566 ], [ 140.337285662999989, 38.886877124 ], [ 140.33719143499999, 38.886849049 ], [ 140.337030101000011, 38.88681536 ], [ 140.33681797700001, 38.886768334 ], [ 140.336623631, 38.886729584 ], [ 140.33643638699999, 38.886687994 ], [ 140.336323252, 38.886663323 ], [ 140.336202836000012, 38.886629601 ], [ 140.336121426, 38.8866065 ], [ 140.336078791, 38.886589714 ], [ 140.335992776000012, 38.886549989 ], [ 140.33595728899999, 38.886523599 ], [ 140.335912377999989, 38.886489956 ], [ 140.335844251, 38.886442037 ], [ 140.335791594, 38.886405167 ], [ 140.335723679000012, 38.886361069 ], [ 140.33565959500001, 38.886335787 ], [ 140.33560082599999, 38.886300687 ], [ 140.33550889599999, 38.886244332 ], [ 140.335465312, 38.886213192 ], [ 140.335443704999989, 38.886190157 ], [ 140.335402568, 38.886146302 ], [ 140.335368818, 38.886098562 ], [ 140.335344131999989, 38.886063645 ], [ 140.335335135, 38.886041201 ], [ 140.335313840999987, 38.885988078 ], [ 140.335299779, 38.885980829 ], [ 140.335284570999988, 38.885972989 ], [ 140.335227089, 38.88594138 ], [ 140.33516443900001, 38.885898781 ], [ 140.335070937000012, 38.885842317 ], [ 140.334929085, 38.885761149 ], [ 140.334769145, 38.885678674 ], [ 140.334696228000013, 38.885641463 ], [ 140.33465588199999, 38.885612113 ], [ 140.33458284400001, 38.885558982 ], [ 140.334542793, 38.885534884 ], [ 140.33448506900001, 38.885502982 ], [ 140.333030853999986, 38.886959828 ], [ 140.333105765999989, 38.886985184 ], [ 140.33317054299999, 38.887006038 ], [ 140.333401656, 38.88707529 ], [ 140.333655275000012, 38.887152018 ], [ 140.33387878, 38.887221648 ], [ 140.334137086, 38.887303315 ], [ 140.334301146, 38.887359569 ], [ 140.334447923, 38.88741206 ], [ 140.33455702099999, 38.887451474 ], [ 140.334670835999987, 38.887491524 ], [ 140.33477262400001, 38.887526193 ], [ 140.334897716, 38.887566496 ], [ 140.335063706, 38.887609638 ], [ 140.33523990899999, 38.887655078 ], [ 140.335413235, 38.887699276 ], [ 140.335528446000012, 38.887727441 ], [ 140.335624795, 38.887752246 ], [ 140.33566344499999, 38.88776598 ], [ 140.335671838, 38.887776431 ], [ 140.33568744199999, 38.887795562 ], [ 140.335709546, 38.88782292 ], [ 140.335740813, 38.887843191 ], [ 140.335753151, 38.88785119 ], [ 140.335786609, 38.887905246 ], [ 140.335817703, 38.887959907 ], [ 140.33582299599999, 38.887970199 ], [ 140.335830383, 38.88798456 ], [ 140.335844653, 38.888006965 ], [ 140.335858432, 38.888024448 ], [ 140.335878801, 38.888037244 ], [ 140.335942827999986, 38.888070931 ], [ 140.336011590999988, 38.888102383 ], [ 140.33608792699999, 38.888138582 ], [ 140.336109572, 38.888151332 ], [ 140.33614226, 38.888170587 ], [ 140.33614924299999, 38.888184762 ], [ 140.33608576899999, 38.888184696 ], [ 140.33601174099999, 38.888231325 ], [ 140.335921989000013, 38.888285186 ], [ 140.335895310000012, 38.888302781 ], [ 140.33581918499999, 38.888348991 ], [ 140.33576597699999, 38.888381358 ], [ 140.335725626999988, 38.888412755 ], [ 140.335671155999989, 38.888475661 ], [ 140.335634142, 38.888517732 ], [ 140.335586443000011, 38.888587431 ], [ 140.33556614, 38.888602719 ], [ 140.33551323899999, 38.888628528 ], [ 140.33545898599999, 38.888656201 ], [ 140.335456644, 38.888657395 ], [ 140.335512477, 38.888700067 ], [ 140.33557312100001, 38.888755112 ], [ 140.33558962699999, 38.888770094 ], [ 140.335642823, 38.888814804 ], [ 140.335675036, 38.888859425 ], [ 140.335710092, 38.888910003 ], [ 140.33571644599999, 38.888939139 ], [ 140.335746687000011, 38.888965712 ], [ 140.335747599, 38.888985395 ], [ 140.335707066, 38.889043031 ], [ 140.335665143999989, 38.88910347 ], [ 140.33565751899999, 38.889114465 ], [ 140.33573673, 38.889152316 ], [ 140.335791634, 38.889177764 ], [ 140.335931742000014, 38.889246829 ], [ 140.33605570099999, 38.889111651 ], [ 140.336211135000013, 38.888938684 ], [ 140.336341979, 38.8887939 ], [ 140.336519326, 38.888600321 ], [ 140.33666313099999, 38.888439808 ] ] ] } },
{ "type": "Feature", "properties": { "A29_001": "06361", "A29_002": "山形県", "A29_003": "金山町", "A29_004": 11, "A29_005": "工業地域", "A29_006": 60, "A29_007": 200, "A29_008": "オープンデータ公開可" }, "geometry": { "type": "Polygon", "coordinates": [ [ [ 140.335270008, 38.889736537 ], [ 140.335368912, 38.889612735 ], [ 140.335436109999989, 38.889538812 ], [ 140.33573673, 38.889152316 ], [ 140.33565751899999, 38.889114465 ], [ 140.335665143999989, 38.88910347 ], [ 140.335707066, 38.889043031 ], [ 140.335747599, 38.888985395 ], [ 140.335746687000011, 38.888965712 ], [ 140.33571644599999, 38.888939139 ], [ 140.335710092, 38.888910003 ], [ 140.335675036, 38.888859425 ], [ 140.335642823, 38.888814804 ], [ 140.33558962699999, 38.888770094 ], [ 140.33557312100001, 38.888755112 ], [ 140.335512477, 38.888700067 ], [ 140.335456644, 38.888657395 ], [ 140.33545898599999, 38.888656201 ], [ 140.33551323899999, 38.888628528 ], [ 140.33556614, 38.888602719 ], [ 140.335586443000011, 38.888587431 ], [ 140.335634142, 38.888517732 ], [ 140.335671155999989, 38.888475661 ], [ 140.335725626999988, 38.888412755 ], [ 140.33576597699999, 38.888381358 ], [ 140.33581918499999, 38.888348991 ], [ 140.335895310000012, 38.888302781 ], [ 140.335921989000013, 38.888285186 ], [ 140.33601174099999, 38.888231325 ], [ 140.33608576899999, 38.888184696 ], [ 140.33614924299999, 38.888184762 ], [ 140.33614226, 38.888170587 ], [ 140.336109572, 38.888151332 ], [ 140.33608792699999, 38.888138582 ], [ 140.336011590999988, 38.888102383 ], [ 140.335942827999986, 38.888070931 ], [ 140.335878801, 38.888037244 ], [ 140.335858432, 38.888024448 ], [ 140.335844653, 38.888006965 ], [ 140.335830383, 38.88798456 ], [ 140.33582299599999, 38.887970199 ], [ 140.335817703, 38.887959907 ], [ 140.335786609, 38.887905246 ], [ 140.335753151, 38.88785119 ], [ 140.335740813, 38.887843191 ], [ 140.335709546, 38.88782292 ], [ 140.33568744199999, 38.887795562 ], [ 140.335671838, 38.887776431 ], [ 140.33566344499999, 38.88776598 ], [ 140.335624795, 38.887752246 ], [ 140.335528446000012, 38.887727441 ], [ 140.335413235, 38.887699276 ], [ 140.33523990899999, 38.887655078 ], [ 140.335063706, 38.887609638 ], [ 140.334897716, 38.887566496 ], [ 140.33477262400001, 38.887526193 ], [ 140.334670835999987, 38.887491524 ], [ 140.33455702099999, 38.887451474 ], [ 140.334447923, 38.88741206 ], [ 140.334301146, 38.887359569 ], [ 140.334137086, 38.887303315 ], [ 140.33387878, 38.887221648 ], [ 140.333655275000012, 38.887152018 ], [ 140.333401656, 38.88707529 ], [ 140.33317054299999, 38.887006038 ], [ 140.333105765999989, 38.886985184 ], [ 140.333030853999986, 38.886959828 ], [ 140.33448506900001, 38.885502982 ], [ 140.334449608999989, 38.885483385 ], [ 140.334440762000014, 38.885481652 ], [ 140.334361865, 38.885466201 ], [ 140.334301653000011, 38.885450159 ], [ 140.334259753999987, 38.885440755 ], [ 140.334209681, 38.885437466 ], [ 140.334149502, 38.885416709 ], [ 140.33406921400001, 38.885383567 ], [ 140.333970638000011, 38.885340097 ], [ 140.33390292199999, 38.885309468 ], [ 140.333866386000011, 38.885283278 ], [ 140.333824902, 38.885252146 ], [ 140.333766172, 38.885199981 ], [ 140.333728197999989, 38.88516625 ], [ 140.333631249, 38.885077893 ], [ 140.333547845, 38.885014311 ], [ 140.333492868, 38.884981923 ], [ 140.333418795, 38.884966697 ], [ 140.333276157, 38.885110402 ], [ 140.333041052999988, 38.885349238 ], [ 140.332788238, 38.885607676 ], [ 140.332673075, 38.885722799 ], [ 140.33253837699999, 38.885855877 ], [ 140.332404161999989, 38.885989501 ], [ 140.332384181, 38.88598855 ], [ 140.332367713, 38.885989858 ], [ 140.332354428, 38.88599408 ], [ 140.332341644, 38.88600071 ], [ 140.33233220599999, 38.886010318 ], [ 140.33232922799999, 38.886022404 ], [ 140.332332525999988, 38.886036949 ], [ 140.332342879, 38.886048074 ], [ 140.332299092, 38.886091823 ], [ 140.332171253000013, 38.88621919 ], [ 140.33200221199999, 38.88638697 ], [ 140.331847965, 38.886539642 ], [ 140.331636124999989, 38.886751106 ], [ 140.331468097, 38.886923808 ], [ 140.331312786000012, 38.887078116 ], [ 140.331200279, 38.887187918 ], [ 140.33101073899999, 38.887360938 ], [ 140.33082214, 38.88754913 ], [ 140.33063196, 38.887738136 ], [ 140.330531588000014, 38.887840311 ], [ 140.330498811000012, 38.887873678 ], [ 140.33051505200001, 38.887876618 ], [ 140.330565858, 38.887860629 ], [ 140.330718396, 38.887955357 ], [ 140.33078232299999, 38.887995057 ], [ 140.33083912399999, 38.888034335 ], [ 140.33090343500001, 38.888078805 ], [ 140.33096557799999, 38.888118841 ], [ 140.331012746, 38.888125194 ], [ 140.331051688, 38.888107732 ], [ 140.331104068, 38.888081513 ], [ 140.33112457199999, 38.888075042 ], [ 140.331143743000013, 38.888071639 ], [ 140.33117492299999, 38.888076283 ], [ 140.33122298, 38.888105394 ], [ 140.331285232, 38.888148608 ], [ 140.33131162699999, 38.888162251 ], [ 140.331395824, 38.888199307 ], [ 140.331507794, 38.888240582 ], [ 140.33153536899999, 38.888252364 ], [ 140.33160793799999, 38.888285085 ], [ 140.331660209, 38.888311754 ], [ 140.331693070999989, 38.88833834 ], [ 140.33171217200001, 38.888355123 ], [ 140.33173269400001, 38.888373154 ], [ 140.331748481, 38.888403356 ], [ 140.331789864, 38.888486351 ], [ 140.33181758, 38.888540683 ], [ 140.331855536, 38.88858421 ], [ 140.331877424999988, 38.888604598 ], [ 140.331901654, 38.888628071 ], [ 140.33193927799999, 38.888648732 ], [ 140.331988188, 38.888668519 ], [ 140.332115906000013, 38.888708426 ], [ 140.332192719, 38.888731084 ], [ 140.33220123699999, 38.888733596 ], [ 140.332225099999988, 38.888771623 ], [ 140.332249464, 38.888813136 ], [ 140.33221796699999, 38.888853589 ], [ 140.332200969000013, 38.888883651 ], [ 140.332200691999986, 38.888923085 ], [ 140.332218340999987, 38.888949733 ], [ 140.332240219999989, 38.888971556 ], [ 140.33229268, 38.88900868 ], [ 140.332378029000012, 38.889068699 ], [ 140.33242465399999, 38.889115023 ], [ 140.33250404399999, 38.889201871 ], [ 140.332519711, 38.889211983 ], [ 140.332535931, 38.889217997 ], [ 140.33263822, 38.889218846 ], [ 140.33270867499999, 38.889195983 ], [ 140.332798564, 38.88916972 ], [ 140.332874366, 38.88916984 ], [ 140.332935502, 38.889166822 ], [ 140.33303402300001, 38.889143875 ], [ 140.33305814900001, 38.889144593 ], [ 140.333129125, 38.889197068 ], [ 140.333194975999987, 38.889232404 ], [ 140.33324493399999, 38.889252297 ], [ 140.333336499000012, 38.889286308 ], [ 140.333354336000014, 38.889286179 ], [ 140.333414207, 38.889239082 ], [ 140.333463639, 38.889203215 ], [ 140.33353846, 38.889249761 ], [ 140.333625571, 38.88930169 ], [ 140.333655109, 38.889316166 ], [ 140.33368440000001, 38.889328386 ], [ 140.333707178, 38.889334428 ], [ 140.333738086000011, 38.889340505 ], [ 140.333812834000014, 38.88934144 ], [ 140.333851597, 38.889349396 ], [ 140.333876479999986, 38.889354422 ], [ 140.333892713000012, 38.889367388 ], [ 140.333900476999986, 38.889373589 ], [ 140.33391059600001, 38.889389417 ], [ 140.33391576299999, 38.889400713 ], [ 140.333914376, 38.889448881 ], [ 140.333900083, 38.889504783 ], [ 140.333900132999986, 38.88953824 ], [ 140.333900175999986, 38.889566486 ], [ 140.333904995000012, 38.889589876 ], [ 140.333998192, 38.889615694 ], [ 140.33410813099999, 38.889647938 ], [ 140.33418799099999, 38.889667959 ], [ 140.33429958799999, 38.889688115 ], [ 140.334385274, 38.889700166 ], [ 140.334448165999987, 38.889708635 ], [ 140.33450950299999, 38.889714431 ], [ 140.334566384, 38.889719799 ], [ 140.33463585199999, 38.889725631 ], [ 140.334706121000011, 38.889729416 ], [ 140.334797916000014, 38.889730628 ], [ 140.334858301999986, 38.889722276 ], [ 140.334895034, 38.889720793 ], [ 140.33494008299999, 38.88973021 ], [ 140.334984619000011, 38.889737984 ], [ 140.335048166, 38.889765315 ], [ 140.33507583299999, 38.889784907 ], [ 140.335147553000013, 38.889843841 ], [ 140.335173922, 38.889861378 ], [ 140.33521153, 38.889809675 ], [ 140.335270008, 38.889736537 ] ] ] } },
{ "type": "Feature", "properties": { "A29_001": "06361", "A29_002": "山形県", "A29_003": "金山町", "A29_004": 10, "A29_005": "準工業地域", "A29_006": 60, "A29_007": 200, "A29_008": "オープンデータ公開可" }, "geometry": { "type": "Polygon", "coordinates": [ [ [ 140.336132104, 38.882532928 ], [ 140.335938884, 38.882457804 ], [ 140.335753653000012, 38.882431749 ], [ 140.335608502000014, 38.882430654 ], [ 140.335563326, 38.882436659 ], [ 140.335354333999987, 38.882494403 ], [ 140.33514818399999, 38.882494478 ], [ 140.335139097, 38.882480037 ], [ 140.33511622099999, 38.882440405 ], [ 140.335060691, 38.882340729 ], [ 140.334986469, 38.88218846 ], [ 140.334880524, 38.881939223 ], [ 140.334434402, 38.882059941 ], [ 140.333798695000013, 38.882206196 ], [ 140.33344696099999, 38.882286254 ], [ 140.333081811999989, 38.882376681 ], [ 140.332883248, 38.882425736 ], [ 140.332690902, 38.882481348 ], [ 140.332823262, 38.882666379 ], [ 140.332824112, 38.882675678 ], [ 140.33304929900001, 38.882983409 ], [ 140.33351990599999, 38.883519226 ], [ 140.33353447499999, 38.883553228 ], [ 140.333587445, 38.883610064 ], [ 140.333647531, 38.8836714 ], [ 140.333742233, 38.88375672 ], [ 140.333855820999986, 38.883867074 ], [ 140.333971767, 38.883980789 ], [ 140.334083928000013, 38.884090764 ], [ 140.334192777999988, 38.884197372 ], [ 140.334298768999986, 38.884303969 ], [ 140.334356523, 38.884358218 ], [ 140.334357415999989, 38.884366788 ], [ 140.334426551, 38.884428907 ], [ 140.33454307299999, 38.884528844 ], [ 140.334661055, 38.884624318 ], [ 140.33475342700001, 38.884702551 ], [ 140.33485482099999, 38.884785292 ], [ 140.33494341799999, 38.884858294 ], [ 140.33504578099999, 38.884938804 ], [ 140.335427081, 38.88452996 ], [ 140.33629244299999, 38.883630134 ], [ 140.336234314, 38.883591601 ], [ 140.33604919199999, 38.883458897 ], [ 140.336172312, 38.883295924 ], [ 140.336264347999986, 38.883148832 ], [ 140.336331387, 38.882996923 ], [ 140.336381968000012, 38.882798539 ], [ 140.33633918699999, 38.882748441 ], [ 140.336218613999989, 38.882581921 ], [ 140.336203828, 38.882563791 ], [ 140.336132104, 38.882532928 ] ] ] } },
{ "type": "Feature", "properties": { "A29_001": "06361", "A29_002": "山形県", "A29_003": "金山町", "A29_004": 8, "A29_005": "近隣商業地域", "A29_006": 80, "A29_007": 200, "A29_008": "オープンデータ公開可" }, "geometry": { "type": "Polygon", "coordinates": [ [ [ 140.339179771, 38.884627193 ], [ 140.339690072, 38.884228646 ], [ 140.33947391699999, 38.884024818 ], [ 140.339234508, 38.883796499 ], [ 140.339722794000011, 38.883418805 ], [ 140.339709096, 38.883366979 ], [ 140.339536501, 38.883140927 ], [ 140.33918971599999, 38.883401094 ], [ 140.338750046, 38.883037601 ], [ 140.33820613899999, 38.882589494 ], [ 140.337730935, 38.882198286 ], [ 140.337487836, 38.882005452 ], [ 140.337398162999989, 38.881950323 ], [ 140.337323579000014, 38.881917977 ], [ 140.33724034299999, 38.881890039 ], [ 140.337075371999987, 38.881843367 ], [ 140.336907688, 38.881289778 ], [ 140.336089619, 38.881442571 ], [ 140.33624223699999, 38.881945408 ], [ 140.336335488, 38.882254403 ], [ 140.336361165999989, 38.882383523 ], [ 140.336379603000012, 38.882472985 ], [ 140.336393179999988, 38.882644362 ], [ 140.336381968000012, 38.882798539 ], [ 140.336331387, 38.882996923 ], [ 140.336264347999986, 38.883148832 ], [ 140.336172312, 38.883295924 ], [ 140.33604919199999, 38.883458897 ], [ 140.336234314, 38.883591601 ], [ 140.33629244299999, 38.883630134 ], [ 140.336351952, 38.883569309 ], [ 140.336497544, 38.883395258 ], [ 140.33657222299999, 38.883277142 ], [ 140.33665208799999, 38.883098714 ], [ 140.33670021099999, 38.882962236 ], [ 140.336735037000011, 38.882750842 ], [ 140.336738945, 38.882668551 ], [ 140.336737395, 38.882548994 ], [ 140.336719243, 38.882418565 ], [ 140.33667902900001, 38.882240371 ], [ 140.336734981, 38.882279715 ], [ 140.336844896, 38.882370311 ], [ 140.337026818999988, 38.882521174 ], [ 140.337146692, 38.882618889 ], [ 140.337385457000011, 38.88281841 ], [ 140.337501069000012, 38.882912381 ], [ 140.33759913599999, 38.882993988 ], [ 140.337820408, 38.883174067 ], [ 140.337920387, 38.883254937 ], [ 140.33807246500001, 38.883381464 ], [ 140.338218868000013, 38.883501636 ], [ 140.338405021, 38.883661826 ], [ 140.33858506199999, 38.883810072 ], [ 140.338834276, 38.884015779 ], [ 140.338245333, 38.884494467 ], [ 140.33802825, 38.88433628 ], [ 140.337945158999986, 38.884278593 ], [ 140.337762448, 38.884148702 ], [ 140.337505842000013, 38.883956702 ], [ 140.33735732, 38.883849928 ], [ 140.337344081, 38.883859746 ], [ 140.33702355599999, 38.884097432 ], [ 140.336964072, 38.884143224 ], [ 140.33722688899999, 38.884310818 ], [ 140.337483717999987, 38.884485562 ], [ 140.33748963, 38.884489584 ], [ 140.337777442, 38.884694899 ], [ 140.338099102, 38.884924978 ], [ 140.33827459599999, 38.885026373 ], [ 140.338496115, 38.88518582 ], [ 140.339179771, 38.884627193 ] ] ] } }
]
}
