{
"type": "FeatureCollection",
"name": "A29-19_06301",
"features": [
{ "type": "Feature", "properties": { "A29_001": "06301", "A29_002": "山形県", "A29_003": "山辺町", "A29_004": 5, "A29_005": "第一種住居地域", "A29_006": 60, "A29_007": 200, "A29_008": "オープンデータ公開可" }, "geometry": { "type": "Polygon", "coordinates": [ [ [ 140.265465573, 38.291292842 ], [ 140.265756893, 38.291024584 ], [ 140.26637465499999, 38.290832398 ], [ 140.266592922, 38.290720222 ], [ 140.266932411, 38.290644622 ], [ 140.26704554, 38.290615136 ], [ 140.267512411000013, 38.290621859 ], [ 140.267609013, 38.290596997 ], [ 140.267884622, 38.290403152 ], [ 140.26799652, 38.290356015 ], [ 140.268191602, 38.290307789 ], [ 140.268331912, 38.290253339 ], [ 140.268476383, 38.290149743 ], [ 140.268580649, 38.290111509 ], [ 140.268849268, 38.290087474 ], [ 140.269098844000013, 38.290081225 ], [ 140.269911315, 38.29005292 ], [ 140.269996273, 38.290145133 ], [ 140.270173813000014, 38.290287523 ], [ 140.27031421699999, 38.29034295 ], [ 140.270497444, 38.290360963 ], [ 140.270653110000012, 38.290276042 ], [ 140.270885149, 38.290215324 ], [ 140.27098752399999, 38.290177078 ], [ 140.271163465, 38.290159298 ], [ 140.271493287999988, 38.290165348 ], [ 140.271607483999986, 38.290187498 ], [ 140.271731046000014, 38.290220867 ], [ 140.272387992, 38.289479459 ], [ 140.271322207, 38.289522252 ], [ 140.271015240999986, 38.289371793 ], [ 140.270981911, 38.288534941 ], [ 140.269732473, 38.288538011 ], [ 140.269419105, 38.28848287 ], [ 140.268382937000013, 38.288395941 ], [ 140.268374642999987, 38.288124744 ], [ 140.268304927, 38.287851761 ], [ 140.268291553000012, 38.28774815 ], [ 140.268283552000014, 38.287195367 ], [ 140.26828455, 38.286966051 ], [ 140.26803409199999, 38.287066036 ], [ 140.26736775, 38.287068038 ], [ 140.267364746999988, 38.28690595 ], [ 140.26684755299999, 38.286900631 ], [ 140.26683913799999, 38.286826029 ], [ 140.266332659, 38.286845517 ], [ 140.266166648, 38.286874841 ], [ 140.26597605, 38.287002342 ], [ 140.265827046999988, 38.287081882 ], [ 140.265759669, 38.287118374 ], [ 140.265678611, 38.287135765 ], [ 140.265582392, 38.287141021 ], [ 140.265482566, 38.287143398 ], [ 140.264183779, 38.28705667 ], [ 140.26399059900001, 38.287810904 ], [ 140.263968889000012, 38.288112112 ], [ 140.263986222, 38.288145712 ], [ 140.263997491, 38.288167555 ], [ 140.264443523000011, 38.288371866 ], [ 140.26462991599999, 38.288549501 ], [ 140.264601575, 38.288734472 ], [ 140.264559714, 38.289007686 ], [ 140.264557767000014, 38.289499336 ], [ 140.264591974000012, 38.289718514 ], [ 140.264838416, 38.289744974 ], [ 140.264834560999986, 38.289786374 ], [ 140.264834560999986, 38.28988395 ], [ 140.264776688000012, 38.290063803 ], [ 140.264770598000013, 38.290194055 ], [ 140.264800822000012, 38.290541531 ], [ 140.264841805, 38.291053902 ], [ 140.264401311, 38.291080122 ], [ 140.264400572, 38.291080157 ], [ 140.264399462, 38.291080344 ], [ 140.264316148, 38.291094383 ], [ 140.26424249499999, 38.291125355 ], [ 140.264131631, 38.291202321 ], [ 140.264409298, 38.291189909 ], [ 140.264485656, 38.291228808 ], [ 140.264656304999988, 38.29131574 ], [ 140.26524888, 38.29144525 ], [ 140.265386932000013, 38.291438469 ], [ 140.265400155, 38.291368395 ], [ 140.265465573, 38.291292842 ] ] ] } },
{ "type": "Feature", "properties": { "A29_001": "06301", "A29_002": "山形県", "A29_003": "山辺町", "A29_004": 5, "A29_005": "第一種住居地域", "A29_006": 60, "A29_007": 200, "A29_008": "オープンデータ公開可" }, "geometry": { "type": "Polygon", "coordinates": [ [ [ 140.260458269999987, 38.293037285 ], [ 140.260258646000011, 38.29238385 ], [ 140.260482422, 38.292389214 ], [ 140.26089629099999, 38.292395259 ], [ 140.2612134, 38.292365418 ], [ 140.261475694000012, 38.292391222 ], [ 140.262061910999989, 38.292464754 ], [ 140.26211853800001, 38.292479901 ], [ 140.262116313, 38.292424942 ], [ 140.262102924, 38.292338986 ], [ 140.261928471, 38.292316672 ], [ 140.261774397000011, 38.292196731 ], [ 140.261457766, 38.292074508 ], [ 140.261489699, 38.2920174 ], [ 140.261539520000014, 38.291894632 ], [ 140.261539107, 38.29182684 ], [ 140.261470823, 38.291735625 ], [ 140.261478823, 38.291679794 ], [ 140.261942929000014, 38.29167833 ], [ 140.261804231000013, 38.29136818 ], [ 140.261770637000012, 38.291312891 ], [ 140.26175422599999, 38.291101258 ], [ 140.261740624, 38.291058957 ], [ 140.26168690099999, 38.290951623 ], [ 140.261611988999988, 38.290888042 ], [ 140.261437550000011, 38.290772478 ], [ 140.261348572, 38.290712924 ], [ 140.26124746799999, 38.290645254 ], [ 140.261200677, 38.290601975 ], [ 140.261123322, 38.29046613 ], [ 140.261052017, 38.290302545 ], [ 140.261011918, 38.290172085 ], [ 140.260932005, 38.289962079 ], [ 140.260874736, 38.289845409 ], [ 140.26041073799999, 38.289306033 ], [ 140.260183834, 38.289054385 ], [ 140.260084968, 38.288944529 ], [ 140.259999069, 38.288879383 ], [ 140.259901824, 38.288852558 ], [ 140.25947520599999, 38.288768165 ], [ 140.259671768, 38.288157561 ], [ 140.258921036, 38.288180698 ], [ 140.258804594, 38.287910334 ], [ 140.258599194, 38.287377674 ], [ 140.258483697, 38.287072956 ], [ 140.258463029000012, 38.286759614 ], [ 140.258525251, 38.285524235 ], [ 140.257499381, 38.28555475 ], [ 140.257435611, 38.285556039 ], [ 140.257354795, 38.286812726 ], [ 140.25691141199999, 38.286826937 ], [ 140.257216508999988, 38.288320219 ], [ 140.256922296, 38.288324054 ], [ 140.256219055, 38.288314264 ], [ 140.255729951, 38.288279623 ], [ 140.255326497, 38.288236988 ], [ 140.25516083299999, 38.288209453 ], [ 140.255102139, 38.288189597 ], [ 140.25530035700001, 38.288845585 ], [ 140.25567286, 38.289687588 ], [ 140.255994331000011, 38.290389412 ], [ 140.256460906, 38.291388434 ], [ 140.25680441599999, 38.292173797 ], [ 140.25718246400001, 38.293015199 ], [ 140.257761262, 38.292886291 ], [ 140.258443449, 38.292919434 ], [ 140.258637792, 38.292966572 ], [ 140.258804027, 38.292982285 ], [ 140.259059567, 38.29294033 ], [ 140.25922129599999, 38.292906551 ], [ 140.259324131999989, 38.293022736 ], [ 140.259371695, 38.293076472 ], [ 140.260465114, 38.293059687 ], [ 140.260458269999987, 38.293037285 ] ] ] } },
{ "type": "Feature", "properties": { "A29_001": "06301", "A29_002": "山形県", "A29_003": "山辺町", "A29_004": 10, "A29_005": "準工業地域", "A29_006": 60, "A29_007": 200, "A29_008": "オープンデータ公開可" }, "geometry": { "type": "Polygon", "coordinates": [ [ [ 140.27692935499999, 38.297798563 ], [ 140.277348315000012, 38.29564536 ], [ 140.277198621, 38.295628189 ], [ 140.276872045, 38.295589814 ], [ 140.276709608, 38.295570726 ], [ 140.27647440699999, 38.295543089 ], [ 140.276246668, 38.295516328 ], [ 140.27567749100001, 38.295440292 ], [ 140.275, 38.295359391 ], [ 140.27420564900001, 38.295258122 ], [ 140.273623762999989, 38.295187128 ], [ 140.273589872, 38.295183268 ], [ 140.273588636, 38.295183128 ], [ 140.273379815, 38.295157563 ], [ 140.272897669, 38.295098536 ], [ 140.272291163, 38.295024283 ], [ 140.27158221799999, 38.294936357 ], [ 140.271453392000012, 38.295584581 ], [ 140.27131618199999, 38.296103012 ], [ 140.271072858999986, 38.297405037 ], [ 140.27106175899999, 38.297462526 ], [ 140.271447083, 38.297410177 ], [ 140.27146048, 38.297409665 ], [ 140.271542853999989, 38.297406514 ], [ 140.27163862399999, 38.297394057 ], [ 140.271748575, 38.297371469 ], [ 140.2718562, 38.297349359 ], [ 140.272862971, 38.297309182 ], [ 140.27337159199999, 38.297360475 ], [ 140.27353338399999, 38.29738026 ], [ 140.27390624899999, 38.297430821 ], [ 140.274190506, 38.29746847 ], [ 140.275, 38.29756834 ], [ 140.276206723, 38.297718615 ], [ 140.27692935499999, 38.297798563 ] ] ] } },
{ "type": "Feature", "properties": { "A29_001": "06301", "A29_002": "山形県", "A29_003": "山辺町", "A29_004": 11, "A29_005": "工業地域", "A29_006": 60, "A29_007": 200, "A29_008": "オープンデータ公開可" }, "geometry": { "type": "Polygon", "coordinates": [ [ [ 140.27328996, 38.290550132 ], [ 140.27307376499999, 38.290533515 ], [ 140.272856146, 38.290546571 ], [ 140.272683451, 38.290756563 ], [ 140.272497941000012, 38.291035028 ], [ 140.272350351, 38.291298776 ], [ 140.272248305, 38.291539648 ], [ 140.272150813, 38.291802889 ], [ 140.27209320599999, 38.292041739 ], [ 140.27206901, 38.292127834 ], [ 140.271922869, 38.292895055 ], [ 140.271815796999988, 38.293696409 ], [ 140.27175675399999, 38.293998571 ], [ 140.271620942, 38.294695183 ], [ 140.27158221799999, 38.294936357 ], [ 140.272291163, 38.295024283 ], [ 140.272897669, 38.295098536 ], [ 140.273379815, 38.295157563 ], [ 140.273588636, 38.295183128 ], [ 140.273589872, 38.295183268 ], [ 140.273623762999989, 38.295187128 ], [ 140.27420564900001, 38.295258122 ], [ 140.275, 38.295359391 ], [ 140.27567749100001, 38.295440292 ], [ 140.276246668, 38.295516328 ], [ 140.27647440699999, 38.295543089 ], [ 140.276709608, 38.295570726 ], [ 140.276872045, 38.295589814 ], [ 140.277198621, 38.295628189 ], [ 140.277348315000012, 38.29564536 ], [ 140.27692935499999, 38.297798563 ], [ 140.277413892, 38.297850026 ], [ 140.278227982, 38.297947743 ], [ 140.27915918299999, 38.298059417 ], [ 140.281657723, 38.298388313 ], [ 140.281566013, 38.298205349 ], [ 140.28148127899999, 38.298099435 ], [ 140.28146014399999, 38.298075451 ], [ 140.281354889, 38.297859591 ], [ 140.281229768, 38.29760309 ], [ 140.281212039, 38.297574475 ], [ 140.281192698000012, 38.297543259 ], [ 140.280721473999989, 38.29650307 ], [ 140.280622706, 38.296385814 ], [ 140.28051549599999, 38.296286782 ], [ 140.28013496299999, 38.29596357 ], [ 140.27991564199999, 38.295773259 ], [ 140.279237849, 38.295200441 ], [ 140.278540606, 38.294620987 ], [ 140.278148246, 38.294305023 ], [ 140.277879617999986, 38.294052729 ], [ 140.277791013000012, 38.293992368 ], [ 140.277658855999988, 38.293891766 ], [ 140.277471134, 38.293734354 ], [ 140.27734856399999, 38.293661292 ], [ 140.277138701000013, 38.293506945 ], [ 140.277026928, 38.293438159 ], [ 140.276604107, 38.293106891 ], [ 140.276214138, 38.29280632 ], [ 140.276069435000011, 38.292693892 ], [ 140.275627414000013, 38.292155436 ], [ 140.275307865, 38.291766379 ], [ 140.275041665, 38.291625233 ], [ 140.27477802300001, 38.291492869 ], [ 140.274557985, 38.291344324 ], [ 140.27432066099999, 38.291231452 ], [ 140.274126196999987, 38.291199238 ], [ 140.27374809299999, 38.290710245 ], [ 140.273555772, 38.290627354 ], [ 140.27328996, 38.290550132 ] ] ] } },
{ "type": "Feature", "properties": { "A29_001": "06301", "A29_002": "山形県", "A29_003": "山辺町", "A29_004": 6, "A29_005": "第二種住居地域", "A29_006": 60, "A29_007": 200, "A29_008": "オープンデータ公開可" }, "geometry": { "type": "Polygon", "coordinates": [ [ [ 140.269271169, 38.302442219 ], [ 140.269398740000014, 38.302258298 ], [ 140.26946986199999, 38.30226486 ], [ 140.27011137400001, 38.30240028 ], [ 140.270125576999988, 38.302350917 ], [ 140.270402851, 38.300955023 ], [ 140.270632854000013, 38.299685027 ], [ 140.27106175899999, 38.297462526 ], [ 140.271072858999986, 38.297405037 ], [ 140.27131618199999, 38.296103012 ], [ 140.271453392000012, 38.295584581 ], [ 140.27158221799999, 38.294936357 ], [ 140.271620942, 38.294695183 ], [ 140.27175675399999, 38.293998571 ], [ 140.271815796999988, 38.293696409 ], [ 140.271922869, 38.292895055 ], [ 140.27206901, 38.292127834 ], [ 140.27209320599999, 38.292041739 ], [ 140.272150813, 38.291802889 ], [ 140.272248305, 38.291539648 ], [ 140.272350351, 38.291298776 ], [ 140.272497941000012, 38.291035028 ], [ 140.272683451, 38.290756563 ], [ 140.272856146, 38.290546571 ], [ 140.272465025, 38.290399439 ], [ 140.271731046000014, 38.290220867 ], [ 140.271607483999986, 38.290187498 ], [ 140.271493287999988, 38.290165348 ], [ 140.271163465, 38.290159298 ], [ 140.27098752399999, 38.290177078 ], [ 140.270885149, 38.290215324 ], [ 140.270653110000012, 38.290276042 ], [ 140.270497444, 38.290360963 ], [ 140.27031421699999, 38.29034295 ], [ 140.270173813000014, 38.290287523 ], [ 140.269996273, 38.290145133 ], [ 140.269911315, 38.29005292 ], [ 140.269098844000013, 38.290081225 ], [ 140.268849268, 38.290087474 ], [ 140.268580649, 38.290111509 ], [ 140.268476383, 38.290149743 ], [ 140.268331912, 38.290253339 ], [ 140.268191602, 38.290307789 ], [ 140.26799652, 38.290356015 ], [ 140.267884622, 38.290403152 ], [ 140.267609013, 38.290596997 ], [ 140.267512411000013, 38.290621859 ], [ 140.26704554, 38.290615136 ], [ 140.266932411, 38.290644622 ], [ 140.266592922, 38.290720222 ], [ 140.26637465499999, 38.290832398 ], [ 140.265756893, 38.291024584 ], [ 140.265465573, 38.291292842 ], [ 140.265400155, 38.291368395 ], [ 140.265386932000013, 38.291438469 ], [ 140.26524888, 38.29144525 ], [ 140.264656304999988, 38.29131574 ], [ 140.264485656, 38.291228808 ], [ 140.264409298, 38.291189909 ], [ 140.264131631, 38.291202321 ], [ 140.263703391, 38.291093595 ], [ 140.263071685, 38.290892373 ], [ 140.262659934999988, 38.290847164 ], [ 140.26246705299999, 38.290855165 ], [ 140.262343541, 38.290936507 ], [ 140.262238516999986, 38.291028374 ], [ 140.261938057, 38.291291192 ], [ 140.261804231000013, 38.29136818 ], [ 140.261942929000014, 38.29167833 ], [ 140.261478823, 38.291679794 ], [ 140.261470823, 38.291735625 ], [ 140.261539107, 38.29182684 ], [ 140.261539520000014, 38.291894632 ], [ 140.261489699, 38.2920174 ], [ 140.261457766, 38.292074508 ], [ 140.261774397000011, 38.292196731 ], [ 140.261928471, 38.292316672 ], [ 140.262102924, 38.292338986 ], [ 140.262116313, 38.292424942 ], [ 140.26211853800001, 38.292479901 ], [ 140.262061910999989, 38.292464754 ], [ 140.261475694000012, 38.292391222 ], [ 140.2612134, 38.292365418 ], [ 140.26089629099999, 38.292395259 ], [ 140.260482422, 38.292389214 ], [ 140.260258646000011, 38.29238385 ], [ 140.260458269999987, 38.293037285 ], [ 140.260465114, 38.293059687 ], [ 140.259371695, 38.293076472 ], [ 140.259324131999989, 38.293022736 ], [ 140.25922129599999, 38.292906551 ], [ 140.259059567, 38.29294033 ], [ 140.258804027, 38.292982285 ], [ 140.258637792, 38.292966572 ], [ 140.258443449, 38.292919434 ], [ 140.257761262, 38.292886291 ], [ 140.25718246400001, 38.293015199 ], [ 140.25724645599999, 38.29317046 ], [ 140.25764659399999, 38.294115399 ], [ 140.257842455, 38.294575123 ], [ 140.258042227, 38.295086321 ], [ 140.258057783, 38.295126128 ], [ 140.258107999, 38.295126983 ], [ 140.259607034, 38.295143263 ], [ 140.260862075, 38.295174722 ], [ 140.26107422199999, 38.295221311 ], [ 140.261103714, 38.295243344 ], [ 140.261115536, 38.295278015 ], [ 140.261377332, 38.295303474 ], [ 140.261555566, 38.295321652 ], [ 140.261612834, 38.295327967 ], [ 140.261806901, 38.295351514 ], [ 140.26214846100001, 38.29539948 ], [ 140.26234840699999, 38.295408355 ], [ 140.26281562299999, 38.295386705 ], [ 140.262883562000013, 38.295789108 ], [ 140.263037959, 38.296699149 ], [ 140.263060246, 38.297125797 ], [ 140.26308387, 38.297257673 ], [ 140.26311044799999, 38.297401185 ], [ 140.26319694, 38.297689163 ], [ 140.263215589, 38.297736173 ], [ 140.263281548, 38.297902439 ], [ 140.263354115, 38.298046648 ], [ 140.263477916999989, 38.298198882 ], [ 140.26365506, 38.298462953 ], [ 140.26374211800001, 38.298638486 ], [ 140.26379393900001, 38.298796239 ], [ 140.263820194, 38.298876167 ], [ 140.263939932, 38.299263196 ], [ 140.26401522, 38.299467943 ], [ 140.26408312699999, 38.299594746 ], [ 140.264189417000011, 38.299726203 ], [ 140.26433993, 38.29987696 ], [ 140.264416888, 38.299979637 ], [ 140.264417758, 38.299980865 ], [ 140.264427074999986, 38.3 ], [ 140.264455222, 38.300074494 ], [ 140.264478868999987, 38.300137078 ], [ 140.264519854000014, 38.300280393 ], [ 140.264656831999986, 38.300999987 ], [ 140.26571637699999, 38.300853627 ], [ 140.265799163999986, 38.301337403 ], [ 140.266234007, 38.301340921 ], [ 140.266846499, 38.301384481 ], [ 140.26732741399999, 38.301295921 ], [ 140.267720781, 38.301242892 ], [ 140.26780832, 38.301233173 ], [ 140.268008744000014, 38.301196716 ], [ 140.26821773399999, 38.301135199 ], [ 140.268301674000014, 38.301103176 ], [ 140.268318325, 38.301096823 ], [ 140.268415487999988, 38.301076529 ], [ 140.268475776, 38.301077451 ], [ 140.26853167499999, 38.301090827 ], [ 140.26857924399999, 38.301117607 ], [ 140.268615145000012, 38.30114682 ], [ 140.26864733799999, 38.301189409 ], [ 140.268757899, 38.30138855 ], [ 140.268789601, 38.301487824 ], [ 140.268802994, 38.301563712 ], [ 140.268823031000011, 38.30167725 ], [ 140.268788921, 38.301716711 ], [ 140.268788733, 38.301716702 ], [ 140.26873700199999, 38.301795721 ], [ 140.268722368, 38.301836961 ], [ 140.268693137000014, 38.302039433 ], [ 140.26869016, 38.302118612 ], [ 140.268648633, 38.302264505 ], [ 140.268646536, 38.302297367 ], [ 140.26864785399999, 38.302353083 ], [ 140.268652935, 38.302414272 ], [ 140.268675879, 38.302507674 ], [ 140.268709363, 38.30260964 ], [ 140.268961761000014, 38.302532196 ], [ 140.269219009000011, 38.302517417 ], [ 140.269271169, 38.302442219 ] ] ] } },
{ "type": "Feature", "properties": { "A29_001": "06301", "A29_002": "山形県", "A29_003": "山辺町", "A29_004": 5, "A29_005": "第一種住居地域", "A29_006": 60, "A29_007": 200, "A29_008": "オープンデータ公開可" }, "geometry": { "type": "Polygon", "coordinates": [ [ [ 140.265713471, 38.30427833 ], [ 140.26589404399999, 38.30407395 ], [ 140.266065319, 38.303973234 ], [ 140.26619333799999, 38.303964347 ], [ 140.266193640000012, 38.303925468 ], [ 140.266196783, 38.303521871 ], [ 140.266146722, 38.30339499 ], [ 140.26611648299999, 38.303301947 ], [ 140.266082017, 38.30305023 ], [ 140.265799163999986, 38.301337403 ], [ 140.26571637699999, 38.300853627 ], [ 140.264656831999986, 38.300999987 ], [ 140.264519854000014, 38.300280393 ], [ 140.264478868999987, 38.300137078 ], [ 140.264455222, 38.300074494 ], [ 140.264427074999986, 38.3 ], [ 140.264417758, 38.299980865 ], [ 140.264416888, 38.299979637 ], [ 140.26433993, 38.29987696 ], [ 140.264189417000011, 38.299726203 ], [ 140.26408312699999, 38.299594746 ], [ 140.26401522, 38.299467943 ], [ 140.263939932, 38.299263196 ], [ 140.263820194, 38.298876167 ], [ 140.26379393900001, 38.298796239 ], [ 140.26374211800001, 38.298638486 ], [ 140.26365506, 38.298462953 ], [ 140.263477916999989, 38.298198882 ], [ 140.263354115, 38.298046648 ], [ 140.263281548, 38.297902439 ], [ 140.263215589, 38.297736173 ], [ 140.26319694, 38.297689163 ], [ 140.26311044799999, 38.297401185 ], [ 140.26308387, 38.297257673 ], [ 140.263060246, 38.297125797 ], [ 140.263037959, 38.296699149 ], [ 140.262883562000013, 38.295789108 ], [ 140.26281562299999, 38.295386705 ], [ 140.26234840699999, 38.295408355 ], [ 140.26214846100001, 38.29539948 ], [ 140.261806901, 38.295351514 ], [ 140.261612834, 38.295327967 ], [ 140.261555566, 38.295321652 ], [ 140.261377332, 38.295303474 ], [ 140.261115536, 38.295278015 ], [ 140.261081853, 38.296431568 ], [ 140.261075497, 38.296649265 ], [ 140.261065194999986, 38.296986323 ], [ 140.261046786, 38.297246354 ], [ 140.26103742, 38.297378655 ], [ 140.261053825, 38.297746404 ], [ 140.261173703, 38.298000368 ], [ 140.26118369400001, 38.298027364 ], [ 140.261204698, 38.298084114 ], [ 140.261242829999986, 38.298131149 ], [ 140.261272593, 38.298167861 ], [ 140.261362627000011, 38.298303949 ], [ 140.26144971, 38.298451669 ], [ 140.261508749, 38.298567983 ], [ 140.26157664499999, 38.298648241 ], [ 140.261603213, 38.298702909 ], [ 140.26160203500001, 38.298740478 ], [ 140.26155353199999, 38.298948842 ], [ 140.261340381, 38.299070621 ], [ 140.261317394, 38.299083754 ], [ 140.26132564400001, 38.299578817 ], [ 140.26143328399999, 38.2998356 ], [ 140.26167323199999, 38.300578726 ], [ 140.261695685, 38.300673936 ], [ 140.261649248, 38.300743985 ], [ 140.261573473, 38.300762984 ], [ 140.261128394999986, 38.300821694 ], [ 140.261225486, 38.301071817 ], [ 140.261330229, 38.301259225 ], [ 140.26145916499999, 38.301355397 ], [ 140.261643606, 38.301437636 ], [ 140.261651312999987, 38.301442024 ], [ 140.26170743899999, 38.301668457 ], [ 140.261717307, 38.301708265 ], [ 140.261301161, 38.301752224 ], [ 140.261285877, 38.301753838 ], [ 140.26127759, 38.301856381 ], [ 140.26127540600001, 38.301883406 ], [ 140.26092934499999, 38.301900054 ], [ 140.260853626999989, 38.301903696 ], [ 140.260956297, 38.302296905 ], [ 140.261041076, 38.302694838 ], [ 140.261118704000012, 38.302979366 ], [ 140.261072649, 38.302988677 ], [ 140.26125502, 38.303437244 ], [ 140.261329522000011, 38.303580636 ], [ 140.261509714999988, 38.30374838 ], [ 140.26174644, 38.303940238 ], [ 140.261918294, 38.304028155 ], [ 140.262310750000012, 38.304124038 ], [ 140.262880058, 38.304126808 ], [ 140.26372319, 38.304202979 ], [ 140.264374237999988, 38.30425615 ], [ 140.264514633, 38.304241274 ], [ 140.26485714899999, 38.304087866 ], [ 140.26524204, 38.304280948 ], [ 140.265491612, 38.30435276 ], [ 140.265659674, 38.304344748 ], [ 140.265713471, 38.30427833 ] ] ] } }
]
}
