{
"type": "FeatureCollection",
"name": "A29-19_39208",
"features": [
{ "type": "Feature", "properties": { "A29_001": "39208", "A29_002": "高知県", "A29_003": "宿毛市", "A29_004": 10, "A29_005": "準工業地域", "A29_006": 60, "A29_007": 200, "A29_008": null }, "geometry": { "type": "Polygon", "coordinates": [ [ [ 132.699725131, 32.920242869 ], [ 132.699847530999989, 32.920097409 ], [ 132.69993678099999, 32.919908749 ], [ 132.69995778099999, 32.919784129 ], [ 132.699935191, 32.919671809 ], [ 132.699886111000012, 32.919604389 ], [ 132.699653391, 32.919448259 ], [ 132.699474221, 32.919345429 ], [ 132.69941608100001, 32.919318849 ], [ 132.699329911, 32.919329033 ], [ 132.699241495, 32.919346599 ], [ 132.699127672, 32.919345882 ], [ 132.699057645000011, 32.919331219 ], [ 132.69901332, 32.919288479 ], [ 132.69901613499999, 32.919241847 ], [ 132.69901517299999, 32.919160244 ], [ 132.699034641999987, 32.919071615 ], [ 132.699106185, 32.918854482 ], [ 132.69917987, 32.918741208 ], [ 132.699359619, 32.918570578 ], [ 132.69956643099999, 32.91841014 ], [ 132.699405167, 32.918224442 ], [ 132.699432733, 32.918145659 ], [ 132.69953230199999, 32.918053474 ], [ 132.699473946000012, 32.917937147 ], [ 132.699426877, 32.917886742 ], [ 132.699381002, 32.917892174 ], [ 132.699146009, 32.917977992 ], [ 132.698840878, 32.918124914 ], [ 132.698651617, 32.918221044 ], [ 132.698663610000011, 32.918270709 ], [ 132.698735840000012, 32.918383029 ], [ 132.69865121, 32.918401349 ], [ 132.6987033, 32.918755529 ], [ 132.698714200000012, 32.919339549 ], [ 132.698868952, 32.919595871 ], [ 132.698999765999986, 32.919692802 ], [ 132.699315111, 32.919782669 ], [ 132.699445430999987, 32.919930279 ], [ 132.699568000999989, 32.920243919 ], [ 132.699725131, 32.920242869 ] ] ] } },
{ "type": "Feature", "properties": { "A29_001": "39208", "A29_002": "高知県", "A29_003": "宿毛市", "A29_004": 10, "A29_005": "準工業地域", "A29_006": 60, "A29_007": 200, "A29_008": null }, "geometry": { "type": "Polygon", "coordinates": [ [ [ 132.697146755, 32.921329167 ], [ 132.696754082000012, 32.921065663 ], [ 132.696580153000014, 32.92121724 ], [ 132.695731020000011, 32.92063801 ], [ 132.695212239999989, 32.920281297 ], [ 132.694697432, 32.920398026 ], [ 132.694768864, 32.920752266 ], [ 132.695093496, 32.920759273 ], [ 132.69620014, 32.921429521 ], [ 132.69640909, 32.921346882 ], [ 132.696748493, 32.9213247 ], [ 132.697027375, 32.921517361 ], [ 132.697146755, 32.921329167 ] ] ] } },
{ "type": "Feature", "properties": { "A29_001": "39208", "A29_002": "高知県", "A29_003": "宿毛市", "A29_004": 10, "A29_005": "準工業地域", "A29_006": 60, "A29_007": 200, "A29_008": null }, "geometry": { "type": "Polygon", "coordinates": [ [ [ 132.702475619000012, 32.91890245 ], [ 132.702432246, 32.918818191 ], [ 132.702418268, 32.918730302 ], [ 132.702391302, 32.918709134 ], [ 132.702389133999986, 32.918817529 ], [ 132.702202752, 32.919022579 ], [ 132.702205205000013, 32.919127573 ], [ 132.702211334, 32.919201096 ], [ 132.702244339, 32.919353167 ], [ 132.702231097, 32.919479725 ], [ 132.70220899099999, 32.919547342 ], [ 132.70216561399999, 32.91965268 ], [ 132.70211545399999, 32.919696459 ], [ 132.702091169999989, 32.919752411 ], [ 132.702094546000012, 32.91984906 ], [ 132.702180051, 32.920092964 ], [ 132.70220358, 32.920150375 ], [ 132.702231278, 32.920216163 ], [ 132.702240665, 32.920273484 ], [ 132.702240737000011, 32.920339016 ], [ 132.702200793, 32.920376935 ], [ 132.702143404, 32.920387029 ], [ 132.701843703, 32.920287619 ], [ 132.701749543, 32.920261849 ], [ 132.701665033000012, 32.920265499 ], [ 132.70160510299999, 32.920300759 ], [ 132.701432493, 32.920503579 ], [ 132.701297372999989, 32.920610709 ], [ 132.701268563000014, 32.920637789 ], [ 132.701249033000011, 32.920738299 ], [ 132.701240833000014, 32.920821079 ], [ 132.70126268300001, 32.920877839 ], [ 132.701343173, 32.920974279 ], [ 132.70137125299999, 32.921027929 ], [ 132.701390343000014, 32.921116119 ], [ 132.701429663, 32.921163549 ], [ 132.701572123, 32.921206399 ], [ 132.701641263, 32.921252959 ], [ 132.701694013, 32.921326689 ], [ 132.701696013, 32.921450939 ], [ 132.701633813, 32.921599419 ], [ 132.701569443000011, 32.921713289 ], [ 132.701507822999986, 32.921796759 ], [ 132.701447452999986, 32.921948929 ], [ 132.701426443, 32.922075649 ], [ 132.701451423, 32.922199519 ], [ 132.701481953000012, 32.922256329 ], [ 132.701737181999988, 32.922264564 ], [ 132.701817153, 32.922053439 ], [ 132.701803152999986, 32.921810439 ], [ 132.701916153000013, 32.921600439 ], [ 132.702163154, 32.921157439 ], [ 132.702369154, 32.920823439 ], [ 132.702615154, 32.920569439 ], [ 132.702655154000013, 32.920516439 ], [ 132.702556154, 32.920179439 ], [ 132.702531154000013, 32.920008439 ], [ 132.70248415399999, 32.919686439 ], [ 132.702475619000012, 32.91890245 ] ] ] } },
{ "type": "Feature", "properties": { "A29_001": "39208", "A29_002": "高知県", "A29_003": "宿毛市", "A29_004": 8, "A29_005": "近隣商業地域", "A29_006": 80, "A29_007": 300, "A29_008": null }, "geometry": { "type": "Polygon", "coordinates": [ [ [ 132.699569101, 32.921156049 ], [ 132.699702631, 32.920949329 ], [ 132.699769601000014, 32.920753189 ], [ 132.699803451, 32.920580419 ], [ 132.699811181, 32.920480349 ], [ 132.699725131, 32.920242869 ], [ 132.699568000999989, 32.920243919 ], [ 132.699230785999987, 32.920811789 ], [ 132.698799538, 32.920952178 ], [ 132.697908487, 32.920427919 ], [ 132.697540013, 32.920885059 ], [ 132.698216918000014, 32.921328337 ], [ 132.69929731900001, 32.921487277 ], [ 132.69933923, 32.92157705 ], [ 132.69936139, 32.92173654 ], [ 132.69939277899999, 32.921921917 ], [ 132.699469189000013, 32.922057117 ], [ 132.699492109, 32.922132747 ], [ 132.69949010900001, 32.922217647 ], [ 132.699481948999988, 32.922296217 ], [ 132.699485159, 32.922352847 ], [ 132.69956043900001, 32.922406797 ], [ 132.69965729899999, 32.922478187 ], [ 132.699738329000013, 32.922583547 ], [ 132.69982439899999, 32.922542157 ], [ 132.69993015899999, 32.922660247 ], [ 132.70000048899999, 32.922712067 ], [ 132.700305039999989, 32.922824097 ], [ 132.70058727, 32.922931777 ], [ 132.70070705, 32.923010128 ], [ 132.70073754, 32.923073228 ], [ 132.70074209, 32.923119378 ], [ 132.70070064, 32.923170488 ], [ 132.700570660000011, 32.923260857 ], [ 132.70039415, 32.923345167 ], [ 132.700339574, 32.92336532 ], [ 132.700428824, 32.92358524 ], [ 132.70034937, 32.923620465 ], [ 132.70051475599999, 32.924019476 ], [ 132.70104333, 32.923877168 ], [ 132.701100630000013, 32.924064668 ], [ 132.70120454, 32.924249848 ], [ 132.701309540000011, 32.924384188 ], [ 132.70175067, 32.924779098 ], [ 132.702062125999987, 32.925055019 ], [ 132.702169590000011, 32.924945511 ], [ 132.70212695399999, 32.924501509 ], [ 132.702042677, 32.924287682 ], [ 132.702173262, 32.924237219 ], [ 132.702077403, 32.924072409 ], [ 132.702084463, 32.923978099 ], [ 132.702062723000012, 32.923908769 ], [ 132.701929143, 32.923845019 ], [ 132.701762992999988, 32.923812509 ], [ 132.70190871299999, 32.923560249 ], [ 132.701564413, 32.922688429 ], [ 132.701452983, 32.922715499 ], [ 132.701221683, 32.922400029 ], [ 132.701107062, 32.922299699 ], [ 132.70088072199999, 32.922192369 ], [ 132.70024176199999, 32.921906789 ], [ 132.700062951, 32.921830689 ], [ 132.699979051000014, 32.921769349 ], [ 132.699934751, 32.921722939 ], [ 132.699871231, 32.921605109 ], [ 132.699658881, 32.921393559 ], [ 132.699467441, 32.921272809 ], [ 132.699569101, 32.921156049 ] ] ] } },
{ "type": "Feature", "properties": { "A29_001": "39208", "A29_002": "高知県", "A29_003": "宿毛市", "A29_004": 5, "A29_005": "第一種住居地域", "A29_006": 60, "A29_007": 200, "A29_008": null }, "geometry": { "type": "Polygon", "coordinates": [ [ [ 132.702681637000012, 32.924030667 ], [ 132.702588553999988, 32.92381105 ], [ 132.702369154, 32.923488439 ], [ 132.70241916399999, 32.923391989 ], [ 132.70249515399999, 32.923245439 ], [ 132.702508153999986, 32.923132439 ], [ 132.70177103, 32.922340613 ], [ 132.701737181999988, 32.922264564 ], [ 132.701481953000012, 32.922256329 ], [ 132.701451423, 32.922199519 ], [ 132.701426443, 32.922075649 ], [ 132.701447452999986, 32.921948929 ], [ 132.701507822999986, 32.921796759 ], [ 132.701569443000011, 32.921713289 ], [ 132.701633813, 32.921599419 ], [ 132.701696013, 32.921450939 ], [ 132.701694013, 32.921326689 ], [ 132.701641263, 32.921252959 ], [ 132.701572123, 32.921206399 ], [ 132.701429663, 32.921163549 ], [ 132.701390343000014, 32.921116119 ], [ 132.70137125299999, 32.921027929 ], [ 132.701343173, 32.920974279 ], [ 132.70126268300001, 32.920877839 ], [ 132.701240833000014, 32.920821079 ], [ 132.701249033000011, 32.920738299 ], [ 132.701268563000014, 32.920637789 ], [ 132.701297372999989, 32.920610709 ], [ 132.701432493, 32.920503579 ], [ 132.70160510299999, 32.920300759 ], [ 132.701665033000012, 32.920265499 ], [ 132.701749543, 32.920261849 ], [ 132.701843703, 32.920287619 ], [ 132.702143404, 32.920387029 ], [ 132.702200793, 32.920376935 ], [ 132.702240737000011, 32.920339016 ], [ 132.702240665, 32.920273484 ], [ 132.702231278, 32.920216163 ], [ 132.70220358, 32.920150375 ], [ 132.702180051, 32.920092964 ], [ 132.702094546000012, 32.91984906 ], [ 132.702091169999989, 32.919752411 ], [ 132.70211545399999, 32.919696459 ], [ 132.70216561399999, 32.91965268 ], [ 132.70220899099999, 32.919547342 ], [ 132.702231097, 32.919479725 ], [ 132.702244339, 32.919353167 ], [ 132.702211334, 32.919201096 ], [ 132.702205205000013, 32.919127573 ], [ 132.702202752, 32.919022579 ], [ 132.702389133999986, 32.918817529 ], [ 132.702391302, 32.918709134 ], [ 132.702082681, 32.918627381 ], [ 132.700818152000011, 32.918209439 ], [ 132.69996215099999, 32.917935439 ], [ 132.699856581, 32.917921569 ], [ 132.699494641, 32.918037829 ], [ 132.699513994, 32.918070425 ], [ 132.699432733, 32.918145659 ], [ 132.699405167, 32.918224442 ], [ 132.69956643099999, 32.91841014 ], [ 132.699359619, 32.918570578 ], [ 132.69917987, 32.918741208 ], [ 132.699106185, 32.918854482 ], [ 132.699034641999987, 32.919071615 ], [ 132.69901517299999, 32.919160244 ], [ 132.69901613499999, 32.919241847 ], [ 132.69901332, 32.919288479 ], [ 132.699057645000011, 32.919331219 ], [ 132.699127672, 32.919345882 ], [ 132.699241495, 32.919346599 ], [ 132.699329911, 32.919329033 ], [ 132.69941608100001, 32.919318849 ], [ 132.699474221, 32.919345429 ], [ 132.699653391, 32.919448259 ], [ 132.699886111000012, 32.919604389 ], [ 132.699935191, 32.919671809 ], [ 132.69995778099999, 32.919784129 ], [ 132.69993678099999, 32.919908749 ], [ 132.699847530999989, 32.920097409 ], [ 132.699725131, 32.920242869 ], [ 132.699811181, 32.920480349 ], [ 132.699803451, 32.920580419 ], [ 132.699769601000014, 32.920753189 ], [ 132.699702631, 32.920949329 ], [ 132.699569101, 32.921156049 ], [ 132.699467441, 32.921272809 ], [ 132.699658881, 32.921393559 ], [ 132.699871231, 32.921605109 ], [ 132.699934751, 32.921722939 ], [ 132.699979051000014, 32.921769349 ], [ 132.700062951, 32.921830689 ], [ 132.70024176199999, 32.921906789 ], [ 132.70088072199999, 32.922192369 ], [ 132.701107062, 32.922299699 ], [ 132.701221683, 32.922400029 ], [ 132.701452983, 32.922715499 ], [ 132.701564413, 32.922688429 ], [ 132.70190871299999, 32.923560249 ], [ 132.701762992999988, 32.923812509 ], [ 132.701929143, 32.923845019 ], [ 132.702062723000012, 32.923908769 ], [ 132.702084463, 32.923978099 ], [ 132.702077403, 32.924072409 ], [ 132.702173262, 32.924237219 ], [ 132.702042677, 32.924287682 ], [ 132.70212695399999, 32.924501509 ], [ 132.702169590000011, 32.924945511 ], [ 132.702515612000013, 32.925101087 ], [ 132.70267228099999, 32.924801251 ], [ 132.702734537, 32.924560806 ], [ 132.702748304000011, 32.92423055 ], [ 132.702681637000012, 32.924030667 ] ] ] } },
{ "type": "Feature", "properties": { "A29_001": "39208", "A29_002": "高知県", "A29_003": "宿毛市", "A29_004": 10, "A29_005": "準工業地域", "A29_006": 60, "A29_007": 200, "A29_008": null }, "geometry": { "type": "Polygon", "coordinates": [ [ [ 132.696852592, 32.926559419 ], [ 132.696980145, 32.926590331 ], [ 132.696958383, 32.926478888 ], [ 132.696911424, 32.926473478 ], [ 132.69675862599999, 32.926361227 ], [ 132.69654093599999, 32.926259187 ], [ 132.696379656, 32.926099837 ], [ 132.69621307599999, 32.925838767 ], [ 132.695813176, 32.925134697 ], [ 132.69567378, 32.925175438 ], [ 132.69520251099999, 32.925313175 ], [ 132.694965591999988, 32.925382419 ], [ 132.694485463, 32.925510415 ], [ 132.69455259099999, 32.926149408 ], [ 132.694561591, 32.926245418 ], [ 132.694570601, 32.926618418 ], [ 132.694691591, 32.926607418 ], [ 132.696042591, 32.926576419 ], [ 132.69623659199999, 32.926580419 ], [ 132.696852592, 32.926559419 ] ] ] } },
{ "type": "Feature", "properties": { "A29_001": "39208", "A29_002": "高知県", "A29_003": "宿毛市", "A29_004": 5, "A29_005": "第一種住居地域", "A29_006": 60, "A29_007": 200, "A29_008": null }, "geometry": { "type": "Polygon", "coordinates": [ [ [ 132.701100630000013, 32.924064668 ], [ 132.70104333, 32.923877168 ], [ 132.70051475599999, 32.924019476 ], [ 132.70034937, 32.923620465 ], [ 132.700428824, 32.92358524 ], [ 132.700339574, 32.92336532 ], [ 132.70039415, 32.923345167 ], [ 132.700570660000011, 32.923260857 ], [ 132.70070064, 32.923170488 ], [ 132.70074209, 32.923119378 ], [ 132.70073754, 32.923073228 ], [ 132.70070705, 32.923010128 ], [ 132.70058727, 32.922931777 ], [ 132.700305039999989, 32.922824097 ], [ 132.70000048899999, 32.922712067 ], [ 132.69993015899999, 32.922660247 ], [ 132.69982439899999, 32.922542157 ], [ 132.699738329000013, 32.922583547 ], [ 132.69965729899999, 32.922478187 ], [ 132.69956043900001, 32.922406797 ], [ 132.699485159, 32.922352847 ], [ 132.699481948999988, 32.922296217 ], [ 132.69949010900001, 32.922217647 ], [ 132.699492109, 32.922132747 ], [ 132.699469189000013, 32.922057117 ], [ 132.69939277899999, 32.921921917 ], [ 132.69936139, 32.92173654 ], [ 132.69933923, 32.92157705 ], [ 132.69929731900001, 32.921487277 ], [ 132.698216918000014, 32.921328337 ], [ 132.697540013, 32.920885059 ], [ 132.697146755, 32.921329167 ], [ 132.697027375, 32.921517361 ], [ 132.696748493, 32.9213247 ], [ 132.69640909, 32.921346882 ], [ 132.69620014, 32.921429521 ], [ 132.695093496, 32.920759273 ], [ 132.694768864, 32.920752266 ], [ 132.69478883299999, 32.920954529 ], [ 132.69571041399999, 32.921560456 ], [ 132.695218684, 32.921979117 ], [ 132.695295445999989, 32.922268266 ], [ 132.695370096, 32.922558667 ], [ 132.695487356, 32.922776427 ], [ 132.695590226, 32.922869867 ], [ 132.695708816, 32.922942967 ], [ 132.69583107599999, 32.923020287 ], [ 132.69587883599999, 32.923095027 ], [ 132.695900435999988, 32.923179027 ], [ 132.695939736000014, 32.923228567 ], [ 132.69602128599999, 32.923276257 ], [ 132.696131696, 32.923290597 ], [ 132.696353286, 32.923441417 ], [ 132.696500127, 32.923547197 ], [ 132.696543717999987, 32.923572207 ], [ 132.696555913999987, 32.923599962 ], [ 132.696541948, 32.923642817 ], [ 132.696509843, 32.923689374 ], [ 132.69640427499999, 32.923851252 ], [ 132.696317107999988, 32.923980482 ], [ 132.696114456, 32.924097717 ], [ 132.695928314000014, 32.924261005 ], [ 132.695851542000014, 32.924343347 ], [ 132.695853777999986, 32.924432307 ], [ 132.695883436, 32.924531273 ], [ 132.69618472799999, 32.925015274 ], [ 132.695813176, 32.925134697 ], [ 132.69621307599999, 32.925838767 ], [ 132.696379656, 32.926099837 ], [ 132.69654093599999, 32.926259187 ], [ 132.69675862599999, 32.926361227 ], [ 132.696948666, 32.926500837 ], [ 132.696980145, 32.926590331 ], [ 132.697182483, 32.926646029 ], [ 132.697418991, 32.92667608 ], [ 132.697754468, 32.926724035 ], [ 132.69832689899999, 32.926815918 ], [ 132.698613845000011, 32.926892398 ], [ 132.69908082399999, 32.927045813 ], [ 132.69913154, 32.926860695 ], [ 132.699607136999987, 32.926729224 ], [ 132.699550557, 32.926529664 ], [ 132.700859057, 32.926268083 ], [ 132.70144713799999, 32.926140273 ], [ 132.701628597, 32.926029533 ], [ 132.70170506, 32.92592226 ], [ 132.701776638000013, 32.925827282 ], [ 132.70202734599999, 32.925473986 ], [ 132.70203324, 32.92539408 ], [ 132.702079739999988, 32.92519519 ], [ 132.702062125999987, 32.925055019 ], [ 132.70175067, 32.924779098 ], [ 132.701309540000011, 32.924384188 ], [ 132.70120454, 32.924249848 ], [ 132.701100630000013, 32.924064668 ] ] ] } },
{ "type": "Feature", "properties": { "A29_001": "39208", "A29_002": "高知県", "A29_003": "宿毛市", "A29_004": 11, "A29_005": "工業地域", "A29_006": 60, "A29_007": 200, "A29_008": null }, "geometry": { "type": "Polygon", "coordinates": [ [ [ 132.693946713, 32.927759311 ], [ 132.693924579, 32.927704293 ], [ 132.693878133, 32.927522668 ], [ 132.693825357, 32.927414964 ], [ 132.69380396, 32.927278832 ], [ 132.69376465900001, 32.927245176 ], [ 132.693699681, 32.927235214 ], [ 132.693636575999989, 32.927199088 ], [ 132.69353357599999, 32.927159088 ], [ 132.69330957599999, 32.927124087 ], [ 132.693005575, 32.927102087 ], [ 132.692020466, 32.927000973 ], [ 132.691898242, 32.927002091 ], [ 132.691848297, 32.927018946 ], [ 132.69181657499999, 32.927056076 ], [ 132.69187173899999, 32.927355186 ], [ 132.691755785999987, 32.927662212 ], [ 132.691667201, 32.92775946 ], [ 132.69153854000001, 32.927752663 ], [ 132.691494573999989, 32.927788086 ], [ 132.69147057399999, 32.927873086 ], [ 132.69132557399999, 32.927814086 ], [ 132.691250566, 32.927782614 ], [ 132.691302452, 32.927224496 ], [ 132.691333941000011, 32.926893622 ], [ 132.69130146, 32.926732366 ], [ 132.69098890399999, 32.925638812 ], [ 132.690934719000012, 32.925531098 ], [ 132.690888728, 32.925455645 ], [ 132.690799978, 32.925415704 ], [ 132.690719781000013, 32.925368661 ], [ 132.689348919999986, 32.926595916 ], [ 132.689595703, 32.926804575 ], [ 132.690406171, 32.927336223 ], [ 132.690955049, 32.927704337 ], [ 132.691290554, 32.927891626 ], [ 132.691448304, 32.927959216 ], [ 132.692093774, 32.927904813 ], [ 132.69343019499999, 32.927725233 ], [ 132.693954139, 32.927876266 ], [ 132.693946713, 32.927759311 ] ] ] } },
{ "type": "Feature", "properties": { "A29_001": "39208", "A29_002": "高知県", "A29_003": "宿毛市", "A29_004": 6, "A29_005": "第二種住居地域", "A29_006": 60, "A29_007": 200, "A29_008": null }, "geometry": { "type": "Polygon", "coordinates": [ [ [ 132.714883848999989, 32.929963256 ], [ 132.714697053, 32.929733948 ], [ 132.714502633, 32.929571926 ], [ 132.714165830000013, 32.929404223 ], [ 132.713922387, 32.929291987 ], [ 132.71280545, 32.928928366 ], [ 132.71103377899999, 32.928367433 ], [ 132.709172101, 32.927763584 ], [ 132.706846022, 32.927053314 ], [ 132.704729987, 32.926358753 ], [ 132.703094039, 32.925814495 ], [ 132.70202734599999, 32.925473986 ], [ 132.701776638000013, 32.925827282 ], [ 132.70170506, 32.92592226 ], [ 132.701628597, 32.926029533 ], [ 132.70144713799999, 32.926140273 ], [ 132.700859057, 32.926268083 ], [ 132.699550557, 32.926529664 ], [ 132.699607136999987, 32.926729224 ], [ 132.69913154, 32.926860695 ], [ 132.69908082399999, 32.927045813 ], [ 132.699453107000011, 32.927173456 ], [ 132.69918572099999, 32.928120123 ], [ 132.701995329999988, 32.92898776 ], [ 132.702178602, 32.92858393 ], [ 132.704588868, 32.929373805 ], [ 132.707747984, 32.930341989 ], [ 132.707961635, 32.930414118 ], [ 132.708187154, 32.929710478 ], [ 132.70846202300001, 32.928906518 ], [ 132.708547399, 32.928620505 ], [ 132.711099217999987, 32.92931842 ], [ 132.712160766000011, 32.929509926 ], [ 132.71302765499999, 32.929668516 ], [ 132.71293395699999, 32.930040825 ], [ 132.712451732, 32.930321359 ], [ 132.713018497, 32.930722996 ], [ 132.712862453000014, 32.93089903 ], [ 132.714498373999987, 32.93139317 ], [ 132.714883848999989, 32.929963256 ] ] ] } },
{ "type": "Feature", "properties": { "A29_001": "39208", "A29_002": "高知県", "A29_003": "宿毛市", "A29_004": 8, "A29_005": "近隣商業地域", "A29_006": 80, "A29_007": 300, "A29_008": null }, "geometry": { "type": "Polygon", "coordinates": [ [ [ 132.71490634700001, 32.929990874 ], [ 132.714883848999989, 32.929963256 ], [ 132.714498373999987, 32.93139317 ], [ 132.714796924000012, 32.93149046 ], [ 132.71535552899999, 32.931598804 ], [ 132.715397513999989, 32.931026854 ], [ 132.715100411, 32.930607418 ], [ 132.714959166999989, 32.930262966 ], [ 132.71490634700001, 32.929990874 ] ] ] } },
{ "type": "Feature", "properties": { "A29_001": "39208", "A29_002": "高知県", "A29_003": "宿毛市", "A29_004": 9, "A29_005": "商業地域", "A29_006": 80, "A29_007": 400, "A29_008": null }, "geometry": { "type": "Polygon", "coordinates": [ [ [ 132.714384884999987, 32.93256703 ], [ 132.71475445499999, 32.93256207 ], [ 132.715021689999986, 32.932559374 ], [ 132.71509762, 32.932539734 ], [ 132.71520773, 32.932450264 ], [ 132.71535552899999, 32.931598804 ], [ 132.714796924000012, 32.93149046 ], [ 132.714498373999987, 32.93139317 ], [ 132.712862453000014, 32.93089903 ], [ 132.71256333299999, 32.93129032 ], [ 132.712657253, 32.93134542 ], [ 132.712241643, 32.9318429 ], [ 132.712758794, 32.93201026 ], [ 132.712496404, 32.93260095 ], [ 132.71280787399999, 32.93271038 ], [ 132.712776074, 32.93279405 ], [ 132.713391073999986, 32.9329987 ], [ 132.713470494, 32.93286709 ], [ 132.713757875, 32.93296117 ], [ 132.71411901499999, 32.93307509 ], [ 132.714384884999987, 32.93256703 ] ] ] } },
{ "type": "Feature", "properties": { "A29_001": "39208", "A29_002": "高知県", "A29_003": "宿毛市", "A29_004": 5, "A29_005": "第一種住居地域", "A29_006": 60, "A29_007": 200, "A29_008": null }, "geometry": { "type": "Polygon", "coordinates": [ [ [ 132.690955049, 32.927704337 ], [ 132.690406171, 32.927336223 ], [ 132.689595703, 32.926804575 ], [ 132.68943395299999, 32.926951415 ], [ 132.689370243000013, 32.926991885 ], [ 132.689296903000013, 32.926997695 ], [ 132.689199022999986, 32.926970855 ], [ 132.688677762999987, 32.926789264 ], [ 132.688254633000014, 32.926675914 ], [ 132.688109523, 32.926652964 ], [ 132.687787902, 32.926643534 ], [ 132.68702182199999, 32.926952533 ], [ 132.68657496099999, 32.926988933 ], [ 132.686200471, 32.927016163 ], [ 132.68624215, 32.926789778 ], [ 132.68626851, 32.926537048 ], [ 132.68628972799999, 32.926258916 ], [ 132.686102792000014, 32.926262012 ], [ 132.685995671, 32.926294852 ], [ 132.685842191, 32.926372482 ], [ 132.685744921, 32.926414822 ], [ 132.685539780999989, 32.926436552 ], [ 132.685221551000012, 32.926464882 ], [ 132.685152011000014, 32.926463372 ], [ 132.685075181, 32.926442962 ], [ 132.684909671000014, 32.926341242 ], [ 132.684697185, 32.926207279 ], [ 132.684614676, 32.926308027 ], [ 132.684459894000014, 32.92640436 ], [ 132.68424648300001, 32.926477406 ], [ 132.68406248, 32.926486661 ], [ 132.684033707, 32.926280794 ], [ 132.683883621, 32.925865629 ], [ 132.682958687, 32.925865013 ], [ 132.682912558, 32.926451633 ], [ 132.68284460000001, 32.926458346 ], [ 132.682873739, 32.92683374 ], [ 132.68289815899999, 32.9269466 ], [ 132.682896269, 32.92715205 ], [ 132.682439668, 32.92709979 ], [ 132.681963067999988, 32.92699237 ], [ 132.68178420800001, 32.926992249 ], [ 132.681327048000014, 32.926999739 ], [ 132.68115248699999, 32.927005419 ], [ 132.681039207, 32.927032989 ], [ 132.680936717, 32.927102549 ], [ 132.68087707699999, 32.927239489 ], [ 132.68086464699999, 32.927374639 ], [ 132.680889787000012, 32.927545149 ], [ 132.68091695699999, 32.927697329 ], [ 132.68091685600001, 32.927841999 ], [ 132.680863366000011, 32.927985269 ], [ 132.680800565999988, 32.928128989 ], [ 132.680800296, 32.928292529 ], [ 132.680817846, 32.928409009 ], [ 132.680856766, 32.928500459 ], [ 132.680863616000011, 32.928631029 ], [ 132.680833146, 32.928703159 ], [ 132.680806424999986, 32.928772169 ], [ 132.680810654999988, 32.928851869 ], [ 132.680843685000013, 32.928907649 ], [ 132.680910055, 32.928983559 ], [ 132.680939265, 32.929049789 ], [ 132.680945974999986, 32.929129509 ], [ 132.680909754999988, 32.929352029 ], [ 132.680854345, 32.929568669 ], [ 132.680775645000011, 32.929685029 ], [ 132.680660354, 32.929795399 ], [ 132.680603684, 32.929878889 ], [ 132.68059177399999, 32.929958489 ], [ 132.68061108399999, 32.930020469 ], [ 132.680665204, 32.930078479 ], [ 132.680740194, 32.930162829 ], [ 132.680861474000011, 32.930412589 ], [ 132.680891863999989, 32.930485109 ], [ 132.68089405399999, 32.930517629 ], [ 132.680847043999989, 32.930631589 ], [ 132.680763754, 32.930773609 ], [ 132.680761483, 32.930883679 ], [ 132.680796221, 32.931118015 ], [ 132.680863641, 32.931169992 ], [ 132.680935123000012, 32.931182529 ], [ 132.680972063000013, 32.931217369 ], [ 132.680986383, 32.931281409 ], [ 132.680975983, 32.931331659 ], [ 132.680935543, 32.931405819 ], [ 132.680938923000014, 32.931445679 ], [ 132.680964617, 32.9315104 ], [ 132.681078152999987, 32.931567139 ], [ 132.68110134299999, 32.931611329 ], [ 132.681098773, 32.931755969 ], [ 132.681083183, 32.931830299 ], [ 132.68105163300001, 32.931884609 ], [ 132.680996233, 32.931966009 ], [ 132.68090957199999, 32.932068179 ], [ 132.680656362, 32.932316019 ], [ 132.680637262, 32.932367258 ], [ 132.680634166, 32.93244832 ], [ 132.680706456, 32.932524664 ], [ 132.680794166999988, 32.932585363 ], [ 132.680858247, 32.932631591 ], [ 132.680918921999989, 32.932671019 ], [ 132.68093024699999, 32.932739427 ], [ 132.680992194, 32.932832881 ], [ 132.68104869199999, 32.932876299 ], [ 132.681078442, 32.932883839 ], [ 132.68115430200001, 32.932873849 ], [ 132.681224222, 32.932835519 ], [ 132.681285831999986, 32.932755199 ], [ 132.681323552, 32.932705129 ], [ 132.681461352000014, 32.932579189 ], [ 132.681558792, 32.932519029 ], [ 132.68160736199999, 32.932504669 ], [ 132.681685552, 32.932511469 ], [ 132.681802102, 32.932535289 ], [ 132.681880143, 32.932557819 ], [ 132.68195483299999, 32.932540489 ], [ 132.682011073000012, 32.932504159 ], [ 132.682081563, 32.932402939 ], [ 132.682218143, 32.93213966 ], [ 132.682178733, 32.93196749 ], [ 132.682071783, 32.931711 ], [ 132.68205631399999, 32.931637519 ], [ 132.682238563999988, 32.93140494 ], [ 132.68242340399999, 32.93122845 ], [ 132.682510594, 32.93120281 ], [ 132.682715454, 32.93121254 ], [ 132.682790084, 32.9312015 ], [ 132.682861325, 32.93115479 ], [ 132.682951325, 32.93109353 ], [ 132.68299279499999, 32.93104033 ], [ 132.68300317500001, 32.93099219 ], [ 132.683003765, 32.93092719 ], [ 132.68302425499999, 32.93086128 ], [ 132.683058394999989, 32.93079546 ], [ 132.683107115000013, 32.93069672 ], [ 132.683127105000011, 32.93055009 ], [ 132.683097175, 32.93042724 ], [ 132.683091445, 32.93037479 ], [ 132.683103176, 32.93031511 ], [ 132.683152976, 32.93023525 ], [ 132.68314629599999, 32.93015135 ], [ 132.683119846000011, 32.93005682 ], [ 132.683115265999987, 32.93001381 ], [ 132.68312679600001, 32.9299751 ], [ 132.68316797599999, 32.9299544 ], [ 132.683327725999987, 32.93000681 ], [ 132.683543296000011, 32.930067981 ], [ 132.683646256, 32.930083321 ], [ 132.68368866599999, 32.930063681 ], [ 132.68372139600001, 32.930016721 ], [ 132.683836667, 32.929773221 ], [ 132.684055687000011, 32.929119981 ], [ 132.684240528, 32.928673021 ], [ 132.684257328, 32.928600801 ], [ 132.684216478, 32.928451681 ], [ 132.684644338999988, 32.927638217 ], [ 132.684756037999989, 32.927731935 ], [ 132.685035441, 32.927805333 ], [ 132.68573214, 32.927876602 ], [ 132.68602238, 32.927920422 ], [ 132.685757779999989, 32.928128892 ], [ 132.68572752899999, 32.928176902 ], [ 132.685715769000012, 32.928239732 ], [ 132.685694199000011, 32.928288862 ], [ 132.685599728999989, 32.928432912 ], [ 132.685499549000014, 32.928520312 ], [ 132.68535441899999, 32.928634682 ], [ 132.68533291899999, 32.928676472 ], [ 132.685341179, 32.928723702 ], [ 132.685393059, 32.928755472 ], [ 132.685506849, 32.928807582 ], [ 132.684761417, 32.929705841 ], [ 132.685017167000012, 32.929855312 ], [ 132.68503290699999, 32.929899432 ], [ 132.684998897000014, 32.929950592 ], [ 132.684780327, 32.930216481 ], [ 132.684687946999986, 32.930334861 ], [ 132.684679877, 32.930401901 ], [ 132.684724136999989, 32.930452511 ], [ 132.685036587000013, 32.930649532 ], [ 132.685275487000013, 32.930807802 ], [ 132.685024426000012, 32.931095492 ], [ 132.685026496, 32.931139542 ], [ 132.685319975999988, 32.931306562 ], [ 132.68539575599999, 32.931304962 ], [ 132.685567886, 32.931227462 ], [ 132.685663696, 32.931210262 ], [ 132.685753186, 32.931203512 ], [ 132.68580030699999, 32.931212202 ], [ 132.685631266, 32.931631472 ], [ 132.685516596000014, 32.931877602 ], [ 132.685433546000013, 32.931993422 ], [ 132.685405465, 32.932076052 ], [ 132.685425724999988, 32.932169482 ], [ 132.685457095, 32.932271382 ], [ 132.685519875000011, 32.932400192 ], [ 132.685544994999987, 32.932505192 ], [ 132.685560185000014, 32.932746402 ], [ 132.685561224999987, 32.932971272 ], [ 132.685611104, 32.933221102 ], [ 132.685655364000013, 32.933270652 ], [ 132.68574569399999, 32.933308992 ], [ 132.686008605000012, 32.933355782 ], [ 132.68648733500001, 32.933437513 ], [ 132.68675265499999, 32.933492703 ], [ 132.686845835000014, 32.933490173 ], [ 132.686915625000012, 32.933464413 ], [ 132.687007055, 32.933383243 ], [ 132.687131195, 32.933256153 ], [ 132.687307076, 32.932971643 ], [ 132.68739126599999, 32.932731073 ], [ 132.687420456000012, 32.932526843 ], [ 132.68741179599999, 32.932456033 ], [ 132.68731606599999, 32.932328563 ], [ 132.687163817, 32.932135723 ], [ 132.687130517000014, 32.932074453 ], [ 132.68712574700001, 32.932053973 ], [ 132.687135797, 32.932041463 ], [ 132.687200847000014, 32.932059703 ], [ 132.68744357700001, 32.932138333 ], [ 132.687624007000011, 32.932172013 ], [ 132.68789498699999, 32.932151754 ], [ 132.68788817699999, 32.931876524 ], [ 132.687844417, 32.931772454 ], [ 132.687830276999989, 32.931688504 ], [ 132.68784113800001, 32.931586884 ], [ 132.687874698, 32.931449764 ], [ 132.687910088, 32.931315294 ], [ 132.68793831799999, 32.931079604 ], [ 132.68796439799999, 32.930945594 ], [ 132.68802591799999, 32.930806044 ], [ 132.68807787899999, 32.930693154 ], [ 132.688154938999986, 32.930415854 ], [ 132.68829971, 32.929864864 ], [ 132.68839738, 32.929441454 ], [ 132.688448740000013, 32.929120994 ], [ 132.68798479, 32.928852214 ], [ 132.688055631, 32.928712204 ], [ 132.688053061, 32.928584294 ], [ 132.688206271000013, 32.928333164 ], [ 132.68821624099999, 32.928057524 ], [ 132.68823288199999, 32.927663984 ], [ 132.68902871200001, 32.927703744 ], [ 132.689459551999988, 32.927722265 ], [ 132.68952402299999, 32.927600025 ], [ 132.689566563, 32.927566755 ], [ 132.68963742299999, 32.927560935 ], [ 132.68982211299999, 32.927603015 ], [ 132.689968233, 32.927651135 ], [ 132.69008738299999, 32.927661335 ], [ 132.690125843, 32.927667875 ], [ 132.690153993, 32.927712095 ], [ 132.690208692999988, 32.927844535 ], [ 132.690255533, 32.927883625 ], [ 132.690355883, 32.927912575 ], [ 132.690487353, 32.927934395 ], [ 132.690593674000013, 32.927941149 ], [ 132.690658447, 32.927911507 ], [ 132.690725568, 32.927810304 ], [ 132.690797739, 32.927695567 ], [ 132.69083733299999, 32.927694506 ], [ 132.690955049, 32.927704337 ] ] ] } },
{ "type": "Feature", "properties": { "A29_001": "39208", "A29_002": "高知県", "A29_003": "宿毛市", "A29_004": 5, "A29_005": "第一種住居地域", "A29_006": 60, "A29_007": 200, "A29_008": null }, "geometry": { "type": "Polygon", "coordinates": [ [ [ 132.72659442599999, 32.933121417 ], [ 132.726537525999987, 32.933255067 ], [ 132.727500287, 32.933451066 ], [ 132.727718707, 32.933496266 ], [ 132.728080287000012, 32.933571066 ], [ 132.728300287, 32.933611065 ], [ 132.728400287, 32.933631065 ], [ 132.728420287, 32.933631055 ], [ 132.729170288, 32.933771065 ], [ 132.729270288, 32.933781065 ], [ 132.729422457999988, 32.933796875 ], [ 132.72910723699999, 32.933595095 ], [ 132.728887437, 32.933441715 ], [ 132.72861870700001, 32.933342565 ], [ 132.728302707000012, 32.933252535 ], [ 132.727815287, 32.933231186 ], [ 132.727057136000013, 32.933199766 ], [ 132.726828716, 32.933179476 ], [ 132.72659442599999, 32.933121417 ] ] ] } },
{ "type": "Feature", "properties": { "A29_001": "39208", "A29_002": "高知県", "A29_003": "宿毛市", "A29_004": 6, "A29_005": "第二種住居地域", "A29_006": 60, "A29_007": 200, "A29_008": null }, "geometry": { "type": "Polygon", "coordinates": [ [ [ 132.713757875, 32.93296117 ], [ 132.713470494, 32.93286709 ], [ 132.713391073999986, 32.9329987 ], [ 132.712776074, 32.93279405 ], [ 132.71280787399999, 32.93271038 ], [ 132.712496404, 32.93260095 ], [ 132.712758794, 32.93201026 ], [ 132.712241643, 32.9318429 ], [ 132.711641203, 32.93258977 ], [ 132.711225653000014, 32.933080961 ], [ 132.711719284, 32.93324291 ], [ 132.711695144, 32.93330252 ], [ 132.712824054, 32.93369073 ], [ 132.713292865, 32.93384938 ], [ 132.713757875, 32.93296117 ] ] ] } },
{ "type": "Feature", "properties": { "A29_001": "39208", "A29_002": "高知県", "A29_003": "宿毛市", "A29_004": 8, "A29_005": "近隣商業地域", "A29_006": 80, "A29_007": 300, "A29_008": null }, "geometry": { "type": "Polygon", "coordinates": [ [ [ 132.71475445499999, 32.93256207 ], [ 132.714384884999987, 32.93256703 ], [ 132.71411901499999, 32.93307509 ], [ 132.713757875, 32.93296117 ], [ 132.713292865, 32.93384938 ], [ 132.713514554999989, 32.93392627 ], [ 132.713569675, 32.93387419 ], [ 132.713946155, 32.93400761 ], [ 132.714598155, 32.93283801 ], [ 132.71475445499999, 32.93256207 ] ] ] } },
{ "type": "Feature", "properties": { "A29_001": "39208", "A29_002": "高知県", "A29_003": "宿毛市", "A29_004": 3, "A29_005": "第一種中高層住居専用地域", "A29_006": 60, "A29_007": 200, "A29_008": null }, "geometry": { "type": "Polygon", "coordinates": [ [ [ 132.691209921, 32.930786691 ], [ 132.691188681, 32.930802311 ], [ 132.691162531, 32.930809481 ], [ 132.691126531, 32.930806101 ], [ 132.691074581, 32.930781651 ], [ 132.690954771, 32.930707491 ], [ 132.690811091, 32.930662541 ], [ 132.690740353, 32.930668544 ], [ 132.690690738, 32.930711168 ], [ 132.69044569, 32.930964391 ], [ 132.69031327, 32.931152493 ], [ 132.690232084, 32.931306571 ], [ 132.690184386, 32.931442971 ], [ 132.69007890099999, 32.931736971 ], [ 132.69005107800001, 32.931809798 ], [ 132.690012717, 32.931921207 ], [ 132.690007756999989, 32.932092957 ], [ 132.690005977, 32.932282001 ], [ 132.689955629, 32.932342752 ], [ 132.689830386000011, 32.932425923 ], [ 132.689643845, 32.932529691 ], [ 132.689512177000012, 32.932572737 ], [ 132.68929215599999, 32.932624753 ], [ 132.689212333, 32.932691039 ], [ 132.689158851, 32.932847204 ], [ 132.689092476000013, 32.933145006 ], [ 132.689045579, 32.9332461 ], [ 132.68894378499999, 32.933549637 ], [ 132.688905428, 32.933877443 ], [ 132.68890104799999, 32.933969867 ], [ 132.688939567, 32.934011869 ], [ 132.688995686, 32.934062933 ], [ 132.689225459, 32.93413163 ], [ 132.689795229, 32.93431355 ], [ 132.690159599, 32.934405021 ], [ 132.690493440000012, 32.934439681 ], [ 132.69069603, 32.934428421 ], [ 132.69083283, 32.934410431 ], [ 132.69097494, 32.934355791 ], [ 132.69100888, 32.934311981 ], [ 132.69102177, 32.934261751 ], [ 132.69101609, 32.934066721 ], [ 132.6909823, 32.933957471 ], [ 132.690946919999988, 32.933817301 ], [ 132.69096972, 32.933769221 ], [ 132.690999839999989, 32.933734831 ], [ 132.69106631, 32.933666071 ], [ 132.69116055, 32.933548211 ], [ 132.69124996, 32.933346991 ], [ 132.691527201000014, 32.932572491 ], [ 132.691566351, 32.932501461 ], [ 132.691620070999988, 32.932467211 ], [ 132.691735711, 32.932453291 ], [ 132.691961881, 32.932444271 ], [ 132.69205621099999, 32.932451161 ], [ 132.692118181000012, 32.932467291 ], [ 132.692197421, 32.932496111 ], [ 132.69228676099999, 32.932507171 ], [ 132.692365110999987, 32.932496141 ], [ 132.692566191999987, 32.932377941 ], [ 132.692851762, 32.932186371 ], [ 132.693048412, 32.931802371 ], [ 132.693055112, 32.931748951 ], [ 132.693032061999986, 32.931687991 ], [ 132.69299918199999, 32.931616501 ], [ 132.693007302000012, 32.931543171 ], [ 132.693125132, 32.931425461 ], [ 132.693014212, 32.931329351 ], [ 132.692815292, 32.931211691 ], [ 132.692691282, 32.931188881 ], [ 132.692625451999987, 32.931187411 ], [ 132.692571922000013, 32.931200691 ], [ 132.69250436199999, 32.931253721 ], [ 132.69246416199999, 32.931302731 ], [ 132.692362962, 32.931368121 ], [ 132.69225471199999, 32.931387341 ], [ 132.69216109199999, 32.931369431 ], [ 132.692066982, 32.931337371 ], [ 132.692013072, 32.931255261 ], [ 132.69197812199999, 32.931137621 ], [ 132.691956822, 32.931021121 ], [ 132.691879612, 32.930905291 ], [ 132.69168994099999, 32.930726901 ], [ 132.691555231, 32.930514271 ], [ 132.691500001, 32.930441571 ], [ 132.691424321, 32.930430601 ], [ 132.691386951, 32.930442941 ], [ 132.691350601000011, 32.930478351 ], [ 132.691252201, 32.930644391 ], [ 132.691209921, 32.930786691 ] ] ] } },
{ "type": "Feature", "properties": { "A29_001": "39208", "A29_002": "高知県", "A29_003": "宿毛市", "A29_004": 6, "A29_005": "第二種住居地域", "A29_006": 60, "A29_007": 200, "A29_008": null }, "geometry": { "type": "Polygon", "coordinates": [ [ [ 132.729422457999988, 32.933796875 ], [ 132.729270288, 32.933781065 ], [ 132.729170288, 32.933771065 ], [ 132.728420287, 32.933631055 ], [ 132.728400287, 32.933631065 ], [ 132.728300287, 32.933611065 ], [ 132.728080287000012, 32.933571066 ], [ 132.727718707, 32.933496266 ], [ 132.72680547600001, 32.933462136 ], [ 132.72700151699999, 32.933846556 ], [ 132.72755613699999, 32.933998326 ], [ 132.72865250800001, 32.934281365 ], [ 132.729770929000011, 32.934602275 ], [ 132.73060565899999, 32.934831254 ], [ 132.73165652, 32.935134423 ], [ 132.73129967, 32.934881664 ], [ 132.73087816899999, 32.934564014 ], [ 132.730529679, 32.934278274 ], [ 132.73053636899999, 32.934222744 ], [ 132.729979748, 32.934086164 ], [ 132.729697077999987, 32.933947605 ], [ 132.729422457999988, 32.933796875 ] ] ] } },
{ "type": "Feature", "properties": { "A29_001": "39208", "A29_002": "高知県", "A29_003": "宿毛市", "A29_004": 6, "A29_005": "第二種住居地域", "A29_006": 60, "A29_007": 200, "A29_008": null }, "geometry": { "type": "Polygon", "coordinates": [ [ [ 132.716638103, 32.935351793 ], [ 132.716736443, 32.935278923 ], [ 132.716359063, 32.935159273 ], [ 132.71623481200001, 32.934668353 ], [ 132.716296532, 32.934501513 ], [ 132.716552541999988, 32.933856773 ], [ 132.716422822, 32.933774173 ], [ 132.716537370999987, 32.933605053 ], [ 132.716371181, 32.933504933 ], [ 132.7155425, 32.933017994 ], [ 132.715304010000011, 32.932873914 ], [ 132.71497838, 32.932819974 ], [ 132.71495773, 32.932625874 ], [ 132.715021689999986, 32.932559374 ], [ 132.71475445499999, 32.93256207 ], [ 132.714598155, 32.93283801 ], [ 132.713946155, 32.93400761 ], [ 132.714194451, 32.934087804 ], [ 132.71419158099999, 32.934131824 ], [ 132.71459944099999, 32.934299494 ], [ 132.715065842, 32.934520504 ], [ 132.71563632199999, 32.934842264 ], [ 132.716139962999989, 32.935137413 ], [ 132.71656825299999, 32.935383863 ], [ 132.716638103, 32.935351793 ] ] ] } },
{ "type": "Feature", "properties": { "A29_001": "39208", "A29_002": "高知県", "A29_003": "宿毛市", "A29_004": 8, "A29_005": "近隣商業地域", "A29_006": 80, "A29_007": 200, "A29_008": null }, "geometry": { "type": "Polygon", "coordinates": [ [ [ 132.718250353, 32.934606512 ], [ 132.71871318399999, 32.934881482 ], [ 132.719190102999988, 32.934379861 ], [ 132.719659753, 32.933949781 ], [ 132.71993407299999, 32.933764361 ], [ 132.720184313, 32.933633291 ], [ 132.720503543, 32.93349585 ], [ 132.721070043, 32.93328288 ], [ 132.72147951299999, 32.93319632 ], [ 132.721961584000013, 32.93311912 ], [ 132.72232331399999, 32.933095159 ], [ 132.722888944, 32.933122269 ], [ 132.723607093999988, 32.933183878 ], [ 132.724079745000012, 32.933260198 ], [ 132.725060235, 32.933437698 ], [ 132.726350536000012, 32.933706227 ], [ 132.72700151699999, 32.933846556 ], [ 132.72680547600001, 32.933462136 ], [ 132.727718707, 32.933496266 ], [ 132.727500287, 32.933451066 ], [ 132.726537525999987, 32.933255067 ], [ 132.725830285, 32.933111067 ], [ 132.72464028499999, 32.932871068 ], [ 132.724400285, 32.932811058 ], [ 132.72273028399999, 32.932591069 ], [ 132.722030283, 32.932581069 ], [ 132.72025028199999, 32.932541071 ], [ 132.719569901999989, 32.932535841 ], [ 132.719204162000011, 32.932244081 ], [ 132.718390311, 32.931626182 ], [ 132.717719749999986, 32.931100392 ], [ 132.717247189, 32.930733643 ], [ 132.717166829, 32.930619383 ], [ 132.717117179000013, 32.930612773 ], [ 132.716979009, 32.930434203 ], [ 132.716844949, 32.930422873 ], [ 132.715650630999988, 32.92948287 ], [ 132.71585432099999, 32.929260892 ], [ 132.711674921999986, 32.928041082 ], [ 132.711367246, 32.928025973 ], [ 132.710642748, 32.927799991 ], [ 132.710144265, 32.927593189 ], [ 132.709670291, 32.927474169 ], [ 132.70884493, 32.92718646 ], [ 132.706427574, 32.926391563 ], [ 132.705359278, 32.926006458 ], [ 132.703983669, 32.925587543 ], [ 132.703289076, 32.925348706 ], [ 132.702515612000013, 32.925101087 ], [ 132.702169590000011, 32.924945511 ], [ 132.702062125999987, 32.925055019 ], [ 132.702079739999988, 32.92519519 ], [ 132.70203324, 32.92539408 ], [ 132.70202734599999, 32.925473986 ], [ 132.703094039, 32.925814495 ], [ 132.704729987, 32.926358753 ], [ 132.706846022, 32.927053314 ], [ 132.709172101, 32.927763584 ], [ 132.71103377899999, 32.928367433 ], [ 132.71280545, 32.928928366 ], [ 132.713922387, 32.929291987 ], [ 132.714165830000013, 32.929404223 ], [ 132.714502633, 32.929571926 ], [ 132.714697053, 32.929733948 ], [ 132.71490634700001, 32.929990874 ], [ 132.714959166999989, 32.930262966 ], [ 132.715100411, 32.930607418 ], [ 132.715397513999989, 32.931026854 ], [ 132.71535552899999, 32.931598804 ], [ 132.71520773, 32.932450264 ], [ 132.71509762, 32.932539734 ], [ 132.715021689999986, 32.932559374 ], [ 132.71495773, 32.932625874 ], [ 132.71497838, 32.932819974 ], [ 132.715304010000011, 32.932873914 ], [ 132.7155425, 32.933017994 ], [ 132.716371181, 32.933504933 ], [ 132.716537370999987, 32.933605053 ], [ 132.716422822, 32.933774173 ], [ 132.716552541999988, 32.933856773 ], [ 132.716296532, 32.934501513 ], [ 132.71623481200001, 32.934668353 ], [ 132.716359063, 32.935159273 ], [ 132.716736443, 32.935278923 ], [ 132.71681066299999, 32.935223923 ], [ 132.717430704, 32.935422292 ], [ 132.718250353, 32.934606512 ] ] ] } },
{ "type": "Feature", "properties": { "A29_001": "39208", "A29_002": "高知県", "A29_003": "宿毛市", "A29_004": 5, "A29_005": "第一種住居地域", "A29_006": 60, "A29_007": 200, "A29_008": null }, "geometry": { "type": "Polygon", "coordinates": [ [ [ 132.732343791, 32.935901363 ], [ 132.732291581, 32.935688743 ], [ 132.732261181000013, 32.935612013 ], [ 132.73212193099999, 32.935481153 ], [ 132.73189184, 32.935295743 ], [ 132.73165652, 32.935134423 ], [ 132.73060565899999, 32.934831254 ], [ 132.729770929000011, 32.934602275 ], [ 132.72865250800001, 32.934281365 ], [ 132.72755613699999, 32.933998326 ], [ 132.72700151699999, 32.933846556 ], [ 132.726350536000012, 32.933706227 ], [ 132.725060235, 32.933437698 ], [ 132.724079745000012, 32.933260198 ], [ 132.723607093999988, 32.933183878 ], [ 132.722888944, 32.933122269 ], [ 132.72232331399999, 32.933095159 ], [ 132.721961584000013, 32.93311912 ], [ 132.72147951299999, 32.93319632 ], [ 132.721070043, 32.93328288 ], [ 132.720503543, 32.93349585 ], [ 132.722273085000012, 32.934860399 ], [ 132.723804546999986, 32.936036808 ], [ 132.72396785699999, 32.935758418 ], [ 132.724220796999987, 32.935389898 ], [ 132.724499587, 32.935047748 ], [ 132.72472558699999, 32.934847328 ], [ 132.72498546599999, 32.934678048 ], [ 132.725329246, 32.934503527 ], [ 132.725759137000011, 32.934355207 ], [ 132.726274276999987, 32.934261947 ], [ 132.726692507, 32.934238847 ], [ 132.727136817, 32.934289826 ], [ 132.72763321799999, 32.934423416 ], [ 132.728345467999986, 32.934663715 ], [ 132.729482079, 32.935036105 ], [ 132.73058792, 32.935376844 ], [ 132.73175806099999, 32.935752563 ], [ 132.732343791, 32.935901363 ] ] ] } },
{ "type": "Feature", "properties": { "A29_001": "39208", "A29_002": "高知県", "A29_003": "宿毛市", "A29_004": 8, "A29_005": "近隣商業地域", "A29_006": 80, "A29_007": 300, "A29_008": null }, "geometry": { "type": "Polygon", "coordinates": [ [ [ 132.724058807, 32.936227108 ], [ 132.723804546999986, 32.936036808 ], [ 132.722273085000012, 32.934860399 ], [ 132.720503543, 32.93349585 ], [ 132.720184313, 32.933633291 ], [ 132.71993407299999, 32.933764361 ], [ 132.720821414, 32.93443461 ], [ 132.721537745, 32.93498792 ], [ 132.722315796, 32.935587739 ], [ 132.722885357, 32.936019569 ], [ 132.723758408, 32.936695458 ], [ 132.724058807, 32.936227108 ] ] ] } },
{ "type": "Feature", "properties": { "A29_001": "39208", "A29_002": "高知県", "A29_003": "宿毛市", "A29_004": 6, "A29_005": "第二種住居地域", "A29_006": 60, "A29_007": 200, "A29_008": null }, "geometry": { "type": "Polygon", "coordinates": [ [ [ 132.72373072799999, 32.936735128 ], [ 132.723758408, 32.936695458 ], [ 132.722885357, 32.936019569 ], [ 132.722315796, 32.935587739 ], [ 132.721537745, 32.93498792 ], [ 132.720821414, 32.93443461 ], [ 132.71993407299999, 32.933764361 ], [ 132.719659753, 32.933949781 ], [ 132.719190102999988, 32.934379861 ], [ 132.721049155, 32.93552429 ], [ 132.72287204700001, 32.936616559 ], [ 132.723532618, 32.937015409 ], [ 132.72373072799999, 32.936735128 ] ] ] } },
{ "type": "Feature", "properties": { "A29_001": "39208", "A29_002": "高知県", "A29_003": "宿毛市", "A29_004": 6, "A29_005": "第二種住居地域", "A29_006": 60, "A29_007": 200, "A29_008": null }, "geometry": { "type": "Polygon", "coordinates": [ [ [ 132.730955400999989, 32.937056054 ], [ 132.731199111, 32.936672264 ], [ 132.731389701000012, 32.936757304 ], [ 132.73144600099999, 32.936568934 ], [ 132.731519361000011, 32.936345553 ], [ 132.731490051, 32.936287713 ], [ 132.731885911, 32.936125013 ], [ 132.731906301, 32.936064333 ], [ 132.732345081, 32.936181313 ], [ 132.732410691000013, 32.936138193 ], [ 132.732343791, 32.935901363 ], [ 132.73175806099999, 32.935752563 ], [ 132.73058792, 32.935376844 ], [ 132.729482079, 32.935036105 ], [ 132.728345467999986, 32.934663715 ], [ 132.72763321799999, 32.934423416 ], [ 132.727136817, 32.934289826 ], [ 132.726692507, 32.934238847 ], [ 132.726274276999987, 32.934261947 ], [ 132.725759137000011, 32.934355207 ], [ 132.725329246, 32.934503527 ], [ 132.72498546599999, 32.934678048 ], [ 132.72472558699999, 32.934847328 ], [ 132.724499587, 32.935047748 ], [ 132.724220796999987, 32.935389898 ], [ 132.72396785699999, 32.935758418 ], [ 132.723804546999986, 32.936036808 ], [ 132.724058807, 32.936227108 ], [ 132.724151897000013, 32.936094518 ], [ 132.724434538, 32.936166518 ], [ 132.724382537999986, 32.936288858 ], [ 132.72462164800001, 32.936363728 ], [ 132.724460558, 32.936600718 ], [ 132.725263549, 32.936836357 ], [ 132.72527044899999, 32.936899307 ], [ 132.725401909, 32.936926337 ], [ 132.72545064900001, 32.936893087 ], [ 132.725640109000011, 32.936964507 ], [ 132.725633499, 32.937009537 ], [ 132.725816959000014, 32.937057857 ], [ 132.725833389, 32.937025457 ], [ 132.725912799000014, 32.937036437 ], [ 132.725905098999988, 32.937064697 ], [ 132.725962169000013, 32.937074487 ], [ 132.725979978999987, 32.937026367 ], [ 132.726247669, 32.937101417 ], [ 132.72631887899999, 32.936986017 ], [ 132.726532149, 32.937034517 ], [ 132.726519139, 32.937101527 ], [ 132.72681043, 32.937177776 ], [ 132.727037829000011, 32.936529676 ], [ 132.72717047899999, 32.936562996 ], [ 132.727551989, 32.935763846 ], [ 132.727978079, 32.935911156 ], [ 132.728025089, 32.935790886 ], [ 132.728504649, 32.935932235 ], [ 132.72856944899999, 32.935765935 ], [ 132.72910262, 32.936101055 ], [ 132.72957162, 32.936385445 ], [ 132.72963694, 32.936301975 ], [ 132.72975324, 32.936500835 ], [ 132.72991183100001, 32.936765494 ], [ 132.730060981, 32.936901664 ], [ 132.730182581, 32.936992054 ], [ 132.730244621, 32.936858244 ], [ 132.73053808099999, 32.936971184 ], [ 132.730603140999989, 32.936917064 ], [ 132.730955400999989, 32.937056054 ] ] ] } },
{ "type": "Feature", "properties": { "A29_001": "39208", "A29_002": "高知県", "A29_003": "宿毛市", "A29_004": 6, "A29_005": "第二種住居地域", "A29_006": 60, "A29_007": 200, "A29_008": null }, "geometry": { "type": "Polygon", "coordinates": [ [ [ 132.72306187800001, 32.937441019 ], [ 132.722514588, 32.937161369 ], [ 132.722006736999987, 32.93684578 ], [ 132.72108623599999, 32.93627076 ], [ 132.72039838500001, 32.935871741 ], [ 132.71927424399999, 32.935216281 ], [ 132.71871318399999, 32.934881482 ], [ 132.718250353, 32.934606512 ], [ 132.717430704, 32.935422292 ], [ 132.71681066299999, 32.935223923 ], [ 132.716736443, 32.935278923 ], [ 132.716638103, 32.935351793 ], [ 132.717523374, 32.935903042 ], [ 132.718535984999988, 32.936526362 ], [ 132.719422546, 32.937144181 ], [ 132.719243495, 32.936171191 ], [ 132.721309657, 32.9370029 ], [ 132.722870918000012, 32.937613349 ], [ 132.72306187800001, 32.937441019 ] ] ] } },
{ "type": "Feature", "properties": { "A29_001": "39208", "A29_002": "高知県", "A29_003": "宿毛市", "A29_004": 9, "A29_005": "商業地域", "A29_006": 80, "A29_007": 400, "A29_008": null }, "geometry": { "type": "Polygon", "coordinates": [ [ [ 132.730955400999989, 32.937056054 ], [ 132.730603140999989, 32.936917064 ], [ 132.73053808099999, 32.936971184 ], [ 132.730244621, 32.936858244 ], [ 132.730182581, 32.936992054 ], [ 132.730060981, 32.936901664 ], [ 132.72991183100001, 32.936765494 ], [ 132.72975324, 32.936500835 ], [ 132.72963694, 32.936301975 ], [ 132.72957162, 32.936385445 ], [ 132.72910262, 32.936101055 ], [ 132.72856944899999, 32.935765935 ], [ 132.728504649, 32.935932235 ], [ 132.728025089, 32.935790886 ], [ 132.727978079, 32.935911156 ], [ 132.727551989, 32.935763846 ], [ 132.72717047899999, 32.936562996 ], [ 132.727037829000011, 32.936529676 ], [ 132.72681043, 32.937177776 ], [ 132.726519139, 32.937101527 ], [ 132.726532149, 32.937034517 ], [ 132.72631887899999, 32.936986017 ], [ 132.726247669, 32.937101417 ], [ 132.725979978999987, 32.937026367 ], [ 132.725962169000013, 32.937074487 ], [ 132.725905098999988, 32.937064697 ], [ 132.725912799000014, 32.937036437 ], [ 132.725833389, 32.937025457 ], [ 132.725816959000014, 32.937057857 ], [ 132.725633499, 32.937009537 ], [ 132.725640109000011, 32.936964507 ], [ 132.72545064900001, 32.936893087 ], [ 132.725401909, 32.936926337 ], [ 132.72527044899999, 32.936899307 ], [ 132.725263549, 32.936836357 ], [ 132.724460558, 32.936600718 ], [ 132.72462164800001, 32.936363728 ], [ 132.724382537999986, 32.936288858 ], [ 132.724434538, 32.936166518 ], [ 132.724151897000013, 32.936094518 ], [ 132.724058807, 32.936227108 ], [ 132.723758408, 32.936695458 ], [ 132.72373072799999, 32.936735128 ], [ 132.724036058, 32.937017228 ], [ 132.724304288000013, 32.937242718 ], [ 132.724576409, 32.937416088 ], [ 132.724838169, 32.937566328 ], [ 132.72493914899999, 32.937454768 ], [ 132.725388939, 32.937626087 ], [ 132.725583849, 32.937571727 ], [ 132.725592819000013, 32.937683967 ], [ 132.725978270000013, 32.937789097 ], [ 132.725951650000013, 32.937849737 ], [ 132.72701357, 32.938100076 ], [ 132.72717547, 32.937626136 ], [ 132.72832352099999, 32.937901626 ], [ 132.728942171, 32.938051175 ], [ 132.730416381999987, 32.938394714 ], [ 132.73082235199999, 32.937280654 ], [ 132.730955400999989, 32.937056054 ] ] ] } },
{ "type": "Feature", "properties": { "A29_001": "39208", "A29_002": "高知県", "A29_003": "宿毛市", "A29_004": 8, "A29_005": "近隣商業地域", "A29_006": 80, "A29_007": 300, "A29_008": null }, "geometry": { "type": "Polygon", "coordinates": [ [ [ 132.731680863, 32.938495273 ], [ 132.73187098299999, 32.937843813 ], [ 132.73200458299999, 32.937837813 ], [ 132.73222412199999, 32.937231593 ], [ 132.732296991999988, 32.936995103 ], [ 132.732344662, 32.936725423 ], [ 132.73263263199999, 32.936755503 ], [ 132.732723902, 32.936687913 ], [ 132.732728522, 32.936441563 ], [ 132.732541072, 32.936424693 ], [ 132.732510711, 32.936270903 ], [ 132.73247551099999, 32.936175283 ], [ 132.732443550999989, 32.936137343 ], [ 132.732410691000013, 32.936138193 ], [ 132.732345081, 32.936181313 ], [ 132.731906301, 32.936064333 ], [ 132.731885911, 32.936125013 ], [ 132.731490051, 32.936287713 ], [ 132.731519361000011, 32.936345553 ], [ 132.73144600099999, 32.936568934 ], [ 132.731389701000012, 32.936757304 ], [ 132.731199111, 32.936672264 ], [ 132.730955400999989, 32.937056054 ], [ 132.73082235199999, 32.937280654 ], [ 132.730416381999987, 32.938394714 ], [ 132.730888733, 32.938507704 ], [ 132.73105568299999, 32.938382394 ], [ 132.731680863, 32.938495273 ] ] ] } },
{ "type": "Feature", "properties": { "A29_001": "39208", "A29_002": "高知県", "A29_003": "宿毛市", "A29_004": 8, "A29_005": "近隣商業地域", "A29_006": 80, "A29_007": 300, "A29_008": null }, "geometry": { "type": "Polygon", "coordinates": [ [ [ 132.728942171, 32.938051175 ], [ 132.72832352099999, 32.937901626 ], [ 132.72717547, 32.937626136 ], [ 132.72701357, 32.938100076 ], [ 132.725951650000013, 32.937849737 ], [ 132.725978270000013, 32.937789097 ], [ 132.725592819000013, 32.937683967 ], [ 132.725583849, 32.937571727 ], [ 132.725388939, 32.937626087 ], [ 132.72493914899999, 32.937454768 ], [ 132.724838169, 32.937566328 ], [ 132.724576409, 32.937416088 ], [ 132.724304288000013, 32.937242718 ], [ 132.724036058, 32.937017228 ], [ 132.72373072799999, 32.936735128 ], [ 132.723532618, 32.937015409 ], [ 132.72287204700001, 32.936616559 ], [ 132.721049155, 32.93552429 ], [ 132.719190102999988, 32.934379861 ], [ 132.71871318399999, 32.934881482 ], [ 132.71927424399999, 32.935216281 ], [ 132.72039838500001, 32.935871741 ], [ 132.72108623599999, 32.93627076 ], [ 132.722006736999987, 32.93684578 ], [ 132.722514588, 32.937161369 ], [ 132.72306187800001, 32.937441019 ], [ 132.723555398, 32.937675519 ], [ 132.724538069, 32.938036528 ], [ 132.72555448, 32.938375697 ], [ 132.726830191, 32.938758416 ], [ 132.727813362, 32.939065906 ], [ 132.727932422, 32.938804536 ], [ 132.729089383, 32.939270365 ], [ 132.72933592199999, 32.938706255 ], [ 132.728752832, 32.938539635 ], [ 132.728942171, 32.938051175 ] ] ] } },
{ "type": "Feature", "properties": { "A29_001": "39208", "A29_002": "高知県", "A29_003": "宿毛市", "A29_004": 6, "A29_005": "第二種住居地域", "A29_006": 60, "A29_007": 200, "A29_008": null }, "geometry": { "type": "Polygon", "coordinates": [ [ [ 132.731680863, 32.938495273 ], [ 132.73105568299999, 32.938382394 ], [ 132.730888733, 32.938507704 ], [ 132.730416381999987, 32.938394714 ], [ 132.728942171, 32.938051175 ], [ 132.728752832, 32.938539635 ], [ 132.72933592199999, 32.938706255 ], [ 132.729089383, 32.939270365 ], [ 132.730334034, 32.939796484 ], [ 132.730331304, 32.940040224 ], [ 132.730382134, 32.940052074 ], [ 132.730521114, 32.940071794 ], [ 132.731175113, 32.939225024 ], [ 132.73157278299999, 32.938852653 ], [ 132.731680863, 32.938495273 ] ] ] } },
{ "type": "Feature", "properties": { "A29_001": "39208", "A29_002": "高知県", "A29_003": "宿毛市", "A29_004": 5, "A29_005": "第一種住居地域", "A29_006": 60, "A29_007": 200, "A29_008": null }, "geometry": { "type": "Polygon", "coordinates": [ [ [ 132.730382134, 32.940052074 ], [ 132.730331304, 32.940040224 ], [ 132.730334034, 32.939796484 ], [ 132.729089383, 32.939270365 ], [ 132.727932422, 32.938804536 ], [ 132.727813362, 32.939065906 ], [ 132.726830191, 32.938758416 ], [ 132.72555448, 32.938375697 ], [ 132.724538069, 32.938036528 ], [ 132.723555398, 32.937675519 ], [ 132.72306187800001, 32.937441019 ], [ 132.722870918000012, 32.937613349 ], [ 132.721309657, 32.9370029 ], [ 132.719243495, 32.936171191 ], [ 132.719422546, 32.937144181 ], [ 132.719437926000012, 32.937275571 ], [ 132.719353375999987, 32.937283441 ], [ 132.719274496, 32.937352141 ], [ 132.719230796, 32.937377031 ], [ 132.719141416000014, 32.937369131 ], [ 132.718992676, 32.937330461 ], [ 132.718921136, 32.937412841 ], [ 132.718746796, 32.937672292 ], [ 132.719010516, 32.937775621 ], [ 132.718872717000011, 32.938045262 ], [ 132.71867721699999, 32.938449262 ], [ 132.718962387, 32.938587861 ], [ 132.718756017, 32.939026902 ], [ 132.718647518000012, 32.939285722 ], [ 132.718951828, 32.939294951 ], [ 132.719073748, 32.939275801 ], [ 132.719145738, 32.939282541 ], [ 132.71926688799999, 32.939352491 ], [ 132.719320188000012, 32.939365411 ], [ 132.719398578000011, 32.939352261 ], [ 132.719454788, 32.939318021 ], [ 132.71952158799999, 32.939209401 ], [ 132.719552568000012, 32.939076451 ], [ 132.719645858, 32.938922911 ], [ 132.719731118, 32.938833281 ], [ 132.719813488, 32.938791861 ], [ 132.719903007999989, 32.938784031 ], [ 132.71996742799999, 32.938804361 ], [ 132.720021777999989, 32.938841391 ], [ 132.720031197999987, 32.938900161 ], [ 132.72001450799999, 32.939102401 ], [ 132.720040058, 32.939164421 ], [ 132.720110548, 32.939201551 ], [ 132.72020213799999, 32.939240911 ], [ 132.720231668, 32.939274651 ], [ 132.72023483800001, 32.939337581 ], [ 132.720200698000014, 32.939404461 ], [ 132.72018884799999, 32.939481971 ], [ 132.720188009, 32.939577371 ], [ 132.72024582899999, 32.939712451 ], [ 132.720272099, 32.939834241 ], [ 132.720263439, 32.939971531 ], [ 132.720232149, 32.939998591 ], [ 132.720168709, 32.940005531 ], [ 132.720123949, 32.940010491 ], [ 132.720099979, 32.940052281 ], [ 132.720106649, 32.940212201 ], [ 132.720115069, 32.940384201 ], [ 132.720073238999987, 32.940479341 ], [ 132.719937058999989, 32.940565511 ], [ 132.719759039, 32.940605291 ], [ 132.71969529899999, 32.940649971 ], [ 132.71963886899999, 32.940709381 ], [ 132.719628539000013, 32.940753351 ], [ 132.719665359, 32.940803901 ], [ 132.7198325, 32.940871001 ], [ 132.7199252, 32.940926091 ], [ 132.71993093, 32.940981691 ], [ 132.71989287, 32.941070571 ], [ 132.719751480000014, 32.941183971 ], [ 132.71968379, 32.941251691 ], [ 132.719674270000013, 32.941345991 ], [ 132.71968106, 32.941421511 ], [ 132.719727870000014, 32.941466891 ], [ 132.719872220000013, 32.941583121 ], [ 132.7199195, 32.941715511 ], [ 132.719908041, 32.941889481 ], [ 132.719882391, 32.941979481 ], [ 132.719881071, 32.942130451 ], [ 132.719892191000014, 32.942279391 ], [ 132.719514081, 32.942608331 ], [ 132.719499541, 32.943132451 ], [ 132.71967601099999, 32.943057541 ], [ 132.719889572, 32.943072511 ], [ 132.72008303199999, 32.943114601 ], [ 132.720222552, 32.943214021 ], [ 132.720362962, 32.943353291 ], [ 132.720421402, 32.943420221 ], [ 132.72072353199999, 32.94325436 ], [ 132.720632542, 32.94307399 ], [ 132.72062486199999, 32.94295862 ], [ 132.720655582, 32.94285502 ], [ 132.720716071999988, 32.94275894 ], [ 132.720838702, 32.94265906 ], [ 132.720893682, 32.94255193 ], [ 132.720932151, 32.94241692 ], [ 132.720986321, 32.94233128 ], [ 132.721049061, 32.94226038 ], [ 132.721131861, 32.94216969 ], [ 132.721229461, 32.94201984 ], [ 132.721286321, 32.94191117 ], [ 132.721308461, 32.94179493 ], [ 132.721290431, 32.94158409 ], [ 132.72128987100001, 32.94143677 ], [ 132.721318251000014, 32.94131743 ], [ 132.721392541, 32.94120362 ], [ 132.72143791100001, 32.94113156 ], [ 132.721430020000014, 32.9410382 ], [ 132.7214358, 32.94094597 ], [ 132.721561150000014, 32.94074914 ], [ 132.72167423, 32.94060516 ], [ 132.72181326, 32.94047707 ], [ 132.721974179999989, 32.94040364 ], [ 132.72212797, 32.940363169 ], [ 132.722190469999987, 32.940319529 ], [ 132.72219825, 32.940281839 ], [ 132.72218281, 32.940202049 ], [ 132.7221824, 32.940105599 ], [ 132.72221521, 32.940048139 ], [ 132.72238151, 32.939927559 ], [ 132.72258545, 32.939834999 ], [ 132.72272128, 32.939787619 ], [ 132.72282947, 32.939776759 ], [ 132.7228855, 32.939762429 ], [ 132.72294181, 32.939716649 ], [ 132.72296705, 32.939672769 ], [ 132.722964209999986, 32.939571059 ], [ 132.72300553, 32.939392029 ], [ 132.72303098, 32.939324049 ], [ 132.72309235, 32.939266759 ], [ 132.723174590000013, 32.939238969 ], [ 132.72334233, 32.939237909 ], [ 132.72355937, 32.939280149 ], [ 132.72368605, 32.939285128 ], [ 132.7237596, 32.939257288 ], [ 132.723827199999988, 32.939197938 ], [ 132.72389182, 32.939197288 ], [ 132.72398829, 32.939247168 ], [ 132.72405575, 32.939346138 ], [ 132.724081500000011, 32.939527678 ], [ 132.724084370000014, 32.939626248 ], [ 132.72403538, 32.939687798 ], [ 132.72388182099999, 32.939772808 ], [ 132.72366466, 32.939884698 ], [ 132.72359344099999, 32.939931429 ], [ 132.723573041, 32.939991059 ], [ 132.723563251, 32.940114709 ], [ 132.72354916099999, 32.940377259 ], [ 132.72347890099999, 32.940598039 ], [ 132.723443941, 32.940688509 ], [ 132.72346797099999, 32.940783009 ], [ 132.72353207099999, 32.940840019 ], [ 132.723597770999987, 32.940858259 ], [ 132.72372095099999, 32.940836998 ], [ 132.723924200999988, 32.940752298 ], [ 132.724014340999986, 32.940674228 ], [ 132.724079031, 32.940521558 ], [ 132.72419374099999, 32.940262788 ], [ 132.724339511000011, 32.940073928 ], [ 132.724493341, 32.939956418 ], [ 132.724605731, 32.939891058 ], [ 132.724639801, 32.939831518 ], [ 132.724719821, 32.939701488 ], [ 132.724846441000011, 32.939571228 ], [ 132.724915901, 32.939442698 ], [ 132.72505557, 32.939098628 ], [ 132.72518299, 32.938876118 ], [ 132.72523558, 32.938829257 ], [ 132.725306460000013, 32.938822357 ], [ 132.72537209, 32.938845837 ], [ 132.72543878, 32.938892367 ], [ 132.725481570999989, 32.938972327 ], [ 132.725501581, 32.939099307 ], [ 132.72552826099999, 32.939173907 ], [ 132.725551931000012, 32.939309297 ], [ 132.725572941, 32.939465647 ], [ 132.72554893099999, 32.939654217 ], [ 132.725451031, 32.939911517 ], [ 132.725406212, 32.940135077 ], [ 132.72533706199999, 32.940227957 ], [ 132.72517804200001, 32.940370608 ], [ 132.725135142, 32.940445828 ], [ 132.725116802, 32.940554748 ], [ 132.725096852, 32.940705598 ], [ 132.725028842, 32.940811068 ], [ 132.724894912, 32.940924508 ], [ 132.724778722, 32.940998228 ], [ 132.724725962, 32.941064998 ], [ 132.72473037200001, 32.941130028 ], [ 132.724815672, 32.941178788 ], [ 132.724896261999987, 32.941198148 ], [ 132.724955881999989, 32.941199578 ], [ 132.725030772, 32.941160198 ], [ 132.725110742, 32.941107228 ], [ 132.72517780199999, 32.941111838 ], [ 132.725250722, 32.941155267 ], [ 132.725330512999989, 32.941265847 ], [ 132.72539388300001, 32.941407777 ], [ 132.72544914299999, 32.941553327 ], [ 132.725465512999989, 32.941670857 ], [ 132.725467463, 32.941874257 ], [ 132.72546358299999, 32.942034647 ], [ 132.725481863, 32.942075647 ], [ 132.725570983000011, 32.942113947 ], [ 132.725628003, 32.942130027 ], [ 132.72572124300001, 32.942123257 ], [ 132.725773713, 32.942088987 ], [ 132.725794143, 32.942026207 ], [ 132.725797403, 32.941938167 ], [ 132.72580914299999, 32.941873227 ], [ 132.725887793, 32.941687097 ], [ 132.725890883, 32.941616877 ], [ 132.725869303, 32.941527617 ], [ 132.725778803, 32.941362457 ], [ 132.72574976300001, 32.941274217 ], [ 132.725750663000014, 32.941170427 ], [ 132.725750901999987, 32.940929817 ], [ 132.725787242, 32.940893337 ], [ 132.725888082000012, 32.940869857 ], [ 132.72592688200001, 32.940837597 ], [ 132.72593732199999, 32.940779997 ], [ 132.725899572, 32.940550157 ], [ 132.725892542, 32.940357207 ], [ 132.725912912000013, 32.940300717 ], [ 132.726025932, 32.940163027 ], [ 132.72608049199999, 32.940103087 ], [ 132.72613774199999, 32.939949327 ], [ 132.726220332, 32.939739097 ], [ 132.726268212, 32.939662867 ], [ 132.72631828199999, 32.939620187 ], [ 132.726460392, 32.939564457 ], [ 132.726518352, 32.939544377 ], [ 132.72655978200001, 32.939494307 ], [ 132.726618411, 32.939324827 ], [ 132.726974132, 32.939421386 ], [ 132.726968682, 32.939619506 ], [ 132.726945871999988, 32.939670736 ], [ 132.726828272, 32.939764366 ], [ 132.726738562, 32.939866037 ], [ 132.726657792, 32.940009167 ], [ 132.726587782, 32.940201637 ], [ 132.726570912, 32.940285407 ], [ 132.72659913199999, 32.940325417 ], [ 132.72666975199999, 32.940347877 ], [ 132.726729422, 32.940345097 ], [ 132.726814692, 32.940254416 ], [ 132.72695150199999, 32.940093806 ], [ 132.72710230199999, 32.939898686 ], [ 132.727259772, 32.939792716 ], [ 132.72737198199999, 32.939747286 ], [ 132.72747749199999, 32.939757376 ], [ 132.72755416199999, 32.939798736 ], [ 132.727632612, 32.939920836 ], [ 132.72765768299999, 32.940038416 ], [ 132.727647792999988, 32.940176746 ], [ 132.72761268299999, 32.940355816 ], [ 132.727574483000012, 32.940534336 ], [ 132.727533583, 32.940665136 ], [ 132.727409013, 32.940846786 ], [ 132.72728242299999, 32.941045736 ], [ 132.727254402999989, 32.941124196 ], [ 132.727234982999988, 32.941215286 ], [ 132.727181843000011, 32.941323986 ], [ 132.727182782999989, 32.941359646 ], [ 132.727265593999988, 32.941409436 ], [ 132.72723478399999, 32.941666106 ], [ 132.727221514, 32.941835346 ], [ 132.727531314, 32.941893096 ], [ 132.727547724, 32.941720206 ], [ 132.72760062399999, 32.941387916 ], [ 132.727637364, 32.941270466 ], [ 132.727753924000012, 32.941082466 ], [ 132.728029283000012, 32.940706216 ], [ 132.728129333, 32.940558476 ], [ 132.72823831299999, 32.940312776 ], [ 132.728289743, 32.940256476 ], [ 132.72838402299999, 32.940272785 ], [ 132.728497573, 32.940359455 ], [ 132.728579993000011, 32.940454325 ], [ 132.728603983, 32.940553025 ], [ 132.728602833999986, 32.940686165 ], [ 132.728510003999986, 32.941002735 ], [ 132.728370324, 32.941278136 ], [ 132.728284344, 32.941450596 ], [ 132.728229424, 32.941622196 ], [ 132.728240814, 32.941741786 ], [ 132.728262683999986, 32.941869306 ], [ 132.72825349499999, 32.941925866 ], [ 132.728209415, 32.941994786 ], [ 132.728132875, 32.942081336 ], [ 132.728133715000013, 32.942127466 ], [ 132.728156995, 32.942165356 ], [ 132.728257135, 32.942222586 ], [ 132.728435555, 32.942279265 ], [ 132.72851704499999, 32.942337425 ], [ 132.728552995, 32.942417845 ], [ 132.728559565000012, 32.942519585 ], [ 132.728521495, 32.942611605 ], [ 132.728427565, 32.942696995 ], [ 132.728359895000011, 32.942764726 ], [ 132.728344375, 32.942834876 ], [ 132.72841910599999, 32.943028765 ], [ 132.728425656000013, 32.943132595 ], [ 132.728370756, 32.943301056 ], [ 132.728305956000014, 32.943395536 ], [ 132.72817841599999, 32.943489106 ], [ 132.728038416, 32.943585746 ], [ 132.72789960599999, 32.943688686 ], [ 132.72776069599999, 32.943804206 ], [ 132.727614496, 32.943899746 ], [ 132.727557045999987, 32.943933996 ], [ 132.727541666, 32.943987366 ], [ 132.727579666, 32.944047356 ], [ 132.727643946, 32.944085496 ], [ 132.727740676, 32.944106016 ], [ 132.727845136000013, 32.944095126 ], [ 132.727972676, 32.944001556 ], [ 132.728138016, 32.943849516 ], [ 132.728298086, 32.943729936 ], [ 132.728426066, 32.943728625 ], [ 132.728504006, 32.943766855 ], [ 132.72853436599999, 32.943848815 ], [ 132.728535047, 32.944198985 ], [ 132.728597887, 32.944260185 ], [ 132.728718197, 32.944283995 ], [ 132.728790257000014, 32.944284435 ], [ 132.728875827, 32.944159155 ], [ 132.72888391699999, 32.944085815 ], [ 132.728851217, 32.943990205 ], [ 132.728853706, 32.943702955 ], [ 132.728880796, 32.943158995 ], [ 132.729527676, 32.943209115 ], [ 132.729517686, 32.942999895 ], [ 132.72956008599999, 32.942552475 ], [ 132.729663775, 32.942129035 ], [ 132.729708625, 32.941900235 ], [ 132.729889995, 32.941617235 ], [ 132.73015578499999, 32.941269214 ], [ 132.730151385, 32.941133424 ], [ 132.730198905, 32.940953384 ], [ 132.730260504, 32.940727304 ], [ 132.73032075399999, 32.940440924 ], [ 132.730361834, 32.940145524 ], [ 132.730382134, 32.940052074 ] ] ] } },
{ "type": "Feature", "properties": { "A29_001": "39208", "A29_002": "高知県", "A29_003": "宿毛市", "A29_004": 12, "A29_005": "工業専用地域", "A29_006": 60, "A29_007": 200, "A29_008": null }, "geometry": { "type": "Polygon", "coordinates": [ [ [ 132.80323704700001, 32.948741475 ], [ 132.803165127, 32.948823345 ], [ 132.803040766, 32.949077885 ], [ 132.80287692600001, 32.949376755 ], [ 132.802707645999988, 32.949657244 ], [ 132.802536186, 32.949817694 ], [ 132.802487796, 32.949811144 ], [ 132.802398315, 32.949815884 ], [ 132.80227515499999, 32.949837204 ], [ 132.80204274499999, 32.949931814 ], [ 132.801803275, 32.950053114 ], [ 132.80155120500001, 32.950198454 ], [ 132.801416265, 32.950295184 ], [ 132.801353064000011, 32.95043379 ], [ 132.801020134, 32.951066524 ], [ 132.800765256, 32.95173494 ], [ 132.800660066, 32.951724808 ], [ 132.800564533, 32.951735333 ], [ 132.80044622299999, 32.951772393 ], [ 132.80027041299999, 32.951855263 ], [ 132.800154243, 32.951936373 ], [ 132.800105593000012, 32.951961263 ], [ 132.800011657999988, 32.95195399 ], [ 132.79990554599999, 32.95191713 ], [ 132.799502748, 32.951522141 ], [ 132.79913134200001, 32.951605193 ], [ 132.799206801999986, 32.951880763 ], [ 132.799318282, 32.952237763 ], [ 132.799488102, 32.952680523 ], [ 132.799798882, 32.953363063 ], [ 132.80006756099999, 32.954028583 ], [ 132.800296171000014, 32.954733713 ], [ 132.800455921, 32.955349363 ], [ 132.80059362, 32.955928203 ], [ 132.80067657, 32.956278753 ], [ 132.80069149, 32.956516243 ], [ 132.8007212, 32.956923623 ], [ 132.80073926, 32.957548953 ], [ 132.800735499000012, 32.958263263 ], [ 132.800743119, 32.958635933 ], [ 132.800853719, 32.958948903 ], [ 132.800877439, 32.959012453 ], [ 132.800947568999987, 32.959098794 ], [ 132.801106519, 32.959267394 ], [ 132.801203625, 32.959477865 ], [ 132.802513779, 32.959752883 ], [ 132.803621, 32.959361615 ], [ 132.804276840999989, 32.959141475 ], [ 132.804985601, 32.958906435 ], [ 132.805892548, 32.958656368 ], [ 132.806988393000012, 32.958360878 ], [ 132.808174484, 32.958092878 ], [ 132.8092882, 32.957867581 ], [ 132.80936137899999, 32.957846513 ], [ 132.809404195000013, 32.957799509 ], [ 132.809434385, 32.957732517 ], [ 132.809644085, 32.957607888 ], [ 132.809541024999987, 32.957358387 ], [ 132.80948220499999, 32.957254287 ], [ 132.80938989500001, 32.957143717 ], [ 132.809293715, 32.957049897 ], [ 132.80912000699999, 32.956956082 ], [ 132.808923357999987, 32.956914911 ], [ 132.80874224499999, 32.956913909 ], [ 132.808565571, 32.956924384 ], [ 132.80631211299999, 32.957380622 ], [ 132.806284162999987, 32.957360256 ], [ 132.80622520899999, 32.957316854 ], [ 132.806123482, 32.957297202 ], [ 132.805965156000013, 32.957277235 ], [ 132.805729961999987, 32.95724348 ], [ 132.805524483, 32.957178246 ], [ 132.805420172999987, 32.957093286 ], [ 132.80532760299999, 32.956975646 ], [ 132.805258662999989, 32.956815416 ], [ 132.80520818299999, 32.956716335 ], [ 132.805135592999989, 32.956704925 ], [ 132.805092183, 32.956696295 ], [ 132.805014203000013, 32.956660745 ], [ 132.804938693, 32.956584085 ], [ 132.804896643, 32.956481125 ], [ 132.80486963300001, 32.956360965 ], [ 132.80487448299999, 32.956256435 ], [ 132.804897802999989, 32.956134455 ], [ 132.80489514300001, 32.956038785 ], [ 132.80486735299999, 32.955859395 ], [ 132.804986082999989, 32.955729825 ], [ 132.805360033999989, 32.955330996 ], [ 132.805563224, 32.955162846 ], [ 132.806115355, 32.954695816 ], [ 132.80643442499999, 32.954403046 ], [ 132.806524045, 32.954300306 ], [ 132.806568185, 32.954215656 ], [ 132.806596125, 32.954138236 ], [ 132.806582005, 32.954036496 ], [ 132.806488726, 32.953653916 ], [ 132.806368326000012, 32.953241856 ], [ 132.806298946, 32.953059096 ], [ 132.806245096, 32.952955016 ], [ 132.806001086, 32.952626116 ], [ 132.80546801599999, 32.951927706 ], [ 132.805193065999987, 32.951581346 ], [ 132.804960236, 32.951292075 ], [ 132.804723736, 32.950995955 ], [ 132.804452816, 32.950651965 ], [ 132.804267476, 32.950404895 ], [ 132.804150615999987, 32.950258025 ], [ 132.80405116599999, 32.950147155 ], [ 132.80393128599999, 32.950069445 ], [ 132.803728796, 32.949991275 ], [ 132.803776276, 32.949877285 ], [ 132.803820105999989, 32.949831935 ], [ 132.803862006, 32.949794955 ], [ 132.804001107, 32.949719215 ], [ 132.804143887, 32.949649265 ], [ 132.804286967, 32.949581135 ], [ 132.804915317, 32.949370285 ], [ 132.804771316999989, 32.949119495 ], [ 132.804632797000011, 32.948882895 ], [ 132.804547707000012, 32.948802755 ], [ 132.80435112699999, 32.948843595 ], [ 132.804019587, 32.948906205 ], [ 132.803762277, 32.948928875 ], [ 132.803620787, 32.948913415 ], [ 132.803430057000014, 32.948840035 ], [ 132.80323704700001, 32.948741475 ] ] ] } },
{ "type": "Feature", "properties": { "A29_001": "39208", "A29_002": "高知県", "A29_003": "宿毛市", "A29_004": 3, "A29_005": "第一種中高層住居専用地域", "A29_006": 60, "A29_007": 200, "A29_008": null }, "geometry": { "type": "Polygon", "coordinates": [ [ [ 132.812430991000014, 32.961532119 ], [ 132.81274170099999, 32.961438959 ], [ 132.812784141, 32.961092249 ], [ 132.811957081, 32.961280029 ], [ 132.81125509099999, 32.961442818 ], [ 132.81077435, 32.961511978 ], [ 132.810850609999989, 32.961850418 ], [ 132.81071934, 32.961875388 ], [ 132.81086645900001, 32.962529748 ], [ 132.811566129999989, 32.962428258 ], [ 132.81242748, 32.962304609 ], [ 132.812430731, 32.961885359 ], [ 132.812430991000014, 32.961532119 ] ] ] } },
{ "type": "Feature", "properties": { "A29_001": "39208", "A29_002": "高知県", "A29_003": "宿毛市", "A29_004": 5, "A29_005": "第一種住居地域", "A29_006": 60, "A29_007": 200, "A29_008": null }, "geometry": { "type": "Polygon", "coordinates": [ [ [ 132.805314936, 32.963600275 ], [ 132.805310786, 32.963576675 ], [ 132.805000976, 32.963312885 ], [ 132.804719906, 32.963107435 ], [ 132.804521876, 32.963008844 ], [ 132.804260376, 32.962922484 ], [ 132.80407169599999, 32.962899414 ], [ 132.803686426000013, 32.962909854 ], [ 132.803239416, 32.962951914 ], [ 132.803043996000014, 32.962994844 ], [ 132.80285619599999, 32.963017914 ], [ 132.802889185, 32.963172714 ], [ 132.803086425, 32.963213644 ], [ 132.80315732599999, 32.963203554 ], [ 132.803232156, 32.963169384 ], [ 132.803419706, 32.963178814 ], [ 132.80356367600001, 32.963200584 ], [ 132.803672506, 32.963265134 ], [ 132.803815836000012, 32.963367614 ], [ 132.803857975999989, 32.963380414 ], [ 132.803988946, 32.963317204 ], [ 132.80410841599999, 32.963292714 ], [ 132.804220276, 32.963288094 ], [ 132.804283395999988, 32.963319904 ], [ 132.804353686000013, 32.963389474 ], [ 132.804375506000014, 32.963458774 ], [ 132.804388206, 32.963581494 ], [ 132.80438776599999, 32.963638104 ], [ 132.804414836, 32.963672844 ], [ 132.804513886, 32.963717424 ], [ 132.804574666, 32.963730335 ], [ 132.804634435999986, 32.963713895 ], [ 132.804680796000014, 32.963664885 ], [ 132.804753546, 32.963577245 ], [ 132.80480953599999, 32.963567065 ], [ 132.804973045999986, 32.963631925 ], [ 132.80510678600001, 32.963691365 ], [ 132.80518117599999, 32.963711705 ], [ 132.805238436, 32.963697335 ], [ 132.80530105599999, 32.963634795 ], [ 132.805314936, 32.963600275 ] ] ] } },
{ "type": "Feature", "properties": { "A29_001": "39208", "A29_002": "高知県", "A29_003": "宿毛市", "A29_004": 3, "A29_005": "第一種中高層住居専用地域", "A29_006": 60, "A29_007": 200, "A29_008": null }, "geometry": { "type": "Polygon", "coordinates": [ [ [ 132.810630128000014, 32.964042188 ], [ 132.810535878, 32.963619748 ], [ 132.81040210899999, 32.963004218 ], [ 132.81025741900001, 32.962356128 ], [ 132.810179190000014, 32.961951588 ], [ 132.810133189999988, 32.961954478 ], [ 132.81007284, 32.961693118 ], [ 132.80926624899999, 32.961884667 ], [ 132.808601089, 32.962021967 ], [ 132.807420877999988, 32.962248646 ], [ 132.807570048, 32.963052496 ], [ 132.80819268799999, 32.962956897 ], [ 132.80836855699999, 32.963746677 ], [ 132.808412247, 32.963962327 ], [ 132.808770466999988, 32.963913997 ], [ 132.809090086999987, 32.964197747 ], [ 132.809601367999988, 32.964120917 ], [ 132.80964923799999, 32.964359117 ], [ 132.80972087699999, 32.964412987 ], [ 132.80992464799999, 32.964414107 ], [ 132.81033645799999, 32.964346148 ], [ 132.81061512799999, 32.964304708 ], [ 132.81066542799999, 32.964226358 ], [ 132.810630128000014, 32.964042188 ] ] ] } },
{ "type": "Feature", "properties": { "A29_001": "39208", "A29_002": "高知県", "A29_003": "宿毛市", "A29_004": 6, "A29_005": "第二種住居地域", "A29_006": 60, "A29_007": 200, "A29_008": null }, "geometry": { "type": "Polygon", "coordinates": [ [ [ 132.817390281, 32.964768032 ], [ 132.817463511, 32.964616452 ], [ 132.817383731, 32.964488122 ], [ 132.81693307099999, 32.964598871 ], [ 132.816537180000012, 32.964698381 ], [ 132.81641671, 32.964435431 ], [ 132.81611199, 32.964559031 ], [ 132.81569792, 32.964761161 ], [ 132.815884899999986, 32.965014531 ], [ 132.815842479999986, 32.965037351 ], [ 132.816004529999987, 32.965292961 ], [ 132.816274130000011, 32.965136161 ], [ 132.81654488, 32.964989831 ], [ 132.816721730000012, 32.964936291 ], [ 132.81709776, 32.964835622 ], [ 132.817390281, 32.964768032 ] ] ] } },
{ "type": "Feature", "properties": { "A29_001": "39208", "A29_002": "高知県", "A29_003": "宿毛市", "A29_004": 5, "A29_005": "第一種住居地域", "A29_006": 60, "A29_007": 200, "A29_008": null }, "geometry": { "type": "Polygon", "coordinates": [ [ [ 132.81569792, 32.964761161 ], [ 132.81611199, 32.964559031 ], [ 132.81641671, 32.964435431 ], [ 132.816216110999989, 32.963943251 ], [ 132.816132721, 32.963802341 ], [ 132.815821781000011, 32.964005041 ], [ 132.81565598, 32.964117071 ], [ 132.81560814, 32.964117331 ], [ 132.81554878, 32.964081891 ], [ 132.8155118, 32.964042911 ], [ 132.81550719, 32.963874911 ], [ 132.815483261, 32.963835471 ], [ 132.81543000100001, 32.963814741 ], [ 132.815146520000013, 32.96371807 ], [ 132.815092709999988, 32.96368633 ], [ 132.81505956, 32.96363531 ], [ 132.815042721, 32.96356342 ], [ 132.815037141, 32.96348163 ], [ 132.815047501, 32.96340844 ], [ 132.815075721, 32.963374 ], [ 132.815126241, 32.96334964 ], [ 132.815188411, 32.96334422 ], [ 132.81522479099999, 32.96325767 ], [ 132.815265520999986, 32.963131591 ], [ 132.815411770999987, 32.962815041 ], [ 132.81549834099999, 32.962666921 ], [ 132.815322291, 32.962537021 ], [ 132.815332052, 32.962478911 ], [ 132.815539832000013, 32.962239741 ], [ 132.815848832, 32.961927231 ], [ 132.815922352, 32.961860291 ], [ 132.815795092, 32.961766821 ], [ 132.81570098200001, 32.961725431 ], [ 132.815648242, 32.961717271 ], [ 132.815616522, 32.961721821 ], [ 132.815413422, 32.961918561 ], [ 132.815392222000014, 32.961927881 ], [ 132.815370511999987, 32.961923571 ], [ 132.815330472, 32.961879851 ], [ 132.81526540199999, 32.961778861 ], [ 132.81519815199999, 32.96175883 ], [ 132.815097672, 32.96173942 ], [ 132.815016012, 32.96169337 ], [ 132.814897472000013, 32.96159785 ], [ 132.814843362, 32.9615669 ], [ 132.814764682, 32.96153817 ], [ 132.814677092000011, 32.96145697 ], [ 132.814565832, 32.96138456 ], [ 132.814381731999987, 32.96133166 ], [ 132.814258072, 32.96129613 ], [ 132.814146482000012, 32.96126512 ], [ 132.813991832, 32.96126112 ], [ 132.813936982, 32.96128388 ], [ 132.813768282000012, 32.96140979 ], [ 132.813558311, 32.96157057 ], [ 132.813513210999986, 32.96161855 ], [ 132.81346639099999, 32.96172731 ], [ 132.81343682100001, 32.96185712 ], [ 132.813372491, 32.962061699 ], [ 132.813310331, 32.962225929 ], [ 132.81282446099999, 32.962311829 ], [ 132.812492321, 32.961641759 ], [ 132.812430991000014, 32.961532119 ], [ 132.812430731, 32.961885359 ], [ 132.81242748, 32.962304609 ], [ 132.811566129999989, 32.962428258 ], [ 132.81086645900001, 32.962529748 ], [ 132.81110035899999, 32.963610658 ], [ 132.811157809, 32.963812748 ], [ 132.81131751800001, 32.964046338 ], [ 132.811370587999988, 32.964091698 ], [ 132.811650547999989, 32.964280348 ], [ 132.81184061799999, 32.964444909 ], [ 132.811909418, 32.964544869 ], [ 132.812001267999989, 32.964716219 ], [ 132.812190038000011, 32.965127639 ], [ 132.812661947, 32.966120759 ], [ 132.81354194799999, 32.96551818 ], [ 132.814473169, 32.96487709 ], [ 132.81527571, 32.96432753 ], [ 132.81549739, 32.964502201 ], [ 132.81569792, 32.964761161 ] ] ] } },
{ "type": "Feature", "properties": { "A29_001": "39208", "A29_002": "高知県", "A29_003": "宿毛市", "A29_004": 6, "A29_005": "第二種住居地域", "A29_006": 60, "A29_007": 200, "A29_008": null }, "geometry": { "type": "Polygon", "coordinates": [ [ [ 132.812661947, 32.966120759 ], [ 132.812190038000011, 32.965127639 ], [ 132.812001267999989, 32.964716219 ], [ 132.811909418, 32.964544869 ], [ 132.81184061799999, 32.964444909 ], [ 132.811650547999989, 32.964280348 ], [ 132.811370587999988, 32.964091698 ], [ 132.81131751800001, 32.964046338 ], [ 132.811157809, 32.963812748 ], [ 132.81110035899999, 32.963610658 ], [ 132.81086645900001, 32.962529748 ], [ 132.81071934, 32.961875388 ], [ 132.810850609999989, 32.961850418 ], [ 132.81077435, 32.961511978 ], [ 132.8106885, 32.961528278 ], [ 132.81007284, 32.961693118 ], [ 132.810133189999988, 32.961954478 ], [ 132.810179190000014, 32.961951588 ], [ 132.81025741900001, 32.962356128 ], [ 132.81040210899999, 32.963004218 ], [ 132.810535878, 32.963619748 ], [ 132.810630128000014, 32.964042188 ], [ 132.810687548, 32.964169328 ], [ 132.810785368000012, 32.964293028 ], [ 132.810876538, 32.964394168 ], [ 132.811029848, 32.964492498 ], [ 132.81117013799999, 32.964588138 ], [ 132.811401208, 32.964753988 ], [ 132.811467798, 32.964819348 ], [ 132.81157153800001, 32.964980818 ], [ 132.811827488, 32.965543559 ], [ 132.812075967, 32.966109399 ], [ 132.81225183699999, 32.966504499 ], [ 132.812258957000012, 32.966387139 ], [ 132.812661947, 32.966120759 ] ] ] } },
{ "type": "Feature", "properties": { "A29_001": "39208", "A29_002": "高知県", "A29_003": "宿毛市", "A29_004": 5, "A29_005": "第一種住居地域", "A29_006": 60, "A29_007": 200, "A29_008": null }, "geometry": { "type": "Polygon", "coordinates": [ [ [ 132.81225183699999, 32.966504499 ], [ 132.812075967, 32.966109399 ], [ 132.811827488, 32.965543559 ], [ 132.81157153800001, 32.964980818 ], [ 132.811467798, 32.964819348 ], [ 132.811401208, 32.964753988 ], [ 132.81117013799999, 32.964588138 ], [ 132.811029848, 32.964492498 ], [ 132.810876538, 32.964394168 ], [ 132.810785368000012, 32.964293028 ], [ 132.810687548, 32.964169328 ], [ 132.810630128000014, 32.964042188 ], [ 132.81066542799999, 32.964226358 ], [ 132.81061512799999, 32.964304708 ], [ 132.81033645799999, 32.964346148 ], [ 132.80992464799999, 32.964414107 ], [ 132.80972087699999, 32.964412987 ], [ 132.80964923799999, 32.964359117 ], [ 132.809601367999988, 32.964120917 ], [ 132.809090086999987, 32.964197747 ], [ 132.808770466999988, 32.963913997 ], [ 132.808412247, 32.963962327 ], [ 132.80836855699999, 32.963746677 ], [ 132.80819268799999, 32.962956897 ], [ 132.807570048, 32.963052496 ], [ 132.807420877999988, 32.962248646 ], [ 132.807184377999988, 32.962303946 ], [ 132.806703648, 32.962370986 ], [ 132.806390318000012, 32.962400696 ], [ 132.805744567, 32.962439545 ], [ 132.804809387, 32.962469465 ], [ 132.805482847, 32.963024165 ], [ 132.80608674699999, 32.963496075 ], [ 132.806305987, 32.963665545 ], [ 132.80637970699999, 32.963772876 ], [ 132.806420886000012, 32.963908326 ], [ 132.806585796, 32.964353176 ], [ 132.80665549599999, 32.964497176 ], [ 132.806746995999987, 32.964632386 ], [ 132.806932085999989, 32.964797976 ], [ 132.80725955599999, 32.965029356 ], [ 132.80795392600001, 32.965456186 ], [ 132.80894447599999, 32.965985267 ], [ 132.809553816, 32.966323547 ], [ 132.810029326, 32.966533738 ], [ 132.810185636, 32.966567088 ], [ 132.810515296, 32.966597738 ], [ 132.811037086, 32.966611098 ], [ 132.811718797, 32.966591268 ], [ 132.811961297000011, 32.966565359 ], [ 132.81225183699999, 32.966504499 ] ] ] } },
{ "type": "Feature", "properties": { "A29_001": "39208", "A29_002": "高知県", "A29_003": "宿毛市", "A29_004": 5, "A29_005": "第一種住居地域", "A29_006": 60, "A29_007": 200, "A29_008": null }, "geometry": { "type": "Polygon", "coordinates": [ [ [ 132.808630885000014, 32.966439007 ], [ 132.807783075, 32.965930626 ], [ 132.807298895, 32.965638096 ], [ 132.80730275499999, 32.965791176 ], [ 132.807107795, 32.965934756 ], [ 132.807095285, 32.966024306 ], [ 132.807109395, 32.966127116 ], [ 132.807164645, 32.966212326 ], [ 132.807205355, 32.966250296 ], [ 132.807696115, 32.966417596 ], [ 132.808416885000014, 32.966648527 ], [ 132.808630885000014, 32.966439007 ] ] ] } },
{ "type": "Feature", "properties": { "A29_001": "39208", "A29_002": "高知県", "A29_003": "宿毛市", "A29_004": 8, "A29_005": "近隣商業地域", "A29_006": 80, "A29_007": 300, "A29_008": null }, "geometry": { "type": "Polygon", "coordinates": [ [ [ 132.813135706999986, 32.966863239 ], [ 132.813243946999989, 32.966847059 ], [ 132.813596026999988, 32.9667122 ], [ 132.813916408000011, 32.96657769 ], [ 132.814107798, 32.96649225 ], [ 132.81422287800001, 32.96639331 ], [ 132.814358198, 32.96624835 ], [ 132.814457358, 32.9661189 ], [ 132.81464791799999, 32.96598001 ], [ 132.815020049, 32.96574199 ], [ 132.81521709899999, 32.96564769 ], [ 132.81569263899999, 32.965452691 ], [ 132.816004529999987, 32.965292961 ], [ 132.815842479999986, 32.965037351 ], [ 132.815884899999986, 32.965014531 ], [ 132.81569792, 32.964761161 ], [ 132.81549739, 32.964502201 ], [ 132.81527571, 32.96432753 ], [ 132.814473169, 32.96487709 ], [ 132.81354194799999, 32.96551818 ], [ 132.812661947, 32.966120759 ], [ 132.812258957000012, 32.966387139 ], [ 132.81225183699999, 32.966504499 ], [ 132.812335687, 32.966677489 ], [ 132.812462707, 32.966882069 ], [ 132.813135706999986, 32.966863239 ] ] ] } },
{ "type": "Feature", "properties": { "A29_001": "39208", "A29_002": "高知県", "A29_003": "宿毛市", "A29_004": 6, "A29_005": "第二種住居地域", "A29_006": 60, "A29_007": 200, "A29_008": null }, "geometry": { "type": "Polygon", "coordinates": [ [ [ 132.813135706999986, 32.966863239 ], [ 132.812462707, 32.966882069 ], [ 132.812335687, 32.966677489 ], [ 132.81225183699999, 32.966504499 ], [ 132.811961297000011, 32.966565359 ], [ 132.811718797, 32.966591268 ], [ 132.811037086, 32.966611098 ], [ 132.810515296, 32.966597738 ], [ 132.810185636, 32.966567088 ], [ 132.810029326, 32.966533738 ], [ 132.809553816, 32.966323547 ], [ 132.80894447599999, 32.965985267 ], [ 132.80795392600001, 32.965456186 ], [ 132.80725955599999, 32.965029356 ], [ 132.806932085999989, 32.964797976 ], [ 132.806746995999987, 32.964632386 ], [ 132.80665549599999, 32.964497176 ], [ 132.806585796, 32.964353176 ], [ 132.806420886000012, 32.963908326 ], [ 132.80637970699999, 32.963772876 ], [ 132.806305987, 32.963665545 ], [ 132.80608674699999, 32.963496075 ], [ 132.805482847, 32.963024165 ], [ 132.804809387, 32.962469465 ], [ 132.804423667, 32.962459554 ], [ 132.804120837, 32.962415934 ], [ 132.803791256000011, 32.962375834 ], [ 132.80330694599999, 32.962340634 ], [ 132.802993616, 32.962368244 ], [ 132.80274849599999, 32.962414044 ], [ 132.802506615999988, 32.962518563 ], [ 132.802300586, 32.962648443 ], [ 132.802335126, 32.962679043 ], [ 132.802381856000011, 32.962742183 ], [ 132.802387995, 32.962988033 ], [ 132.80285619599999, 32.963017914 ], [ 132.803043996000014, 32.962994844 ], [ 132.803239416, 32.962951914 ], [ 132.803686426000013, 32.962909854 ], [ 132.80407169599999, 32.962899414 ], [ 132.804260376, 32.962922484 ], [ 132.804521876, 32.963008844 ], [ 132.804719906, 32.963107435 ], [ 132.805000976, 32.963312885 ], [ 132.805310786, 32.963576675 ], [ 132.805314936, 32.963600275 ], [ 132.805363426000014, 32.963597405 ], [ 132.80543648599999, 32.963628205 ], [ 132.805504625999987, 32.963654785 ], [ 132.805560516000014, 32.963657195 ], [ 132.805601466000013, 32.963663715 ], [ 132.805653396, 32.963696495 ], [ 132.805962026, 32.964029985 ], [ 132.806126976, 32.964229025 ], [ 132.80614688599999, 32.964305135 ], [ 132.806176795999988, 32.964453105 ], [ 132.806193076, 32.964596805 ], [ 132.806244416, 32.964704015 ], [ 132.80633120600001, 32.964807755 ], [ 132.806482826, 32.964961636 ], [ 132.806649566, 32.965091496 ], [ 132.806818506000013, 32.965177866 ], [ 132.807027656, 32.965285946 ], [ 132.80713387599999, 32.965368296 ], [ 132.80725568599999, 32.965522026 ], [ 132.807298895, 32.965638096 ], [ 132.807783075, 32.965930626 ], [ 132.808630885000014, 32.966439007 ], [ 132.808889155, 32.966622837 ], [ 132.809045454999989, 32.966739527 ], [ 132.809158055000012, 32.966639517 ], [ 132.809439435, 32.966807217 ], [ 132.809689455000012, 32.966933347 ], [ 132.810008406, 32.967064567 ], [ 132.810336906, 32.967165968 ], [ 132.810564056, 32.967196578 ], [ 132.810924916, 32.967212718 ], [ 132.811804896000012, 32.967184019 ], [ 132.812121975999986, 32.967155359 ], [ 132.81235602699999, 32.967097959 ], [ 132.812774487000013, 32.966976559 ], [ 132.813135706999986, 32.966863239 ] ] ] } },
{ "type": "Feature", "properties": { "A29_001": "39208", "A29_002": "高知県", "A29_003": "宿毛市", "A29_004": 5, "A29_005": "第一種住居地域", "A29_006": 60, "A29_007": 200, "A29_008": null }, "geometry": { "type": "Polygon", "coordinates": [ [ [ 132.817094056, 32.969952731 ], [ 132.816944377, 32.969701371 ], [ 132.816932427000012, 32.969639461 ], [ 132.816950227, 32.969588191 ], [ 132.817021426999986, 32.969539311 ], [ 132.81735355699999, 32.969412722 ], [ 132.81744979699999, 32.969341962 ], [ 132.817493837, 32.969269872 ], [ 132.817491706999988, 32.969223742 ], [ 132.817411607, 32.969137332 ], [ 132.817332607, 32.969066672 ], [ 132.817202466999987, 32.969022981 ], [ 132.817116797000011, 32.969014121 ], [ 132.817058296999988, 32.969027431 ], [ 132.816952316999988, 32.969072971 ], [ 132.816837306999986, 32.969161451 ], [ 132.816723626999988, 32.969239461 ], [ 132.816676387, 32.969240241 ], [ 132.816628067000011, 32.969223211 ], [ 132.816553967, 32.969163051 ], [ 132.816501026999987, 32.969099871 ], [ 132.81649651699999, 32.969039041 ], [ 132.81651210699999, 32.968952121 ], [ 132.816227016999989, 32.969019741 ], [ 132.816076417, 32.969050371 ], [ 132.816064517, 32.968901971 ], [ 132.81609420699999, 32.968757471 ], [ 132.816145597, 32.968539711 ], [ 132.816188277, 32.968241711 ], [ 132.816205378, 32.967957721 ], [ 132.816188708, 32.967903901 ], [ 132.816133148, 32.967856951 ], [ 132.816032648, 32.967795871 ], [ 132.815971058, 32.967725821 ], [ 132.81595452799999, 32.967694801 ], [ 132.815966688, 32.967648751 ], [ 132.81599741799999, 32.967611181 ], [ 132.81605276799999, 32.967562481 ], [ 132.816193207999987, 32.967561151 ], [ 132.816269057999989, 32.967554231 ], [ 132.81630341799999, 32.967530311 ], [ 132.816391548000013, 32.967461601 ], [ 132.816462088, 32.967418481 ], [ 132.816510018, 32.967405641 ], [ 132.816598778000014, 32.967417651 ], [ 132.816697088000012, 32.967480561 ], [ 132.81676355799999, 32.967520501 ], [ 132.816815088, 32.967525501 ], [ 132.816884208, 32.967504921 ], [ 132.816964918, 32.967433541 ], [ 132.817042448, 32.967327311 ], [ 132.817147799, 32.967121371 ], [ 132.817189159, 32.967036422 ], [ 132.817198948999987, 32.966975162 ], [ 132.817194949, 32.966928482 ], [ 132.817162319, 32.966890042 ], [ 132.817065469, 32.966882181 ], [ 132.816983869000012, 32.966869941 ], [ 132.816941789, 32.966846651 ], [ 132.816910379, 32.966810311 ], [ 132.816883229000013, 32.966706381 ], [ 132.81684321899999, 32.966656371 ], [ 132.816796208999989, 32.966629381 ], [ 132.816730309, 32.966595741 ], [ 132.81667066899999, 32.966594891 ], [ 132.816609809, 32.966590891 ], [ 132.816580109, 32.966575531 ], [ 132.816531859, 32.966547481 ], [ 132.816483229, 32.966487991 ], [ 132.816472199, 32.966429491 ], [ 132.816489549000011, 32.966354631 ], [ 132.816520349, 32.966308671 ], [ 132.81663346900001, 32.966181141 ], [ 132.816857699, 32.966270951 ], [ 132.817204729, 32.966427732 ], [ 132.817270059, 32.966417092 ], [ 132.817262249, 32.966380352 ], [ 132.817146759, 32.966252092 ], [ 132.817035729, 32.966146131 ], [ 132.81699315899999, 32.966106591 ], [ 132.816980379, 32.966032871 ], [ 132.81697258, 32.965914901 ], [ 132.81694131, 32.965860741 ], [ 132.81687543000001, 32.965783341 ], [ 132.817030249999988, 32.965486211 ], [ 132.817208349999987, 32.965149382 ], [ 132.817390281, 32.964768032 ], [ 132.81709776, 32.964835622 ], [ 132.816721730000012, 32.964936291 ], [ 132.81654488, 32.964989831 ], [ 132.816274130000011, 32.965136161 ], [ 132.816004529999987, 32.965292961 ], [ 132.81569263899999, 32.965452691 ], [ 132.81521709899999, 32.96564769 ], [ 132.815020049, 32.96574199 ], [ 132.81464791799999, 32.96598001 ], [ 132.814457358, 32.9661189 ], [ 132.814358198, 32.96624835 ], [ 132.81422287800001, 32.96639331 ], [ 132.814107798, 32.96649225 ], [ 132.813916408000011, 32.96657769 ], [ 132.813596026999988, 32.9667122 ], [ 132.813243946999989, 32.966847059 ], [ 132.813135706999986, 32.966863239 ], [ 132.812774487000013, 32.966976559 ], [ 132.81235602699999, 32.967097959 ], [ 132.812121975999986, 32.967155359 ], [ 132.811804896000012, 32.967184019 ], [ 132.810924916, 32.967212718 ], [ 132.810564056, 32.967196578 ], [ 132.810336906, 32.967165968 ], [ 132.810008406, 32.967064567 ], [ 132.809689455000012, 32.966933347 ], [ 132.809439435, 32.966807217 ], [ 132.809158055000012, 32.966639517 ], [ 132.80967828499999, 32.967109407 ], [ 132.81044135499999, 32.967734198 ], [ 132.811633175, 32.968674768 ], [ 132.81165061499999, 32.968750868 ], [ 132.811735505, 32.968860348 ], [ 132.811859055000014, 32.968952239 ], [ 132.811970335000012, 32.969023089 ], [ 132.81207546499999, 32.969166749 ], [ 132.812066565, 32.969191859 ], [ 132.81183631499999, 32.969400228 ], [ 132.811421544000012, 32.969764328 ], [ 132.81134309399999, 32.969785908 ], [ 132.811234594000013, 32.969835628 ], [ 132.811145743999987, 32.969916898 ], [ 132.811104234, 32.969980618 ], [ 132.811066864, 32.970073188 ], [ 132.81080035299999, 32.970308618 ], [ 132.810435853, 32.970360068 ], [ 132.810351032999989, 32.970720198 ], [ 132.81095760299999, 32.970861918 ], [ 132.811430863, 32.970965688 ], [ 132.811475723, 32.970868968 ], [ 132.811584853, 32.970738528 ], [ 132.81170872300001, 32.970629148 ], [ 132.811792964, 32.970502778 ], [ 132.811842374, 32.970380398 ], [ 132.811889924000013, 32.970337688 ], [ 132.811968424000014, 32.970309809 ], [ 132.81217505399999, 32.970264839 ], [ 132.812344644, 32.970189249 ], [ 132.812475164, 32.970102439 ], [ 132.812565424000013, 32.970000209 ], [ 132.812645554, 32.969924119 ], [ 132.812715505, 32.969877339 ], [ 132.812864945, 32.969835179 ], [ 132.813017975, 32.969810859 ], [ 132.813159625, 32.969812689 ], [ 132.813286865, 32.969748399 ], [ 132.813339565, 32.969683699 ], [ 132.813400755, 32.969562959 ], [ 132.813414615, 32.969377489 ], [ 132.81341410600001, 32.968721809 ], [ 132.813383386, 32.968597409 ], [ 132.813267316, 32.968342039 ], [ 132.813720036, 32.96812859 ], [ 132.813896906, 32.96871763 ], [ 132.814367815999987, 32.96864422 ], [ 132.814409226, 32.96883682 ], [ 132.814413965999989, 32.96902553 ], [ 132.814394356, 32.96915226 ], [ 132.814342936, 32.96929298 ], [ 132.814315975999989, 32.96940395 ], [ 132.814316276, 32.96952555 ], [ 132.814345605, 32.96958966 ], [ 132.81441818499999, 32.9696865 ], [ 132.814431934999988, 32.96975628 ], [ 132.814420445, 32.96995644 ], [ 132.814370685, 32.97052695 ], [ 132.814346295, 32.97070974 ], [ 132.814524855, 32.97075894 ], [ 132.81462154499999, 32.97079092 ], [ 132.814799945, 32.97086004 ], [ 132.814924125, 32.9708712 ], [ 132.81513827500001, 32.9708991 ], [ 132.815311154999989, 32.97087908 ], [ 132.815429575, 32.97083256 ], [ 132.815523445, 32.970746071 ], [ 132.815566195, 32.970680261 ], [ 132.815601455, 32.970539451 ], [ 132.81564410499999, 32.970487281 ], [ 132.815713835, 32.970468791 ], [ 132.815819264999988, 32.970494521 ], [ 132.815859875, 32.970546121 ], [ 132.815894144999987, 32.970615491 ], [ 132.815941285, 32.970866811 ], [ 132.815982865, 32.970955091 ], [ 132.816088605, 32.971099281 ], [ 132.816189215, 32.971186321 ], [ 132.816300434999988, 32.971265541 ], [ 132.81638863500001, 32.971271281 ], [ 132.81652904500001, 32.971272041 ], [ 132.81661608499999, 32.971264131 ], [ 132.816669875, 32.971219351 ], [ 132.81671382499999, 32.971159841 ], [ 132.81672532499999, 32.971117971 ], [ 132.816710085000011, 32.970999431 ], [ 132.816679735, 32.970907011 ], [ 132.816686256, 32.970784931 ], [ 132.816757325999987, 32.970592441 ], [ 132.81681041600001, 32.970476371 ], [ 132.816845556, 32.970432541 ], [ 132.816933846000012, 32.970423581 ], [ 132.817083286000013, 32.970461611 ], [ 132.817204925999988, 32.970481151 ], [ 132.817259696, 32.970467822 ], [ 132.817289926, 32.970415572 ], [ 132.817286786000011, 32.970339032 ], [ 132.81724376599999, 32.970116561 ], [ 132.817144055999989, 32.969992311 ], [ 132.817094056, 32.969952731 ] ] ] } },
{ "type": "Feature", "properties": { "A29_001": "39208", "A29_002": "高知県", "A29_003": "宿毛市", "A29_004": 11, "A29_005": "工業地域", "A29_006": 60, "A29_007": 200, "A29_008": null }, "geometry": { "type": "Polygon", "coordinates": [ [ [ 132.694127654999988, 32.920505207 ], [ 132.694308116, 32.921365639 ], [ 132.694698343999988, 32.922147735 ], [ 132.694616553, 32.922182996 ], [ 132.694983814000011, 32.922877978 ], [ 132.695289906, 32.923693043 ], [ 132.695461314, 32.924289777 ], [ 132.69547401, 32.924484 ], [ 132.69558201000001, 32.92479001 ], [ 132.695633267, 32.924982784 ], [ 132.69567378, 32.925175438 ], [ 132.695813176, 32.925134697 ], [ 132.69618472799999, 32.925015274 ], [ 132.695883436, 32.924531273 ], [ 132.695853777999986, 32.924432307 ], [ 132.695851542000014, 32.924343347 ], [ 132.695928314000014, 32.924261005 ], [ 132.696114456, 32.924097717 ], [ 132.696317107999988, 32.923980482 ], [ 132.69640427499999, 32.923851252 ], [ 132.696509843, 32.923689374 ], [ 132.696541948, 32.923642817 ], [ 132.696555913999987, 32.923599962 ], [ 132.696543717999987, 32.923572207 ], [ 132.696500127, 32.923547197 ], [ 132.696353286, 32.923441417 ], [ 132.696131696, 32.923290597 ], [ 132.69602128599999, 32.923276257 ], [ 132.695939736000014, 32.923228567 ], [ 132.695900435999988, 32.923179027 ], [ 132.69587883599999, 32.923095027 ], [ 132.69583107599999, 32.923020287 ], [ 132.695708816, 32.922942967 ], [ 132.695590226, 32.922869867 ], [ 132.695487356, 32.922776427 ], [ 132.695370096, 32.922558667 ], [ 132.695295445999989, 32.922268266 ], [ 132.695218684, 32.921979117 ], [ 132.69571041399999, 32.921560456 ], [ 132.69478883299999, 32.920954529 ], [ 132.694768864, 32.920752266 ], [ 132.694697432, 32.920398026 ], [ 132.694127654999988, 32.920505207 ] ] ] } }
]
}
