{
"type": "FeatureCollection",
"name": "A29-19_41206",
"features": [
{ "type": "Feature", "properties": { "A29_001": "41206", "A29_002": "佐賀県", "A29_003": "武雄市", "A29_004": 2, "A29_005": "第二種低層住居専用地域", "A29_006": 60, "A29_007": 100, "A29_008": null }, "geometry": { "type": "Polygon", "coordinates": [ [ [ 130.034172743, 33.186290383 ], [ 130.030555999, 33.18471962 ], [ 130.03055355699999, 33.184477689 ], [ 130.030524128, 33.18437919 ], [ 130.030446509, 33.184305084 ], [ 130.029833806, 33.184234194 ], [ 130.02979751699999, 33.184227948 ], [ 130.029564472, 33.184187833 ], [ 130.029367028, 33.184171 ], [ 130.029297111, 33.18417325 ], [ 130.02920705599999, 33.184176611 ], [ 130.029161028, 33.184176611 ], [ 130.029090222, 33.184169333 ], [ 130.029029528, 33.184156972 ], [ 130.028957472, 33.184130611 ], [ 130.0289005, 33.184116417 ], [ 130.028757028, 33.184069917 ], [ 130.0287222, 33.184062421 ], [ 130.028702306000014, 33.184058139 ], [ 130.028690727999987, 33.184057665 ], [ 130.02866161099999, 33.184056472 ], [ 130.028624944, 33.184059833 ], [ 130.028561556, 33.18408225 ], [ 130.028515583, 33.184106667 ], [ 130.028474222, 33.184141444 ], [ 130.028439028, 33.184175917 ], [ 130.028402, 33.184204528 ], [ 130.028362582999989, 33.1842205 ], [ 130.02831755599999, 33.184230611 ], [ 130.02828052800001, 33.184226389 ], [ 130.028249499999987, 33.184212083 ], [ 130.028100722, 33.184105056 ], [ 130.02788386099999, 33.183938806 ], [ 130.02782745499999, 33.183895688 ], [ 130.027820475999988, 33.183890353 ], [ 130.02776385300001, 33.18393823 ], [ 130.027758302, 33.184029799 ], [ 130.027683005, 33.184065474 ], [ 130.027567143999988, 33.184280238 ], [ 130.027338844000013, 33.184194477 ], [ 130.02689271700001, 33.183897069 ], [ 130.026662929999986, 33.183740678 ], [ 130.026545356000014, 33.183699678 ], [ 130.026175775000013, 33.183664342 ], [ 130.025766471999987, 33.183731757 ], [ 130.025456459, 33.183851479 ], [ 130.02504809199999, 33.184039139 ], [ 130.02493572, 33.18414323 ], [ 130.02466332099999, 33.184555257 ], [ 130.024573792000012, 33.184646168 ], [ 130.02423987200001, 33.184874488 ], [ 130.024078731, 33.184873225 ], [ 130.023878244, 33.184940362 ], [ 130.023862785, 33.185106286 ], [ 130.023849008000013, 33.185529882 ], [ 130.023893114, 33.185850869 ], [ 130.024045242, 33.185846336 ], [ 130.024281902000013, 33.18599706 ], [ 130.02467163599999, 33.186134788 ], [ 130.02468294900001, 33.186189271 ], [ 130.024746967, 33.186249893 ], [ 130.025164546000013, 33.186512253 ], [ 130.025243536, 33.186604483 ], [ 130.02524606899999, 33.186683232 ], [ 130.025207795, 33.186757367 ], [ 130.02522381899999, 33.186847672 ], [ 130.02526041199999, 33.186925256 ], [ 130.025365, 33.187011961 ], [ 130.02534748299999, 33.187098568 ], [ 130.030492218, 33.18673637 ], [ 130.032165182, 33.186564655 ], [ 130.034172743, 33.186290383 ] ] ] } },
{ "type": "Feature", "properties": { "A29_001": "41206", "A29_002": "佐賀県", "A29_003": "武雄市", "A29_004": 4, "A29_005": "第二種中高層住居専用地域", "A29_006": 60, "A29_007": 200, "A29_008": null }, "geometry": { "type": "Polygon", "coordinates": [ [ [ 130.025496417999989, 33.18779316 ], [ 130.030457229, 33.187439885 ], [ 130.03253693, 33.187264494 ], [ 130.03310758, 33.187181133 ], [ 130.034467150000012, 33.186980789 ], [ 130.03569951, 33.186788987 ], [ 130.03607055, 33.186692614 ], [ 130.0364145, 33.186582671 ], [ 130.036996079, 33.186367412 ], [ 130.037174040999986, 33.185677123 ], [ 130.03678403699999, 33.18594083 ], [ 130.036436012, 33.186112294 ], [ 130.036205114000012, 33.186210707 ], [ 130.035994337, 33.186285418 ], [ 130.035766693, 33.186345683 ], [ 130.03466411299999, 33.186501752 ], [ 130.034172743, 33.186290383 ], [ 130.032165182, 33.186564655 ], [ 130.030492218, 33.18673637 ], [ 130.02534748299999, 33.187098568 ], [ 130.02422805, 33.187186197 ], [ 130.024122925, 33.187736474 ], [ 130.024262093, 33.187621619 ], [ 130.025388338999988, 33.187560422 ], [ 130.025462049, 33.187668356 ], [ 130.025496417999989, 33.18779316 ] ] ] } },
{ "type": "Feature", "properties": { "A29_001": "41206", "A29_002": "佐賀県", "A29_003": "武雄市", "A29_004": 10, "A29_005": "準工業地域", "A29_006": 60, "A29_007": 200, "A29_008": null }, "geometry": { "type": "Polygon", "coordinates": [ [ [ 130.00562807099999, 33.188076309 ], [ 130.002495825000011, 33.186755761 ], [ 130.002419210999989, 33.186901913 ], [ 130.002417162, 33.186905894 ], [ 130.002393861, 33.186951167 ], [ 130.00231258299999, 33.187098278 ], [ 130.002282111999989, 33.187167509 ], [ 130.005434793, 33.18850801 ], [ 130.00562807099999, 33.188076309 ] ] ] } },
{ "type": "Feature", "properties": { "A29_001": "41206", "A29_002": "佐賀県", "A29_003": "武雄市", "A29_004": 2, "A29_005": "第二種低層住居専用地域", "A29_006": 60, "A29_007": 100, "A29_008": null }, "geometry": { "type": "Polygon", "coordinates": [ [ [ 130.00950352800001, 33.188098667 ], [ 130.009547806, 33.188096778 ], [ 130.009592556, 33.188099417 ], [ 130.009621194, 33.188093389 ], [ 130.009644583000011, 33.188079583 ], [ 130.009650639, 33.188059833 ], [ 130.009648610999989, 33.188013 ], [ 130.009639889, 33.187862111 ], [ 130.009630499999986, 33.18782825 ], [ 130.009598278, 33.187770111 ], [ 130.009600417, 33.187746389 ], [ 130.009565278, 33.1877425 ], [ 130.009597861, 33.18755 ], [ 130.009376102, 33.18752742 ], [ 130.008823490999987, 33.187619403 ], [ 130.008713445000012, 33.187615664 ], [ 130.008630047999986, 33.187563469 ], [ 130.008423951, 33.187374071 ], [ 130.007999248, 33.187006956 ], [ 130.007894, 33.187088694 ], [ 130.007857583, 33.187063028 ], [ 130.00778672199999, 33.187001389 ], [ 130.007718888999989, 33.186908417 ], [ 130.007640694, 33.186831361 ], [ 130.007575944, 33.186773806 ], [ 130.00752094399999, 33.186740944 ], [ 130.007467193999986, 33.186716278 ], [ 130.007402417, 33.186704972 ], [ 130.00732788900001, 33.186707028 ], [ 130.007226472000013, 33.186714222 ], [ 130.00715438899999, 33.186713194 ], [ 130.007078, 33.186698306 ], [ 130.007010806000011, 33.186673639 ], [ 130.006925278000011, 33.186628444 ], [ 130.006824193999989, 33.186571278 ], [ 130.006754556, 33.186547639 ], [ 130.006697139000011, 33.186536333 ], [ 130.006604278, 33.186538389 ], [ 130.006488194000013, 33.186564083 ], [ 130.006406333, 33.186571278 ], [ 130.006339110999988, 33.186565111 ], [ 130.006251139, 33.186543528 ], [ 130.006172916999986, 33.186518083 ], [ 130.00579769399999, 33.186386111 ], [ 130.00577827, 33.186364399 ], [ 130.005706871, 33.18625504 ], [ 130.005503986, 33.186131271 ], [ 130.00542001, 33.1861306 ], [ 130.005243951000011, 33.186043308 ], [ 130.005094609, 33.186002034 ], [ 130.004931478, 33.185975919 ], [ 130.004858372, 33.185816923 ], [ 130.004869953, 33.185595621 ], [ 130.004787187, 33.185488079 ], [ 130.004669729, 33.185437517 ], [ 130.004551926, 33.18541749 ], [ 130.004360956, 33.185444591 ], [ 130.004147483999986, 33.185454335 ], [ 130.003989066, 33.185412987 ], [ 130.003684399, 33.185257863 ], [ 130.003549865999986, 33.185111735 ], [ 130.003482534, 33.185044396 ], [ 130.00334216600001, 33.185012735 ], [ 130.00308401699999, 33.184959137 ], [ 130.002968766, 33.184914316 ], [ 130.002776434999987, 33.184861244 ], [ 130.002663129000013, 33.184845068 ], [ 130.002478989999986, 33.184870313 ], [ 130.002301444000011, 33.184914695 ], [ 130.002099278, 33.184928343 ], [ 130.001929254, 33.184909803 ], [ 130.001635486, 33.184794842 ], [ 130.00145668799999, 33.18474951 ], [ 130.001250763, 33.184694418 ], [ 130.00107964, 33.184572805 ], [ 130.000811857, 33.184368348 ], [ 130.000697452999987, 33.184249098 ], [ 130.000660430000011, 33.184111384 ], [ 130.00052391, 33.184140825 ], [ 130.000485972, 33.184283663 ], [ 130.000453396000012, 33.184354018 ], [ 130.000314172, 33.184421609 ], [ 130.000188955999988, 33.184454958 ], [ 130.00002726, 33.184302882 ], [ 129.999932242, 33.184275398 ], [ 129.999836877, 33.184278449 ], [ 129.99964977499999, 33.18436474 ], [ 129.99957487899999, 33.184364138 ], [ 129.999502557, 33.184336837 ], [ 129.999380825, 33.184263333 ], [ 129.999223475, 33.184128468 ], [ 129.999126795, 33.184047531 ], [ 129.99902069, 33.183997055 ], [ 129.998821381999988, 33.183959189 ], [ 129.998871237, 33.184165715 ], [ 129.998884952999987, 33.184356683 ], [ 129.998826326, 33.184522257 ], [ 129.998638561, 33.184866198 ], [ 129.998623966, 33.184951966 ], [ 129.998668489000011, 33.185028667 ], [ 129.99874963, 33.185078942 ], [ 129.99887791, 33.185175403 ], [ 129.99917456599999, 33.185435445 ], [ 129.999073656, 33.185520523 ], [ 130.002419210999989, 33.186901913 ], [ 130.002495825000011, 33.186755761 ], [ 130.00562807099999, 33.188076309 ], [ 130.00673966299999, 33.188535607 ], [ 130.007546193, 33.188874131 ], [ 130.00796445, 33.189022517 ], [ 130.009060169, 33.189257397 ], [ 130.009053, 33.189187944 ], [ 130.009046332999986, 33.189102306 ], [ 130.008974389, 33.188860333 ], [ 130.008976749999988, 33.188843306 ], [ 130.008988722, 33.188821722 ], [ 130.009011332999989, 33.188797944 ], [ 130.009037721999988, 33.188779722 ], [ 130.009074, 33.188755944 ], [ 130.009092861, 33.188739694 ], [ 130.009145639, 33.188678667 ], [ 130.009174694, 33.18863575 ], [ 130.009196542000012, 33.188601828 ], [ 130.009220889, 33.188564028 ], [ 130.009279806, 33.188483194 ], [ 130.009302194000014, 33.188450111 ], [ 130.00934083300001, 33.188404944 ], [ 130.009354972000011, 33.188395028 ], [ 130.009423389, 33.188293611 ], [ 130.009453, 33.188227972 ], [ 130.009477298, 33.188178809 ], [ 130.00942896, 33.188155318 ], [ 130.009433722000011, 33.188147417 ], [ 130.009448944000013, 33.188125361 ], [ 130.009468610999988, 33.188107694 ], [ 130.00950352800001, 33.188098667 ] ] ] } },
{ "type": "Feature", "properties": { "A29_001": "41206", "A29_002": "佐賀県", "A29_003": "武雄市", "A29_004": 7, "A29_005": "準住居地域", "A29_006": 60, "A29_007": 200, "A29_008": null }, "geometry": { "type": "Polygon", "coordinates": [ [ [ 130.00673966299999, 33.188535607 ], [ 130.00562807099999, 33.188076309 ], [ 130.005434793, 33.18850801 ], [ 130.002282111999989, 33.187167509 ], [ 130.002260306000011, 33.187217056 ], [ 130.002124516, 33.187513231 ], [ 130.007652107000013, 33.189859635 ], [ 130.01012652599999, 33.190293895 ], [ 130.010289308000011, 33.189710933 ], [ 130.010371649, 33.18950403 ], [ 130.009060169, 33.189257397 ], [ 130.00796445, 33.189022517 ], [ 130.007546193, 33.188874131 ], [ 130.00673966299999, 33.188535607 ] ] ] } },
{ "type": "Feature", "properties": { "A29_001": "41206", "A29_002": "佐賀県", "A29_003": "武雄市", "A29_004": 3, "A29_005": "第一種中高層住居専用地域", "A29_006": 60, "A29_007": 200, "A29_008": null }, "geometry": { "type": "Polygon", "coordinates": [ [ [ 130.036178425, 33.189538821 ], [ 130.036996079, 33.186367412 ], [ 130.0364145, 33.186582671 ], [ 130.03607055, 33.186692614 ], [ 130.03569951, 33.186788987 ], [ 130.034467150000012, 33.186980789 ], [ 130.03310758, 33.187181133 ], [ 130.03253693, 33.187264494 ], [ 130.032536505, 33.187264529 ], [ 130.032486836, 33.187794927 ], [ 130.0324867, 33.188116998 ], [ 130.032636806999989, 33.188554752 ], [ 130.03275366, 33.18907527 ], [ 130.0327768, 33.189138433 ], [ 130.032808498, 33.189197368 ], [ 130.032890998, 33.189281032 ], [ 130.033285067, 33.189517417 ], [ 130.033260716, 33.189564465 ], [ 130.033268316, 33.189647547 ], [ 130.033300695, 33.18979953 ], [ 130.033358639999989, 33.189948849 ], [ 130.03345044299999, 33.190115608 ], [ 130.033526118999987, 33.190200651 ], [ 130.033637433, 33.190295989 ], [ 130.033735146, 33.190389791 ], [ 130.033843276, 33.190465065 ], [ 130.034066724000013, 33.190581314 ], [ 130.034521489000014, 33.19087256 ], [ 130.034575963, 33.190872982 ], [ 130.034684519, 33.19090961 ], [ 130.034775973, 33.190953262 ], [ 130.03481120399999, 33.191000773 ], [ 130.034873844, 33.19103275 ], [ 130.034941717, 33.191053316 ], [ 130.035039708, 33.19112366 ], [ 130.035749388, 33.190369546 ], [ 130.036149821, 33.189870692 ], [ 130.036178425, 33.189538821 ] ] ] } },
{ "type": "Feature", "properties": { "A29_001": "41206", "A29_002": "佐賀県", "A29_003": "武雄市", "A29_004": 6, "A29_005": "第二種住居地域", "A29_006": 60, "A29_007": 200, "A29_008": null }, "geometry": { "type": "Polygon", "coordinates": [ [ [ 130.02416459, 33.191052667 ], [ 130.024290377999989, 33.190967767 ], [ 130.024467292, 33.190980605 ], [ 130.024637735, 33.190962855 ], [ 130.02486759300001, 33.190909308 ], [ 130.025249777999989, 33.190780167 ], [ 130.025462218, 33.190713564 ], [ 130.025594665999989, 33.190642075 ], [ 130.025726, 33.190568669 ], [ 130.02591989199999, 33.190483108 ], [ 130.026099189, 33.190434411 ], [ 130.026322381999989, 33.190393214 ], [ 130.026189652, 33.190171063 ], [ 130.026072618, 33.190080445 ], [ 130.025918974, 33.190016259 ], [ 130.025683335999986, 33.189772026 ], [ 130.02565664, 33.189517977 ], [ 130.025541417, 33.189059017 ], [ 130.02561134699999, 33.188893518 ], [ 130.025603007, 33.188826653 ], [ 130.025661208, 33.188695417 ], [ 130.02563865, 33.188477663 ], [ 130.02555038, 33.188147146 ], [ 130.025590593, 33.188051555 ], [ 130.025496417999989, 33.18779316 ], [ 130.025462049, 33.187668356 ], [ 130.025388338999988, 33.187560422 ], [ 130.024262093, 33.187621619 ], [ 130.024122925, 33.187736474 ], [ 130.024091653999989, 33.187946649 ], [ 130.024099054, 33.188046908 ], [ 130.024110033, 33.188131448 ], [ 130.02420426899999, 33.188384119 ], [ 130.024240513, 33.188493192 ], [ 130.024252718000014, 33.188620685 ], [ 130.024254340999988, 33.188832549 ], [ 130.02415247499999, 33.191057172 ], [ 130.02416459, 33.191052667 ] ] ] } },
{ "type": "Feature", "properties": { "A29_001": "41206", "A29_002": "佐賀県", "A29_003": "武雄市", "A29_004": 5, "A29_005": "第一種住居地域", "A29_006": 60, "A29_007": 200, "A29_008": null }, "geometry": { "type": "Polygon", "coordinates": [ [ [ 130.019578763, 33.191555367 ], [ 130.021278556, 33.189500329 ], [ 130.020860226, 33.189228645 ], [ 130.020115599, 33.18921205 ], [ 130.02006146299999, 33.189487174 ], [ 130.019651399999987, 33.189619931 ], [ 130.01962724399999, 33.189113969 ], [ 130.01937888, 33.188995112 ], [ 130.01929991899999, 33.188951547 ], [ 130.019335799, 33.188787215 ], [ 130.019339221, 33.188734756 ], [ 130.019302790000012, 33.188693912 ], [ 130.019116923000013, 33.18856839 ], [ 130.019076095, 33.188412997 ], [ 130.01707515199999, 33.18872167 ], [ 130.01692280099999, 33.188644124 ], [ 130.016834824, 33.188645814 ], [ 130.016760632, 33.1886834 ], [ 130.016773352, 33.188814715 ], [ 130.01672731799999, 33.188871608 ], [ 130.016556052, 33.188963298 ], [ 130.016334596, 33.188975863 ], [ 130.016195364, 33.188993848 ], [ 130.016095532, 33.189040773 ], [ 130.01601794199999, 33.189128431 ], [ 130.015740740000012, 33.189305168 ], [ 130.015436126999987, 33.189395802 ], [ 130.015240231, 33.189406181 ], [ 130.015152814, 33.189357775 ], [ 130.014903307, 33.189341486 ], [ 130.014710142000013, 33.189361429 ], [ 130.01458223, 33.189381888 ], [ 130.014457397, 33.189380899 ], [ 130.01393945800001, 33.189264669 ], [ 130.013843691, 33.189201881 ], [ 130.01376679099999, 33.188974629 ], [ 130.013733575, 33.188900409 ], [ 130.013641073, 33.188799476 ], [ 130.01376507399999, 33.18862153 ], [ 130.013692381999988, 33.18847619 ], [ 130.013667583, 33.188460472 ], [ 130.013625778, 33.188409278 ], [ 130.01364569399999, 33.188194361 ], [ 130.013643417, 33.188132333 ], [ 130.013637528, 33.1881015 ], [ 130.01360747199999, 33.188012694 ], [ 130.013587667, 33.188003417 ], [ 130.013503638, 33.188013492 ], [ 130.01341567599999, 33.187898275 ], [ 130.013296759000013, 33.187875861 ], [ 130.013201769, 33.187743893 ], [ 130.013126344999989, 33.187638324 ], [ 130.013116442000012, 33.187509417 ], [ 130.013048379, 33.187506491 ], [ 130.013013451, 33.186699445 ], [ 130.01301829499999, 33.186520554 ], [ 130.01298996700001, 33.18642926 ], [ 130.012947636, 33.186369694 ], [ 130.012868641000011, 33.186329703 ], [ 130.012295763999987, 33.185548608 ], [ 130.012260610999988, 33.185471333 ], [ 130.01205408300001, 33.185361361 ], [ 130.011737208999989, 33.184912119 ], [ 130.011534469999987, 33.18502741 ], [ 130.01148859599999, 33.185069988 ], [ 130.011496491, 33.185124923 ], [ 130.01165276399999, 33.185357578 ], [ 130.011571881, 33.185485764 ], [ 130.011513638, 33.185871788 ], [ 130.01138567699999, 33.185897014 ], [ 130.011279234, 33.186027383 ], [ 130.011286270999989, 33.186158654 ], [ 130.011182316, 33.186320057 ], [ 130.01121892899999, 33.186344205 ], [ 130.01107375399999, 33.18663888 ], [ 130.011233933, 33.186706138 ], [ 130.011188303000012, 33.186797247 ], [ 130.011519005, 33.186909617 ], [ 130.01148421, 33.18697614 ], [ 130.011256937000013, 33.186941891 ], [ 130.010793091000011, 33.187123336 ], [ 130.010558763, 33.187271773 ], [ 130.010223346, 33.187326364 ], [ 130.010018514, 33.187374835 ], [ 130.009896171, 33.187404876 ], [ 130.009609574, 33.187407368 ], [ 130.009252722000014, 33.187349656 ], [ 130.009044972, 33.18740526 ], [ 130.00866443000001, 33.18743563 ], [ 130.008423951, 33.187374071 ], [ 130.008630047999986, 33.187563469 ], [ 130.008713445000012, 33.187615664 ], [ 130.008823490999987, 33.187619403 ], [ 130.009376102, 33.18752742 ], [ 130.009597861, 33.18755 ], [ 130.009565278, 33.1877425 ], [ 130.009600417, 33.187746389 ], [ 130.009598278, 33.187770111 ], [ 130.009630499999986, 33.18782825 ], [ 130.009639889, 33.187862111 ], [ 130.009648610999989, 33.188013 ], [ 130.009650639, 33.188059833 ], [ 130.009644583000011, 33.188079583 ], [ 130.009621194, 33.188093389 ], [ 130.009592556, 33.188099417 ], [ 130.009547806, 33.188096778 ], [ 130.00950352800001, 33.188098667 ], [ 130.009468610999988, 33.188107694 ], [ 130.009448944000013, 33.188125361 ], [ 130.009433722000011, 33.188147417 ], [ 130.00942896, 33.188155318 ], [ 130.009477298, 33.188178809 ], [ 130.009453, 33.188227972 ], [ 130.009423389, 33.188293611 ], [ 130.009354972000011, 33.188395028 ], [ 130.00934083300001, 33.188404944 ], [ 130.009302194000014, 33.188450111 ], [ 130.009279806, 33.188483194 ], [ 130.009220889, 33.188564028 ], [ 130.009196542000012, 33.188601828 ], [ 130.009174694, 33.18863575 ], [ 130.009145639, 33.188678667 ], [ 130.009092861, 33.188739694 ], [ 130.009074, 33.188755944 ], [ 130.009037721999988, 33.188779722 ], [ 130.009011332999989, 33.188797944 ], [ 130.008988722, 33.188821722 ], [ 130.008976749999988, 33.188843306 ], [ 130.008974389, 33.188860333 ], [ 130.009046332999986, 33.189102306 ], [ 130.009053, 33.189187944 ], [ 130.009060169, 33.189257397 ], [ 130.010371649, 33.18950403 ], [ 130.010642108000013, 33.188977466 ], [ 130.010678621000011, 33.188758271 ], [ 130.010730493000011, 33.188687112 ], [ 130.010748696, 33.188582285 ], [ 130.010906143999989, 33.188458286 ], [ 130.011180435, 33.188288694 ], [ 130.01139129500001, 33.187956369 ], [ 130.01166311899999, 33.188006242 ], [ 130.011900161999989, 33.188121445 ], [ 130.012039687, 33.188203667 ], [ 130.012497126999989, 33.18840054 ], [ 130.012810761, 33.188643985 ], [ 130.012966615000011, 33.188788364 ], [ 130.012958086999987, 33.18986485 ], [ 130.013614365, 33.189979795 ], [ 130.014148756999987, 33.190096635 ], [ 130.019578763, 33.191555367 ] ] ] } },
{ "type": "Feature", "properties": { "A29_001": "41206", "A29_002": "佐賀県", "A29_003": "武雄市", "A29_004": 3, "A29_005": "第一種中高層住居専用地域", "A29_006": 60, "A29_007": 200, "A29_008": null }, "geometry": { "type": "Polygon", "coordinates": [ [ [ 130.024091653999989, 33.187946649 ], [ 130.024122925, 33.187736474 ], [ 130.02422805, 33.187186197 ], [ 130.02534748299999, 33.187098568 ], [ 130.025365, 33.187011961 ], [ 130.02526041199999, 33.186925256 ], [ 130.02522381899999, 33.186847672 ], [ 130.025207795, 33.186757367 ], [ 130.02524606899999, 33.186683232 ], [ 130.025243536, 33.186604483 ], [ 130.025164546000013, 33.186512253 ], [ 130.024746967, 33.186249893 ], [ 130.02468294900001, 33.186189271 ], [ 130.02467163599999, 33.186134788 ], [ 130.024281902000013, 33.18599706 ], [ 130.024045242, 33.185846336 ], [ 130.023893114, 33.185850869 ], [ 130.02393075399999, 33.186038562 ], [ 130.023872434, 33.186078185 ], [ 130.023880104, 33.186154111 ], [ 130.023906482, 33.186231615 ], [ 130.023914072999986, 33.186314698 ], [ 130.023919215, 33.186465038 ], [ 130.023993878, 33.186640258 ], [ 130.023867437, 33.18668221 ], [ 130.02375482, 33.186705661 ], [ 130.02357217, 33.186596871 ], [ 130.023519369000013, 33.18659932 ], [ 130.023469893, 33.186608952 ], [ 130.02333398799999, 33.186736714 ], [ 130.022853860999987, 33.186588371 ], [ 130.02272121499999, 33.186575879 ], [ 130.022552058, 33.186631808 ], [ 130.02245291599999, 33.186668246 ], [ 130.022357559, 33.18667036 ], [ 130.022044523, 33.186498992 ], [ 130.021845156000012, 33.186669198 ], [ 130.02193029899999, 33.186820167 ], [ 130.021983483000014, 33.186936531 ], [ 130.021985774, 33.187036749 ], [ 130.021863435, 33.187015748 ], [ 130.021774998000012, 33.187007896 ], [ 130.02168263199999, 33.18704725 ], [ 130.021683682, 33.187105947 ], [ 130.021733587999989, 33.187210833 ], [ 130.02165301, 33.187261732 ], [ 130.02160317, 33.187355098 ], [ 130.02157201, 33.187376086 ], [ 130.02151263799999, 33.187357011 ], [ 130.021283168999986, 33.18747831 ], [ 130.021044057000012, 33.187701164 ], [ 130.020996665000013, 33.187676457 ], [ 130.020934651, 33.187741815 ], [ 130.020761865999987, 33.18766459 ], [ 130.020710591000011, 33.187682796 ], [ 130.020634129, 33.187975637 ], [ 130.02055556799999, 33.188151085 ], [ 130.02053184799999, 33.188322713 ], [ 130.0206787, 33.188406849 ], [ 130.020740909000011, 33.188477001 ], [ 130.020799718, 33.188546649 ], [ 130.020782165000014, 33.188594226 ], [ 130.0206144, 33.188881578 ], [ 130.020548856, 33.189221706 ], [ 130.020860226, 33.189228645 ], [ 130.021278556, 33.189500329 ], [ 130.019578763, 33.191555367 ], [ 130.020397010000011, 33.191676762 ], [ 130.020928628, 33.191713152 ], [ 130.022018276000011, 33.191707404 ], [ 130.023263578000012, 33.191646392 ], [ 130.023887221, 33.191155821 ], [ 130.02415247499999, 33.191057172 ], [ 130.024254340999988, 33.188832549 ], [ 130.024252718000014, 33.188620685 ], [ 130.024240513, 33.188493192 ], [ 130.02420426899999, 33.188384119 ], [ 130.024110033, 33.188131448 ], [ 130.024099054, 33.188046908 ], [ 130.024091653999989, 33.187946649 ] ] ] } },
{ "type": "Feature", "properties": { "A29_001": "41206", "A29_002": "佐賀県", "A29_003": "武雄市", "A29_004": 5, "A29_005": "第一種住居地域", "A29_006": 60, "A29_007": 200, "A29_008": null }, "geometry": { "type": "Polygon", "coordinates": [ [ [ 130.018860211, 33.192242354 ], [ 130.016688939, 33.191661594 ], [ 130.017302144000013, 33.192192368 ], [ 130.018533905, 33.19287796 ], [ 130.018667622, 33.192655354 ], [ 130.018860211, 33.192242354 ] ] ] } },
{ "type": "Feature", "properties": { "A29_001": "41206", "A29_002": "佐賀県", "A29_003": "武雄市", "A29_004": 8, "A29_005": "近隣商業地域", "A29_006": 80, "A29_007": 200, "A29_008": null }, "geometry": { "type": "Polygon", "coordinates": [ [ [ 130.01301544399999, 33.191154389 ], [ 130.010952487999987, 33.190587228 ], [ 130.011029457, 33.191060211 ], [ 130.011048312000014, 33.191149825 ], [ 130.011072904, 33.191242837 ], [ 130.011120282, 33.19131024 ], [ 130.011326859, 33.191486038 ], [ 130.011532366000012, 33.191630813 ], [ 130.011791781, 33.191776016 ], [ 130.014108693999987, 33.192880056 ], [ 130.014376360999989, 33.193001639 ], [ 130.01460172099999, 33.193114152 ], [ 130.01519567, 33.192242306 ], [ 130.013926615, 33.191554376 ], [ 130.01301544399999, 33.191154389 ] ] ] } },
{ "type": "Feature", "properties": { "A29_001": "41206", "A29_002": "佐賀県", "A29_003": "武雄市", "A29_004": 8, "A29_005": "近隣商業地域", "A29_006": 80, "A29_007": 200, "A29_008": null }, "geometry": { "type": "Polygon", "coordinates": [ [ [ 130.01989541099999, 33.193240582 ], [ 130.020240159, 33.193177689 ], [ 130.02057573799999, 33.193186533 ], [ 130.020793618, 33.193190156 ], [ 130.020979997000012, 33.19316872 ], [ 130.021307868, 33.193079687 ], [ 130.02146978799999, 33.193012251 ], [ 130.02175120199999, 33.192814063 ], [ 130.022112778, 33.192551613 ], [ 130.023263578000012, 33.191646392 ], [ 130.022018276000011, 33.191707404 ], [ 130.020928628, 33.191713152 ], [ 130.020397010000011, 33.191676762 ], [ 130.019578763, 33.191555367 ], [ 130.014148756999987, 33.190096635 ], [ 130.013614365, 33.189979795 ], [ 130.012958086999987, 33.18986485 ], [ 130.012966615000011, 33.188788364 ], [ 130.012810761, 33.188643985 ], [ 130.012497126999989, 33.18840054 ], [ 130.012039687, 33.188203667 ], [ 130.011900161999989, 33.188121445 ], [ 130.01166311899999, 33.188006242 ], [ 130.01139129500001, 33.187956369 ], [ 130.011180435, 33.188288694 ], [ 130.010906143999989, 33.188458286 ], [ 130.010748696, 33.188582285 ], [ 130.010730493000011, 33.188687112 ], [ 130.010678621000011, 33.188758271 ], [ 130.010642108000013, 33.188977466 ], [ 130.010371649, 33.18950403 ], [ 130.010289308000011, 33.189710933 ], [ 130.01012652599999, 33.190293895 ], [ 130.010144094999987, 33.190296978 ], [ 130.011487807, 33.190531914 ], [ 130.012741914, 33.190661153 ], [ 130.01333317000001, 33.190755306 ], [ 130.013945105, 33.190903298 ], [ 130.014489626, 33.191053735 ], [ 130.015005943, 33.191189037 ], [ 130.016299957, 33.191557128 ], [ 130.015974167, 33.191193713 ], [ 130.016232494, 33.191246452 ], [ 130.016688939, 33.191661594 ], [ 130.018860211, 33.192242354 ], [ 130.018667622, 33.192655354 ], [ 130.018533905, 33.19287796 ], [ 130.019306115, 33.193286637 ], [ 130.019461931, 33.193308739 ], [ 130.019689245, 33.193280709 ], [ 130.01989541099999, 33.193240582 ] ] ] } },
{ "type": "Feature", "properties": { "A29_001": "41206", "A29_002": "佐賀県", "A29_003": "武雄市", "A29_004": 2, "A29_005": "第二種低層住居専用地域", "A29_006": 60, "A29_007": 100, "A29_008": null }, "geometry": { "type": "Polygon", "coordinates": [ [ [ 130.032764214999986, 33.191420913 ], [ 130.03296635, 33.191411032 ], [ 130.033240635, 33.191445608 ], [ 130.033469505, 33.19148174 ], [ 130.033705121, 33.19152365 ], [ 130.033936282000013, 33.19155789 ], [ 130.034099601, 33.1915687 ], [ 130.03431999899999, 33.191549416 ], [ 130.034520242000013, 33.191505164 ], [ 130.034652412000014, 33.191458475 ], [ 130.034782626, 33.191383141 ], [ 130.034885666, 33.191301872 ], [ 130.035039708, 33.19112366 ], [ 130.034941717, 33.191053316 ], [ 130.034873844, 33.19103275 ], [ 130.03481120399999, 33.191000773 ], [ 130.034775973, 33.190953262 ], [ 130.034684519, 33.19090961 ], [ 130.034575963, 33.190872982 ], [ 130.034521489000014, 33.19087256 ], [ 130.034066724000013, 33.190581314 ], [ 130.033843276, 33.190465065 ], [ 130.033735146, 33.190389791 ], [ 130.033637433, 33.190295989 ], [ 130.033526118999987, 33.190200651 ], [ 130.03345044299999, 33.190115608 ], [ 130.033358639999989, 33.189948849 ], [ 130.033300695, 33.18979953 ], [ 130.033268316, 33.189647547 ], [ 130.033260716, 33.189564465 ], [ 130.033285067, 33.189517417 ], [ 130.032890998, 33.189281032 ], [ 130.032808498, 33.189197368 ], [ 130.0327768, 33.189138433 ], [ 130.03275366, 33.18907527 ], [ 130.032636806999989, 33.188554752 ], [ 130.0324867, 33.188116998 ], [ 130.032486836, 33.187794927 ], [ 130.032536505, 33.187264529 ], [ 130.030457229, 33.187439885 ], [ 130.025496417999989, 33.18779316 ], [ 130.025590593, 33.188051555 ], [ 130.02555038, 33.188147146 ], [ 130.02563865, 33.188477663 ], [ 130.025661208, 33.188695417 ], [ 130.025603007, 33.188826653 ], [ 130.02561134699999, 33.188893518 ], [ 130.025541417, 33.189059017 ], [ 130.02565664, 33.189517977 ], [ 130.025683335999986, 33.189772026 ], [ 130.025918974, 33.190016259 ], [ 130.026072618, 33.190080445 ], [ 130.026189652, 33.190171063 ], [ 130.026322381999989, 33.190393214 ], [ 130.02694241, 33.19038852 ], [ 130.027171113, 33.190490508 ], [ 130.027439116000011, 33.190630974 ], [ 130.027834973000012, 33.190884567 ], [ 130.027965107999989, 33.191037261 ], [ 130.028061043, 33.191225104 ], [ 130.02812413800001, 33.191421226 ], [ 130.02817026299999, 33.191612444 ], [ 130.028245735000013, 33.191715619 ], [ 130.028315361000011, 33.191780278 ], [ 130.0283935, 33.191854667 ], [ 130.028508528, 33.191931528 ], [ 130.028658944, 33.192000944 ], [ 130.028799028, 33.192053028 ], [ 130.028952389000011, 33.192124944 ], [ 130.02916105599999, 33.192234667 ], [ 130.029312917, 33.192336333 ], [ 130.029398444, 33.192410722 ], [ 130.029587944000014, 33.192589861 ], [ 130.029679361, 33.1926965 ], [ 130.02981430599999, 33.192871944 ], [ 130.02989391700001, 33.192990972 ], [ 130.030006722, 33.193146556 ], [ 130.030099639000014, 33.193277972 ], [ 130.03025077800001, 33.193475722 ], [ 130.03032452799999, 33.193551361 ], [ 130.03040475, 33.193621917 ], [ 130.030446893, 33.193649333 ], [ 130.030581802, 33.193759587 ], [ 130.032213947, 33.191712465 ], [ 130.032180110000013, 33.191693116 ], [ 130.03229237799999, 33.19159856 ], [ 130.032554787, 33.191474634 ], [ 130.032764214999986, 33.191420913 ] ] ] } },
{ "type": "Feature", "properties": { "A29_001": "41206", "A29_002": "佐賀県", "A29_003": "武雄市", "A29_004": 8, "A29_005": "近隣商業地域", "A29_006": 80, "A29_007": 200, "A29_008": null }, "geometry": { "type": "Polygon", "coordinates": [ [ [ 130.021162393, 33.193889399 ], [ 130.02169843499999, 33.193532729 ], [ 130.021331978, 33.193315134 ], [ 130.020799462000014, 33.193417203 ], [ 130.019955517999989, 33.193525075 ], [ 130.019685686, 33.193549193 ], [ 130.019529608999989, 33.193550349 ], [ 130.019407898999987, 33.193523147 ], [ 130.01921008799999, 33.193450017 ], [ 130.01749271599999, 33.192494115 ], [ 130.017202860999987, 33.193022333 ], [ 130.017289194, 33.193068556 ], [ 130.017475889, 33.193165667 ], [ 130.01757216199999, 33.193215497 ], [ 130.019032345, 33.194063441 ], [ 130.020271447999988, 33.1947165 ], [ 130.021162393, 33.193889399 ] ] ] } },
{ "type": "Feature", "properties": { "A29_001": "41206", "A29_002": "佐賀県", "A29_003": "武雄市", "A29_004": 5, "A29_005": "第一種住居地域", "A29_006": 60, "A29_007": 200, "A29_008": null }, "geometry": { "type": "Polygon", "coordinates": [ [ [ 130.03961006, 33.192989529 ], [ 130.040152299999988, 33.192600067 ], [ 130.040870977, 33.192891894 ], [ 130.04122927, 33.192977678 ], [ 130.041417136, 33.192767273 ], [ 130.041306096, 33.192020641 ], [ 130.041186791, 33.192032605 ], [ 130.04108896, 33.191948828 ], [ 130.04090484, 33.191815718 ], [ 130.040731920000013, 33.191748539 ], [ 130.040594249, 33.191727438 ], [ 130.040558167, 33.191716917 ], [ 130.040561094999987, 33.191682065 ], [ 130.040562389, 33.191666667 ], [ 130.040566028, 33.19162325 ], [ 130.040579309, 33.191501367 ], [ 130.040612028999988, 33.19120109 ], [ 130.04061678299999, 33.191157459 ], [ 130.04062108299999, 33.191118 ], [ 130.040626139000011, 33.191078611 ], [ 130.040638714000011, 33.19095986 ], [ 130.040664260999989, 33.190718622 ], [ 130.040683556, 33.190536417 ], [ 130.040682194, 33.190512167 ], [ 130.04067608299999, 33.190490722 ], [ 130.040665361, 33.190470417 ], [ 130.040649444, 33.190452861 ], [ 130.040629222, 33.190437056 ], [ 130.04059805599999, 33.190422333 ], [ 130.040513972000014, 33.190398667 ], [ 130.040498194, 33.190374667 ], [ 130.040478667, 33.19035225 ], [ 130.04044397199999, 33.190289194 ], [ 130.040402194, 33.190192167 ], [ 130.040388361, 33.190161639 ], [ 130.040364888999989, 33.190135028 ], [ 130.040335972, 33.190108861 ], [ 130.040286888999987, 33.190070222 ], [ 130.04025709699999, 33.190027441 ], [ 130.040232221999986, 33.189991722 ], [ 130.040120194, 33.189952333 ], [ 130.039954139, 33.1898365 ], [ 130.039907527999986, 33.189804 ], [ 130.039768282000011, 33.189716069 ], [ 130.039762278000012, 33.189712278 ], [ 130.039590444, 33.189647667 ], [ 130.039458083, 33.189611778 ], [ 130.03945138899999, 33.189610167 ], [ 130.039318278, 33.189578556 ], [ 130.039156666999986, 33.189519472 ], [ 130.039146417000012, 33.18951575 ], [ 130.039096277999988, 33.189504278 ], [ 130.039042556, 33.189492 ], [ 130.038836167, 33.189476667 ], [ 130.038266139, 33.189497556 ], [ 130.038122249999986, 33.189495278 ], [ 130.03808566699999, 33.189494722 ], [ 130.037995611000014, 33.189484917 ], [ 130.03795513899999, 33.189405528 ], [ 130.037901167, 33.189365806 ], [ 130.037944, 33.189265139 ], [ 130.03797, 33.18921775 ], [ 130.037988500000012, 33.189165111 ], [ 130.03800147199999, 33.18909425 ], [ 130.03801641699999, 33.188989528 ], [ 130.038023417, 33.188924111 ], [ 130.038024694, 33.188880472 ], [ 130.038022111, 33.188824167 ], [ 130.038004556, 33.188655972 ], [ 130.037996222, 33.188546639 ], [ 130.038000082999986, 33.188428778 ], [ 130.038005798, 33.188381806 ], [ 130.03800808299999, 33.188363028 ], [ 130.03803180599999, 33.188259306 ], [ 130.038059444, 33.188167778 ], [ 130.038072056, 33.188133972 ], [ 130.038109944000013, 33.187954361 ], [ 130.03814927799999, 33.187741167 ], [ 130.038181282000011, 33.187574468 ], [ 130.038187056, 33.187544389 ], [ 130.038225748, 33.187352874 ], [ 130.038229472000012, 33.187334444 ], [ 130.03825027799999, 33.187237056 ], [ 130.038251167, 33.187230194 ], [ 130.038261083, 33.187154056 ], [ 130.038265693999989, 33.187064056 ], [ 130.038265278000011, 33.186996472 ], [ 130.038264556, 33.186885417 ], [ 130.038270333000014, 33.18678525 ], [ 130.03827727800001, 33.1867055 ], [ 130.038281611, 33.186665694 ], [ 130.03828536099999, 33.186631278 ], [ 130.038305028, 33.186485694 ], [ 130.038318139000012, 33.186420861 ], [ 130.038321222, 33.186372889 ], [ 130.038325472, 33.186333 ], [ 130.038330083, 33.18627725 ], [ 130.038336332, 33.186233631 ], [ 130.03835105600001, 33.186130861 ], [ 130.038377639, 33.185998917 ], [ 130.03839075, 33.185932778 ], [ 130.038417361, 33.185840389 ], [ 130.038438944, 33.18576 ], [ 130.038438944, 33.185726278 ], [ 130.038432389, 33.185685111 ], [ 130.038420056, 33.185648139 ], [ 130.03840463899999, 33.185617028 ], [ 130.03836377799999, 33.185558667 ], [ 130.03833530599999, 33.18550675 ], [ 130.038327583000012, 33.185431833 ], [ 130.038321528000012, 33.185377528 ], [ 130.03832361100001, 33.185322972 ], [ 130.038357667000014, 33.185002917 ], [ 130.038276787, 33.184855416 ], [ 130.038170321, 33.184861751 ], [ 130.038028012000012, 33.185032423 ], [ 130.037174040999986, 33.185677123 ], [ 130.036178425, 33.189538821 ], [ 130.036149821, 33.189870692 ], [ 130.035749388, 33.190369546 ], [ 130.035039708, 33.19112366 ], [ 130.034885666, 33.191301872 ], [ 130.034782626, 33.191383141 ], [ 130.034652412000014, 33.191458475 ], [ 130.034520242000013, 33.191505164 ], [ 130.03431999899999, 33.191549416 ], [ 130.034099601, 33.1915687 ], [ 130.033936282000013, 33.19155789 ], [ 130.033705121, 33.19152365 ], [ 130.033469505, 33.19148174 ], [ 130.033240635, 33.191445608 ], [ 130.03296635, 33.191411032 ], [ 130.032764214999986, 33.191420913 ], [ 130.032554787, 33.191474634 ], [ 130.03229237799999, 33.19159856 ], [ 130.032180110000013, 33.191693116 ], [ 130.032213947, 33.191712465 ], [ 130.030581802, 33.193759587 ], [ 130.030820189999986, 33.19395441 ], [ 130.031306075, 33.193378463 ], [ 130.032452791, 33.194119798 ], [ 130.035281115, 33.19159619 ], [ 130.037210061, 33.192919011 ], [ 130.037223611, 33.192962861 ], [ 130.037267361, 33.193033722 ], [ 130.03730902800001, 33.193082111 ], [ 130.037403082999987, 33.193177417 ], [ 130.03751597199999, 33.193288278 ], [ 130.037626139, 33.193410361 ], [ 130.03763375, 33.193426694 ], [ 130.037327694, 33.1937085 ], [ 130.037071665000013, 33.193944236 ], [ 130.038448464999988, 33.194903451 ], [ 130.039344718, 33.194058192 ], [ 130.039341127, 33.193919316 ], [ 130.038950661, 33.193661506 ], [ 130.039131395, 33.19348111 ], [ 130.039437338999988, 33.193215794 ], [ 130.03961006, 33.192989529 ] ] ] } },
{ "type": "Feature", "properties": { "A29_001": "41206", "A29_002": "佐賀県", "A29_003": "武雄市", "A29_004": 5, "A29_005": "第一種住居地域", "A29_006": 60, "A29_007": 200, "A29_008": null }, "geometry": { "type": "Polygon", "coordinates": [ [ [ 130.010498563999988, 33.195782832 ], [ 130.010584830999989, 33.195600469 ], [ 130.010581306, 33.195595583 ], [ 130.01056480599999, 33.195564639 ], [ 130.010555055999987, 33.195537528 ], [ 130.010555055999987, 33.195501861 ], [ 130.010561806, 33.195458306 ], [ 130.010579371, 33.195398779 ], [ 130.010592306, 33.195354944 ], [ 130.010593056, 33.195334111 ], [ 130.01059611, 33.195309447 ], [ 130.010675635000013, 33.195302923 ], [ 130.01074523299999, 33.195169876 ], [ 130.01090439, 33.195147284 ], [ 130.011157473999987, 33.195099195 ], [ 130.011151563, 33.194867734 ], [ 130.011439364000012, 33.194760277 ], [ 130.01162004, 33.194842826 ], [ 130.011810381, 33.194822866 ], [ 130.012283516, 33.194635765 ], [ 130.012552844999988, 33.194656988 ], [ 130.012803158999986, 33.194670507 ], [ 130.012810758, 33.194582104 ], [ 130.01302217599999, 33.194555739 ], [ 130.013037085, 33.194491443 ], [ 130.013139308, 33.194485097 ], [ 130.013129351, 33.194360961 ], [ 130.01339736700001, 33.194246185 ], [ 130.013361097, 33.194191027 ], [ 130.01336746699999, 33.194129048 ], [ 130.0133907, 33.194081518 ], [ 130.01355887599999, 33.194013666 ], [ 130.01362924599999, 33.194064323 ], [ 130.014127, 33.193958524 ], [ 130.014125689999986, 33.194075414 ], [ 130.014244389, 33.194100556 ], [ 130.014436694000011, 33.194153583 ], [ 130.014629028, 33.19389175 ], [ 130.014778971999988, 33.193665167 ], [ 130.014776455, 33.193663883 ], [ 130.014324278, 33.193433333 ], [ 130.013878889000011, 33.193206278 ], [ 130.014108693999987, 33.192880056 ], [ 130.011791781, 33.191776016 ], [ 130.011532366000012, 33.191630813 ], [ 130.011326859, 33.191486038 ], [ 130.011120282, 33.19131024 ], [ 130.011072904, 33.191242837 ], [ 130.011048312000014, 33.191149825 ], [ 130.011029457, 33.191060211 ], [ 130.010952487999987, 33.190587228 ], [ 130.01301544399999, 33.191154389 ], [ 130.013926615, 33.191554376 ], [ 130.01519567, 33.192242306 ], [ 130.01636572000001, 33.192931133 ], [ 130.016456639000012, 33.192821389 ], [ 130.016529666999986, 33.192736778 ], [ 130.016635111, 33.192603556 ], [ 130.01666667, 33.192620218 ], [ 130.016690417, 33.19263275 ], [ 130.016712555999987, 33.192649278 ], [ 130.0169285, 33.192776222 ], [ 130.01698661099999, 33.192822917 ], [ 130.017102389, 33.192948139 ], [ 130.01714691699999, 33.192985583 ], [ 130.017202860999987, 33.193022333 ], [ 130.01749271599999, 33.192494115 ], [ 130.017151949, 33.192302293 ], [ 130.016299957, 33.191557128 ], [ 130.015005943, 33.191189037 ], [ 130.014489626, 33.191053735 ], [ 130.013945105, 33.190903298 ], [ 130.01333317000001, 33.190755306 ], [ 130.012741914, 33.190661153 ], [ 130.011487807, 33.190531914 ], [ 130.010144094999987, 33.190296978 ], [ 130.007652107000013, 33.189859635 ], [ 130.002124516, 33.187513231 ], [ 130.002260306000011, 33.187217056 ], [ 130.00231258299999, 33.187098278 ], [ 130.002393861, 33.186951167 ], [ 130.002417162, 33.186905894 ], [ 130.002419210999989, 33.186901913 ], [ 129.999073656, 33.185520523 ], [ 129.99888254699999, 33.185609644 ], [ 129.99866386799999, 33.18587747 ], [ 129.998708934, 33.185906461 ], [ 129.998699772, 33.185963645 ], [ 129.998567505000011, 33.186117652 ], [ 129.99845705199999, 33.186100063 ], [ 129.998445134, 33.186150067 ], [ 129.99850324499999, 33.186279363 ], [ 129.998406569, 33.186297671 ], [ 129.998381362, 33.18626884 ], [ 129.998256045, 33.186310774 ], [ 129.998092678, 33.186454988 ], [ 129.997990789999989, 33.186432696 ], [ 129.99774155099999, 33.186643018 ], [ 129.997891071, 33.186718179 ], [ 129.99797196, 33.186840501 ], [ 129.99818048899999, 33.186966237 ], [ 129.99841675, 33.186898952 ], [ 129.99891968, 33.187084312 ], [ 129.999054202999986, 33.187230922 ], [ 129.999607526, 33.187476328 ], [ 130.00034725, 33.187742944 ], [ 130.000363943999986, 33.187758667 ], [ 130.00055111099999, 33.187848833 ], [ 130.000785388999986, 33.187946528 ], [ 130.000915056, 33.188000056 ], [ 130.000985082999989, 33.188020111 ], [ 130.00103575, 33.188026472 ], [ 130.001070242999987, 33.188094046 ], [ 130.001103124, 33.188196895 ], [ 130.002776297, 33.188773339 ], [ 130.002810963, 33.188718746 ], [ 130.004281112, 33.189265344 ], [ 130.00426477100001, 33.189305293 ], [ 130.00558088, 33.189695143 ], [ 130.006472960999986, 33.18984541 ], [ 130.007130585, 33.189903143 ], [ 130.00750795499999, 33.192016554 ], [ 130.007618858, 33.192649175 ], [ 130.00784992199999, 33.193496513 ], [ 130.00778563599999, 33.193560892 ], [ 130.007630416000012, 33.193838306 ], [ 130.0074903, 33.193984148 ], [ 130.007345837, 33.194112779 ], [ 130.007255945, 33.194132818 ], [ 130.007251604, 33.194215806 ], [ 130.007125187000014, 33.194253923 ], [ 130.007228387, 33.19446278 ], [ 130.007352505999989, 33.194527707 ], [ 130.007712972, 33.194871261 ], [ 130.00789455899999, 33.194872709 ], [ 130.00798699399999, 33.194835515 ], [ 130.008020966, 33.194835545 ], [ 130.008083284, 33.194945784 ], [ 130.00823334099999, 33.194925032 ], [ 130.008249052, 33.194840226 ], [ 130.00830347199999, 33.194795331 ], [ 130.00855026, 33.194651291 ], [ 130.008666174000012, 33.1944876 ], [ 130.00866761099999, 33.194320222 ], [ 130.008854925, 33.194205681 ], [ 130.009215302, 33.194104056 ], [ 130.009431701000011, 33.19393687 ], [ 130.00960031599999, 33.193931055 ], [ 130.00966964599999, 33.193973118 ], [ 130.009745076, 33.194078213 ], [ 130.009788371000013, 33.194164443 ], [ 130.009772094, 33.194400499 ], [ 130.00989386, 33.194473039 ], [ 130.009800401, 33.194608281 ], [ 130.00970800499999, 33.194649057 ], [ 130.009674581000013, 33.194744697 ], [ 130.009609024000014, 33.19517408 ], [ 130.00970515899999, 33.195204428 ], [ 130.00970826, 33.195332327 ], [ 130.009813314000013, 33.19537706 ], [ 130.009778342, 33.19545885 ], [ 130.009610493999986, 33.195648372 ], [ 130.010012929999988, 33.195873242 ], [ 130.01001990099999, 33.195779503 ], [ 130.010136308, 33.195723172 ], [ 130.010247740000011, 33.195907281 ], [ 130.01036423299999, 33.195843316 ], [ 130.01043986900001, 33.195829483 ], [ 130.010498563999988, 33.195782832 ] ] ] } },
{ "type": "Feature", "properties": { "A29_001": "41206", "A29_002": "佐賀県", "A29_003": "武雄市", "A29_004": 5, "A29_005": "第一種住居地域", "A29_006": 60, "A29_007": 200, "A29_008": null }, "geometry": { "type": "Polygon", "coordinates": [ [ [ 130.02689283, 33.190728153 ], [ 130.026622156, 33.190700986 ], [ 130.026343887, 33.190719089 ], [ 130.026096445, 33.190772024 ], [ 130.025641392000011, 33.190996299 ], [ 130.02479598299999, 33.191238985 ], [ 130.024756575, 33.191248351 ], [ 130.024932869999986, 33.191528789 ], [ 130.025007181, 33.191582812 ], [ 130.025102003, 33.19162936 ], [ 130.025264856, 33.191682167 ], [ 130.025511310000013, 33.191769983 ], [ 130.025761839000012, 33.191899818 ], [ 130.025985279, 33.192016082 ], [ 130.02852955, 33.193656107 ], [ 130.033682261, 33.196952069 ], [ 130.034531539999989, 33.196126879 ], [ 130.033052621, 33.195142025 ], [ 130.032100194, 33.194793464 ], [ 130.03145554299999, 33.194583277 ], [ 130.03106023699999, 33.194406043 ], [ 130.03060569199999, 33.194197331 ], [ 130.030351754, 33.194066525 ], [ 130.03003353299999, 33.193846945 ], [ 130.02981814, 33.193566137 ], [ 130.02952246699999, 33.193103388 ], [ 130.029363111, 33.192887431 ], [ 130.029183343, 33.192721414 ], [ 130.02901755100001, 33.192574592 ], [ 130.028825829999988, 33.192463353 ], [ 130.028574658, 33.192339722 ], [ 130.02830336400001, 33.19223979 ], [ 130.028134236, 33.192138269 ], [ 130.027937791, 33.191941106 ], [ 130.027879422000012, 33.191830907 ], [ 130.027593252, 33.191279956 ], [ 130.027520513000013, 33.191186345 ], [ 130.027203364, 33.190871338 ], [ 130.02701713799999, 33.190776839 ], [ 130.02689283, 33.190728153 ] ] ] } },
{ "type": "Feature", "properties": { "A29_001": "41206", "A29_002": "佐賀県", "A29_003": "武雄市", "A29_004": 8, "A29_005": "近隣商業地域", "A29_006": 80, "A29_007": 200, "A29_008": null }, "geometry": { "type": "Polygon", "coordinates": [ [ [ 130.02691119799999, 33.19858423 ], [ 130.029292105, 33.195965739 ], [ 130.03245130799999, 33.19806674 ], [ 130.033682261, 33.196952069 ], [ 130.02852955, 33.193656107 ], [ 130.025985279, 33.192016082 ], [ 130.025761839000012, 33.191899818 ], [ 130.025511310000013, 33.191769983 ], [ 130.025264856, 33.191682167 ], [ 130.025102003, 33.19162936 ], [ 130.025007181, 33.191582812 ], [ 130.024932869999986, 33.191528789 ], [ 130.024756575, 33.191248351 ], [ 130.024246909, 33.191369475 ], [ 130.023847663, 33.191550045 ], [ 130.022983114, 33.192191908 ], [ 130.023352085999989, 33.192182875 ], [ 130.023763285, 33.192203994 ], [ 130.024283766999986, 33.192285611 ], [ 130.02404926599999, 33.192642227 ], [ 130.023842682, 33.192848164 ], [ 130.02367046099999, 33.193025742 ], [ 130.02345166399999, 33.193181483 ], [ 130.023258758999987, 33.193305219 ], [ 130.022860178, 33.193552591 ], [ 130.021803717000012, 33.194399571 ], [ 130.020954945, 33.195119109 ], [ 130.022527924, 33.19605379 ], [ 130.023234534000011, 33.195282788 ], [ 130.02345012, 33.195416887 ], [ 130.025742802, 33.192861859 ], [ 130.026487046, 33.19330069 ], [ 130.02419195499999, 33.195843545 ], [ 130.024404933999989, 33.195982632 ], [ 130.023904574, 33.196553583 ], [ 130.02395126799999, 33.196641743 ], [ 130.02393930400001, 33.196696998 ], [ 130.023897768000012, 33.196757747 ], [ 130.02691119799999, 33.19858423 ] ] ] } },
{ "type": "Feature", "properties": { "A29_001": "41206", "A29_002": "佐賀県", "A29_003": "武雄市", "A29_004": 9, "A29_005": "商業地域", "A29_006": 80, "A29_007": 400, "A29_008": null }, "geometry": { "type": "Polygon", "coordinates": [ [ [ 130.023112336, 33.198359286 ], [ 130.023673527999989, 33.197743583 ], [ 130.023803500000014, 33.197773278 ], [ 130.02384661100001, 33.197791083 ], [ 130.023998056000011, 33.197835528 ], [ 130.024069833, 33.197856611 ], [ 130.024150443999986, 33.197881111 ], [ 130.024173889, 33.197877278 ], [ 130.02419583299999, 33.197844833 ], [ 130.026367979000014, 33.199181627 ], [ 130.02691119799999, 33.19858423 ], [ 130.023897768000012, 33.196757747 ], [ 130.02393930400001, 33.196696998 ], [ 130.02395126799999, 33.196641743 ], [ 130.023904574, 33.196553583 ], [ 130.024404933999989, 33.195982632 ], [ 130.02419195499999, 33.195843545 ], [ 130.026487046, 33.19330069 ], [ 130.025742802, 33.192861859 ], [ 130.02345012, 33.195416887 ], [ 130.023234534000011, 33.195282788 ], [ 130.022527924, 33.19605379 ], [ 130.020954945, 33.195119109 ], [ 130.021803717000012, 33.194399571 ], [ 130.022860178, 33.193552591 ], [ 130.023258758999987, 33.193305219 ], [ 130.02345166399999, 33.193181483 ], [ 130.02367046099999, 33.193025742 ], [ 130.023842682, 33.192848164 ], [ 130.02404926599999, 33.192642227 ], [ 130.024283766999986, 33.192285611 ], [ 130.023763285, 33.192203994 ], [ 130.023352085999989, 33.192182875 ], [ 130.022983114, 33.192191908 ], [ 130.02198106899999, 33.192995182 ], [ 130.021331978, 33.193315134 ], [ 130.02169843499999, 33.193532729 ], [ 130.021162393, 33.193889399 ], [ 130.020271447999988, 33.1947165 ], [ 130.019032345, 33.194063441 ], [ 130.01757216199999, 33.193215497 ], [ 130.017475889, 33.193165667 ], [ 130.017289194, 33.193068556 ], [ 130.017202860999987, 33.193022333 ], [ 130.01714691699999, 33.192985583 ], [ 130.017102389, 33.192948139 ], [ 130.01698661099999, 33.192822917 ], [ 130.0169285, 33.192776222 ], [ 130.016712555999987, 33.192649278 ], [ 130.016690417, 33.19263275 ], [ 130.01666667, 33.192620218 ], [ 130.016635111, 33.192603556 ], [ 130.016529666999986, 33.192736778 ], [ 130.016456639000012, 33.192821389 ], [ 130.01636572000001, 33.192931133 ], [ 130.01519567, 33.192242306 ], [ 130.01460172099999, 33.193114152 ], [ 130.014376360999989, 33.193001639 ], [ 130.014108693999987, 33.192880056 ], [ 130.013878889000011, 33.193206278 ], [ 130.014324278, 33.193433333 ], [ 130.014776455, 33.193663883 ], [ 130.014778971999988, 33.193665167 ], [ 130.014629028, 33.19389175 ], [ 130.014436694000011, 33.194153583 ], [ 130.01460067799999, 33.194269963 ], [ 130.014603657, 33.194409312 ], [ 130.014479568000013, 33.194543838 ], [ 130.014434432, 33.194722886 ], [ 130.014551587, 33.194802065 ], [ 130.014622747, 33.19493432 ], [ 130.01465317899999, 33.195054801 ], [ 130.014647591999989, 33.195148277 ], [ 130.014471815, 33.195321357 ], [ 130.014261338000011, 33.195584189 ], [ 130.014224250000012, 33.195907194 ], [ 130.014134403000014, 33.195972532 ], [ 130.014018212, 33.196009783 ], [ 130.013960588, 33.196087578 ], [ 130.013883412000013, 33.196086967 ], [ 130.013737776, 33.196118258 ], [ 130.013603639, 33.196136281 ], [ 130.01356590899999, 33.196261948 ], [ 130.01351986899999, 33.19631884 ], [ 130.013399138000011, 33.196356054 ], [ 130.013165211, 33.196365651 ], [ 130.013152897999987, 33.196451439 ], [ 130.013189068, 33.196667394 ], [ 130.013172408, 33.196735971 ], [ 130.013345818, 33.196657186 ], [ 130.013420596, 33.19666923 ], [ 130.01370009499999, 33.196847034 ], [ 130.013777506, 33.196826653 ], [ 130.013872262, 33.196676627 ], [ 130.013992374, 33.196694755 ], [ 130.014078266000013, 33.196727881 ], [ 130.014095784, 33.196785277 ], [ 130.01410461, 33.197010559 ], [ 130.014010667, 33.197088066 ], [ 130.014108916999987, 33.197233895 ], [ 130.014428028999987, 33.197118091 ], [ 130.014491544, 33.197122412 ], [ 130.01469179099999, 33.197282408 ], [ 130.014823156, 33.197347385 ], [ 130.01504628699999, 33.197693887 ], [ 130.01505650199999, 33.197795361 ], [ 130.014897463000011, 33.197933666 ], [ 130.01497659, 33.197962921 ], [ 130.015075846, 33.197968478 ], [ 130.015183747, 33.197962174 ], [ 130.01526643299999, 33.197927043 ], [ 130.01537240499999, 33.19783961 ], [ 130.015362283, 33.197729787 ], [ 130.016463966, 33.197288792 ], [ 130.016691285, 33.197134324 ], [ 130.01695823099999, 33.197242597 ], [ 130.01701255399999, 33.197376374 ], [ 130.017036139, 33.197368028 ], [ 130.017177444, 33.197318028 ], [ 130.017276694, 33.197286194 ], [ 130.017308832999987, 33.197278528 ], [ 130.017340222, 33.197274917 ], [ 130.017374417000013, 33.197274139 ], [ 130.017402111, 33.197276972 ], [ 130.017424721999987, 33.197283083 ], [ 130.01746538899999, 33.197296889 ], [ 130.017735361, 33.197414056 ], [ 130.017768139, 33.197423361 ], [ 130.017817083000011, 33.197371722 ], [ 130.017889610999987, 33.1972865 ], [ 130.017957333, 33.197264778 ], [ 130.018075583000012, 33.197374528 ], [ 130.018148078, 33.197418244 ], [ 130.018311250000011, 33.197516639 ], [ 130.018526306000012, 33.197651528 ], [ 130.01871455599999, 33.197760694 ], [ 130.019171972, 33.19735375 ], [ 130.020365911, 33.195742609 ], [ 130.022232867000014, 33.196677699 ], [ 130.02232245499999, 33.196998033 ], [ 130.022469698, 33.19699978 ], [ 130.02237481099999, 33.197182677 ], [ 130.022419891999988, 33.19721166 ], [ 130.02235525, 33.197452167 ], [ 130.02269225, 33.197537972 ], [ 130.0227949, 33.197562069 ], [ 130.022135670000011, 33.198273933 ], [ 130.021933539, 33.198537159 ], [ 130.021677305, 33.198963433 ], [ 130.021680084, 33.198964338 ], [ 130.021735444, 33.198982361 ], [ 130.021833332999989, 33.19901775 ], [ 130.02194908300001, 33.199064778 ], [ 130.022125389, 33.199142 ], [ 130.022154833, 33.199150361 ], [ 130.022233933, 33.199195463 ], [ 130.02231175, 33.199239833 ], [ 130.022420444, 33.199314278 ], [ 130.022444412999988, 33.199334902 ], [ 130.022843488, 33.198651095 ], [ 130.023112336, 33.198359286 ] ] ] } },
{ "type": "Feature", "properties": { "A29_001": "41206", "A29_002": "佐賀県", "A29_003": "武雄市", "A29_004": 5, "A29_005": "第一種住居地域", "A29_006": 60, "A29_007": 200, "A29_008": null }, "geometry": { "type": "Polygon", "coordinates": [ [ [ 130.01892753300001, 33.202320022 ], [ 130.018943525999987, 33.202285555 ], [ 130.018976828, 33.202098539 ], [ 130.01906626600001, 33.201905819 ], [ 130.019088759999988, 33.201858465 ], [ 130.019078514, 33.201759377 ], [ 130.019059822, 33.201654258 ], [ 130.019068051, 33.201425295 ], [ 130.019082531, 33.201399166 ], [ 130.019121144, 33.201372035 ], [ 130.019176834, 33.201340267 ], [ 130.019393482999988, 33.20125251 ], [ 130.019415084, 33.201224051 ], [ 130.01944383899999, 33.200935607 ], [ 130.019567432, 33.200629301 ], [ 130.020167203, 33.200742813 ], [ 130.020496579, 33.200826997 ], [ 130.020729503000013, 33.200857459 ], [ 130.020859115, 33.200876849 ], [ 130.021476839, 33.200040027 ], [ 130.022025113000012, 33.199098079 ], [ 130.02194908300001, 33.199064778 ], [ 130.021833332999989, 33.19901775 ], [ 130.021735444, 33.198982361 ], [ 130.021680084, 33.198964338 ], [ 130.021677305, 33.198963433 ], [ 130.021933539, 33.198537159 ], [ 130.022135670000011, 33.198273933 ], [ 130.0227949, 33.197562069 ], [ 130.02269225, 33.197537972 ], [ 130.02235525, 33.197452167 ], [ 130.022419891999988, 33.19721166 ], [ 130.02237481099999, 33.197182677 ], [ 130.022469698, 33.19699978 ], [ 130.02232245499999, 33.196998033 ], [ 130.022232867000014, 33.196677699 ], [ 130.020365911, 33.195742609 ], [ 130.019171972, 33.19735375 ], [ 130.01871455599999, 33.197760694 ], [ 130.018526306000012, 33.197651528 ], [ 130.018311250000011, 33.197516639 ], [ 130.018148078, 33.197418244 ], [ 130.018075583000012, 33.197374528 ], [ 130.017957333, 33.197264778 ], [ 130.017889610999987, 33.1972865 ], [ 130.017817083000011, 33.197371722 ], [ 130.017768139, 33.197423361 ], [ 130.017735361, 33.197414056 ], [ 130.01746538899999, 33.197296889 ], [ 130.017424721999987, 33.197283083 ], [ 130.017402111, 33.197276972 ], [ 130.017374417000013, 33.197274139 ], [ 130.017340222, 33.197274917 ], [ 130.017308832999987, 33.197278528 ], [ 130.017276694, 33.197286194 ], [ 130.017177444, 33.197318028 ], [ 130.017036139, 33.197368028 ], [ 130.01701255399999, 33.197376374 ], [ 130.01695823099999, 33.197242597 ], [ 130.016691285, 33.197134324 ], [ 130.016463966, 33.197288792 ], [ 130.015362283, 33.197729787 ], [ 130.01537240499999, 33.19783961 ], [ 130.01526643299999, 33.197927043 ], [ 130.015183747, 33.197962174 ], [ 130.015075846, 33.197968478 ], [ 130.01497659, 33.197962921 ], [ 130.014897463000011, 33.197933666 ], [ 130.014749077, 33.197994917 ], [ 130.01463335299999, 33.197990184 ], [ 130.014628536, 33.198014957 ], [ 130.014595175000011, 33.198155927 ], [ 130.01453451, 33.198302407 ], [ 130.014659746, 33.198471353 ], [ 130.014665764, 33.198542017 ], [ 130.01467366899999, 33.198647051 ], [ 130.01475072299999, 33.198861421 ], [ 130.01491934, 33.198805499 ], [ 130.015017930999988, 33.198718485 ], [ 130.015066711, 33.198619625 ], [ 130.015298629, 33.198587106 ], [ 130.015405273999988, 33.198591767 ], [ 130.015427375, 33.198645382 ], [ 130.015415711, 33.198876227 ], [ 130.015479959, 33.199017969 ], [ 130.015607531, 33.199181207 ], [ 130.015758053000013, 33.199119414 ], [ 130.015948637, 33.198926247 ], [ 130.015984892, 33.19893226 ], [ 130.016005087, 33.198953414 ], [ 130.015933181, 33.199090262 ], [ 130.01578646199999, 33.199522347 ], [ 130.016023139999987, 33.199571933 ], [ 130.016166254000012, 33.199563522 ], [ 130.016174736000011, 33.199617029 ], [ 130.016250183000011, 33.199671065 ], [ 130.016456067, 33.199733766 ], [ 130.016475953, 33.199782592 ], [ 130.01658299499999, 33.199904155 ], [ 130.016587109999989, 33.199992936 ], [ 130.016641142, 33.200033443 ], [ 130.016762018, 33.200034398 ], [ 130.016708329000011, 33.200115565 ], [ 130.016797937, 33.200172099 ], [ 130.016794264, 33.200653029 ], [ 130.01674975899999, 33.200674149 ], [ 130.016608846, 33.20068559 ], [ 130.016613245, 33.20085343 ], [ 130.016572193, 33.200870283 ], [ 130.016421925, 33.200909175 ], [ 130.016417047, 33.201040828 ], [ 130.016511667, 33.20110599 ], [ 130.016776362, 33.201188242 ], [ 130.016993645000014, 33.201238401 ], [ 130.01701975, 33.201336222 ], [ 130.01702475, 33.201392139 ], [ 130.017022860999987, 33.201505972 ], [ 130.017027861, 33.201581417 ], [ 130.01701725, 33.201630194 ], [ 130.017003194000011, 33.201675389 ], [ 130.016935417000013, 33.20171125 ], [ 130.01689686099999, 33.201731167 ], [ 130.01686736100001, 33.201823417 ], [ 130.016858944, 33.201889806 ], [ 130.016858944, 33.2019615 ], [ 130.016868361, 33.201999167 ], [ 130.016869444, 33.202018 ], [ 130.016889972, 33.20205375 ], [ 130.016908167, 33.20207525 ], [ 130.016935778, 33.202096639 ], [ 130.01695102799999, 33.20210125 ], [ 130.016987527999987, 33.202100833 ], [ 130.017025667000013, 33.202096528 ], [ 130.017048, 33.202105528 ], [ 130.017085194, 33.202111389 ], [ 130.017155417, 33.202125472 ], [ 130.017186111, 33.202138361 ], [ 130.017204443999987, 33.2021495 ], [ 130.017214472, 33.202155556 ], [ 130.017233083, 33.202172 ], [ 130.017273917000011, 33.202206361 ], [ 130.01733063899999, 33.20224075 ], [ 130.017367833, 33.202256 ], [ 130.017461556, 33.202287111 ], [ 130.017534111, 33.202299722 ], [ 130.017572527999988, 33.202302333 ], [ 130.017597333, 33.202308583 ], [ 130.01761534, 33.202306407 ], [ 130.017686606000012, 33.202621131 ], [ 130.017955558000011, 33.202627548 ], [ 130.018095778, 33.202814056 ], [ 130.018163111, 33.202913861 ], [ 130.018209944, 33.203169028 ], [ 130.018218278, 33.203201417 ], [ 130.018219611, 33.203247167 ], [ 130.018212806, 33.203450556 ], [ 130.018393820999989, 33.203482705 ], [ 130.018403076999988, 33.202824333 ], [ 130.01840520799999, 33.202716703 ], [ 130.018447191, 33.202641884 ], [ 130.018507750999987, 33.202555283 ], [ 130.018582702, 33.202480082 ], [ 130.018626788, 33.202441708 ], [ 130.018877464000013, 33.202356606 ], [ 130.01892753300001, 33.202320022 ] ] ] } },
{ "type": "Feature", "properties": { "A29_001": "41206", "A29_002": "佐賀県", "A29_003": "武雄市", "A29_004": 2, "A29_005": "第二種低層住居専用地域", "A29_006": 60, "A29_007": 100, "A29_008": null }, "geometry": { "type": "Polygon", "coordinates": [ [ [ 130.022240555, 33.202360514 ], [ 130.023780689, 33.200499906 ], [ 130.02342080599999, 33.200185611 ], [ 130.023412611, 33.2001785 ], [ 130.023302556, 33.200082972 ], [ 130.023206972, 33.2 ], [ 130.023206778, 33.199999833 ], [ 130.023037132000013, 33.199851945 ], [ 130.022980444000012, 33.199802528 ], [ 130.022950111, 33.199780639 ], [ 130.022933, 33.199762 ], [ 130.02271180599999, 33.199573194 ], [ 130.022533917, 33.199411917 ], [ 130.022444412999988, 33.199334902 ], [ 130.022420444, 33.199314278 ], [ 130.02231175, 33.199239833 ], [ 130.022233933, 33.199195463 ], [ 130.022154833, 33.199150361 ], [ 130.022125389, 33.199142 ], [ 130.022025113000012, 33.199098079 ], [ 130.021476839, 33.200040027 ], [ 130.020859115, 33.200876849 ], [ 130.020729503000013, 33.200857459 ], [ 130.020496579, 33.200826997 ], [ 130.020167203, 33.200742813 ], [ 130.019567432, 33.200629301 ], [ 130.01944383899999, 33.200935607 ], [ 130.019415084, 33.201224051 ], [ 130.019393482999988, 33.20125251 ], [ 130.019176834, 33.201340267 ], [ 130.019121144, 33.201372035 ], [ 130.019082531, 33.201399166 ], [ 130.019068051, 33.201425295 ], [ 130.019059822, 33.201654258 ], [ 130.019078514, 33.201759377 ], [ 130.019088759999988, 33.201858465 ], [ 130.01906626600001, 33.201905819 ], [ 130.018976828, 33.202098539 ], [ 130.018943525999987, 33.202285555 ], [ 130.01892753300001, 33.202320022 ], [ 130.018877464000013, 33.202356606 ], [ 130.018626788, 33.202441708 ], [ 130.018582702, 33.202480082 ], [ 130.018507750999987, 33.202555283 ], [ 130.018447191, 33.202641884 ], [ 130.01840520799999, 33.202716703 ], [ 130.018403076999988, 33.202824333 ], [ 130.018393820999989, 33.203482705 ], [ 130.01837654799999, 33.203911519 ], [ 130.01753863799999, 33.20413543 ], [ 130.019099592, 33.20463252 ], [ 130.01931009399999, 33.204689528 ], [ 130.01947551399999, 33.204717551 ], [ 130.019632236, 33.204711152 ], [ 130.019764071999987, 33.204696922 ], [ 130.01984840599999, 33.204667049 ], [ 130.019937492999986, 33.204618128 ], [ 130.02006112, 33.204525582 ], [ 130.020139984, 33.204451768 ], [ 130.022240555, 33.202360514 ] ] ] } },
{ "type": "Feature", "properties": { "A29_001": "41206", "A29_002": "佐賀県", "A29_003": "武雄市", "A29_004": 10, "A29_005": "準工業地域", "A29_006": 60, "A29_007": 200, "A29_008": null }, "geometry": { "type": "Polygon", "coordinates": [ [ [ 130.040123693999988, 33.206936029 ], [ 130.039009486999987, 33.206217227 ], [ 130.038965999, 33.206249337 ], [ 130.037858661, 33.20557278 ], [ 130.03786838900001, 33.205513689 ], [ 130.02950683200001, 33.200390528 ], [ 130.02937334500001, 33.200310758 ], [ 130.02932153, 33.200994577 ], [ 130.029352499999987, 33.201273948 ], [ 130.029444809000012, 33.201549502 ], [ 130.029549304, 33.201800817 ], [ 130.029674766999989, 33.202003627 ], [ 130.02985813399999, 33.20221822 ], [ 130.030068682, 33.202425629 ], [ 130.030325768000012, 33.202594632 ], [ 130.030639476, 33.202776005 ], [ 130.030939917000012, 33.202873774 ], [ 130.03123503099999, 33.202965774 ], [ 130.031404865000013, 33.203005268 ], [ 130.03176105599999, 33.203027125 ], [ 130.03269338199999, 33.20309545 ], [ 130.039607598, 33.207307067 ], [ 130.040123693999988, 33.206936029 ] ] ] } },
{ "type": "Feature", "properties": { "A29_001": "41206", "A29_002": "佐賀県", "A29_003": "武雄市", "A29_004": 2, "A29_005": "第二種低層住居専用地域", "A29_006": 60, "A29_007": 100, "A29_008": null }, "geometry": { "type": "Polygon", "coordinates": [ [ [ 130.015388495, 33.20704631 ], [ 130.015544147000014, 33.206933028 ], [ 130.01568032, 33.20714023 ], [ 130.015809655, 33.207146979 ], [ 130.015837672, 33.2072808 ], [ 130.016153823, 33.20722986 ], [ 130.016196693000012, 33.207050794 ], [ 130.016412978, 33.206997155 ], [ 130.016436469000013, 33.206926724 ], [ 130.017161673, 33.206840843 ], [ 130.01713556199999, 33.206739482 ], [ 130.017249580999987, 33.206694577 ], [ 130.017362268999989, 33.206565685 ], [ 130.01754201599999, 33.206530841 ], [ 130.017757488, 33.206549719 ], [ 130.017820156999989, 33.206630374 ], [ 130.017856789, 33.206806251 ], [ 130.018208493, 33.206824295 ], [ 130.01855925000001, 33.206805806 ], [ 130.01897222299999, 33.206744433 ], [ 130.019220975, 33.207036496 ], [ 130.019418480000013, 33.207038052 ], [ 130.019450666000012, 33.207002043 ], [ 130.01959829099999, 33.206997481 ], [ 130.019617382, 33.207117871 ], [ 130.019698936999987, 33.207133782 ], [ 130.019824179000011, 33.207100414 ], [ 130.019871384999988, 33.207142775 ], [ 130.020081559, 33.207026099 ], [ 130.020040467, 33.206842553 ], [ 130.02005941499999, 33.206772085 ], [ 130.020305388999986, 33.206586806 ], [ 130.02032016699999, 33.206568361 ], [ 130.020358167000012, 33.206528722 ], [ 130.020421528000014, 33.206474 ], [ 130.020427833000014, 33.206491611 ], [ 130.020445110999987, 33.206523167 ], [ 130.02046297199999, 33.206550778 ], [ 130.020496528, 33.206580944 ], [ 130.020602389, 33.206730639 ], [ 130.020610833, 33.206752861 ], [ 130.020613083, 33.206772278 ], [ 130.02061111099999, 33.206833583 ], [ 130.020612417, 33.206889944 ], [ 130.020616194000013, 33.206927222 ], [ 130.020617660999989, 33.206941075 ], [ 130.020617681, 33.206941261 ], [ 130.020878237, 33.20704573 ], [ 130.020938277999988, 33.207158808 ], [ 130.021489312999989, 33.207218491 ], [ 130.02157806400001, 33.207041296 ], [ 130.021583179, 33.206740178 ], [ 130.02149373200001, 33.206617326 ], [ 130.021443366, 33.206450885 ], [ 130.021350524000013, 33.20642916 ], [ 130.021373418, 33.206207946 ], [ 130.02143244199999, 33.20620841 ], [ 130.021480582, 33.206061496 ], [ 130.021469343, 33.206054703 ], [ 130.021172694, 33.205978694 ], [ 130.021103194, 33.205754639 ], [ 130.021089111, 33.205725333 ], [ 130.02106863899999, 33.205690889 ], [ 130.020967500000012, 33.205567556 ], [ 130.020906528000012, 33.205470472 ], [ 130.02085463899999, 33.205373 ], [ 130.020698167, 33.205028944 ], [ 130.02069372, 33.204991917 ], [ 130.020554185, 33.205100364 ], [ 130.020359789999986, 33.205227662 ], [ 130.020174386, 33.205312088 ], [ 130.020026244, 33.205363407 ], [ 130.019863939, 33.205412229 ], [ 130.019696305, 33.205429994 ], [ 130.019497669, 33.205428429 ], [ 130.019279356, 33.205410009 ], [ 130.019095361000012, 33.205368002 ], [ 130.016478282, 33.204527854 ], [ 130.01631773299999, 33.204653158 ], [ 130.016147674, 33.204836945 ], [ 130.016027323, 33.205042119 ], [ 130.015914102000011, 33.20521872 ], [ 130.015736675999989, 33.205452071 ], [ 130.01563341, 33.2055505 ], [ 130.015481263, 33.205654983 ], [ 130.01526278, 33.205778504 ], [ 130.015001450999989, 33.205926735 ], [ 130.014816217, 33.20612209 ], [ 130.014718389, 33.206293972 ], [ 130.01412104799999, 33.20790849 ], [ 130.014327143, 33.20795402 ], [ 130.01439091899999, 33.207733131 ], [ 130.014457416999988, 33.207674493 ], [ 130.014600487, 33.207613295 ], [ 130.014962098000012, 33.207413198 ], [ 130.015076568000012, 33.207328218 ], [ 130.015388495, 33.20704631 ] ] ] } },
{ "type": "Feature", "properties": { "A29_001": "41206", "A29_002": "佐賀県", "A29_003": "武雄市", "A29_004": 1, "A29_005": "第一種低層住居専用地域", "A29_006": 50, "A29_007": 80, "A29_008": null }, "geometry": { "type": "Polygon", "coordinates": [ [ [ 130.031764745, 33.208251522 ], [ 130.032271635, 33.207836772 ], [ 130.027435529, 33.204774104 ], [ 130.024895625999989, 33.202763454 ], [ 130.024986313999989, 33.20362382 ], [ 130.025089224, 33.204068369 ], [ 130.025190514, 33.204403162 ], [ 130.025228469000012, 33.204563302 ], [ 130.025260723, 33.204725784 ], [ 130.025262609, 33.204811684 ], [ 130.025257656, 33.205002502 ], [ 130.025247927, 33.205112169 ], [ 130.02526623, 33.205253069 ], [ 130.025285036000014, 33.205348645 ], [ 130.025328932, 33.205484974 ], [ 130.025384495, 33.205592767 ], [ 130.02549381599999, 33.205715294 ], [ 130.025679622000013, 33.205850349 ], [ 130.025879696, 33.205978358 ], [ 130.026252711000012, 33.206122035 ], [ 130.026577513, 33.206262947 ], [ 130.026732396999989, 33.206371516 ], [ 130.02688129, 33.206508666 ], [ 130.026992845, 33.206686081 ], [ 130.02708201499999, 33.206834692 ], [ 130.027313627000012, 33.207447245 ], [ 130.027382222, 33.20766011 ], [ 130.027869895, 33.20821502 ], [ 130.02804647799999, 33.207901485 ], [ 130.02812315, 33.207897313 ], [ 130.02832201199999, 33.207622123 ], [ 130.02895132899999, 33.207686678 ], [ 130.029126689, 33.207740532 ], [ 130.029220071, 33.207765118 ], [ 130.029293958000011, 33.207756152 ], [ 130.02937089299999, 33.207728123 ], [ 130.02943400699999, 33.207666587 ], [ 130.029427489, 33.207742879 ], [ 130.029448585000011, 33.207888572 ], [ 130.029645858, 33.208014168 ], [ 130.029711600000013, 33.207971737 ], [ 130.029797048, 33.207943775 ], [ 130.029885544, 33.207896751 ], [ 130.029945005, 33.207909143 ], [ 130.03001534399999, 33.207964563 ], [ 130.030310809000014, 33.20806468 ], [ 130.03066351699999, 33.208121106 ], [ 130.030826182, 33.208222673 ], [ 130.031316341, 33.207993954 ], [ 130.031764745, 33.208251522 ] ] ] } },
{ "type": "Feature", "properties": { "A29_001": "41206", "A29_002": "佐賀県", "A29_003": "武雄市", "A29_004": 2, "A29_005": "第二種低層住居専用地域", "A29_006": 60, "A29_007": 100, "A29_008": null }, "geometry": { "type": "Polygon", "coordinates": [ [ [ 130.03342889000001, 33.20837289 ], [ 130.033540297, 33.208358487 ], [ 130.033653724, 33.208367002 ], [ 130.033868156000011, 33.208481273 ], [ 130.033927287000012, 33.208472189 ], [ 130.033973046999989, 33.208440099 ], [ 130.033984839, 33.20840011 ], [ 130.033872796, 33.208265641 ], [ 130.033828336, 33.20817941 ], [ 130.033825052999987, 33.20806487 ], [ 130.033848594, 33.20798871 ], [ 130.033876738, 33.20790686 ], [ 130.033950349, 33.207819637 ], [ 130.03411177800001, 33.207591862 ], [ 130.034153542000013, 33.207510117 ], [ 130.034179739, 33.207450439 ], [ 130.03418873699999, 33.207406373 ], [ 130.034193649, 33.207346768 ], [ 130.034180561, 33.207246467 ], [ 130.034007057, 33.206506742 ], [ 130.033993419000012, 33.206456536 ], [ 130.033958641999988, 33.206393044 ], [ 130.033906800000011, 33.206332999 ], [ 130.03381990599999, 33.20623451 ], [ 130.032745876, 33.205170138 ], [ 130.031712139, 33.204335448 ], [ 130.03164190699999, 33.204141659 ], [ 130.031562572000013, 33.204001477 ], [ 130.03143594299999, 33.20390387 ], [ 130.031266749999986, 33.203805932 ], [ 130.031092986, 33.203736586 ], [ 130.03093593299999, 33.203695999 ], [ 130.030723625, 33.203647824 ], [ 130.030164187, 33.203425173 ], [ 130.02791559, 33.202362686 ], [ 130.02779322399999, 33.202265108 ], [ 130.027686832, 33.201877791 ], [ 130.025722317, 33.201690656 ], [ 130.02545591399999, 33.201531113 ], [ 130.02533307600001, 33.201476472 ], [ 130.0247416, 33.201302154 ], [ 130.024895625999989, 33.202763454 ], [ 130.027435529, 33.204774104 ], [ 130.032271635, 33.207836772 ], [ 130.031764745, 33.208251522 ], [ 130.031912912, 33.208326751 ], [ 130.03205470099999, 33.208336801 ], [ 130.032239319000013, 33.208323326 ], [ 130.032364652000012, 33.208216943 ], [ 130.032416332999986, 33.208162713 ], [ 130.03247109099999, 33.208138327 ], [ 130.032520971999986, 33.20814444 ], [ 130.032577328, 33.208181141 ], [ 130.032682789, 33.208294567 ], [ 130.03284265100001, 33.20841605 ], [ 130.032992065, 33.208455382 ], [ 130.033175575, 33.208491162 ], [ 130.033262157, 33.208463207 ], [ 130.033337641, 33.208412261 ], [ 130.03342889000001, 33.20837289 ] ] ] } },
{ "type": "Feature", "properties": { "A29_001": "41206", "A29_002": "佐賀県", "A29_003": "武雄市", "A29_004": 4, "A29_005": "第二種中高層住居専用地域", "A29_006": 60, "A29_007": 200, "A29_008": null }, "geometry": { "type": "Polygon", "coordinates": [ [ [ 130.024986313999989, 33.20362382 ], [ 130.0247416, 33.201302154 ], [ 130.02454241699999, 33.201217806 ], [ 130.024265036, 33.200851932 ], [ 130.023780689, 33.200499906 ], [ 130.022240555, 33.202360514 ], [ 130.020139984, 33.204451768 ], [ 130.02006112, 33.204525582 ], [ 130.019937492999986, 33.204618128 ], [ 130.01984840599999, 33.204667049 ], [ 130.019764071999987, 33.204696922 ], [ 130.019632236, 33.204711152 ], [ 130.01947551399999, 33.204717551 ], [ 130.01931009399999, 33.204689528 ], [ 130.019099592, 33.20463252 ], [ 130.01753863799999, 33.20413543 ], [ 130.016715581999989, 33.204363099 ], [ 130.016478282, 33.204527854 ], [ 130.019095361000012, 33.205368002 ], [ 130.019279356, 33.205410009 ], [ 130.019497669, 33.205428429 ], [ 130.019696305, 33.205429994 ], [ 130.019863939, 33.205412229 ], [ 130.020026244, 33.205363407 ], [ 130.020174386, 33.205312088 ], [ 130.020359789999986, 33.205227662 ], [ 130.020554185, 33.205100364 ], [ 130.020751708, 33.204946847 ], [ 130.020906587000013, 33.204800152 ], [ 130.022993398000011, 33.202669412 ], [ 130.02370914, 33.201847187 ], [ 130.02406649, 33.202121961 ], [ 130.024217126, 33.203635684 ], [ 130.024307491, 33.204187492 ], [ 130.024439754000014, 33.204544 ], [ 130.02451252, 33.205403427 ], [ 130.024610231, 33.205804993 ], [ 130.024657651000012, 33.205879322 ], [ 130.024798053000012, 33.206014022 ], [ 130.025380799, 33.206438473 ], [ 130.025581112, 33.206545013 ], [ 130.025953758000014, 33.206722087 ], [ 130.026097345000011, 33.206825797 ], [ 130.026209902, 33.206912563 ], [ 130.02627687099999, 33.207015673 ], [ 130.026351852, 33.207164174 ], [ 130.026606584, 33.207738737 ], [ 130.026681724000014, 33.207872925 ], [ 130.026776622999989, 33.20801681 ], [ 130.02700917300001, 33.208288214 ], [ 130.027404386, 33.208718682 ], [ 130.027557105999989, 33.208689305 ], [ 130.02771941200001, 33.208513446 ], [ 130.027869895, 33.20821502 ], [ 130.027382222, 33.20766011 ], [ 130.027313627000012, 33.207447245 ], [ 130.02708201499999, 33.206834692 ], [ 130.026992845, 33.206686081 ], [ 130.02688129, 33.206508666 ], [ 130.026732396999989, 33.206371516 ], [ 130.026577513, 33.206262947 ], [ 130.026252711000012, 33.206122035 ], [ 130.025879696, 33.205978358 ], [ 130.025679622000013, 33.205850349 ], [ 130.02549381599999, 33.205715294 ], [ 130.025384495, 33.205592767 ], [ 130.025328932, 33.205484974 ], [ 130.025285036000014, 33.205348645 ], [ 130.02526623, 33.205253069 ], [ 130.025247927, 33.205112169 ], [ 130.025257656, 33.205002502 ], [ 130.025262609, 33.204811684 ], [ 130.025260723, 33.204725784 ], [ 130.025228469000012, 33.204563302 ], [ 130.025190514, 33.204403162 ], [ 130.025089224, 33.204068369 ], [ 130.024986313999989, 33.20362382 ] ] ] } },
{ "type": "Feature", "properties": { "A29_001": "41206", "A29_002": "佐賀県", "A29_003": "武雄市", "A29_004": 1, "A29_005": "第一種低層住居専用地域", "A29_006": 50, "A29_007": 80, "A29_008": null }, "geometry": { "type": "Polygon", "coordinates": [ [ [ 130.024432179, 33.209504086 ], [ 130.024797885999988, 33.209156253 ], [ 130.024903588, 33.209221496 ], [ 130.025326307, 33.209106715 ], [ 130.025546345, 33.209226531 ], [ 130.025674759, 33.209163122 ], [ 130.025731097, 33.209212958 ], [ 130.02606102499999, 33.20892214 ], [ 130.026164654000013, 33.208854361 ], [ 130.026641135, 33.208753715 ], [ 130.026881685, 33.208815239 ], [ 130.026962677, 33.208869551 ], [ 130.027065513, 33.208873337 ], [ 130.027244259000014, 33.208749484 ], [ 130.027404386, 33.208718682 ], [ 130.02700917300001, 33.208288214 ], [ 130.026776622999989, 33.20801681 ], [ 130.026681724000014, 33.207872925 ], [ 130.026606584, 33.207738737 ], [ 130.026351852, 33.207164174 ], [ 130.02627687099999, 33.207015673 ], [ 130.026209902, 33.206912563 ], [ 130.026097345000011, 33.206825797 ], [ 130.025953758000014, 33.206722087 ], [ 130.025581112, 33.206545013 ], [ 130.025380799, 33.206438473 ], [ 130.024798053000012, 33.206014022 ], [ 130.024657651000012, 33.205879322 ], [ 130.024610231, 33.205804993 ], [ 130.02451252, 33.205403427 ], [ 130.024439754000014, 33.204544 ], [ 130.024307491, 33.204187492 ], [ 130.024217126, 33.203635684 ], [ 130.02406649, 33.202121961 ], [ 130.02370914, 33.201847187 ], [ 130.022993398000011, 33.202669412 ], [ 130.020906587000013, 33.204800152 ], [ 130.020751708, 33.204946847 ], [ 130.02069372, 33.204991917 ], [ 130.020698167, 33.205028944 ], [ 130.02085463899999, 33.205373 ], [ 130.020906528000012, 33.205470472 ], [ 130.020967500000012, 33.205567556 ], [ 130.02106863899999, 33.205690889 ], [ 130.021089111, 33.205725333 ], [ 130.021103194, 33.205754639 ], [ 130.021172694, 33.205978694 ], [ 130.021469343, 33.206054703 ], [ 130.02205963599999, 33.206411474 ], [ 130.02212573599999, 33.206439191 ], [ 130.022183449000011, 33.20645539 ], [ 130.022248165, 33.206454467 ], [ 130.022432173999988, 33.206444461 ], [ 130.022522380999987, 33.206448033 ], [ 130.02258004699999, 33.206468526 ], [ 130.022629009000013, 33.206506127 ], [ 130.022664096, 33.206566523 ], [ 130.022721238, 33.206787411 ], [ 130.022872627999988, 33.206801483 ], [ 130.023296977, 33.206769029 ], [ 130.023678622, 33.206788102 ], [ 130.023912817, 33.206819667 ], [ 130.024415459000011, 33.206943848 ], [ 130.024715426, 33.207072165 ], [ 130.024904295, 33.207238259 ], [ 130.025028483999989, 33.207634923 ], [ 130.024952957000011, 33.207840556 ], [ 130.024831788, 33.208018535 ], [ 130.024570778, 33.208175806 ], [ 130.024459167, 33.208325472 ], [ 130.024452306, 33.208333333 ], [ 130.024301083000012, 33.208506417 ], [ 130.024117646, 33.208692864 ], [ 130.024116256000013, 33.208818103 ], [ 130.024045726999987, 33.209035842 ], [ 130.024163683000012, 33.209147703 ], [ 130.024432179, 33.209504086 ] ] ] } },
{ "type": "Feature", "properties": { "A29_001": "41206", "A29_002": "佐賀県", "A29_003": "武雄市", "A29_004": 8, "A29_005": "近隣商業地域", "A29_006": 80, "A29_007": 200, "A29_008": null }, "geometry": { "type": "Polygon", "coordinates": [ [ [ 130.046195323, 33.210593501 ], [ 130.043008221, 33.20871287 ], [ 130.042943904, 33.208755319 ], [ 130.040123693999988, 33.206936029 ], [ 130.039607598, 33.207307067 ], [ 130.043677722000012, 33.20980763 ], [ 130.045781401, 33.211039183 ], [ 130.046195323, 33.210593501 ] ] ] } },
{ "type": "Feature", "properties": { "A29_001": "41206", "A29_002": "佐賀県", "A29_003": "武雄市", "A29_004": 10, "A29_005": "準工業地域", "A29_006": 60, "A29_007": 200, "A29_008": null }, "geometry": { "type": "Polygon", "coordinates": [ [ [ 130.046199295, 33.210595844 ], [ 130.046195323, 33.210593501 ], [ 130.045781401, 33.211039183 ], [ 130.04514735399999, 33.211595916 ], [ 130.04645422199999, 33.212733639 ], [ 130.047346105, 33.213530127 ], [ 130.04913426499999, 33.214984776 ], [ 130.04949329499999, 33.214591491 ], [ 130.049408749, 33.214535973 ], [ 130.049884389999988, 33.21411972 ], [ 130.048226545, 33.212718432 ], [ 130.048501617999989, 33.212477193 ], [ 130.047663519, 33.21176938 ], [ 130.047870573000012, 33.211624005 ], [ 130.047776089, 33.211543122 ], [ 130.047943307999986, 33.211406984 ], [ 130.047454789, 33.211021531 ], [ 130.04677806399999, 33.210823582 ], [ 130.046199295, 33.210595844 ] ] ] } },
{ "type": "Feature", "properties": { "A29_001": "41206", "A29_002": "佐賀県", "A29_003": "武雄市", "A29_004": 3, "A29_005": "第一種中高層住居専用地域", "A29_006": 60, "A29_007": 200, "A29_008": null }, "geometry": { "type": "Polygon", "coordinates": [ [ [ 130.031805736, 33.212416126 ], [ 130.032091329, 33.21184196 ], [ 130.03211426199999, 33.211615018 ], [ 130.032014599, 33.211387123 ], [ 130.03183938699999, 33.211215898 ], [ 130.031794254, 33.211190735 ], [ 130.03116261299999, 33.211025499 ], [ 130.03050808, 33.211083383 ], [ 130.03047297399999, 33.211178538 ], [ 130.03016660899999, 33.211370825 ], [ 130.030002096, 33.211464971 ], [ 130.029436143999988, 33.212342317 ], [ 130.028928782, 33.212025353 ], [ 130.028997127999986, 33.211798767 ], [ 130.02923240699999, 33.211464694 ], [ 130.029610163, 33.211181355 ], [ 130.029669253, 33.21117609 ], [ 130.029785213999986, 33.210749475 ], [ 130.029635945, 33.21069678 ], [ 130.02961102, 33.210435111 ], [ 130.02987904299999, 33.21006503 ], [ 130.030631148, 33.209419592 ], [ 130.030373700000013, 33.209217187 ], [ 130.03015243199999, 33.209208305 ], [ 130.029853366, 33.208919688 ], [ 130.029487294, 33.208916834 ], [ 130.029178492999989, 33.208739075 ], [ 130.02915312499999, 33.208826194 ], [ 130.02895824399999, 33.208792228 ], [ 130.028911413, 33.20871552 ], [ 130.02848240599999, 33.208706445 ], [ 130.028441964, 33.208667958 ], [ 130.02786749500001, 33.208673014 ], [ 130.02771941200001, 33.208513446 ], [ 130.027557105999989, 33.208689305 ], [ 130.027244259000014, 33.208749484 ], [ 130.027065513, 33.208873337 ], [ 130.026962677, 33.208869551 ], [ 130.026881685, 33.208815239 ], [ 130.026641135, 33.208753715 ], [ 130.026164654000013, 33.208854361 ], [ 130.02606102499999, 33.20892214 ], [ 130.025731097, 33.209212958 ], [ 130.025893939000014, 33.209575236 ], [ 130.026080715, 33.209879684 ], [ 130.026067911000013, 33.210010797 ], [ 130.02594897099999, 33.210243666 ], [ 130.025854134000014, 33.210350281 ], [ 130.02586426900001, 33.210460103 ], [ 130.02574773399999, 33.21047589 ], [ 130.025717003000011, 33.210687978 ], [ 130.025679344999986, 33.210756869 ], [ 130.025744112000012, 33.210802704 ], [ 130.025730065, 33.211045937 ], [ 130.025854771000013, 33.211061227 ], [ 130.02580187699999, 33.211736765 ], [ 130.025859763999989, 33.21214756 ], [ 130.025966122999989, 33.212281992 ], [ 130.026090356, 33.212340222 ], [ 130.026469416999987, 33.212452931 ], [ 130.02654751, 33.212474536 ], [ 130.02660611499999, 33.212513166 ], [ 130.026618871000011, 33.212591517 ], [ 130.02660065399999, 33.212801317 ], [ 130.02668879399999, 33.213248611 ], [ 130.027004242, 33.214083214 ], [ 130.027072205, 33.214097106 ], [ 130.027134423, 33.21421974 ], [ 130.027151761999988, 33.21429431 ], [ 130.027152828999988, 33.214403107 ], [ 130.027104866, 33.214633668 ], [ 130.02739555799999, 33.215038649 ], [ 130.02775632, 33.215390545 ], [ 130.02786946, 33.215425784 ], [ 130.027975999, 33.215441885 ], [ 130.028418724, 33.215445342 ], [ 130.028493942000011, 33.21541921 ], [ 130.028567164, 33.21536825 ], [ 130.02867936199999, 33.215283241 ], [ 130.029029154, 33.215066486 ], [ 130.029539847, 33.214877704 ], [ 130.030084929, 33.214658652 ], [ 130.03196252, 33.213848773 ], [ 130.031924616999987, 33.213785495 ], [ 130.031806665, 33.213775034 ], [ 130.031079252000012, 33.21343919 ], [ 130.031279274000013, 33.213007502 ], [ 130.03129253899999, 33.212833925 ], [ 130.03159596399999, 33.212702687 ], [ 130.031884733999988, 33.212458729 ], [ 130.031805736, 33.212416126 ] ] ] } },
{ "type": "Feature", "properties": { "A29_001": "41206", "A29_002": "佐賀県", "A29_003": "武雄市", "A29_004": 5, "A29_005": "第一種住居地域", "A29_006": 60, "A29_007": 200, "A29_008": null }, "geometry": { "type": "Polygon", "coordinates": [ [ [ 130.043374191999987, 33.217710524 ], [ 130.043394396, 33.217484037 ], [ 130.043489986, 33.217502665 ], [ 130.043489271999988, 33.217568266 ], [ 130.043638076, 33.217587303 ], [ 130.043940334000013, 33.217524019 ], [ 130.043956081, 33.217380997 ], [ 130.044154744999986, 33.217382524 ], [ 130.04418806699999, 33.217254547 ], [ 130.044738653, 33.217193169 ], [ 130.045349515, 33.217135232 ], [ 130.04532466399999, 33.216809988 ], [ 130.044894763, 33.216213243 ], [ 130.044722392000011, 33.216077723 ], [ 130.044511064, 33.215935939 ], [ 130.044154029999987, 33.215816894 ], [ 130.04308147099999, 33.215593935 ], [ 130.042867527999988, 33.215600806 ], [ 130.042670367, 33.215117089 ], [ 130.04254166699999, 33.214801333 ], [ 130.042446528, 33.214611667 ], [ 130.042419056, 33.214566778 ], [ 130.042439527999989, 33.214537056 ], [ 130.042466139, 33.214513417 ], [ 130.04248525, 33.214473028 ], [ 130.042481861, 33.214445778 ], [ 130.042423250000013, 33.2142905 ], [ 130.042386227, 33.214183697 ], [ 130.042365861, 33.214124944 ], [ 130.042360417, 33.214092361 ], [ 130.04239361099999, 33.213988222 ], [ 130.04238444399999, 33.213937972 ], [ 130.042352861000012, 33.213854389 ], [ 130.042308472, 33.213757278 ], [ 130.042299194, 33.213724806 ], [ 130.04229805599999, 33.213703778 ], [ 130.042299472, 33.213687667 ], [ 130.04230122199999, 33.213667722 ], [ 130.042311222, 33.213582833 ], [ 130.042311222, 33.213473472 ], [ 130.042462889, 33.213347222 ], [ 130.042561333, 33.213274083 ], [ 130.042412805999987, 33.213132639 ], [ 130.04219064, 33.212935686 ], [ 130.044440094, 33.210980177 ], [ 130.04514735399999, 33.211595916 ], [ 130.045781401, 33.211039183 ], [ 130.043677722000012, 33.20980763 ], [ 130.039607598, 33.207307067 ], [ 130.03269338199999, 33.20309545 ], [ 130.03176105599999, 33.203027125 ], [ 130.031404865000013, 33.203005268 ], [ 130.03123503099999, 33.202965774 ], [ 130.030939917000012, 33.202873774 ], [ 130.030639476, 33.202776005 ], [ 130.030325768000012, 33.202594632 ], [ 130.030068682, 33.202425629 ], [ 130.02985813399999, 33.20221822 ], [ 130.029674766999989, 33.202003627 ], [ 130.029549304, 33.201800817 ], [ 130.029444809000012, 33.201549502 ], [ 130.029352499999987, 33.201273948 ], [ 130.02932153, 33.200994577 ], [ 130.02937334500001, 33.200310758 ], [ 130.02950683200001, 33.200390528 ], [ 130.02952292, 33.199961225 ], [ 130.029616162, 33.199997737 ], [ 130.02987616199999, 33.199837536 ], [ 130.030043968, 33.199803058 ], [ 130.03024277599999, 33.199787907 ], [ 130.030484722000011, 33.199799778 ], [ 130.030585472000013, 33.199628333 ], [ 130.030694694, 33.199509667 ], [ 130.030772417, 33.199474194 ], [ 130.030885, 33.199382583 ], [ 130.03097455599999, 33.199316611 ], [ 130.03114338899999, 33.199332167 ], [ 130.031337138999987, 33.199360111 ], [ 130.03143927799999, 33.199361361 ], [ 130.031489005999987, 33.199358649 ], [ 130.031542167, 33.19935575 ], [ 130.031677694, 33.199324889 ], [ 130.031838306, 33.199255389 ], [ 130.03203133299999, 33.199144667 ], [ 130.032117527999986, 33.199097917 ], [ 130.03221919399999, 33.199067222 ], [ 130.032296556, 33.199033056 ], [ 130.032531167, 33.198860306 ], [ 130.032568639, 33.198825417 ], [ 130.032682693999988, 33.198752333 ], [ 130.032710917, 33.198737611 ], [ 130.032846889000012, 33.198666583 ], [ 130.032879968, 33.198651521 ], [ 130.03290649499999, 33.198639442 ], [ 130.03278457499999, 33.198441268 ], [ 130.032390811, 33.1981221 ], [ 130.03245130799999, 33.19806674 ], [ 130.029292105, 33.195965739 ], [ 130.026367979000014, 33.199181627 ], [ 130.02419583299999, 33.197844833 ], [ 130.024173889, 33.197877278 ], [ 130.024150443999986, 33.197881111 ], [ 130.024069833, 33.197856611 ], [ 130.023998056000011, 33.197835528 ], [ 130.02384661100001, 33.197791083 ], [ 130.023803500000014, 33.197773278 ], [ 130.023673527999989, 33.197743583 ], [ 130.023112336, 33.198359286 ], [ 130.022843488, 33.198651095 ], [ 130.022444412999988, 33.199334902 ], [ 130.022533917, 33.199411917 ], [ 130.02271180599999, 33.199573194 ], [ 130.022933, 33.199762 ], [ 130.022950111, 33.199780639 ], [ 130.022980444000012, 33.199802528 ], [ 130.023037132000013, 33.199851945 ], [ 130.023206778, 33.199999833 ], [ 130.023206972, 33.2 ], [ 130.023302556, 33.200082972 ], [ 130.023412611, 33.2001785 ], [ 130.02342080599999, 33.200185611 ], [ 130.023780689, 33.200499906 ], [ 130.024265036, 33.200851932 ], [ 130.02454241699999, 33.201217806 ], [ 130.0247416, 33.201302154 ], [ 130.02533307600001, 33.201476472 ], [ 130.02545591399999, 33.201531113 ], [ 130.025722317, 33.201690656 ], [ 130.027686832, 33.201877791 ], [ 130.02779322399999, 33.202265108 ], [ 130.02791559, 33.202362686 ], [ 130.030164187, 33.203425173 ], [ 130.030723625, 33.203647824 ], [ 130.03093593299999, 33.203695999 ], [ 130.031092986, 33.203736586 ], [ 130.031266749999986, 33.203805932 ], [ 130.03143594299999, 33.20390387 ], [ 130.031562572000013, 33.204001477 ], [ 130.03164190699999, 33.204141659 ], [ 130.031712139, 33.204335448 ], [ 130.032745876, 33.205170138 ], [ 130.03381990599999, 33.20623451 ], [ 130.033906800000011, 33.206332999 ], [ 130.033958641999988, 33.206393044 ], [ 130.033993419000012, 33.206456536 ], [ 130.034007057, 33.206506742 ], [ 130.03401704800001, 33.206549339 ], [ 130.03414292, 33.206435095 ], [ 130.03399052099999, 33.206067923 ], [ 130.033715543, 33.205658806 ], [ 130.033575444, 33.205598552 ], [ 130.033363662, 33.205243822 ], [ 130.033284522, 33.205214578 ], [ 130.033699944, 33.204805553 ], [ 130.034144512000012, 33.204752702 ], [ 130.04285973099999, 33.21009128 ], [ 130.041302062999989, 33.211496785 ], [ 130.03772192299999, 33.214324467 ], [ 130.038591454999988, 33.215007538 ], [ 130.03715847699999, 33.216085599 ], [ 130.037563702999989, 33.216403648 ], [ 130.037600214, 33.216568544 ], [ 130.037654185, 33.216694212 ], [ 130.037759240000014, 33.216820274 ], [ 130.038003604000011, 33.21705477 ], [ 130.03811307399999, 33.217166552 ], [ 130.03829104799999, 33.217243078 ], [ 130.03846492299999, 33.217305258 ], [ 130.03860105199999, 33.217330787 ], [ 130.038762128, 33.217343483 ], [ 130.038848217, 33.217361325 ], [ 130.038924912, 33.217407723 ], [ 130.039133146000012, 33.217468497 ], [ 130.03936387600001, 33.21754853 ], [ 130.04019927600001, 33.217566429 ], [ 130.040984357000013, 33.217578805 ], [ 130.041073111, 33.217573525 ], [ 130.041147935999987, 33.21754428 ], [ 130.041344191, 33.217441418 ], [ 130.041546597, 33.217425084 ], [ 130.041904382000013, 33.217475554 ], [ 130.041992877000013, 33.217494128 ], [ 130.042018488999986, 33.217422754 ], [ 130.043374191999987, 33.217710524 ] ] ] } }
]
}
