{
"type": "FeatureCollection",
"name": "A29-19_30366",
"features": [
{ "type": "Feature", "properties": { "A29_001": "30366", "A29_002": "和歌山県", "A29_003": "有田川町", "A29_004": 6, "A29_005": "第二種住居地域", "A29_006": 60, "A29_007": 200, "A29_008": null }, "geometry": { "type": "Polygon", "coordinates": [ [ [ 135.198354136, 34.059443519 ], [ 135.198526474, 34.059688851 ], [ 135.198749571, 34.060025997 ], [ 135.198888944, 34.060264271 ], [ 135.199033816, 34.060572596 ], [ 135.19911853, 34.060768997 ], [ 135.199216201000013, 34.061077014 ], [ 135.199277413, 34.061333564 ], [ 135.199384234, 34.061765627 ], [ 135.199461471, 34.062028661 ], [ 135.199628909000012, 34.0626018 ], [ 135.199717459999988, 34.062904789 ], [ 135.199832187999988, 34.063273307 ], [ 135.200027541, 34.063251953 ], [ 135.200179615, 34.063222703 ], [ 135.200404780000014, 34.06316252 ], [ 135.200696069, 34.063075273 ], [ 135.200844694000011, 34.063023179 ], [ 135.20084887499999, 34.062926169 ], [ 135.20092841799999, 34.062458396 ], [ 135.201009750999987, 34.062359673 ], [ 135.20108408499999, 34.062276343 ], [ 135.201148526999987, 34.062224878 ], [ 135.201187049999987, 34.062209164 ], [ 135.201273476000011, 34.062200413 ], [ 135.201459430999989, 34.062149737 ], [ 135.201533691, 34.062092758 ], [ 135.20163509299999, 34.062021577 ], [ 135.201796151999986, 34.061897568 ], [ 135.201870336000013, 34.061830201 ], [ 135.201941385, 34.061756161 ], [ 135.201964715, 34.061674344 ], [ 135.20196218800001, 34.0614322 ], [ 135.201950869, 34.061275143 ], [ 135.20195565, 34.061144166 ], [ 135.201991748000012, 34.061045953 ], [ 135.202093273, 34.060961468 ], [ 135.20236315, 34.060827522 ], [ 135.202460991, 34.060794898 ], [ 135.202504876, 34.060678137 ], [ 135.202504737, 34.060569061 ], [ 135.202511783, 34.06029898 ], [ 135.202542563, 34.060178563 ], [ 135.20258059299999, 34.060104795 ], [ 135.202637224, 34.060038457 ], [ 135.202845005, 34.059844271 ], [ 135.20300795599999, 34.059682678 ], [ 135.203211028999988, 34.059458295 ], [ 135.203269428999988, 34.059361147 ], [ 135.203403331, 34.059017526 ], [ 135.203449237, 34.058829046 ], [ 135.203505357000012, 34.058699655 ], [ 135.203596495, 34.058558175 ], [ 135.203307134999989, 34.058452142 ], [ 135.2032183, 34.058412438 ], [ 135.203060036000011, 34.058302973 ], [ 135.202781694, 34.058108598 ], [ 135.202554584000012, 34.057940543 ], [ 135.202399915, 34.057835296 ], [ 135.202353557, 34.057791503 ], [ 135.202285028, 34.057713257 ], [ 135.202162238999989, 34.057550843 ], [ 135.201973833000011, 34.057283722 ], [ 135.201791515999986, 34.057055977 ], [ 135.20124006399999, 34.05649542 ], [ 135.201151184999986, 34.056397711 ], [ 135.20100833699999, 34.05627698 ], [ 135.200955725, 34.056232513 ], [ 135.200862384, 34.056171126 ], [ 135.20068663, 34.056069569 ], [ 135.20060943499999, 34.056026019 ], [ 135.200602256, 34.056019951 ], [ 135.200585819999986, 34.055994618 ], [ 135.200516674999989, 34.055833258 ], [ 135.20040187399999, 34.055559046 ], [ 135.200314045999988, 34.055579241 ], [ 135.20020623, 34.055607408 ], [ 135.200153626, 34.055583588 ], [ 135.200141089, 34.055572499 ], [ 135.200125767, 34.055551131 ], [ 135.200070923, 34.055416402 ], [ 135.20004934, 34.05537363 ], [ 135.200003501, 34.055299218 ], [ 135.19998827, 34.055279708 ], [ 135.199950066000014, 34.055235895 ], [ 135.199890732, 34.055177762 ], [ 135.199843711999989, 34.055137237 ], [ 135.199769427, 34.055084227 ], [ 135.1997275, 34.055059575 ], [ 135.19966445, 34.055028195 ], [ 135.199614531, 34.055005782 ], [ 135.199549565000012, 34.05498217 ], [ 135.19949193299999, 34.054965566 ], [ 135.19939243799999, 34.054946328 ], [ 135.199154983, 34.054902235 ], [ 135.19912903299999, 34.054985967 ], [ 135.199116612000012, 34.055025889 ], [ 135.19906269399999, 34.055057761 ], [ 135.199040435, 34.055077324 ], [ 135.19902871, 34.055097407 ], [ 135.19896733600001, 34.055078957 ], [ 135.198938233, 34.055093689 ], [ 135.198806953, 34.055120908 ], [ 135.19869393499999, 34.055148193 ], [ 135.198643831999988, 34.055139518 ], [ 135.198521, 34.055142711 ], [ 135.198481936, 34.055140887 ], [ 135.198381399999988, 34.055159697 ], [ 135.198350731, 34.055176185 ], [ 135.198263314, 34.055120177 ], [ 135.19824427399999, 34.055111794 ], [ 135.19821424, 34.05511607 ], [ 135.198139434000012, 34.055144856 ], [ 135.198064941000013, 34.055116304 ], [ 135.19803353899999, 34.055111682 ], [ 135.19792299400001, 34.055123664 ], [ 135.197856965999989, 34.055138199 ], [ 135.197794292, 34.055170454 ], [ 135.19777461000001, 34.055179711 ], [ 135.19763852599999, 34.05520056 ], [ 135.19759191599999, 34.055222353 ], [ 135.197589678000014, 34.055235709 ], [ 135.197501757, 34.055305621 ], [ 135.197436231000012, 34.055341599 ], [ 135.197418895, 34.055339845 ], [ 135.19725177399999, 34.055465561 ], [ 135.197213612000013, 34.055507037 ], [ 135.196858692, 34.055512279 ], [ 135.19640453400001, 34.055397565 ], [ 135.196218327, 34.055350891 ], [ 135.19600667099999, 34.055347613 ], [ 135.195808475, 34.055365257 ], [ 135.195705108999988, 34.055378015 ], [ 135.195583672999987, 34.05546245 ], [ 135.195483816, 34.055538718 ], [ 135.19562820499999, 34.055720155 ], [ 135.195899695, 34.056092496 ], [ 135.195998624999987, 34.056226499 ], [ 135.196098909, 34.056362746 ], [ 135.19625893599999, 34.056585789 ], [ 135.196362308, 34.056723079 ], [ 135.196580323, 34.056961211 ], [ 135.196995890000011, 34.057526358 ], [ 135.197096883, 34.05748091 ], [ 135.197435238999986, 34.057945899 ], [ 135.197626394, 34.058212947 ], [ 135.197732362000011, 34.058510774 ], [ 135.197922328, 34.058824517 ], [ 135.198354136, 34.059443519 ] ] ] } },
{ "type": "Feature", "properties": { "A29_001": "30366", "A29_002": "和歌山県", "A29_003": "有田川町", "A29_004": 4, "A29_005": "第二種中高層住居専用地域", "A29_006": 60, "A29_007": 150, "A29_008": null }, "geometry": { "type": "Polygon", "coordinates": [ [ [ 135.205520734, 34.064474175 ], [ 135.205583233999988, 34.064418068 ], [ 135.205652734000012, 34.064345489 ], [ 135.205736965, 34.064248852 ], [ 135.205767044999988, 34.064212037 ], [ 135.205837054, 34.064201012 ], [ 135.205996648, 34.064174338 ], [ 135.206284786, 34.064122194 ], [ 135.206490239, 34.064084449 ], [ 135.20667196299999, 34.064056456 ], [ 135.20679785499999, 34.064045258 ], [ 135.20687430699999, 34.064028595 ], [ 135.207006959000012, 34.063955678 ], [ 135.207081461, 34.063926993 ], [ 135.20729289, 34.063888703 ], [ 135.207293017000012, 34.063874979 ], [ 135.207375606999989, 34.063863502 ], [ 135.207611101, 34.063818698 ], [ 135.207706159, 34.063797007 ], [ 135.207840377, 34.063777284 ], [ 135.207960034, 34.063771193 ], [ 135.20811701400001, 34.063743038 ], [ 135.20828084199999, 34.063721543 ], [ 135.208462755999989, 34.063707323 ], [ 135.208648366, 34.063699575 ], [ 135.20869314399999, 34.063700296 ], [ 135.20870964299999, 34.063706064 ], [ 135.208716584, 34.063713402 ], [ 135.20873468799999, 34.063751638 ], [ 135.208879121, 34.06375447 ], [ 135.208893788000012, 34.063762687 ], [ 135.20891148199999, 34.063770009 ], [ 135.208935136, 34.063656939 ], [ 135.20778710799999, 34.063474032 ], [ 135.207364531, 34.063414329 ], [ 135.207253697999988, 34.063399936 ], [ 135.206951491000012, 34.063399891 ], [ 135.20631592, 34.063412197 ], [ 135.205770051, 34.063424888 ], [ 135.205492986, 34.06344404 ], [ 135.205320511, 34.063442819 ], [ 135.20496992599999, 34.063401031 ], [ 135.204047394000014, 34.063266597 ], [ 135.203665695000012, 34.063208726 ], [ 135.20344624, 34.063178129 ], [ 135.203284852, 34.063166613 ], [ 135.20313950100001, 34.063172387 ], [ 135.202932784000012, 34.063199469 ], [ 135.202879889, 34.063208252 ], [ 135.202878312, 34.063376628 ], [ 135.202900038, 34.063451401 ], [ 135.202951487, 34.063545025 ], [ 135.202965592, 34.063635297 ], [ 135.203038416999988, 34.063841008 ], [ 135.20307868399999, 34.063931449 ], [ 135.203152440999986, 34.064037656 ], [ 135.203192871999988, 34.06412597 ], [ 135.20321751099999, 34.064159951 ], [ 135.203226088, 34.064155362 ], [ 135.20324870799999, 34.064147232 ], [ 135.203265765999987, 34.064143006 ], [ 135.203278995, 34.064141685 ], [ 135.203302967000013, 34.06414075 ], [ 135.20333554699999, 34.064143621 ], [ 135.203373344999989, 34.064150519 ], [ 135.203386848, 34.064158027 ], [ 135.203419043, 34.064172039 ], [ 135.20349435599999, 34.064195147 ], [ 135.20360235199999, 34.064216331 ], [ 135.20365171099999, 34.064230376 ], [ 135.203671307, 34.064229645 ], [ 135.203700215, 34.064225544 ], [ 135.203734301999987, 34.064218902 ], [ 135.203798197999987, 34.064221889 ], [ 135.203878655000011, 34.064218121 ], [ 135.203913676000013, 34.064221779 ], [ 135.204062553, 34.06424498 ], [ 135.204120296000013, 34.064244496 ], [ 135.204163548999986, 34.064249923 ], [ 135.204236629, 34.064263264 ], [ 135.204326275999989, 34.064268991 ], [ 135.20438915, 34.064271114 ], [ 135.204441777999989, 34.064266307 ], [ 135.204503644999988, 34.06426585 ], [ 135.204589792, 34.064271618 ], [ 135.20467836099999, 34.064282485 ], [ 135.204737821, 34.064318898 ], [ 135.2048203, 34.064319432 ], [ 135.204937543, 34.064351072 ], [ 135.204953733999986, 34.064383775 ], [ 135.204951208000011, 34.064433512 ], [ 135.20510144299999, 34.064465366 ], [ 135.205148804, 34.064472534 ], [ 135.205520734, 34.064474175 ] ] ] } },
{ "type": "Feature", "properties": { "A29_001": "30366", "A29_002": "和歌山県", "A29_003": "有田川町", "A29_004": 4, "A29_005": "第二種中高層住居専用地域", "A29_006": 60, "A29_007": 150, "A29_008": null }, "geometry": { "type": "Polygon", "coordinates": [ [ [ 135.20533024299999, 34.060435632 ], [ 135.20532615, 34.060279661 ], [ 135.20530700099999, 34.060219402 ], [ 135.205284229, 34.060134964 ], [ 135.20524157, 34.060039571 ], [ 135.205129305000014, 34.059841958 ], [ 135.204946543, 34.059540538 ], [ 135.204864851, 34.059400201 ], [ 135.20480598099999, 34.059297775 ], [ 135.204702513, 34.059207836 ], [ 135.204440659, 34.058990317 ], [ 135.20427322899999, 34.058829097 ], [ 135.204159518000012, 34.058747545 ], [ 135.204049438, 34.058707843 ], [ 135.203916163, 34.058664608 ], [ 135.203634713000014, 34.05857218 ], [ 135.203596495, 34.058558175 ], [ 135.203505357000012, 34.058699655 ], [ 135.203449237, 34.058829046 ], [ 135.203403331, 34.059017526 ], [ 135.203269428999988, 34.059361147 ], [ 135.203211028999988, 34.059458295 ], [ 135.20300795599999, 34.059682678 ], [ 135.202845005, 34.059844271 ], [ 135.202637224, 34.060038457 ], [ 135.20258059299999, 34.060104795 ], [ 135.202542563, 34.060178563 ], [ 135.202511783, 34.06029898 ], [ 135.202504737, 34.060569061 ], [ 135.202504876, 34.060678137 ], [ 135.202460991, 34.060794898 ], [ 135.20255138600001, 34.060916712 ], [ 135.20271562100001, 34.061109156 ], [ 135.20278736099999, 34.061277431 ], [ 135.202818470000011, 34.061371422 ], [ 135.202844035999988, 34.061569303 ], [ 135.202818957, 34.061808146 ], [ 135.20280921299999, 34.061872721 ], [ 135.202775287, 34.06191686 ], [ 135.20273193700001, 34.061991356 ], [ 135.202722276, 34.06204706 ], [ 135.202723881999987, 34.062187007 ], [ 135.202737187, 34.062230186 ], [ 135.202771358, 34.062319599 ], [ 135.202791803999986, 34.06241352 ], [ 135.202835333, 34.062689334 ], [ 135.20310871800001, 34.062653244 ], [ 135.203398037, 34.062647826 ], [ 135.203605001999989, 34.062677512 ], [ 135.204166023, 34.062761101 ], [ 135.20462937, 34.06282191 ], [ 135.204919321, 34.062864731 ], [ 135.20519052099999, 34.062897914 ], [ 135.205346152, 34.06290831 ], [ 135.20550995100001, 34.062913209 ], [ 135.20584583199999, 34.062911444 ], [ 135.20616411899999, 34.062891157 ], [ 135.20683588599999, 34.06286829 ], [ 135.207224577, 34.062870878 ], [ 135.20794769299999, 34.062985862 ], [ 135.208990316000012, 34.063137351 ], [ 135.20900328799999, 34.062973907 ], [ 135.209011143999987, 34.062884297 ], [ 135.209032557, 34.062600624 ], [ 135.209031911000011, 34.062591973 ], [ 135.209043986000012, 34.062544637 ], [ 135.20904713499999, 34.062494845 ], [ 135.209041402, 34.062457171 ], [ 135.209028049000011, 34.062393266 ], [ 135.209030695, 34.062296104 ], [ 135.20903322, 34.062211995 ], [ 135.209021853, 34.062121996 ], [ 135.20901254, 34.061998649 ], [ 135.20899792899999, 34.061709342 ], [ 135.20887966699999, 34.06173004 ], [ 135.208398972, 34.061815077 ], [ 135.208358403, 34.061760857 ], [ 135.208330886999988, 34.061697729 ], [ 135.20831414599999, 34.061638267 ], [ 135.208286030000011, 34.061577381 ], [ 135.208236749, 34.061505824 ], [ 135.208219906000011, 34.061398856 ], [ 135.208206547, 34.061300815 ], [ 135.20816936599999, 34.061270893 ], [ 135.20810883199999, 34.06125863 ], [ 135.208044675, 34.061252279 ], [ 135.208016894999986, 34.061170472 ], [ 135.20795454200001, 34.060969623 ], [ 135.20790315799999, 34.060740731 ], [ 135.207712437, 34.060738061 ], [ 135.20753967600001, 34.0607301 ], [ 135.20735084, 34.060680948 ], [ 135.206903102000012, 34.060530747 ], [ 135.20663203399999, 34.060474216 ], [ 135.20628622800001, 34.060489102 ], [ 135.20592820499999, 34.060490214 ], [ 135.205594999, 34.060477789 ], [ 135.20533024299999, 34.060435632 ] ] ] } },
{ "type": "Feature", "properties": { "A29_001": "30366", "A29_002": "和歌山県", "A29_003": "有田川町", "A29_004": 4, "A29_005": "第二種中高層住居専用地域", "A29_006": 60, "A29_007": 150, "A29_008": null }, "geometry": { "type": "Polygon", "coordinates": [ [ [ 135.238140697, 34.070763412 ], [ 135.238139477, 34.070605833 ], [ 135.238116665, 34.070509398 ], [ 135.238049135000011, 34.070412685 ], [ 135.237976815, 34.070263419 ], [ 135.237943578999989, 34.070155977 ], [ 135.237952799, 34.07001684 ], [ 135.237941175, 34.069846065 ], [ 135.23789529699999, 34.069681644 ], [ 135.237864849, 34.069556711 ], [ 135.237860823, 34.069418811 ], [ 135.237835714, 34.069285157 ], [ 135.23773265299999, 34.069043783 ], [ 135.237647759999987, 34.068847068 ], [ 135.23760948, 34.068715521 ], [ 135.23756193299999, 34.068443853 ], [ 135.23752422199999, 34.068248843 ], [ 135.23714636299999, 34.068258626 ], [ 135.236597842, 34.068245188 ], [ 135.236111556, 34.06822218 ], [ 135.235501672, 34.068198164 ], [ 135.235104537000012, 34.068186173 ], [ 135.234798340999987, 34.068173866 ], [ 135.234420285999988, 34.068130886 ], [ 135.234120993, 34.068104101 ], [ 135.23382225099999, 34.068068781 ], [ 135.23345660699999, 34.068049711 ], [ 135.232913327, 34.06807491 ], [ 135.232707487, 34.068128099 ], [ 135.232433198, 34.06818086 ], [ 135.23209046, 34.068233194 ], [ 135.23182538899999, 34.068253822 ], [ 135.231634853, 34.068260059 ], [ 135.23146291, 34.068333927 ], [ 135.231253713, 34.068429186 ], [ 135.231056575999986, 34.068507188 ], [ 135.230499916000014, 34.068518561 ], [ 135.230318329999989, 34.068522376 ], [ 135.230011568, 34.068467008 ], [ 135.23000116899999, 34.068518873 ], [ 135.23000973, 34.068826968 ], [ 135.23007958299999, 34.069128916 ], [ 135.230142752, 34.069365907 ], [ 135.230172732999989, 34.069501822 ], [ 135.230161853, 34.069606795 ], [ 135.230082305, 34.06977507 ], [ 135.230069210000011, 34.069810856 ], [ 135.23009848800001, 34.069867691 ], [ 135.23019062, 34.06987653 ], [ 135.230437023, 34.069925282 ], [ 135.230402004000013, 34.070082538 ], [ 135.230437392999988, 34.070247992 ], [ 135.230599452, 34.07036821 ], [ 135.23088453, 34.070575979 ], [ 135.23090698199999, 34.070603265 ], [ 135.231000236, 34.070802128 ], [ 135.23098306599999, 34.070890379 ], [ 135.231701804000011, 34.07100813 ], [ 135.232950417000012, 34.071240527 ], [ 135.23298685, 34.071352727 ], [ 135.233015736999988, 34.071346176 ], [ 135.233295837000014, 34.072182452 ], [ 135.233665013, 34.072102622 ], [ 135.234416025, 34.071960674 ], [ 135.235337483, 34.071782316 ], [ 135.235669456000011, 34.071725292 ], [ 135.235734982999986, 34.071751961 ], [ 135.236398291, 34.071604451 ], [ 135.236885932, 34.071495866 ], [ 135.237318605000013, 34.071321404 ], [ 135.237455094000012, 34.071240628 ], [ 135.237648393, 34.071099575 ], [ 135.237912967999989, 34.070930514 ], [ 135.238140697, 34.070763412 ] ] ] } },
{ "type": "Feature", "properties": { "A29_001": "30366", "A29_002": "和歌山県", "A29_003": "有田川町", "A29_004": 4, "A29_005": "第二種中高層住居専用地域", "A29_006": 60, "A29_007": 150, "A29_008": null }, "geometry": { "type": "Polygon", "coordinates": [ [ [ 135.240782524, 34.06356292 ], [ 135.239953961999987, 34.063831628 ], [ 135.239920962000014, 34.063861137 ], [ 135.23988698799999, 34.063999589 ], [ 135.239861014000013, 34.064242087 ], [ 135.239836765, 34.064291459 ], [ 135.23979470399999, 34.064335769 ], [ 135.239523889999987, 34.064503373 ], [ 135.239275493, 34.064657831 ], [ 135.238937197000013, 34.064881062 ], [ 135.23859149099999, 34.065132861 ], [ 135.238116945, 34.065615237 ], [ 135.237774185, 34.065962933 ], [ 135.237354267, 34.066280385 ], [ 135.237219393, 34.06638602 ], [ 135.23697325, 34.066572979 ], [ 135.236829733, 34.066647229 ], [ 135.237035717999987, 34.066627542 ], [ 135.237237149, 34.06659726 ], [ 135.23767182899999, 34.066515411 ], [ 135.23823166599999, 34.066402649 ], [ 135.23868183, 34.066307333 ], [ 135.238855355, 34.066266037 ], [ 135.238984547, 34.066250569 ], [ 135.239166481000012, 34.066237689 ], [ 135.239522, 34.066224189 ], [ 135.239971488, 34.066199 ], [ 135.24057738, 34.06613851 ], [ 135.241090234000012, 34.066081897 ], [ 135.24139559599999, 34.066051432 ], [ 135.241533354000012, 34.066024263 ], [ 135.241633038, 34.066004182 ], [ 135.242141385, 34.065902349 ], [ 135.242377521, 34.065858542 ], [ 135.242544501999987, 34.065816126 ], [ 135.242448692000011, 34.065560133 ], [ 135.242325932999989, 34.065179918 ], [ 135.242302008, 34.065039116 ], [ 135.242305863000013, 34.064810898 ], [ 135.24228252399999, 34.064604261 ], [ 135.242149754, 34.063948313 ], [ 135.24218661399999, 34.063848287 ], [ 135.242156045, 34.063696222 ], [ 135.242070825000013, 34.063335367 ], [ 135.241561194000013, 34.063413839 ], [ 135.240782524, 34.06356292 ] ] ] } },
{ "type": "Feature", "properties": { "A29_001": "30366", "A29_002": "和歌山県", "A29_003": "有田川町", "A29_004": 5, "A29_005": "第一種住居地域", "A29_006": 60, "A29_007": 200, "A29_008": null }, "geometry": { "type": "Polygon", "coordinates": [ [ [ 135.249293542, 34.059728762 ], [ 135.24895797100001, 34.059842033 ], [ 135.24871667299999, 34.059995258 ], [ 135.248404631, 34.060122736 ], [ 135.24792568399999, 34.060398266 ], [ 135.247676406000011, 34.060306733 ], [ 135.247457395, 34.060232262 ], [ 135.247321972, 34.06025956 ], [ 135.247196288999987, 34.060331921 ], [ 135.246978966, 34.060448724 ], [ 135.246937908, 34.060486001 ], [ 135.246883572, 34.060535334 ], [ 135.246818643000012, 34.060616505 ], [ 135.246756346000012, 34.060782074 ], [ 135.246728092000012, 34.060919724 ], [ 135.246640645000014, 34.061253902 ], [ 135.246620752000013, 34.061401448 ], [ 135.24658211, 34.061567162 ], [ 135.246500258, 34.061651042 ], [ 135.246381057, 34.061754382 ], [ 135.246214470000012, 34.061865869 ], [ 135.245844393999988, 34.062057677 ], [ 135.245610167, 34.062174374 ], [ 135.24505707599999, 34.062424123 ], [ 135.244958623, 34.062474147 ], [ 135.244794253, 34.062594231 ], [ 135.24461296199999, 34.062716055 ], [ 135.244384268, 34.062856061 ], [ 135.244226016, 34.062944511 ], [ 135.24410316, 34.062987427 ], [ 135.243766413, 34.063093807 ], [ 135.243666107, 34.063130623 ], [ 135.243568559000011, 34.063138341 ], [ 135.243291021, 34.06314911 ], [ 135.243044587000014, 34.063170842 ], [ 135.242796856000012, 34.06320259 ], [ 135.24244885600001, 34.063266992 ], [ 135.242070825000013, 34.063335367 ], [ 135.242156045, 34.063696222 ], [ 135.24218661399999, 34.063848287 ], [ 135.242149754, 34.063948313 ], [ 135.24228252399999, 34.064604261 ], [ 135.242305863000013, 34.064810898 ], [ 135.242302008, 34.065039116 ], [ 135.242325932999989, 34.065179918 ], [ 135.242448692000011, 34.065560133 ], [ 135.242544501999987, 34.065816126 ], [ 135.242566635, 34.065810504 ], [ 135.242733195, 34.065755327 ], [ 135.243160598, 34.065587159 ], [ 135.24357885, 34.065420272 ], [ 135.24393965199999, 34.065282144 ], [ 135.244216693999988, 34.065168088 ], [ 135.244321856, 34.065124793 ], [ 135.244683263000013, 34.064975918 ], [ 135.245032134000013, 34.064834756 ], [ 135.24503220299999, 34.064834729 ], [ 135.245348412999988, 34.064706872 ], [ 135.245575886000012, 34.064601629 ], [ 135.245938009000014, 34.064419102 ], [ 135.246333560000011, 34.064209275 ], [ 135.24677918399999, 34.063998686 ], [ 135.247036398, 34.063913228 ], [ 135.247505566, 34.063764111 ], [ 135.247887995000013, 34.063656173 ], [ 135.248091703999989, 34.063610279 ], [ 135.248809418, 34.063470868 ], [ 135.24948979199999, 34.063336947 ], [ 135.249634625, 34.06329776 ], [ 135.24978319600001, 34.063242467 ], [ 135.249847896, 34.063208908 ], [ 135.2499458, 34.063141423 ], [ 135.25001556, 34.063061413 ], [ 135.25017754699999, 34.062849756 ], [ 135.250420792999989, 34.062550947 ], [ 135.25060593, 34.06228591 ], [ 135.251069495, 34.062408864 ], [ 135.251144073, 34.062157612 ], [ 135.251176792, 34.061967591 ], [ 135.251141424, 34.061817078 ], [ 135.251117034, 34.061701858 ], [ 135.251125894000012, 34.061657292 ], [ 135.25126226099999, 34.061294841 ], [ 135.251294402000013, 34.061170571 ], [ 135.25136717, 34.060919736 ], [ 135.251393293, 34.060837701 ], [ 135.251439772, 34.060687686 ], [ 135.251521402, 34.060411975 ], [ 135.251585371, 34.06019866 ], [ 135.251662591000013, 34.059762328 ], [ 135.251701881, 34.059466668 ], [ 135.251731912, 34.059247189 ], [ 135.251727568, 34.059099213 ], [ 135.251692921, 34.058866511 ], [ 135.25167623499999, 34.058838228 ], [ 135.251424894, 34.059080848 ], [ 135.250633932999989, 34.059336777 ], [ 135.249978276, 34.059493575 ], [ 135.249578127, 34.059620064 ], [ 135.249293542, 34.059728762 ] ] ] } },
{ "type": "Feature", "properties": { "A29_001": "30366", "A29_002": "和歌山県", "A29_003": "有田川町", "A29_004": 10, "A29_005": "準工業地域", "A29_006": 60, "A29_007": 200, "A29_008": null }, "geometry": { "type": "Polygon", "coordinates": [ [ [ 135.244454012, 34.065547665 ], [ 135.24491851, 34.065528722 ], [ 135.245541968, 34.065567777 ], [ 135.246089531, 34.065571137 ], [ 135.246635927999989, 34.065564807 ], [ 135.246980541999989, 34.06553639 ], [ 135.247582333999986, 34.065471972 ], [ 135.248310099, 34.065377583 ], [ 135.248753789, 34.065316889 ], [ 135.248920626, 34.065282683 ], [ 135.249247270000012, 34.065162307 ], [ 135.249208544, 34.065110043 ], [ 135.24904360299999, 34.065121646 ], [ 135.24891132499999, 34.064867041 ], [ 135.24890335500001, 34.064696744 ], [ 135.248854642999987, 34.064394587 ], [ 135.247902044999989, 34.064399867 ], [ 135.24750982399999, 34.064402195 ], [ 135.24712884499999, 34.064418779 ], [ 135.246894246000011, 34.064449189 ], [ 135.246601852, 34.064518334 ], [ 135.246235066, 34.064643771 ], [ 135.246102318999988, 34.064657144 ], [ 135.24580471499999, 34.064792744 ], [ 135.2450733, 34.065104561 ], [ 135.244831831999988, 34.065199237 ], [ 135.244354455, 34.065402807 ], [ 135.244454012, 34.065547665 ] ] ] } },
{ "type": "Feature", "properties": { "A29_001": "30366", "A29_002": "和歌山県", "A29_003": "有田川町", "A29_004": 10, "A29_005": "準工業地域", "A29_006": 60, "A29_007": 200, "A29_008": null }, "geometry": { "type": "Polygon", "coordinates": [ [ [ 135.238140697, 34.070763412 ], [ 135.23834467399999, 34.070647687 ], [ 135.23850045099999, 34.070557385 ], [ 135.23866582299999, 34.070439286 ], [ 135.238892709999988, 34.070266888 ], [ 135.238933119, 34.070210505 ], [ 135.239343437, 34.069910676 ], [ 135.24000922, 34.069481263 ], [ 135.24072081700001, 34.069006473 ], [ 135.240790745, 34.069061585 ], [ 135.240819208, 34.069028562 ], [ 135.240826615, 34.068987598 ], [ 135.240850365, 34.068956499 ], [ 135.240709001999988, 34.068857238 ], [ 135.240655672, 34.068798163 ], [ 135.24061760699999, 34.06877204 ], [ 135.24044332599999, 34.068721178 ], [ 135.24027970099999, 34.068683326 ], [ 135.240148491000014, 34.068661298 ], [ 135.240062539, 34.068636869 ], [ 135.239905128, 34.068573167 ], [ 135.23979315, 34.068514725 ], [ 135.239632497, 34.06841217 ], [ 135.23957894599999, 34.068377985 ], [ 135.239058214000011, 34.068563975 ], [ 135.238393637, 34.068795029 ], [ 135.23773265299999, 34.069043783 ], [ 135.237835714, 34.069285157 ], [ 135.237860823, 34.069418811 ], [ 135.237864849, 34.069556711 ], [ 135.23789529699999, 34.069681644 ], [ 135.237941175, 34.069846065 ], [ 135.237952799, 34.07001684 ], [ 135.237943578999989, 34.070155977 ], [ 135.237976815, 34.070263419 ], [ 135.238049135000011, 34.070412685 ], [ 135.238116665, 34.070509398 ], [ 135.238139477, 34.070605833 ], [ 135.238140697, 34.070763412 ] ] ] } },
{ "type": "Feature", "properties": { "A29_001": "30366", "A29_002": "和歌山県", "A29_003": "有田川町", "A29_004": 10, "A29_005": "準工業地域", "A29_006": 60, "A29_007": 200, "A29_008": null }, "geometry": { "type": "Polygon", "coordinates": [ [ [ 135.197395147, 34.061380799 ], [ 135.197394946, 34.06140205 ], [ 135.197472901, 34.061530076 ], [ 135.197497492999986, 34.061630124 ], [ 135.197497133000013, 34.061668376 ], [ 135.197494439, 34.061683236 ], [ 135.19754470699999, 34.061768575 ], [ 135.197594313, 34.061924043 ], [ 135.197619347, 34.061977339 ], [ 135.197665029, 34.062007391 ], [ 135.197631253, 34.062068803 ], [ 135.197602843999988, 34.062102622 ], [ 135.197551635, 34.062117164 ], [ 135.197523407, 34.062131857 ], [ 135.19758067399999, 34.062287376 ], [ 135.197624673, 34.062495939 ], [ 135.197565653, 34.062797342 ], [ 135.19755610499999, 34.062862101 ], [ 135.197553191, 34.062900337 ], [ 135.197588599, 34.062936697 ], [ 135.197621133000013, 34.063007044 ], [ 135.197660987, 34.063113567 ], [ 135.197668247, 34.06315612 ], [ 135.197548173, 34.063161712 ], [ 135.197537439, 34.063216899 ], [ 135.197544558, 34.063274328 ], [ 135.197507908, 34.063369725 ], [ 135.197401151, 34.063587931 ], [ 135.197401051000014, 34.063598557 ], [ 135.197337274, 34.063591765 ], [ 135.19728383099999, 34.063572288 ], [ 135.197159191, 34.063520468 ], [ 135.197100701000011, 34.063494582 ], [ 135.196917171, 34.063459379 ], [ 135.196864841, 34.063727883 ], [ 135.196673209000011, 34.063739383 ], [ 135.1966749, 34.06383078 ], [ 135.19667431799999, 34.063892409 ], [ 135.196648321999987, 34.063941121 ], [ 135.196602058, 34.063972697 ], [ 135.196594256999987, 34.063987523 ], [ 135.196695134, 34.064122074 ], [ 135.196723243, 34.064120133 ], [ 135.196725515, 34.064149902 ], [ 135.196752722000014, 34.064243591 ], [ 135.197029635, 34.064531249 ], [ 135.19705931499999, 34.064633456 ], [ 135.19715026, 34.064738189 ], [ 135.197193508999987, 34.064755473 ], [ 135.197243498, 34.064870564 ], [ 135.19741716199999, 34.065028133 ], [ 135.197340165000014, 34.065085095 ], [ 135.197283039000013, 34.065115642 ], [ 135.19718639300001, 34.065164119 ], [ 135.197045924, 34.065223222 ], [ 135.196945043, 34.065257121 ], [ 135.196905472, 34.065280507 ], [ 135.196846262, 34.065300127 ], [ 135.19654427, 34.065332711 ], [ 135.196261951999986, 34.065365423 ], [ 135.195857819, 34.065426942 ], [ 135.195463722999989, 34.06548984 ], [ 135.19558233699999, 34.066447258 ], [ 135.200603594, 34.066013598 ], [ 135.200289548, 34.064992773 ], [ 135.20004445, 34.064127943 ], [ 135.20002258299999, 34.063966868 ], [ 135.199978711, 34.063787853 ], [ 135.19992814299999, 34.063581517 ], [ 135.199832187999988, 34.063273307 ], [ 135.199717459999988, 34.062904789 ], [ 135.199628909000012, 34.0626018 ], [ 135.199461471, 34.062028661 ], [ 135.199384234, 34.061765627 ], [ 135.199277413, 34.061333564 ], [ 135.199216201000013, 34.061077014 ], [ 135.19911853, 34.060768997 ], [ 135.199033816, 34.060572596 ], [ 135.198888944, 34.060264271 ], [ 135.198749571, 34.060025997 ], [ 135.198526474, 34.059688851 ], [ 135.198354136, 34.059443519 ], [ 135.19798987499999, 34.059590585 ], [ 135.197936793, 34.059496734 ], [ 135.19790820899999, 34.059511364 ], [ 135.197883187, 34.059571384 ], [ 135.19784751899999, 34.059575596 ], [ 135.197669781, 34.0595983 ], [ 135.197581417, 34.059618171 ], [ 135.197524348, 34.059625453 ], [ 135.197446644, 34.059624283 ], [ 135.197327558000012, 34.059614539 ], [ 135.197143211, 34.059563902 ], [ 135.197097133, 34.059548047 ], [ 135.19700190099999, 34.059338394 ], [ 135.196698336999987, 34.058851298 ], [ 135.196534555, 34.058588927 ], [ 135.196287692999988, 34.058266178 ], [ 135.195954927, 34.057966836 ], [ 135.19548242, 34.057447613 ], [ 135.195545151, 34.057404971 ], [ 135.195614454, 34.057337527 ], [ 135.195610088, 34.057299758 ], [ 135.19562324, 34.057280054 ], [ 135.195688264000012, 34.057229847 ], [ 135.195769113000011, 34.057120068 ], [ 135.195791858, 34.057026335 ], [ 135.195948006, 34.056423839 ], [ 135.195998624999987, 34.056226499 ], [ 135.195899695, 34.056092496 ], [ 135.19562820499999, 34.055720155 ], [ 135.195483816, 34.055538718 ], [ 135.19526278699999, 34.055247443 ], [ 135.19513726400001, 34.055065608 ], [ 135.194999521, 34.054855998 ], [ 135.19473532, 34.05450814 ], [ 135.19450827599999, 34.054211225 ], [ 135.194301625, 34.053928105 ], [ 135.194145483999989, 34.053694121 ], [ 135.193800371, 34.053209331 ], [ 135.19366661399999, 34.053030855 ], [ 135.193619836000011, 34.052986149 ], [ 135.193518461, 34.052855701 ], [ 135.193173820999988, 34.052372664 ], [ 135.192811073, 34.051850288 ], [ 135.192669144, 34.051668343 ], [ 135.192521351000011, 34.05145562 ], [ 135.192367209, 34.051224989 ], [ 135.19216857, 34.050964118 ], [ 135.191894455000011, 34.050590865 ], [ 135.191604821999988, 34.050187658 ], [ 135.19140381299999, 34.049906892 ], [ 135.19135327399999, 34.049826299 ], [ 135.191250161999989, 34.049663392 ], [ 135.191191675, 34.049555424 ], [ 135.19109257, 34.049402789 ], [ 135.19102586, 34.049296474 ], [ 135.190981429, 34.049179087 ], [ 135.190892926, 34.048953129 ], [ 135.190795454000011, 34.048684232 ], [ 135.19069935600001, 34.048725703 ], [ 135.19057985399999, 34.048771483 ], [ 135.19046526, 34.048748747 ], [ 135.190417142, 34.048766525 ], [ 135.19040435799999, 34.048797609 ], [ 135.190399860000014, 34.048792197 ], [ 135.190374732, 34.048805825 ], [ 135.190372556999989, 34.048803359 ], [ 135.19032879, 34.048802079 ], [ 135.190214739999988, 34.048895209 ], [ 135.190170966000011, 34.04891059 ], [ 135.190017289, 34.048959967 ], [ 135.190010425999986, 34.04898806 ], [ 135.190003299000011, 34.049023319 ], [ 135.190006583000013, 34.049065273 ], [ 135.19001416, 34.049098835 ], [ 135.190013623, 34.049127934 ], [ 135.190017872999988, 34.04916856 ], [ 135.190036668, 34.049209273 ], [ 135.190047308, 34.049263501 ], [ 135.190071674, 34.04929473 ], [ 135.19010101500001, 34.049315272 ], [ 135.19012586299999, 34.049337976 ], [ 135.19013250399999, 34.049349208 ], [ 135.19014044799999, 34.049391995 ], [ 135.19015129600001, 34.049411865 ], [ 135.19016343199999, 34.049423819 ], [ 135.190182937, 34.049442304 ], [ 135.190224593000011, 34.049486864 ], [ 135.19024106, 34.049508178 ], [ 135.190248171, 34.049520017 ], [ 135.19025388, 34.049538167 ], [ 135.190258489, 34.049596855 ], [ 135.190277493999986, 34.049622332 ], [ 135.190277563, 34.049656097 ], [ 135.190280296, 34.049671676 ], [ 135.19028431800001, 34.049680385 ], [ 135.19029727, 34.049703361 ], [ 135.190307100000012, 34.049730068 ], [ 135.190313328, 34.049765415 ], [ 135.190321194, 34.049794759 ], [ 135.19033554399999, 34.049818817 ], [ 135.19036299699999, 34.049856946 ], [ 135.190372317999987, 34.049874534 ], [ 135.190379119999989, 34.049920099 ], [ 135.19037598599999, 34.049943258 ], [ 135.190373225, 34.04996486 ], [ 135.190372114000013, 34.049975708 ], [ 135.190368099000011, 34.050006164 ], [ 135.190360873, 34.050025689 ], [ 135.190352831000013, 34.050046715 ], [ 135.190351612, 34.050049647 ], [ 135.190324172, 34.050116183 ], [ 135.190320754999988, 34.050123553 ], [ 135.190301569000013, 34.050147797 ], [ 135.190302123, 34.050168176 ], [ 135.190299728000014, 34.050184307 ], [ 135.190296757999988, 34.050189066 ], [ 135.19030253, 34.050191403 ], [ 135.190604616, 34.050406914 ], [ 135.190618883000013, 34.050431774 ], [ 135.190559815, 34.050482325 ], [ 135.190568054000011, 34.050493018 ], [ 135.190582318, 34.050505689 ], [ 135.190600791, 34.050515313 ], [ 135.1906124, 34.050523512 ], [ 135.190625329999989, 34.050537464 ], [ 135.19063168, 34.050551985 ], [ 135.190633186000014, 34.050563382 ], [ 135.19062907899999, 34.050577203 ], [ 135.190628917, 34.050589707 ], [ 135.190629281000014, 34.050607299 ], [ 135.19063196, 34.050627458 ], [ 135.190635383, 34.050636497 ], [ 135.190636613, 34.050640463 ], [ 135.19063212, 34.050649368 ], [ 135.190633969, 34.05066923 ], [ 135.190593439999986, 34.050850951 ], [ 135.19059224099999, 34.050977161 ], [ 135.190881692, 34.051150342 ], [ 135.190912888000014, 34.051161646 ], [ 135.19110408, 34.051196371 ], [ 135.191133928999989, 34.051203509 ], [ 135.19114952000001, 34.051204207 ], [ 135.19116563, 34.051223219 ], [ 135.19117572499999, 34.051231129 ], [ 135.19123521899999, 34.051241789 ], [ 135.191295158, 34.051255726 ], [ 135.191296623, 34.051257656 ], [ 135.191267189, 34.051291271 ], [ 135.19121826599999, 34.051346919 ], [ 135.191144253, 34.051434841 ], [ 135.191102857, 34.051495119 ], [ 135.191117768, 34.051501168 ], [ 135.191156944, 34.051511658 ], [ 135.191159273000011, 34.051525315 ], [ 135.19114643399999, 34.051589549 ], [ 135.191144783999988, 34.051595642 ], [ 135.191143743, 34.051596879 ], [ 135.191119250000014, 34.05162455 ], [ 135.191054097, 34.051677224 ], [ 135.191045507000013, 34.051684128 ], [ 135.190996009, 34.051731784 ], [ 135.190981018, 34.05174199 ], [ 135.19096049699999, 34.051749501 ], [ 135.190918549, 34.051757231 ], [ 135.190845137, 34.051762472 ], [ 135.1908352, 34.051769737 ], [ 135.190850162, 34.051812769 ], [ 135.190871945999987, 34.051869594 ], [ 135.190880913, 34.051887937 ], [ 135.190894571, 34.051909701 ], [ 135.19091165099999, 34.051937213 ], [ 135.190916071, 34.05194395 ], [ 135.190944272, 34.05192843 ], [ 135.19096950299999, 34.05192233 ], [ 135.191018985, 34.051916236 ], [ 135.191144498999989, 34.051916512 ], [ 135.19115091899999, 34.051923677 ], [ 135.191150947000011, 34.051940077 ], [ 135.19139992699999, 34.051970556 ], [ 135.19140606900001, 34.05194444 ], [ 135.191457113000013, 34.051948045 ], [ 135.191543392999989, 34.05196496 ], [ 135.191621908, 34.051972016 ], [ 135.191676865, 34.051977281 ], [ 135.191723825999986, 34.051997207 ], [ 135.191739495, 34.052002214 ], [ 135.191701626999986, 34.052059181 ], [ 135.191628415999986, 34.052114281 ], [ 135.191569095, 34.05215476 ], [ 135.191551182000012, 34.052179163 ], [ 135.191554552000014, 34.052238036 ], [ 135.191563691999988, 34.052310025 ], [ 135.191590682, 34.052364149 ], [ 135.191624792, 34.052567825 ], [ 135.191633668, 34.052667603 ], [ 135.19195972, 34.052674651 ], [ 135.192009694, 34.052791046 ], [ 135.192024944, 34.052840189 ], [ 135.192174346, 34.053115037 ], [ 135.192220392, 34.053231407 ], [ 135.19227206799999, 34.053375604 ], [ 135.192311431, 34.053575302 ], [ 135.19236625, 34.053595279 ], [ 135.192652111, 34.053763141 ], [ 135.19267136799999, 34.053804136 ], [ 135.192666773000013, 34.0538744 ], [ 135.192658279999989, 34.053941369 ], [ 135.19267152, 34.053995403 ], [ 135.192814908, 34.054205592 ], [ 135.192812307999986, 34.054272599 ], [ 135.19278203799999, 34.05437304 ], [ 135.19276407800001, 34.054402348 ], [ 135.192731794, 34.054492046 ], [ 135.192731376000012, 34.054536182 ], [ 135.192761553, 34.054668794 ], [ 135.192772565000013, 34.054750604 ], [ 135.192778334, 34.05476372 ], [ 135.192781782999987, 34.054814419 ], [ 135.19276698199999, 34.055054084 ], [ 135.192791046, 34.055057107 ], [ 135.192955856999987, 34.055098294 ], [ 135.19307956, 34.055119159 ], [ 135.19315830799999, 34.055162645 ], [ 135.19320277599999, 34.055191584 ], [ 135.19322374399999, 34.055272613 ], [ 135.193260087, 34.055318004 ], [ 135.193331653, 34.055392954 ], [ 135.19335794, 34.055410029 ], [ 135.19348359899999, 34.055436665 ], [ 135.193546655, 34.055462612 ], [ 135.193585374, 34.055494881 ], [ 135.193622092, 34.055615437 ], [ 135.193814084, 34.055694042 ], [ 135.19390987700001, 34.055754827 ], [ 135.193978165, 34.055812568 ], [ 135.19408078699999, 34.055879128 ], [ 135.19414243599999, 34.055911043 ], [ 135.194155986, 34.055934049 ], [ 135.194066262, 34.055959242 ], [ 135.194041873, 34.055990594 ], [ 135.19402434, 34.056024854 ], [ 135.194030328, 34.056119427 ], [ 135.194039948000011, 34.05619397 ], [ 135.194039296999989, 34.056262717 ], [ 135.194085229, 34.056318879 ], [ 135.194098182, 34.056404903 ], [ 135.194110810000012, 34.056525301 ], [ 135.194137583000014, 34.056605686 ], [ 135.194168096, 34.056654585 ], [ 135.19418459900001, 34.056729174 ], [ 135.194201644, 34.056746474 ], [ 135.19430472799999, 34.056764337 ], [ 135.194387217000013, 34.056776336 ], [ 135.19434732799999, 34.056990923 ], [ 135.194707934, 34.057073496 ], [ 135.194984041999987, 34.057204035 ], [ 135.19491229499999, 34.0572921 ], [ 135.195258857, 34.05767064 ], [ 135.195386128, 34.057804274 ], [ 135.195430098, 34.057841452 ], [ 135.19546558799999, 34.057837995 ], [ 135.19552826200001, 34.057772004 ], [ 135.19557704799999, 34.057768635 ], [ 135.195612852000011, 34.05773198 ], [ 135.19563895499999, 34.057783796 ], [ 135.19579711, 34.057932388 ], [ 135.195911086, 34.058065935 ], [ 135.196069032999986, 34.058236659 ], [ 135.196139108000011, 34.058325651 ], [ 135.196041188, 34.058369278 ], [ 135.196168007000011, 34.058550865 ], [ 135.196314784, 34.058496491 ], [ 135.196358755, 34.058533667 ], [ 135.19653775, 34.058822574 ], [ 135.196439899000012, 34.058858824 ], [ 135.19641753, 34.058880811 ], [ 135.19649085399999, 34.059095248 ], [ 135.196517446, 34.059095422 ], [ 135.196557688000013, 34.059293043 ], [ 135.19656495000001, 34.059462781 ], [ 135.196527475000011, 34.059676493 ], [ 135.19665122399999, 34.059714192 ], [ 135.19657961499999, 34.059787502 ], [ 135.196570264, 34.059839086 ], [ 135.196555714999988, 34.059971792 ], [ 135.196506649000014, 34.060004672 ], [ 135.19622185099999, 34.060124544 ], [ 135.196163711999986, 34.060179498 ], [ 135.19618818, 34.060404682 ], [ 135.196230968, 34.060567275 ], [ 135.19617080399999, 34.060601926 ], [ 135.19623627499999, 34.060709333 ], [ 135.196213, 34.060827227 ], [ 135.196363273, 34.060872477 ], [ 135.19649962299999, 34.060984036 ], [ 135.196570048000012, 34.061036141 ], [ 135.19695968799999, 34.061079266 ], [ 135.19704424599999, 34.061042929 ], [ 135.196996224, 34.060965148 ], [ 135.197160661999987, 34.060918266 ], [ 135.197191965, 34.060888959 ], [ 135.197179365000011, 34.060815098 ], [ 135.197285873, 34.060801038 ], [ 135.197285282, 34.060863746 ], [ 135.197316132999987, 34.060882392 ], [ 135.19734043, 34.06112602 ], [ 135.197395147, 34.061380799 ] ] ] } },
{ "type": "Feature", "properties": { "A29_001": "30366", "A29_002": "和歌山県", "A29_003": "有田川町", "A29_004": 6, "A29_005": "第二種住居地域", "A29_006": 60, "A29_007": 200, "A29_008": null }, "geometry": { "type": "Polygon", "coordinates": [ [ [ 135.243556995, 34.065999368 ], [ 135.243594532, 34.065919177 ], [ 135.243697018, 34.065821175 ], [ 135.24377381, 34.065755892 ], [ 135.243850517999988, 34.065700003 ], [ 135.24401864, 34.065624833 ], [ 135.24422514, 34.065574439 ], [ 135.244454012, 34.065547665 ], [ 135.244354455, 34.065402807 ], [ 135.244281066000013, 34.065315478 ], [ 135.244216693999988, 34.065168088 ], [ 135.24393965199999, 34.065282144 ], [ 135.24357885, 34.065420272 ], [ 135.243160598, 34.065587159 ], [ 135.242733195, 34.065755327 ], [ 135.242566635, 34.065810504 ], [ 135.242544501999987, 34.065816126 ], [ 135.242377521, 34.065858542 ], [ 135.242141385, 34.065902349 ], [ 135.241633038, 34.066004182 ], [ 135.241533354000012, 34.066024263 ], [ 135.24139559599999, 34.066051432 ], [ 135.241090234000012, 34.066081897 ], [ 135.24057738, 34.06613851 ], [ 135.239971488, 34.066199 ], [ 135.239522, 34.066224189 ], [ 135.239166481000012, 34.066237689 ], [ 135.238984547, 34.066250569 ], [ 135.238855355, 34.066266037 ], [ 135.23868183, 34.066307333 ], [ 135.23823166599999, 34.066402649 ], [ 135.23767182899999, 34.066515411 ], [ 135.237237149, 34.06659726 ], [ 135.237035717999987, 34.066627542 ], [ 135.236829733, 34.066647229 ], [ 135.236748511, 34.066654992 ], [ 135.236544466999987, 34.066661104 ], [ 135.236375379, 34.066665168 ], [ 135.23611071799999, 34.066668584 ], [ 135.235722664, 34.066660826 ], [ 135.235435403, 34.06664684 ], [ 135.23508891899999, 34.066599509 ], [ 135.234760719, 34.066558038 ], [ 135.233984004, 34.066470047 ], [ 135.23383057800001, 34.066448176 ], [ 135.233740786, 34.066427384 ], [ 135.233355668, 34.066304773 ], [ 135.233282315, 34.066464347 ], [ 135.23322550200001, 34.066555753 ], [ 135.23308219899999, 34.066788046 ], [ 135.233536565, 34.066926342 ], [ 135.23387503399999, 34.066980152 ], [ 135.234664462000012, 34.067071014 ], [ 135.235172368, 34.067147577 ], [ 135.235536231, 34.067181974 ], [ 135.235823810999989, 34.067182533 ], [ 135.236368314, 34.067170299 ], [ 135.236670245, 34.067169381 ], [ 135.23702098699999, 34.067144305 ], [ 135.23725188099999, 34.067120337 ], [ 135.237777427, 34.067021836 ], [ 135.238819522999989, 34.066808559 ], [ 135.239027599, 34.066764252 ], [ 135.239215051, 34.06674708 ], [ 135.239424323, 34.066735945 ], [ 135.23975938000001, 34.066724996 ], [ 135.240100352000013, 34.066705401 ], [ 135.240482656000012, 34.066668041 ], [ 135.24121085499999, 34.066593929 ], [ 135.24155534499999, 34.066547445 ], [ 135.242003103, 34.066464696 ], [ 135.24234536099999, 34.06639312 ], [ 135.24269343, 34.066318916 ], [ 135.242915001999989, 34.066247339 ], [ 135.243194882000012, 34.066137045 ], [ 135.243556995, 34.065999368 ] ] ] } },
{ "type": "Feature", "properties": { "A29_001": "30366", "A29_002": "和歌山県", "A29_003": "有田川町", "A29_004": 8, "A29_005": "近隣商業地域", "A29_006": 80, "A29_007": 200, "A29_008": null }, "geometry": { "type": "Polygon", "coordinates": [ [ [ 135.251069495, 34.062408864 ], [ 135.25060593, 34.06228591 ], [ 135.250420792999989, 34.062550947 ], [ 135.25017754699999, 34.062849756 ], [ 135.25001556, 34.063061413 ], [ 135.2499458, 34.063141423 ], [ 135.249847896, 34.063208908 ], [ 135.24978319600001, 34.063242467 ], [ 135.249634625, 34.06329776 ], [ 135.24948979199999, 34.063336947 ], [ 135.248809418, 34.063470868 ], [ 135.248091703999989, 34.063610279 ], [ 135.247887995000013, 34.063656173 ], [ 135.247505566, 34.063764111 ], [ 135.247036398, 34.063913228 ], [ 135.24677918399999, 34.063998686 ], [ 135.246333560000011, 34.064209275 ], [ 135.245938009000014, 34.064419102 ], [ 135.245575886000012, 34.064601629 ], [ 135.245348412999988, 34.064706872 ], [ 135.24503220299999, 34.064834729 ], [ 135.245032134000013, 34.064834756 ], [ 135.244683263000013, 34.064975918 ], [ 135.244321856, 34.065124793 ], [ 135.244216693999988, 34.065168088 ], [ 135.244281066000013, 34.065315478 ], [ 135.244354455, 34.065402807 ], [ 135.244831831999988, 34.065199237 ], [ 135.2450733, 34.065104561 ], [ 135.24580471499999, 34.064792744 ], [ 135.246102318999988, 34.064657144 ], [ 135.246235066, 34.064643771 ], [ 135.246601852, 34.064518334 ], [ 135.246894246000011, 34.064449189 ], [ 135.24712884499999, 34.064418779 ], [ 135.24750982399999, 34.064402195 ], [ 135.247902044999989, 34.064399867 ], [ 135.248854642999987, 34.064394587 ], [ 135.24890335500001, 34.064696744 ], [ 135.24891132499999, 34.064867041 ], [ 135.24904360299999, 34.065121646 ], [ 135.249208544, 34.065110043 ], [ 135.249247270000012, 34.065162307 ], [ 135.249434318999988, 34.065076558 ], [ 135.24963301, 34.064950958 ], [ 135.249732439000013, 34.064878765 ], [ 135.24987781199999, 34.064717613 ], [ 135.250009073, 34.064556374 ], [ 135.250127142, 34.064410388 ], [ 135.25059530499999, 34.063492671 ], [ 135.250750176, 34.063214156 ], [ 135.250825728, 34.063011412 ], [ 135.250869386, 34.062861381 ], [ 135.250984225, 34.062641331 ], [ 135.251053512, 34.062465623 ], [ 135.251069495, 34.062408864 ] ] ] } },
{ "type": "Feature", "properties": { "A29_001": "30366", "A29_002": "和歌山県", "A29_003": "有田川町", "A29_004": 8, "A29_005": "近隣商業地域", "A29_006": 80, "A29_007": 200, "A29_008": null }, "geometry": { "type": "Polygon", "coordinates": [ [ [ 135.217853359, 34.067824877 ], [ 135.21793888, 34.067799916 ], [ 135.218071342, 34.067805943 ], [ 135.218169292, 34.067816213 ], [ 135.218248573000011, 34.067827852 ], [ 135.21832115699999, 34.067843334 ], [ 135.218481384, 34.067895491 ], [ 135.218553781999987, 34.06792418 ], [ 135.218832373, 34.068039033 ], [ 135.219144027999988, 34.068211322 ], [ 135.219302152000012, 34.068274889 ], [ 135.219484727, 34.068404649 ], [ 135.21951813699999, 34.068404862 ], [ 135.21975204, 34.068402871 ], [ 135.219922673000013, 34.068358065 ], [ 135.219880029, 34.067874778 ], [ 135.219860842, 34.067710124 ], [ 135.2198615, 34.067638273 ], [ 135.21985018699999, 34.067550847 ], [ 135.21977418, 34.067348557 ], [ 135.21969797700001, 34.067221559 ], [ 135.219672870000011, 34.06717435 ], [ 135.219658514, 34.067137309 ], [ 135.21964592099999, 34.067081145 ], [ 135.219616136000013, 34.066929662 ], [ 135.219553708, 34.066744973 ], [ 135.219495924, 34.0666446 ], [ 135.219426489999989, 34.066509493 ], [ 135.219350663, 34.066343298 ], [ 135.219492342, 34.066333217 ], [ 135.21979982799999, 34.066333216 ], [ 135.22039608, 34.066328901 ], [ 135.220869177, 34.066323863 ], [ 135.220805954000014, 34.06609922 ], [ 135.22080130399999, 34.065998835 ], [ 135.220777739, 34.065814131 ], [ 135.220386190999989, 34.065815389 ], [ 135.220054543, 34.065819326 ], [ 135.219610264000011, 34.065818537 ], [ 135.219426188999989, 34.065823747 ], [ 135.21899592, 34.065847688 ], [ 135.218662576000014, 34.065865512 ], [ 135.218510129, 34.065870136 ], [ 135.218425758, 34.065868106 ], [ 135.218396425, 34.065863607 ], [ 135.218353423, 34.065847378 ], [ 135.21829389199999, 34.065804559 ], [ 135.218142597999986, 34.06570812 ], [ 135.218010232000012, 34.065620091 ], [ 135.217795658999989, 34.065438818 ], [ 135.217652023, 34.065377919 ], [ 135.21748329799999, 34.065359639 ], [ 135.217288586, 34.065342959 ], [ 135.21722725399999, 34.065332834 ], [ 135.217075412000014, 34.0652785 ], [ 135.216947159999989, 34.065226682 ], [ 135.21693511699999, 34.065219779 ], [ 135.216600029, 34.065316945 ], [ 135.216736469000011, 34.065418205 ], [ 135.216663606, 34.065468709 ], [ 135.21655912899999, 34.065525188 ], [ 135.216435431, 34.06556411 ], [ 135.216762171, 34.065726773 ], [ 135.216906431000012, 34.065784078 ], [ 135.217054674, 34.065820734 ], [ 135.217188593, 34.065836797 ], [ 135.217339783, 34.065847594 ], [ 135.217395759, 34.065855722 ], [ 135.217427105000013, 34.065864356 ], [ 135.217452142000013, 34.065876057 ], [ 135.217530297, 34.065930824 ], [ 135.217716904000014, 34.06606455 ], [ 135.217834571999987, 34.066153454 ], [ 135.217912566, 34.066850078 ], [ 135.218208529, 34.066828173 ], [ 135.218278235000014, 34.067416407 ], [ 135.218279975, 34.067491112 ], [ 135.218279419, 34.067551671 ], [ 135.218271657, 34.06760411 ], [ 135.218234854, 34.067648288 ], [ 135.218169009, 34.067684207 ], [ 135.218091218000012, 34.067699862 ], [ 135.217991329, 34.067743639 ], [ 135.217853359, 34.067824877 ] ] ] } },
{ "type": "Feature", "properties": { "A29_001": "30366", "A29_002": "和歌山県", "A29_003": "有田川町", "A29_004": 8, "A29_005": "近隣商業地域", "A29_006": 80, "A29_007": 200, "A29_008": null }, "geometry": { "type": "Polygon", "coordinates": [ [ [ 135.199832187999988, 34.063273307 ], [ 135.19992814299999, 34.063581517 ], [ 135.199978711, 34.063787853 ], [ 135.200257955000012, 34.063743976 ], [ 135.200583225, 34.063668322 ], [ 135.200776754, 34.063617488 ], [ 135.20096965, 34.06355873 ], [ 135.201135045, 34.063497473 ], [ 135.201433608, 34.063402763 ], [ 135.20159479099999, 34.063351082 ], [ 135.201692928, 34.063330532 ], [ 135.201776247, 34.063318487 ], [ 135.202013470999987, 34.063307683 ], [ 135.20241268800001, 34.063278359 ], [ 135.202610443, 34.063252993 ], [ 135.202879889, 34.063208252 ], [ 135.202932784000012, 34.063199469 ], [ 135.20313950100001, 34.063172387 ], [ 135.203284852, 34.063166613 ], [ 135.20344624, 34.063178129 ], [ 135.203665695000012, 34.063208726 ], [ 135.204047394000014, 34.063266597 ], [ 135.20496992599999, 34.063401031 ], [ 135.205320511, 34.063442819 ], [ 135.205492986, 34.06344404 ], [ 135.205770051, 34.063424888 ], [ 135.20631592, 34.063412197 ], [ 135.206951491000012, 34.063399891 ], [ 135.207253697999988, 34.063399936 ], [ 135.207364531, 34.063414329 ], [ 135.20778710799999, 34.063474032 ], [ 135.208935136, 34.063656939 ], [ 135.208959811999989, 34.063538983 ], [ 135.208972431, 34.063406425 ], [ 135.208981489, 34.063248581 ], [ 135.208990316000012, 34.063137351 ], [ 135.20794769299999, 34.062985862 ], [ 135.207224577, 34.062870878 ], [ 135.20683588599999, 34.06286829 ], [ 135.20616411899999, 34.062891157 ], [ 135.20584583199999, 34.062911444 ], [ 135.20550995100001, 34.062913209 ], [ 135.205346152, 34.06290831 ], [ 135.20519052099999, 34.062897914 ], [ 135.204919321, 34.062864731 ], [ 135.20462937, 34.06282191 ], [ 135.204166023, 34.062761101 ], [ 135.203605001999989, 34.062677512 ], [ 135.203398037, 34.062647826 ], [ 135.20310871800001, 34.062653244 ], [ 135.202835333, 34.062689334 ], [ 135.202803335999988, 34.062693558 ], [ 135.202461543, 34.062749923 ], [ 135.202225661999989, 34.062771238 ], [ 135.201874584, 34.062787207 ], [ 135.20173661699999, 34.062795309 ], [ 135.201590235, 34.062812721 ], [ 135.20140079, 34.06284203 ], [ 135.201219447999989, 34.062891823 ], [ 135.200844694000011, 34.063023179 ], [ 135.200696069, 34.063075273 ], [ 135.200404780000014, 34.06316252 ], [ 135.200179615, 34.063222703 ], [ 135.200027541, 34.063251953 ], [ 135.199832187999988, 34.063273307 ] ] ] } },
{ "type": "Feature", "properties": { "A29_001": "30366", "A29_002": "和歌山県", "A29_003": "有田川町", "A29_004": 8, "A29_005": "近隣商業地域", "A29_006": 80, "A29_007": 200, "A29_008": null }, "geometry": { "type": "Polygon", "coordinates": [ [ [ 135.19548242, 34.057447613 ], [ 135.195954927, 34.057966836 ], [ 135.196287692999988, 34.058266178 ], [ 135.196534555, 34.058588927 ], [ 135.196698336999987, 34.058851298 ], [ 135.19700190099999, 34.059338394 ], [ 135.197097133, 34.059548047 ], [ 135.197143211, 34.059563902 ], [ 135.197327558000012, 34.059614539 ], [ 135.197446644, 34.059624283 ], [ 135.197524348, 34.059625453 ], [ 135.197581417, 34.059618171 ], [ 135.197669781, 34.0595983 ], [ 135.19784751899999, 34.059575596 ], [ 135.197883187, 34.059571384 ], [ 135.19790820899999, 34.059511364 ], [ 135.197936793, 34.059496734 ], [ 135.19798987499999, 34.059590585 ], [ 135.198354136, 34.059443519 ], [ 135.197922328, 34.058824517 ], [ 135.197732362000011, 34.058510774 ], [ 135.197626394, 34.058212947 ], [ 135.197435238999986, 34.057945899 ], [ 135.197096883, 34.05748091 ], [ 135.196995890000011, 34.057526358 ], [ 135.196580323, 34.056961211 ], [ 135.196362308, 34.056723079 ], [ 135.19625893599999, 34.056585789 ], [ 135.196098909, 34.056362746 ], [ 135.195998624999987, 34.056226499 ], [ 135.195948006, 34.056423839 ], [ 135.195791858, 34.057026335 ], [ 135.195769113000011, 34.057120068 ], [ 135.195688264000012, 34.057229847 ], [ 135.19562324, 34.057280054 ], [ 135.195610088, 34.057299758 ], [ 135.195614454, 34.057337527 ], [ 135.195545151, 34.057404971 ], [ 135.19548242, 34.057447613 ] ] ] } },
{ "type": "Feature", "properties": { "A29_001": "30366", "A29_002": "和歌山県", "A29_003": "有田川町", "A29_004": 5, "A29_005": "第一種住居地域", "A29_006": 60, "A29_007": 200, "A29_008": null }, "geometry": { "type": "Polygon", "coordinates": [ [ [ 135.197213612000013, 34.055507037 ], [ 135.19725177399999, 34.055465561 ], [ 135.197418895, 34.055339845 ], [ 135.197436231000012, 34.055341599 ], [ 135.197501757, 34.055305621 ], [ 135.197589678000014, 34.055235709 ], [ 135.19759191599999, 34.055222353 ], [ 135.19763852599999, 34.05520056 ], [ 135.19777461000001, 34.055179711 ], [ 135.197794292, 34.055170454 ], [ 135.197856965999989, 34.055138199 ], [ 135.19792299400001, 34.055123664 ], [ 135.19803353899999, 34.055111682 ], [ 135.198064941000013, 34.055116304 ], [ 135.198139434000012, 34.055144856 ], [ 135.19821424, 34.05511607 ], [ 135.19824427399999, 34.055111794 ], [ 135.198263314, 34.055120177 ], [ 135.198350731, 34.055176185 ], [ 135.198381399999988, 34.055159697 ], [ 135.198481936, 34.055140887 ], [ 135.198521, 34.055142711 ], [ 135.198643831999988, 34.055139518 ], [ 135.19869393499999, 34.055148193 ], [ 135.198806953, 34.055120908 ], [ 135.198938233, 34.055093689 ], [ 135.19896733600001, 34.055078957 ], [ 135.19902871, 34.055097407 ], [ 135.199040435, 34.055077324 ], [ 135.19906269399999, 34.055057761 ], [ 135.199116612000012, 34.055025889 ], [ 135.19912903299999, 34.054985967 ], [ 135.199154983, 34.054902235 ], [ 135.199049003, 34.054883034 ], [ 135.19901109700001, 34.054873048 ], [ 135.198936804, 34.054849505 ], [ 135.19888218299999, 34.05482596 ], [ 135.19878433400001, 34.054776925 ], [ 135.198752312000011, 34.054756422 ], [ 135.19864813699999, 34.054671698 ], [ 135.198625698, 34.054651644 ], [ 135.198589946, 34.054615492 ], [ 135.198317527, 34.054474964 ], [ 135.198183433, 34.054361623 ], [ 135.197894593, 34.054087175 ], [ 135.19777702, 34.053924946 ], [ 135.197656560000013, 34.053784968 ], [ 135.197538495, 34.053675071 ], [ 135.197322816, 34.05349366 ], [ 135.197228932, 34.053373899 ], [ 135.19714449899999, 34.053245292 ], [ 135.196997814000014, 34.052998595 ], [ 135.19692095900001, 34.052917919 ], [ 135.196815804000011, 34.052858215 ], [ 135.196683834, 34.052803903 ], [ 135.196655838999988, 34.052792585 ], [ 135.196588792999989, 34.052665204 ], [ 135.196425455999986, 34.052607911 ], [ 135.196357643, 34.052561813 ], [ 135.196262077, 34.052478787 ], [ 135.196202492, 34.052411585 ], [ 135.196140442, 34.052322097 ], [ 135.196086494000014, 34.052224867 ], [ 135.196053713999987, 34.052153387 ], [ 135.196047517000011, 34.05210101 ], [ 135.19604777399999, 34.05203015 ], [ 135.19576970899999, 34.051859075 ], [ 135.195639174, 34.051794749 ], [ 135.19542680699999, 34.051677118 ], [ 135.195377423999986, 34.051663433 ], [ 135.19523832499999, 34.051655841 ], [ 135.195180913, 34.051642103 ], [ 135.195085001, 34.05159582 ], [ 135.194971915999986, 34.051526041 ], [ 135.194952118, 34.051496959 ], [ 135.194915314000013, 34.051426566 ], [ 135.19488676, 34.051332842 ], [ 135.19485641599999, 34.051132473 ], [ 135.19474457199999, 34.050789886 ], [ 135.19471875799999, 34.050689499 ], [ 135.194665616, 34.050574852 ], [ 135.194578428999989, 34.050455133 ], [ 135.194530606, 34.050418073 ], [ 135.194469223, 34.050399855 ], [ 135.194394268999986, 34.05040159 ], [ 135.194346098000011, 34.050401275 ], [ 135.194279353000013, 34.050384134 ], [ 135.194212658999987, 34.050361427 ], [ 135.19415672299999, 34.050333222 ], [ 135.194122281, 34.050296249 ], [ 135.194066776999989, 34.050222392 ], [ 135.194023410999989, 34.050138593 ], [ 135.193964125, 34.050040214 ], [ 135.193930908999988, 34.050009868 ], [ 135.19389627699999, 34.049992938 ], [ 135.193849382, 34.049999312 ], [ 135.193761145, 34.050030732 ], [ 135.193574751999989, 34.050071824 ], [ 135.19331459599999, 34.050130248 ], [ 135.193107739999988, 34.050133424 ], [ 135.192993961000013, 34.050137131 ], [ 135.19287749599999, 34.050141934 ], [ 135.19275651, 34.050200157 ], [ 135.192623618999988, 34.050243825 ], [ 135.192562869999989, 34.050158798 ], [ 135.192455668, 34.050033378 ], [ 135.19237033600001, 34.04992985 ], [ 135.192183073, 34.04978052 ], [ 135.192127317, 34.049733385 ], [ 135.192055833000012, 34.049651628 ], [ 135.191990753999988, 34.049599977 ], [ 135.191830896999988, 34.049467899 ], [ 135.191752543, 34.049405026 ], [ 135.191668721000013, 34.049354366 ], [ 135.191576859, 34.049304766 ], [ 135.191537003, 34.049274439 ], [ 135.191479963, 34.049221728 ], [ 135.191341701999988, 34.049085681 ], [ 135.191219415, 34.048999134 ], [ 135.191162302, 34.048954217 ], [ 135.191119875, 34.048912737 ], [ 135.191090935, 34.048860211 ], [ 135.191063329, 34.048753903 ], [ 135.191045078, 34.048703117 ], [ 135.191014805, 34.048650026 ], [ 135.190989814, 34.048622023 ], [ 135.190918114, 34.04856309 ], [ 135.190912134, 34.048569561 ], [ 135.190906697, 34.048578595 ], [ 135.190889252, 34.048610153 ], [ 135.190795454000011, 34.048684232 ], [ 135.190892926, 34.048953129 ], [ 135.190981429, 34.049179087 ], [ 135.19102586, 34.049296474 ], [ 135.19109257, 34.049402789 ], [ 135.191191675, 34.049555424 ], [ 135.191250161999989, 34.049663392 ], [ 135.19135327399999, 34.049826299 ], [ 135.19140381299999, 34.049906892 ], [ 135.191604821999988, 34.050187658 ], [ 135.191894455000011, 34.050590865 ], [ 135.19216857, 34.050964118 ], [ 135.192367209, 34.051224989 ], [ 135.192521351000011, 34.05145562 ], [ 135.192669144, 34.051668343 ], [ 135.192811073, 34.051850288 ], [ 135.193173820999988, 34.052372664 ], [ 135.193518461, 34.052855701 ], [ 135.193619836000011, 34.052986149 ], [ 135.19366661399999, 34.053030855 ], [ 135.193800371, 34.053209331 ], [ 135.194145483999989, 34.053694121 ], [ 135.194301625, 34.053928105 ], [ 135.19450827599999, 34.054211225 ], [ 135.19473532, 34.05450814 ], [ 135.194999521, 34.054855998 ], [ 135.19513726400001, 34.055065608 ], [ 135.19526278699999, 34.055247443 ], [ 135.195483816, 34.055538718 ], [ 135.195583672999987, 34.05546245 ], [ 135.195705108999988, 34.055378015 ], [ 135.195808475, 34.055365257 ], [ 135.19600667099999, 34.055347613 ], [ 135.196218327, 34.055350891 ], [ 135.19640453400001, 34.055397565 ], [ 135.196858692, 34.055512279 ], [ 135.197213612000013, 34.055507037 ] ] ] } },
{ "type": "Feature", "properties": { "A29_001": "30366", "A29_002": "和歌山県", "A29_003": "有田川町", "A29_004": 5, "A29_005": "第一種住居地域", "A29_006": 60, "A29_007": 200, "A29_008": null }, "geometry": { "type": "Polygon", "coordinates": [ [ [ 135.200844694000011, 34.063023179 ], [ 135.201219447999989, 34.062891823 ], [ 135.20140079, 34.06284203 ], [ 135.201590235, 34.062812721 ], [ 135.20173661699999, 34.062795309 ], [ 135.201874584, 34.062787207 ], [ 135.202225661999989, 34.062771238 ], [ 135.202461543, 34.062749923 ], [ 135.202803335999988, 34.062693558 ], [ 135.202835333, 34.062689334 ], [ 135.202791803999986, 34.06241352 ], [ 135.202771358, 34.062319599 ], [ 135.202737187, 34.062230186 ], [ 135.202723881999987, 34.062187007 ], [ 135.202722276, 34.06204706 ], [ 135.20273193700001, 34.061991356 ], [ 135.202775287, 34.06191686 ], [ 135.20280921299999, 34.061872721 ], [ 135.202818957, 34.061808146 ], [ 135.202844035999988, 34.061569303 ], [ 135.202818470000011, 34.061371422 ], [ 135.20278736099999, 34.061277431 ], [ 135.20271562100001, 34.061109156 ], [ 135.20255138600001, 34.060916712 ], [ 135.202460991, 34.060794898 ], [ 135.20236315, 34.060827522 ], [ 135.202093273, 34.060961468 ], [ 135.201991748000012, 34.061045953 ], [ 135.20195565, 34.061144166 ], [ 135.201950869, 34.061275143 ], [ 135.20196218800001, 34.0614322 ], [ 135.201964715, 34.061674344 ], [ 135.201941385, 34.061756161 ], [ 135.201870336000013, 34.061830201 ], [ 135.201796151999986, 34.061897568 ], [ 135.20163509299999, 34.062021577 ], [ 135.201533691, 34.062092758 ], [ 135.201459430999989, 34.062149737 ], [ 135.201273476000011, 34.062200413 ], [ 135.201187049999987, 34.062209164 ], [ 135.201148526999987, 34.062224878 ], [ 135.20108408499999, 34.062276343 ], [ 135.201009750999987, 34.062359673 ], [ 135.20092841799999, 34.062458396 ], [ 135.20084887499999, 34.062926169 ], [ 135.200844694000011, 34.063023179 ] ] ] } },
{ "type": "Feature", "properties": { "A29_001": "30366", "A29_002": "和歌山県", "A29_003": "有田川町", "A29_004": 5, "A29_005": "第一種住居地域", "A29_006": 60, "A29_007": 200, "A29_008": null }, "geometry": { "type": "Polygon", "coordinates": [ [ [ 135.20321751099999, 34.064159951 ], [ 135.203192871999988, 34.06412597 ], [ 135.203152440999986, 34.064037656 ], [ 135.20307868399999, 34.063931449 ], [ 135.203038416999988, 34.063841008 ], [ 135.202965592, 34.063635297 ], [ 135.202951487, 34.063545025 ], [ 135.202900038, 34.063451401 ], [ 135.202878312, 34.063376628 ], [ 135.202879889, 34.063208252 ], [ 135.202610443, 34.063252993 ], [ 135.20241268800001, 34.063278359 ], [ 135.202013470999987, 34.063307683 ], [ 135.201776247, 34.063318487 ], [ 135.201692928, 34.063330532 ], [ 135.20159479099999, 34.063351082 ], [ 135.201433608, 34.063402763 ], [ 135.201135045, 34.063497473 ], [ 135.20096965, 34.06355873 ], [ 135.200776754, 34.063617488 ], [ 135.200583225, 34.063668322 ], [ 135.200257955000012, 34.063743976 ], [ 135.199978711, 34.063787853 ], [ 135.20002258299999, 34.063966868 ], [ 135.20004445, 34.064127943 ], [ 135.200289548, 34.064992773 ], [ 135.201274351, 34.064900331 ], [ 135.201781748, 34.064858291 ], [ 135.201680915, 34.064747253 ], [ 135.201662872000014, 34.064707219 ], [ 135.201675013, 34.06467576 ], [ 135.201713453, 34.064618847 ], [ 135.20197667299999, 34.064592961 ], [ 135.202204432, 34.064558959 ], [ 135.202503667, 34.064482056 ], [ 135.202633235, 34.064453031 ], [ 135.202804026, 34.064430486 ], [ 135.202970134, 34.064401996 ], [ 135.203086401, 34.064383039 ], [ 135.203234189, 34.064385634 ], [ 135.203234226, 34.064238229 ], [ 135.203231824, 34.064208062 ], [ 135.20321751099999, 34.064159951 ] ] ] } },
{ "type": "Feature", "properties": { "A29_001": "30366", "A29_002": "和歌山県", "A29_003": "有田川町", "A29_004": 5, "A29_005": "第一種住居地域", "A29_006": 60, "A29_007": 200, "A29_008": null }, "geometry": { "type": "Polygon", "coordinates": [ [ [ 135.208891165000011, 34.064070323 ], [ 135.209047938999987, 34.064041151 ], [ 135.209278441, 34.063996931 ], [ 135.209337823999988, 34.063990283 ], [ 135.209383425, 34.063990576 ], [ 135.209443407, 34.064004759 ], [ 135.209521978999987, 34.064025961 ], [ 135.209573541999987, 34.064053886 ], [ 135.209660086000014, 34.064109632 ], [ 135.20975500099999, 34.064156807 ], [ 135.20979628, 34.064176044 ], [ 135.209881071000012, 34.064197284 ], [ 135.209980436, 34.064211721 ], [ 135.210015593, 34.06422057 ], [ 135.210052759, 34.06423633 ], [ 135.210135382, 34.064267905 ], [ 135.210273761, 34.064322258 ], [ 135.210367647999988, 34.064365013 ], [ 135.21043781899999, 34.064398232 ], [ 135.210549493, 34.064426544 ], [ 135.21059078799999, 34.064444055 ], [ 135.210675516, 34.064472194 ], [ 135.210731363, 34.064793676 ], [ 135.211040319, 34.06475512 ], [ 135.211159619, 34.06473449 ], [ 135.21138341299999, 34.064684125 ], [ 135.211528407, 34.064777937 ], [ 135.211652222999987, 34.064854181 ], [ 135.211781495, 34.064925954 ], [ 135.211909569999989, 34.064980829 ], [ 135.212029566000012, 34.065031147 ], [ 135.212169823000011, 34.065086099 ], [ 135.21226832, 34.065119388 ], [ 135.212400717, 34.065146136 ], [ 135.212388401, 34.065216085 ], [ 135.212390795, 34.065249883 ], [ 135.21241614600001, 34.065289459 ], [ 135.21255006199999, 34.065444594 ], [ 135.212684841999987, 34.065652661 ], [ 135.212753456, 34.065759458 ], [ 135.212848794, 34.065738307 ], [ 135.21289954400001, 34.065718878 ], [ 135.21295394500001, 34.065693478 ], [ 135.21302358, 34.065657328 ], [ 135.213070109, 34.065644499 ], [ 135.213115921999986, 34.065635281 ], [ 135.213221839, 34.065617747 ], [ 135.213294593, 34.065587496 ], [ 135.21342221099999, 34.065562744 ], [ 135.21356682199999, 34.065542032 ], [ 135.213580543, 34.065649245 ], [ 135.213725108, 34.06561344 ], [ 135.213846063, 34.065567683 ], [ 135.213882504, 34.065552625 ], [ 135.21396575899999, 34.065523198 ], [ 135.21421239899999, 34.065448321 ], [ 135.21430164099999, 34.065522614 ], [ 135.214309442, 34.065529561 ], [ 135.214403446, 34.0654329 ], [ 135.214541937, 34.065623324 ], [ 135.214623542999988, 34.065738599 ], [ 135.214742066000014, 34.06590347 ], [ 135.214751213999989, 34.065913545 ], [ 135.214845528000012, 34.065854813 ], [ 135.214909795000011, 34.065824403 ], [ 135.215024532, 34.065798985 ], [ 135.21519428, 34.065772984 ], [ 135.215314363, 34.065776553 ], [ 135.215409892, 34.065778575 ], [ 135.215426021000013, 34.06579872 ], [ 135.215470262999986, 34.065869452 ], [ 135.215530659, 34.065932885 ], [ 135.215554778000012, 34.065943011 ], [ 135.21560872500001, 34.066002156 ], [ 135.215649590999988, 34.066081855 ], [ 135.215701701, 34.066159336 ], [ 135.215748735, 34.066205671 ], [ 135.215719486000012, 34.066379582 ], [ 135.215730473, 34.066382841 ], [ 135.215965919000013, 34.066402501 ], [ 135.216166285000014, 34.066424723 ], [ 135.21633983699999, 34.066435305 ], [ 135.216339201000011, 34.066504414 ], [ 135.21634031100001, 34.066627704 ], [ 135.216366236999988, 34.066738077 ], [ 135.216419499000011, 34.066805662 ], [ 135.216470791, 34.066843347 ], [ 135.21667829099999, 34.066984764 ], [ 135.216812237, 34.067067806 ], [ 135.21703557399999, 34.067196248 ], [ 135.217165754, 34.06727824 ], [ 135.217228186, 34.067325335 ], [ 135.217256185999986, 34.0674544 ], [ 135.21727832799999, 34.067488164 ], [ 135.217318463999987, 34.067518307 ], [ 135.217378789, 34.067550445 ], [ 135.21736495799999, 34.067589584 ], [ 135.217337691000012, 34.067624901 ], [ 135.21732399699999, 34.067649097 ], [ 135.21729854599999, 34.067731123 ], [ 135.217291569999986, 34.06775723 ], [ 135.217292802, 34.067867445 ], [ 135.217301969, 34.067894321 ], [ 135.217664584, 34.067844223 ], [ 135.217853359, 34.067824877 ], [ 135.217991329, 34.067743639 ], [ 135.218091218000012, 34.067699862 ], [ 135.218169009, 34.067684207 ], [ 135.218234854, 34.067648288 ], [ 135.218271657, 34.06760411 ], [ 135.218279419, 34.067551671 ], [ 135.218279975, 34.067491112 ], [ 135.218278235000014, 34.067416407 ], [ 135.218208529, 34.066828173 ], [ 135.217912566, 34.066850078 ], [ 135.217834571999987, 34.066153454 ], [ 135.217716904000014, 34.06606455 ], [ 135.217530297, 34.065930824 ], [ 135.217452142000013, 34.065876057 ], [ 135.217427105000013, 34.065864356 ], [ 135.217395759, 34.065855722 ], [ 135.217339783, 34.065847594 ], [ 135.217188593, 34.065836797 ], [ 135.217054674, 34.065820734 ], [ 135.216906431000012, 34.065784078 ], [ 135.216762171, 34.065726773 ], [ 135.216435431, 34.06556411 ], [ 135.21655912899999, 34.065525188 ], [ 135.216663606, 34.065468709 ], [ 135.216736469000011, 34.065418205 ], [ 135.216600029, 34.065316945 ], [ 135.21693511699999, 34.065219779 ], [ 135.216947159999989, 34.065226682 ], [ 135.217075412000014, 34.0652785 ], [ 135.21722725399999, 34.065332834 ], [ 135.217288586, 34.065342959 ], [ 135.21748329799999, 34.065359639 ], [ 135.217652023, 34.065377919 ], [ 135.217795658999989, 34.065438818 ], [ 135.218010232000012, 34.065620091 ], [ 135.218142597999986, 34.06570812 ], [ 135.21829389199999, 34.065804559 ], [ 135.218353423, 34.065847378 ], [ 135.218396425, 34.065863607 ], [ 135.218425758, 34.065868106 ], [ 135.218510129, 34.065870136 ], [ 135.218662576000014, 34.065865512 ], [ 135.21899592, 34.065847688 ], [ 135.219426188999989, 34.065823747 ], [ 135.219610264000011, 34.065818537 ], [ 135.220054543, 34.065819326 ], [ 135.220386190999989, 34.065815389 ], [ 135.220777739, 34.065814131 ], [ 135.22080130399999, 34.065998835 ], [ 135.220805954000014, 34.06609922 ], [ 135.220869177, 34.066323863 ], [ 135.22039608, 34.066328901 ], [ 135.21979982799999, 34.066333216 ], [ 135.219492342, 34.066333217 ], [ 135.219350663, 34.066343298 ], [ 135.219426489999989, 34.066509493 ], [ 135.219495924, 34.0666446 ], [ 135.219553708, 34.066744973 ], [ 135.219616136000013, 34.066929662 ], [ 135.21964592099999, 34.067081145 ], [ 135.219658514, 34.067137309 ], [ 135.219672870000011, 34.06717435 ], [ 135.21969797700001, 34.067221559 ], [ 135.21977418, 34.067348557 ], [ 135.21985018699999, 34.067550847 ], [ 135.2198615, 34.067638273 ], [ 135.219860842, 34.067710124 ], [ 135.219880029, 34.067874778 ], [ 135.219922673000013, 34.068358065 ], [ 135.220049286, 34.068324817 ], [ 135.220375894, 34.068233046 ], [ 135.22067722, 34.068165444 ], [ 135.220836235, 34.068131695 ], [ 135.221158728, 34.068032944 ], [ 135.221254972999986, 34.0680127 ], [ 135.22129303599999, 34.067960806 ], [ 135.221295121999987, 34.06793975 ], [ 135.22141164199999, 34.067908999 ], [ 135.22164856399999, 34.067808439 ], [ 135.22187966199999, 34.067705898 ], [ 135.222155676, 34.067551566 ], [ 135.222371718, 34.067434349 ], [ 135.2226298, 34.067319341 ], [ 135.222815094, 34.067242753 ], [ 135.222755521000011, 34.067132371 ], [ 135.22268431399999, 34.066997784 ], [ 135.222562431999989, 34.066783172 ], [ 135.222426622, 34.066558752 ], [ 135.222336848999987, 34.066410439 ], [ 135.222261059, 34.066266102 ], [ 135.222238440000012, 34.066184311 ], [ 135.222208919, 34.066090811 ], [ 135.222187485, 34.066014847 ], [ 135.222192632, 34.065977888 ], [ 135.22218987299999, 34.065969233 ], [ 135.222172196, 34.065907282 ], [ 135.222150574000011, 34.065844269 ], [ 135.222140789, 34.065821785 ], [ 135.221760601, 34.065819819 ], [ 135.221745957, 34.065780472 ], [ 135.221732479, 34.065755737 ], [ 135.221705111, 34.065716949 ], [ 135.221666653, 34.065668345 ], [ 135.221641819000013, 34.065669919 ], [ 135.221615858, 34.065673983 ], [ 135.22159250199999, 34.065681047 ], [ 135.221580679, 34.065665997 ], [ 135.221553454, 34.065592749 ], [ 135.221514801000012, 34.065475863 ], [ 135.221496624999986, 34.065419372 ], [ 135.22146432299999, 34.065374455 ], [ 135.221411010999987, 34.065327461 ], [ 135.221390215000014, 34.065302057 ], [ 135.221371932000011, 34.065257229 ], [ 135.221332604, 34.065214212 ], [ 135.221291009999987, 34.065163404 ], [ 135.221249238000013, 34.065132035 ], [ 135.221205094999988, 34.065104539 ], [ 135.221133021000014, 34.065065202 ], [ 135.221040025, 34.065014069 ], [ 135.22098182799999, 34.064990372 ], [ 135.220967898, 34.064980563 ], [ 135.220958962, 34.064935794 ], [ 135.22091779499999, 34.064838333 ], [ 135.220901814, 34.064797407 ], [ 135.22084800499999, 34.064753721 ], [ 135.220785242, 34.064718331 ], [ 135.22071429499999, 34.064811194 ], [ 135.220636657999989, 34.064869022 ], [ 135.220580352000013, 34.064893937 ], [ 135.220512507, 34.064903227 ], [ 135.220426094, 34.064898791 ], [ 135.220395596, 34.064912205 ], [ 135.22036491899999, 34.064945059 ], [ 135.220304101000011, 34.064952449 ], [ 135.22019896099999, 34.064951782 ], [ 135.220114830999989, 34.064953192 ], [ 135.220051587, 34.064970287 ], [ 135.219741483, 34.065032652 ], [ 135.219554176, 34.065074231 ], [ 135.219369169, 34.065119713 ], [ 135.219188941999988, 34.06515356 ], [ 135.219036734000014, 34.065189529 ], [ 135.21895, 34.065220082 ], [ 135.21879360599999, 34.065269845 ], [ 135.218756133, 34.065279326 ], [ 135.218716574000013, 34.065261579 ], [ 135.218658663000014, 34.065206778 ], [ 135.218600697999989, 34.06515781 ], [ 135.218573017000011, 34.065118753 ], [ 135.218460636, 34.065143311 ], [ 135.21828492099999, 34.065194682 ], [ 135.218191159000014, 34.065227133 ], [ 135.21812928899999, 34.065094547 ], [ 135.21807425, 34.064981444 ], [ 135.218033854999987, 34.064800394 ], [ 135.218156427999986, 34.064722722 ], [ 135.218250528, 34.064653337 ], [ 135.218351762999987, 34.064570388 ], [ 135.218389788, 34.064500645 ], [ 135.21841852099999, 34.064425012 ], [ 135.218438123, 34.064325992 ], [ 135.218439158, 34.064213246 ], [ 135.218399422, 34.063960272 ], [ 135.218302381, 34.063305607 ], [ 135.218252924000012, 34.063348061 ], [ 135.218133179, 34.063411451 ], [ 135.217894331, 34.063468252 ], [ 135.21765541100001, 34.063532828 ], [ 135.217449128999988, 34.063605387 ], [ 135.217146858, 34.063788164 ], [ 135.21702233100001, 34.063863187 ], [ 135.216890866, 34.06393039 ], [ 135.216820523, 34.063957158 ], [ 135.216694088999986, 34.063985513 ], [ 135.216364118, 34.06404173 ], [ 135.215793917000013, 34.064135539 ], [ 135.215541315, 34.064163087 ], [ 135.215344769000012, 34.064192936 ], [ 135.21516422, 34.064261768 ], [ 135.21505629699999, 34.064309679 ], [ 135.214999756999987, 34.064359862 ], [ 135.214945445000012, 34.064421723 ], [ 135.214848953, 34.064496923 ], [ 135.214833655, 34.064382129 ], [ 135.214811188, 34.064284785 ], [ 135.214747209, 34.0640567 ], [ 135.21472738, 34.064054669 ], [ 135.214431039, 34.064077027 ], [ 135.21438420699999, 34.064078261 ], [ 135.214266079, 34.06409029 ], [ 135.214181416, 34.064104607 ], [ 135.21414435599999, 34.064151595 ], [ 135.214039802, 34.064124987 ], [ 135.214066443, 34.064060163 ], [ 135.214071514000011, 34.064015477 ], [ 135.214074458999988, 34.063964034 ], [ 135.21410223699999, 34.063798321 ], [ 135.21412228299999, 34.063688645 ], [ 135.21404784500001, 34.06368679 ], [ 135.213972603, 34.063688572 ], [ 135.213928944, 34.063691186 ], [ 135.213894726, 34.06369424 ], [ 135.21383133, 34.063700254 ], [ 135.213774683, 34.063704941 ], [ 135.213740171000012, 34.063705883 ], [ 135.213715377999989, 34.063705436 ], [ 135.213694527, 34.063705149 ], [ 135.213662744, 34.06370738 ], [ 135.21347854199999, 34.063726875 ], [ 135.21321940199999, 34.063756393 ], [ 135.21320482199999, 34.063765594 ], [ 135.213188438, 34.063796594 ], [ 135.21315381, 34.063806497 ], [ 135.21310038499999, 34.063816989 ], [ 135.21293424699999, 34.063840235 ], [ 135.21288553, 34.063841537 ], [ 135.212869149999989, 34.06384392 ], [ 135.21283417699999, 34.063854885 ], [ 135.212813266000012, 34.06386923 ], [ 135.212777769000013, 34.063873619 ], [ 135.21276404, 34.063814216 ], [ 135.212722684, 34.063550149 ], [ 135.212679411000011, 34.063536673 ], [ 135.212540284999989, 34.063498852 ], [ 135.212437168, 34.063475147 ], [ 135.21247150799999, 34.063408515 ], [ 135.212405396, 34.063411128 ], [ 135.212348636, 34.063410764 ], [ 135.2123263, 34.063403164 ], [ 135.212280249, 34.063375527 ], [ 135.21222681, 34.063339142 ], [ 135.212165776, 34.06331638 ], [ 135.212106225000014, 34.063294871 ], [ 135.212022901000012, 34.063259537 ], [ 135.21192469799999, 34.063217895 ], [ 135.211872684000014, 34.063188976 ], [ 135.21185039400001, 34.063176405 ], [ 135.21174896299999, 34.063160841 ], [ 135.211519110000012, 34.063140724 ], [ 135.211399975, 34.06314729 ], [ 135.211219102, 34.063161043 ], [ 135.211092001999987, 34.063175141 ], [ 135.21082436899999, 34.063202008 ], [ 135.21075995699999, 34.063221479 ], [ 135.210580313, 34.063263825 ], [ 135.210406666000011, 34.063303722 ], [ 135.210280909, 34.063333985 ], [ 135.210037628, 34.063378517 ], [ 135.20999578199999, 34.063380733 ], [ 135.209649750000011, 34.063415829 ], [ 135.209533442, 34.062967396 ], [ 135.209432905999989, 34.062983603 ], [ 135.20946802, 34.063105641 ], [ 135.20922276499999, 34.063135493 ], [ 135.209195263999987, 34.062972711 ], [ 135.20900328799999, 34.062973907 ], [ 135.208990316000012, 34.063137351 ], [ 135.208981489, 34.063248581 ], [ 135.208972431, 34.063406425 ], [ 135.208959811999989, 34.063538983 ], [ 135.208935136, 34.063656939 ], [ 135.20891148199999, 34.063770009 ], [ 135.208913886, 34.063845909 ], [ 135.20890857099999, 34.063971773 ], [ 135.208891165000011, 34.064070323 ] ] ] } },
{ "type": "Feature", "properties": { "A29_001": "30366", "A29_002": "和歌山県", "A29_003": "有田川町", "A29_004": 5, "A29_005": "第一種住居地域", "A29_006": 60, "A29_007": 200, "A29_008": null }, "geometry": { "type": "Polygon", "coordinates": [ [ [ 135.243556995, 34.065999368 ], [ 135.243194882000012, 34.066137045 ], [ 135.242915001999989, 34.066247339 ], [ 135.24269343, 34.066318916 ], [ 135.24234536099999, 34.06639312 ], [ 135.242003103, 34.066464696 ], [ 135.24155534499999, 34.066547445 ], [ 135.24121085499999, 34.066593929 ], [ 135.240482656000012, 34.066668041 ], [ 135.240100352000013, 34.066705401 ], [ 135.23975938000001, 34.066724996 ], [ 135.239424323, 34.066735945 ], [ 135.239215051, 34.06674708 ], [ 135.239027599, 34.066764252 ], [ 135.238819522999989, 34.066808559 ], [ 135.237777427, 34.067021836 ], [ 135.23725188099999, 34.067120337 ], [ 135.23702098699999, 34.067144305 ], [ 135.236670245, 34.067169381 ], [ 135.236368314, 34.067170299 ], [ 135.235823810999989, 34.067182533 ], [ 135.235536231, 34.067181974 ], [ 135.235172368, 34.067147577 ], [ 135.234664462000012, 34.067071014 ], [ 135.23387503399999, 34.066980152 ], [ 135.233536565, 34.066926342 ], [ 135.23308219899999, 34.066788046 ], [ 135.23302368, 34.066871343 ], [ 135.233005346, 34.067006513 ], [ 135.23298673299999, 34.067202892 ], [ 135.23294053, 34.067375931 ], [ 135.2328679, 34.067509187 ], [ 135.232874508, 34.067766743 ], [ 135.232913327, 34.06807491 ], [ 135.23345660699999, 34.068049711 ], [ 135.23382225099999, 34.068068781 ], [ 135.234120993, 34.068104101 ], [ 135.234420285999988, 34.068130886 ], [ 135.234798340999987, 34.068173866 ], [ 135.235104537000012, 34.068186173 ], [ 135.235501672, 34.068198164 ], [ 135.236111556, 34.06822218 ], [ 135.236597842, 34.068245188 ], [ 135.23714636299999, 34.068258626 ], [ 135.23752422199999, 34.068248843 ], [ 135.23756193299999, 34.068443853 ], [ 135.23760948, 34.068715521 ], [ 135.237647759999987, 34.068847068 ], [ 135.23773265299999, 34.069043783 ], [ 135.238393637, 34.068795029 ], [ 135.239058214000011, 34.068563975 ], [ 135.23957894599999, 34.068377985 ], [ 135.239632497, 34.06841217 ], [ 135.23979315, 34.068514725 ], [ 135.239905128, 34.068573167 ], [ 135.240062539, 34.068636869 ], [ 135.240148491000014, 34.068661298 ], [ 135.24027970099999, 34.068683326 ], [ 135.24044332599999, 34.068721178 ], [ 135.24061760699999, 34.06877204 ], [ 135.240655672, 34.068798163 ], [ 135.240709001999988, 34.068857238 ], [ 135.240850365, 34.068956499 ], [ 135.24105811199999, 34.068810894 ], [ 135.24114071, 34.068864333 ], [ 135.241491309, 34.068520021 ], [ 135.241714793999989, 34.068258555 ], [ 135.241965201999989, 34.067978691 ], [ 135.242159751, 34.067740942 ], [ 135.242261821999989, 34.067567138 ], [ 135.24232360100001, 34.067402644 ], [ 135.242405291000011, 34.067259778 ], [ 135.242547441, 34.067100558 ], [ 135.242758772, 34.06691309 ], [ 135.24303399199999, 34.066740013 ], [ 135.24321889699999, 34.066579112 ], [ 135.243344654, 34.066403757 ], [ 135.243464890000013, 34.066214277 ], [ 135.243556995, 34.065999368 ] ] ] } }
]
}
